<?xml version="1.0" encoding="UTF-8" standalone="no" ?><gpx xmlns="http://www.topografix.com/GPX/1/1" xmlns:gpxx="http://www.garmin.com/xmlschemas/GpxExtensions/v3" ><trk><trkseg><trkpt lat="52.538799" lon="17.719637"><ele>0.0</ele></trkpt><trkpt lat="52.53908" lon="17.71941"><ele>0.0</ele></trkpt><trkpt lat="52.54051" lon="17.7192"><ele>0.0</ele></trkpt><trkpt lat="52.54198" lon="17.71876"><ele>0.0</ele></trkpt><trkpt lat="52.54881" lon="17.71468"><ele>0.0</ele></trkpt><trkpt lat="52.54924" lon="17.71365"><ele>0.0</ele></trkpt><trkpt lat="52.54947" lon="17.71274"><ele>0.0</ele></trkpt><trkpt lat="52.54975" lon="17.71108"><ele>0.0</ele></trkpt><trkpt lat="52.55267" lon="17.69885"><ele>0.0</ele></trkpt><trkpt lat="52.55303" lon="17.69862"><ele>0.0</ele></trkpt><trkpt lat="52.55375" lon="17.69788"><ele>0.0</ele></trkpt><trkpt lat="52.55429" lon="17.69751"><ele>0.0</ele></trkpt><trkpt lat="52.55668" lon="17.69681"><ele>0.0</ele></trkpt><trkpt lat="52.56543" lon="17.69211"><ele>0.0</ele></trkpt><trkpt lat="52.56566" lon="17.69132"><ele>0.0</ele></trkpt><trkpt lat="52.57114" lon="17.68339"><ele>0.0</ele></trkpt><trkpt lat="52.57197" lon="17.68244"><ele>0.0</ele></trkpt><trkpt lat="52.57554" lon="17.6773"><ele>0.0</ele></trkpt><trkpt lat="52.57552" lon="17.67317"><ele>0.0</ele></trkpt><trkpt lat="52.57519" lon="17.66963"><ele>0.0</ele></trkpt><trkpt lat="52.57527" lon="17.66919"><ele>0.0</ele></trkpt><trkpt lat="52.57548" lon="17.66882"><ele>0.0</ele></trkpt><trkpt lat="52.57575" lon="17.6687"><ele>0.0</ele></trkpt><trkpt lat="52.57637" lon="17.66865"><ele>0.0</ele></trkpt><trkpt lat="52.57698" lon="17.66886"><ele>0.0</ele></trkpt><trkpt lat="52.5777" lon="17.66839"><ele>0.0</ele></trkpt><trkpt lat="52.57958" lon="17.66668"><ele>0.0</ele></trkpt><trkpt lat="52.58215" lon="17.66496"><ele>0.0</ele></trkpt><trkpt lat="52.58274" lon="17.66415"><ele>0.0</ele></trkpt><trkpt lat="52.58299" lon="17.66324"><ele>0.0</ele></trkpt><trkpt lat="52.58342" lon="17.66351"><ele>0.0</ele></trkpt><trkpt lat="52.58462" lon="17.6636"><ele>0.0</ele></trkpt><trkpt lat="52.58502" lon="17.6638"><ele>0.0</ele></trkpt><trkpt lat="52.58542" lon="17.66419"><ele>0.0</ele></trkpt><trkpt lat="52.58597" lon="17.66439"><ele>0.0</ele></trkpt><trkpt lat="52.58785" lon="17.66594"><ele>0.0</ele></trkpt><trkpt lat="52.58813" lon="17.66631"><ele>0.0</ele></trkpt><trkpt lat="52.58841" lon="17.66637"><ele>0.0</ele></trkpt><trkpt lat="52.59095" lon="17.66638"><ele>0.0</ele></trkpt><trkpt lat="52.59293" lon="17.6653"><ele>0.0</ele></trkpt><trkpt lat="52.59385" lon="17.66366"><ele>0.0</ele></trkpt><trkpt lat="52.59535" lon="17.66246"><ele>0.0</ele></trkpt><trkpt lat="52.59656" lon="17.66668"><ele>0.0</ele></trkpt><trkpt lat="52.59483" lon="17.66707"><ele>0.0</ele></trkpt><trkpt lat="52.58248" lon="17.66126"><ele>0.0</ele></trkpt><trkpt lat="52.58228" lon="17.66087"><ele>0.0</ele></trkpt><trkpt lat="52.58092" lon="17.65984"><ele>0.0</ele></trkpt><trkpt lat="52.58107" lon="17.65937"><ele>0.0</ele></trkpt><trkpt lat="52.58198" lon="17.65889"><ele>0.0</ele></trkpt><trkpt lat="52.58243" lon="17.65826"><ele>0.0</ele></trkpt><trkpt lat="52.58371" lon="17.65706"><ele>0.0</ele></trkpt><trkpt lat="52.58531" lon="17.65498"><ele>0.0</ele></trkpt><trkpt lat="52.588" lon="17.65612"><ele>0.0</ele></trkpt><trkpt lat="52.58889" lon="17.65621"><ele>0.0</ele></trkpt><trkpt lat="52.59047" lon="17.65573"><ele>0.0</ele></trkpt><trkpt lat="52.59053" lon="17.65088"><ele>0.0</ele></trkpt><trkpt lat="52.59193" lon="17.63684"><ele>0.0</ele></trkpt><trkpt lat="52.5889" lon="17.62786"><ele>0.0</ele></trkpt><trkpt lat="52.58831" lon="17.62431"><ele>0.0</ele></trkpt><trkpt lat="52.58889" lon="17.62276"><ele>0.0</ele></trkpt><trkpt lat="52.58916" lon="17.62229"><ele>0.0</ele></trkpt><trkpt lat="52.58947" lon="17.62217"><ele>0.0</ele></trkpt><trkpt lat="52.5893" lon="17.62043"><ele>0.0</ele></trkpt><trkpt lat="52.5893" lon="17.61669"><ele>0.0</ele></trkpt><trkpt lat="52.591" lon="17.61759"><ele>0.0</ele></trkpt><trkpt lat="52.5913" lon="17.61786"><ele>0.0</ele></trkpt><trkpt lat="52.59151" lon="17.61819"><ele>0.0</ele></trkpt><trkpt lat="52.59164" lon="17.6186"><ele>0.0</ele></trkpt><trkpt lat="52.59286" lon="17.62169"><ele>0.0</ele></trkpt><trkpt lat="52.59314" lon="17.62182"><ele>0.0</ele></trkpt><trkpt lat="52.5936" lon="17.62174"><ele>0.0</ele></trkpt><trkpt lat="52.59391" lon="17.62153"><ele>0.0</ele></trkpt><trkpt lat="52.5943" lon="17.62105"><ele>0.0</ele></trkpt><trkpt lat="52.59579" lon="17.6196"><ele>0.0</ele></trkpt><trkpt lat="52.59644" lon="17.61937"><ele>0.0</ele></trkpt><trkpt lat="52.62348" lon="17.61025"><ele>0.0</ele></trkpt><trkpt lat="52.6245" lon="17.61041"><ele>0.0</ele></trkpt><trkpt lat="52.65157" lon="17.61864"><ele>0.0</ele></trkpt><trkpt lat="52.65193" lon="17.61888"><ele>0.0</ele></trkpt><trkpt lat="52.65253" lon="17.61897"><ele>0.0</ele></trkpt><trkpt lat="52.65396" lon="17.6195"><ele>0.0</ele></trkpt><trkpt lat="52.65404" lon="17.61995"><ele>0.0</ele></trkpt><trkpt lat="52.65431" lon="17.62021"><ele>0.0</ele></trkpt><trkpt lat="52.65435" lon="17.61972"><ele>0.0</ele></trkpt><trkpt lat="52.6546" lon="17.61919"><ele>0.0</ele></trkpt><trkpt lat="52.65501" lon="17.61883"><ele>0.0</ele></trkpt><trkpt lat="52.65868" lon="17.61843"><ele>0.0</ele></trkpt><trkpt lat="52.65939" lon="17.6182"><ele>0.0</ele></trkpt><trkpt lat="52.65973" lon="17.61783"><ele>0.0</ele></trkpt><trkpt lat="52.66111" lon="17.61483"><ele>0.0</ele></trkpt><trkpt lat="52.66199" lon="17.60978"><ele>0.0</ele></trkpt><trkpt lat="52.67066" lon="17.59149"><ele>0.0</ele></trkpt><trkpt lat="52.67162" lon="17.59134"><ele>0.0</ele></trkpt><trkpt lat="52.67506" lon="17.5924"><ele>0.0</ele></trkpt><trkpt lat="52.67879" lon="17.58982"><ele>0.0</ele></trkpt><trkpt lat="52.67879" lon="17.58933"><ele>0.0</ele></trkpt><trkpt lat="52.67931" lon="17.58817"><ele>0.0</ele></trkpt><trkpt lat="52.68" lon="17.58733"><ele>0.0</ele></trkpt><trkpt lat="52.6809" lon="17.58688"><ele>0.0</ele></trkpt><trkpt lat="52.68194" lon="17.58681"><ele>0.0</ele></trkpt><trkpt lat="52.68351" lon="17.58638"><ele>0.0</ele></trkpt><trkpt lat="52.68555" lon="17.58486"><ele>0.0</ele></trkpt><trkpt lat="52.68584" lon="17.58475"><ele>0.0</ele></trkpt><trkpt lat="52.68616" lon="17.58475"><ele>0.0</ele></trkpt><trkpt lat="52.68664" lon="17.58538"><ele>0.0</ele></trkpt><trkpt lat="52.68782" lon="17.58621"><ele>0.0</ele></trkpt><trkpt lat="52.68824" lon="17.58685"><ele>0.0</ele></trkpt><trkpt lat="52.68854" lon="17.58752"><ele>0.0</ele></trkpt><trkpt lat="52.68867" lon="17.58796"><ele>0.0</ele></trkpt><trkpt lat="52.68886" lon="17.58954"><ele>0.0</ele></trkpt><trkpt lat="52.68877" lon="17.59013"><ele>0.0</ele></trkpt><trkpt lat="52.68951" lon="17.59072"><ele>0.0</ele></trkpt><trkpt lat="52.6944" lon="17.59714"><ele>0.0</ele></trkpt><trkpt lat="52.69525" lon="17.59865"><ele>0.0</ele></trkpt><trkpt lat="52.70034" lon="17.60542"><ele>0.0</ele></trkpt><trkpt lat="52.70089" lon="17.60588"><ele>0.0</ele></trkpt><trkpt lat="52.7106" lon="17.61108"><ele>0.0</ele></trkpt><trkpt lat="52.71234" lon="17.61168"><ele>0.0</ele></trkpt><trkpt lat="52.71292" lon="17.61197"><ele>0.0</ele></trkpt><trkpt lat="52.71312" lon="17.61231"><ele>0.0</ele></trkpt><trkpt lat="52.71398" lon="17.61416"><ele>0.0</ele></trkpt><trkpt lat="52.72309" lon="17.6275"><ele>0.0</ele></trkpt><trkpt lat="52.72514" lon="17.62258"><ele>0.0</ele></trkpt><trkpt lat="52.7277" lon="17.61785"><ele>0.0</ele></trkpt><trkpt lat="52.72882" lon="17.61407"><ele>0.0</ele></trkpt><trkpt lat="52.7329" lon="17.60717"><ele>0.0</ele></trkpt><trkpt lat="52.73314" lon="17.60747"><ele>0.0</ele></trkpt><trkpt lat="52.73316" lon="17.61035"><ele>0.0</ele></trkpt><trkpt lat="52.73468" lon="17.61614"><ele>0.0</ele></trkpt><trkpt lat="52.7378" lon="17.61627"><ele>0.0</ele></trkpt><trkpt lat="52.74432" lon="17.61322"><ele>0.0</ele></trkpt><trkpt lat="52.74594" lon="17.61146"><ele>0.0</ele></trkpt><trkpt lat="52.74673" lon="17.61269"><ele>0.0</ele></trkpt><trkpt lat="52.74733" lon="17.61426"><ele>0.0</ele></trkpt><trkpt lat="52.74687" lon="17.61626"><ele>0.0</ele></trkpt><trkpt lat="52.74701" lon="17.61689"><ele>0.0</ele></trkpt><trkpt lat="52.75149" lon="17.62088"><ele>0.0</ele></trkpt><trkpt lat="52.75489" lon="17.6161"><ele>0.0</ele></trkpt><trkpt lat="52.76375" lon="17.6057"><ele>0.0</ele></trkpt><trkpt lat="52.77332" lon="17.592"><ele>0.0</ele></trkpt><trkpt lat="52.77674" lon="17.59021"><ele>0.0</ele></trkpt><trkpt lat="52.77763" lon="17.58955"><ele>0.0</ele></trkpt><trkpt lat="52.77853" lon="17.58866"><ele>0.0</ele></trkpt><trkpt lat="52.77934" lon="17.5875"><ele>0.0</ele></trkpt><trkpt lat="52.78" lon="17.5853"><ele>0.0</ele></trkpt><trkpt lat="52.78031" lon="17.5755"><ele>0.0</ele></trkpt><trkpt lat="52.77917" lon="17.54073"><ele>0.0</ele></trkpt><trkpt lat="52.77892" lon="17.5401"><ele>0.0</ele></trkpt><trkpt lat="52.77894" lon="17.53849"><ele>0.0</ele></trkpt><trkpt lat="52.77868" lon="17.53601"><ele>0.0</ele></trkpt><trkpt lat="52.77422" lon="17.52113"><ele>0.0</ele></trkpt><trkpt lat="52.77419" lon="17.51952"><ele>0.0</ele></trkpt><trkpt lat="52.77389" lon="17.51677"><ele>0.0</ele></trkpt><trkpt lat="52.77276" lon="17.51224"><ele>0.0</ele></trkpt><trkpt lat="52.77269" lon="17.51141"><ele>0.0</ele></trkpt><trkpt lat="52.77271" lon="17.50988"><ele>0.0</ele></trkpt><trkpt lat="52.77173" lon="17.50386"><ele>0.0</ele></trkpt><trkpt lat="52.77007" lon="17.49702"><ele>0.0</ele></trkpt><trkpt lat="52.77007" lon="17.49629"><ele>0.0</ele></trkpt><trkpt lat="52.77041" lon="17.4951"><ele>0.0</ele></trkpt><trkpt lat="52.77025" lon="17.49292"><ele>0.0</ele></trkpt><trkpt lat="52.76958" lon="17.49264"><ele>0.0</ele></trkpt><trkpt lat="52.76882" lon="17.4922"><ele>0.0</ele></trkpt><trkpt lat="52.7601" lon="17.48514"><ele>0.0</ele></trkpt><trkpt lat="52.76028" lon="17.48444"><ele>0.0</ele></trkpt><trkpt lat="52.76041" lon="17.48373"><ele>0.0</ele></trkpt><trkpt lat="52.76124" lon="17.48038"><ele>0.0</ele></trkpt><trkpt lat="52.76132" lon="17.47593"><ele>0.0</ele></trkpt><trkpt lat="52.76035" lon="17.45011"><ele>0.0</ele></trkpt><trkpt lat="52.76042" lon="17.44947"><ele>0.0</ele></trkpt><trkpt lat="52.7609" lon="17.44759"><ele>0.0</ele></trkpt><trkpt lat="52.76212" lon="17.44425"><ele>0.0</ele></trkpt><trkpt lat="52.76165" lon="17.4393"><ele>0.0</ele></trkpt><trkpt lat="52.76176" lon="17.4385"><ele>0.0</ele></trkpt><trkpt lat="52.76276" lon="17.43429"><ele>0.0</ele></trkpt><trkpt lat="52.76476" lon="17.4214"><ele>0.0</ele></trkpt><trkpt lat="52.76337" lon="17.41947"><ele>0.0</ele></trkpt><trkpt lat="52.75917" lon="17.4097"><ele>0.0</ele></trkpt><trkpt lat="52.75913" lon="17.40895"><ele>0.0</ele></trkpt><trkpt lat="52.75919" lon="17.39793"><ele>0.0</ele></trkpt><trkpt lat="52.75961" lon="17.39494"><ele>0.0</ele></trkpt><trkpt lat="52.75941" lon="17.39364"><ele>0.0</ele></trkpt><trkpt lat="52.75895" lon="17.39172"><ele>0.0</ele></trkpt><trkpt lat="52.75855" lon="17.3907"><ele>0.0</ele></trkpt><trkpt lat="52.75852" lon="17.39016"><ele>0.0</ele></trkpt><trkpt lat="52.75855" lon="17.38935"><ele>0.0</ele></trkpt><trkpt lat="52.75865" lon="17.38893"><ele>0.0</ele></trkpt><trkpt lat="52.76016" lon="17.38429"><ele>0.0</ele></trkpt><trkpt lat="52.76573" lon="17.37753"><ele>0.0</ele></trkpt><trkpt lat="52.76962" lon="17.37371"><ele>0.0</ele></trkpt><trkpt lat="52.77006" lon="17.37345"><ele>0.0</ele></trkpt><trkpt lat="52.77027" lon="17.37119"><ele>0.0</ele></trkpt><trkpt lat="52.77026" lon="17.3684"><ele>0.0</ele></trkpt><trkpt lat="52.76757" lon="17.35647"><ele>0.0</ele></trkpt><trkpt lat="52.76515" lon="17.35111"><ele>0.0</ele></trkpt><trkpt lat="52.76231" lon="17.34616"><ele>0.0</ele></trkpt><trkpt lat="52.75925" lon="17.33956"><ele>0.0</ele></trkpt><trkpt lat="52.75727" lon="17.33626"><ele>0.0</ele></trkpt><trkpt lat="52.75691" lon="17.33605"><ele>0.0</ele></trkpt><trkpt lat="52.75597" lon="17.33645"><ele>0.0</ele></trkpt><trkpt lat="52.75062" lon="17.33013"><ele>0.0</ele></trkpt><trkpt lat="52.75078" lon="17.32945"><ele>0.0</ele></trkpt><trkpt lat="52.75064" lon="17.32859"><ele>0.0</ele></trkpt><trkpt lat="52.74995" lon="17.32657"><ele>0.0</ele></trkpt><trkpt lat="52.74984" lon="17.32519"><ele>0.0</ele></trkpt><trkpt lat="52.75008" lon="17.32046"><ele>0.0</ele></trkpt><trkpt lat="52.75266" lon="17.30802"><ele>0.0</ele></trkpt><trkpt lat="52.75439" lon="17.30991"><ele>0.0</ele></trkpt><trkpt lat="52.77914" lon="17.29184"><ele>0.0</ele></trkpt><trkpt lat="52.78392" lon="17.29173"><ele>0.0</ele></trkpt><trkpt lat="52.78493" lon="17.29138"><ele>0.0</ele></trkpt><trkpt lat="52.7854" lon="17.2911"><ele>0.0</ele></trkpt><trkpt lat="52.78667" lon="17.28995"><ele>0.0</ele></trkpt><trkpt lat="52.78756" lon="17.28804"><ele>0.0</ele></trkpt><trkpt lat="52.78874" lon="17.28452"><ele>0.0</ele></trkpt><trkpt lat="52.80224" lon="17.24396"><ele>0.0</ele></trkpt><trkpt lat="52.809097" lon="17.202221"><ele>0.0</ele></trkpt></trkseg></trk></gpx>