<?xml version="1.0" encoding="UTF-8" standalone="no" ?><gpx xmlns="http://www.topografix.com/GPX/1/1" xmlns:gpxx="http://www.garmin.com/xmlschemas/GpxExtensions/v3" ><trk><trkseg><trkpt lat="49.457062" lon="21.16205"></trkpt><trkpt lat="49.457372" lon="21.16181"></trkpt><trkpt lat="49.457643" lon="21.161721"></trkpt><trkpt lat="49.464854" lon="21.160356"></trkpt><trkpt lat="49.465187" lon="21.160641"></trkpt><trkpt lat="49.465793" lon="21.161051"></trkpt><trkpt lat="49.466131" lon="21.161159"></trkpt><trkpt lat="49.466911" lon="21.1613"></trkpt><trkpt lat="49.468676" lon="21.161308"></trkpt><trkpt lat="49.468954" lon="21.161205"></trkpt><trkpt lat="49.469315" lon="21.160962"></trkpt><trkpt lat="49.469656" lon="21.160929"></trkpt><trkpt lat="49.469953" lon="21.160818"></trkpt><trkpt lat="49.473664" lon="21.158725"></trkpt><trkpt lat="49.473436" lon="21.158385"></trkpt><trkpt lat="49.470373" lon="21.152843"></trkpt><trkpt lat="49.470291" lon="21.152441"></trkpt><trkpt lat="49.46995" lon="21.151262"></trkpt><trkpt lat="49.469731" lon="21.150876"></trkpt><trkpt lat="49.46956" lon="21.150454"></trkpt><trkpt lat="49.469459" lon="21.14994"></trkpt><trkpt lat="49.469388" lon="21.14932"></trkpt><trkpt lat="49.469301" lon="21.148896"></trkpt><trkpt lat="49.469152" lon="21.148352"></trkpt><trkpt lat="49.468925" lon="21.147134"></trkpt><trkpt lat="49.469003" lon="21.146681"></trkpt><trkpt lat="49.469015" lon="21.146208"></trkpt><trkpt lat="49.469082" lon="21.145531"></trkpt><trkpt lat="49.469487" lon="21.143083"></trkpt><trkpt lat="49.469611" lon="21.14254"></trkpt><trkpt lat="49.469642" lon="21.14207"></trkpt><trkpt lat="49.469722" lon="21.141493"></trkpt><trkpt lat="49.469949" lon="21.140976"></trkpt><trkpt lat="49.470078" lon="21.140405"></trkpt><trkpt lat="49.470205" lon="21.140024"></trkpt><trkpt lat="49.470309" lon="21.139367"></trkpt><trkpt lat="49.470338" lon="21.138924"></trkpt><trkpt lat="49.470165" lon="21.138563"></trkpt><trkpt lat="49.469713" lon="21.137375"></trkpt><trkpt lat="49.469275" lon="21.135931"></trkpt><trkpt lat="49.4691" lon="21.135482"></trkpt><trkpt lat="49.467206" lon="21.131507"></trkpt><trkpt lat="49.466993" lon="21.131163"></trkpt><trkpt lat="49.466629" lon="21.130677"></trkpt><trkpt lat="49.466356" lon="21.130442"></trkpt><trkpt lat="49.464348" lon="21.128337"></trkpt><trkpt lat="49.464148" lon="21.128026"></trkpt><trkpt lat="49.460158" lon="21.122878"></trkpt><trkpt lat="49.459809" lon="21.122677"></trkpt><trkpt lat="49.459473" lon="21.122366"></trkpt><trkpt lat="49.459088" lon="21.122077"></trkpt><trkpt lat="49.45887" lon="21.122393"></trkpt><trkpt lat="49.458328" lon="21.12289"></trkpt><trkpt lat="49.458053" lon="21.122808"></trkpt><trkpt lat="49.457659" lon="21.123099"></trkpt><trkpt lat="49.457368" lon="21.12338"></trkpt><trkpt lat="49.457059" lon="21.12361"></trkpt><trkpt lat="49.456566" lon="21.123814"></trkpt><trkpt lat="49.456192" lon="21.123916"></trkpt><trkpt lat="49.455877" lon="21.124138"></trkpt><trkpt lat="49.455546" lon="21.124438"></trkpt><trkpt lat="49.455396" lon="21.124815"></trkpt><trkpt lat="49.455369" lon="21.125479"></trkpt><trkpt lat="49.455173" lon="21.125931"></trkpt><trkpt lat="49.454904" lon="21.126407"></trkpt><trkpt lat="49.455059" lon="21.126903"></trkpt><trkpt lat="49.454997" lon="21.127314"></trkpt><trkpt lat="49.45467" lon="21.127618"></trkpt><trkpt lat="49.454439" lon="21.127932"></trkpt><trkpt lat="49.454108" lon="21.127975"></trkpt><trkpt lat="49.453842" lon="21.128051"></trkpt><trkpt lat="49.453553" lon="21.128265"></trkpt><trkpt lat="49.452744" lon="21.129045"></trkpt><trkpt lat="49.452548" lon="21.129373"></trkpt><trkpt lat="49.452186" lon="21.130139"></trkpt><trkpt lat="49.452168" lon="21.13063"></trkpt><trkpt lat="49.452188" lon="21.131071"></trkpt><trkpt lat="49.452238" lon="21.130657"></trkpt><trkpt lat="49.452234" lon="21.13022"></trkpt><trkpt lat="49.451883" lon="21.130421"></trkpt><trkpt lat="49.451489" lon="21.130714"></trkpt><trkpt lat="49.451138" lon="21.131053"></trkpt><trkpt lat="49.450866" lon="21.131222"></trkpt><trkpt lat="49.450617" lon="21.13142"></trkpt><trkpt lat="49.448908" lon="21.133093"></trkpt><trkpt lat="49.448134" lon="21.134029"></trkpt><trkpt lat="49.447328" lon="21.135205"></trkpt><trkpt lat="49.447144" lon="21.13559"></trkpt><trkpt lat="49.446952" lon="21.136122"></trkpt><trkpt lat="49.44584" lon="21.138591"></trkpt><trkpt lat="49.445609" lon="21.138843"></trkpt><trkpt lat="49.445405" lon="21.138371"></trkpt><trkpt lat="49.445112" lon="21.138191"></trkpt><trkpt lat="49.445127" lon="21.137754"></trkpt><trkpt lat="49.445272" lon="21.138126"></trkpt><trkpt lat="49.44548" lon="21.138561"></trkpt><trkpt lat="49.445451" lon="21.139114"></trkpt><trkpt lat="49.445156" lon="21.139435"></trkpt><trkpt lat="49.445001" lon="21.139958"></trkpt><trkpt lat="49.444996" lon="21.140447"></trkpt><trkpt lat="49.444752" lon="21.140852"></trkpt><trkpt lat="49.444487" lon="21.141113"></trkpt><trkpt lat="49.444429" lon="21.14152"></trkpt><trkpt lat="49.444401" lon="21.141943"></trkpt><trkpt lat="49.444241" lon="21.142371"></trkpt><trkpt lat="49.443889" lon="21.142544"></trkpt><trkpt lat="49.442787" lon="21.143522"></trkpt><trkpt lat="49.442605" lon="21.143941"></trkpt><trkpt lat="49.442332" lon="21.144204"></trkpt><trkpt lat="49.441974" lon="21.144691"></trkpt><trkpt lat="49.44179" lon="21.145194"></trkpt><trkpt lat="49.44158" lon="21.145592"></trkpt><trkpt lat="49.441284" lon="21.145943"></trkpt><trkpt lat="49.440856" lon="21.146208"></trkpt><trkpt lat="49.440642" lon="21.146635"></trkpt><trkpt lat="49.440466" lon="21.147121"></trkpt><trkpt lat="49.440296" lon="21.14771"></trkpt><trkpt lat="49.440103" lon="21.148864"></trkpt><trkpt lat="49.439814" lon="21.151622"></trkpt><trkpt lat="49.439853" lon="21.152078"></trkpt><trkpt lat="49.440765" lon="21.15798"></trkpt><trkpt lat="49.440934" lon="21.158361"></trkpt><trkpt lat="49.441463" lon="21.15984"></trkpt><trkpt lat="49.4415" lon="21.160293"></trkpt><trkpt lat="49.441809" lon="21.162443"></trkpt><trkpt lat="49.442201" lon="21.167345"></trkpt><trkpt lat="49.44221" lon="21.168154"></trkpt><trkpt lat="49.442097" lon="21.169921"></trkpt><trkpt lat="49.441981" lon="21.170444"></trkpt><trkpt lat="49.441424" lon="21.172271"></trkpt><trkpt lat="49.440892" lon="21.173316"></trkpt><trkpt lat="49.440469" lon="21.173329"></trkpt><trkpt lat="49.439742" lon="21.172802"></trkpt></trkseg></trk></gpx>