<?xml version="1.0" encoding="UTF-8" standalone="no" ?><gpx xmlns="http://www.topografix.com/GPX/1/1" xmlns:gpxx="http://www.garmin.com/xmlschemas/GpxExtensions/v3" ><trk><trkseg><trkpt lat="50.852244" lon="16.009281"></trkpt><trkpt lat="50.852457" lon="16.008915"></trkpt><trkpt lat="50.852607" lon="16.008488"></trkpt><trkpt lat="50.852896" lon="16.007415"></trkpt><trkpt lat="50.853749" lon="16.002572"></trkpt><trkpt lat="50.853386" lon="16.002263"></trkpt><trkpt lat="50.853327" lon="16.001723"></trkpt><trkpt lat="50.853239" lon="15.9999"></trkpt><trkpt lat="50.852649" lon="15.99513"></trkpt><trkpt lat="50.852316" lon="15.994916"></trkpt><trkpt lat="50.85148" lon="15.994567"></trkpt><trkpt lat="50.851077" lon="15.994644"></trkpt><trkpt lat="50.849782" lon="15.994675"></trkpt><trkpt lat="50.849388" lon="15.994544"></trkpt><trkpt lat="50.849096" lon="15.994333"></trkpt><trkpt lat="50.848812" lon="15.993958"></trkpt><trkpt lat="50.848575" lon="15.993585"></trkpt><trkpt lat="50.84708" lon="15.990749"></trkpt><trkpt lat="50.8469" lon="15.990221"></trkpt><trkpt lat="50.84326" lon="15.981799"></trkpt><trkpt lat="50.842809" lon="15.981767"></trkpt><trkpt lat="50.842462" lon="15.981684"></trkpt><trkpt lat="50.84219" lon="15.98167"></trkpt><trkpt lat="50.8419" lon="15.981462"></trkpt><trkpt lat="50.84118" lon="15.981085"></trkpt><trkpt lat="50.840543" lon="15.98059"></trkpt><trkpt lat="50.840278" lon="15.980233"></trkpt><trkpt lat="50.83999" lon="15.979713"></trkpt><trkpt lat="50.837973" lon="15.976657"></trkpt><trkpt lat="50.837468" lon="15.975622"></trkpt><trkpt lat="50.83731" lon="15.975"></trkpt><trkpt lat="50.837243" lon="15.97443"></trkpt><trkpt lat="50.836907" lon="15.972645"></trkpt><trkpt lat="50.836704" lon="15.972034"></trkpt><trkpt lat="50.83683" lon="15.972555"></trkpt><trkpt lat="50.83652" lon="15.972808"></trkpt><trkpt lat="50.836256" lon="15.973079"></trkpt><trkpt lat="50.835995" lon="15.97327"></trkpt><trkpt lat="50.835594" lon="15.973778"></trkpt><trkpt lat="50.835212" lon="15.974162"></trkpt><trkpt lat="50.834897" lon="15.974198"></trkpt><trkpt lat="50.834266" lon="15.974367"></trkpt><trkpt lat="50.833365" lon="15.97441"></trkpt><trkpt lat="50.833019" lon="15.974241"></trkpt><trkpt lat="50.832515" lon="15.97407"></trkpt><trkpt lat="50.832134" lon="15.974103"></trkpt><trkpt lat="50.828535" lon="15.973279"></trkpt><trkpt lat="50.828269" lon="15.973162"></trkpt><trkpt lat="50.828213" lon="15.972742"></trkpt><trkpt lat="50.828214" lon="15.973181"></trkpt><trkpt lat="50.827977" lon="15.972974"></trkpt><trkpt lat="50.827625" lon="15.972817"></trkpt><trkpt lat="50.827331" lon="15.972835"></trkpt><trkpt lat="50.826399" lon="15.972555"></trkpt><trkpt lat="50.826068" lon="15.972313"></trkpt><trkpt lat="50.825728" lon="15.972196"></trkpt><trkpt lat="50.82527" lon="15.972174"></trkpt><trkpt lat="50.824892" lon="15.97196"></trkpt><trkpt lat="50.824562" lon="15.972007"></trkpt><trkpt lat="50.824954" lon="15.972168"></trkpt><trkpt lat="50.825265" lon="15.972139"></trkpt><trkpt lat="50.825809" lon="15.972294"></trkpt><trkpt lat="50.826159" lon="15.972529"></trkpt><trkpt lat="50.826553" lon="15.972718"></trkpt><trkpt lat="50.826967" lon="15.972781"></trkpt><trkpt lat="50.828089" lon="15.973116"></trkpt><trkpt lat="50.82834" lon="15.973306"></trkpt><trkpt lat="50.828299" lon="15.973775"></trkpt><trkpt lat="50.827999" lon="15.973809"></trkpt><trkpt lat="50.828269" lon="15.97376"></trkpt><trkpt lat="50.828587" lon="15.974122"></trkpt><trkpt lat="50.828353" lon="15.973819"></trkpt><trkpt lat="50.828486" lon="15.973425"></trkpt><trkpt lat="50.82889" lon="15.97364"></trkpt><trkpt lat="50.829341" lon="15.973772"></trkpt><trkpt lat="50.829784" lon="15.973779"></trkpt><trkpt lat="50.830185" lon="15.973858"></trkpt><trkpt lat="50.835192" lon="15.974106"></trkpt><trkpt lat="50.835483" lon="15.974316"></trkpt><trkpt lat="50.835579" lon="15.974804"></trkpt><trkpt lat="50.835614" lon="15.97528"></trkpt><trkpt lat="50.835517" lon="15.974654"></trkpt><trkpt lat="50.835473" lon="15.973916"></trkpt><trkpt lat="50.835693" lon="15.973622"></trkpt><trkpt lat="50.836218" lon="15.973092"></trkpt><trkpt lat="50.836943" lon="15.97267"></trkpt><trkpt lat="50.837089" lon="15.973141"></trkpt><trkpt lat="50.837195" lon="15.973828"></trkpt><trkpt lat="50.837721" lon="15.976243"></trkpt><trkpt lat="50.838011" lon="15.976681"></trkpt><trkpt lat="50.841761" lon="15.981341"></trkpt><trkpt lat="50.842132" lon="15.981512"></trkpt><trkpt lat="50.842785" lon="15.981668"></trkpt><trkpt lat="50.843948" lon="15.982243"></trkpt><trkpt lat="50.844197" lon="15.982551"></trkpt><trkpt lat="50.844979" lon="15.983736"></trkpt><trkpt lat="50.845141" lon="15.984253"></trkpt><trkpt lat="50.849053" lon="15.994278"></trkpt><trkpt lat="50.849359" lon="15.994491"></trkpt><trkpt lat="50.84967" lon="15.994592"></trkpt><trkpt lat="50.850162" lon="15.994662"></trkpt><trkpt lat="50.852044" lon="15.99466"></trkpt><trkpt lat="50.852348" lon="15.994839"></trkpt><trkpt lat="50.853007" lon="15.995381"></trkpt><trkpt lat="50.852729" lon="15.996198"></trkpt><trkpt lat="50.853045" lon="15.995714"></trkpt><trkpt lat="50.85318" lon="15.996129"></trkpt><trkpt lat="50.853157" lon="15.996607"></trkpt><trkpt lat="50.853209" lon="15.997193"></trkpt><trkpt lat="50.853192" lon="15.997636"></trkpt><trkpt lat="50.853222" lon="15.998727"></trkpt><trkpt lat="50.853587" lon="16.002439"></trkpt><trkpt lat="50.853926" lon="16.002788"></trkpt><trkpt lat="50.854148" lon="16.003323"></trkpt><trkpt lat="50.85401" lon="16.003995"></trkpt><trkpt lat="50.853835" lon="16.00458"></trkpt><trkpt lat="50.853647" lon="16.005677"></trkpt><trkpt lat="50.853306" lon="16.006033"></trkpt><trkpt lat="50.853189" lon="16.006488"></trkpt><trkpt lat="50.853027" lon="16.006959"></trkpt><trkpt lat="50.852932" lon="16.007378"></trkpt><trkpt lat="50.852491" lon="16.008854"></trkpt><trkpt lat="50.852233" lon="16.009333"></trkpt><trkpt lat="50.851829" lon="16.008909"></trkpt><trkpt lat="50.851646" lon="16.008438"></trkpt><trkpt lat="50.851343" lon="16.007979"></trkpt></trkseg><trkseg><trkpt lat="50.863474" lon="15.872741"></trkpt><trkpt lat="50.863838" lon="15.87274"></trkpt><trkpt lat="50.864344" lon="15.872664"></trkpt><trkpt lat="50.864618" lon="15.87228"></trkpt><trkpt lat="50.865087" lon="15.871732"></trkpt><trkpt lat="50.864867" lon="15.872135"></trkpt><trkpt lat="50.864627" lon="15.87249"></trkpt><trkpt lat="50.864265" lon="15.87276"></trkpt><trkpt lat="50.863991" lon="15.87272"></trkpt><trkpt lat="50.863639" lon="15.872722"></trkpt><trkpt lat="50.863376" lon="15.873067"></trkpt><trkpt lat="50.86347" lon="15.872622"></trkpt><trkpt lat="50.863761" lon="15.872702"></trkpt><trkpt lat="50.864791" lon="15.872255"></trkpt><trkpt lat="50.865007" lon="15.871779"></trkpt><trkpt lat="50.865121" lon="15.871356"></trkpt><trkpt lat="50.865281" lon="15.870988"></trkpt><trkpt lat="50.865619" lon="15.870699"></trkpt><trkpt lat="50.8659" lon="15.870593"></trkpt><trkpt lat="50.866075" lon="15.870183"></trkpt><trkpt lat="50.866352" lon="15.870087"></trkpt><trkpt lat="50.866066" lon="15.869805"></trkpt><trkpt lat="50.865305" lon="15.869621"></trkpt><trkpt lat="50.864384" lon="15.869556"></trkpt><trkpt lat="50.863755" lon="15.86919"></trkpt><trkpt lat="50.863977" lon="15.868794"></trkpt><trkpt lat="50.864247" lon="15.86849"></trkpt><trkpt lat="50.864004" lon="15.868974"></trkpt><trkpt lat="50.863911" lon="15.869416"></trkpt><trkpt lat="50.864232" lon="15.869535"></trkpt><trkpt lat="50.864673" lon="15.869599"></trkpt><trkpt lat="50.866111" lon="15.870049"></trkpt><trkpt lat="50.865858" lon="15.870586"></trkpt><trkpt lat="50.8655" lon="15.870844"></trkpt><trkpt lat="50.865256" lon="15.871247"></trkpt><trkpt lat="50.865051" lon="15.871828"></trkpt><trkpt lat="50.864863" lon="15.872145"></trkpt><trkpt lat="50.864599" lon="15.872471"></trkpt><trkpt lat="50.864205" lon="15.872691"></trkpt><trkpt lat="50.863358" lon="15.872724"></trkpt><trkpt lat="50.863164" lon="15.873118"></trkpt><trkpt lat="50.862936" lon="15.872853"></trkpt><trkpt lat="50.863226" lon="15.8727"></trkpt><trkpt lat="50.863674" lon="15.872818"></trkpt><trkpt lat="50.8646" lon="15.872402"></trkpt><trkpt lat="50.864842" lon="15.872102"></trkpt><trkpt lat="50.865038" lon="15.871489"></trkpt><trkpt lat="50.865273" lon="15.871014"></trkpt><trkpt lat="50.865575" lon="15.870785"></trkpt><trkpt lat="50.865773" lon="15.870402"></trkpt><trkpt lat="50.865855" lon="15.869922"></trkpt><trkpt lat="50.866087" lon="15.869167"></trkpt><trkpt lat="50.866336" lon="15.86882"></trkpt><trkpt lat="50.866638" lon="15.868473"></trkpt><trkpt lat="50.866853" lon="15.868977"></trkpt><trkpt lat="50.866856" lon="15.869547"></trkpt><trkpt lat="50.867019" lon="15.870425"></trkpt><trkpt lat="50.867377" lon="15.870783"></trkpt><trkpt lat="50.867604" lon="15.871106"></trkpt><trkpt lat="50.86791" lon="15.871689"></trkpt><trkpt lat="50.868597" lon="15.872734"></trkpt><trkpt lat="50.868887" lon="15.872884"></trkpt><trkpt lat="50.869456" lon="15.8729"></trkpt><trkpt lat="50.869962" lon="15.872555"></trkpt><trkpt lat="50.870267" lon="15.872482"></trkpt><trkpt lat="50.870793" lon="15.872437"></trkpt><trkpt lat="50.872183" lon="15.872834"></trkpt><trkpt lat="50.872517" lon="15.872658"></trkpt><trkpt lat="50.872731" lon="15.872368"></trkpt><trkpt lat="50.873026" lon="15.872177"></trkpt><trkpt lat="50.87369" lon="15.87156"></trkpt><trkpt lat="50.87399" lon="15.871428"></trkpt><trkpt lat="50.874834" lon="15.87086"></trkpt><trkpt lat="50.87504" lon="15.870512"></trkpt><trkpt lat="50.875287" lon="15.869965"></trkpt><trkpt lat="50.875853" lon="15.869302"></trkpt><trkpt lat="50.876197" lon="15.869383"></trkpt><trkpt lat="50.87662" lon="15.869358"></trkpt><trkpt lat="50.87699" lon="15.869034"></trkpt><trkpt lat="50.877338" lon="15.869173"></trkpt><trkpt lat="50.877677" lon="15.869396"></trkpt><trkpt lat="50.877762" lon="15.870022"></trkpt><trkpt lat="50.87768" lon="15.870443"></trkpt><trkpt lat="50.877974" lon="15.87067"></trkpt><trkpt lat="50.878339" lon="15.871215"></trkpt><trkpt lat="50.878555" lon="15.871614"></trkpt><trkpt lat="50.878832" lon="15.87165"></trkpt><trkpt lat="50.879126" lon="15.871153"></trkpt><trkpt lat="50.879305" lon="15.870626"></trkpt><trkpt lat="50.879688" lon="15.87018"></trkpt><trkpt lat="50.88005" lon="15.870782"></trkpt><trkpt lat="50.881434" lon="15.873594"></trkpt><trkpt lat="50.881866" lon="15.873593"></trkpt><trkpt lat="50.882129" lon="15.873352"></trkpt><trkpt lat="50.882729" lon="15.872624"></trkpt><trkpt lat="50.883024" lon="15.871991"></trkpt><trkpt lat="50.883366" lon="15.871102"></trkpt><trkpt lat="50.883608" lon="15.870877"></trkpt><trkpt lat="50.883539" lon="15.870343"></trkpt><trkpt lat="50.883539" lon="15.871141"></trkpt></trkseg></trk></gpx>