<?xml version="1.0" encoding="UTF-8" standalone="no" ?><gpx xmlns="http://www.topografix.com/GPX/1/1" xmlns:gpxx="http://www.garmin.com/xmlschemas/GpxExtensions/v3" ><trk><trkseg><trkpt lat="50.750317" lon="16.202326"></trkpt><trkpt lat="50.750616" lon="16.202059"></trkpt><trkpt lat="50.750857" lon="16.201536"></trkpt><trkpt lat="50.751042" lon="16.201019"></trkpt><trkpt lat="50.752631" lon="16.197413"></trkpt><trkpt lat="50.752443" lon="16.196912"></trkpt><trkpt lat="50.752049" lon="16.196575"></trkpt><trkpt lat="50.751821" lon="16.196308"></trkpt><trkpt lat="50.751214" lon="16.195244"></trkpt><trkpt lat="50.751207" lon="16.194809"></trkpt><trkpt lat="50.751135" lon="16.194246"></trkpt><trkpt lat="50.750938" lon="16.193796"></trkpt><trkpt lat="50.750624" lon="16.192812"></trkpt><trkpt lat="50.750579" lon="16.192377"></trkpt><trkpt lat="50.750444" lon="16.191678"></trkpt><trkpt lat="50.749844" lon="16.187195"></trkpt><trkpt lat="50.74975" lon="16.186792"></trkpt><trkpt lat="50.749599" lon="16.186345"></trkpt><trkpt lat="50.749279" lon="16.186053"></trkpt><trkpt lat="50.749091" lon="16.185696"></trkpt><trkpt lat="50.748914" lon="16.185058"></trkpt><trkpt lat="50.748518" lon="16.18521"></trkpt><trkpt lat="50.748188" lon="16.185252"></trkpt><trkpt lat="50.747965" lon="16.185006"></trkpt><trkpt lat="50.748009" lon="16.18452"></trkpt><trkpt lat="50.747709" lon="16.184073"></trkpt><trkpt lat="50.747455" lon="16.183883"></trkpt><trkpt lat="50.747237" lon="16.183608"></trkpt><trkpt lat="50.747052" lon="16.183297"></trkpt><trkpt lat="50.746908" lon="16.182927"></trkpt><trkpt lat="50.746789" lon="16.182366"></trkpt><trkpt lat="50.746771" lon="16.181799"></trkpt><trkpt lat="50.746644" lon="16.181146"></trkpt><trkpt lat="50.746423" lon="16.180677"></trkpt><trkpt lat="50.746005" lon="16.179604"></trkpt><trkpt lat="50.745902" lon="16.179135"></trkpt><trkpt lat="50.745694" lon="16.178674"></trkpt><trkpt lat="50.745419" lon="16.178263"></trkpt><trkpt lat="50.744643" lon="16.177302"></trkpt><trkpt lat="50.74439" lon="16.177113"></trkpt><trkpt lat="50.744112" lon="16.176685"></trkpt><trkpt lat="50.743941" lon="16.176116"></trkpt><trkpt lat="50.743917" lon="16.175691"></trkpt><trkpt lat="50.743736" lon="16.174411"></trkpt><trkpt lat="50.743534" lon="16.173969"></trkpt><trkpt lat="50.743327" lon="16.173374"></trkpt><trkpt lat="50.743249" lon="16.172879"></trkpt><trkpt lat="50.743272" lon="16.172355"></trkpt><trkpt lat="50.743217" lon="16.1693"></trkpt><trkpt lat="50.743153" lon="16.168454"></trkpt><trkpt lat="50.743022" lon="16.167924"></trkpt><trkpt lat="50.742773" lon="16.167496"></trkpt><trkpt lat="50.742408" lon="16.167279"></trkpt><trkpt lat="50.742326" lon="16.166743"></trkpt><trkpt lat="50.742383" lon="16.166245"></trkpt><trkpt lat="50.742478" lon="16.165816"></trkpt><trkpt lat="50.742637" lon="16.16533"></trkpt><trkpt lat="50.742858" lon="16.164779"></trkpt><trkpt lat="50.7432" lon="16.163655"></trkpt><trkpt lat="50.743236" lon="16.163167"></trkpt><trkpt lat="50.743176" lon="16.162622"></trkpt><trkpt lat="50.74305" lon="16.162201"></trkpt><trkpt lat="50.743032" lon="16.161773"></trkpt><trkpt lat="50.743048" lon="16.161338"></trkpt><trkpt lat="50.743141" lon="16.160809"></trkpt><trkpt lat="50.743208" lon="16.160235"></trkpt><trkpt lat="50.743282" lon="16.159821"></trkpt><trkpt lat="50.74339" lon="16.159396"></trkpt><trkpt lat="50.743472" lon="16.158922"></trkpt><trkpt lat="50.74362" lon="16.157633"></trkpt><trkpt lat="50.743626" lon="16.157056"></trkpt><trkpt lat="50.743469" lon="16.153636"></trkpt><trkpt lat="50.743303" lon="16.153062"></trkpt><trkpt lat="50.742533" lon="16.150925"></trkpt><trkpt lat="50.742285" lon="16.150504"></trkpt><trkpt lat="50.739825" lon="16.145435"></trkpt><trkpt lat="50.740216" lon="16.145363"></trkpt><trkpt lat="50.740707" lon="16.145064"></trkpt><trkpt lat="50.740898" lon="16.144574"></trkpt><trkpt lat="50.741189" lon="16.144213"></trkpt><trkpt lat="50.741462" lon="16.144017"></trkpt><trkpt lat="50.742098" lon="16.143684"></trkpt><trkpt lat="50.7456" lon="16.141139"></trkpt><trkpt lat="50.745649" lon="16.140585"></trkpt><trkpt lat="50.745583" lon="16.140029"></trkpt><trkpt lat="50.745112" lon="16.138178"></trkpt><trkpt lat="50.745836" lon="16.137984"></trkpt><trkpt lat="50.745767" lon="16.138727"></trkpt><trkpt lat="50.745442" lon="16.139072"></trkpt><trkpt lat="50.745059" lon="16.139104"></trkpt><trkpt lat="50.742904" lon="16.139597"></trkpt><trkpt lat="50.742604" lon="16.139834"></trkpt><trkpt lat="50.742042" lon="16.14017"></trkpt><trkpt lat="50.741105" lon="16.140889"></trkpt><trkpt lat="50.739864" lon="16.141636"></trkpt><trkpt lat="50.736491" lon="16.143101"></trkpt><trkpt lat="50.736167" lon="16.143103"></trkpt><trkpt lat="50.735475" lon="16.14327"></trkpt><trkpt lat="50.735224" lon="16.143497"></trkpt><trkpt lat="50.73393" lon="16.145021"></trkpt><trkpt lat="50.733725" lon="16.145536"></trkpt><trkpt lat="50.733514" lon="16.146238"></trkpt><trkpt lat="50.733287" lon="16.146847"></trkpt><trkpt lat="50.733093" lon="16.147168"></trkpt><trkpt lat="50.732807" lon="16.147514"></trkpt><trkpt lat="50.731836" lon="16.148919"></trkpt><trkpt lat="50.731629" lon="16.149323"></trkpt><trkpt lat="50.731404" lon="16.149667"></trkpt><trkpt lat="50.731069" lon="16.150083"></trkpt><trkpt lat="50.730774" lon="16.150187"></trkpt><trkpt lat="50.73045" lon="16.150211"></trkpt><trkpt lat="50.730143" lon="16.150433"></trkpt><trkpt lat="50.729905" lon="16.150715"></trkpt><trkpt lat="50.72579" lon="16.154738"></trkpt><trkpt lat="50.725515" lon="16.154906"></trkpt><trkpt lat="50.723878" lon="16.15565"></trkpt><trkpt lat="50.723586" lon="16.155734"></trkpt><trkpt lat="50.722743" lon="16.156099"></trkpt><trkpt lat="50.721985" lon="16.156562"></trkpt><trkpt lat="50.721719" lon="16.156921"></trkpt><trkpt lat="50.720907" lon="16.157822"></trkpt><trkpt lat="50.720539" lon="16.157778"></trkpt><trkpt lat="50.720247" lon="16.157988"></trkpt><trkpt lat="50.720142" lon="16.158619"></trkpt><trkpt lat="50.720158" lon="16.15905"></trkpt><trkpt lat="50.72014" lon="16.159671"></trkpt><trkpt lat="50.719987" lon="16.160066"></trkpt><trkpt lat="50.719621" lon="16.161255"></trkpt><trkpt lat="50.719614" lon="16.161683"></trkpt><trkpt lat="50.719537" lon="16.162142"></trkpt><trkpt lat="50.719214" lon="16.162546"></trkpt><trkpt lat="50.718915" lon="16.162774"></trkpt><trkpt lat="50.718665" lon="16.163134"></trkpt><trkpt lat="50.718432" lon="16.163357"></trkpt><trkpt lat="50.718162" lon="16.163465"></trkpt><trkpt lat="50.717776" lon="16.163559"></trkpt><trkpt lat="50.716337" lon="16.164157"></trkpt><trkpt lat="50.716085" lon="16.164417"></trkpt><trkpt lat="50.715812" lon="16.164608"></trkpt><trkpt lat="50.71554" lon="16.164951"></trkpt><trkpt lat="50.715254" lon="16.16512"></trkpt><trkpt lat="50.713854" lon="16.166188"></trkpt><trkpt lat="50.713616" lon="16.166602"></trkpt><trkpt lat="50.713467" lon="16.167012"></trkpt><trkpt lat="50.713411" lon="16.167468"></trkpt><trkpt lat="50.71328" lon="16.168047"></trkpt><trkpt lat="50.713285" lon="16.168521"></trkpt><trkpt lat="50.713214" lon="16.169955"></trkpt><trkpt lat="50.713045" lon="16.170368"></trkpt><trkpt lat="50.712802" lon="16.170669"></trkpt><trkpt lat="50.712346" lon="16.171374"></trkpt><trkpt lat="50.712003" lon="16.171764"></trkpt><trkpt lat="50.711685" lon="16.171975"></trkpt><trkpt lat="50.710758" lon="16.172434"></trkpt><trkpt lat="50.710078" lon="16.172922"></trkpt><trkpt lat="50.709772" lon="16.173236"></trkpt><trkpt lat="50.706812" lon="16.175703"></trkpt><trkpt lat="50.706435" lon="16.175946"></trkpt><trkpt lat="50.704349" lon="16.17766"></trkpt><trkpt lat="50.704155" lon="16.178047"></trkpt><trkpt lat="50.704019" lon="16.178425"></trkpt><trkpt lat="50.703913" lon="16.178868"></trkpt><trkpt lat="50.704088" lon="16.17929"></trkpt><trkpt lat="50.704453" lon="16.179338"></trkpt><trkpt lat="50.704765" lon="16.179454"></trkpt><trkpt lat="50.705082" lon="16.179622"></trkpt><trkpt lat="50.705371" lon="16.179851"></trkpt><trkpt lat="50.70569" lon="16.180243"></trkpt><trkpt lat="50.705895" lon="16.180551"></trkpt><trkpt lat="50.706182" lon="16.181077"></trkpt><trkpt lat="50.706283" lon="16.181528"></trkpt><trkpt lat="50.706045" lon="16.181938"></trkpt><trkpt lat="50.705764" lon="16.182199"></trkpt><trkpt lat="50.704739" lon="16.183449"></trkpt><trkpt lat="50.704961" lon="16.18375"></trkpt><trkpt lat="50.705221" lon="16.183958"></trkpt><trkpt lat="50.7055" lon="16.184245"></trkpt><trkpt lat="50.7064" lon="16.185436"></trkpt><trkpt lat="50.706642" lon="16.185909"></trkpt><trkpt lat="50.706972" lon="16.186151"></trkpt><trkpt lat="50.707287" lon="16.186329"></trkpt><trkpt lat="50.707397" lon="16.186769"></trkpt><trkpt lat="50.707398" lon="16.187386"></trkpt><trkpt lat="50.707485" lon="16.188026"></trkpt><trkpt lat="50.707636" lon="16.18839"></trkpt><trkpt lat="50.70782" lon="16.188736"></trkpt><trkpt lat="50.708137" lon="16.188769"></trkpt><trkpt lat="50.708432" lon="16.188942"></trkpt><trkpt lat="50.708226" lon="16.189252"></trkpt><trkpt lat="50.707877" lon="16.189448"></trkpt><trkpt lat="50.707553" lon="16.189403"></trkpt><trkpt lat="50.702957" lon="16.190723"></trkpt><trkpt lat="50.702828" lon="16.191235"></trkpt><trkpt lat="50.702691" lon="16.191617"></trkpt><trkpt lat="50.702444" lon="16.191993"></trkpt><trkpt lat="50.702209" lon="16.192448"></trkpt><trkpt lat="50.701858" lon="16.192939"></trkpt><trkpt lat="50.701502" lon="16.193185"></trkpt><trkpt lat="50.70097" lon="16.19365"></trkpt><trkpt lat="50.700594" lon="16.193774"></trkpt><trkpt lat="50.700326" lon="16.193575"></trkpt><trkpt lat="50.699933" lon="16.193669"></trkpt><trkpt lat="50.699742" lon="16.194135"></trkpt><trkpt lat="50.699424" lon="16.194327"></trkpt><trkpt lat="50.699108" lon="16.1946"></trkpt><trkpt lat="50.698707" lon="16.195032"></trkpt><trkpt lat="50.697954" lon="16.195651"></trkpt><trkpt lat="50.697741" lon="16.195998"></trkpt><trkpt lat="50.697523" lon="16.196293"></trkpt><trkpt lat="50.697162" lon="16.196648"></trkpt><trkpt lat="50.695783" lon="16.197747"></trkpt><trkpt lat="50.695516" lon="16.197842"></trkpt><trkpt lat="50.695239" lon="16.198053"></trkpt><trkpt lat="50.695254" lon="16.197452"></trkpt><trkpt lat="50.695426" lon="16.196993"></trkpt><trkpt lat="50.696063" lon="16.194776"></trkpt><trkpt lat="50.695782" lon="16.194818"></trkpt><trkpt lat="50.695456" lon="16.194721"></trkpt><trkpt lat="50.695031" lon="16.194736"></trkpt><trkpt lat="50.694689" lon="16.194856"></trkpt><trkpt lat="50.693826" lon="16.19532"></trkpt><trkpt lat="50.693534" lon="16.195583"></trkpt><trkpt lat="50.69284" lon="16.196353"></trkpt><trkpt lat="50.692517" lon="16.196854"></trkpt><trkpt lat="50.69213" lon="16.197281"></trkpt><trkpt lat="50.691609" lon="16.197998"></trkpt><trkpt lat="50.691152" lon="16.198761"></trkpt><trkpt lat="50.690994" lon="16.199158"></trkpt><trkpt lat="50.690769" lon="16.199949"></trkpt><trkpt lat="50.690792" lon="16.200419"></trkpt><trkpt lat="50.690782" lon="16.200974"></trkpt><trkpt lat="50.690532" lon="16.201577"></trkpt><trkpt lat="50.690371" lon="16.202094"></trkpt><trkpt lat="50.690281" lon="16.202748"></trkpt><trkpt lat="50.69014" lon="16.203219"></trkpt><trkpt lat="50.689991" lon="16.203941"></trkpt><trkpt lat="50.689852" lon="16.204912"></trkpt><trkpt lat="50.68972" lon="16.205562"></trkpt><trkpt lat="50.689708" lon="16.206037"></trkpt><trkpt lat="50.689702" lon="16.206642"></trkpt></trkseg></trk></gpx>