<?xml version="1.0" encoding="UTF-8" standalone="no" ?><gpx xmlns="http://www.topografix.com/GPX/1/1" xmlns:gpxx="http://www.garmin.com/xmlschemas/GpxExtensions/v3" ><trk><trkseg><trkpt lat="50.775048" lon="15.905108"></trkpt><trkpt lat="50.77471" lon="15.904907"></trkpt><trkpt lat="50.774441" lon="15.904654"></trkpt><trkpt lat="50.774214" lon="15.904377"></trkpt><trkpt lat="50.773958" lon="15.903999"></trkpt><trkpt lat="50.773583" lon="15.903765"></trkpt><trkpt lat="50.771334" lon="15.901988"></trkpt><trkpt lat="50.771128" lon="15.901647"></trkpt><trkpt lat="50.77091" lon="15.901048"></trkpt><trkpt lat="50.770532" lon="15.900352"></trkpt><trkpt lat="50.770294" lon="15.900103"></trkpt><trkpt lat="50.769925" lon="15.899913"></trkpt><trkpt lat="50.769095" lon="15.899341"></trkpt><trkpt lat="50.767693" lon="15.897973"></trkpt><trkpt lat="50.767581" lon="15.897514"></trkpt><trkpt lat="50.767514" lon="15.897059"></trkpt><trkpt lat="50.767268" lon="15.895915"></trkpt><trkpt lat="50.76697" lon="15.894884"></trkpt><trkpt lat="50.766759" lon="15.894366"></trkpt><trkpt lat="50.766522" lon="15.89397"></trkpt><trkpt lat="50.766156" lon="15.893205"></trkpt><trkpt lat="50.766074" lon="15.892746"></trkpt><trkpt lat="50.765835" lon="15.890606"></trkpt><trkpt lat="50.765897" lon="15.890123"></trkpt><trkpt lat="50.766204" lon="15.889601"></trkpt><trkpt lat="50.766388" lon="15.889067"></trkpt><trkpt lat="50.766359" lon="15.888555"></trkpt><trkpt lat="50.76611" lon="15.887872"></trkpt><trkpt lat="50.76517" lon="15.884047"></trkpt><trkpt lat="50.76513" lon="15.883606"></trkpt><trkpt lat="50.765319" lon="15.883277"></trkpt><trkpt lat="50.765221" lon="15.882794"></trkpt><trkpt lat="50.76477" lon="15.881245"></trkpt><trkpt lat="50.764517" lon="15.879757"></trkpt><trkpt lat="50.764612" lon="15.87904"></trkpt><trkpt lat="50.764802" lon="15.878503"></trkpt><trkpt lat="50.764853" lon="15.878063"></trkpt><trkpt lat="50.764995" lon="15.877661"></trkpt><trkpt lat="50.765114" lon="15.877167"></trkpt><trkpt lat="50.765268" lon="15.876691"></trkpt><trkpt lat="50.765367" lon="15.876284"></trkpt><trkpt lat="50.765289" lon="15.875814"></trkpt><trkpt lat="50.765094" lon="15.875461"></trkpt><trkpt lat="50.764305" lon="15.873685"></trkpt><trkpt lat="50.763914" lon="15.872994"></trkpt><trkpt lat="50.763798" lon="15.872416"></trkpt><trkpt lat="50.763388" lon="15.869471"></trkpt><trkpt lat="50.762962" lon="15.867359"></trkpt><trkpt lat="50.762792" lon="15.866795"></trkpt><trkpt lat="50.762693" lon="15.866348"></trkpt><trkpt lat="50.762526" lon="15.865988"></trkpt><trkpt lat="50.762356" lon="15.865358"></trkpt><trkpt lat="50.761739" lon="15.863543"></trkpt><trkpt lat="50.761468" lon="15.862909"></trkpt><trkpt lat="50.761278" lon="15.862599"></trkpt><trkpt lat="50.760982" lon="15.862234"></trkpt><trkpt lat="50.760477" lon="15.861465"></trkpt><trkpt lat="50.760291" lon="15.861105"></trkpt><trkpt lat="50.760022" lon="15.860697"></trkpt><trkpt lat="50.759801" lon="15.860446"></trkpt><trkpt lat="50.759626" lon="15.860094"></trkpt><trkpt lat="50.758448" lon="15.858125"></trkpt><trkpt lat="50.758163" lon="15.857822"></trkpt><trkpt lat="50.75788" lon="15.857583"></trkpt><trkpt lat="50.757575" lon="15.857418"></trkpt><trkpt lat="50.757117" lon="15.857056"></trkpt><trkpt lat="50.756612" lon="15.856796"></trkpt><trkpt lat="50.756257" lon="15.85669"></trkpt><trkpt lat="50.755821" lon="15.856662"></trkpt><trkpt lat="50.754846" lon="15.856453"></trkpt><trkpt lat="50.754583" lon="15.856294"></trkpt><trkpt lat="50.75429" lon="15.855979"></trkpt><trkpt lat="50.753967" lon="15.855695"></trkpt><trkpt lat="50.753759" lon="15.85539"></trkpt><trkpt lat="50.753514" lon="15.854836"></trkpt><trkpt lat="50.752068" lon="15.852114"></trkpt><trkpt lat="50.751835" lon="15.851886"></trkpt><trkpt lat="50.75146" lon="15.851616"></trkpt><trkpt lat="50.751141" lon="15.851132"></trkpt><trkpt lat="50.747976" lon="15.845397"></trkpt><trkpt lat="50.74796" lon="15.844862"></trkpt><trkpt lat="50.747994" lon="15.843706"></trkpt><trkpt lat="50.748215" lon="15.843284"></trkpt><trkpt lat="50.748446" lon="15.842684"></trkpt><trkpt lat="50.748359" lon="15.842224"></trkpt><trkpt lat="50.748219" lon="15.841678"></trkpt><trkpt lat="50.74821" lon="15.841225"></trkpt><trkpt lat="50.748353" lon="15.84075"></trkpt><trkpt lat="50.748516" lon="15.8404"></trkpt><trkpt lat="50.748605" lon="15.839881"></trkpt><trkpt lat="50.74864" lon="15.839337"></trkpt><trkpt lat="50.748681" lon="15.833992"></trkpt><trkpt lat="50.748459" lon="15.833304"></trkpt><trkpt lat="50.748342" lon="15.832699"></trkpt><trkpt lat="50.748289" lon="15.831821"></trkpt><trkpt lat="50.74829" lon="15.829988"></trkpt><trkpt lat="50.7481" lon="15.827237"></trkpt><trkpt lat="50.747947" lon="15.826797"></trkpt><trkpt lat="50.747783" lon="15.826412"></trkpt><trkpt lat="50.747587" lon="15.826047"></trkpt><trkpt lat="50.746896" lon="15.824471"></trkpt><trkpt lat="50.746817" lon="15.824016"></trkpt><trkpt lat="50.747005" lon="15.823525"></trkpt><trkpt lat="50.746827" lon="15.823169"></trkpt><trkpt lat="50.746504" lon="15.822844"></trkpt><trkpt lat="50.746173" lon="15.822369"></trkpt><trkpt lat="50.745821" lon="15.821954"></trkpt><trkpt lat="50.745617" lon="15.821624"></trkpt><trkpt lat="50.745227" lon="15.821263"></trkpt><trkpt lat="50.744954" lon="15.820919"></trkpt><trkpt lat="50.744243" lon="15.819815"></trkpt><trkpt lat="50.743801" lon="15.818836"></trkpt><trkpt lat="50.743913" lon="15.819236"></trkpt><trkpt lat="50.74418" lon="15.819672"></trkpt><trkpt lat="50.743941" lon="15.819267"></trkpt><trkpt lat="50.744095" lon="15.819628"></trkpt><trkpt lat="50.744407" lon="15.81998"></trkpt><trkpt lat="50.745941" lon="15.822078"></trkpt><trkpt lat="50.746554" lon="15.822728"></trkpt><trkpt lat="50.746857" lon="15.822963"></trkpt><trkpt lat="50.746937" lon="15.82347"></trkpt><trkpt lat="50.74729" lon="15.823172"></trkpt><trkpt lat="50.747528" lon="15.822761"></trkpt><trkpt lat="50.747849" lon="15.822405"></trkpt><trkpt lat="50.748159" lon="15.822161"></trkpt><trkpt lat="50.748611" lon="15.821712"></trkpt><trkpt lat="50.748823" lon="15.821317"></trkpt><trkpt lat="50.749657" lon="15.820054"></trkpt><trkpt lat="50.74995" lon="15.81987"></trkpt><trkpt lat="50.751885" lon="15.818961"></trkpt><trkpt lat="50.752105" lon="15.818672"></trkpt><trkpt lat="50.752391" lon="15.818448"></trkpt><trkpt lat="50.754325" lon="15.817277"></trkpt><trkpt lat="50.754613" lon="15.817174"></trkpt><trkpt lat="50.75497" lon="15.816752"></trkpt><trkpt lat="50.75535" lon="15.816145"></trkpt><trkpt lat="50.755377" lon="15.815678"></trkpt><trkpt lat="50.755378" lon="15.814004"></trkpt><trkpt lat="50.755316" lon="15.813066"></trkpt><trkpt lat="50.754949" lon="15.810221"></trkpt><trkpt lat="50.754823" lon="15.80982"></trkpt><trkpt lat="50.753151" lon="15.803011"></trkpt><trkpt lat="50.753074" lon="15.802588"></trkpt><trkpt lat="50.752564" lon="15.798359"></trkpt><trkpt lat="50.7526" lon="15.79791"></trkpt><trkpt lat="50.752739" lon="15.792112"></trkpt><trkpt lat="50.752638" lon="15.791568"></trkpt><trkpt lat="50.752339" lon="15.791366"></trkpt><trkpt lat="50.752013" lon="15.791232"></trkpt><trkpt lat="50.751521" lon="15.791133"></trkpt><trkpt lat="50.751173" lon="15.790942"></trkpt><trkpt lat="50.750778" lon="15.790855"></trkpt><trkpt lat="50.750046" lon="15.790583"></trkpt><trkpt lat="50.749723" lon="15.79051"></trkpt><trkpt lat="50.748031" lon="15.789866"></trkpt><trkpt lat="50.747712" lon="15.789595"></trkpt><trkpt lat="50.746548" lon="15.788379"></trkpt><trkpt lat="50.746321" lon="15.787873"></trkpt><trkpt lat="50.745834" lon="15.786432"></trkpt><trkpt lat="50.746137" lon="15.786242"></trkpt><trkpt lat="50.746485" lon="15.78616"></trkpt><trkpt lat="50.746788" lon="15.785835"></trkpt><trkpt lat="50.747269" lon="15.785187"></trkpt><trkpt lat="50.747445" lon="15.784847"></trkpt><trkpt lat="50.747583" lon="15.78443"></trkpt><trkpt lat="50.747685" lon="15.784008"></trkpt><trkpt lat="50.747854" lon="15.783594"></trkpt><trkpt lat="50.748086" lon="15.783348"></trkpt><trkpt lat="50.74825" lon="15.7829"></trkpt><trkpt lat="50.74852" lon="15.7832"></trkpt><trkpt lat="50.74863" lon="15.783756"></trkpt><trkpt lat="50.748911" lon="15.783697"></trkpt><trkpt lat="50.749076" lon="15.784192"></trkpt><trkpt lat="50.749334" lon="15.784435"></trkpt><trkpt lat="50.75138" lon="15.782037"></trkpt><trkpt lat="50.751476" lon="15.781531"></trkpt><trkpt lat="50.751708" lon="15.781115"></trkpt><trkpt lat="50.751911" lon="15.78064"></trkpt><trkpt lat="50.752491" lon="15.779523"></trkpt><trkpt lat="50.752804" lon="15.779281"></trkpt><trkpt lat="50.753397" lon="15.77871"></trkpt><trkpt lat="50.753672" lon="15.778526"></trkpt><trkpt lat="50.754098" lon="15.778143"></trkpt><trkpt lat="50.754311" lon="15.777796"></trkpt><trkpt lat="50.754517" lon="15.77752"></trkpt><trkpt lat="50.754752" lon="15.77727"></trkpt><trkpt lat="50.755007" lon="15.776908"></trkpt><trkpt lat="50.755621" lon="15.775754"></trkpt><trkpt lat="50.755683" lon="15.775207"></trkpt><trkpt lat="50.755519" lon="15.774857"></trkpt><trkpt lat="50.755417" lon="15.774443"></trkpt><trkpt lat="50.755384" lon="15.773786"></trkpt><trkpt lat="50.755424" lon="15.773354"></trkpt><trkpt lat="50.75557" lon="15.77252"></trkpt><trkpt lat="50.755726" lon="15.772146"></trkpt><trkpt lat="50.755939" lon="15.771822"></trkpt><trkpt lat="50.755969" lon="15.771365"></trkpt><trkpt lat="50.756199" lon="15.770944"></trkpt><trkpt lat="50.756463" lon="15.770786"></trkpt><trkpt lat="50.760163" lon="15.769212"></trkpt><trkpt lat="50.760508" lon="15.769416"></trkpt><trkpt lat="50.762449" lon="15.768621"></trkpt><trkpt lat="50.76317" lon="15.768805"></trkpt><trkpt lat="50.763686" lon="15.768841"></trkpt><trkpt lat="50.764175" lon="15.768714"></trkpt><trkpt lat="50.764566" lon="15.768936"></trkpt><trkpt lat="50.764945" lon="15.769014"></trkpt><trkpt lat="50.766195" lon="15.769039"></trkpt><trkpt lat="50.767917" lon="15.768761"></trkpt><trkpt lat="50.768293" lon="15.768502"></trkpt><trkpt lat="50.768612" lon="15.768121"></trkpt><trkpt lat="50.769142" lon="15.767615"></trkpt><trkpt lat="50.769344" lon="15.767281"></trkpt><trkpt lat="50.769865" lon="15.766745"></trkpt><trkpt lat="50.770307" lon="15.766474"></trkpt><trkpt lat="50.77058" lon="15.766008"></trkpt><trkpt lat="50.771123" lon="15.764791"></trkpt><trkpt lat="50.771276" lon="15.764323"></trkpt><trkpt lat="50.771416" lon="15.763763"></trkpt><trkpt lat="50.771573" lon="15.762913"></trkpt><trkpt lat="50.771641" lon="15.762344"></trkpt><trkpt lat="50.771806" lon="15.762005"></trkpt><trkpt lat="50.772149" lon="15.761803"></trkpt><trkpt lat="50.772462" lon="15.761553"></trkpt><trkpt lat="50.772693" lon="15.761081"></trkpt><trkpt lat="50.772824" lon="15.760648"></trkpt><trkpt lat="50.773104" lon="15.760002"></trkpt><trkpt lat="50.773511" lon="15.759854"></trkpt><trkpt lat="50.774404" lon="15.760319"></trkpt><trkpt lat="50.774646" lon="15.759975"></trkpt><trkpt lat="50.77481" lon="15.759595"></trkpt><trkpt lat="50.774974" lon="15.759132"></trkpt><trkpt lat="50.775073" lon="15.758483"></trkpt><trkpt lat="50.775329" lon="15.758259"></trkpt><trkpt lat="50.775588" lon="15.758082"></trkpt><trkpt lat="50.775582" lon="15.75763"></trkpt><trkpt lat="50.77537" lon="15.75611"></trkpt><trkpt lat="50.775118" lon="15.755067"></trkpt><trkpt lat="50.774488" lon="15.751265"></trkpt><trkpt lat="50.77435" lon="15.750847"></trkpt><trkpt lat="50.774032" lon="15.750761"></trkpt><trkpt lat="50.773732" lon="15.750775"></trkpt><trkpt lat="50.773418" lon="15.750649"></trkpt><trkpt lat="50.773153" lon="15.750331"></trkpt><trkpt lat="50.772975" lon="15.749909"></trkpt><trkpt lat="50.772933" lon="15.749418"></trkpt><trkpt lat="50.773039" lon="15.748916"></trkpt><trkpt lat="50.773225" lon="15.748593"></trkpt><trkpt lat="50.773483" lon="15.748376"></trkpt><trkpt lat="50.77383" lon="15.748191"></trkpt><trkpt lat="50.774178" lon="15.747928"></trkpt><trkpt lat="50.774384" lon="15.747591"></trkpt><trkpt lat="50.774522" lon="15.747161"></trkpt><trkpt lat="50.774686" lon="15.746746"></trkpt><trkpt lat="50.775149" lon="15.746084"></trkpt><trkpt lat="50.776132" lon="15.744378"></trkpt><trkpt lat="50.776267" lon="15.743935"></trkpt><trkpt lat="50.7763" lon="15.743472"></trkpt><trkpt lat="50.776262" lon="15.74299"></trkpt><trkpt lat="50.776167" lon="15.742542"></trkpt><trkpt lat="50.775756" lon="15.741801"></trkpt><trkpt lat="50.775331" lon="15.741276"></trkpt><trkpt lat="50.774847" lon="15.74052"></trkpt><trkpt lat="50.774487" lon="15.73976"></trkpt><trkpt lat="50.773941" lon="15.739089"></trkpt><trkpt lat="50.773531" lon="15.738501"></trkpt></trkseg></trk></gpx>