<?xml version="1.0" encoding="UTF-8" standalone="no" ?><gpx xmlns="http://www.topografix.com/GPX/1/1" xmlns:gpxx="http://www.garmin.com/xmlschemas/GpxExtensions/v3" ><trk><trkseg><trkpt lat="49.696053" lon="18.830311"></trkpt><trkpt lat="49.695787" lon="18.830643"></trkpt><trkpt lat="49.695315" lon="18.831384"></trkpt><trkpt lat="49.695139" lon="18.831725"></trkpt><trkpt lat="49.694899" lon="18.832095"></trkpt><trkpt lat="49.694564" lon="18.832507"></trkpt><trkpt lat="49.69432" lon="18.832722"></trkpt><trkpt lat="49.694188" lon="18.833248"></trkpt><trkpt lat="49.694295" lon="18.833787"></trkpt><trkpt lat="49.694863" lon="18.835503"></trkpt><trkpt lat="49.69523" lon="18.835624"></trkpt><trkpt lat="49.695603" lon="18.835685"></trkpt><trkpt lat="49.696323" lon="18.835442"></trkpt><trkpt lat="49.696614" lon="18.835145"></trkpt><trkpt lat="49.696895" lon="18.834982"></trkpt><trkpt lat="49.697246" lon="18.834844"></trkpt><trkpt lat="49.697507" lon="18.834657"></trkpt><trkpt lat="49.697818" lon="18.834618"></trkpt><trkpt lat="49.700128" lon="18.835289"></trkpt><trkpt lat="49.70035" lon="18.835678"></trkpt><trkpt lat="49.700569" lon="18.835982"></trkpt><trkpt lat="49.700826" lon="18.836439"></trkpt><trkpt lat="49.700972" lon="18.83681"></trkpt><trkpt lat="49.700742" lon="18.837045"></trkpt><trkpt lat="49.702925" lon="18.831582"></trkpt><trkpt lat="49.703233" lon="18.831445"></trkpt><trkpt lat="49.703004" lon="18.831894"></trkpt><trkpt lat="49.703788" lon="18.8341"></trkpt><trkpt lat="49.702906" lon="18.83465"></trkpt><trkpt lat="49.700442" lon="18.835599"></trkpt><trkpt lat="49.700108" lon="18.835236"></trkpt><trkpt lat="49.699254" lon="18.834497"></trkpt><trkpt lat="49.698767" lon="18.834581"></trkpt><trkpt lat="49.696949" lon="18.833983"></trkpt><trkpt lat="49.696899" lon="18.834657"></trkpt><trkpt lat="49.696611" lon="18.835116"></trkpt><trkpt lat="49.696236" lon="18.835472"></trkpt><trkpt lat="49.695882" lon="18.835734"></trkpt><trkpt lat="49.695537" lon="18.835669"></trkpt><trkpt lat="49.695102" lon="18.835647"></trkpt><trkpt lat="49.694038" lon="18.835997"></trkpt><trkpt lat="49.693841" lon="18.836309"></trkpt><trkpt lat="49.693557" lon="18.836492"></trkpt><trkpt lat="49.691838" lon="18.838038"></trkpt><trkpt lat="49.69184" lon="18.838555"></trkpt><trkpt lat="49.691946" lon="18.839153"></trkpt><trkpt lat="49.692109" lon="18.83959"></trkpt><trkpt lat="49.692176" lon="18.840127"></trkpt><trkpt lat="49.692088" lon="18.84058"></trkpt><trkpt lat="49.69183" lon="18.840858"></trkpt><trkpt lat="49.691478" lon="18.840973"></trkpt><trkpt lat="49.6912" lon="18.841172"></trkpt><trkpt lat="49.691178" lon="18.841634"></trkpt><trkpt lat="49.691297" lon="18.842131"></trkpt><trkpt lat="49.691387" lon="18.842696"></trkpt><trkpt lat="49.691498" lon="18.843193"></trkpt><trkpt lat="49.691861" lon="18.84439"></trkpt><trkpt lat="49.692078" lon="18.844847"></trkpt><trkpt lat="49.692333" lon="18.845292"></trkpt><trkpt lat="49.692722" lon="18.846122"></trkpt><trkpt lat="49.696592" lon="18.852986"></trkpt><trkpt lat="49.696972" lon="18.853262"></trkpt><trkpt lat="49.697531" lon="18.853821"></trkpt><trkpt lat="49.698062" lon="18.854496"></trkpt><trkpt lat="49.69849" lon="18.855287"></trkpt><trkpt lat="49.698525" lon="18.855732"></trkpt><trkpt lat="49.698661" lon="18.85668"></trkpt><trkpt lat="49.698768" lon="18.857191"></trkpt><trkpt lat="49.698913" lon="18.85766"></trkpt><trkpt lat="49.698987" lon="18.85812"></trkpt><trkpt lat="49.699129" lon="18.858726"></trkpt><trkpt lat="49.699507" lon="18.861025"></trkpt><trkpt lat="49.699748" lon="18.863555"></trkpt><trkpt lat="49.699626" lon="18.863948"></trkpt><trkpt lat="49.699458" lon="18.864305"></trkpt><trkpt lat="49.699245" lon="18.864605"></trkpt><trkpt lat="49.699073" lon="18.864944"></trkpt><trkpt lat="49.698961" lon="18.865438"></trkpt><trkpt lat="49.698957" lon="18.865949"></trkpt><trkpt lat="49.699043" lon="18.867338"></trkpt><trkpt lat="49.699172" lon="18.867927"></trkpt><trkpt lat="49.699218" lon="18.868485"></trkpt><trkpt lat="49.699209" lon="18.869045"></trkpt><trkpt lat="49.699283" lon="18.86947"></trkpt><trkpt lat="49.699243" lon="18.870115"></trkpt><trkpt lat="49.699456" lon="18.870486"></trkpt><trkpt lat="49.699467" lon="18.870926"></trkpt><trkpt lat="49.699336" lon="18.871462"></trkpt><trkpt lat="49.699057" lon="18.872309"></trkpt><trkpt lat="49.698807" lon="18.872612"></trkpt><trkpt lat="49.698559" lon="18.872134"></trkpt><trkpt lat="49.698389" lon="18.871652"></trkpt><trkpt lat="49.698157" lon="18.871296"></trkpt><trkpt lat="49.697984" lon="18.871682"></trkpt><trkpt lat="49.697997" lon="18.872274"></trkpt><trkpt lat="49.697766" lon="18.872507"></trkpt><trkpt lat="49.697494" lon="18.872531"></trkpt><trkpt lat="49.697293" lon="18.872885"></trkpt><trkpt lat="49.697286" lon="18.873422"></trkpt><trkpt lat="49.69702" lon="18.876414"></trkpt><trkpt lat="49.69693" lon="18.876906"></trkpt><trkpt lat="49.696848" lon="18.877875"></trkpt><trkpt lat="49.696731" lon="18.878469"></trkpt><trkpt lat="49.696964" lon="18.878743"></trkpt><trkpt lat="49.696686" lon="18.878575"></trkpt><trkpt lat="49.696655" lon="18.8781"></trkpt><trkpt lat="49.69672" lon="18.87754"></trkpt><trkpt lat="49.696827" lon="18.877123"></trkpt><trkpt lat="49.697018" lon="18.876715"></trkpt><trkpt lat="49.697107" lon="18.876198"></trkpt><trkpt lat="49.697155" lon="18.875651"></trkpt><trkpt lat="49.69765" lon="18.872542"></trkpt><trkpt lat="49.697919" lon="18.872496"></trkpt><trkpt lat="49.698825" lon="18.872167"></trkpt><trkpt lat="49.699085" lon="18.871743"></trkpt><trkpt lat="49.699296" lon="18.871248"></trkpt><trkpt lat="49.699474" lon="18.870915"></trkpt><trkpt lat="49.699773" lon="18.870846"></trkpt><trkpt lat="49.700061" lon="18.870721"></trkpt><trkpt lat="49.700388" lon="18.870504"></trkpt><trkpt lat="49.700656" lon="18.870175"></trkpt><trkpt lat="49.701014" lon="18.869892"></trkpt><trkpt lat="49.70154" lon="18.869649"></trkpt><trkpt lat="49.702526" lon="18.869425"></trkpt><trkpt lat="49.703007" lon="18.869775"></trkpt><trkpt lat="49.703395" lon="18.869938"></trkpt><trkpt lat="49.703747" lon="18.869856"></trkpt><trkpt lat="49.706659" lon="18.870978"></trkpt><trkpt lat="49.710348" lon="18.871713"></trkpt><trkpt lat="49.710656" lon="18.871356"></trkpt><trkpt lat="49.710934" lon="18.871355"></trkpt><trkpt lat="49.711242" lon="18.871399"></trkpt><trkpt lat="49.711663" lon="18.871257"></trkpt><trkpt lat="49.711972" lon="18.87123"></trkpt><trkpt lat="49.712983" lon="18.871474"></trkpt><trkpt lat="49.713242" lon="18.871739"></trkpt><trkpt lat="49.713509" lon="18.871907"></trkpt><trkpt lat="49.713781" lon="18.872193"></trkpt><trkpt lat="49.714099" lon="18.872349"></trkpt><trkpt lat="49.714425" lon="18.872437"></trkpt><trkpt lat="49.714852" lon="18.872615"></trkpt><trkpt lat="49.715144" lon="18.872644"></trkpt><trkpt lat="49.71543" lon="18.872712"></trkpt><trkpt lat="49.71568" lon="18.872505"></trkpt><trkpt lat="49.715884" lon="18.872128"></trkpt><trkpt lat="49.716109" lon="18.871802"></trkpt><trkpt lat="49.716379" lon="18.871548"></trkpt><trkpt lat="49.716682" lon="18.871112"></trkpt><trkpt lat="49.717508" lon="18.870124"></trkpt><trkpt lat="49.718032" lon="18.869371"></trkpt><trkpt lat="49.718424" lon="18.868676"></trkpt><trkpt lat="49.718841" lon="18.868067"></trkpt><trkpt lat="49.719197" lon="18.867444"></trkpt><trkpt lat="49.719345" lon="18.86704"></trkpt><trkpt lat="49.719513" lon="18.866677"></trkpt><trkpt lat="49.720161" lon="18.865556"></trkpt><trkpt lat="49.720542" lon="18.864732"></trkpt><trkpt lat="49.720827" lon="18.864384"></trkpt><trkpt lat="49.720955" lon="18.863904"></trkpt><trkpt lat="49.721248" lon="18.863377"></trkpt><trkpt lat="49.722159" lon="18.862033"></trkpt><trkpt lat="49.722709" lon="18.861369"></trkpt><trkpt lat="49.723329" lon="18.860411"></trkpt><trkpt lat="49.72348" lon="18.859941"></trkpt><trkpt lat="49.723627" lon="18.859578"></trkpt><trkpt lat="49.723817" lon="18.858997"></trkpt><trkpt lat="49.723931" lon="18.858502"></trkpt><trkpt lat="49.724486" lon="18.856682"></trkpt><trkpt lat="49.724237" lon="18.856388"></trkpt><trkpt lat="49.723938" lon="18.85624"></trkpt><trkpt lat="49.72367" lon="18.856056"></trkpt><trkpt lat="49.722431" lon="18.854953"></trkpt><trkpt lat="49.722538" lon="18.854506"></trkpt><trkpt lat="49.722394" lon="18.854114"></trkpt><trkpt lat="49.721997" lon="18.853872"></trkpt><trkpt lat="49.72177" lon="18.854165"></trkpt><trkpt lat="49.721688" lon="18.854641"></trkpt><trkpt lat="49.721523" lon="18.85524"></trkpt><trkpt lat="49.721308" lon="18.855508"></trkpt><trkpt lat="49.721135" lon="18.855099"></trkpt><trkpt lat="49.721015" lon="18.854389"></trkpt><trkpt lat="49.720798" lon="18.853961"></trkpt><trkpt lat="49.720161" lon="18.853031"></trkpt><trkpt lat="49.719842" lon="18.852683"></trkpt><trkpt lat="49.718039" lon="18.8503"></trkpt><trkpt lat="49.717916" lon="18.8499"></trkpt><trkpt lat="49.717994" lon="18.849407"></trkpt><trkpt lat="49.717977" lon="18.848944"></trkpt><trkpt lat="49.717992" lon="18.848522"></trkpt><trkpt lat="49.718132" lon="18.847617"></trkpt><trkpt lat="49.718012" lon="18.847235"></trkpt><trkpt lat="49.718004" lon="18.846672"></trkpt><trkpt lat="49.717912" lon="18.845844"></trkpt><trkpt lat="49.717652" lon="18.845334"></trkpt><trkpt lat="49.71742" lon="18.845091"></trkpt><trkpt lat="49.717106" lon="18.8449"></trkpt><trkpt lat="49.716933" lon="18.84448"></trkpt><trkpt lat="49.716552" lon="18.843718"></trkpt><trkpt lat="49.71628" lon="18.843442"></trkpt><trkpt lat="49.71601" lon="18.843243"></trkpt><trkpt lat="49.714894" lon="18.8426"></trkpt><trkpt lat="49.714518" lon="18.842517"></trkpt><trkpt lat="49.713728" lon="18.842207"></trkpt><trkpt lat="49.713515" lon="18.841903"></trkpt><trkpt lat="49.713214" lon="18.841697"></trkpt><trkpt lat="49.712881" lon="18.841728"></trkpt><trkpt lat="49.711974" lon="18.841514"></trkpt><trkpt lat="49.7117" lon="18.841223"></trkpt><trkpt lat="49.711374" lon="18.841046"></trkpt><trkpt lat="49.710988" lon="18.841186"></trkpt><trkpt lat="49.710714" lon="18.841463"></trkpt><trkpt lat="49.710365" lon="18.841562"></trkpt><trkpt lat="49.709641" lon="18.841665"></trkpt><trkpt lat="49.707376" lon="18.841022"></trkpt><trkpt lat="49.707039" lon="18.840846"></trkpt><trkpt lat="49.706484" lon="18.840446"></trkpt><trkpt lat="49.706224" lon="18.840177"></trkpt><trkpt lat="49.705716" lon="18.839823"></trkpt><trkpt lat="49.70545" lon="18.839331"></trkpt><trkpt lat="49.705196" lon="18.8387"></trkpt><trkpt lat="49.705099" lon="18.838273"></trkpt><trkpt lat="49.704796" lon="18.837434"></trkpt><trkpt lat="49.704523" lon="18.837194"></trkpt><trkpt lat="49.704022" lon="18.836903"></trkpt><trkpt lat="49.703716" lon="18.836675"></trkpt><trkpt lat="49.703165" lon="18.836117"></trkpt><trkpt lat="49.702554" lon="18.835681"></trkpt><trkpt lat="49.702474" lon="18.83624"></trkpt><trkpt lat="49.702582" lon="18.836741"></trkpt><trkpt lat="49.702666" lon="18.837292"></trkpt><trkpt lat="49.702691" lon="18.838844"></trkpt><trkpt lat="49.702391" lon="18.838726"></trkpt><trkpt lat="49.70212" lon="18.838248"></trkpt><trkpt lat="49.701851" lon="18.837884"></trkpt><trkpt lat="49.700937" lon="18.836925"></trkpt><trkpt lat="49.700654" lon="18.837157"></trkpt><trkpt lat="49.70159" lon="18.835853"></trkpt><trkpt lat="49.701204" lon="18.83627"></trkpt><trkpt lat="49.700846" lon="18.836293"></trkpt><trkpt lat="49.700608" lon="18.835874"></trkpt><trkpt lat="49.700348" lon="18.835515"></trkpt><trkpt lat="49.700076" lon="18.835052"></trkpt><trkpt lat="49.699736" lon="18.83467"></trkpt><trkpt lat="49.699374" lon="18.834493"></trkpt><trkpt lat="49.699094" lon="18.834457"></trkpt><trkpt lat="49.696869" lon="18.833698"></trkpt><trkpt lat="49.696736" lon="18.833139"></trkpt><trkpt lat="49.696861" lon="18.832757"></trkpt><trkpt lat="49.696938" lon="18.832325"></trkpt><trkpt lat="49.696873" lon="18.831895"></trkpt><trkpt lat="49.697128" lon="18.831524"></trkpt><trkpt lat="49.696859" lon="18.831658"></trkpt><trkpt lat="49.696604" lon="18.831442"></trkpt><trkpt lat="49.696195" lon="18.831004"></trkpt><trkpt lat="49.695889" lon="18.830927"></trkpt><trkpt lat="49.695578" lon="18.830676"></trkpt><trkpt lat="49.695229" lon="18.831095"></trkpt><trkpt lat="49.694973" lon="18.83152"></trkpt><trkpt lat="49.694709" lon="18.831695"></trkpt><trkpt lat="49.693932" lon="18.832071"></trkpt><trkpt lat="49.693846" lon="18.831539"></trkpt><trkpt lat="49.693817" lon="18.83109"></trkpt><trkpt lat="49.693816" lon="18.830625"></trkpt><trkpt lat="49.693895" lon="18.831965"></trkpt><trkpt lat="49.693969" lon="18.832384"></trkpt><trkpt lat="49.694095" lon="18.832755"></trkpt><trkpt lat="49.69417" lon="18.833187"></trkpt><trkpt lat="49.6943" lon="18.833714"></trkpt><trkpt lat="49.694909" lon="18.835552"></trkpt><trkpt lat="49.695254" lon="18.835678"></trkpt><trkpt lat="49.695736" lon="18.835762"></trkpt><trkpt lat="49.696324" lon="18.835533"></trkpt><trkpt lat="49.696564" lon="18.835273"></trkpt><trkpt lat="49.696885" lon="18.835037"></trkpt><trkpt lat="49.697201" lon="18.834869"></trkpt><trkpt lat="49.697704" lon="18.834697"></trkpt><trkpt lat="49.697979" lon="18.83466"></trkpt><trkpt lat="49.700144" lon="18.835271"></trkpt><trkpt lat="49.700384" lon="18.835602"></trkpt><trkpt lat="49.700662" lon="18.836059"></trkpt><trkpt lat="49.700928" lon="18.836591"></trkpt><trkpt lat="49.699953" lon="18.835104"></trkpt></trkseg></trk></gpx>