<?xml version="1.0" encoding="UTF-8" standalone="no" ?><gpx xmlns="http://www.topografix.com/GPX/1/1" xmlns:gpxx="http://www.garmin.com/xmlschemas/GpxExtensions/v3" ><trk><trkseg><trkpt lat="49.496597" lon="20.213903"></trkpt><trkpt lat="49.496939" lon="20.213879"></trkpt><trkpt lat="49.497226" lon="20.213709"></trkpt><trkpt lat="49.49754" lon="20.213419"></trkpt><trkpt lat="49.497698" lon="20.213058"></trkpt><trkpt lat="49.497818" lon="20.21264"></trkpt><trkpt lat="49.497869" lon="20.212227"></trkpt><trkpt lat="49.498011" lon="20.211657"></trkpt><trkpt lat="49.498201" lon="20.211325"></trkpt><trkpt lat="49.498445" lon="20.210753"></trkpt><trkpt lat="49.498596" lon="20.210173"></trkpt><trkpt lat="49.498731" lon="20.209467"></trkpt><trkpt lat="49.498771" lon="20.208993"></trkpt><trkpt lat="49.498764" lon="20.208428"></trkpt><trkpt lat="49.498715" lon="20.207983"></trkpt><trkpt lat="49.498839" lon="20.207557"></trkpt><trkpt lat="49.498907" lon="20.207126"></trkpt><trkpt lat="49.498977" lon="20.205642"></trkpt><trkpt lat="49.498874" lon="20.205211"></trkpt><trkpt lat="49.498661" lon="20.204838"></trkpt><trkpt lat="49.498574" lon="20.204434"></trkpt><trkpt lat="49.498397" lon="20.202861"></trkpt><trkpt lat="49.498486" lon="20.202455"></trkpt><trkpt lat="49.498724" lon="20.201841"></trkpt><trkpt lat="49.499021" lon="20.201582"></trkpt><trkpt lat="49.49929" lon="20.201424"></trkpt><trkpt lat="49.499652" lon="20.201274"></trkpt><trkpt lat="49.499934" lon="20.201115"></trkpt><trkpt lat="49.50061" lon="20.200565"></trkpt><trkpt lat="49.500819" lon="20.200186"></trkpt><trkpt lat="49.501136" lon="20.199474"></trkpt><trkpt lat="49.501172" lon="20.199035"></trkpt><trkpt lat="49.501175" lon="20.198499"></trkpt><trkpt lat="49.501087" lon="20.197994"></trkpt><trkpt lat="49.50085" lon="20.197174"></trkpt><trkpt lat="49.500582" lon="20.197102"></trkpt><trkpt lat="49.499897" lon="20.197027"></trkpt><trkpt lat="49.499638" lon="20.1969"></trkpt><trkpt lat="49.499363" lon="20.196596"></trkpt><trkpt lat="49.499138" lon="20.196274"></trkpt><trkpt lat="49.498871" lon="20.195984"></trkpt><trkpt lat="49.49832" lon="20.195263"></trkpt><trkpt lat="49.498319" lon="20.194794"></trkpt><trkpt lat="49.498408" lon="20.194388"></trkpt><trkpt lat="49.498461" lon="20.193921"></trkpt><trkpt lat="49.498675" lon="20.19359"></trkpt><trkpt lat="49.498926" lon="20.193787"></trkpt><trkpt lat="49.499221" lon="20.193785"></trkpt><trkpt lat="49.499417" lon="20.193215"></trkpt><trkpt lat="49.499704" lon="20.192821"></trkpt><trkpt lat="49.50004" lon="20.19258"></trkpt><trkpt lat="49.500379" lon="20.192417"></trkpt><trkpt lat="49.500801" lon="20.192141"></trkpt><trkpt lat="49.501102" lon="20.191795"></trkpt><trkpt lat="49.501287" lon="20.191469"></trkpt><trkpt lat="49.501424" lon="20.191109"></trkpt><trkpt lat="49.501654" lon="20.190802"></trkpt><trkpt lat="49.501976" lon="20.190541"></trkpt><trkpt lat="49.502162" lon="20.190055"></trkpt><trkpt lat="49.502243" lon="20.189597"></trkpt><trkpt lat="49.502271" lon="20.189141"></trkpt><trkpt lat="49.50224" lon="20.188726"></trkpt><trkpt lat="49.502106" lon="20.18813"></trkpt><trkpt lat="49.501994" lon="20.18732"></trkpt><trkpt lat="49.502282" lon="20.187112"></trkpt><trkpt lat="49.503917" lon="20.188015"></trkpt><trkpt lat="49.504197" lon="20.187771"></trkpt><trkpt lat="49.504847" lon="20.187034"></trkpt><trkpt lat="49.505247" lon="20.186703"></trkpt><trkpt lat="49.505722" lon="20.186206"></trkpt><trkpt lat="49.505907" lon="20.185867"></trkpt><trkpt lat="49.505977" lon="20.185351"></trkpt><trkpt lat="49.50614" lon="20.184645"></trkpt><trkpt lat="49.506353" lon="20.184349"></trkpt><trkpt lat="49.506524" lon="20.184026"></trkpt><trkpt lat="49.506588" lon="20.183356"></trkpt><trkpt lat="49.506768" lon="20.182857"></trkpt><trkpt lat="49.50688" lon="20.182467"></trkpt><trkpt lat="49.507046" lon="20.182075"></trkpt><trkpt lat="49.507278" lon="20.181376"></trkpt><trkpt lat="49.50732" lon="20.180816"></trkpt><trkpt lat="49.507399" lon="20.18038"></trkpt><trkpt lat="49.507598" lon="20.179653"></trkpt><trkpt lat="49.507831" lon="20.179295"></trkpt><trkpt lat="49.508044" lon="20.179024"></trkpt><trkpt lat="49.508312" lon="20.178598"></trkpt><trkpt lat="49.508561" lon="20.178342"></trkpt><trkpt lat="49.508814" lon="20.177926"></trkpt><trkpt lat="49.509504" lon="20.176553"></trkpt><trkpt lat="49.509669" lon="20.176145"></trkpt><trkpt lat="49.509801" lon="20.175629"></trkpt><trkpt lat="49.50999" lon="20.175136"></trkpt><trkpt lat="49.510307" lon="20.174066"></trkpt><trkpt lat="49.510289" lon="20.173637"></trkpt><trkpt lat="49.510316" lon="20.172213"></trkpt><trkpt lat="49.510464" lon="20.171734"></trkpt><trkpt lat="49.510527" lon="20.171217"></trkpt><trkpt lat="49.510625" lon="20.17079"></trkpt><trkpt lat="49.510692" lon="20.170304"></trkpt><trkpt lat="49.510915" lon="20.169199"></trkpt><trkpt lat="49.511126" lon="20.168802"></trkpt><trkpt lat="49.511337" lon="20.16854"></trkpt><trkpt lat="49.511506" lon="20.168198"></trkpt><trkpt lat="49.512377" lon="20.16604"></trkpt><trkpt lat="49.512755" lon="20.165284"></trkpt><trkpt lat="49.512833" lon="20.164842"></trkpt><trkpt lat="49.512839" lon="20.164326"></trkpt><trkpt lat="49.512809" lon="20.163897"></trkpt><trkpt lat="49.512804" lon="20.163471"></trkpt><trkpt lat="49.512772" lon="20.163037"></trkpt><trkpt lat="49.512645" lon="20.162599"></trkpt><trkpt lat="49.51255" lon="20.162096"></trkpt><trkpt lat="49.512551" lon="20.161658"></trkpt><trkpt lat="49.512733" lon="20.161182"></trkpt><trkpt lat="49.512941" lon="20.160844"></trkpt><trkpt lat="49.513064" lon="20.160464"></trkpt><trkpt lat="49.513273" lon="20.159998"></trkpt><trkpt lat="49.513859" lon="20.158394"></trkpt><trkpt lat="49.513946" lon="20.157955"></trkpt><trkpt lat="49.514393" lon="20.156278"></trkpt><trkpt lat="49.514596" lon="20.155938"></trkpt><trkpt lat="49.514708" lon="20.155541"></trkpt><trkpt lat="49.514897" lon="20.155026"></trkpt><trkpt lat="49.517272" lon="20.149934"></trkpt><trkpt lat="49.517544" lon="20.150033"></trkpt><trkpt lat="49.517837" lon="20.150224"></trkpt><trkpt lat="49.518152" lon="20.150288"></trkpt><trkpt lat="49.518551" lon="20.150119"></trkpt><trkpt lat="49.518979" lon="20.149868"></trkpt><trkpt lat="49.519289" lon="20.149598"></trkpt><trkpt lat="49.519577" lon="20.149409"></trkpt><trkpt lat="49.519775" lon="20.14905"></trkpt><trkpt lat="49.519974" lon="20.148751"></trkpt><trkpt lat="49.52019" lon="20.148496"></trkpt><trkpt lat="49.52046" lon="20.148475"></trkpt><trkpt lat="49.520735" lon="20.148592"></trkpt><trkpt lat="49.521048" lon="20.148531"></trkpt><trkpt lat="49.521704" lon="20.148568"></trkpt><trkpt lat="49.522178" lon="20.148472"></trkpt><trkpt lat="49.522522" lon="20.148175"></trkpt><trkpt lat="49.523222" lon="20.14769"></trkpt><trkpt lat="49.523488" lon="20.147303"></trkpt><trkpt lat="49.523805" lon="20.146942"></trkpt><trkpt lat="49.524077" lon="20.146931"></trkpt><trkpt lat="49.524369" lon="20.146854"></trkpt><trkpt lat="49.524949" lon="20.146615"></trkpt><trkpt lat="49.525185" lon="20.146412"></trkpt><trkpt lat="49.525508" lon="20.146429"></trkpt><trkpt lat="49.525853" lon="20.146283"></trkpt><trkpt lat="49.526275" lon="20.146177"></trkpt><trkpt lat="49.526845" lon="20.146226"></trkpt><trkpt lat="49.533757" lon="20.147775"></trkpt><trkpt lat="49.53401" lon="20.147922"></trkpt><trkpt lat="49.53428" lon="20.148011"></trkpt><trkpt lat="49.534939" lon="20.148136"></trkpt><trkpt lat="49.535447" lon="20.14816"></trkpt><trkpt lat="49.53712" lon="20.148489"></trkpt><trkpt lat="49.537369" lon="20.148698"></trkpt><trkpt lat="49.538272" lon="20.149281"></trkpt><trkpt lat="49.538506" lon="20.149507"></trkpt><trkpt lat="49.538774" lon="20.149572"></trkpt><trkpt lat="49.539812" lon="20.150025"></trkpt><trkpt lat="49.540076" lon="20.149869"></trkpt><trkpt lat="49.540315" lon="20.149643"></trkpt><trkpt lat="49.54062" lon="20.149455"></trkpt><trkpt lat="49.540902" lon="20.149195"></trkpt><trkpt lat="49.541101" lon="20.148892"></trkpt><trkpt lat="49.541355" lon="20.148636"></trkpt><trkpt lat="49.54231" lon="20.147475"></trkpt><trkpt lat="49.542531" lon="20.147137"></trkpt><trkpt lat="49.54269" lon="20.146777"></trkpt><trkpt lat="49.542802" lon="20.14638"></trkpt><trkpt lat="49.542783" lon="20.145958"></trkpt><trkpt lat="49.542869" lon="20.14021"></trkpt><trkpt lat="49.542928" lon="20.139802"></trkpt><trkpt lat="49.543104" lon="20.139298"></trkpt><trkpt lat="49.543376" lon="20.138667"></trkpt><trkpt lat="49.543648" lon="20.138183"></trkpt><trkpt lat="49.54374" lon="20.137593"></trkpt><trkpt lat="49.543862" lon="20.137041"></trkpt><trkpt lat="49.543933" lon="20.13638"></trkpt><trkpt lat="49.54424" lon="20.135892"></trkpt><trkpt lat="49.544774" lon="20.134817"></trkpt><trkpt lat="49.544883" lon="20.134415"></trkpt><trkpt lat="49.54506" lon="20.134037"></trkpt><trkpt lat="49.545185" lon="20.13363"></trkpt><trkpt lat="49.5453" lon="20.133098"></trkpt><trkpt lat="49.5454" lon="20.1324"></trkpt><trkpt lat="49.545435" lon="20.131952"></trkpt><trkpt lat="49.545419" lon="20.131433"></trkpt><trkpt lat="49.545438" lon="20.130946"></trkpt><trkpt lat="49.545376" lon="20.130401"></trkpt><trkpt lat="49.545372" lon="20.129984"></trkpt><trkpt lat="49.545413" lon="20.129478"></trkpt><trkpt lat="49.545432" lon="20.128381"></trkpt><trkpt lat="49.545327" lon="20.126666"></trkpt><trkpt lat="49.545256" lon="20.126133"></trkpt><trkpt lat="49.545225" lon="20.125629"></trkpt><trkpt lat="49.544502" lon="20.120003"></trkpt><trkpt lat="49.544245" lon="20.119591"></trkpt><trkpt lat="49.54418" lon="20.119142"></trkpt><trkpt lat="49.543989" lon="20.118698"></trkpt><trkpt lat="49.54371" lon="20.11856"></trkpt><trkpt lat="49.543417" lon="20.11856"></trkpt><trkpt lat="49.543396" lon="20.117955"></trkpt><trkpt lat="49.543424" lon="20.117501"></trkpt><trkpt lat="49.543332" lon="20.117056"></trkpt><trkpt lat="49.543352" lon="20.116483"></trkpt><trkpt lat="49.543309" lon="20.115833"></trkpt><trkpt lat="49.543304" lon="20.115221"></trkpt><trkpt lat="49.543229" lon="20.114777"></trkpt><trkpt lat="49.54315" lon="20.113922"></trkpt><trkpt lat="49.543095" lon="20.11112"></trkpt><trkpt lat="49.543345" lon="20.110665"></trkpt><trkpt lat="49.54363" lon="20.110419"></trkpt><trkpt lat="49.543896" lon="20.110295"></trkpt><trkpt lat="49.544042" lon="20.10994"></trkpt><trkpt lat="49.544194" lon="20.109424"></trkpt><trkpt lat="49.544156" lon="20.108989"></trkpt><trkpt lat="49.544432" lon="20.108819"></trkpt><trkpt lat="49.544704" lon="20.10872"></trkpt><trkpt lat="49.545016" lon="20.108477"></trkpt><trkpt lat="49.545411" lon="20.108257"></trkpt><trkpt lat="49.545824" lon="20.108102"></trkpt><trkpt lat="49.546131" lon="20.108446"></trkpt><trkpt lat="49.54642" lon="20.108523"></trkpt><trkpt lat="49.546765" lon="20.108517"></trkpt><trkpt lat="49.547099" lon="20.108453"></trkpt><trkpt lat="49.547338" lon="20.108175"></trkpt><trkpt lat="49.547368" lon="20.107741"></trkpt><trkpt lat="49.547912" lon="20.103696"></trkpt><trkpt lat="49.548042" lon="20.103164"></trkpt><trkpt lat="49.548216" lon="20.102637"></trkpt><trkpt lat="49.548686" lon="20.101501"></trkpt><trkpt lat="49.548953" lon="20.10112"></trkpt><trkpt lat="49.549064" lon="20.100503"></trkpt><trkpt lat="49.549303" lon="20.09831"></trkpt><trkpt lat="49.549207" lon="20.097859"></trkpt><trkpt lat="49.549252" lon="20.097444"></trkpt><trkpt lat="49.549445" lon="20.09699"></trkpt><trkpt lat="49.54978" lon="20.096813"></trkpt><trkpt lat="49.550071" lon="20.096877"></trkpt><trkpt lat="49.55064" lon="20.096878"></trkpt><trkpt lat="49.551178" lon="20.096764"></trkpt><trkpt lat="49.551437" lon="20.096615"></trkpt><trkpt lat="49.551679" lon="20.096302"></trkpt><trkpt lat="49.551952" lon="20.096133"></trkpt><trkpt lat="49.552263" lon="20.095992"></trkpt><trkpt lat="49.552582" lon="20.095779"></trkpt><trkpt lat="49.552837" lon="20.095514"></trkpt><trkpt lat="49.553086" lon="20.095312"></trkpt><trkpt lat="49.553354" lon="20.094995"></trkpt><trkpt lat="49.553569" lon="20.094568"></trkpt><trkpt lat="49.55372" lon="20.094129"></trkpt><trkpt lat="49.553934" lon="20.093765"></trkpt><trkpt lat="49.554172" lon="20.093281"></trkpt><trkpt lat="49.55434" lon="20.092801"></trkpt><trkpt lat="49.554365" lon="20.092239"></trkpt><trkpt lat="49.554481" lon="20.091812"></trkpt><trkpt lat="49.55475" lon="20.091338"></trkpt><trkpt lat="49.554861" lon="20.090936"></trkpt><trkpt lat="49.555537" lon="20.08773"></trkpt><trkpt lat="49.555568" lon="20.087256"></trkpt><trkpt lat="49.555861" lon="20.08517"></trkpt><trkpt lat="49.555982" lon="20.084635"></trkpt><trkpt lat="49.556148" lon="20.083518"></trkpt><trkpt lat="49.556588" lon="20.081483"></trkpt><trkpt lat="49.556754" lon="20.080946"></trkpt><trkpt lat="49.556877" lon="20.080409"></trkpt><trkpt lat="49.557112" lon="20.079969"></trkpt><trkpt lat="49.557362" lon="20.079789"></trkpt><trkpt lat="49.557577" lon="20.079504"></trkpt><trkpt lat="49.557752" lon="20.079169"></trkpt><trkpt lat="49.558147" lon="20.07858"></trkpt><trkpt lat="49.558382" lon="20.078298"></trkpt><trkpt lat="49.558617" lon="20.077908"></trkpt><trkpt lat="49.558796" lon="20.077547"></trkpt><trkpt lat="49.558977" lon="20.076957"></trkpt><trkpt lat="49.559074" lon="20.076377"></trkpt><trkpt lat="49.559106" lon="20.07596"></trkpt><trkpt lat="49.559213" lon="20.075468"></trkpt><trkpt lat="49.559374" lon="20.075116"></trkpt><trkpt lat="49.55946" lon="20.074688"></trkpt><trkpt lat="49.559899" lon="20.071547"></trkpt><trkpt lat="49.55995" lon="20.070902"></trkpt><trkpt lat="49.559947" lon="20.070346"></trkpt><trkpt lat="49.559644" lon="20.065874"></trkpt><trkpt lat="49.559466" lon="20.064577"></trkpt><trkpt lat="49.559369" lon="20.064099"></trkpt><trkpt lat="49.559252" lon="20.063211"></trkpt><trkpt lat="49.559227" lon="20.062725"></trkpt><trkpt lat="49.559115" lon="20.061818"></trkpt><trkpt lat="49.559126" lon="20.061217"></trkpt><trkpt lat="49.559257" lon="20.060745"></trkpt><trkpt lat="49.559425" lon="20.059899"></trkpt><trkpt lat="49.559439" lon="20.059466"></trkpt><trkpt lat="49.559131" lon="20.047021"></trkpt><trkpt lat="49.559161" lon="20.046372"></trkpt><trkpt lat="49.559119" lon="20.045797"></trkpt><trkpt lat="49.559166" lon="20.045331"></trkpt><trkpt lat="49.559272" lon="20.044831"></trkpt><trkpt lat="49.559422" lon="20.043514"></trkpt><trkpt lat="49.55956" lon="20.043019"></trkpt><trkpt lat="49.559593" lon="20.042553"></trkpt><trkpt lat="49.559705" lon="20.041923"></trkpt><trkpt lat="49.559941" lon="20.039662"></trkpt><trkpt lat="49.560213" lon="20.039645"></trkpt><trkpt lat="49.560348" lon="20.039276"></trkpt><trkpt lat="49.560659" lon="20.038929"></trkpt><trkpt lat="49.56097" lon="20.038768"></trkpt><trkpt lat="49.561341" lon="20.03881"></trkpt><trkpt lat="49.561855" lon="20.038652"></trkpt><trkpt lat="49.562114" lon="20.038481"></trkpt><trkpt lat="49.562442" lon="20.038359"></trkpt><trkpt lat="49.563014" lon="20.038058"></trkpt><trkpt lat="49.564024" lon="20.037784"></trkpt><trkpt lat="49.564407" lon="20.037787"></trkpt><trkpt lat="49.564694" lon="20.037741"></trkpt><trkpt lat="49.565103" lon="20.037879"></trkpt><trkpt lat="49.565379" lon="20.03804"></trkpt><trkpt lat="49.565695" lon="20.038128"></trkpt><trkpt lat="49.566282" lon="20.037849"></trkpt><trkpt lat="49.566615" lon="20.037507"></trkpt><trkpt lat="49.566782" lon="20.037162"></trkpt><trkpt lat="49.567125" lon="20.037012"></trkpt><trkpt lat="49.567434" lon="20.036708"></trkpt><trkpt lat="49.567792" lon="20.03651"></trkpt><trkpt lat="49.568228" lon="20.03613"></trkpt><trkpt lat="49.568499" lon="20.035818"></trkpt><trkpt lat="49.568754" lon="20.035604"></trkpt><trkpt lat="49.569467" lon="20.03483"></trkpt><trkpt lat="49.569966" lon="20.034155"></trkpt><trkpt lat="49.570221" lon="20.033945"></trkpt><trkpt lat="49.570471" lon="20.033611"></trkpt><trkpt lat="49.572012" lon="20.031017"></trkpt><trkpt lat="49.572059" lon="20.030558"></trkpt><trkpt lat="49.572084" lon="20.029918"></trkpt><trkpt lat="49.572154" lon="20.029443"></trkpt><trkpt lat="49.572355" lon="20.028904"></trkpt><trkpt lat="49.572642" lon="20.028281"></trkpt><trkpt lat="49.572864" lon="20.027982"></trkpt><trkpt lat="49.573159" lon="20.027805"></trkpt><trkpt lat="49.573538" lon="20.02766"></trkpt><trkpt lat="49.573793" lon="20.027456"></trkpt><trkpt lat="49.574056" lon="20.027135"></trkpt><trkpt lat="49.574318" lon="20.026983"></trkpt><trkpt lat="49.574632" lon="20.026874"></trkpt><trkpt lat="49.574895" lon="20.026719"></trkpt><trkpt lat="49.575203" lon="20.026607"></trkpt><trkpt lat="49.575544" lon="20.026544"></trkpt><trkpt lat="49.576091" lon="20.026305"></trkpt><trkpt lat="49.576372" lon="20.025967"></trkpt><trkpt lat="49.57666" lon="20.025799"></trkpt><trkpt lat="49.577087" lon="20.025477"></trkpt><trkpt lat="49.577557" lon="20.024993"></trkpt><trkpt lat="49.577679" lon="20.024532"></trkpt><trkpt lat="49.577767" lon="20.024093"></trkpt><trkpt lat="49.57791" lon="20.023059"></trkpt><trkpt lat="49.577804" lon="20.022539"></trkpt><trkpt lat="49.577828" lon="20.021951"></trkpt><trkpt lat="49.57782" lon="20.02151"></trkpt><trkpt lat="49.57789" lon="20.021029"></trkpt><trkpt lat="49.578083" lon="20.020125"></trkpt><trkpt lat="49.578272" lon="20.019769"></trkpt><trkpt lat="49.578417" lon="20.01932"></trkpt><trkpt lat="49.578512" lon="20.018836"></trkpt><trkpt lat="49.578747" lon="20.018047"></trkpt><trkpt lat="49.578931" lon="20.017596"></trkpt><trkpt lat="49.579105" lon="20.017277"></trkpt><trkpt lat="49.57919" lon="20.016777"></trkpt><trkpt lat="49.579204" lon="20.016294"></trkpt><trkpt lat="49.579277" lon="20.015799"></trkpt><trkpt lat="49.579412" lon="20.015403"></trkpt><trkpt lat="49.579638" lon="20.015089"></trkpt><trkpt lat="49.581011" lon="20.012805"></trkpt><trkpt lat="49.581162" lon="20.012222"></trkpt><trkpt lat="49.581338" lon="20.011779"></trkpt><trkpt lat="49.581405" lon="20.011366"></trkpt><trkpt lat="49.581677" lon="20.01016"></trkpt><trkpt lat="49.581726" lon="20.009499"></trkpt><trkpt lat="49.581836" lon="20.009085"></trkpt><trkpt lat="49.582171" lon="20.009096"></trkpt><trkpt lat="49.582575" lon="20.008782"></trkpt><trkpt lat="49.582773" lon="20.00846"></trkpt><trkpt lat="49.582583" lon="20.008121"></trkpt></trkseg></trk></gpx>