<?xml version="1.0" encoding="UTF-8" standalone="no" ?><gpx xmlns="http://www.topografix.com/GPX/1/1" xmlns:gpxx="http://www.garmin.com/xmlschemas/GpxExtensions/v3" ><trk><trkseg><trkpt lat="50.4911620449" lon="16.3279867731"></trkpt><trkpt lat="50.4908718634" lon="16.3279327098"></trkpt><trkpt lat="50.4904950131" lon="16.3281377312"></trkpt><trkpt lat="50.4890222289" lon="16.3292768318"></trkpt><trkpt lat="50.4893059563" lon="16.329534743"></trkpt><trkpt lat="50.4892663937" lon="16.329971524"></trkpt><trkpt lat="50.4891839158" lon="16.3303909544"></trkpt><trkpt lat="50.4889757093" lon="16.3308221195"></trkpt><trkpt lat="50.488827182" lon="16.3312123809"></trkpt><trkpt lat="50.4886923172" lon="16.3316924125"></trkpt><trkpt lat="50.4884644132" lon="16.3320880383"></trkpt><trkpt lat="50.4882241879" lon="16.3324005995"></trkpt><trkpt lat="50.4879678693" lon="16.3325946406"></trkpt><trkpt lat="50.4873673897" lon="16.3332246244"></trkpt><trkpt lat="50.4872926231" lon="16.3337318134"></trkpt><trkpt lat="50.4871329479" lon="16.3342552632"></trkpt><trkpt lat="50.4868214764" lon="16.3344244938"></trkpt><trkpt lat="50.4865782335" lon="16.3347050361"></trkpt><trkpt lat="50.4861039016" lon="16.3351439964"></trkpt><trkpt lat="50.4854123108" lon="16.3356496766"></trkpt><trkpt lat="50.4851357918" lon="16.3358054962"></trkpt><trkpt lat="50.4848403297" lon="16.3358888961"></trkpt><trkpt lat="50.4845492262" lon="16.3360871281"></trkpt><trkpt lat="50.4844545946" lon="16.3365462888"></trkpt><trkpt lat="50.4841096792" lon="16.3365589455"></trkpt><trkpt lat="50.4838658497" lon="16.3368608616"></trkpt><trkpt lat="50.4836739041" lon="16.3372169249"></trkpt><trkpt lat="50.4836316593" lon="16.3376936875"></trkpt><trkpt lat="50.4837626684" lon="16.3381093461"></trkpt><trkpt lat="50.4839720484" lon="16.3386019506"></trkpt><trkpt lat="50.4842532612" lon="16.338730529"></trkpt><trkpt lat="50.4845405091" lon="16.3387363963"></trkpt><trkpt lat="50.4847847577" lon="16.3390658051"></trkpt><trkpt lat="50.4852004163" lon="16.3394870795"></trkpt><trkpt lat="50.4854623508" lon="16.3393733371"></trkpt><trkpt lat="50.485622026" lon="16.3397321664"></trkpt><trkpt lat="50.485319104" lon="16.3399157301"></trkpt><trkpt lat="50.4851307627" lon="16.3403518405"></trkpt><trkpt lat="50.4848444369" lon="16.3408221491"></trkpt><trkpt lat="50.4850813095" lon="16.3405441213"></trkpt><trkpt lat="50.4852576647" lon="16.3402152993"></trkpt><trkpt lat="50.4853749275" lon="16.3398284744"></trkpt><trkpt lat="50.485632671" lon="16.3396913465"></trkpt><trkpt lat="50.4854134005" lon="16.3393554837"></trkpt><trkpt lat="50.4854891729" lon="16.3397795241"></trkpt><trkpt lat="50.4852281604" lon="16.3400248624"></trkpt><trkpt lat="50.4850993305" lon="16.3404430356"></trkpt><trkpt lat="50.4848834965" lon="16.3407193869"></trkpt><trkpt lat="50.4846954066" lon="16.3410458621"></trkpt><trkpt lat="50.4850522242" lon="16.3408557605"></trkpt><trkpt lat="50.4852999095" lon="16.340606818"></trkpt><trkpt lat="50.4855293222" lon="16.3409765437"></trkpt><trkpt lat="50.4853545595" lon="16.3413358759"></trkpt><trkpt lat="50.4856602475" lon="16.3410050422"></trkpt><trkpt lat="50.4846643098" lon="16.3440904208"></trkpt><trkpt lat="50.4846006911" lon="16.343153324"></trkpt><trkpt lat="50.4846589454" lon="16.342121847"></trkpt><trkpt lat="50.484950887" lon="16.3422231842"></trkpt><trkpt lat="50.4847368971" lon="16.3426116854"></trkpt><trkpt lat="50.4846527427" lon="16.3431089837"></trkpt><trkpt lat="50.4843919817" lon="16.3428633939"></trkpt><trkpt lat="50.4841194022" lon="16.3428254239"></trkpt><trkpt lat="50.4838531092" lon="16.3430033717"></trkpt><trkpt lat="50.4835769255" lon="16.3431020267"></trkpt><trkpt lat="50.4832039308" lon="16.3433062937"></trkpt><trkpt lat="50.483029671" lon="16.3436403126"></trkpt><trkpt lat="50.4829162639" lon="16.3440493494"></trkpt><trkpt lat="50.4826455284" lon="16.3441672828"></trkpt><trkpt lat="50.482396502" lon="16.3445872162"></trkpt><trkpt lat="50.4824096616" lon="16.3450807426"></trkpt><trkpt lat="50.4822681751" lon="16.3455717545"></trkpt><trkpt lat="50.4824534152" lon="16.344894832"></trkpt><trkpt lat="50.4821240902" lon="16.3449758012"></trkpt><trkpt lat="50.482443776" lon="16.3449596241"></trkpt><trkpt lat="50.4823856056" lon="16.3453994226"></trkpt><trkpt lat="50.4821321368" lon="16.3456418272"></trkpt><trkpt lat="50.4823490605" lon="16.3453471195"></trkpt><trkpt lat="50.4824907985" lon="16.3449659944"></trkpt><trkpt lat="50.4823602084" lon="16.3445769064"></trkpt><trkpt lat="50.4822718631" lon="16.3440984674"></trkpt><trkpt lat="50.482334476" lon="16.3436835632"></trkpt><trkpt lat="50.482053766" lon="16.3437523786"></trkpt><trkpt lat="50.4816499259" lon="16.3435612712"></trkpt><trkpt lat="50.481569292" lon="16.3430927228"></trkpt><trkpt lat="50.4815537855" lon="16.3426067401"></trkpt><trkpt lat="50.4816977028" lon="16.3421766646"></trkpt><trkpt lat="50.4818758182" lon="16.3414727524"></trkpt><trkpt lat="50.4817277938" lon="16.3409695867"></trkpt><trkpt lat="50.4814542085" lon="16.3402562868"></trkpt><trkpt lat="50.481184395" lon="16.3400715496"></trkpt><trkpt lat="50.4808581714" lon="16.3397743274"></trkpt><trkpt lat="50.4807155952" lon="16.3392633665"></trkpt><trkpt lat="50.4807186127" lon="16.3388106599"></trkpt><trkpt lat="50.480654072" lon="16.3383943308"></trkpt><trkpt lat="50.4804939777" lon="16.3378493395"></trkpt><trkpt lat="50.4802140221" lon="16.3361566141"></trkpt><trkpt lat="50.4802980088" lon="16.3355539553"></trkpt><trkpt lat="50.4804993421" lon="16.3350145798"></trkpt><trkpt lat="50.481268717" lon="16.3333499338"></trkpt><trkpt lat="50.4816070944" lon="16.3329448365"></trkpt><trkpt lat="50.4817842878" lon="16.3325765356"></trkpt><trkpt lat="50.4828705825" lon="16.3307643682"></trkpt><trkpt lat="50.4831718281" lon="16.3303466979"></trkpt><trkpt lat="50.4835134745" lon="16.3301478792"></trkpt><trkpt lat="50.4838763271" lon="16.3301355578"></trkpt><trkpt lat="50.484160725" lon="16.3302978314"></trkpt><trkpt lat="50.48440204" lon="16.3305701595"></trkpt><trkpt lat="50.4846229032" lon="16.3309525419"></trkpt><trkpt lat="50.484823063" lon="16.3314818591"></trkpt><trkpt lat="50.48511995" lon="16.3318318035"></trkpt><trkpt lat="50.4853692278" lon="16.3322161138"></trkpt><trkpt lat="50.4855358601" lon="16.332587935"></trkpt><trkpt lat="50.4857029952" lon="16.3330786116"></trkpt><trkpt lat="50.4860071745" lon="16.3342188857"></trkpt><trkpt lat="50.4861017223" lon="16.3347163517"></trkpt><trkpt lat="50.486308923" lon="16.3351066131"></trkpt><trkpt lat="50.486582173" lon="16.3349512964"></trkpt><trkpt lat="50.4868807364" lon="16.3346539903"></trkpt><trkpt lat="50.4872114025" lon="16.3344385754"></trkpt><trkpt lat="50.4873673059" lon="16.3340390101"></trkpt><trkpt lat="50.487405695" lon="16.333527714"></trkpt><trkpt lat="50.487590516" lon="16.3331945334"></trkpt><trkpt lat="50.4878918454" lon="16.3329483569"></trkpt><trkpt lat="50.4881407879" lon="16.332673179"></trkpt><trkpt lat="50.4887669999" lon="16.3317120261"></trkpt><trkpt lat="50.4889256693" lon="16.3312687911"></trkpt><trkpt lat="50.4893780407" lon="16.3296465576"></trkpt><trkpt lat="50.489114346" lon="16.3293391932"></trkpt><trkpt lat="50.4888708517" lon="16.3289952837"></trkpt><trkpt lat="50.4892399907" lon="16.3287548069"></trkpt><trkpt lat="50.4895540606" lon="16.3286048546"></trkpt><trkpt lat="50.4899593256" lon="16.3284820598"></trkpt><trkpt lat="50.4902703781" lon="16.3282632083"></trkpt><trkpt lat="50.4905411974" lon="16.3281258289"></trkpt><trkpt lat="50.4910426866" lon="16.3277838472"></trkpt><trkpt lat="50.4914044496" lon="16.3278061431"></trkpt></trkseg></trk></gpx>