<?xml version="1.0" encoding="UTF-8" standalone="no" ?><gpx xmlns="http://www.topografix.com/GPX/1/1" xmlns:gpxx="http://www.garmin.com/xmlschemas/GpxExtensions/v3" ><trk><trkseg><trkpt lat="49.418912" lon="19.097294"></trkpt><trkpt lat="49.418912" lon="19.096853"></trkpt><trkpt lat="49.418983" lon="19.095778"></trkpt><trkpt lat="49.419194" lon="19.094826"></trkpt><trkpt lat="49.419464" lon="19.094901"></trkpt><trkpt lat="49.42218" lon="19.096052"></trkpt><trkpt lat="49.422515" lon="19.096274"></trkpt><trkpt lat="49.422793" lon="19.096295"></trkpt><trkpt lat="49.423093" lon="19.096117"></trkpt><trkpt lat="49.423391" lon="19.096072"></trkpt><trkpt lat="49.423717" lon="19.09581"></trkpt><trkpt lat="49.423902" lon="19.095448"></trkpt><trkpt lat="49.424176" lon="19.094768"></trkpt><trkpt lat="49.424383" lon="19.094445"></trkpt><trkpt lat="49.424806" lon="19.093637"></trkpt><trkpt lat="49.425523" lon="19.092518"></trkpt><trkpt lat="49.425676" lon="19.092099"></trkpt><trkpt lat="49.426032" lon="19.090887"></trkpt><trkpt lat="49.426094" lon="19.090466"></trkpt><trkpt lat="49.426109" lon="19.089863"></trkpt><trkpt lat="49.42621" lon="19.089409"></trkpt><trkpt lat="49.426632" lon="19.088064"></trkpt><trkpt lat="49.426865" lon="19.08773"></trkpt><trkpt lat="49.427328" lon="19.0872"></trkpt><trkpt lat="49.427636" lon="19.087092"></trkpt><trkpt lat="49.428039" lon="19.086868"></trkpt><trkpt lat="49.428306" lon="19.086786"></trkpt><trkpt lat="49.428589" lon="19.086738"></trkpt><trkpt lat="49.428837" lon="19.086549"></trkpt><trkpt lat="49.429099" lon="19.086276"></trkpt><trkpt lat="49.42971" lon="19.085754"></trkpt><trkpt lat="49.43009" lon="19.085628"></trkpt><trkpt lat="49.430494" lon="19.085355"></trkpt><trkpt lat="49.43089" lon="19.085303"></trkpt><trkpt lat="49.431129" lon="19.085562"></trkpt><trkpt lat="49.43151" lon="19.085711"></trkpt><trkpt lat="49.431824" lon="19.085919"></trkpt><trkpt lat="49.433638" lon="19.087436"></trkpt><trkpt lat="49.433865" lon="19.087835"></trkpt><trkpt lat="49.434076" lon="19.088115"></trkpt><trkpt lat="49.434323" lon="19.088518"></trkpt><trkpt lat="49.434567" lon="19.088792"></trkpt><trkpt lat="49.435418" lon="19.089545"></trkpt><trkpt lat="49.435702" lon="19.089472"></trkpt><trkpt lat="49.436047" lon="19.089617"></trkpt><trkpt lat="49.436532" lon="19.089737"></trkpt><trkpt lat="49.436804" lon="19.08975"></trkpt><trkpt lat="49.437779" lon="19.089937"></trkpt><trkpt lat="49.438231" lon="19.089742"></trkpt><trkpt lat="49.438395" lon="19.089212"></trkpt><trkpt lat="49.438594" lon="19.088916"></trkpt><trkpt lat="49.438852" lon="19.089154"></trkpt><trkpt lat="49.439025" lon="19.089552"></trkpt><trkpt lat="49.439226" lon="19.089838"></trkpt><trkpt lat="49.439416" lon="19.089459"></trkpt><trkpt lat="49.439557" lon="19.089026"></trkpt><trkpt lat="49.439761" lon="19.088609"></trkpt><trkpt lat="49.440131" lon="19.088289"></trkpt><trkpt lat="49.440338" lon="19.088001"></trkpt><trkpt lat="49.440576" lon="19.087568"></trkpt><trkpt lat="49.440749" lon="19.087159"></trkpt><trkpt lat="49.441101" lon="19.087023"></trkpt><trkpt lat="49.441399" lon="19.086862"></trkpt><trkpt lat="49.443328" lon="19.086131"></trkpt><trkpt lat="49.44369" lon="19.086193"></trkpt><trkpt lat="49.443992" lon="19.086199"></trkpt><trkpt lat="49.446102" lon="19.08587"></trkpt><trkpt lat="49.446391" lon="19.085782"></trkpt><trkpt lat="49.450674" lon="19.08386"></trkpt><trkpt lat="49.451099" lon="19.083775"></trkpt><trkpt lat="49.451487" lon="19.084069"></trkpt><trkpt lat="49.451818" lon="19.08423"></trkpt><trkpt lat="49.452158" lon="19.084179"></trkpt><trkpt lat="49.452477" lon="19.08403"></trkpt><trkpt lat="49.452847" lon="19.083956"></trkpt><trkpt lat="49.45312" lon="19.083859"></trkpt><trkpt lat="49.453461" lon="19.083813"></trkpt><trkpt lat="49.4547" lon="19.08416"></trkpt><trkpt lat="49.45495" lon="19.084513"></trkpt><trkpt lat="49.455246" lon="19.084709"></trkpt><trkpt lat="49.455571" lon="19.084774"></trkpt><trkpt lat="49.45639" lon="19.085089"></trkpt><trkpt lat="49.456713" lon="19.085051"></trkpt><trkpt lat="49.457282" lon="19.084887"></trkpt><trkpt lat="49.457613" lon="19.084725"></trkpt><trkpt lat="49.458014" lon="19.08461"></trkpt><trkpt lat="49.458338" lon="19.084388"></trkpt><trkpt lat="49.458739" lon="19.084208"></trkpt><trkpt lat="49.459031" lon="19.084024"></trkpt><trkpt lat="49.459364" lon="19.08369"></trkpt><trkpt lat="49.459999" lon="19.083179"></trkpt><trkpt lat="49.460299" lon="19.083187"></trkpt><trkpt lat="49.460702" lon="19.083406"></trkpt><trkpt lat="49.460987" lon="19.083514"></trkpt><trkpt lat="49.461412" lon="19.083747"></trkpt><trkpt lat="49.461755" lon="19.083997"></trkpt><trkpt lat="49.462438" lon="19.084345"></trkpt><trkpt lat="49.462853" lon="19.084496"></trkpt><trkpt lat="49.464495" lon="19.085332"></trkpt><trkpt lat="49.464817" lon="19.085605"></trkpt><trkpt lat="49.465016" lon="19.085926"></trkpt><trkpt lat="49.465303" lon="19.086288"></trkpt><trkpt lat="49.46566" lon="19.086501"></trkpt><trkpt lat="49.469826" lon="19.089676"></trkpt><trkpt lat="49.470135" lon="19.090118"></trkpt><trkpt lat="49.471217" lon="19.091987"></trkpt><trkpt lat="49.471573" lon="19.09248"></trkpt><trkpt lat="49.472231" lon="19.093584"></trkpt><trkpt lat="49.472297" lon="19.094073"></trkpt><trkpt lat="49.472495" lon="19.094594"></trkpt><trkpt lat="49.47267" lon="19.094973"></trkpt><trkpt lat="49.472911" lon="19.095615"></trkpt><trkpt lat="49.474164" lon="19.098339"></trkpt><trkpt lat="49.47446" lon="19.098346"></trkpt><trkpt lat="49.47479" lon="19.098507"></trkpt><trkpt lat="49.475114" lon="19.098584"></trkpt><trkpt lat="49.475366" lon="19.098787"></trkpt><trkpt lat="49.477177" lon="19.099926"></trkpt><trkpt lat="49.477475" lon="19.099848"></trkpt><trkpt lat="49.477976" lon="19.099786"></trkpt><trkpt lat="49.478307" lon="19.099607"></trkpt><trkpt lat="49.478737" lon="19.099485"></trkpt><trkpt lat="49.479107" lon="19.099301"></trkpt><trkpt lat="49.481265" lon="19.097878"></trkpt><trkpt lat="49.481572" lon="19.097905"></trkpt><trkpt lat="49.481845" lon="19.097801"></trkpt><trkpt lat="49.482149" lon="19.097746"></trkpt><trkpt lat="49.487097" lon="19.09788"></trkpt><trkpt lat="49.487413" lon="19.097532"></trkpt><trkpt lat="49.487671" lon="19.097311"></trkpt><trkpt lat="49.488487" lon="19.096752"></trkpt><trkpt lat="49.489099" lon="19.096434"></trkpt><trkpt lat="49.489431" lon="19.096344"></trkpt><trkpt lat="49.489667" lon="19.096095"></trkpt><trkpt lat="49.490059" lon="19.0959"></trkpt><trkpt lat="49.490608" lon="19.095534"></trkpt><trkpt lat="49.490893" lon="19.095396"></trkpt><trkpt lat="49.491178" lon="19.09539"></trkpt><trkpt lat="49.49154" lon="19.095294"></trkpt><trkpt lat="49.492317" lon="19.095224"></trkpt><trkpt lat="49.492621" lon="19.095313"></trkpt><trkpt lat="49.493202" lon="19.095391"></trkpt><trkpt lat="49.496002" lon="19.094469"></trkpt><trkpt lat="49.496318" lon="19.094306"></trkpt><trkpt lat="49.496552" lon="19.093989"></trkpt><trkpt lat="49.496788" lon="19.093564"></trkpt><trkpt lat="49.497698" lon="19.092241"></trkpt><trkpt lat="49.498078" lon="19.092313"></trkpt><trkpt lat="49.498385" lon="19.092174"></trkpt><trkpt lat="49.498778" lon="19.092058"></trkpt><trkpt lat="49.499065" lon="19.092022"></trkpt><trkpt lat="49.499343" lon="19.092367"></trkpt><trkpt lat="49.499657" lon="19.092687"></trkpt><trkpt lat="49.500146" lon="19.093289"></trkpt><trkpt lat="49.500368" lon="19.093715"></trkpt><trkpt lat="49.500557" lon="19.094153"></trkpt><trkpt lat="49.500881" lon="19.094759"></trkpt><trkpt lat="49.50155" lon="19.096359"></trkpt><trkpt lat="49.501613" lon="19.09677"></trkpt><trkpt lat="49.502127" lon="19.098922"></trkpt><trkpt lat="49.502328" lon="19.099298"></trkpt><trkpt lat="49.50252" lon="19.099754"></trkpt><trkpt lat="49.503068" lon="19.100008"></trkpt><trkpt lat="49.502704" lon="19.099781"></trkpt><trkpt lat="49.502791" lon="19.100186"></trkpt><trkpt lat="49.503021" lon="19.100585"></trkpt><trkpt lat="49.503224" lon="19.100873"></trkpt><trkpt lat="49.503496" lon="19.101135"></trkpt><trkpt lat="49.503823" lon="19.101358"></trkpt><trkpt lat="49.504107" lon="19.101321"></trkpt><trkpt lat="49.504231" lon="19.101697"></trkpt><trkpt lat="49.504157" lon="19.101285"></trkpt><trkpt lat="49.503795" lon="19.101162"></trkpt><trkpt lat="49.503571" lon="19.100925"></trkpt><trkpt lat="49.503738" lon="19.101283"></trkpt><trkpt lat="49.504028" lon="19.101383"></trkpt><trkpt lat="49.504142" lon="19.1018"></trkpt><trkpt lat="49.504423" lon="19.102227"></trkpt><trkpt lat="49.505044" lon="19.103009"></trkpt><trkpt lat="49.506778" lon="19.105615"></trkpt><trkpt lat="49.506818" lon="19.106047"></trkpt><trkpt lat="49.506922" lon="19.106677"></trkpt><trkpt lat="49.507092" lon="19.107227"></trkpt><trkpt lat="49.507302" lon="19.107708"></trkpt><trkpt lat="49.507556" lon="19.108156"></trkpt><trkpt lat="49.508177" lon="19.109542"></trkpt><trkpt lat="49.508318" lon="19.110008"></trkpt><trkpt lat="49.509375" lon="19.112771"></trkpt><trkpt lat="49.509669" lon="19.113111"></trkpt><trkpt lat="49.51338" lon="19.116629"></trkpt><trkpt lat="49.516418" lon="19.113098"></trkpt><trkpt lat="49.516669" lon="19.112667"></trkpt></trkseg></trk></gpx>