<?xml version="1.0" encoding="UTF-8" standalone="no" ?><gpx xmlns="http://www.topografix.com/GPX/1/1" xmlns:gpxx="http://www.garmin.com/xmlschemas/GpxExtensions/v3" ><trk><trkseg><trkpt lat="52.475413" lon="16.90518"></trkpt><trkpt lat="52.48523" lon="16.910024"></trkpt><trkpt lat="52.486164" lon="16.909816"></trkpt><trkpt lat="52.486696" lon="16.909789"></trkpt><trkpt lat="52.487368" lon="16.909438"></trkpt><trkpt lat="52.489123" lon="16.908187"></trkpt><trkpt lat="52.489139" lon="16.906756"></trkpt><trkpt lat="52.489085" lon="16.905777"></trkpt><trkpt lat="52.489236" lon="16.905399"></trkpt><trkpt lat="52.489532" lon="16.905293"></trkpt><trkpt lat="52.491318" lon="16.90493"></trkpt><trkpt lat="52.491037" lon="16.904872"></trkpt><trkpt lat="52.491213" lon="16.903911"></trkpt><trkpt lat="52.491543" lon="16.903399"></trkpt><trkpt lat="52.502903" lon="16.888758"></trkpt><trkpt lat="52.503333" lon="16.888785"></trkpt><trkpt lat="52.503947" lon="16.888655"></trkpt><trkpt lat="52.504184" lon="16.88836"></trkpt><trkpt lat="52.504011" lon="16.888719"></trkpt><trkpt lat="52.504491" lon="16.888737"></trkpt><trkpt lat="52.504829" lon="16.888632"></trkpt><trkpt lat="52.505116" lon="16.888591"></trkpt><trkpt lat="52.5107" lon="16.890743"></trkpt><trkpt lat="52.511315" lon="16.891812"></trkpt><trkpt lat="52.514031" lon="16.897515"></trkpt><trkpt lat="52.514366" lon="16.898568"></trkpt><trkpt lat="52.518249" lon="16.908247"></trkpt><trkpt lat="52.518762" lon="16.90885"></trkpt><trkpt lat="52.521867" lon="16.91174"></trkpt><trkpt lat="52.522267" lon="16.911743"></trkpt><trkpt lat="52.528251" lon="16.912718"></trkpt><trkpt lat="52.528656" lon="16.912715"></trkpt><trkpt lat="52.528965" lon="16.912858"></trkpt><trkpt lat="52.530597" lon="16.913901"></trkpt><trkpt lat="52.530937" lon="16.914623"></trkpt><trkpt lat="52.531125" lon="16.915219"></trkpt><trkpt lat="52.541395" lon="16.944553"></trkpt><trkpt lat="52.541789" lon="16.945081"></trkpt><trkpt lat="52.542508" lon="16.946238"></trkpt><trkpt lat="52.542964" lon="16.947163"></trkpt><trkpt lat="52.543041" lon="16.948001"></trkpt><trkpt lat="52.543255" lon="16.94851"></trkpt><trkpt lat="52.543532" lon="16.948699"></trkpt><trkpt lat="52.544165" lon="16.949262"></trkpt><trkpt lat="52.544127" lon="16.949763"></trkpt><trkpt lat="52.543782" lon="16.951504"></trkpt><trkpt lat="52.543285" lon="16.952164"></trkpt><trkpt lat="52.542737" lon="16.952712"></trkpt><trkpt lat="52.542139" lon="16.953084"></trkpt><trkpt lat="52.540725" lon="16.954362"></trkpt><trkpt lat="52.540604" lon="16.954794"></trkpt><trkpt lat="52.540519" lon="16.955632"></trkpt><trkpt lat="52.540592" lon="16.956436"></trkpt><trkpt lat="52.540715" lon="16.95717"></trkpt><trkpt lat="52.541375" lon="16.963904"></trkpt><trkpt lat="52.541304" lon="16.965112"></trkpt><trkpt lat="52.541309" lon="16.965979"></trkpt><trkpt lat="52.54198" lon="16.965891"></trkpt><trkpt lat="52.54238" lon="16.965715"></trkpt><trkpt lat="52.555261" lon="16.962107"></trkpt><trkpt lat="52.555671" lon="16.962109"></trkpt><trkpt lat="52.57597" lon="16.959851"></trkpt><trkpt lat="52.57646" lon="16.960059"></trkpt><trkpt lat="52.576944" lon="16.960349"></trkpt><trkpt lat="52.577194" lon="16.960557"></trkpt><trkpt lat="52.577594" lon="16.960814"></trkpt><trkpt lat="52.577942" lon="16.961144"></trkpt><trkpt lat="52.579207" lon="16.962612"></trkpt><trkpt lat="52.58052" lon="16.96454"></trkpt><trkpt lat="52.580734" lon="16.964944"></trkpt><trkpt lat="52.580901" lon="16.965328"></trkpt><trkpt lat="52.581273" lon="16.966016"></trkpt><trkpt lat="52.581606" lon="16.966778"></trkpt><trkpt lat="52.581683" lon="16.967406"></trkpt><trkpt lat="52.582032" lon="16.96903"></trkpt><trkpt lat="52.582425" lon="16.96983"></trkpt><trkpt lat="52.583036" lon="16.970826"></trkpt><trkpt lat="52.583424" lon="16.970917"></trkpt><trkpt lat="52.583781" lon="16.971526"></trkpt><trkpt lat="52.584104" lon="16.971515"></trkpt><trkpt lat="52.584852" lon="16.971712"></trkpt><trkpt lat="52.585835" lon="16.971291"></trkpt><trkpt lat="52.586438" lon="16.970901"></trkpt><trkpt lat="52.587027" lon="16.970783"></trkpt><trkpt lat="52.587403" lon="16.970765"></trkpt><trkpt lat="52.588038" lon="16.970368"></trkpt><trkpt lat="52.588746" lon="16.970151"></trkpt><trkpt lat="52.589558" lon="16.970246"></trkpt><trkpt lat="52.592375" lon="16.969389"></trkpt><trkpt lat="52.592665" lon="16.969095"></trkpt><trkpt lat="52.601612" lon="16.96183"></trkpt><trkpt lat="52.610781" lon="16.956103"></trkpt><trkpt lat="52.611237" lon="16.956011"></trkpt><trkpt lat="52.618818" lon="16.953349"></trkpt><trkpt lat="52.619216" lon="16.953084"></trkpt><trkpt lat="52.625341" lon="16.950011"></trkpt><trkpt lat="52.636651" lon="16.946205"></trkpt><trkpt lat="52.63732" lon="16.946314"></trkpt><trkpt lat="52.637696" lon="16.946467"></trkpt><trkpt lat="52.638802" lon="16.94711"></trkpt><trkpt lat="52.642662" lon="16.950035"></trkpt><trkpt lat="52.65551" lon="16.962654"></trkpt><trkpt lat="52.655637" lon="16.963985"></trkpt><trkpt lat="52.65673" lon="16.970011"></trkpt><trkpt lat="52.657084" lon="16.970836"></trkpt><trkpt lat="52.65729" lon="16.971684"></trkpt><trkpt lat="52.657415" lon="16.972508"></trkpt><trkpt lat="52.657483" lon="16.973349"></trkpt><trkpt lat="52.65994" lon="17.006383"></trkpt><trkpt lat="52.66013" lon="17.006881"></trkpt><trkpt lat="52.660276" lon="17.007443"></trkpt><trkpt lat="52.660294" lon="17.00795"></trkpt><trkpt lat="52.660503" lon="17.008907"></trkpt><trkpt lat="52.660712" lon="17.009319"></trkpt><trkpt lat="52.661011" lon="17.010129"></trkpt><trkpt lat="52.661151" lon="17.010868"></trkpt><trkpt lat="52.661454" lon="17.012053"></trkpt><trkpt lat="52.661639" lon="17.012538"></trkpt><trkpt lat="52.661967" lon="17.01306"></trkpt><trkpt lat="52.662705" lon="17.014633"></trkpt><trkpt lat="52.663263" lon="17.016288"></trkpt><trkpt lat="52.663202" lon="17.016732"></trkpt><trkpt lat="52.662852" lon="17.017552"></trkpt><trkpt lat="52.663008" lon="17.018476"></trkpt><trkpt lat="52.663168" lon="17.019019"></trkpt><trkpt lat="52.663287" lon="17.019554"></trkpt><trkpt lat="52.663552" lon="17.020303"></trkpt><trkpt lat="52.664291" lon="17.023047"></trkpt><trkpt lat="52.664354" lon="17.023649"></trkpt><trkpt lat="52.664392" lon="17.027311"></trkpt><trkpt lat="52.664267" lon="17.027812"></trkpt><trkpt lat="52.664076" lon="17.028339"></trkpt><trkpt lat="52.6636" lon="17.029968"></trkpt><trkpt lat="52.663568" lon="17.031008"></trkpt><trkpt lat="52.663492" lon="17.031562"></trkpt><trkpt lat="52.662928" lon="17.034463"></trkpt><trkpt lat="52.662869" lon="17.035018"></trkpt><trkpt lat="52.662614" lon="17.03655"></trkpt><trkpt lat="52.662694" lon="17.037326"></trkpt><trkpt lat="52.662838" lon="17.038206"></trkpt><trkpt lat="52.663021" lon="17.039924"></trkpt><trkpt lat="52.663263" lon="17.040786"></trkpt><trkpt lat="52.663438" lon="17.041232"></trkpt><trkpt lat="52.663642" lon="17.041891"></trkpt><trkpt lat="52.663927" lon="17.043328"></trkpt><trkpt lat="52.663993" lon="17.043981"></trkpt><trkpt lat="52.664085" lon="17.044521"></trkpt><trkpt lat="52.66461" lon="17.049786"></trkpt><trkpt lat="52.664417" lon="17.050817"></trkpt><trkpt lat="52.663487" lon="17.057993"></trkpt><trkpt lat="52.663674" lon="17.058332"></trkpt><trkpt lat="52.663935" lon="17.058539"></trkpt><trkpt lat="52.664199" lon="17.058662"></trkpt><trkpt lat="52.664638" lon="17.058781"></trkpt><trkpt lat="52.665168" lon="17.058806"></trkpt><trkpt lat="52.667369" lon="17.059413"></trkpt><trkpt lat="52.667616" lon="17.059595"></trkpt><trkpt lat="52.667986" lon="17.059958"></trkpt><trkpt lat="52.66828" lon="17.060151"></trkpt><trkpt lat="52.669491" lon="17.060695"></trkpt><trkpt lat="52.669777" lon="17.060643"></trkpt><trkpt lat="52.670355" lon="17.060959"></trkpt><trkpt lat="52.670702" lon="17.061282"></trkpt><trkpt lat="52.671469" lon="17.061854"></trkpt><trkpt lat="52.671882" lon="17.062031"></trkpt><trkpt lat="52.672533" lon="17.062203"></trkpt><trkpt lat="52.672947" lon="17.062249"></trkpt><trkpt lat="52.684489" lon="17.065468"></trkpt><trkpt lat="52.685" lon="17.065961"></trkpt><trkpt lat="52.689168" lon="17.069184"></trkpt><trkpt lat="52.689972" lon="17.069404"></trkpt><trkpt lat="52.702446" lon="17.075076"></trkpt><trkpt lat="52.70313" lon="17.075892"></trkpt><trkpt lat="52.711221" lon="17.087488"></trkpt><trkpt lat="52.711549" lon="17.088056"></trkpt><trkpt lat="52.711778" lon="17.088332"></trkpt><trkpt lat="52.712204" lon="17.089048"></trkpt><trkpt lat="52.713868" lon="17.092777"></trkpt><trkpt lat="52.713922" lon="17.093223"></trkpt><trkpt lat="52.714004" lon="17.094678"></trkpt><trkpt lat="52.71368" lon="17.095239"></trkpt><trkpt lat="52.713396" lon="17.096036"></trkpt><trkpt lat="52.71298" lon="17.097914"></trkpt><trkpt lat="52.712981" lon="17.098528"></trkpt><trkpt lat="52.712819" lon="17.099431"></trkpt><trkpt lat="52.712507" lon="17.10011"></trkpt><trkpt lat="52.71226" lon="17.100538"></trkpt><trkpt lat="52.712087" lon="17.100907"></trkpt><trkpt lat="52.71127" lon="17.103092"></trkpt><trkpt lat="52.711131" lon="17.103754"></trkpt><trkpt lat="52.71109" lon="17.104289"></trkpt><trkpt lat="52.71106" lon="17.105612"></trkpt><trkpt lat="52.710841" lon="17.10652"></trkpt><trkpt lat="52.710465" lon="17.106845"></trkpt><trkpt lat="52.710024" lon="17.107102"></trkpt><trkpt lat="52.705223" lon="17.108957"></trkpt><trkpt lat="52.705041" lon="17.10861"></trkpt><trkpt lat="52.704705" lon="17.108264"></trkpt><trkpt lat="52.704383" lon="17.107804"></trkpt><trkpt lat="52.70411" lon="17.107641"></trkpt><trkpt lat="52.704228" lon="17.108139"></trkpt><trkpt lat="52.704396" lon="17.10853"></trkpt><trkpt lat="52.703891" lon="17.107547"></trkpt><trkpt lat="52.704276" lon="17.10766"></trkpt><trkpt lat="52.704682" lon="17.108225"></trkpt><trkpt lat="52.704944" lon="17.1085"></trkpt><trkpt lat="52.705267" lon="17.10925"></trkpt><trkpt lat="52.705389" lon="17.109717"></trkpt><trkpt lat="52.704768" lon="17.110173"></trkpt><trkpt lat="52.704402" lon="17.110371"></trkpt><trkpt lat="52.702728" lon="17.111633"></trkpt><trkpt lat="52.702956" lon="17.112769"></trkpt><trkpt lat="52.703194" lon="17.11361"></trkpt><trkpt lat="52.709101" lon="17.14068"></trkpt><trkpt lat="52.709227" lon="17.141747"></trkpt><trkpt lat="52.709619" lon="17.143936"></trkpt><trkpt lat="52.710041" lon="17.14495"></trkpt><trkpt lat="52.710491" lon="17.146309"></trkpt><trkpt lat="52.710249" lon="17.147304"></trkpt><trkpt lat="52.7094" lon="17.150027"></trkpt><trkpt lat="52.708991" lon="17.150135"></trkpt><trkpt lat="52.708794" lon="17.14977"></trkpt><trkpt lat="52.708225" lon="17.149741"></trkpt><trkpt lat="52.706015" lon="17.149188"></trkpt><trkpt lat="52.705703" lon="17.148968"></trkpt><trkpt lat="52.703846" lon="17.147325"></trkpt><trkpt lat="52.702963" lon="17.146272"></trkpt><trkpt lat="52.702634" lon="17.14563"></trkpt><trkpt lat="52.701794" lon="17.14366"></trkpt><trkpt lat="52.701376" lon="17.142401"></trkpt><trkpt lat="52.701168" lon="17.141897"></trkpt><trkpt lat="52.700827" lon="17.141468"></trkpt><trkpt lat="52.700583" lon="17.141093"></trkpt><trkpt lat="52.700065" lon="17.140897"></trkpt><trkpt lat="52.697441" lon="17.140326"></trkpt><trkpt lat="52.692762" lon="17.142072"></trkpt><trkpt lat="52.692163" lon="17.14279"></trkpt><trkpt lat="52.691416" lon="17.143526"></trkpt><trkpt lat="52.689752" lon="17.144849"></trkpt><trkpt lat="52.688891" lon="17.145386"></trkpt><trkpt lat="52.688597" lon="17.145635"></trkpt><trkpt lat="52.687976" lon="17.145925"></trkpt><trkpt lat="52.687644" lon="17.14594"></trkpt><trkpt lat="52.677472" lon="17.14859"></trkpt><trkpt lat="52.677213" lon="17.148787"></trkpt><trkpt lat="52.676755" lon="17.148921"></trkpt><trkpt lat="52.673367" lon="17.150672"></trkpt><trkpt lat="52.672846" lon="17.151272"></trkpt><trkpt lat="52.672521" lon="17.151725"></trkpt><trkpt lat="52.672415" lon="17.152247"></trkpt><trkpt lat="52.672439" lon="17.152773"></trkpt><trkpt lat="52.672342" lon="17.153232"></trkpt><trkpt lat="52.671658" lon="17.153795"></trkpt><trkpt lat="52.671353" lon="17.153819"></trkpt><trkpt lat="52.671162" lon="17.154559"></trkpt><trkpt lat="52.671065" lon="17.155051"></trkpt><trkpt lat="52.670902" lon="17.156279"></trkpt><trkpt lat="52.670973" lon="17.156976"></trkpt><trkpt lat="52.671524" lon="17.159606"></trkpt><trkpt lat="52.671752" lon="17.160138"></trkpt><trkpt lat="52.671979" lon="17.160556"></trkpt><trkpt lat="52.67228" lon="17.160716"></trkpt><trkpt lat="52.67457" lon="17.161574"></trkpt><trkpt lat="52.67405" lon="17.161377"></trkpt><trkpt lat="52.671745" lon="17.160003"></trkpt><trkpt lat="52.671483" lon="17.159376"></trkpt><trkpt lat="52.671275" lon="17.158689"></trkpt><trkpt lat="52.671182" lon="17.157803"></trkpt><trkpt lat="52.671176" lon="17.157347"></trkpt><trkpt lat="52.671717" lon="17.157496"></trkpt><trkpt lat="52.671698" lon="17.157944"></trkpt><trkpt lat="52.671898" lon="17.157622"></trkpt><trkpt lat="52.67135" lon="17.15727"></trkpt><trkpt lat="52.671098" lon="17.157543"></trkpt><trkpt lat="52.671209" lon="17.158571"></trkpt><trkpt lat="52.671425" lon="17.159377"></trkpt><trkpt lat="52.671743" lon="17.160133"></trkpt><trkpt lat="52.671929" lon="17.160499"></trkpt><trkpt lat="52.672807" lon="17.160937"></trkpt><trkpt lat="52.674352" lon="17.16203"></trkpt></trkseg></trk></gpx>