<?xml version="1.0" encoding="UTF-8" standalone="no" ?><gpx xmlns="http://www.topografix.com/GPX/1/1" xmlns:gpxx="http://www.garmin.com/xmlschemas/GpxExtensions/v3" ><trk><trkseg><trkpt lat="50.7743347529" lon="15.7379689347"></trkpt><trkpt lat="50.7742877305" lon="15.7374968659"></trkpt><trkpt lat="50.7740382012" lon="15.737316655"></trkpt><trkpt lat="50.7741742395" lon="15.7369136531"></trkpt><trkpt lat="50.7742896583" lon="15.7364751957"></trkpt><trkpt lat="50.7744723" lon="15.7359827589"></trkpt><trkpt lat="50.7745590527" lon="15.735473223"></trkpt><trkpt lat="50.7745135389" lon="15.7350479253"></trkpt><trkpt lat="50.7746782433" lon="15.7346780319"></trkpt><trkpt lat="50.7747968473" lon="15.7342594396"></trkpt><trkpt lat="50.7745303866" lon="15.7341257483"></trkpt><trkpt lat="50.7743219286" lon="15.7344330288"></trkpt><trkpt lat="50.7740635145" lon="15.7346646208"></trkpt><trkpt lat="50.7737909351" lon="15.7346475217"></trkpt><trkpt lat="50.7735243905" lon="15.7344795484"></trkpt><trkpt lat="50.7732744422" lon="15.73424628"></trkpt><trkpt lat="50.7733040303" lon="15.7337906398"></trkpt><trkpt lat="50.77335977" lon="15.7333631627"></trkpt><trkpt lat="50.7733676489" lon="15.7328932732"></trkpt><trkpt lat="50.7733162679" lon="15.7319358923"></trkpt><trkpt lat="50.7730527408" lon="15.7320959866"></trkpt><trkpt lat="50.772853503" lon="15.7325744256"></trkpt><trkpt lat="50.7725689374" lon="15.7328094542"></trkpt><trkpt lat="50.772261573" lon="15.732609462"></trkpt><trkpt lat="50.7720587309" lon="15.7323192805"></trkpt><trkpt lat="50.7717054337" lon="15.7322746888"></trkpt><trkpt lat="50.7710722648" lon="15.7321021892"></trkpt><trkpt lat="50.7708690874" lon="15.731790131"></trkpt><trkpt lat="50.7703763992" lon="15.7308692113"></trkpt><trkpt lat="50.7701365929" lon="15.7305292413"></trkpt><trkpt lat="50.7699620817" lon="15.730166724"></trkpt><trkpt lat="50.769658573" lon="15.7293939125"></trkpt><trkpt lat="50.7695217803" lon="15.7289033197"></trkpt><trkpt lat="50.7691905275" lon="15.728665106"></trkpt><trkpt lat="50.7689305209" lon="15.7285441551"></trkpt><trkpt lat="50.768560376" lon="15.7282272354"></trkpt><trkpt lat="50.7682645787" lon="15.7281158399"></trkpt><trkpt lat="50.7679026481" lon="15.7281257305"></trkpt><trkpt lat="50.7676617522" lon="15.7278851699"></trkpt><trkpt lat="50.7672080398" lon="15.7273309585"></trkpt><trkpt lat="50.7670104783" lon="15.7269427087"></trkpt><trkpt lat="50.766462218" lon="15.7260847371"></trkpt><trkpt lat="50.7661437895" lon="15.7258841582"></trkpt><trkpt lat="50.7638064958" lon="15.7240196876"></trkpt><trkpt lat="50.7632428128" lon="15.7236715872"></trkpt><trkpt lat="50.7629588339" lon="15.7237227168"></trkpt><trkpt lat="50.7622387446" lon="15.7237057015"></trkpt><trkpt lat="50.7619669195" lon="15.7233451959"></trkpt><trkpt lat="50.7607616019" lon="15.7213242352"></trkpt><trkpt lat="50.7608041819" lon="15.7207784895"></trkpt><trkpt lat="50.7608919404" lon="15.7202222664"></trkpt><trkpt lat="50.760981543" lon="15.719251642"></trkpt><trkpt lat="50.7609917689" lon="15.7188080717"></trkpt><trkpt lat="50.7610348519" lon="15.7182998769"></trkpt><trkpt lat="50.7610506099" lon="15.7175766025"></trkpt><trkpt lat="50.760954218" lon="15.7171354629"></trkpt><trkpt lat="50.7608005777" lon="15.7160373498"></trkpt><trkpt lat="50.7610092871" lon="15.7156233676"></trkpt><trkpt lat="50.7612329163" lon="15.7152907737"></trkpt><trkpt lat="50.7612379454" lon="15.7147385739"></trkpt><trkpt lat="50.7612750772" lon="15.7143110968"></trkpt><trkpt lat="50.7614673581" lon="15.7140111085"></trkpt><trkpt lat="50.7615779154" lon="15.7136024069"></trkpt><trkpt lat="50.7616103534" lon="15.7131719962"></trkpt><trkpt lat="50.7616221718" lon="15.7125742827"></trkpt><trkpt lat="50.7616668474" lon="15.7121254317"></trkpt><trkpt lat="50.7616873831" lon="15.7113274746"></trkpt><trkpt lat="50.7615173142" lon="15.7109857444"></trkpt><trkpt lat="50.7612591516" lon="15.7108011749"></trkpt><trkpt lat="50.7606442552" lon="15.7102537528"></trkpt><trkpt lat="50.7603664789" lon="15.7099357434"></trkpt><trkpt lat="50.759158982" lon="15.7088096347"></trkpt><trkpt lat="50.751014119" lon="15.7084327843"></trkpt></trkseg></trk></gpx>