<?xml version="1.0" encoding="UTF-8" standalone="no" ?><gpx xmlns="http://www.topografix.com/GPX/1/1" xmlns:gpxx="http://www.garmin.com/xmlschemas/GpxExtensions/v3" ><trk><trkseg><trkpt lat="50.14326" lon="16.654761"></trkpt><trkpt lat="50.143096" lon="16.655098"></trkpt><trkpt lat="50.143309" lon="16.655447"></trkpt><trkpt lat="50.143261" lon="16.655866"></trkpt><trkpt lat="50.143112" lon="16.656297"></trkpt><trkpt lat="50.143072" lon="16.656817"></trkpt><trkpt lat="50.1432" lon="16.657202"></trkpt><trkpt lat="50.14324" lon="16.657695"></trkpt><trkpt lat="50.143638" lon="16.66056"></trkpt><trkpt lat="50.143877" lon="16.660981"></trkpt><trkpt lat="50.143899" lon="16.661658"></trkpt><trkpt lat="50.144103" lon="16.663011"></trkpt><trkpt lat="50.144331" lon="16.663272"></trkpt><trkpt lat="50.146232" lon="16.665901"></trkpt><trkpt lat="50.146422" lon="16.666273"></trkpt><trkpt lat="50.146725" lon="16.666538"></trkpt><trkpt lat="50.146998" lon="16.666601"></trkpt><trkpt lat="50.14742" lon="16.666594"></trkpt><trkpt lat="50.147869" lon="16.666686"></trkpt><trkpt lat="50.1479" lon="16.667142"></trkpt><trkpt lat="50.147812" lon="16.667646"></trkpt><trkpt lat="50.148116" lon="16.667317"></trkpt><trkpt lat="50.148439" lon="16.667291"></trkpt><trkpt lat="50.150105" lon="16.667697"></trkpt><trkpt lat="50.150892" lon="16.667685"></trkpt><trkpt lat="50.149711" lon="16.667908"></trkpt><trkpt lat="50.150112" lon="16.66787"></trkpt><trkpt lat="50.150908" lon="16.668078"></trkpt><trkpt lat="50.151127" lon="16.668548"></trkpt><trkpt lat="50.15136" lon="16.668765"></trkpt><trkpt lat="50.151034" lon="16.668965"></trkpt><trkpt lat="50.150697" lon="16.669004"></trkpt><trkpt lat="50.150575" lon="16.669497"></trkpt><trkpt lat="50.150183" lon="16.671717"></trkpt><trkpt lat="50.150164" lon="16.672213"></trkpt><trkpt lat="50.150059" lon="16.673163"></trkpt><trkpt lat="50.150227" lon="16.673571"></trkpt><trkpt lat="50.15055" lon="16.673865"></trkpt><trkpt lat="50.150852" lon="16.674211"></trkpt><trkpt lat="50.150857" lon="16.674816"></trkpt><trkpt lat="50.150749" lon="16.675243"></trkpt><trkpt lat="50.150279" lon="16.677759"></trkpt><trkpt lat="50.149796" lon="16.681583"></trkpt><trkpt lat="50.149784" lon="16.682027"></trkpt><trkpt lat="50.150257" lon="16.696054"></trkpt><trkpt lat="50.150428" lon="16.696562"></trkpt><trkpt lat="50.150536" lon="16.696991"></trkpt><trkpt lat="50.150821" lon="16.697854"></trkpt><trkpt lat="50.151013" lon="16.698239"></trkpt><trkpt lat="50.15114" lon="16.698684"></trkpt><trkpt lat="50.151468" lon="16.69884"></trkpt><trkpt lat="50.152316" lon="16.699446"></trkpt><trkpt lat="50.152534" lon="16.699916"></trkpt><trkpt lat="50.152672" lon="16.700458"></trkpt><trkpt lat="50.152754" lon="16.701035"></trkpt><trkpt lat="50.152914" lon="16.701533"></trkpt><trkpt lat="50.153186" lon="16.701762"></trkpt><trkpt lat="50.153466" lon="16.702174"></trkpt><trkpt lat="50.153637" lon="16.702591"></trkpt><trkpt lat="50.154086" lon="16.704087"></trkpt><trkpt lat="50.154133" lon="16.704734"></trkpt><trkpt lat="50.154356" lon="16.705247"></trkpt><trkpt lat="50.155198" lon="16.70676"></trkpt><trkpt lat="50.15551" lon="16.706708"></trkpt><trkpt lat="50.15511" lon="16.706661"></trkpt><trkpt lat="50.155048" lon="16.70719"></trkpt><trkpt lat="50.154886" lon="16.707716"></trkpt><trkpt lat="50.154723" lon="16.708069"></trkpt><trkpt lat="50.154562" lon="16.70858"></trkpt><trkpt lat="50.154512" lon="16.709015"></trkpt><trkpt lat="50.154398" lon="16.709451"></trkpt><trkpt lat="50.154242" lon="16.709907"></trkpt><trkpt lat="50.150616" lon="16.718575"></trkpt><trkpt lat="50.150388" lon="16.718815"></trkpt><trkpt lat="50.15027" lon="16.719236"></trkpt><trkpt lat="50.15008" lon="16.719774"></trkpt><trkpt lat="50.149921" lon="16.720126"></trkpt><trkpt lat="50.1498" lon="16.720511"></trkpt><trkpt lat="50.14974" lon="16.720937"></trkpt><trkpt lat="50.149705" lon="16.72162"></trkpt><trkpt lat="50.14986" lon="16.722149"></trkpt><trkpt lat="50.149893" lon="16.722601"></trkpt><trkpt lat="50.149866" lon="16.723041"></trkpt><trkpt lat="50.14998" lon="16.723454"></trkpt><trkpt lat="50.150134" lon="16.723897"></trkpt><trkpt lat="50.150331" lon="16.724217"></trkpt><trkpt lat="50.150729" lon="16.724739"></trkpt><trkpt lat="50.150983" lon="16.724913"></trkpt><trkpt lat="50.151956" lon="16.72582"></trkpt><trkpt lat="50.152269" lon="16.726201"></trkpt><trkpt lat="50.152554" lon="16.726673"></trkpt><trkpt lat="50.152846" lon="16.727282"></trkpt><trkpt lat="50.153173" lon="16.728129"></trkpt><trkpt lat="50.153198" lon="16.728662"></trkpt><trkpt lat="50.15313" lon="16.729122"></trkpt><trkpt lat="50.153095" lon="16.729562"></trkpt><trkpt lat="50.153096" lon="16.730279"></trkpt><trkpt lat="50.153213" lon="16.730858"></trkpt><trkpt lat="50.153296" lon="16.731464"></trkpt><trkpt lat="50.153316" lon="16.732051"></trkpt><trkpt lat="50.153277" lon="16.732601"></trkpt><trkpt lat="50.153276" lon="16.733449"></trkpt><trkpt lat="50.153327" lon="16.734225"></trkpt><trkpt lat="50.153583" lon="16.734576"></trkpt><trkpt lat="50.153832" lon="16.734768"></trkpt><trkpt lat="50.154318" lon="16.735235"></trkpt><trkpt lat="50.154528" lon="16.73557"></trkpt><trkpt lat="50.154706" lon="16.735928"></trkpt><trkpt lat="50.154912" lon="16.736258"></trkpt><trkpt lat="50.155144" lon="16.736532"></trkpt><trkpt lat="50.155456" lon="16.736683"></trkpt><trkpt lat="50.155802" lon="16.736644"></trkpt><trkpt lat="50.15614" lon="16.736755"></trkpt><trkpt lat="50.156567" lon="16.736971"></trkpt><trkpt lat="50.156835" lon="16.737155"></trkpt><trkpt lat="50.157642" lon="16.73758"></trkpt><trkpt lat="50.158024" lon="16.737668"></trkpt><trkpt lat="50.158338" lon="16.737658"></trkpt><trkpt lat="50.158741" lon="16.737744"></trkpt><trkpt lat="50.159021" lon="16.737935"></trkpt><trkpt lat="50.159271" lon="16.738236"></trkpt><trkpt lat="50.159994" lon="16.739289"></trkpt><trkpt lat="50.161124" lon="16.741305"></trkpt><trkpt lat="50.161214" lon="16.741876"></trkpt><trkpt lat="50.161327" lon="16.742341"></trkpt><trkpt lat="50.161481" lon="16.742814"></trkpt><trkpt lat="50.161725" lon="16.743105"></trkpt><trkpt lat="50.161934" lon="16.743559"></trkpt><trkpt lat="50.162034" lon="16.744074"></trkpt><trkpt lat="50.16309" lon="16.748028"></trkpt><trkpt lat="50.163352" lon="16.747923"></trkpt><trkpt lat="50.164753" lon="16.747631"></trkpt><trkpt lat="50.165008" lon="16.747806"></trkpt><trkpt lat="50.165255" lon="16.748115"></trkpt><trkpt lat="50.16615" lon="16.749015"></trkpt><trkpt lat="50.166508" lon="16.748942"></trkpt><trkpt lat="50.16729" lon="16.749359"></trkpt><trkpt lat="50.167424" lon="16.749725"></trkpt><trkpt lat="50.167619" lon="16.750067"></trkpt><trkpt lat="50.168985" lon="16.752984"></trkpt><trkpt lat="50.168923" lon="16.753512"></trkpt><trkpt lat="50.168817" lon="16.754009"></trkpt><trkpt lat="50.168666" lon="16.754418"></trkpt><trkpt lat="50.168486" lon="16.755174"></trkpt><trkpt lat="50.168552" lon="16.755713"></trkpt><trkpt lat="50.16854" lon="16.756553"></trkpt><trkpt lat="50.16839" lon="16.757021"></trkpt><trkpt lat="50.168185" lon="16.75787"></trkpt><trkpt lat="50.168154" lon="16.758318"></trkpt><trkpt lat="50.168158" lon="16.759259"></trkpt><trkpt lat="50.168253" lon="16.760199"></trkpt><trkpt lat="50.168446" lon="16.760531"></trkpt><trkpt lat="50.168564" lon="16.761048"></trkpt><trkpt lat="50.168611" lon="16.761503"></trkpt><trkpt lat="50.168675" lon="16.762912"></trkpt><trkpt lat="50.168819" lon="16.763789"></trkpt><trkpt lat="50.169055" lon="16.764202"></trkpt><trkpt lat="50.169207" lon="16.764628"></trkpt><trkpt lat="50.169459" lon="16.765683"></trkpt><trkpt lat="50.169513" lon="16.766126"></trkpt><trkpt lat="50.169651" lon="16.766606"></trkpt><trkpt lat="50.169722" lon="16.767021"></trkpt><trkpt lat="50.169852" lon="16.7674"></trkpt><trkpt lat="50.170564" lon="16.769085"></trkpt><trkpt lat="50.1708" lon="16.769519"></trkpt><trkpt lat="50.170967" lon="16.769909"></trkpt><trkpt lat="50.171264" lon="16.770173"></trkpt><trkpt lat="50.171574" lon="16.770567"></trkpt><trkpt lat="50.17197" lon="16.770926"></trkpt><trkpt lat="50.172298" lon="16.771147"></trkpt><trkpt lat="50.172617" lon="16.771288"></trkpt><trkpt lat="50.172889" lon="16.77132"></trkpt><trkpt lat="50.172565" lon="16.771583"></trkpt><trkpt lat="50.172885" lon="16.771329"></trkpt><trkpt lat="50.172577" lon="16.771319"></trkpt><trkpt lat="50.172668" lon="16.77187"></trkpt><trkpt lat="50.17267" lon="16.772518"></trkpt><trkpt lat="50.172736" lon="16.773097"></trkpt><trkpt lat="50.172836" lon="16.77351"></trkpt><trkpt lat="50.172983" lon="16.773879"></trkpt><trkpt lat="50.174369" lon="16.776533"></trkpt><trkpt lat="50.174664" lon="16.776298"></trkpt><trkpt lat="50.174958" lon="16.775934"></trkpt><trkpt lat="50.175202" lon="16.775696"></trkpt><trkpt lat="50.175514" lon="16.775648"></trkpt><trkpt lat="50.176071" lon="16.775657"></trkpt><trkpt lat="50.176533" lon="16.77558"></trkpt><trkpt lat="50.176797" lon="16.775712"></trkpt><trkpt lat="50.17711" lon="16.776072"></trkpt><trkpt lat="50.177369" lon="16.776542"></trkpt><trkpt lat="50.178571" lon="16.779177"></trkpt><trkpt lat="50.179126" lon="16.780651"></trkpt><trkpt lat="50.179258" lon="16.781247"></trkpt><trkpt lat="50.179309" lon="16.781812"></trkpt><trkpt lat="50.179318" lon="16.782902"></trkpt><trkpt lat="50.179282" lon="16.783623"></trkpt><trkpt lat="50.179218" lon="16.784164"></trkpt><trkpt lat="50.179192" lon="16.784693"></trkpt><trkpt lat="50.179288" lon="16.792473"></trkpt><trkpt lat="50.17963" lon="16.792579"></trkpt><trkpt lat="50.179926" lon="16.792612"></trkpt><trkpt lat="50.182577" lon="16.791707"></trkpt><trkpt lat="50.182766" lon="16.791305"></trkpt><trkpt lat="50.183157" lon="16.791175"></trkpt><trkpt lat="50.183372" lon="16.791661"></trkpt><trkpt lat="50.18345" lon="16.792152"></trkpt><trkpt lat="50.183614" lon="16.792489"></trkpt><trkpt lat="50.184348" lon="16.793745"></trkpt><trkpt lat="50.184602" lon="16.79398"></trkpt><trkpt lat="50.185121" lon="16.794573"></trkpt><trkpt lat="50.185526" lon="16.795148"></trkpt><trkpt lat="50.185807" lon="16.795475"></trkpt><trkpt lat="50.186046" lon="16.795823"></trkpt><trkpt lat="50.186768" lon="16.797099"></trkpt><trkpt lat="50.186924" lon="16.797518"></trkpt><trkpt lat="50.187258" lon="16.798256"></trkpt><trkpt lat="50.187774" lon="16.799058"></trkpt><trkpt lat="50.187876" lon="16.799469"></trkpt><trkpt lat="50.188137" lon="16.799885"></trkpt><trkpt lat="50.189357" lon="16.801489"></trkpt><trkpt lat="50.189762" lon="16.801886"></trkpt><trkpt lat="50.190095" lon="16.80179"></trkpt><trkpt lat="50.190455" lon="16.801747"></trkpt><trkpt lat="50.191215" lon="16.801966"></trkpt><trkpt lat="50.191515" lon="16.802136"></trkpt><trkpt lat="50.191745" lon="16.802495"></trkpt><trkpt lat="50.19166" lon="16.802932"></trkpt><trkpt lat="50.191618" lon="16.803352"></trkpt><trkpt lat="50.191741" lon="16.803806"></trkpt><trkpt lat="50.193679" lon="16.809446"></trkpt><trkpt lat="50.193884" lon="16.809735"></trkpt><trkpt lat="50.194369" lon="16.810289"></trkpt><trkpt lat="50.194675" lon="16.81056"></trkpt><trkpt lat="50.196663" lon="16.812709"></trkpt><trkpt lat="50.196876" lon="16.813214"></trkpt><trkpt lat="50.196988" lon="16.813635"></trkpt><trkpt lat="50.196916" lon="16.81419"></trkpt><trkpt lat="50.196776" lon="16.814658"></trkpt><trkpt lat="50.196467" lon="16.815072"></trkpt><trkpt lat="50.196109" lon="16.815419"></trkpt><trkpt lat="50.195776" lon="16.815825"></trkpt><trkpt lat="50.195305" lon="16.816533"></trkpt><trkpt lat="50.1951" lon="16.816971"></trkpt><trkpt lat="50.194964" lon="16.817562"></trkpt><trkpt lat="50.194954" lon="16.818245"></trkpt><trkpt lat="50.19507" lon="16.818912"></trkpt><trkpt lat="50.195278" lon="16.819534"></trkpt><trkpt lat="50.195667" lon="16.821082"></trkpt><trkpt lat="50.195688" lon="16.821523"></trkpt><trkpt lat="50.195829" lon="16.822001"></trkpt><trkpt lat="50.196061" lon="16.822428"></trkpt><trkpt lat="50.196274" lon="16.822745"></trkpt><trkpt lat="50.196567" lon="16.82311"></trkpt><trkpt lat="50.196838" lon="16.823379"></trkpt><trkpt lat="50.197374" lon="16.824089"></trkpt><trkpt lat="50.197538" lon="16.824455"></trkpt><trkpt lat="50.19776" lon="16.82478"></trkpt><trkpt lat="50.19802" lon="16.825044"></trkpt><trkpt lat="50.198238" lon="16.825447"></trkpt><trkpt lat="50.198457" lon="16.825702"></trkpt><trkpt lat="50.198938" lon="16.826378"></trkpt><trkpt lat="50.19946" lon="16.827296"></trkpt><trkpt lat="50.19961" lon="16.827723"></trkpt><trkpt lat="50.199832" lon="16.828049"></trkpt><trkpt lat="50.200089" lon="16.828548"></trkpt><trkpt lat="50.200148" lon="16.828989"></trkpt><trkpt lat="50.200311" lon="16.829392"></trkpt><trkpt lat="50.200592" lon="16.829748"></trkpt><trkpt lat="50.201109" lon="16.830578"></trkpt><trkpt lat="50.201225" lon="16.831027"></trkpt><trkpt lat="50.201411" lon="16.831474"></trkpt><trkpt lat="50.201563" lon="16.831934"></trkpt><trkpt lat="50.201637" lon="16.832411"></trkpt><trkpt lat="50.201803" lon="16.832953"></trkpt><trkpt lat="50.20215" lon="16.833"></trkpt><trkpt lat="50.202559" lon="16.833115"></trkpt><trkpt lat="50.207935" lon="16.832112"></trkpt></trkseg></trk></gpx>