<?xml version="1.0" encoding="UTF-8" standalone="no" ?><gpx xmlns="http://www.topografix.com/GPX/1/1" xmlns:gpxx="http://www.garmin.com/xmlschemas/GpxExtensions/v3" ><trk><trkseg><trkpt lat="50.792029" lon="15.513447"></trkpt><trkpt lat="50.791727" lon="15.513445"></trkpt><trkpt lat="50.791414" lon="15.513364"></trkpt><trkpt lat="50.789527" lon="15.513164"></trkpt><trkpt lat="50.789128" lon="15.513305"></trkpt><trkpt lat="50.788828" lon="15.513337"></trkpt><trkpt lat="50.788124" lon="15.513546"></trkpt><trkpt lat="50.787621" lon="15.513571"></trkpt><trkpt lat="50.787224" lon="15.513721"></trkpt><trkpt lat="50.786953" lon="15.513992"></trkpt><trkpt lat="50.784426" lon="15.516033"></trkpt><trkpt lat="50.784443" lon="15.516491"></trkpt><trkpt lat="50.784236" lon="15.516778"></trkpt><trkpt lat="50.78402" lon="15.517164"></trkpt><trkpt lat="50.783761" lon="15.517358"></trkpt><trkpt lat="50.7834" lon="15.517407"></trkpt><trkpt lat="50.783118" lon="15.517526"></trkpt><trkpt lat="50.782845" lon="15.517827"></trkpt><trkpt lat="50.782633" lon="15.518219"></trkpt><trkpt lat="50.782452" lon="15.51864"></trkpt><trkpt lat="50.782305" lon="15.519059"></trkpt><trkpt lat="50.782048" lon="15.519374"></trkpt><trkpt lat="50.781897" lon="15.519728"></trkpt><trkpt lat="50.781687" lon="15.520125"></trkpt><trkpt lat="50.779229" lon="15.525708"></trkpt><trkpt lat="50.779158" lon="15.526236"></trkpt><trkpt lat="50.779116" lon="15.526951"></trkpt><trkpt lat="50.779198" lon="15.527575"></trkpt><trkpt lat="50.779097" lon="15.528082"></trkpt><trkpt lat="50.779266" lon="15.528632"></trkpt><trkpt lat="50.779357" lon="15.529061"></trkpt><trkpt lat="50.779535" lon="15.530394"></trkpt><trkpt lat="50.779543" lon="15.530906"></trkpt><trkpt lat="50.779469" lon="15.531396"></trkpt><trkpt lat="50.779358" lon="15.531918"></trkpt><trkpt lat="50.77911" lon="15.533627"></trkpt><trkpt lat="50.779189" lon="15.534095"></trkpt><trkpt lat="50.780174" lon="15.543218"></trkpt><trkpt lat="50.780077" lon="15.54369"></trkpt><trkpt lat="50.780027" lon="15.544294"></trkpt><trkpt lat="50.780018" lon="15.545589"></trkpt><trkpt lat="50.780063" lon="15.546213"></trkpt><trkpt lat="50.780049" lon="15.546834"></trkpt><trkpt lat="50.779364" lon="15.555595"></trkpt><trkpt lat="50.779271" lon="15.55601"></trkpt><trkpt lat="50.778943" lon="15.557036"></trkpt><trkpt lat="50.778547" lon="15.556978"></trkpt><trkpt lat="50.77738" lon="15.557377"></trkpt><trkpt lat="50.777231" lon="15.557799"></trkpt><trkpt lat="50.77698" lon="15.558307"></trkpt><trkpt lat="50.776712" lon="15.558978"></trkpt><trkpt lat="50.776477" lon="15.559412"></trkpt><trkpt lat="50.776308" lon="15.55981"></trkpt><trkpt lat="50.776177" lon="15.560214"></trkpt><trkpt lat="50.775878" lon="15.561392"></trkpt><trkpt lat="50.775774" lon="15.56202"></trkpt><trkpt lat="50.775005" lon="15.569401"></trkpt><trkpt lat="50.775141" lon="15.569801"></trkpt><trkpt lat="50.775312" lon="15.570141"></trkpt><trkpt lat="50.77554" lon="15.570497"></trkpt><trkpt lat="50.775781" lon="15.570773"></trkpt><trkpt lat="50.776328" lon="15.571546"></trkpt><trkpt lat="50.776537" lon="15.571902"></trkpt><trkpt lat="50.77679" lon="15.57226"></trkpt><trkpt lat="50.777581" lon="15.573596"></trkpt><trkpt lat="50.777709" lon="15.573987"></trkpt><trkpt lat="50.777823" lon="15.574437"></trkpt><trkpt lat="50.778832" lon="15.579725"></trkpt><trkpt lat="50.778705" lon="15.580134"></trkpt><trkpt lat="50.778622" lon="15.580584"></trkpt><trkpt lat="50.778539" lon="15.581387"></trkpt><trkpt lat="50.778519" lon="15.581859"></trkpt><trkpt lat="50.778541" lon="15.582591"></trkpt><trkpt lat="50.77858" lon="15.58304"></trkpt><trkpt lat="50.778633" lon="15.584772"></trkpt><trkpt lat="50.778607" lon="15.585752"></trkpt><trkpt lat="50.778475" lon="15.587351"></trkpt><trkpt lat="50.778391" lon="15.587797"></trkpt><trkpt lat="50.778219" lon="15.588268"></trkpt><trkpt lat="50.778028" lon="15.588661"></trkpt><trkpt lat="50.777872" lon="15.5891"></trkpt><trkpt lat="50.77765" lon="15.589406"></trkpt><trkpt lat="50.777473" lon="15.589814"></trkpt><trkpt lat="50.777125" lon="15.590796"></trkpt><trkpt lat="50.777106" lon="15.591233"></trkpt><trkpt lat="50.776943" lon="15.591824"></trkpt><trkpt lat="50.776932" lon="15.592338"></trkpt><trkpt lat="50.776125" lon="15.602654"></trkpt><trkpt lat="50.775887" lon="15.60286"></trkpt><trkpt lat="50.775837" lon="15.603282"></trkpt><trkpt lat="50.775803" lon="15.60399"></trkpt><trkpt lat="50.775824" lon="15.604518"></trkpt><trkpt lat="50.775711" lon="15.604971"></trkpt><trkpt lat="50.775609" lon="15.605597"></trkpt><trkpt lat="50.775598" lon="15.606108"></trkpt><trkpt lat="50.775516" lon="15.606688"></trkpt><trkpt lat="50.775389" lon="15.607088"></trkpt><trkpt lat="50.774836" lon="15.608475"></trkpt><trkpt lat="50.7747" lon="15.608918"></trkpt><trkpt lat="50.774023" lon="15.610678"></trkpt><trkpt lat="50.773798" lon="15.610933"></trkpt><trkpt lat="50.773501" lon="15.611201"></trkpt><trkpt lat="50.772733" lon="15.611745"></trkpt><trkpt lat="50.772457" lon="15.611826"></trkpt><trkpt lat="50.772251" lon="15.61212"></trkpt><trkpt lat="50.772464" lon="15.612417"></trkpt><trkpt lat="50.772698" lon="15.612826"></trkpt><trkpt lat="50.772782" lon="15.613364"></trkpt><trkpt lat="50.772958" lon="15.615197"></trkpt><trkpt lat="50.772717" lon="15.615731"></trkpt><trkpt lat="50.772201" lon="15.61659"></trkpt><trkpt lat="50.771806" lon="15.616931"></trkpt><trkpt lat="50.765001" lon="15.624136"></trkpt><trkpt lat="50.764962" lon="15.624565"></trkpt><trkpt lat="50.764646" lon="15.626692"></trkpt><trkpt lat="50.764368" lon="15.627832"></trkpt><trkpt lat="50.764191" lon="15.628161"></trkpt><trkpt lat="50.764001" lon="15.62873"></trkpt><trkpt lat="50.763205" lon="15.631756"></trkpt><trkpt lat="50.763075" lon="15.632408"></trkpt><trkpt lat="50.762489" lon="15.636747"></trkpt><trkpt lat="50.762501" lon="15.637255"></trkpt><trkpt lat="50.762573" lon="15.638057"></trkpt><trkpt lat="50.762712" lon="15.638433"></trkpt><trkpt lat="50.762905" lon="15.638807"></trkpt><trkpt lat="50.76312" lon="15.639078"></trkpt><trkpt lat="50.763449" lon="15.639334"></trkpt></trkseg></trk></gpx>