<?xml version="1.0" encoding="UTF-8" standalone="no" ?><gpx xmlns="http://www.topografix.com/GPX/1/1" xmlns:gpxx="http://www.garmin.com/xmlschemas/GpxExtensions/v3" ><trk><trkseg><trkpt lat="49.421675" lon="19.047524"></trkpt><trkpt lat="49.420623" lon="19.047095"></trkpt><trkpt lat="49.419336" lon="19.047009"></trkpt><trkpt lat="49.41807" lon="19.047675"></trkpt><trkpt lat="49.417254" lon="19.048511"></trkpt><trkpt lat="49.416461" lon="19.049669"></trkpt><trkpt lat="49.415538" lon="19.049778"></trkpt><trkpt lat="49.416482" lon="19.0507"></trkpt><trkpt lat="49.416825" lon="19.051879"></trkpt><trkpt lat="49.416739" lon="19.05349"></trkpt><trkpt lat="49.416289" lon="19.05527"></trkpt><trkpt lat="49.415152" lon="19.057373"></trkpt><trkpt lat="49.414336" lon="19.059391"></trkpt><trkpt lat="49.414143" lon="19.06203"></trkpt><trkpt lat="49.414615" lon="19.063661"></trkpt><trkpt lat="49.4141" lon="19.066364"></trkpt><trkpt lat="49.413993" lon="19.068532"></trkpt><trkpt lat="49.41425" lon="19.069539"></trkpt><trkpt lat="49.414744" lon="19.070591"></trkpt><trkpt lat="49.415731" lon="19.070785"></trkpt><trkpt lat="49.41719" lon="19.0713"></trkpt><trkpt lat="49.418027" lon="19.072114"></trkpt><trkpt lat="49.41792" lon="19.072951"></trkpt><trkpt lat="49.417126" lon="19.077092"></trkpt><trkpt lat="49.416718" lon="19.080762"></trkpt><trkpt lat="49.416182" lon="19.093314"></trkpt><trkpt lat="49.417126" lon="19.094088"></trkpt><trkpt lat="49.418448" lon="19.094564"></trkpt><trkpt lat="49.41895" lon="19.095954"></trkpt><trkpt lat="49.418885" lon="19.096941"></trkpt><trkpt lat="49.418928" lon="19.097478"></trkpt></trkseg><trkseg><trkpt lat="49.412577" lon="18.96959"></trkpt><trkpt lat="49.412105" lon="18.970018"></trkpt><trkpt lat="49.410688" lon="18.969804"></trkpt><trkpt lat="49.408714" lon="18.97107"></trkpt><trkpt lat="49.407084" lon="18.973066"></trkpt><trkpt lat="49.404144" lon="18.97356"></trkpt><trkpt lat="49.402663" lon="18.974074"></trkpt><trkpt lat="49.401676" lon="18.97356"></trkpt><trkpt lat="49.400711" lon="18.97358"></trkpt><trkpt lat="49.399855" lon="18.974436"></trkpt><trkpt lat="49.39893" lon="18.976778"></trkpt><trkpt lat="49.398672" lon="18.978258"></trkpt><trkpt lat="49.3982" lon="18.979461"></trkpt><trkpt lat="49.396569" lon="18.981392"></trkpt><trkpt lat="49.396312" lon="18.982399"></trkpt><trkpt lat="49.396419" lon="18.984181"></trkpt><trkpt lat="49.397299" lon="18.987615"></trkpt><trkpt lat="49.398329" lon="18.989546"></trkpt><trkpt lat="49.398028" lon="18.992421"></trkpt><trkpt lat="49.398136" lon="18.997978"></trkpt><trkpt lat="49.398479" lon="18.999095"></trkpt><trkpt lat="49.39938" lon="19.000489"></trkpt><trkpt lat="49.399788" lon="19.001647"></trkpt><trkpt lat="49.400196" lon="19.003279"></trkpt><trkpt lat="49.40026" lon="19.003858"></trkpt><trkpt lat="49.399166" lon="19.004588"></trkpt><trkpt lat="49.398415" lon="19.005638"></trkpt><trkpt lat="49.398028" lon="19.007098"></trkpt><trkpt lat="49.397878" lon="19.008986"></trkpt><trkpt lat="49.398136" lon="19.009436"></trkpt><trkpt lat="49.398758" lon="19.009479"></trkpt><trkpt lat="49.39938" lon="19.009308"></trkpt><trkpt lat="49.400153" lon="19.01023"></trkpt><trkpt lat="49.400882" lon="19.011797"></trkpt><trkpt lat="49.400732" lon="19.012848"></trkpt><trkpt lat="49.400796" lon="19.013686"></trkpt><trkpt lat="49.40129" lon="19.014523"></trkpt><trkpt lat="49.40011" lon="19.01463"></trkpt><trkpt lat="49.399294" lon="19.015509"></trkpt><trkpt lat="49.395325" lon="19.021239"></trkpt><trkpt lat="49.395625" lon="19.024499"></trkpt><trkpt lat="49.396054" lon="19.026861"></trkpt><trkpt lat="49.396591" lon="19.02774"></trkpt><trkpt lat="49.39702" lon="19.031216"></trkpt><trkpt lat="49.396548" lon="19.033469"></trkpt><trkpt lat="49.396441" lon="19.035035"></trkpt><trkpt lat="49.396677" lon="19.036838"></trkpt><trkpt lat="49.397041" lon="19.038661"></trkpt><trkpt lat="49.398393" lon="19.04025"></trkpt><trkpt lat="49.400539" lon="19.04467"></trkpt><trkpt lat="49.401655" lon="19.045507"></trkpt><trkpt lat="49.402427" lon="19.045701"></trkpt><trkpt lat="49.404552" lon="19.04392"></trkpt><trkpt lat="49.405732" lon="19.045356"></trkpt><trkpt lat="49.406333" lon="19.046645"></trkpt><trkpt lat="49.407212" lon="19.047974"></trkpt><trkpt lat="49.408521" lon="19.048404"></trkpt><trkpt lat="49.409272" lon="19.048919"></trkpt><trkpt lat="49.410259" lon="19.050056"></trkpt><trkpt lat="49.411718" lon="19.050271"></trkpt><trkpt lat="49.413178" lon="19.0507"></trkpt><trkpt lat="49.414529" lon="19.050829"></trkpt><trkpt lat="49.415538" lon="19.049778"></trkpt><trkpt lat="49.416461" lon="19.049669"></trkpt><trkpt lat="49.417254" lon="19.048511"></trkpt><trkpt lat="49.41807" lon="19.047675"></trkpt><trkpt lat="49.419336" lon="19.047009"></trkpt><trkpt lat="49.420623" lon="19.047095"></trkpt><trkpt lat="49.421675" lon="19.047524"></trkpt></trkseg></trk></gpx>