<?xml version="1.0" encoding="UTF-8" standalone="no" ?><gpx xmlns="http://www.topografix.com/GPX/1/1" xmlns:gpxx="http://www.garmin.com/xmlschemas/GpxExtensions/v3" ><trk><trkseg><trkpt lat="52.4650995713" lon="16.9305270072"></trkpt><trkpt lat="52.4651069473" lon="16.9313104637"></trkpt><trkpt lat="52.4650322646" lon="16.9317402039"></trkpt><trkpt lat="52.465182133" lon="16.9324054755"></trkpt><trkpt lat="52.4654567242" lon="16.9329241477"></trkpt><trkpt lat="52.4661499076" lon="16.9337693788"></trkpt><trkpt lat="52.4664687552" lon="16.9340267871"></trkpt><trkpt lat="52.4671116471" lon="16.9346908852"></trkpt><trkpt lat="52.4674382899" lon="16.9349407498"></trkpt><trkpt lat="52.4674662016" lon="16.9358237833"></trkpt><trkpt lat="52.4673786107" lon="16.9362803455"></trkpt><trkpt lat="52.4673163332" lon="16.9369151909"></trkpt><trkpt lat="52.4679388572" lon="16.9373097271"></trkpt><trkpt lat="52.4680565391" lon="16.9377394672"></trkpt><trkpt lat="52.4679228477" lon="16.9382872246"></trkpt><trkpt lat="52.4679394439" lon="16.9393410813"></trkpt><trkpt lat="52.467894014" lon="16.940031331"></trkpt><trkpt lat="52.467894936" lon="16.9411162008"></trkpt><trkpt lat="52.4677565508" lon="16.9426264521"></trkpt><trkpt lat="52.4674742483" lon="16.9426509272"></trkpt><trkpt lat="52.4676586501" lon="16.9430008717"></trkpt><trkpt lat="52.4679618236" lon="16.944310125"></trkpt><trkpt lat="52.4682903942" lon="16.946288757"></trkpt><trkpt lat="52.4686038774" lon="16.9475747924"></trkpt><trkpt lat="52.4693591706" lon="16.9475302845"></trkpt><trkpt lat="52.4702112749" lon="16.9477376528"></trkpt><trkpt lat="52.4701049924" lon="16.9486820418"></trkpt><trkpt lat="52.4693248887" lon="16.9624035526"></trkpt><trkpt lat="52.4696226139" lon="16.963412147"></trkpt><trkpt lat="52.4697452411" lon="16.9641795941"></trkpt><trkpt lat="52.4696558062" lon="16.9634713233"></trkpt><trkpt lat="52.469484983" lon="16.9628753699"></trkpt><trkpt lat="52.4691960588" lon="16.9614734966"></trkpt><trkpt lat="52.4691518862" lon="16.9607989211"></trkpt><trkpt lat="52.4691768643" lon="16.9602732919"></trkpt><trkpt lat="52.469306197" lon="16.959060682"></trkpt><trkpt lat="52.469767537" lon="16.9591332693"></trkpt><trkpt lat="52.472710507" lon="16.9604003616"></trkpt><trkpt lat="52.4727001972" lon="16.9610141683"></trkpt><trkpt lat="52.4727360718" lon="16.9616578147"></trkpt><trkpt lat="52.47272484" lon="16.9665902294"></trkpt><trkpt lat="52.4726523366" lon="16.9671907928"></trkpt><trkpt lat="52.4725047313" lon="16.9694314431"></trkpt><trkpt lat="52.4726691842" lon="16.9699318428"></trkpt><trkpt lat="52.4728593696" lon="16.9703209307"></trkpt><trkpt lat="52.4731581006" lon="16.9704570528"></trkpt><trkpt lat="52.4734845757" lon="16.9705197494"></trkpt><trkpt lat="52.4741623364" lon="16.9705098588"></trkpt><trkpt lat="52.4746634904" lon="16.9704200048"></trkpt><trkpt lat="52.4884283356" lon="16.9671414234"></trkpt><trkpt lat="52.4999517761" lon="16.9623977691"></trkpt><trkpt lat="52.5000446476" lon="16.9619731419"></trkpt><trkpt lat="52.5010954868" lon="16.9587774575"></trkpt><trkpt lat="52.5013273302" lon="16.9585394114"></trkpt><trkpt lat="52.5016029272" lon="16.9583979249"></trkpt><trkpt lat="52.5036165956" lon="16.9577339943"></trkpt><trkpt lat="52.5038510375" lon="16.9580295403"></trkpt><trkpt lat="52.5044078473" lon="16.9585418422"></trkpt><trkpt lat="52.5047044829" lon="16.958566485"></trkpt><trkpt lat="52.5049729552" lon="16.9584972505"></trkpt><trkpt lat="52.5067375135" lon="16.9585715979"></trkpt><trkpt lat="52.5070185587" lon="16.9582042191"></trkpt><trkpt lat="52.5173273776" lon="16.9425184932"></trkpt><trkpt lat="52.5211438257" lon="16.9382488355"></trkpt><trkpt lat="52.5215837918" lon="16.9385870453"></trkpt><trkpt lat="52.5299636833" lon="16.9435195439"></trkpt><trkpt lat="52.5305394363" lon="16.9435924664"></trkpt><trkpt lat="52.5426452514" lon="16.9469258655"></trkpt><trkpt lat="52.5427791104" lon="16.9473433681"></trkpt><trkpt lat="52.5429850537" lon="16.9482378848"></trkpt><trkpt lat="52.5431773346" lon="16.9486528728"></trkpt><trkpt lat="52.5434992835" lon="16.9488544576"></trkpt><trkpt lat="52.5439048" lon="16.9491864648"></trkpt><trkpt lat="52.5440329593" lon="16.9495790731"></trkpt><trkpt lat="52.5440538302" lon="16.9505268987"></trkpt><trkpt lat="52.5439828355" lon="16.9510054216"></trkpt><trkpt lat="52.543720901" lon="16.9514116086"></trkpt><trkpt lat="52.5433921628" lon="16.951803714"></trkpt><trkpt lat="52.5424936228" lon="16.9526205305"></trkpt><trkpt lat="52.5412430428" lon="16.9535064977"></trkpt><trkpt lat="52.5408315752" lon="16.9539595395"></trkpt><trkpt lat="52.5405761786" lon="16.9544789661"></trkpt><trkpt lat="52.5404455885" lon="16.9553371891"></trkpt><trkpt lat="52.5405122247" lon="16.9562969171"></trkpt><trkpt lat="52.5406346843" lon="16.9570182636"></trkpt><trkpt lat="52.5413078349" lon="16.965059191"></trkpt><trkpt lat="52.5412871316" lon="16.9659733213"></trkpt><trkpt lat="52.5416884571" lon="16.977033494"></trkpt><trkpt lat="52.5417762995" lon="16.9774877932"></trkpt><trkpt lat="52.5435859524" lon="16.9939003978"></trkpt><trkpt lat="52.5432508439" lon="16.9947850239"></trkpt><trkpt lat="52.5360457599" lon="17.0162046421"></trkpt><trkpt lat="52.5354617927" lon="17.0173259731"></trkpt><trkpt lat="52.5336279999" lon="17.0201056637"></trkpt><trkpt lat="52.5335451029" lon="17.019669218"></trkpt><trkpt lat="52.5332950708" lon="17.0194919407"></trkpt><trkpt lat="52.5330576114" lon="17.019721102"></trkpt><trkpt lat="52.5310000218" lon="17.0224452205"></trkpt><trkpt lat="52.5311421789" lon="17.0231372304"></trkpt><trkpt lat="52.5351396762" lon="17.0450322703"></trkpt><trkpt lat="52.5351882074" lon="17.0454792771"></trkpt><trkpt lat="52.5352936517" lon="17.0475662872"></trkpt><trkpt lat="52.5352656562" lon="17.0482354984"></trkpt><trkpt lat="52.5353890378" lon="17.0489919651"></trkpt><trkpt lat="52.5353575218" lon="17.0494775288"></trkpt><trkpt lat="52.5352255069" lon="17.0499951951"></trkpt><trkpt lat="52.5346662663" lon="17.0530177094"></trkpt><trkpt lat="52.5342507754" lon="17.0546619873"></trkpt><trkpt lat="52.5339134876" lon="17.0554976631"></trkpt><trkpt lat="52.5328818429" lon="17.0590915717"></trkpt><trkpt lat="52.5327152945" lon="17.0602597576"></trkpt><trkpt lat="52.5324537791" lon="17.061273884"></trkpt><trkpt lat="52.5320181716" lon="17.0625915192"></trkpt><trkpt lat="52.5317020062" lon="17.0630402025"></trkpt><trkpt lat="52.5304594729" lon="17.0653318148"></trkpt><trkpt lat="52.5304193236" lon="17.0658271015"></trkpt><trkpt lat="52.5294973981" lon="17.0711382944"></trkpt><trkpt lat="52.5289390795" lon="17.0718230959"></trkpt><trkpt lat="52.5286814198" lon="17.0719877165"></trkpt><trkpt lat="52.5280081015" lon="17.0720696077"></trkpt><trkpt lat="52.5268814061" lon="17.072378397"></trkpt><trkpt lat="52.5267851818" lon="17.0728260744"></trkpt><trkpt lat="52.5265266839" lon="17.0737275481"></trkpt><trkpt lat="52.5262953434" lon="17.0742359944"></trkpt><trkpt lat="52.5251219608" lon="17.0774193574"></trkpt><trkpt lat="52.5249708351" lon="17.0779490098"></trkpt><trkpt lat="52.5247902889" lon="17.078887783"></trkpt><trkpt lat="52.5240531843" lon="17.0847817697"></trkpt><trkpt lat="52.5241367519" lon="17.0854909625"></trkpt><trkpt lat="52.5241452176" lon="17.0859582536"></trkpt><trkpt lat="52.5241131149" lon="17.0864139777"></trkpt><trkpt lat="52.5240266137" lon="17.0934191532"></trkpt><trkpt lat="52.5240954291" lon="17.0950822905"></trkpt><trkpt lat="52.5240799226" lon="17.0956339035"></trkpt><trkpt lat="52.524092244" lon="17.0961079001"></trkpt><trkpt lat="52.5240499154" lon="17.0970519539"></trkpt><trkpt lat="52.5238618255" lon="17.0977536868"></trkpt><trkpt lat="52.5226674043" lon="17.1036023274"></trkpt><trkpt lat="52.5226534065" lon="17.1040579677"></trkpt><trkpt lat="52.522592973" lon="17.1046718583"></trkpt><trkpt lat="52.5225293543" lon="17.1061233524"></trkpt><trkpt lat="52.5225529913" lon="17.1067540068"></trkpt><trkpt lat="52.5227840804" lon="17.1092161071"></trkpt><trkpt lat="52.5229021814" lon="17.1097076219"></trkpt><trkpt lat="52.5231397245" lon="17.1111918055"></trkpt><trkpt lat="52.5231745094" lon="17.1122382022"></trkpt><trkpt lat="52.5231206976" lon="17.1128127817"></trkpt><trkpt lat="52.5214468315" lon="17.1237732098"></trkpt><trkpt lat="52.5211817957" lon="17.1246643737"></trkpt><trkpt lat="52.5179923978" lon="17.1333393082"></trkpt><trkpt lat="52.5176163856" lon="17.1340445615"></trkpt><trkpt lat="52.5173539482" lon="17.1343944222"></trkpt><trkpt lat="52.5152878091" lon="17.1376958862"></trkpt><trkpt lat="52.5145576615" lon="17.1390911378"></trkpt><trkpt lat="52.5119181164" lon="17.1430885512"></trkpt><trkpt lat="52.5116650667" lon="17.1432431135"></trkpt><trkpt lat="52.5081651192" lon="17.1459749434"></trkpt><trkpt lat="52.5077943038" lon="17.1465890855"></trkpt><trkpt lat="52.5008549262" lon="17.1556476597"></trkpt><trkpt lat="52.5002387725" lon="17.155355718"></trkpt><trkpt lat="52.4992420804" lon="17.1550716553"></trkpt><trkpt lat="52.4990707543" lon="17.1554587316"></trkpt><trkpt lat="52.4990312755" lon="17.1559769846"></trkpt><trkpt lat="52.4990255758" lon="17.1567226388"></trkpt><trkpt lat="52.4989678245" lon="17.1574445721"></trkpt><trkpt lat="52.4986812472" lon="17.1580438782"></trkpt><trkpt lat="52.4965721928" lon="17.1602349076"></trkpt><trkpt lat="52.4958957732" lon="17.1599216759"></trkpt><trkpt lat="52.4838507269" lon="17.1564695053"></trkpt><trkpt lat="52.4836055562" lon="17.1569705755"></trkpt><trkpt lat="52.4827986304" lon="17.1594282333"></trkpt><trkpt lat="52.48265245" lon="17.1606657375"></trkpt><trkpt lat="52.4797082227" lon="17.1773964353"></trkpt><trkpt lat="52.4795540795" lon="17.1779119223"></trkpt><trkpt lat="52.4793448672" lon="17.1782448515"></trkpt><trkpt lat="52.4791023787" lon="17.1785170957"></trkpt><trkpt lat="52.4778222945" lon="17.1804290079"></trkpt><trkpt lat="52.4774645548" lon="17.1812206786"></trkpt><trkpt lat="52.4774008524" lon="17.1819141973"></trkpt><trkpt lat="52.477394985" lon="17.1823873557"></trkpt><trkpt lat="52.4772350583" lon="17.1831856482"></trkpt><trkpt lat="52.4771488085" lon="17.1848300099"></trkpt><trkpt lat="52.4770714436" lon="17.1853982192"></trkpt><trkpt lat="52.4768409412" lon="17.1857415419"></trkpt><trkpt lat="52.4765297212" lon="17.1858533565"></trkpt><trkpt lat="52.4757737573" lon="17.1853179205"></trkpt><trkpt lat="52.4751476292" lon="17.1843669936"></trkpt><trkpt lat="52.4678483326" lon="17.1708818525"></trkpt><trkpt lat="52.4676384497" lon="17.1701683849"></trkpt><trkpt lat="52.4672192708" lon="17.1699800435"></trkpt><trkpt lat="52.4671059474" lon="17.1703522839"></trkpt></trkseg></trk></gpx>