<?xml version="1.0" encoding="UTF-8" standalone="no" ?><gpx xmlns="http://www.topografix.com/GPX/1/1" xmlns:gpxx="http://www.garmin.com/xmlschemas/GpxExtensions/v3" ><trk><trkseg><trkpt lat="49.582937" lon="20.007982"></trkpt><trkpt lat="49.582984" lon="20.0075"></trkpt><trkpt lat="49.582945" lon="20.00688"></trkpt><trkpt lat="49.582959" lon="20.004638"></trkpt><trkpt lat="49.583266" lon="20.004406"></trkpt><trkpt lat="49.583525" lon="20.004158"></trkpt><trkpt lat="49.583659" lon="20.00378"></trkpt><trkpt lat="49.583957" lon="20.003143"></trkpt><trkpt lat="49.584107" lon="20.002719"></trkpt><trkpt lat="49.585051" lon="20.000543"></trkpt><trkpt lat="49.585353" lon="20.000178"></trkpt><trkpt lat="49.585529" lon="19.999858"></trkpt><trkpt lat="49.58595" lon="19.99885"></trkpt><trkpt lat="49.590987" lon="19.988867"></trkpt><trkpt lat="49.591315" lon="19.98892"></trkpt><trkpt lat="49.592092" lon="19.988673"></trkpt><trkpt lat="49.592661" lon="19.98897"></trkpt><trkpt lat="49.593229" lon="19.989165"></trkpt><trkpt lat="49.593532" lon="19.989226"></trkpt><trkpt lat="49.593778" lon="19.989416"></trkpt><trkpt lat="49.594107" lon="19.989548"></trkpt><trkpt lat="49.594372" lon="19.989745"></trkpt><trkpt lat="49.594757" lon="19.989865"></trkpt><trkpt lat="49.595126" lon="19.989911"></trkpt><trkpt lat="49.595397" lon="19.989828"></trkpt><trkpt lat="49.595749" lon="19.989509"></trkpt><trkpt lat="49.596276" lon="19.98889"></trkpt><trkpt lat="49.596553" lon="19.988478"></trkpt><trkpt lat="49.596731" lon="19.987999"></trkpt><trkpt lat="49.59686" lon="19.987566"></trkpt><trkpt lat="49.597068" lon="19.987273"></trkpt><trkpt lat="49.59731" lon="19.987013"></trkpt><trkpt lat="49.598334" lon="19.985658"></trkpt><trkpt lat="49.59881" lon="19.984841"></trkpt><trkpt lat="49.598854" lon="19.984299"></trkpt><trkpt lat="49.598864" lon="19.983758"></trkpt><trkpt lat="49.599237" lon="19.979431"></trkpt><trkpt lat="49.599537" lon="19.979169"></trkpt><trkpt lat="49.600047" lon="19.978619"></trkpt><trkpt lat="49.600232" lon="19.978225"></trkpt><trkpt lat="49.60032" lon="19.977794"></trkpt><trkpt lat="49.600544" lon="19.977054"></trkpt><trkpt lat="49.600763" lon="19.97668"></trkpt><trkpt lat="49.600912" lon="19.976282"></trkpt><trkpt lat="49.601024" lon="19.975862"></trkpt><trkpt lat="49.601108" lon="19.975389"></trkpt><trkpt lat="49.601411" lon="19.974195"></trkpt><trkpt lat="49.601668" lon="19.974025"></trkpt><trkpt lat="49.601855" lon="19.9735"></trkpt><trkpt lat="49.601939" lon="19.972912"></trkpt><trkpt lat="49.602724" lon="19.969145"></trkpt><trkpt lat="49.60279" lon="19.968661"></trkpt><trkpt lat="49.603005" lon="19.965694"></trkpt><trkpt lat="49.602793" lon="19.967877"></trkpt><trkpt lat="49.603104" lon="19.965946"></trkpt><trkpt lat="49.603422" lon="19.966049"></trkpt><trkpt lat="49.604174" lon="19.966135"></trkpt><trkpt lat="49.607041" lon="19.965183"></trkpt><trkpt lat="49.607112" lon="19.964689"></trkpt><trkpt lat="49.607285" lon="19.964057"></trkpt><trkpt lat="49.607688" lon="19.964121"></trkpt><trkpt lat="49.607811" lon="19.963719"></trkpt><trkpt lat="49.607906" lon="19.963209"></trkpt><trkpt lat="49.608063" lon="19.962747"></trkpt><trkpt lat="49.608126" lon="19.962164"></trkpt><trkpt lat="49.608144" lon="19.961654"></trkpt><trkpt lat="49.608209" lon="19.961172"></trkpt><trkpt lat="49.608449" lon="19.957991"></trkpt><trkpt lat="49.608624" lon="19.95672"></trkpt><trkpt lat="49.608806" lon="19.956276"></trkpt><trkpt lat="49.608962" lon="19.955774"></trkpt><trkpt lat="49.609086" lon="19.955245"></trkpt><trkpt lat="49.609413" lon="19.954275"></trkpt><trkpt lat="49.609878" lon="19.95315"></trkpt><trkpt lat="49.609721" lon="19.952588"></trkpt></trkseg></trk></gpx>