<?xml version="1.0" encoding="UTF-8" standalone="no" ?><gpx xmlns="http://www.topografix.com/GPX/1/1" xmlns:gpxx="http://www.garmin.com/xmlschemas/GpxExtensions/v3" ><trk><trkseg><trkpt lat="50.207871" lon="16.833039"></trkpt><trkpt lat="50.207681" lon="16.833391"></trkpt><trkpt lat="50.207512" lon="16.833804"></trkpt><trkpt lat="50.207372" lon="16.834283"></trkpt><trkpt lat="50.207181" lon="16.834593"></trkpt><trkpt lat="50.206794" lon="16.835118"></trkpt><trkpt lat="50.20657" lon="16.835362"></trkpt><trkpt lat="50.206179" lon="16.835915"></trkpt><trkpt lat="50.20587" lon="16.83626"></trkpt><trkpt lat="50.205546" lon="16.836505"></trkpt><trkpt lat="50.205262" lon="16.836671"></trkpt><trkpt lat="50.204248" lon="16.837438"></trkpt><trkpt lat="50.204147" lon="16.837935"></trkpt><trkpt lat="50.204091" lon="16.838353"></trkpt><trkpt lat="50.204061" lon="16.838848"></trkpt><trkpt lat="50.204232" lon="16.839229"></trkpt><trkpt lat="50.204479" lon="16.839425"></trkpt><trkpt lat="50.204397" lon="16.839917"></trkpt><trkpt lat="50.204541" lon="16.840363"></trkpt><trkpt lat="50.20474" lon="16.840821"></trkpt><trkpt lat="50.204941" lon="16.841148"></trkpt><trkpt lat="50.205269" lon="16.841843"></trkpt><trkpt lat="50.205367" lon="16.842348"></trkpt><trkpt lat="50.205507" lon="16.842743"></trkpt><trkpt lat="50.205733" lon="16.843165"></trkpt><trkpt lat="50.206107" lon="16.844043"></trkpt><trkpt lat="50.206298" lon="16.844365"></trkpt><trkpt lat="50.20647" lon="16.844723"></trkpt><trkpt lat="50.20658" lon="16.845163"></trkpt><trkpt lat="50.206747" lon="16.845608"></trkpt><trkpt lat="50.207222" lon="16.846637"></trkpt><trkpt lat="50.207471" lon="16.846986"></trkpt><trkpt lat="50.20724" lon="16.847323"></trkpt><trkpt lat="50.207483" lon="16.847078"></trkpt><trkpt lat="50.207236" lon="16.847283"></trkpt><trkpt lat="50.207537" lon="16.847216"></trkpt><trkpt lat="50.207804" lon="16.847426"></trkpt><trkpt lat="50.207472" lon="16.847188"></trkpt><trkpt lat="50.207268" lon="16.846794"></trkpt><trkpt lat="50.206758" lon="16.845603"></trkpt><trkpt lat="50.206589" lon="16.84508"></trkpt><trkpt lat="50.206218" lon="16.844167"></trkpt><trkpt lat="50.204139" lon="16.837773"></trkpt><trkpt lat="50.204303" lon="16.837316"></trkpt><trkpt lat="50.204537" lon="16.837068"></trkpt><trkpt lat="50.204853" lon="16.836875"></trkpt><trkpt lat="50.206227" lon="16.835795"></trkpt><trkpt lat="50.206444" lon="16.835446"></trkpt><trkpt lat="50.206857" lon="16.83491"></trkpt><trkpt lat="50.207408" lon="16.834053"></trkpt><trkpt lat="50.207548" lon="16.833692"></trkpt><trkpt lat="50.207912" lon="16.832334"></trkpt><trkpt lat="50.207575" lon="16.832224"></trkpt><trkpt lat="50.20805" lon="16.832383"></trkpt><trkpt lat="50.208344" lon="16.832176"></trkpt><trkpt lat="50.208577" lon="16.831954"></trkpt><trkpt lat="50.209393" lon="16.831368"></trkpt><trkpt lat="50.209724" lon="16.831296"></trkpt><trkpt lat="50.210449" lon="16.831275"></trkpt><trkpt lat="50.210788" lon="16.831364"></trkpt><trkpt lat="50.211048" lon="16.831537"></trkpt><trkpt lat="50.211384" lon="16.83183"></trkpt><trkpt lat="50.215915" lon="16.836851"></trkpt><trkpt lat="50.215853" lon="16.837319"></trkpt><trkpt lat="50.215898" lon="16.837803"></trkpt><trkpt lat="50.216059" lon="16.838173"></trkpt><trkpt lat="50.216293" lon="16.838453"></trkpt><trkpt lat="50.216636" lon="16.83861"></trkpt><trkpt lat="50.216954" lon="16.838637"></trkpt><trkpt lat="50.217487" lon="16.838775"></trkpt><trkpt lat="50.217804" lon="16.838813"></trkpt><trkpt lat="50.218104" lon="16.838996"></trkpt><trkpt lat="50.221449" lon="16.840513"></trkpt><trkpt lat="50.221897" lon="16.840789"></trkpt><trkpt lat="50.222196" lon="16.84085"></trkpt><trkpt lat="50.222471" lon="16.840971"></trkpt><trkpt lat="50.223401" lon="16.840757"></trkpt><trkpt lat="50.224012" lon="16.841023"></trkpt><trkpt lat="50.224365" lon="16.841075"></trkpt><trkpt lat="50.225242" lon="16.84133"></trkpt><trkpt lat="50.226744" lon="16.841542"></trkpt><trkpt lat="50.235759" lon="16.843111"></trkpt><trkpt lat="50.235934" lon="16.843443"></trkpt><trkpt lat="50.236238" lon="16.844174"></trkpt><trkpt lat="50.236324" lon="16.844699"></trkpt><trkpt lat="50.236381" lon="16.845283"></trkpt><trkpt lat="50.236395" lon="16.845771"></trkpt><trkpt lat="50.236493" lon="16.846198"></trkpt><trkpt lat="50.236676" lon="16.84651"></trkpt><trkpt lat="50.236932" lon="16.846797"></trkpt><trkpt lat="50.237084" lon="16.847155"></trkpt><trkpt lat="50.238177" lon="16.849112"></trkpt><trkpt lat="50.238515" lon="16.849593"></trkpt><trkpt lat="50.239183" lon="16.850305"></trkpt><trkpt lat="50.239499" lon="16.850488"></trkpt><trkpt lat="50.240033" lon="16.850942"></trkpt><trkpt lat="50.240342" lon="16.851118"></trkpt><trkpt lat="50.240604" lon="16.85139"></trkpt><trkpt lat="50.241564" lon="16.852022"></trkpt><trkpt lat="50.241929" lon="16.852083"></trkpt><trkpt lat="50.242709" lon="16.851839"></trkpt><trkpt lat="50.24288" lon="16.851433"></trkpt><trkpt lat="50.243136" lon="16.851287"></trkpt><trkpt lat="50.243188" lon="16.850868"></trkpt><trkpt lat="50.24336" lon="16.8505"></trkpt><trkpt lat="50.24347" lon="16.849994"></trkpt><trkpt lat="50.24373" lon="16.849524"></trkpt><trkpt lat="50.244131" lon="16.849543"></trkpt><trkpt lat="50.244373" lon="16.849816"></trkpt><trkpt lat="50.244714" lon="16.850091"></trkpt><trkpt lat="50.245111" lon="16.849891"></trkpt><trkpt lat="50.245476" lon="16.849503"></trkpt><trkpt lat="50.24557" lon="16.849107"></trkpt><trkpt lat="50.245938" lon="16.848596"></trkpt><trkpt lat="50.24633" lon="16.848382"></trkpt><trkpt lat="50.247675" lon="16.847308"></trkpt><trkpt lat="50.247824" lon="16.846869"></trkpt><trkpt lat="50.248072" lon="16.84594"></trkpt><trkpt lat="50.248071" lon="16.845501"></trkpt><trkpt lat="50.24782" lon="16.844999"></trkpt><trkpt lat="50.247843" lon="16.844477"></trkpt><trkpt lat="50.247612" lon="16.8447"></trkpt><trkpt lat="50.247938" lon="16.844519"></trkpt><trkpt lat="50.248213" lon="16.844564"></trkpt><trkpt lat="50.248151" lon="16.845112"></trkpt><trkpt lat="50.24803" lon="16.844716"></trkpt><trkpt lat="50.248192" lon="16.845127"></trkpt><trkpt lat="50.248383" lon="16.846084"></trkpt><trkpt lat="50.248142" lon="16.846654"></trkpt><trkpt lat="50.248004" lon="16.847055"></trkpt><trkpt lat="50.247751" lon="16.847556"></trkpt><trkpt lat="50.247443" lon="16.847862"></trkpt><trkpt lat="50.247227" lon="16.848214"></trkpt><trkpt lat="50.246942" lon="16.848433"></trkpt><trkpt lat="50.246671" lon="16.848561"></trkpt><trkpt lat="50.246371" lon="16.84879"></trkpt><trkpt lat="50.246131" lon="16.849138"></trkpt><trkpt lat="50.245341" lon="16.850025"></trkpt><trkpt lat="50.245021" lon="16.850243"></trkpt><trkpt lat="50.244634" lon="16.850272"></trkpt><trkpt lat="50.244328" lon="16.850465"></trkpt><trkpt lat="50.244075" lon="16.850003"></trkpt><trkpt lat="50.243798" lon="16.849742"></trkpt><trkpt lat="50.243531" lon="16.85021"></trkpt><trkpt lat="50.243351" lon="16.850676"></trkpt><trkpt lat="50.243218" lon="16.851147"></trkpt><trkpt lat="50.243051" lon="16.851514"></trkpt><trkpt lat="50.242708" lon="16.85186"></trkpt><trkpt lat="50.242351" lon="16.852077"></trkpt><trkpt lat="50.242078" lon="16.852136"></trkpt><trkpt lat="50.241146" lon="16.852172"></trkpt><trkpt lat="50.240898" lon="16.851884"></trkpt><trkpt lat="50.240082" lon="16.851113"></trkpt><trkpt lat="50.239781" lon="16.85091"></trkpt><trkpt lat="50.239488" lon="16.850656"></trkpt><trkpt lat="50.239169" lon="16.850469"></trkpt><trkpt lat="50.238904" lon="16.850199"></trkpt><trkpt lat="50.238682" lon="16.849892"></trkpt><trkpt lat="50.236738" lon="16.846659"></trkpt><trkpt lat="50.236717" lon="16.846199"></trkpt><trkpt lat="50.236649" lon="16.84573"></trkpt><trkpt lat="50.236554" lon="16.845279"></trkpt><trkpt lat="50.23647" lon="16.844552"></trkpt><trkpt lat="50.236295" lon="16.844086"></trkpt><trkpt lat="50.236066" lon="16.843731"></trkpt><trkpt lat="50.235903" lon="16.843249"></trkpt><trkpt lat="50.235527" lon="16.842915"></trkpt><trkpt lat="50.234812" lon="16.842408"></trkpt><trkpt lat="50.234727" lon="16.842865"></trkpt><trkpt lat="50.23475" lon="16.843382"></trkpt><trkpt lat="50.234545" lon="16.842956"></trkpt><trkpt lat="50.234608" lon="16.842297"></trkpt><trkpt lat="50.234479" lon="16.841359"></trkpt><trkpt lat="50.234228" lon="16.841149"></trkpt><trkpt lat="50.234536" lon="16.842418"></trkpt><trkpt lat="50.234429" lon="16.842028"></trkpt><trkpt lat="50.234091" lon="16.841973"></trkpt><trkpt lat="50.233377" lon="16.841732"></trkpt><trkpt lat="50.232862" lon="16.841653"></trkpt><trkpt lat="50.228041" lon="16.841704"></trkpt><trkpt lat="50.227762" lon="16.841632"></trkpt><trkpt lat="50.227407" lon="16.841591"></trkpt><trkpt lat="50.223074" lon="16.840332"></trkpt><trkpt lat="50.223358" lon="16.839888"></trkpt><trkpt lat="50.22372" lon="16.839656"></trkpt><trkpt lat="50.223993" lon="16.839524"></trkpt><trkpt lat="50.224339" lon="16.839462"></trkpt><trkpt lat="50.22474" lon="16.839334"></trkpt><trkpt lat="50.225015" lon="16.839203"></trkpt><trkpt lat="50.227523" lon="16.837575"></trkpt><trkpt lat="50.227766" lon="16.837365"></trkpt><trkpt lat="50.228038" lon="16.837024"></trkpt><trkpt lat="50.228704" lon="16.83601"></trkpt><trkpt lat="50.228423" lon="16.836285"></trkpt><trkpt lat="50.228201" lon="16.836574"></trkpt><trkpt lat="50.227875" lon="16.836829"></trkpt><trkpt lat="50.227539" lon="16.836926"></trkpt><trkpt lat="50.226958" lon="16.836976"></trkpt><trkpt lat="50.226252" lon="16.836797"></trkpt><trkpt lat="50.222385" lon="16.83641"></trkpt><trkpt lat="50.222041" lon="16.83651"></trkpt><trkpt lat="50.221522" lon="16.836566"></trkpt><trkpt lat="50.214931" lon="16.834908"></trkpt><trkpt lat="50.214681" lon="16.834738"></trkpt><trkpt lat="50.213658" lon="16.833856"></trkpt><trkpt lat="50.209799" lon="16.831238"></trkpt><trkpt lat="50.209493" lon="16.831319"></trkpt><trkpt lat="50.209116" lon="16.831475"></trkpt><trkpt lat="50.208874" lon="16.831681"></trkpt><trkpt lat="50.208497" lon="16.832052"></trkpt></trkseg></trk></gpx>