<?xml version="1.0" encoding="UTF-8" standalone="no" ?><gpx xmlns="http://www.topografix.com/GPX/1/1" xmlns:gpxx="http://www.garmin.com/xmlschemas/GpxExtensions/v3" ><trk><trkseg><trkpt lat="50.7510798331" lon="15.7085425872"></trkpt><trkpt lat="50.7508971915" lon="15.708881719"></trkpt><trkpt lat="50.7508675195" lon="15.7093322463"></trkpt><trkpt lat="50.7507735584" lon="15.7100425288"></trkpt><trkpt lat="50.7506349217" lon="15.7105310261"></trkpt><trkpt lat="50.7504381146" lon="15.7108994108"></trkpt><trkpt lat="50.7501932792" lon="15.7111548074"></trkpt><trkpt lat="50.7498781197" lon="15.7112528756"></trkpt><trkpt lat="50.7496045344" lon="15.7112169173"></trkpt><trkpt lat="50.7493058033" lon="15.7110492792"></trkpt><trkpt lat="50.7490750495" lon="15.7107435912"></trkpt><trkpt lat="50.748883104" lon="15.7103265915"></trkpt><trkpt lat="50.7487252727" lon="15.7098619826"></trkpt><trkpt lat="50.748539865" lon="15.7094159815"></trkpt><trkpt lat="50.7480750047" lon="15.7085078862"></trkpt><trkpt lat="50.7478039339" lon="15.708212927"></trkpt><trkpt lat="50.7475443464" lon="15.7079823408"></trkpt><trkpt lat="50.7442651782" lon="15.7056395151"></trkpt><trkpt lat="50.7439239509" lon="15.7054512575"></trkpt><trkpt lat="50.7431200426" lon="15.7051355112"></trkpt><trkpt lat="50.7427908015" lon="15.7051025704"></trkpt><trkpt lat="50.7420398667" lon="15.7052898221"></trkpt><trkpt lat="50.7417481765" lon="15.7055398542"></trkpt><trkpt lat="50.7415000722" lon="15.7058343105"></trkpt><trkpt lat="50.7413181849" lon="15.7061784714"></trkpt><trkpt lat="50.7411777042" lon="15.706581641"></trkpt><trkpt lat="50.7412145846" lon="15.7071775105"></trkpt><trkpt lat="50.7416570652" lon="15.7108047791"></trkpt><trkpt lat="50.7417744119" lon="15.7112650294"></trkpt><trkpt lat="50.7420417946" lon="15.7127168588"></trkpt><trkpt lat="50.7420236897" lon="15.7131885923"></trkpt><trkpt lat="50.7419680338" lon="15.7136392035"></trkpt><trkpt lat="50.7397704665" lon="15.7274643984"></trkpt><trkpt lat="50.7396207657" lon="15.7279927097"></trkpt><trkpt lat="50.7394953724" lon="15.7285976317"></trkpt><trkpt lat="50.7394052669" lon="15.7292208262"></trkpt><trkpt lat="50.739713721" lon="15.7289396133"></trkpt><trkpt lat="50.7393403072" lon="15.7292600535"></trkpt><trkpt lat="50.7390702423" lon="15.7295496482"></trkpt><trkpt lat="50.7389427535" lon="15.7299492974"></trkpt><trkpt lat="50.7386036217" lon="15.730751697"></trkpt><trkpt lat="50.7383443695" lon="15.7309740689"></trkpt><trkpt lat="50.7381133642" lon="15.7312199939"></trkpt><trkpt lat="50.7376307342" lon="15.7318434399"></trkpt><trkpt lat="50.7368169352" lon="15.7331132982"></trkpt><trkpt lat="50.736785084" lon="15.733538093"></trkpt><trkpt lat="50.7367136702" lon="15.7339945715"></trkpt><trkpt lat="50.7367411628" lon="15.7344388962"></trkpt><trkpt lat="50.7364664879" lon="15.7345364615"></trkpt><trkpt lat="50.7361251768" lon="15.7344711665"></trkpt><trkpt lat="50.736283008" lon="15.7348583266"></trkpt><trkpt lat="50.7363246661" lon="15.73530416"></trkpt><trkpt lat="50.7363110036" lon="15.7357758936"></trkpt><trkpt lat="50.7363331318" lon="15.7364438474"></trkpt><trkpt lat="50.7364231534" lon="15.7368681394"></trkpt><trkpt lat="50.7364632189" lon="15.7373345923"></trkpt><trkpt lat="50.7364312839" lon="15.7377583813"></trkpt><trkpt lat="50.7364337146" lon="15.7382144406"></trkpt><trkpt lat="50.7364072278" lon="15.738706626"></trkpt><trkpt lat="50.7363476325" lon="15.7391491067"></trkpt><trkpt lat="50.7363837585" lon="15.7395797689"></trkpt><trkpt lat="50.7361166272" lon="15.7396479137"></trkpt><trkpt lat="50.7363384962" lon="15.7393623423"></trkpt><trkpt lat="50.7363975886" lon="15.7389366254"></trkpt><trkpt lat="50.7364299428" lon="15.7385079749"></trkpt><trkpt lat="50.7364327088" lon="15.7380779833"></trkpt><trkpt lat="50.7364693377" lon="15.7375799306"></trkpt><trkpt lat="50.7364585251" lon="15.7371446583"></trkpt><trkpt lat="50.7363866922" lon="15.7367183547"></trkpt><trkpt lat="50.7363141887" lon="15.7357799169"></trkpt><trkpt lat="50.7363388315" lon="15.735309273"></trkpt><trkpt lat="50.736277895" lon="15.7348786946"></trkpt><trkpt lat="50.7361427788" lon="15.7345060352"></trkpt><trkpt lat="50.7364711817" lon="15.7345446758"></trkpt><trkpt lat="50.7367281709" lon="15.7348042633"></trkpt><trkpt lat="50.7367311046" lon="15.7342380658"></trkpt><trkpt lat="50.736811487" lon="15.7335422002"></trkpt><trkpt lat="50.7368372194" lon="15.7330765016"></trkpt><trkpt lat="50.7370082941" lon="15.732635865"></trkpt><trkpt lat="50.737318676" lon="15.7322832383"></trkpt><trkpt lat="50.7388585992" lon="15.7301668916"></trkpt><trkpt lat="50.7390045281" lon="15.7297717687"></trkpt><trkpt lat="50.7393507846" lon="15.7285184227"></trkpt><trkpt lat="50.7393052708" lon="15.7280974835"></trkpt><trkpt lat="50.7393282373" lon="15.7275100797"></trkpt><trkpt lat="50.7395603321" lon="15.7251106761"></trkpt><trkpt lat="50.7396314945" lon="15.7246957719"></trkpt><trkpt lat="50.7396971248" lon="15.7240659557"></trkpt><trkpt lat="50.7397819497" lon="15.723645268"></trkpt><trkpt lat="50.7397548761" lon="15.7231933996"></trkpt><trkpt lat="50.7396879885" lon="15.722778663"></trkpt><trkpt lat="50.7396068517" lon="15.7219895907"></trkpt><trkpt lat="50.7395268884" lon="15.7215662207"></trkpt><trkpt lat="50.7387898676" lon="15.718639344"></trkpt><trkpt lat="50.7387097366" lon="15.7182135433"></trkpt><trkpt lat="50.7385790627" lon="15.717785731"></trkpt><trkpt lat="50.7380326465" lon="15.7163629867"></trkpt><trkpt lat="50.7373847254" lon="15.7142205723"></trkpt><trkpt lat="50.7374686282" lon="15.7137326617"></trkpt><trkpt lat="50.7377208397" lon="15.7114062645"></trkpt><trkpt lat="50.7375713903" lon="15.711045675"></trkpt><trkpt lat="50.7373202685" lon="15.7105451077"></trkpt><trkpt lat="50.736748036" lon="15.7091646921"></trkpt><trkpt lat="50.7367051207" lon="15.7086754404"></trkpt><trkpt lat="50.7357782498" lon="15.702287592"></trkpt><trkpt lat="50.7356383558" lon="15.7017930597"></trkpt><trkpt lat="50.7353462465" lon="15.7004356943"></trkpt><trkpt lat="50.7352726534" lon="15.6999339536"></trkpt><trkpt lat="50.7347412407" lon="15.6974404212"></trkpt><trkpt lat="50.7350137364" lon="15.6974157784"></trkpt><trkpt lat="50.7353267167" lon="15.6974921376"></trkpt><trkpt lat="50.7356158923" lon="15.6976635475"></trkpt><trkpt lat="50.7408964075" lon="15.7016602065"></trkpt><trkpt lat="50.7411397342" lon="15.7020142581"></trkpt><trkpt lat="50.741185667" lon="15.7024655398"></trkpt><trkpt lat="50.7410689071" lon="15.702978177"></trkpt><trkpt lat="50.7407887839" lon="15.7046745066"></trkpt><trkpt lat="50.7408786379" lon="15.7052191626"></trkpt><trkpt lat="50.7411447633" lon="15.7063465286"></trkpt><trkpt lat="50.7413476892" lon="15.7060596161"></trkpt><trkpt lat="50.7422520127" lon="15.7050979603"></trkpt><trkpt lat="50.7425900549" lon="15.7050114591"></trkpt><trkpt lat="50.7429306954" lon="15.7050445676"></trkpt><trkpt lat="50.7436387148" lon="15.7052325737"></trkpt><trkpt lat="50.7440014835" lon="15.7054326497"></trkpt><trkpt lat="50.7474605273" lon="15.7078980189"></trkpt><trkpt lat="50.7477560733" lon="15.7081903797"></trkpt><trkpt lat="50.7482050918" lon="15.7087473571"></trkpt><trkpt lat="50.7484265417" lon="15.7091456652"></trkpt><trkpt lat="50.7486008853" lon="15.709560737"></trkpt><trkpt lat="50.7494146843" lon="15.7111471798"></trkpt><trkpt lat="50.7497164328" lon="15.7112476788"></trkpt><trkpt lat="50.7503759209" lon="15.7109148335"></trkpt><trkpt lat="50.7506474946" lon="15.7103836723"></trkpt><trkpt lat="50.7507551182" lon="15.7099885494"></trkpt><trkpt lat="50.7508204132" lon="15.7095728908"></trkpt><trkpt lat="50.7508568745" lon="15.709148515"></trkpt><trkpt lat="50.7509005442" lon="15.7081307005"></trkpt></trkseg></trk></gpx>