<?xml version="1.0" encoding="UTF-8" standalone="no" ?><gpx xmlns="http://www.topografix.com/GPX/1/1" xmlns:gpxx="http://www.garmin.com/xmlschemas/GpxExtensions/v3" ><trk><trkseg><trkpt lat="50.7510499097" lon="15.7083995081"></trkpt><trkpt lat="50.7508681901" lon="15.7080229931"></trkpt><trkpt lat="50.7506283" lon="15.7078092545"></trkpt><trkpt lat="50.7504113764" lon="15.7075239345"></trkpt><trkpt lat="50.7501788624" lon="15.7071353495"></trkpt><trkpt lat="50.7493739482" lon="15.7060361467"></trkpt><trkpt lat="50.7491059788" lon="15.705735907"></trkpt><trkpt lat="50.7486847043" lon="15.7051530294"></trkpt><trkpt lat="50.7485470735" lon="15.70477576"></trkpt><trkpt lat="50.7483022381" lon="15.7043745182"></trkpt><trkpt lat="50.7485287171" lon="15.7040444389"></trkpt><trkpt lat="50.7487152983" lon="15.703714611"></trkpt><trkpt lat="50.7487970218" lon="15.7033017185"></trkpt><trkpt lat="50.7488684356" lon="15.7026879955"></trkpt><trkpt lat="50.7491540909" lon="15.7023275737"></trkpt><trkpt lat="50.7489007898" lon="15.7028292306"></trkpt><trkpt lat="50.7492933143" lon="15.7023372967"></trkpt><trkpt lat="50.7495762873" lon="15.7021285035"></trkpt><trkpt lat="50.7498735096" lon="15.7020757813"></trkpt><trkpt lat="50.7501898427" lon="15.7020854205"></trkpt><trkpt lat="50.7505635079" lon="15.7022949681"></trkpt><trkpt lat="50.7508251071" lon="15.7025689725"></trkpt><trkpt lat="50.7510616444" lon="15.7028909214"></trkpt><trkpt lat="50.7515845075" lon="15.7034562808"></trkpt><trkpt lat="50.7519756909" lon="15.7036949974"></trkpt><trkpt lat="50.7522943709" lon="15.7039563451"></trkpt><trkpt lat="50.7525340933" lon="15.7042552438"></trkpt><trkpt lat="50.7528167311" lon="15.7044378854"></trkpt><trkpt lat="50.7531274483" lon="15.7045264821"></trkpt><trkpt lat="50.7537689991" lon="15.7045915257"></trkpt><trkpt lat="50.7541170157" lon="15.7042762823"></trkpt><trkpt lat="50.7543843985" lon="15.7039719354"></trkpt><trkpt lat="50.7546414714" lon="15.7038015313"></trkpt><trkpt lat="50.7550278772" lon="15.703894319"></trkpt><trkpt lat="50.7553915679" lon="15.7040481269"></trkpt><trkpt lat="50.7556425221" lon="15.7043274119"></trkpt><trkpt lat="50.7558531594" lon="15.7046952099"></trkpt><trkpt lat="50.75609372" lon="15.7049003989"></trkpt><trkpt lat="50.7563978992" lon="15.7050076034"></trkpt><trkpt lat="50.7567124721" lon="15.7050662767"></trkpt><trkpt lat="50.7579237409" lon="15.704642823"></trkpt><trkpt lat="50.7582812291" lon="15.7043876778"></trkpt><trkpt lat="50.7591645978" lon="15.703935558"></trkpt><trkpt lat="50.7594912406" lon="15.7041683234"></trkpt><trkpt lat="50.7597633172" lon="15.7043011766"></trkpt><trkpt lat="50.7600831706" lon="15.7043438405"></trkpt><trkpt lat="50.7657082658" lon="15.7059990149"></trkpt><trkpt lat="50.7659371756" lon="15.7064743526"></trkpt><trkpt lat="50.7667016052" lon="15.708411159"></trkpt><trkpt lat="50.7669766154" lon="15.7089144085"></trkpt><trkpt lat="50.767268138" lon="15.7091672067"></trkpt><trkpt lat="50.7686616294" lon="15.710727917"></trkpt><trkpt lat="50.768752154" lon="15.7112154923"></trkpt><trkpt lat="50.7688920479" lon="15.7117044926"></trkpt><trkpt lat="50.7691559102" lon="15.712440256"></trkpt><trkpt lat="50.7693600934" lon="15.7128887717"></trkpt><trkpt lat="50.769919334" lon="15.7138961926"></trkpt><trkpt lat="50.7702880539" lon="15.7144103386"></trkpt><trkpt lat="50.7706144452" lon="15.7146744523"></trkpt><trkpt lat="50.7709306944" lon="15.7147456147"></trkpt><trkpt lat="50.7715149969" lon="15.714791799"></trkpt><trkpt lat="50.7753037009" lon="15.7157853898"></trkpt><trkpt lat="50.7755682338" lon="15.7163394336"></trkpt><trkpt lat="50.7764319889" lon="15.7186028827"></trkpt><trkpt lat="50.776412962" lon="15.7190475427"></trkpt><trkpt lat="50.7764498424" lon="15.7195217069"></trkpt><trkpt lat="50.7766443864" lon="15.7199713122"></trkpt><trkpt lat="50.7769003697" lon="15.7204329036"></trkpt><trkpt lat="50.776977567" lon="15.720953336"></trkpt><trkpt lat="50.7770011202" lon="15.721417442"></trkpt><trkpt lat="50.7770735398" lon="15.7218383811"></trkpt><trkpt lat="50.7771823369" lon="15.7222402934"></trkpt><trkpt lat="50.7772033755" lon="15.7227881346"></trkpt><trkpt lat="50.777179487" lon="15.7232177071"></trkpt><trkpt lat="50.7771100849" lon="15.7237621956"></trkpt><trkpt lat="50.7770920638" lon="15.7244272158"></trkpt><trkpt lat="50.7772685867" lon="15.724939853"></trkpt><trkpt lat="50.7776129991" lon="15.7252352312"></trkpt><trkpt lat="50.7778931223" lon="15.725352494"></trkpt><trkpt lat="50.7781996485" lon="15.7253953256"></trkpt><trkpt lat="50.7782807015" lon="15.7258799672"></trkpt><trkpt lat="50.7780098822" lon="15.7262283191"></trkpt><trkpt lat="50.777747361" lon="15.7265054248"></trkpt><trkpt lat="50.7774413377" lon="15.7264783513"></trkpt><trkpt lat="50.7770565245" lon="15.726368716"></trkpt><trkpt lat="50.7764229365" lon="15.7266560476"></trkpt><trkpt lat="50.7761066873" lon="15.726893926"></trkpt><trkpt lat="50.7758314256" lon="15.7269474864"></trkpt><trkpt lat="50.7755122427" lon="15.7270944212"></trkpt><trkpt lat="50.7753653079" lon="15.7274612971"></trkpt><trkpt lat="50.7752577681" lon="15.7278611138"></trkpt><trkpt lat="50.7749687601" lon="15.7286983822"></trkpt><trkpt lat="50.7748043071" lon="15.7293479796"></trkpt><trkpt lat="50.7747396827" lon="15.7298907917"></trkpt><trkpt lat="50.7748720329" lon="15.7302798796"></trkpt><trkpt lat="50.7752620429" lon="15.7304435782"></trkpt><trkpt lat="50.775538981" lon="15.7304792851"></trkpt><trkpt lat="50.7752425969" lon="15.7304343581"></trkpt><trkpt lat="50.7749569416" lon="15.7305543032"></trkpt><trkpt lat="50.7747225836" lon="15.7308630925"></trkpt><trkpt lat="50.7744350005" lon="15.7311781682"></trkpt><trkpt lat="50.7742518559" lon="15.7314981055"></trkpt><trkpt lat="50.7741319947" lon="15.7319818251"></trkpt><trkpt lat="50.7737997361" lon="15.7338535879"></trkpt><trkpt lat="50.7737728301" lon="15.7344288379"></trkpt><trkpt lat="50.7738571521" lon="15.7349245436"></trkpt><trkpt lat="50.7742065098" lon="15.7350810338"></trkpt><trkpt lat="50.7745112758" lon="15.7352754939"></trkpt><trkpt lat="50.7744782511" lon="15.7357276976"></trkpt><trkpt lat="50.7743984554" lon="15.7361633889"></trkpt><trkpt lat="50.7742557954" lon="15.7365478668"></trkpt><trkpt lat="50.7739843056" lon="15.7374599017"></trkpt><trkpt lat="50.7743427996" lon="15.7378929947"></trkpt></trkseg></trk></gpx>