<?xml version="1.0" encoding="UTF-8" standalone="no" ?><gpx xmlns="http://www.topografix.com/GPX/1/1" xmlns:gpxx="http://www.garmin.com/xmlschemas/GpxExtensions/v3" ><trk><trkseg><trkpt lat="49.407885" lon="20.564249"></trkpt><trkpt lat="49.407726" lon="20.564613"></trkpt><trkpt lat="49.407505" lon="20.564989"></trkpt><trkpt lat="49.407301" lon="20.565279"></trkpt><trkpt lat="49.407" lon="20.565538"></trkpt><trkpt lat="49.406569" lon="20.565996"></trkpt><trkpt lat="49.406297" lon="20.566346"></trkpt><trkpt lat="49.406022" lon="20.566397"></trkpt><trkpt lat="49.405363" lon="20.566642"></trkpt><trkpt lat="49.405092" lon="20.566919"></trkpt><trkpt lat="49.404884" lon="20.5672"></trkpt><trkpt lat="49.404481" lon="20.567633"></trkpt><trkpt lat="49.404132" lon="20.568095"></trkpt><trkpt lat="49.403942" lon="20.568601"></trkpt><trkpt lat="49.40374" lon="20.568992"></trkpt><trkpt lat="49.403471" lon="20.569643"></trkpt><trkpt lat="49.403312" lon="20.570149"></trkpt><trkpt lat="49.403331" lon="20.570642"></trkpt><trkpt lat="49.403427" lon="20.571437"></trkpt><trkpt lat="49.403452" lon="20.57199"></trkpt><trkpt lat="49.403511" lon="20.572481"></trkpt><trkpt lat="49.403495" lon="20.572958"></trkpt><trkpt lat="49.403674" lon="20.573371"></trkpt><trkpt lat="49.403806" lon="20.573856"></trkpt><trkpt lat="49.403907" lon="20.574372"></trkpt><trkpt lat="49.403864" lon="20.574851"></trkpt><trkpt lat="49.403887" lon="20.575335"></trkpt><trkpt lat="49.403814" lon="20.575776"></trkpt><trkpt lat="49.403649" lon="20.576202"></trkpt><trkpt lat="49.40345" lon="20.576551"></trkpt><trkpt lat="49.403401" lon="20.577101"></trkpt><trkpt lat="49.403119" lon="20.577504"></trkpt><trkpt lat="49.40293" lon="20.577852"></trkpt><trkpt lat="49.402573" lon="20.578401"></trkpt><trkpt lat="49.402222" lon="20.578587"></trkpt><trkpt lat="49.401896" lon="20.578625"></trkpt><trkpt lat="49.401675" lon="20.578872"></trkpt><trkpt lat="49.401514" lon="20.579389"></trkpt><trkpt lat="49.401329" lon="20.579798"></trkpt><trkpt lat="49.401177" lon="20.580207"></trkpt><trkpt lat="49.401021" lon="20.580803"></trkpt><trkpt lat="49.400833" lon="20.581365"></trkpt><trkpt lat="49.40058" lon="20.58151"></trkpt><trkpt lat="49.400029" lon="20.581918"></trkpt><trkpt lat="49.399597" lon="20.582344"></trkpt><trkpt lat="49.399087" lon="20.582675"></trkpt><trkpt lat="49.398737" lon="20.582727"></trkpt><trkpt lat="49.39847" lon="20.583083"></trkpt><trkpt lat="49.398412" lon="20.583535"></trkpt><trkpt lat="49.398264" lon="20.583951"></trkpt><trkpt lat="49.398033" lon="20.584325"></trkpt><trkpt lat="49.397484" lon="20.585465"></trkpt><trkpt lat="49.397437" lon="20.585901"></trkpt><trkpt lat="49.397266" lon="20.586272"></trkpt><trkpt lat="49.397055" lon="20.58658"></trkpt><trkpt lat="49.396817" lon="20.587033"></trkpt><trkpt lat="49.39678" lon="20.587624"></trkpt><trkpt lat="49.396782" lon="20.588093"></trkpt><trkpt lat="49.396818" lon="20.588548"></trkpt><trkpt lat="49.396924" lon="20.589078"></trkpt><trkpt lat="49.396864" lon="20.589484"></trkpt><trkpt lat="49.396945" lon="20.589948"></trkpt><trkpt lat="49.396939" lon="20.59046"></trkpt><trkpt lat="49.396825" lon="20.591973"></trkpt><trkpt lat="49.3967" lon="20.592868"></trkpt><trkpt lat="49.39653" lon="20.593642"></trkpt><trkpt lat="49.396748" lon="20.593951"></trkpt><trkpt lat="49.396468" lon="20.59397"></trkpt><trkpt lat="49.396752" lon="20.593956"></trkpt><trkpt lat="49.396461" lon="20.593988"></trkpt><trkpt lat="49.396335" lon="20.594444"></trkpt><trkpt lat="49.396285" lon="20.594881"></trkpt><trkpt lat="49.396276" lon="20.595308"></trkpt><trkpt lat="49.3962" lon="20.596151"></trkpt><trkpt lat="49.396045" lon="20.596551"></trkpt><trkpt lat="49.395729" lon="20.597203"></trkpt><trkpt lat="49.395509" lon="20.597535"></trkpt><trkpt lat="49.395326" lon="20.597952"></trkpt><trkpt lat="49.395115" lon="20.598324"></trkpt><trkpt lat="49.394614" lon="20.599439"></trkpt><trkpt lat="49.394592" lon="20.599877"></trkpt><trkpt lat="49.394435" lon="20.60029"></trkpt><trkpt lat="49.394452" lon="20.600763"></trkpt><trkpt lat="49.394731" lon="20.600967"></trkpt><trkpt lat="49.39522" lon="20.601425"></trkpt><trkpt lat="49.395505" lon="20.601639"></trkpt><trkpt lat="49.395757" lon="20.601907"></trkpt><trkpt lat="49.395983" lon="20.602233"></trkpt><trkpt lat="49.396315" lon="20.602267"></trkpt><trkpt lat="49.39655" lon="20.602534"></trkpt><trkpt lat="49.396908" lon="20.602681"></trkpt><trkpt lat="49.397269" lon="20.602906"></trkpt><trkpt lat="49.397571" lon="20.60319"></trkpt><trkpt lat="49.397852" lon="20.603542"></trkpt><trkpt lat="49.398082" lon="20.60399"></trkpt><trkpt lat="49.398669" lon="20.60494"></trkpt><trkpt lat="49.398962" lon="20.605096"></trkpt><trkpt lat="49.399283" lon="20.605319"></trkpt><trkpt lat="49.399605" lon="20.605601"></trkpt><trkpt lat="49.400117" lon="20.605961"></trkpt><trkpt lat="49.400477" lon="20.605971"></trkpt><trkpt lat="49.400888" lon="20.605857"></trkpt><trkpt lat="49.401176" lon="20.60582"></trkpt><trkpt lat="49.401415" lon="20.606021"></trkpt><trkpt lat="49.401635" lon="20.606612"></trkpt><trkpt lat="49.401742" lon="20.607171"></trkpt><trkpt lat="49.402019" lon="20.608207"></trkpt><trkpt lat="49.402203" lon="20.608514"></trkpt><trkpt lat="49.402347" lon="20.608951"></trkpt><trkpt lat="49.402458" lon="20.609455"></trkpt><trkpt lat="49.402514" lon="20.609871"></trkpt><trkpt lat="49.402456" lon="20.610383"></trkpt><trkpt lat="49.402457" lon="20.610935"></trkpt><trkpt lat="49.402526" lon="20.611446"></trkpt><trkpt lat="49.402571" lon="20.612157"></trkpt><trkpt lat="49.402536" lon="20.612831"></trkpt><trkpt lat="49.402716" lon="20.613192"></trkpt><trkpt lat="49.403092" lon="20.61321"></trkpt><trkpt lat="49.403526" lon="20.613118"></trkpt><trkpt lat="49.403839" lon="20.613139"></trkpt><trkpt lat="49.404743" lon="20.612889"></trkpt><trkpt lat="49.404946" lon="20.612607"></trkpt><trkpt lat="49.405212" lon="20.612415"></trkpt><trkpt lat="49.405719" lon="20.612226"></trkpt><trkpt lat="49.406157" lon="20.612132"></trkpt><trkpt lat="49.407271" lon="20.611646"></trkpt><trkpt lat="49.407664" lon="20.611568"></trkpt><trkpt lat="49.407949" lon="20.611571"></trkpt><trkpt lat="49.409133" lon="20.611785"></trkpt><trkpt lat="49.409448" lon="20.611982"></trkpt><trkpt lat="49.409744" lon="20.61207"></trkpt><trkpt lat="49.410024" lon="20.612079"></trkpt><trkpt lat="49.410326" lon="20.612019"></trkpt><trkpt lat="49.410715" lon="20.611884"></trkpt><trkpt lat="49.411367" lon="20.611754"></trkpt><trkpt lat="49.411648" lon="20.611612"></trkpt><trkpt lat="49.411943" lon="20.611388"></trkpt><trkpt lat="49.412297" lon="20.611233"></trkpt><trkpt lat="49.412628" lon="20.611308"></trkpt><trkpt lat="49.413352" lon="20.611285"></trkpt><trkpt lat="49.413686" lon="20.611393"></trkpt><trkpt lat="49.414648" lon="20.6119"></trkpt><trkpt lat="49.415038" lon="20.612185"></trkpt><trkpt lat="49.415471" lon="20.612391"></trkpt><trkpt lat="49.415695" lon="20.612636"></trkpt><trkpt lat="49.415985" lon="20.612817"></trkpt><trkpt lat="49.416241" lon="20.613042"></trkpt><trkpt lat="49.416528" lon="20.613438"></trkpt><trkpt lat="49.41676" lon="20.613697"></trkpt><trkpt lat="49.417048" lon="20.61413"></trkpt><trkpt lat="49.417409" lon="20.614491"></trkpt><trkpt lat="49.417819" lon="20.614671"></trkpt><trkpt lat="49.418174" lon="20.614939"></trkpt><trkpt lat="49.418502" lon="20.615026"></trkpt><trkpt lat="49.419068" lon="20.615256"></trkpt><trkpt lat="49.419307" lon="20.615677"></trkpt><trkpt lat="49.419529" lon="20.615949"></trkpt><trkpt lat="49.419761" lon="20.616372"></trkpt><trkpt lat="49.419998" lon="20.616665"></trkpt><trkpt lat="49.420245" lon="20.616891"></trkpt><trkpt lat="49.420151" lon="20.617428"></trkpt><trkpt lat="49.419998" lon="20.617885"></trkpt><trkpt lat="49.419528" lon="20.618959"></trkpt><trkpt lat="49.419433" lon="20.619363"></trkpt><trkpt lat="49.419307" lon="20.620432"></trkpt><trkpt lat="49.419365" lon="20.619869"></trkpt><trkpt lat="49.419497" lon="20.619305"></trkpt><trkpt lat="49.41965" lon="20.618957"></trkpt><trkpt lat="49.41994" lon="20.618146"></trkpt><trkpt lat="49.420317" lon="20.616746"></trkpt><trkpt lat="49.420512" lon="20.616411"></trkpt><trkpt lat="49.420717" lon="20.616125"></trkpt><trkpt lat="49.420964" lon="20.615856"></trkpt><trkpt lat="49.421203" lon="20.615444"></trkpt><trkpt lat="49.424619" lon="20.61051"></trkpt><trkpt lat="49.425223" lon="20.609438"></trkpt><trkpt lat="49.425391" lon="20.608981"></trkpt><trkpt lat="49.425345" lon="20.608564"></trkpt><trkpt lat="49.425425" lon="20.608121"></trkpt><trkpt lat="49.425443" lon="20.607544"></trkpt><trkpt lat="49.425243" lon="20.607184"></trkpt><trkpt lat="49.425026" lon="20.60693"></trkpt><trkpt lat="49.424297" lon="20.606224"></trkpt><trkpt lat="49.424526" lon="20.606482"></trkpt><trkpt lat="49.425438" lon="20.607797"></trkpt><trkpt lat="49.425719" lon="20.607562"></trkpt><trkpt lat="49.425958" lon="20.607252"></trkpt><trkpt lat="49.426091" lon="20.606806"></trkpt><trkpt lat="49.426205" lon="20.606215"></trkpt><trkpt lat="49.426247" lon="20.605606"></trkpt><trkpt lat="49.42643" lon="20.605158"></trkpt><trkpt lat="49.426939" lon="20.604186"></trkpt><trkpt lat="49.427169" lon="20.603856"></trkpt><trkpt lat="49.427451" lon="20.603611"></trkpt><trkpt lat="49.427676" lon="20.603373"></trkpt><trkpt lat="49.427956" lon="20.603159"></trkpt><trkpt lat="49.428164" lon="20.602777"></trkpt><trkpt lat="49.428286" lon="20.602364"></trkpt><trkpt lat="49.428393" lon="20.601796"></trkpt><trkpt lat="49.428462" lon="20.601099"></trkpt><trkpt lat="49.4284" lon="20.600633"></trkpt><trkpt lat="49.428189" lon="20.599565"></trkpt><trkpt lat="49.428016" lon="20.598022"></trkpt><trkpt lat="49.428062" lon="20.597465"></trkpt><trkpt lat="49.427988" lon="20.597025"></trkpt><trkpt lat="49.427885" lon="20.596585"></trkpt><trkpt lat="49.427649" lon="20.596187"></trkpt><trkpt lat="49.427387" lon="20.595911"></trkpt><trkpt lat="49.426989" lon="20.595582"></trkpt><trkpt lat="49.426725" lon="20.59544"></trkpt><trkpt lat="49.426435" lon="20.595373"></trkpt><trkpt lat="49.426113" lon="20.595386"></trkpt><trkpt lat="49.425838" lon="20.59552"></trkpt><trkpt lat="49.425566" lon="20.595598"></trkpt><trkpt lat="49.425198" lon="20.595643"></trkpt><trkpt lat="49.423339" lon="20.596168"></trkpt><trkpt lat="49.423039" lon="20.596367"></trkpt><trkpt lat="49.422689" lon="20.596199"></trkpt><trkpt lat="49.422449" lon="20.595935"></trkpt><trkpt lat="49.421763" lon="20.595337"></trkpt><trkpt lat="49.421311" lon="20.59509"></trkpt><trkpt lat="49.421022" lon="20.595133"></trkpt><trkpt lat="49.420618" lon="20.595131"></trkpt><trkpt lat="49.420231" lon="20.595239"></trkpt><trkpt lat="49.419872" lon="20.595236"></trkpt><trkpt lat="49.419548" lon="20.595178"></trkpt><trkpt lat="49.419273" lon="20.594847"></trkpt><trkpt lat="49.418805" lon="20.59455"></trkpt><trkpt lat="49.418369" lon="20.594723"></trkpt><trkpt lat="49.418035" lon="20.594462"></trkpt><trkpt lat="49.416909" lon="20.593357"></trkpt><trkpt lat="49.416641" lon="20.592909"></trkpt><trkpt lat="49.416298" lon="20.592429"></trkpt><trkpt lat="49.41617" lon="20.592061"></trkpt><trkpt lat="49.415847" lon="20.591828"></trkpt><trkpt lat="49.415595" lon="20.591435"></trkpt><trkpt lat="49.41535" lon="20.591116"></trkpt><trkpt lat="49.415069" lon="20.590655"></trkpt><trkpt lat="49.414793" lon="20.59122"></trkpt><trkpt lat="49.414732" lon="20.591854"></trkpt><trkpt lat="49.414573" lon="20.592494"></trkpt><trkpt lat="49.414304" lon="20.592672"></trkpt><trkpt lat="49.413998" lon="20.592418"></trkpt><trkpt lat="49.413724" lon="20.592372"></trkpt><trkpt lat="49.413447" lon="20.592378"></trkpt><trkpt lat="49.410095" lon="20.591839"></trkpt><trkpt lat="49.409763" lon="20.59149"></trkpt><trkpt lat="49.409461" lon="20.591393"></trkpt><trkpt lat="49.409036" lon="20.591328"></trkpt><trkpt lat="49.408758" lon="20.591147"></trkpt><trkpt lat="49.408372" lon="20.590966"></trkpt><trkpt lat="49.407874" lon="20.590631"></trkpt><trkpt lat="49.407649" lon="20.590258"></trkpt><trkpt lat="49.407403" lon="20.590009"></trkpt><trkpt lat="49.407098" lon="20.589822"></trkpt><trkpt lat="49.406813" lon="20.589435"></trkpt><trkpt lat="49.406539" lon="20.589147"></trkpt><trkpt lat="49.406176" lon="20.589068"></trkpt><trkpt lat="49.406122" lon="20.588656"></trkpt><trkpt lat="49.405843" lon="20.588349"></trkpt><trkpt lat="49.405733" lon="20.587952"></trkpt><trkpt lat="49.405665" lon="20.587407"></trkpt><trkpt lat="49.405469" lon="20.586421"></trkpt><trkpt lat="49.405306" lon="20.585833"></trkpt><trkpt lat="49.405249" lon="20.585284"></trkpt><trkpt lat="49.405317" lon="20.5848"></trkpt><trkpt lat="49.405865" lon="20.578045"></trkpt><trkpt lat="49.405798" lon="20.577548"></trkpt><trkpt lat="49.405791" lon="20.577132"></trkpt><trkpt lat="49.405876" lon="20.576678"></trkpt><trkpt lat="49.406104" lon="20.574749"></trkpt><trkpt lat="49.406097" lon="20.57418"></trkpt><trkpt lat="49.40605" lon="20.573738"></trkpt><trkpt lat="49.406069" lon="20.573217"></trkpt><trkpt lat="49.406131" lon="20.572696"></trkpt><trkpt lat="49.405861" lon="20.572626"></trkpt><trkpt lat="49.40561" lon="20.573007"></trkpt><trkpt lat="49.405481" lon="20.573404"></trkpt><trkpt lat="49.405071" lon="20.574337"></trkpt><trkpt lat="49.404872" lon="20.573976"></trkpt><trkpt lat="49.404677" lon="20.573537"></trkpt><trkpt lat="49.404372" lon="20.573013"></trkpt><trkpt lat="49.40411" lon="20.572751"></trkpt><trkpt lat="49.403997" lon="20.572361"></trkpt><trkpt lat="49.40386" lon="20.572003"></trkpt><trkpt lat="49.403569" lon="20.57206"></trkpt><trkpt lat="49.403535" lon="20.571648"></trkpt><trkpt lat="49.403432" lon="20.571104"></trkpt><trkpt lat="49.403423" lon="20.570594"></trkpt><trkpt lat="49.403362" lon="20.570186"></trkpt><trkpt lat="49.403505" lon="20.569705"></trkpt><trkpt lat="49.403648" lon="20.569334"></trkpt><trkpt lat="49.403983" lon="20.568666"></trkpt><trkpt lat="49.404617" lon="20.567715"></trkpt><trkpt lat="49.404844" lon="20.567458"></trkpt><trkpt lat="49.405064" lon="20.567133"></trkpt><trkpt lat="49.405318" lon="20.566832"></trkpt><trkpt lat="49.405659" lon="20.566597"></trkpt><trkpt lat="49.40603" lon="20.566466"></trkpt><trkpt lat="49.406482" lon="20.566208"></trkpt><trkpt lat="49.406794" lon="20.565787"></trkpt><trkpt lat="49.407074" lon="20.56554"></trkpt><trkpt lat="49.407551" lon="20.564938"></trkpt></trkseg></trk></gpx>