<?xml version="1.0" encoding="UTF-8" standalone="no" ?><gpx xmlns="http://www.topografix.com/GPX/1/1" xmlns:gpxx="http://www.garmin.com/xmlschemas/GpxExtensions/v3" ><trk><trkseg><trkpt lat="50.908674" lon="15.332733"></trkpt><trkpt lat="50.907964" lon="15.333402"></trkpt><trkpt lat="50.907642" lon="15.333646"></trkpt><trkpt lat="50.907422" lon="15.334041"></trkpt><trkpt lat="50.907093" lon="15.334031"></trkpt><trkpt lat="50.90677" lon="15.334171"></trkpt><trkpt lat="50.906582" lon="15.334671"></trkpt><trkpt lat="50.905933" lon="15.33587"></trkpt><trkpt lat="50.905711" lon="15.335612"></trkpt><trkpt lat="50.90527" lon="15.334989"></trkpt><trkpt lat="50.905104" lon="15.334463"></trkpt><trkpt lat="50.904882" lon="15.333987"></trkpt><trkpt lat="50.904561" lon="15.333904"></trkpt><trkpt lat="50.903929" lon="15.333835"></trkpt><trkpt lat="50.901995" lon="15.333307"></trkpt><trkpt lat="50.901635" lon="15.33307"></trkpt><trkpt lat="50.901122" lon="15.332617"></trkpt><trkpt lat="50.900787" lon="15.33249"></trkpt><trkpt lat="50.900466" lon="15.332524"></trkpt><trkpt lat="50.900083" lon="15.332372"></trkpt><trkpt lat="50.899759" lon="15.332318"></trkpt><trkpt lat="50.898992" lon="15.332072"></trkpt><trkpt lat="50.898722" lon="15.331845"></trkpt><trkpt lat="50.898616" lon="15.331346"></trkpt><trkpt lat="50.898495" lon="15.330932"></trkpt><trkpt lat="50.898225" lon="15.330642"></trkpt><trkpt lat="50.897946" lon="15.330407"></trkpt><trkpt lat="50.897676" lon="15.330076"></trkpt><trkpt lat="50.897461" lon="15.329761"></trkpt><trkpt lat="50.897215" lon="15.329508"></trkpt><trkpt lat="50.896855" lon="15.329246"></trkpt><trkpt lat="50.895458" lon="15.32797"></trkpt><trkpt lat="50.891721" lon="15.323807"></trkpt><trkpt lat="50.891555" lon="15.323384"></trkpt><trkpt lat="50.891465" lon="15.32295"></trkpt><trkpt lat="50.891279" lon="15.322577"></trkpt><trkpt lat="50.891059" lon="15.322212"></trkpt><trkpt lat="50.890999" lon="15.321775"></trkpt><trkpt lat="50.891336" lon="15.321564"></trkpt><trkpt lat="50.891707" lon="15.321593"></trkpt><trkpt lat="50.892076" lon="15.321681"></trkpt><trkpt lat="50.896486" lon="15.322042"></trkpt><trkpt lat="50.896719" lon="15.321814"></trkpt><trkpt lat="50.897005" lon="15.321425"></trkpt><trkpt lat="50.897114" lon="15.321029"></trkpt><trkpt lat="50.896921" lon="15.32061"></trkpt><trkpt lat="50.896701" lon="15.320312"></trkpt><trkpt lat="50.89651" lon="15.320001"></trkpt><trkpt lat="50.896251" lon="15.319649"></trkpt><trkpt lat="50.896059" lon="15.319322"></trkpt><trkpt lat="50.892301" lon="15.311637"></trkpt><trkpt lat="50.892109" lon="15.311136"></trkpt><trkpt lat="50.891994" lon="15.310731"></trkpt><trkpt lat="50.892021" lon="15.310216"></trkpt><trkpt lat="50.891745" lon="15.310193"></trkpt><trkpt lat="50.891481" lon="15.310302"></trkpt><trkpt lat="50.891366" lon="15.309914"></trkpt><trkpt lat="50.8916" lon="15.309681"></trkpt><trkpt lat="50.891345" lon="15.309852"></trkpt><trkpt lat="50.891056" lon="15.309962"></trkpt><trkpt lat="50.890671" lon="15.310028"></trkpt><trkpt lat="50.890353" lon="15.309889"></trkpt><trkpt lat="50.889997" lon="15.309815"></trkpt><trkpt lat="50.889615" lon="15.309834"></trkpt><trkpt lat="50.888087" lon="15.310125"></trkpt><trkpt lat="50.88784" lon="15.310565"></trkpt><trkpt lat="50.887631" lon="15.311065"></trkpt><trkpt lat="50.887511" lon="15.311647"></trkpt><trkpt lat="50.88735" lon="15.312111"></trkpt><trkpt lat="50.887026" lon="15.312824"></trkpt><trkpt lat="50.886278" lon="15.314913"></trkpt><trkpt lat="50.885974" lon="15.314998"></trkpt><trkpt lat="50.885693" lon="15.315015"></trkpt><trkpt lat="50.885364" lon="15.315111"></trkpt><trkpt lat="50.885087" lon="15.315267"></trkpt><trkpt lat="50.8846" lon="15.315721"></trkpt><trkpt lat="50.88451" lon="15.316273"></trkpt><trkpt lat="50.88446" lon="15.316811"></trkpt><trkpt lat="50.882897" lon="15.330884"></trkpt><trkpt lat="50.882764" lon="15.331328"></trkpt><trkpt lat="50.879841" lon="15.339168"></trkpt><trkpt lat="50.879619" lon="15.339422"></trkpt><trkpt lat="50.877581" lon="15.342322"></trkpt><trkpt lat="50.877548" lon="15.342819"></trkpt><trkpt lat="50.877417" lon="15.343556"></trkpt><trkpt lat="50.877171" lon="15.343831"></trkpt><trkpt lat="50.876832" lon="15.343928"></trkpt><trkpt lat="50.876414" lon="15.344148"></trkpt><trkpt lat="50.876185" lon="15.344382"></trkpt><trkpt lat="50.875043" lon="15.345322"></trkpt><trkpt lat="50.874671" lon="15.345256"></trkpt><trkpt lat="50.87409" lon="15.345242"></trkpt><trkpt lat="50.873801" lon="15.345577"></trkpt><trkpt lat="50.873567" lon="15.345963"></trkpt><trkpt lat="50.873397" lon="15.346304"></trkpt><trkpt lat="50.873264" lon="15.34671"></trkpt><trkpt lat="50.872893" lon="15.347633"></trkpt><trkpt lat="50.872688" lon="15.348013"></trkpt><trkpt lat="50.872537" lon="15.34842"></trkpt><trkpt lat="50.872502" lon="15.348939"></trkpt><trkpt lat="50.872307" lon="15.350489"></trkpt><trkpt lat="50.872148" lon="15.351007"></trkpt><trkpt lat="50.871619" lon="15.352331"></trkpt><trkpt lat="50.871354" lon="15.352689"></trkpt><trkpt lat="50.870445" lon="15.353701"></trkpt><trkpt lat="50.870155" lon="15.353916"></trkpt><trkpt lat="50.868802" lon="15.354675"></trkpt><trkpt lat="50.868401" lon="15.354827"></trkpt><trkpt lat="50.868006" lon="15.354866"></trkpt><trkpt lat="50.867626" lon="15.355029"></trkpt><trkpt lat="50.867357" lon="15.355293"></trkpt><trkpt lat="50.867146" lon="15.355577"></trkpt><trkpt lat="50.866783" lon="15.355749"></trkpt><trkpt lat="50.866288" lon="15.355904"></trkpt><trkpt lat="50.865983" lon="15.35571"></trkpt><trkpt lat="50.865762" lon="15.355448"></trkpt><trkpt lat="50.865331" lon="15.355025"></trkpt><trkpt lat="50.864411" lon="15.354295"></trkpt><trkpt lat="50.864147" lon="15.354412"></trkpt><trkpt lat="50.863924" lon="15.354695"></trkpt><trkpt lat="50.863129" lon="15.355502"></trkpt><trkpt lat="50.862854" lon="15.355645"></trkpt><trkpt lat="50.8625" lon="15.355733"></trkpt><trkpt lat="50.861321" lon="15.356197"></trkpt><trkpt lat="50.86098" lon="15.356503"></trkpt><trkpt lat="50.859927" lon="15.357116"></trkpt><trkpt lat="50.859467" lon="15.356921"></trkpt><trkpt lat="50.859139" lon="15.356845"></trkpt><trkpt lat="50.854576" lon="15.358629"></trkpt><trkpt lat="50.854626" lon="15.359106"></trkpt><trkpt lat="50.854717" lon="15.360871"></trkpt></trkseg></trk></gpx>