<?xml version="1.0" encoding="UTF-8" standalone="no" ?><gpx xmlns="http://www.topografix.com/GPX/1/1" xmlns:gpxx="http://www.garmin.com/xmlschemas/GpxExtensions/v3" ><trk><trkseg><trkpt lat="53.924786" lon="14.455736"></trkpt><trkpt lat="53.924504" lon="14.455297"></trkpt><trkpt lat="53.92431" lon="14.455219"></trkpt><trkpt lat="53.924331" lon="14.455561"></trkpt><trkpt lat="53.924506" lon="14.455342"></trkpt><trkpt lat="53.924721" lon="14.45516"></trkpt><trkpt lat="53.924946" lon="14.455574"></trkpt><trkpt lat="53.925613" lon="14.456593"></trkpt><trkpt lat="53.926218" lon="14.455903"></trkpt><trkpt lat="53.926805" lon="14.455124"></trkpt><trkpt lat="53.927284" lon="14.454356"></trkpt><trkpt lat="53.927467" lon="14.454117"></trkpt><trkpt lat="53.927693" lon="14.453949"></trkpt><trkpt lat="53.927907" lon="14.453631"></trkpt><trkpt lat="53.928127" lon="14.452982"></trkpt><trkpt lat="53.928456" lon="14.452361"></trkpt><trkpt lat="53.928984" lon="14.451812"></trkpt><trkpt lat="53.929549" lon="14.452308"></trkpt><trkpt lat="53.930426" lon="14.452945"></trkpt><trkpt lat="53.930438" lon="14.452501"></trkpt><trkpt lat="53.930514" lon="14.452049"></trkpt><trkpt lat="53.930662" lon="14.450794"></trkpt><trkpt lat="53.930454" lon="14.450779"></trkpt><trkpt lat="53.930236" lon="14.450837"></trkpt><trkpt lat="53.929621" lon="14.450788"></trkpt><trkpt lat="53.929295" lon="14.450971"></trkpt><trkpt lat="53.929101" lon="14.451177"></trkpt><trkpt lat="53.928949" lon="14.451459"></trkpt><trkpt lat="53.928715" lon="14.451151"></trkpt><trkpt lat="53.927613" lon="14.449914"></trkpt><trkpt lat="53.92766" lon="14.450275"></trkpt><trkpt lat="53.9278" lon="14.450534"></trkpt><trkpt lat="53.928096" lon="14.451543"></trkpt><trkpt lat="53.927979" lon="14.451919"></trkpt><trkpt lat="53.927845" lon="14.452451"></trkpt><trkpt lat="53.927677" lon="14.452912"></trkpt><trkpt lat="53.927409" lon="14.45379"></trkpt><trkpt lat="53.927721" lon="14.454132"></trkpt><trkpt lat="53.927891" lon="14.454354"></trkpt><trkpt lat="53.928785" lon="14.455743"></trkpt><trkpt lat="53.92891" lon="14.45604"></trkpt><trkpt lat="53.929072" lon="14.456551"></trkpt><trkpt lat="53.929623" lon="14.457962"></trkpt><trkpt lat="53.929806" lon="14.458288"></trkpt><trkpt lat="53.932205" lon="14.463262"></trkpt><trkpt lat="53.932248" lon="14.463667"></trkpt><trkpt lat="53.932323" lon="14.465185"></trkpt><trkpt lat="53.932326" lon="14.465671"></trkpt><trkpt lat="53.9324" lon="14.466742"></trkpt><trkpt lat="53.932393" lon="14.467117"></trkpt><trkpt lat="53.932412" lon="14.46768"></trkpt><trkpt lat="53.932454" lon="14.468063"></trkpt><trkpt lat="53.932588" lon="14.470101"></trkpt><trkpt lat="53.93267" lon="14.470706"></trkpt><trkpt lat="53.932634" lon="14.471167"></trkpt><trkpt lat="53.932501" lon="14.474898"></trkpt><trkpt lat="53.932719" lon="14.475155"></trkpt><trkpt lat="53.932737" lon="14.475579"></trkpt><trkpt lat="53.932733" lon="14.47899"></trkpt><trkpt lat="53.932788" lon="14.479897"></trkpt><trkpt lat="53.93284" lon="14.483915"></trkpt><trkpt lat="53.932825" lon="14.484266"></trkpt><trkpt lat="53.932708" lon="14.485466"></trkpt><trkpt lat="53.932546" lon="14.486134"></trkpt><trkpt lat="53.931909" lon="14.488275"></trkpt><trkpt lat="53.931896" lon="14.488639"></trkpt><trkpt lat="53.931731" lon="14.488924"></trkpt><trkpt lat="53.931675" lon="14.489254"></trkpt><trkpt lat="53.931617" lon="14.489812"></trkpt><trkpt lat="53.931526" lon="14.490366"></trkpt><trkpt lat="53.930927" lon="14.495337"></trkpt><trkpt lat="53.930999" lon="14.495878"></trkpt><trkpt lat="53.931014" lon="14.496792"></trkpt><trkpt lat="53.930944" lon="14.497684"></trkpt><trkpt lat="53.930761" lon="14.499094"></trkpt><trkpt lat="53.930433" lon="14.499644"></trkpt><trkpt lat="53.930294" lon="14.500009"></trkpt><trkpt lat="53.930015" lon="14.501165"></trkpt><trkpt lat="53.928717" lon="14.508296"></trkpt><trkpt lat="53.928699" lon="14.509001"></trkpt><trkpt lat="53.928733" lon="14.510338"></trkpt><trkpt lat="53.929011" lon="14.513835"></trkpt><trkpt lat="53.929117" lon="14.514639"></trkpt><trkpt lat="53.929431" lon="14.516316"></trkpt><trkpt lat="53.92955" lon="14.516788"></trkpt><trkpt lat="53.92966" lon="14.517351"></trkpt><trkpt lat="53.929758" lon="14.518048"></trkpt><trkpt lat="53.92983" lon="14.518426"></trkpt><trkpt lat="53.930081" lon="14.519146"></trkpt><trkpt lat="53.930955" lon="14.522283"></trkpt><trkpt lat="53.931012" lon="14.522845"></trkpt><trkpt lat="53.931184" lon="14.523569"></trkpt><trkpt lat="53.931192" lon="14.524097"></trkpt><trkpt lat="53.931267" lon="14.525023"></trkpt><trkpt lat="53.931369" lon="14.525819"></trkpt><trkpt lat="53.931394" lon="14.526255"></trkpt><trkpt lat="53.931465" lon="14.526739"></trkpt><trkpt lat="53.931859" lon="14.528753"></trkpt><trkpt lat="53.932289" lon="14.531664"></trkpt><trkpt lat="53.932208" lon="14.531979"></trkpt><trkpt lat="53.932111" lon="14.532275"></trkpt><trkpt lat="53.932037" lon="14.532637"></trkpt><trkpt lat="53.931765" lon="14.534388"></trkpt><trkpt lat="53.931702" lon="14.534954"></trkpt><trkpt lat="53.931665" lon="14.535566"></trkpt><trkpt lat="53.931727" lon="14.536587"></trkpt><trkpt lat="53.931885" lon="14.536889"></trkpt><trkpt lat="53.932078" lon="14.537039"></trkpt><trkpt lat="53.931929" lon="14.5374"></trkpt><trkpt lat="53.931824" lon="14.537836"></trkpt><trkpt lat="53.931829" lon="14.538482"></trkpt><trkpt lat="53.931731" lon="14.540616"></trkpt><trkpt lat="53.931678" lon="14.541014"></trkpt><trkpt lat="53.931689" lon="14.541379"></trkpt><trkpt lat="53.931793" lon="14.542481"></trkpt><trkpt lat="53.932449" lon="14.546961"></trkpt><trkpt lat="53.93271" lon="14.547098"></trkpt><trkpt lat="53.933137" lon="14.54715"></trkpt><trkpt lat="53.932892" lon="14.547163"></trkpt><trkpt lat="53.932617" lon="14.547081"></trkpt><trkpt lat="53.932376" lon="14.546858"></trkpt><trkpt lat="53.932173" lon="14.546611"></trkpt><trkpt lat="53.931974" lon="14.546682"></trkpt><trkpt lat="53.931706" lon="14.546972"></trkpt><trkpt lat="53.931632" lon="14.54749"></trkpt><trkpt lat="53.931646" lon="14.548047"></trkpt><trkpt lat="53.931752" lon="14.549566"></trkpt><trkpt lat="53.931657" lon="14.550737"></trkpt><trkpt lat="53.931618" lon="14.552909"></trkpt><trkpt lat="53.931687" lon="14.553523"></trkpt><trkpt lat="53.931777" lon="14.553943"></trkpt><trkpt lat="53.931825" lon="14.554425"></trkpt><trkpt lat="53.931852" lon="14.554962"></trkpt><trkpt lat="53.931829" lon="14.559988"></trkpt><trkpt lat="53.931761" lon="14.560594"></trkpt><trkpt lat="53.931154" lon="14.564346"></trkpt><trkpt lat="53.931088" lon="14.565121"></trkpt><trkpt lat="53.931173" lon="14.565465"></trkpt><trkpt lat="53.931449" lon="14.566251"></trkpt><trkpt lat="53.93167" lon="14.56674"></trkpt><trkpt lat="53.93181" lon="14.56725"></trkpt><trkpt lat="53.931886" lon="14.567735"></trkpt><trkpt lat="53.932141" lon="14.568971"></trkpt><trkpt lat="53.932176" lon="14.56934"></trkpt><trkpt lat="53.932365" lon="14.57028"></trkpt><trkpt lat="53.93247" lon="14.570653"></trkpt><trkpt lat="53.932603" lon="14.571022"></trkpt><trkpt lat="53.935209" lon="14.576979"></trkpt><trkpt lat="53.935459" lon="14.577124"></trkpt><trkpt lat="53.936093" lon="14.577638"></trkpt><trkpt lat="53.936469" lon="14.578001"></trkpt><trkpt lat="53.939056" lon="14.580933"></trkpt><trkpt lat="53.939946" lon="14.581644"></trkpt><trkpt lat="53.940377" lon="14.581839"></trkpt><trkpt lat="53.940464" lon="14.58221"></trkpt><trkpt lat="53.94045" lon="14.582597"></trkpt><trkpt lat="53.940622" lon="14.583205"></trkpt><trkpt lat="53.94095" lon="14.584084"></trkpt><trkpt lat="53.941088" lon="14.584389"></trkpt><trkpt lat="53.941382" lon="14.585183"></trkpt><trkpt lat="53.941831" lon="14.585747"></trkpt><trkpt lat="53.942152" lon="14.586276"></trkpt><trkpt lat="53.94237" lon="14.586743"></trkpt><trkpt lat="53.942393" lon="14.587217"></trkpt><trkpt lat="53.942234" lon="14.587805"></trkpt><trkpt lat="53.942041" lon="14.588128"></trkpt><trkpt lat="53.941752" lon="14.58852"></trkpt><trkpt lat="53.940823" lon="14.590117"></trkpt><trkpt lat="53.940693" lon="14.590723"></trkpt><trkpt lat="53.93914" lon="14.599941"></trkpt><trkpt lat="53.938911" lon="14.600836"></trkpt><trkpt lat="53.938167" lon="14.603227"></trkpt><trkpt lat="53.938068" lon="14.603713"></trkpt><trkpt lat="53.937956" lon="14.604152"></trkpt><trkpt lat="53.93731" lon="14.607436"></trkpt><trkpt lat="53.937222" lon="14.608392"></trkpt><trkpt lat="53.93717" lon="14.610055"></trkpt><trkpt lat="53.93756" lon="14.610152"></trkpt><trkpt lat="53.952161" lon="14.613793"></trkpt><trkpt lat="53.965151" lon="14.619417"></trkpt><trkpt lat="53.965198" lon="14.620321"></trkpt><trkpt lat="53.965167" lon="14.621305"></trkpt><trkpt lat="53.965096" lon="14.621663"></trkpt><trkpt lat="53.964671" lon="14.62257"></trkpt><trkpt lat="53.961241" lon="14.631174"></trkpt><trkpt lat="53.961063" lon="14.632364"></trkpt><trkpt lat="53.960263" lon="14.640279"></trkpt><trkpt lat="53.96027" lon="14.641206"></trkpt><trkpt lat="53.960151" lon="14.643497"></trkpt><trkpt lat="53.960058" lon="14.644337"></trkpt><trkpt lat="53.960101" lon="14.653041"></trkpt><trkpt lat="53.960743" lon="14.653419"></trkpt><trkpt lat="53.961033" lon="14.653704"></trkpt><trkpt lat="53.962434" lon="14.654867"></trkpt><trkpt lat="53.963606" lon="14.65607"></trkpt><trkpt lat="53.963684" lon="14.656614"></trkpt><trkpt lat="53.963949" lon="14.656834"></trkpt><trkpt lat="53.968372" lon="14.659851"></trkpt><trkpt lat="53.969028" lon="14.660026"></trkpt><trkpt lat="53.971992" lon="14.661215"></trkpt><trkpt lat="53.972235" lon="14.661571"></trkpt><trkpt lat="53.973267" lon="14.663599"></trkpt><trkpt lat="53.973284" lon="14.664206"></trkpt><trkpt lat="53.973271" lon="14.66475"></trkpt><trkpt lat="53.973349" lon="14.665962"></trkpt><trkpt lat="53.973453" lon="14.666255"></trkpt><trkpt lat="53.973673" lon="14.666556"></trkpt><trkpt lat="53.974681" lon="14.667703"></trkpt><trkpt lat="53.978181" lon="14.67232"></trkpt><trkpt lat="53.981359" lon="14.677394"></trkpt><trkpt lat="53.982328" lon="14.67863"></trkpt><trkpt lat="53.983069" lon="14.67935"></trkpt><trkpt lat="53.983296" lon="14.679519"></trkpt><trkpt lat="53.983639" lon="14.67961"></trkpt><trkpt lat="53.985043" lon="14.680172"></trkpt><trkpt lat="53.985347" lon="14.68036"></trkpt><trkpt lat="53.985616" lon="14.680565"></trkpt><trkpt lat="53.986472" lon="14.681435"></trkpt><trkpt lat="53.987229" lon="14.68234"></trkpt><trkpt lat="53.990753" lon="14.685828"></trkpt><trkpt lat="53.991166" lon="14.685999"></trkpt><trkpt lat="53.991643" lon="14.68626"></trkpt><trkpt lat="53.992193" lon="14.686311"></trkpt><trkpt lat="53.992543" lon="14.686225"></trkpt><trkpt lat="53.992379" lon="14.686417"></trkpt><trkpt lat="53.992167" lon="14.686324"></trkpt><trkpt lat="53.991748" lon="14.686327"></trkpt><trkpt lat="53.991405" lon="14.686128"></trkpt><trkpt lat="53.988887" lon="14.684177"></trkpt><trkpt lat="53.989151" lon="14.684584"></trkpt><trkpt lat="53.989414" lon="14.68488"></trkpt><trkpt lat="53.990112" lon="14.685535"></trkpt><trkpt lat="53.990485" lon="14.685702"></trkpt><trkpt lat="53.9907" lon="14.685644"></trkpt><trkpt lat="53.990268" lon="14.685552"></trkpt><trkpt lat="53.989794" lon="14.685354"></trkpt><trkpt lat="53.98954" lon="14.685085"></trkpt><trkpt lat="53.989009" lon="14.684421"></trkpt><trkpt lat="53.988817" lon="14.684138"></trkpt><trkpt lat="53.988969" lon="14.684363"></trkpt><trkpt lat="53.98878" lon="14.684094"></trkpt><trkpt lat="53.988952" lon="14.684319"></trkpt><trkpt lat="53.989953" lon="14.68544"></trkpt><trkpt lat="53.990194" lon="14.685558"></trkpt><trkpt lat="53.990634" lon="14.685636"></trkpt><trkpt lat="53.991076" lon="14.685992"></trkpt><trkpt lat="53.991374" lon="14.686127"></trkpt><trkpt lat="53.991681" lon="14.686362"></trkpt><trkpt lat="53.99215" lon="14.686311"></trkpt><trkpt lat="53.992555" lon="14.686171"></trkpt><trkpt lat="53.992824" lon="14.685987"></trkpt><trkpt lat="53.993439" lon="14.685356"></trkpt><trkpt lat="53.993939" lon="14.684699"></trkpt><trkpt lat="54.000323" lon="14.677591"></trkpt><trkpt lat="54.000467" lon="14.678269"></trkpt><trkpt lat="54.004347" lon="14.691509"></trkpt><trkpt lat="54.004813" lon="14.691194"></trkpt><trkpt lat="54.006637" lon="14.690456"></trkpt><trkpt lat="54.00675" lon="14.690847"></trkpt><trkpt lat="54.007687" lon="14.692752"></trkpt><trkpt lat="54.007959" lon="14.692618"></trkpt><trkpt lat="54.008288" lon="14.692569"></trkpt><trkpt lat="54.008411" lon="14.693052"></trkpt><trkpt lat="54.008441" lon="14.693603"></trkpt><trkpt lat="54.008108" lon="14.693864"></trkpt><trkpt lat="54.007574" lon="14.694461"></trkpt><trkpt lat="54.007643" lon="14.694811"></trkpt><trkpt lat="54.007943" lon="14.695968"></trkpt><trkpt lat="54.008816" lon="14.698304"></trkpt><trkpt lat="54.009124" lon="14.698062"></trkpt><trkpt lat="54.009417" lon="14.697935"></trkpt><trkpt lat="54.009688" lon="14.697725"></trkpt><trkpt lat="54.010348" lon="14.697386"></trkpt><trkpt lat="54.010565" lon="14.697954"></trkpt><trkpt lat="54.010846" lon="14.698882"></trkpt><trkpt lat="54.012151" lon="14.702537"></trkpt><trkpt lat="54.012227" lon="14.702858"></trkpt><trkpt lat="54.012319" lon="14.703381"></trkpt><trkpt lat="54.012577" lon="14.703703"></trkpt><trkpt lat="54.012793" lon="14.703824"></trkpt><trkpt lat="54.012999" lon="14.704217"></trkpt><trkpt lat="54.013404" lon="14.705123"></trkpt><trkpt lat="54.013529" lon="14.705526"></trkpt><trkpt lat="54.014366" lon="14.707812"></trkpt><trkpt lat="54.014484" lon="14.708198"></trkpt><trkpt lat="54.014704" lon="14.709116"></trkpt><trkpt lat="54.014914" lon="14.709455"></trkpt><trkpt lat="54.015142" lon="14.709769"></trkpt><trkpt lat="54.015355" lon="14.709806"></trkpt><trkpt lat="54.015488" lon="14.71008"></trkpt><trkpt lat="54.015593" lon="14.710485"></trkpt><trkpt lat="54.015703" lon="14.710817"></trkpt><trkpt lat="54.015821" lon="14.711256"></trkpt><trkpt lat="54.01592" lon="14.711705"></trkpt><trkpt lat="54.016046" lon="14.712078"></trkpt><trkpt lat="54.01612" lon="14.712399"></trkpt><trkpt lat="54.016322" lon="14.712878"></trkpt><trkpt lat="54.016702" lon="14.714187"></trkpt><trkpt lat="54.016594" lon="14.714564"></trkpt><trkpt lat="54.01652" lon="14.714913"></trkpt><trkpt lat="54.016293" lon="14.715128"></trkpt><trkpt lat="54.015611" lon="14.715982"></trkpt><trkpt lat="54.015661" lon="14.716424"></trkpt><trkpt lat="54.015849" lon="14.71724"></trkpt><trkpt lat="54.016042" lon="14.717519"></trkpt><trkpt lat="54.016126" lon="14.717862"></trkpt><trkpt lat="54.016291" lon="14.718264"></trkpt><trkpt lat="54.016521" lon="14.718709"></trkpt><trkpt lat="54.016841" lon="14.719424"></trkpt><trkpt lat="54.016922" lon="14.719773"></trkpt><trkpt lat="54.017147" lon="14.719674"></trkpt><trkpt lat="54.01742" lon="14.719717"></trkpt><trkpt lat="54.017954" lon="14.719897"></trkpt><trkpt lat="54.018111" lon="14.720424"></trkpt><trkpt lat="54.01817" lon="14.720775"></trkpt><trkpt lat="54.018294" lon="14.721133"></trkpt><trkpt lat="54.018393" lon="14.721566"></trkpt><trkpt lat="54.020091" lon="14.727592"></trkpt><trkpt lat="54.020128" lon="14.728046"></trkpt><trkpt lat="54.019977" lon="14.728519"></trkpt><trkpt lat="54.019917" lon="14.729019"></trkpt><trkpt lat="54.019887" lon="14.729514"></trkpt><trkpt lat="54.019802" lon="14.730192"></trkpt><trkpt lat="54.019669" lon="14.730461"></trkpt><trkpt lat="54.019591" lon="14.730854"></trkpt><trkpt lat="54.019409" lon="14.731167"></trkpt><trkpt lat="54.019085" lon="14.731613"></trkpt><trkpt lat="54.01879" lon="14.732083"></trkpt><trkpt lat="54.018568" lon="14.732638"></trkpt><trkpt lat="54.018412" lon="14.733321"></trkpt><trkpt lat="54.018309" lon="14.733968"></trkpt><trkpt lat="54.017652" lon="14.740049"></trkpt><trkpt lat="54.017803" lon="14.740629"></trkpt><trkpt lat="54.018086" lon="14.741364"></trkpt><trkpt lat="54.01834" lon="14.7418"></trkpt><trkpt lat="54.018594" lon="14.74205"></trkpt><trkpt lat="54.0189" lon="14.742298"></trkpt><trkpt lat="54.019244" lon="14.742453"></trkpt><trkpt lat="54.019487" lon="14.742519"></trkpt><trkpt lat="54.021314" lon="14.743268"></trkpt><trkpt lat="54.021636" lon="14.743662"></trkpt><trkpt lat="54.021764" lon="14.744104"></trkpt><trkpt lat="54.021854" lon="14.744534"></trkpt><trkpt lat="54.021948" lon="14.745245"></trkpt><trkpt lat="54.021934" lon="14.74574"></trkpt><trkpt lat="54.021965" lon="14.747152"></trkpt><trkpt lat="54.022227" lon="14.750423"></trkpt><trkpt lat="54.022442" lon="14.751042"></trkpt><trkpt lat="54.022648" lon="14.751414"></trkpt><trkpt lat="54.024539" lon="14.754355"></trkpt><trkpt lat="54.024943" lon="14.754764"></trkpt><trkpt lat="54.026716" lon="14.756966"></trkpt><trkpt lat="54.026963" lon="14.757621"></trkpt><trkpt lat="54.027232" lon="14.758774"></trkpt><trkpt lat="54.027186" lon="14.759737"></trkpt><trkpt lat="54.026999" lon="14.760499"></trkpt><trkpt lat="54.02679" lon="14.76185"></trkpt><trkpt lat="54.026728" lon="14.762546"></trkpt><trkpt lat="54.026549" lon="14.766861"></trkpt><trkpt lat="54.026647" lon="14.767506"></trkpt><trkpt lat="54.027409" lon="14.771012"></trkpt><trkpt lat="54.027614" lon="14.771679"></trkpt><trkpt lat="54.028431" lon="14.773731"></trkpt><trkpt lat="54.028866" lon="14.774423"></trkpt><trkpt lat="54.029161" lon="14.775136"></trkpt><trkpt lat="54.02939" lon="14.775827"></trkpt><trkpt lat="54.029514" lon="14.776368"></trkpt><trkpt lat="54.02973" lon="14.776396"></trkpt><trkpt lat="54.029813" lon="14.77689"></trkpt><trkpt lat="54.030073" lon="14.777979"></trkpt><trkpt lat="54.030202" lon="14.778346"></trkpt><trkpt lat="54.030445" lon="14.779209"></trkpt><trkpt lat="54.033553" lon="14.793026"></trkpt><trkpt lat="54.033642" lon="14.79415"></trkpt><trkpt lat="54.03382" lon="14.799606"></trkpt><trkpt lat="54.033782" lon="14.800015"></trkpt><trkpt lat="54.033842" lon="14.800597"></trkpt><trkpt lat="54.034001" lon="14.801682"></trkpt><trkpt lat="54.034116" lon="14.803082"></trkpt><trkpt lat="54.034309" lon="14.804585"></trkpt><trkpt lat="54.033813" lon="14.804941"></trkpt><trkpt lat="54.033596" lon="14.804994"></trkpt><trkpt lat="54.033866" lon="14.804985"></trkpt><trkpt lat="54.034172" lon="14.804826"></trkpt><trkpt lat="54.034421" lon="14.804918"></trkpt><trkpt lat="54.034549" lon="14.805409"></trkpt><trkpt lat="54.03465" lon="14.805938"></trkpt><trkpt lat="54.035026" lon="14.80584"></trkpt><trkpt lat="54.035341" lon="14.805654"></trkpt><trkpt lat="54.035936" lon="14.805218"></trkpt><trkpt lat="54.035814" lon="14.804635"></trkpt><trkpt lat="54.035646" lon="14.804014"></trkpt><trkpt lat="54.035545" lon="14.803603"></trkpt></trkseg></trk></gpx>