<?xml version="1.0" encoding="UTF-8" standalone="no" ?><gpx xmlns="http://www.topografix.com/GPX/1/1" xmlns:gpxx="http://www.garmin.com/xmlschemas/GpxExtensions/v3" ><trk><trkseg><trkpt lat="54.208934" lon="15.729858"></trkpt><trkpt lat="54.209244" lon="15.729621"></trkpt><trkpt lat="54.209458" lon="15.729623"></trkpt><trkpt lat="54.209991" lon="15.729506"></trkpt><trkpt lat="54.210153" lon="15.729293"></trkpt><trkpt lat="54.21064" lon="15.729149"></trkpt><trkpt lat="54.210886" lon="15.72973"></trkpt><trkpt lat="54.211047" lon="15.73051"></trkpt><trkpt lat="54.211376" lon="15.732572"></trkpt><trkpt lat="54.211534" lon="15.733345"></trkpt><trkpt lat="54.211659" lon="15.733802"></trkpt><trkpt lat="54.219142" lon="15.767257"></trkpt><trkpt lat="54.218997" lon="15.767593"></trkpt><trkpt lat="54.218824" lon="15.767897"></trkpt><trkpt lat="54.218455" lon="15.768023"></trkpt><trkpt lat="54.218008" lon="15.768089"></trkpt><trkpt lat="54.217424" lon="15.768347"></trkpt><trkpt lat="54.21736" lon="15.768679"></trkpt><trkpt lat="54.217325" lon="15.769058"></trkpt><trkpt lat="54.217243" lon="15.769522"></trkpt><trkpt lat="54.217189" lon="15.770339"></trkpt><trkpt lat="54.216879" lon="15.771401"></trkpt><trkpt lat="54.21659" lon="15.77165"></trkpt><trkpt lat="54.216334" lon="15.772019"></trkpt><trkpt lat="54.216146" lon="15.772505"></trkpt><trkpt lat="54.215913" lon="15.772969"></trkpt><trkpt lat="54.215545" lon="15.773371"></trkpt><trkpt lat="54.215186" lon="15.77354"></trkpt><trkpt lat="54.213754" lon="15.774435"></trkpt><trkpt lat="54.213798" lon="15.775096"></trkpt><trkpt lat="54.213943" lon="15.775928"></trkpt><trkpt lat="54.214121" lon="15.776287"></trkpt><trkpt lat="54.214464" lon="15.776117"></trkpt><trkpt lat="54.214648" lon="15.775981"></trkpt><trkpt lat="54.215738" lon="15.775354"></trkpt><trkpt lat="54.217304" lon="15.774964"></trkpt><trkpt lat="54.217358" lon="15.775338"></trkpt><trkpt lat="54.217484" lon="15.775974"></trkpt><trkpt lat="54.217538" lon="15.776327"></trkpt><trkpt lat="54.218864" lon="15.782303"></trkpt><trkpt lat="54.219238" lon="15.78242"></trkpt><trkpt lat="54.219565" lon="15.782391"></trkpt><trkpt lat="54.220271" lon="15.782577"></trkpt><trkpt lat="54.220554" lon="15.782828"></trkpt><trkpt lat="54.220883" lon="15.783331"></trkpt><trkpt lat="54.221109" lon="15.783836"></trkpt><trkpt lat="54.227674" lon="15.801017"></trkpt><trkpt lat="54.227632" lon="15.801762"></trkpt><trkpt lat="54.227558" lon="15.802423"></trkpt><trkpt lat="54.227176" lon="15.809282"></trkpt><trkpt lat="54.227374" lon="15.809869"></trkpt><trkpt lat="54.231355" lon="15.819657"></trkpt><trkpt lat="54.231605" lon="15.819978"></trkpt><trkpt lat="54.232007" lon="15.820333"></trkpt><trkpt lat="54.234291" lon="15.822765"></trkpt><trkpt lat="54.234427" lon="15.823288"></trkpt><trkpt lat="54.235337" lon="15.827699"></trkpt><trkpt lat="54.235365" lon="15.828513"></trkpt><trkpt lat="54.23535" lon="15.829335"></trkpt><trkpt lat="54.23539" lon="15.830399"></trkpt><trkpt lat="54.236048" lon="15.8386"></trkpt><trkpt lat="54.236284" lon="15.839041"></trkpt><trkpt lat="54.238098" lon="15.843136"></trkpt><trkpt lat="54.238262" lon="15.843587"></trkpt><trkpt lat="54.23841" lon="15.844217"></trkpt><trkpt lat="54.238607" lon="15.844698"></trkpt><trkpt lat="54.238743" lon="15.845296"></trkpt><trkpt lat="54.238909" lon="15.845675"></trkpt><trkpt lat="54.239006" lon="15.846147"></trkpt><trkpt lat="54.239084" lon="15.846712"></trkpt><trkpt lat="54.239267" lon="15.847248"></trkpt><trkpt lat="54.239375" lon="15.847765"></trkpt><trkpt lat="54.23946" lon="15.848412"></trkpt><trkpt lat="54.239599" lon="15.849014"></trkpt><trkpt lat="54.239714" lon="15.849814"></trkpt><trkpt lat="54.239724" lon="15.850167"></trkpt><trkpt lat="54.239783" lon="15.850538"></trkpt><trkpt lat="54.23994" lon="15.851219"></trkpt><trkpt lat="54.24004" lon="15.85182"></trkpt><trkpt lat="54.24013" lon="15.852888"></trkpt><trkpt lat="54.240171" lon="15.854014"></trkpt><trkpt lat="54.240112" lon="15.854468"></trkpt><trkpt lat="54.239886" lon="15.855507"></trkpt><trkpt lat="54.239653" lon="15.855944"></trkpt><trkpt lat="54.239599" lon="15.856611"></trkpt><trkpt lat="54.239596" lon="15.857434"></trkpt><trkpt lat="54.239677" lon="15.858235"></trkpt><trkpt lat="54.243411" lon="15.895678"></trkpt><trkpt lat="54.243346" lon="15.897458"></trkpt><trkpt lat="54.243467" lon="15.89926"></trkpt><trkpt lat="54.243591" lon="15.899982"></trkpt><trkpt lat="54.246125" lon="15.9211"></trkpt><trkpt lat="54.245902" lon="15.922069"></trkpt><trkpt lat="54.245791" lon="15.922706"></trkpt><trkpt lat="54.245722" lon="15.923464"></trkpt><trkpt lat="54.245475" lon="15.928559"></trkpt><trkpt lat="54.245653" lon="15.929469"></trkpt><trkpt lat="54.246065" lon="15.930673"></trkpt><trkpt lat="54.246982" lon="15.934199"></trkpt><trkpt lat="54.247005" lon="15.935414"></trkpt><trkpt lat="54.247106" lon="15.937075"></trkpt><trkpt lat="54.248431" lon="15.949214"></trkpt><trkpt lat="54.248564" lon="15.949837"></trkpt><trkpt lat="54.248615" lon="15.950614"></trkpt><trkpt lat="54.248809" lon="15.960722"></trkpt><trkpt lat="54.248715" lon="15.9614"></trkpt><trkpt lat="54.2489" lon="15.961549"></trkpt><trkpt lat="54.249008" lon="15.961839"></trkpt><trkpt lat="54.249009" lon="15.962526"></trkpt><trkpt lat="54.249048" lon="15.963328"></trkpt><trkpt lat="54.249256" lon="15.963901"></trkpt><trkpt lat="54.249416" lon="15.964994"></trkpt><trkpt lat="54.249467" lon="15.965674"></trkpt><trkpt lat="54.249458" lon="15.966115"></trkpt><trkpt lat="54.249386" lon="15.966985"></trkpt><trkpt lat="54.249379" lon="15.967345"></trkpt><trkpt lat="54.249432" lon="15.969465"></trkpt><trkpt lat="54.249557" lon="15.970464"></trkpt><trkpt lat="54.249583" lon="15.971417"></trkpt><trkpt lat="54.249571" lon="15.971917"></trkpt><trkpt lat="54.249621" lon="15.972709"></trkpt><trkpt lat="54.249667" lon="15.973041"></trkpt><trkpt lat="54.249685" lon="15.973389"></trkpt><trkpt lat="54.249745" lon="15.973719"></trkpt><trkpt lat="54.250078" lon="15.97614"></trkpt><trkpt lat="54.250452" lon="15.977912"></trkpt><trkpt lat="54.250721" lon="15.978322"></trkpt><trkpt lat="54.250818" lon="15.97864"></trkpt><trkpt lat="54.250864" lon="15.97918"></trkpt><trkpt lat="54.250968" lon="15.979942"></trkpt><trkpt lat="54.250979" lon="15.980383"></trkpt><trkpt lat="54.251045" lon="15.980731"></trkpt><trkpt lat="54.251326" lon="15.981428"></trkpt><trkpt lat="54.251352" lon="15.9825"></trkpt><trkpt lat="54.251409" lon="15.983176"></trkpt><trkpt lat="54.251508" lon="15.983915"></trkpt><trkpt lat="54.251594" lon="15.985351"></trkpt><trkpt lat="54.251912" lon="15.987012"></trkpt><trkpt lat="54.252148" lon="15.987285"></trkpt><trkpt lat="54.252254" lon="15.987639"></trkpt><trkpt lat="54.252291" lon="15.987999"></trkpt><trkpt lat="54.252287" lon="15.988595"></trkpt><trkpt lat="54.252224" lon="15.989052"></trkpt><trkpt lat="54.252195" lon="15.989392"></trkpt><trkpt lat="54.252201" lon="15.990244"></trkpt><trkpt lat="54.252959" lon="16.005204"></trkpt><trkpt lat="54.253036" lon="16.005837"></trkpt><trkpt lat="54.25329" lon="16.007167"></trkpt><trkpt lat="54.253809" lon="16.010928"></trkpt><trkpt lat="54.253862" lon="16.011595"></trkpt><trkpt lat="54.253888" lon="16.012628"></trkpt><trkpt lat="54.25395" lon="16.013138"></trkpt><trkpt lat="54.253947" lon="16.013661"></trkpt><trkpt lat="54.254175" lon="16.019854"></trkpt><trkpt lat="54.254214" lon="16.020343"></trkpt><trkpt lat="54.254329" lon="16.021176"></trkpt><trkpt lat="54.254544" lon="16.023602"></trkpt><trkpt lat="54.254762" lon="16.025211"></trkpt><trkpt lat="54.254864" lon="16.025756"></trkpt><trkpt lat="54.256219" lon="16.035564"></trkpt><trkpt lat="54.257032" lon="16.045651"></trkpt><trkpt lat="54.256992" lon="16.046109"></trkpt><trkpt lat="54.256886" lon="16.046429"></trkpt><trkpt lat="54.256799" lon="16.046785"></trkpt><trkpt lat="54.25706" lon="16.047052"></trkpt><trkpt lat="54.257608" lon="16.047964"></trkpt><trkpt lat="54.257688" lon="16.048491"></trkpt><trkpt lat="54.257742" lon="16.049126"></trkpt><trkpt lat="54.257843" lon="16.052326"></trkpt><trkpt lat="54.257544" lon="16.052436"></trkpt><trkpt lat="54.257015" lon="16.052495"></trkpt><trkpt lat="54.256392" lon="16.052276"></trkpt><trkpt lat="54.256082" lon="16.052008"></trkpt><trkpt lat="54.255672" lon="16.052618"></trkpt><trkpt lat="54.255289" lon="16.053363"></trkpt><trkpt lat="54.25478" lon="16.054007"></trkpt><trkpt lat="54.254513" lon="16.054431"></trkpt><trkpt lat="54.253353" lon="16.056027"></trkpt><trkpt lat="54.253539" lon="16.05652"></trkpt><trkpt lat="54.254158" lon="16.057875"></trkpt><trkpt lat="54.254516" lon="16.057683"></trkpt><trkpt lat="54.254603" lon="16.058284"></trkpt><trkpt lat="54.254856" lon="16.059608"></trkpt><trkpt lat="54.25539" lon="16.059413"></trkpt><trkpt lat="54.256915" lon="16.058633"></trkpt><trkpt lat="54.256804" lon="16.057724"></trkpt><trkpt lat="54.256813" lon="16.057279"></trkpt><trkpt lat="54.257034" lon="16.057239"></trkpt><trkpt lat="54.257401" lon="16.057236"></trkpt><trkpt lat="54.257745" lon="16.05732"></trkpt><trkpt lat="54.257986" lon="16.057428"></trkpt><trkpt lat="54.258299" lon="16.057613"></trkpt><trkpt lat="54.258585" lon="16.057958"></trkpt><trkpt lat="54.258821" lon="16.058416"></trkpt><trkpt lat="54.258963" lon="16.058823"></trkpt><trkpt lat="54.259189" lon="16.058808"></trkpt><trkpt lat="54.259378" lon="16.059247"></trkpt><trkpt lat="54.259513" lon="16.059996"></trkpt><trkpt lat="54.259966" lon="16.063941"></trkpt><trkpt lat="54.25979" lon="16.064295"></trkpt><trkpt lat="54.259799" lon="16.064885"></trkpt><trkpt lat="54.259923" lon="16.066696"></trkpt><trkpt lat="54.260081" lon="16.067332"></trkpt><trkpt lat="54.260239" lon="16.067708"></trkpt><trkpt lat="54.260663" lon="16.068918"></trkpt><trkpt lat="54.2608" lon="16.069746"></trkpt><trkpt lat="54.262071" lon="16.075712"></trkpt><trkpt lat="54.262274" lon="16.07628"></trkpt><trkpt lat="54.26245" lon="16.076895"></trkpt><trkpt lat="54.263273" lon="16.079222"></trkpt><trkpt lat="54.263854" lon="16.079143"></trkpt><trkpt lat="54.264115" lon="16.079294"></trkpt><trkpt lat="54.26445" lon="16.079724"></trkpt><trkpt lat="54.264746" lon="16.080258"></trkpt><trkpt lat="54.264906" lon="16.080799"></trkpt><trkpt lat="54.265403" lon="16.082846"></trkpt><trkpt lat="54.26547" lon="16.083396"></trkpt><trkpt lat="54.265913" lon="16.089008"></trkpt><trkpt lat="54.26587" lon="16.089548"></trkpt><trkpt lat="54.265945" lon="16.090008"></trkpt><trkpt lat="54.266134" lon="16.090189"></trkpt><trkpt lat="54.266534" lon="16.090006"></trkpt><trkpt lat="54.267223" lon="16.089514"></trkpt><trkpt lat="54.26763" lon="16.089399"></trkpt><trkpt lat="54.267936" lon="16.089018"></trkpt><trkpt lat="54.267882" lon="16.0886"></trkpt><trkpt lat="54.267904" lon="16.088155"></trkpt><trkpt lat="54.267802" lon="16.087813"></trkpt><trkpt lat="54.26701" lon="16.084554"></trkpt><trkpt lat="54.267022" lon="16.085104"></trkpt><trkpt lat="54.267005" lon="16.085442"></trkpt><trkpt lat="54.266789" lon="16.085639"></trkpt><trkpt lat="54.26633" lon="16.085831"></trkpt><trkpt lat="54.265975" lon="16.085926"></trkpt><trkpt lat="54.265844" lon="16.086369"></trkpt><trkpt lat="54.265897" lon="16.08675"></trkpt><trkpt lat="54.26594" lon="16.087343"></trkpt><trkpt lat="54.265899" lon="16.087988"></trkpt><trkpt lat="54.265926" lon="16.0887"></trkpt><trkpt lat="54.265863" lon="16.089377"></trkpt><trkpt lat="54.265889" lon="16.089821"></trkpt><trkpt lat="54.265992" lon="16.090266"></trkpt><trkpt lat="54.266013" lon="16.090715"></trkpt><trkpt lat="54.266099" lon="16.091664"></trkpt><trkpt lat="54.26638" lon="16.092244"></trkpt><trkpt lat="54.267104" lon="16.094197"></trkpt><trkpt lat="54.267199" lon="16.09479"></trkpt><trkpt lat="54.267268" lon="16.095593"></trkpt><trkpt lat="54.267475" lon="16.095614"></trkpt><trkpt lat="54.267612" lon="16.095975"></trkpt><trkpt lat="54.267656" lon="16.096822"></trkpt><trkpt lat="54.26809" lon="16.100509"></trkpt><trkpt lat="54.268366" lon="16.101986"></trkpt><trkpt lat="54.268562" lon="16.103425"></trkpt><trkpt lat="54.268617" lon="16.10425"></trkpt><trkpt lat="54.269075" lon="16.108073"></trkpt><trkpt lat="54.269184" lon="16.108471"></trkpt><trkpt lat="54.269469" lon="16.109268"></trkpt><trkpt lat="54.269893" lon="16.109826"></trkpt><trkpt lat="54.270285" lon="16.110442"></trkpt><trkpt lat="54.270481" lon="16.110832"></trkpt><trkpt lat="54.273291" lon="16.115636"></trkpt><trkpt lat="54.273743" lon="16.116197"></trkpt><trkpt lat="54.275888" lon="16.11931"></trkpt><trkpt lat="54.276136" lon="16.119739"></trkpt><trkpt lat="54.276442" lon="16.120135"></trkpt><trkpt lat="54.279205" lon="16.124296"></trkpt><trkpt lat="54.27959" lon="16.125458"></trkpt><trkpt lat="54.279798" lon="16.126233"></trkpt><trkpt lat="54.28006" lon="16.127547"></trkpt><trkpt lat="54.2801" lon="16.128166"></trkpt><trkpt lat="54.280133" lon="16.129712"></trkpt><trkpt lat="54.280764" lon="16.131593"></trkpt><trkpt lat="54.281143" lon="16.131537"></trkpt><trkpt lat="54.281854" lon="16.131733"></trkpt><trkpt lat="54.281777" lon="16.132767"></trkpt><trkpt lat="54.281817" lon="16.133439"></trkpt><trkpt lat="54.281935" lon="16.133932"></trkpt><trkpt lat="54.282276" lon="16.134841"></trkpt><trkpt lat="54.282558" lon="16.134669"></trkpt><trkpt lat="54.282744" lon="16.133994"></trkpt><trkpt lat="54.282786" lon="16.133413"></trkpt><trkpt lat="54.282785" lon="16.132916"></trkpt><trkpt lat="54.282879" lon="16.132344"></trkpt><trkpt lat="54.283064" lon="16.131875"></trkpt><trkpt lat="54.283244" lon="16.131593"></trkpt><trkpt lat="54.283436" lon="16.131488"></trkpt><trkpt lat="54.283688" lon="16.131314"></trkpt><trkpt lat="54.284049" lon="16.13097"></trkpt><trkpt lat="54.283851" lon="16.131169"></trkpt><trkpt lat="54.283592" lon="16.13151"></trkpt><trkpt lat="54.283369" lon="16.131618"></trkpt><trkpt lat="54.283061" lon="16.131924"></trkpt><trkpt lat="54.282908" lon="16.132284"></trkpt><trkpt lat="54.282785" lon="16.132903"></trkpt><trkpt lat="54.282791" lon="16.133527"></trkpt><trkpt lat="54.282765" lon="16.134004"></trkpt><trkpt lat="54.282589" lon="16.134663"></trkpt><trkpt lat="54.2826" lon="16.135701"></trkpt><trkpt lat="54.282909" lon="16.136637"></trkpt><trkpt lat="54.294941" lon="16.169572"></trkpt><trkpt lat="54.295462" lon="16.170189"></trkpt><trkpt lat="54.295908" lon="16.171117"></trkpt><trkpt lat="54.296252" lon="16.171975"></trkpt><trkpt lat="54.305039" lon="16.198621"></trkpt><trkpt lat="54.304461" lon="16.19932"></trkpt><trkpt lat="54.303997" lon="16.19999"></trkpt><trkpt lat="54.30354" lon="16.2004"></trkpt><trkpt lat="54.299618" lon="16.204723"></trkpt><trkpt lat="54.299185" lon="16.205406"></trkpt><trkpt lat="54.29865" lon="16.206022"></trkpt><trkpt lat="54.293336" lon="16.210608"></trkpt><trkpt lat="54.292726" lon="16.210575"></trkpt><trkpt lat="54.28655" lon="16.209483"></trkpt><trkpt lat="54.285531" lon="16.209448"></trkpt><trkpt lat="54.28373" lon="16.209732"></trkpt><trkpt lat="54.283607" lon="16.210056"></trkpt><trkpt lat="54.283614" lon="16.210424"></trkpt><trkpt lat="54.283758" lon="16.211212"></trkpt><trkpt lat="54.2846" lon="16.214889"></trkpt><trkpt lat="54.285049" lon="16.216256"></trkpt><trkpt lat="54.285231" lon="16.216969"></trkpt><trkpt lat="54.285106" lon="16.217247"></trkpt><trkpt lat="54.284384" lon="16.217345"></trkpt><trkpt lat="54.283382" lon="16.217663"></trkpt><trkpt lat="54.282928" lon="16.217967"></trkpt><trkpt lat="54.282822" lon="16.218307"></trkpt><trkpt lat="54.282803" lon="16.219099"></trkpt><trkpt lat="54.283231" lon="16.243391"></trkpt><trkpt lat="54.283553" lon="16.24436"></trkpt><trkpt lat="54.287256" lon="16.257931"></trkpt><trkpt lat="54.287263" lon="16.258351"></trkpt><trkpt lat="54.287308" lon="16.258735"></trkpt><trkpt lat="54.287354" lon="16.259378"></trkpt><trkpt lat="54.287474" lon="16.260095"></trkpt><trkpt lat="54.28755" lon="16.26043"></trkpt><trkpt lat="54.288084" lon="16.262333"></trkpt><trkpt lat="54.288289" lon="16.262889"></trkpt><trkpt lat="54.29311" lon="16.274016"></trkpt><trkpt lat="54.293385" lon="16.274188"></trkpt><trkpt lat="54.293932" lon="16.274109"></trkpt><trkpt lat="54.294721" lon="16.274358"></trkpt><trkpt lat="54.295068" lon="16.274618"></trkpt><trkpt lat="54.295526" lon="16.27504"></trkpt><trkpt lat="54.295529" lon="16.275382"></trkpt><trkpt lat="54.295656" lon="16.27566"></trkpt><trkpt lat="54.29577" lon="16.275984"></trkpt><trkpt lat="54.295764" lon="16.276729"></trkpt><trkpt lat="54.295652" lon="16.277213"></trkpt><trkpt lat="54.295328" lon="16.279048"></trkpt><trkpt lat="54.295392" lon="16.279734"></trkpt><trkpt lat="54.295414" lon="16.282197"></trkpt><trkpt lat="54.295271" lon="16.283069"></trkpt><trkpt lat="54.292894" lon="16.303358"></trkpt><trkpt lat="54.293427" lon="16.303851"></trkpt><trkpt lat="54.294663" lon="16.304752"></trkpt><trkpt lat="54.298264" lon="16.306864"></trkpt><trkpt lat="54.298503" lon="16.306947"></trkpt><trkpt lat="54.298997" lon="16.306846"></trkpt><trkpt lat="54.302525" lon="16.307126"></trkpt><trkpt lat="54.314041" lon="16.304776"></trkpt><trkpt lat="54.314245" lon="16.304917"></trkpt><trkpt lat="54.314383" lon="16.304657"></trkpt><trkpt lat="54.31488" lon="16.303967"></trkpt><trkpt lat="54.316195" lon="16.302431"></trkpt><trkpt lat="54.316706" lon="16.30246"></trkpt><trkpt lat="54.316976" lon="16.302607"></trkpt><trkpt lat="54.317677" lon="16.303144"></trkpt><trkpt lat="54.318101" lon="16.303726"></trkpt><trkpt lat="54.322885" lon="16.309299"></trkpt><trkpt lat="54.323477" lon="16.309537"></trkpt><trkpt lat="54.324115" lon="16.309672"></trkpt><trkpt lat="54.324784" lon="16.309919"></trkpt><trkpt lat="54.333303" lon="16.314155"></trkpt><trkpt lat="54.333683" lon="16.314503"></trkpt><trkpt lat="54.335285" lon="16.315668"></trkpt><trkpt lat="54.338725" lon="16.3187"></trkpt><trkpt lat="54.342506" lon="16.323066"></trkpt><trkpt lat="54.342724" lon="16.324079"></trkpt><trkpt lat="54.343764" lon="16.327607"></trkpt><trkpt lat="54.344141" lon="16.328437"></trkpt><trkpt lat="54.344564" lon="16.32924"></trkpt><trkpt lat="54.34484" lon="16.3299"></trkpt><trkpt lat="54.345298" lon="16.330553"></trkpt><trkpt lat="54.345675" lon="16.330907"></trkpt><trkpt lat="54.346484" lon="16.331347"></trkpt><trkpt lat="54.350193" lon="16.332737"></trkpt><trkpt lat="54.353298" lon="16.334548"></trkpt><trkpt lat="54.353537" lon="16.334871"></trkpt><trkpt lat="54.353764" lon="16.334846"></trkpt><trkpt lat="54.36108" lon="16.332905"></trkpt><trkpt lat="54.361705" lon="16.332512"></trkpt><trkpt lat="54.367587" lon="16.327891"></trkpt><trkpt lat="54.368154" lon="16.327261"></trkpt><trkpt lat="54.378195" lon="16.317826"></trkpt><trkpt lat="54.381271" lon="16.319982"></trkpt><trkpt lat="54.381556" lon="16.319873"></trkpt><trkpt lat="54.381868" lon="16.320263"></trkpt><trkpt lat="54.381805" lon="16.319894"></trkpt><trkpt lat="54.381986" lon="16.319651"></trkpt><trkpt lat="54.38229" lon="16.319413"></trkpt><trkpt lat="54.382188" lon="16.319094"></trkpt><trkpt lat="54.381753" lon="16.318283"></trkpt><trkpt lat="54.381647" lon="16.317809"></trkpt><trkpt lat="54.38153" lon="16.317381"></trkpt><trkpt lat="54.38133" lon="16.316409"></trkpt><trkpt lat="54.381274" lon="16.315803"></trkpt><trkpt lat="54.381284" lon="16.316271"></trkpt><trkpt lat="54.38134" lon="16.316755"></trkpt><trkpt lat="54.381452" lon="16.317182"></trkpt><trkpt lat="54.38127" lon="16.317337"></trkpt><trkpt lat="54.381072" lon="16.317425"></trkpt><trkpt lat="54.381292" lon="16.317287"></trkpt><trkpt lat="54.381561" lon="16.317541"></trkpt><trkpt lat="54.381634" lon="16.317938"></trkpt><trkpt lat="54.381852" lon="16.31856"></trkpt><trkpt lat="54.382195" lon="16.319085"></trkpt><trkpt lat="54.38243" lon="16.319386"></trkpt><trkpt lat="54.383284" lon="16.320866"></trkpt><trkpt lat="54.3836" lon="16.321596"></trkpt><trkpt lat="54.386061" lon="16.326494"></trkpt><trkpt lat="54.386281" lon="16.326168"></trkpt><trkpt lat="54.386302" lon="16.325819"></trkpt><trkpt lat="54.386554" lon="16.326225"></trkpt><trkpt lat="54.38674" lon="16.326752"></trkpt><trkpt lat="54.387276" lon="16.326681"></trkpt></trkseg></trk></gpx>