<?xml version="1.0" encoding="UTF-8" standalone="no" ?><gpx xmlns="http://www.topografix.com/GPX/1/1" xmlns:gpxx="http://www.garmin.com/xmlschemas/GpxExtensions/v3" ><trk><trkseg><trkpt lat="50.6643229444" lon="16.4730579872"></trkpt><trkpt lat="50.6641501095" lon="16.4726363774"></trkpt><trkpt lat="50.6639299169" lon="16.4722942282"></trkpt><trkpt lat="50.6637275778" lon="16.4718913939"></trkpt><trkpt lat="50.6635026913" lon="16.4715787489"></trkpt><trkpt lat="50.6632901262" lon="16.4712232724"></trkpt><trkpt lat="50.6631430238" lon="16.4707309194"></trkpt><trkpt lat="50.6630742084" lon="16.4703057893"></trkpt><trkpt lat="50.6629275251" lon="16.46973297"></trkpt><trkpt lat="50.6628665049" lon="16.4692149684"></trkpt><trkpt lat="50.6627087574" lon="16.4687998127"></trkpt><trkpt lat="50.6626429595" lon="16.4683347009"></trkpt><trkpt lat="50.6623966992" lon="16.4671258628"></trkpt><trkpt lat="50.6622138061" lon="16.4658154361"></trkpt><trkpt lat="50.6623698771" lon="16.4654039685"></trkpt><trkpt lat="50.6625997089" lon="16.4651179779"></trkpt><trkpt lat="50.6628349051" lon="16.4646583144"></trkpt><trkpt lat="50.6630861107" lon="16.4642883372"></trkpt><trkpt lat="50.6633596122" lon="16.464071665"></trkpt><trkpt lat="50.6639582478" lon="16.463463977"></trkpt><trkpt lat="50.6649012957" lon="16.4620165899"></trkpt><trkpt lat="50.6649390981" lon="16.4615122508"></trkpt><trkpt lat="50.6650893018" lon="16.4611001965"></trkpt><trkpt lat="50.6652833428" lon="16.4607001282"></trkpt><trkpt lat="50.665621385" lon="16.4602415543"></trkpt><trkpt lat="50.6659056153" lon="16.4599880017"></trkpt><trkpt lat="50.6662341021" lon="16.4595426712"></trkpt><trkpt lat="50.6664700527" lon="16.4590931498"></trkpt><trkpt lat="50.6674121786" lon="16.4569401741"></trkpt><trkpt lat="50.6675604545" lon="16.4564898144"></trkpt><trkpt lat="50.6686220225" lon="16.4520897344"></trkpt><trkpt lat="50.6684284844" lon="16.4517052565"></trkpt><trkpt lat="50.6684309989" lon="16.4511979837"></trkpt><trkpt lat="50.6685235351" lon="16.4506904595"></trkpt><trkpt lat="50.6686511077" lon="16.4502649102"></trkpt><trkpt lat="50.6688486692" lon="16.4493282326"></trkpt><trkpt lat="50.6686790194" lon="16.4489757735"></trkpt><trkpt lat="50.6683341879" lon="16.4485983364"></trkpt><trkpt lat="50.6680417433" lon="16.4484928083"></trkpt><trkpt lat="50.667820042" lon="16.4482384175"></trkpt><trkpt lat="50.6676062196" lon="16.4477836154"></trkpt><trkpt lat="50.6666691229" lon="16.4461684227"></trkpt><trkpt lat="50.6664440688" lon="16.4458731283"></trkpt><trkpt lat="50.666178111" lon="16.445403574"></trkpt><trkpt lat="50.6658531446" lon="16.4451527037"></trkpt><trkpt lat="50.6653978396" lon="16.4446921181"></trkpt><trkpt lat="50.6651981827" lon="16.4441949874"></trkpt><trkpt lat="50.6650014594" lon="16.4438228309"></trkpt><trkpt lat="50.6646791752" lon="16.4434474055"></trkpt><trkpt lat="50.6643261295" lon="16.4431858901"></trkpt><trkpt lat="50.6638103072" lon="16.4426890109"></trkpt><trkpt lat="50.6635073014" lon="16.4423332829"></trkpt><trkpt lat="50.663090637" lon="16.4419654012"></trkpt><trkpt lat="50.6628121901" lon="16.4419352263"></trkpt><trkpt lat="50.6624124572" lon="16.4417398442"></trkpt><trkpt lat="50.6620347686" lon="16.4414159674"></trkpt><trkpt lat="50.6603040732" lon="16.4395673387"></trkpt><trkpt lat="50.659701582" lon="16.4387278073"></trkpt><trkpt lat="50.6595703214" lon="16.4382709935"></trkpt><trkpt lat="50.6596099678" lon="16.4377122559"></trkpt><trkpt lat="50.6598084513" lon="16.4373665862"></trkpt><trkpt lat="50.6599953678" lon="16.4368407056"></trkpt><trkpt lat="50.6601880677" lon="16.43641348"></trkpt><trkpt lat="50.66033802" lon="16.4359259885"></trkpt><trkpt lat="50.6607939117" lon="16.4338671416"></trkpt><trkpt lat="50.6608031318" lon="16.433243528"></trkpt><trkpt lat="50.6606785767" lon="16.4303471614"></trkpt><trkpt lat="50.6606156286" lon="16.4299044292"></trkpt><trkpt lat="50.6603845395" lon="16.4288084954"></trkpt><trkpt lat="50.660206005" lon="16.4281840436"></trkpt><trkpt lat="50.6599475909" lon="16.4276155829"></trkpt><trkpt lat="50.6598149892" lon="16.4270253293"></trkpt><trkpt lat="50.6597434916" lon="16.4263680205"></trkpt><trkpt lat="50.659817839" lon="16.4256522059"></trkpt><trkpt lat="50.6601858884" lon="16.4255301654"></trkpt><trkpt lat="50.6609502342" lon="16.4255279023"></trkpt><trkpt lat="50.6612674892" lon="16.4254412334"></trkpt><trkpt lat="50.661701085" lon="16.4250842482"></trkpt><trkpt lat="50.6622260436" lon="16.4245045558"></trkpt><trkpt lat="50.6637444254" lon="16.4231775329"></trkpt><trkpt lat="50.6710202526" lon="16.4154111128"></trkpt><trkpt lat="50.6712348294" lon="16.4151013177"></trkpt><trkpt lat="50.6715724524" lon="16.4144997485"></trkpt><trkpt lat="50.6717386656" lon="16.4140091557"></trkpt><trkpt lat="50.6729134731" lon="16.4095847681"></trkpt><trkpt lat="50.6729733199" lon="16.4091370907"></trkpt><trkpt lat="50.6733090151" lon="16.4035640471"></trkpt><trkpt lat="50.6732222624" lon="16.4031520765"></trkpt><trkpt lat="50.6731047481" lon="16.4023322426"></trkpt><trkpt lat="50.6731020659" lon="16.4018860739"></trkpt><trkpt lat="50.6730555464" lon="16.4013280906"></trkpt><trkpt lat="50.6729252916" lon="16.4004757348"></trkpt><trkpt lat="50.6725082919" lon="16.3957157359"></trkpt><trkpt lat="50.6727666222" lon="16.395501662"></trkpt><trkpt lat="50.6730438955" lon="16.3953330182"></trkpt><trkpt lat="50.6743150949" lon="16.3947774656"></trkpt><trkpt lat="50.6751725636" lon="16.3953099679"></trkpt><trkpt lat="50.6753977854" lon="16.3955522049"></trkpt><trkpt lat="50.6760744564" lon="16.3961191569"></trkpt><trkpt lat="50.6763596926" lon="16.396046821"></trkpt><trkpt lat="50.6765032746" lon="16.3956414722"></trkpt><trkpt lat="50.6765992474" lon="16.3952062838"></trkpt><trkpt lat="50.6768305879" lon="16.3954869937"></trkpt><trkpt lat="50.6769175082" lon="16.3959391136"></trkpt><trkpt lat="50.6769828871" lon="16.3967799023"></trkpt></trkseg></trk></gpx>