<?xml version="1.0" encoding="UTF-8" standalone="no" ?><gpx xmlns="http://www.topografix.com/GPX/1/1" xmlns:gpxx="http://www.garmin.com/xmlschemas/GpxExtensions/v3" ><trk><trkseg><trkpt lat="54.386805" lon="16.326839"></trkpt><trkpt lat="54.386583" lon="16.326323"></trkpt><trkpt lat="54.386199" lon="16.326322"></trkpt><trkpt lat="54.385999" lon="16.326607"></trkpt><trkpt lat="54.385896" lon="16.326898"></trkpt><trkpt lat="54.386099" lon="16.327427"></trkpt><trkpt lat="54.386256" lon="16.327734"></trkpt><trkpt lat="54.392945" lon="16.342982"></trkpt><trkpt lat="54.393259" lon="16.34423"></trkpt><trkpt lat="54.393378" lon="16.344991"></trkpt><trkpt lat="54.393613" lon="16.345955"></trkpt><trkpt lat="54.393881" lon="16.346861"></trkpt><trkpt lat="54.394076" lon="16.347083"></trkpt><trkpt lat="54.394635" lon="16.347341"></trkpt><trkpt lat="54.39476" lon="16.347645"></trkpt><trkpt lat="54.394633" lon="16.348923"></trkpt><trkpt lat="54.394257" lon="16.358006"></trkpt><trkpt lat="54.394729" lon="16.359038"></trkpt><trkpt lat="54.395683" lon="16.360722"></trkpt><trkpt lat="54.396392" lon="16.361203"></trkpt><trkpt lat="54.400838" lon="16.365001"></trkpt><trkpt lat="54.401378" lon="16.36571"></trkpt><trkpt lat="54.40381" lon="16.369593"></trkpt><trkpt lat="54.403795" lon="16.370705"></trkpt><trkpt lat="54.403712" lon="16.371761"></trkpt><trkpt lat="54.404016" lon="16.373233"></trkpt><trkpt lat="54.404461" lon="16.376315"></trkpt><trkpt lat="54.404268" lon="16.37718"></trkpt><trkpt lat="54.404019" lon="16.378036"></trkpt><trkpt lat="54.403595" lon="16.380853"></trkpt><trkpt lat="54.403698" lon="16.382119"></trkpt><trkpt lat="54.404093" lon="16.383655"></trkpt><trkpt lat="54.404554" lon="16.384501"></trkpt><trkpt lat="54.413687" lon="16.404376"></trkpt><trkpt lat="54.41332" lon="16.405087"></trkpt><trkpt lat="54.41332" lon="16.405472"></trkpt><trkpt lat="54.413944" lon="16.406554"></trkpt><trkpt lat="54.415566" lon="16.409837"></trkpt><trkpt lat="54.415594" lon="16.410329"></trkpt><trkpt lat="54.415588" lon="16.410673"></trkpt><trkpt lat="54.41615" lon="16.410615"></trkpt><trkpt lat="54.416645" lon="16.410389"></trkpt><trkpt lat="54.417705" lon="16.410488"></trkpt><trkpt lat="54.417997" lon="16.410926"></trkpt><trkpt lat="54.419448" lon="16.412438"></trkpt><trkpt lat="54.419646" lon="16.412302"></trkpt><trkpt lat="54.419283" lon="16.412509"></trkpt><trkpt lat="54.41956" lon="16.413054"></trkpt><trkpt lat="54.419872" lon="16.41339"></trkpt><trkpt lat="54.420619" lon="16.413907"></trkpt><trkpt lat="54.420923" lon="16.414065"></trkpt><trkpt lat="54.42314" lon="16.414592"></trkpt><trkpt lat="54.423332" lon="16.414448"></trkpt><trkpt lat="54.423642" lon="16.413582"></trkpt><trkpt lat="54.42385" lon="16.413668"></trkpt><trkpt lat="54.424149" lon="16.414133"></trkpt><trkpt lat="54.424317" lon="16.41445"></trkpt><trkpt lat="54.424516" lon="16.414706"></trkpt><trkpt lat="54.424778" lon="16.415143"></trkpt><trkpt lat="54.42585" lon="16.416483"></trkpt><trkpt lat="54.426645" lon="16.417215"></trkpt><trkpt lat="54.427198" lon="16.417983"></trkpt><trkpt lat="54.427764" lon="16.418967"></trkpt><trkpt lat="54.428062" lon="16.419388"></trkpt><trkpt lat="54.428413" lon="16.419333"></trkpt><trkpt lat="54.446422" lon="16.414307"></trkpt><trkpt lat="54.446788" lon="16.414081"></trkpt><trkpt lat="54.456604" lon="16.406485"></trkpt><trkpt lat="54.456962" lon="16.405912"></trkpt><trkpt lat="54.457688" lon="16.404519"></trkpt><trkpt lat="54.457795" lon="16.404103"></trkpt><trkpt lat="54.45765" lon="16.403857"></trkpt><trkpt lat="54.457795" lon="16.404135"></trkpt><trkpt lat="54.457685" lon="16.404547"></trkpt><trkpt lat="54.457576" lon="16.404863"></trkpt><trkpt lat="54.457713" lon="16.404502"></trkpt><trkpt lat="54.457602" lon="16.404788"></trkpt><trkpt lat="54.457803" lon="16.405262"></trkpt><trkpt lat="54.458216" lon="16.405515"></trkpt><trkpt lat="54.463337" lon="16.409547"></trkpt><trkpt lat="54.463656" lon="16.409847"></trkpt><trkpt lat="54.465549" lon="16.411978"></trkpt><trkpt lat="54.465989" lon="16.412554"></trkpt><trkpt lat="54.467791" lon="16.414532"></trkpt><trkpt lat="54.468487" lon="16.415145"></trkpt><trkpt lat="54.486326" lon="16.43293"></trkpt><trkpt lat="54.486467" lon="16.433335"></trkpt><trkpt lat="54.487223" lon="16.434711"></trkpt><trkpt lat="54.48793" lon="16.435664"></trkpt><trkpt lat="54.498908" lon="16.452734"></trkpt><trkpt lat="54.507061" lon="16.467395"></trkpt><trkpt lat="54.507278" lon="16.466771"></trkpt><trkpt lat="54.50743" lon="16.466547"></trkpt><trkpt lat="54.507678" lon="16.467017"></trkpt><trkpt lat="54.520795" lon="16.494875"></trkpt><trkpt lat="54.521284" lon="16.496164"></trkpt><trkpt lat="54.533603" lon="16.524758"></trkpt><trkpt lat="54.533793" lon="16.524956"></trkpt><trkpt lat="54.538342" lon="16.530655"></trkpt><trkpt lat="54.538512" lon="16.531591"></trkpt><trkpt lat="54.540292" lon="16.544497"></trkpt><trkpt lat="54.540341" lon="16.545505"></trkpt><trkpt lat="54.540446" lon="16.545823"></trkpt><trkpt lat="54.540416" lon="16.54648"></trkpt><trkpt lat="54.539285" lon="16.559373"></trkpt><trkpt lat="54.538762" lon="16.563251"></trkpt><trkpt lat="54.538493" lon="16.564447"></trkpt><trkpt lat="54.537434" lon="16.567851"></trkpt><trkpt lat="54.536992" lon="16.568861"></trkpt><trkpt lat="54.536628" lon="16.569498"></trkpt><trkpt lat="54.535177" lon="16.572427"></trkpt><trkpt lat="54.535081" lon="16.572795"></trkpt><trkpt lat="54.532591" lon="16.580231"></trkpt><trkpt lat="54.532118" lon="16.580265"></trkpt><trkpt lat="54.532082" lon="16.580609"></trkpt><trkpt lat="54.532005" lon="16.580999"></trkpt><trkpt lat="54.531709" lon="16.58196"></trkpt><trkpt lat="54.531471" lon="16.582979"></trkpt><trkpt lat="54.531208" lon="16.584423"></trkpt><trkpt lat="54.531012" lon="16.585861"></trkpt><trkpt lat="54.530917" lon="16.587196"></trkpt><trkpt lat="54.530925" lon="16.588454"></trkpt><trkpt lat="54.530861" lon="16.589623"></trkpt><trkpt lat="54.530778" lon="16.590447"></trkpt><trkpt lat="54.530642" lon="16.590777"></trkpt><trkpt lat="54.530383" lon="16.591247"></trkpt><trkpt lat="54.530018" lon="16.591799"></trkpt><trkpt lat="54.529872" lon="16.592055"></trkpt><trkpt lat="54.529704" lon="16.592259"></trkpt><trkpt lat="54.529401" lon="16.592709"></trkpt><trkpt lat="54.528417" lon="16.594411"></trkpt><trkpt lat="54.525713" lon="16.600261"></trkpt><trkpt lat="54.525297" lon="16.601994"></trkpt><trkpt lat="54.523328" lon="16.608651"></trkpt><trkpt lat="54.522527" lon="16.608374"></trkpt><trkpt lat="54.522285" lon="16.60837"></trkpt><trkpt lat="54.521489" lon="16.608571"></trkpt><trkpt lat="54.52108" lon="16.608791"></trkpt><trkpt lat="54.520704" lon="16.609073"></trkpt><trkpt lat="54.520111" lon="16.609427"></trkpt><trkpt lat="54.518893" lon="16.608442"></trkpt><trkpt lat="54.518583" lon="16.608239"></trkpt><trkpt lat="54.518147" lon="16.60824"></trkpt><trkpt lat="54.517431" lon="16.608396"></trkpt><trkpt lat="54.517314" lon="16.608706"></trkpt><trkpt lat="54.516545" lon="16.61036"></trkpt><trkpt lat="54.51636" lon="16.610548"></trkpt><trkpt lat="54.512864" lon="16.613529"></trkpt><trkpt lat="54.512616" lon="16.613624"></trkpt><trkpt lat="54.508951" lon="16.616315"></trkpt><trkpt lat="54.508993" lon="16.6177"></trkpt><trkpt lat="54.509135" lon="16.619241"></trkpt><trkpt lat="54.509247" lon="16.622172"></trkpt><trkpt lat="54.509067" lon="16.622423"></trkpt><trkpt lat="54.508324" lon="16.622936"></trkpt><trkpt lat="54.507687" lon="16.623225"></trkpt><trkpt lat="54.506128" lon="16.624172"></trkpt><trkpt lat="54.506225" lon="16.625054"></trkpt><trkpt lat="54.506961" lon="16.636867"></trkpt><trkpt lat="54.506883" lon="16.638054"></trkpt><trkpt lat="54.506871" lon="16.638963"></trkpt><trkpt lat="54.507064" lon="16.643254"></trkpt><trkpt lat="54.507184" lon="16.643917"></trkpt><trkpt lat="54.5097" lon="16.654825"></trkpt><trkpt lat="54.510396" lon="16.65459"></trkpt><trkpt lat="54.512976" lon="16.654343"></trkpt><trkpt lat="54.513376" lon="16.6546"></trkpt><trkpt lat="54.513733" lon="16.654774"></trkpt><trkpt lat="54.513931" lon="16.654842"></trkpt><trkpt lat="54.515212" lon="16.654813"></trkpt><trkpt lat="54.515669" lon="16.654567"></trkpt><trkpt lat="54.516978" lon="16.654071"></trkpt><trkpt lat="54.517156" lon="16.654237"></trkpt><trkpt lat="54.517536" lon="16.655242"></trkpt><trkpt lat="54.517836" lon="16.656183"></trkpt><trkpt lat="54.51807" lon="16.657255"></trkpt><trkpt lat="54.518254" lon="16.658425"></trkpt><trkpt lat="54.518376" lon="16.65952"></trkpt><trkpt lat="54.51841" lon="16.661762"></trkpt><trkpt lat="54.518345" lon="16.662401"></trkpt><trkpt lat="54.517826" lon="16.671833"></trkpt><trkpt lat="54.517823" lon="16.673124"></trkpt><trkpt lat="54.51884" lon="16.699642"></trkpt><trkpt lat="54.518939" lon="16.700177"></trkpt><trkpt lat="54.522507" lon="16.725715"></trkpt><trkpt lat="54.522577" lon="16.726564"></trkpt><trkpt lat="54.52266" lon="16.727121"></trkpt><trkpt lat="54.522886" lon="16.72816"></trkpt><trkpt lat="54.523102" lon="16.730228"></trkpt><trkpt lat="54.522902" lon="16.731325"></trkpt><trkpt lat="54.52128" lon="16.74326"></trkpt><trkpt lat="54.521294" lon="16.743695"></trkpt><trkpt lat="54.521066" lon="16.764271"></trkpt><trkpt lat="54.52101" lon="16.76467"></trkpt><trkpt lat="54.520984" lon="16.765396"></trkpt><trkpt lat="54.521036" lon="16.766032"></trkpt><trkpt lat="54.520997" lon="16.766492"></trkpt><trkpt lat="54.520827" lon="16.767569"></trkpt><trkpt lat="54.520533" lon="16.770688"></trkpt><trkpt lat="54.520516" lon="16.771839"></trkpt><trkpt lat="54.520297" lon="16.774026"></trkpt><trkpt lat="54.519904" lon="16.775847"></trkpt><trkpt lat="54.515279" lon="16.793261"></trkpt><trkpt lat="54.515126" lon="16.793968"></trkpt><trkpt lat="54.515233" lon="16.79507"></trkpt><trkpt lat="54.514985" lon="16.795461"></trkpt><trkpt lat="54.514611" lon="16.795607"></trkpt><trkpt lat="54.514161" lon="16.795898"></trkpt><trkpt lat="54.513797" lon="16.796961"></trkpt><trkpt lat="54.510529" lon="16.808367"></trkpt><trkpt lat="54.510925" lon="16.808208"></trkpt><trkpt lat="54.511437" lon="16.807907"></trkpt><trkpt lat="54.511718" lon="16.808111"></trkpt><trkpt lat="54.513184" lon="16.808942"></trkpt><trkpt lat="54.513716" lon="16.809131"></trkpt><trkpt lat="54.514009" lon="16.809196"></trkpt><trkpt lat="54.514658" lon="16.808623"></trkpt><trkpt lat="54.514887" lon="16.808093"></trkpt><trkpt lat="54.515258" lon="16.808284"></trkpt><trkpt lat="54.515625" lon="16.808569"></trkpt><trkpt lat="54.515869" lon="16.808652"></trkpt><trkpt lat="54.516956" lon="16.808467"></trkpt><trkpt lat="54.519049" lon="16.808557"></trkpt><trkpt lat="54.519602" lon="16.807606"></trkpt><trkpt lat="54.519949" lon="16.807177"></trkpt><trkpt lat="54.521196" lon="16.805389"></trkpt><trkpt lat="54.521242" lon="16.804593"></trkpt><trkpt lat="54.521401" lon="16.804307"></trkpt><trkpt lat="54.522007" lon="16.804035"></trkpt><trkpt lat="54.524934" lon="16.803115"></trkpt><trkpt lat="54.525735" lon="16.803191"></trkpt><trkpt lat="54.525856" lon="16.803822"></trkpt><trkpt lat="54.528341" lon="16.8128"></trkpt><trkpt lat="54.528905" lon="16.813449"></trkpt><trkpt lat="54.537016" lon="16.821414"></trkpt><trkpt lat="54.53751" lon="16.821337"></trkpt><trkpt lat="54.537998" lon="16.821193"></trkpt><trkpt lat="54.538256" lon="16.821157"></trkpt><trkpt lat="54.538885" lon="16.821152"></trkpt><trkpt lat="54.539388" lon="16.821606"></trkpt><trkpt lat="54.541199" lon="16.822805"></trkpt><trkpt lat="54.541696" lon="16.823012"></trkpt><trkpt lat="54.545939" lon="16.825585"></trkpt><trkpt lat="54.546305" lon="16.826241"></trkpt><trkpt lat="54.553043" lon="16.836519"></trkpt><trkpt lat="54.553461" lon="16.836944"></trkpt><trkpt lat="54.56905" lon="16.85017"></trkpt><trkpt lat="54.569559" lon="16.850381"></trkpt><trkpt lat="54.578555" lon="16.855331"></trkpt><trkpt lat="54.579065" lon="16.855888"></trkpt><trkpt lat="54.579704" lon="16.856702"></trkpt><trkpt lat="54.579717" lon="16.857105"></trkpt><trkpt lat="54.579655" lon="16.857613"></trkpt><trkpt lat="54.57943" lon="16.858196"></trkpt><trkpt lat="54.579083" lon="16.858657"></trkpt><trkpt lat="54.578805" lon="16.859169"></trkpt><trkpt lat="54.578802" lon="16.859648"></trkpt><trkpt lat="54.579012" lon="16.860031"></trkpt><trkpt lat="54.579388" lon="16.860464"></trkpt><trkpt lat="54.579612" lon="16.860929"></trkpt></trkseg></trk></gpx>