<?xml version="1.0" encoding="UTF-8" standalone="no" ?><gpx xmlns="http://www.topografix.com/GPX/1/1" xmlns:gpxx="http://www.garmin.com/xmlschemas/GpxExtensions/v3" ><trk><trkseg><trkpt lat="52.645177" lon="16.820256"></trkpt><trkpt lat="52.644804" lon="16.820361"></trkpt><trkpt lat="52.644403" lon="16.820312"></trkpt><trkpt lat="52.644362" lon="16.821363"></trkpt><trkpt lat="52.642932" lon="16.848518"></trkpt><trkpt lat="52.642696" lon="16.849902"></trkpt><trkpt lat="52.638451" lon="16.876233"></trkpt><trkpt lat="52.638173" lon="16.877348"></trkpt><trkpt lat="52.638096" lon="16.877831"></trkpt><trkpt lat="52.638108" lon="16.878644"></trkpt><trkpt lat="52.638182" lon="16.879131"></trkpt><trkpt lat="52.638307" lon="16.879569"></trkpt><trkpt lat="52.638656" lon="16.880352"></trkpt><trkpt lat="52.638623" lon="16.881012"></trkpt><trkpt lat="52.638507" lon="16.881424"></trkpt><trkpt lat="52.631405" lon="16.905741"></trkpt><trkpt lat="52.631119" lon="16.906501"></trkpt><trkpt lat="52.622051" lon="16.92888"></trkpt><trkpt lat="52.618421" lon="16.936074"></trkpt><trkpt lat="52.618158" lon="16.93582"></trkpt><trkpt lat="52.617858" lon="16.935451"></trkpt><trkpt lat="52.617454" lon="16.935071"></trkpt><trkpt lat="52.614621" lon="16.931759"></trkpt><trkpt lat="52.614536" lon="16.931237"></trkpt><trkpt lat="52.614369" lon="16.930778"></trkpt><trkpt lat="52.614193" lon="16.930128"></trkpt><trkpt lat="52.614015" lon="16.929679"></trkpt><trkpt lat="52.613177" lon="16.927962"></trkpt><trkpt lat="52.612843" lon="16.927556"></trkpt><trkpt lat="52.612037" lon="16.926818"></trkpt><trkpt lat="52.611748" lon="16.926937"></trkpt><trkpt lat="52.611551" lon="16.927452"></trkpt><trkpt lat="52.611172" lon="16.928234"></trkpt><trkpt lat="52.610959" lon="16.92853"></trkpt><trkpt lat="52.610043" lon="16.930087"></trkpt><trkpt lat="52.609384" lon="16.93152"></trkpt><trkpt lat="52.609351" lon="16.932037"></trkpt><trkpt lat="52.608973" lon="16.934928"></trkpt><trkpt lat="52.608618" lon="16.935302"></trkpt><trkpt lat="52.608104" lon="16.936018"></trkpt><trkpt lat="52.608116" lon="16.93651"></trkpt><trkpt lat="52.608158" lon="16.936967"></trkpt><trkpt lat="52.609299" lon="16.944472"></trkpt><trkpt lat="52.6095" lon="16.945028"></trkpt><trkpt lat="52.609657" lon="16.945658"></trkpt><trkpt lat="52.609665" lon="16.946191"></trkpt><trkpt lat="52.609754" lon="16.946999"></trkpt><trkpt lat="52.609739" lon="16.9478"></trkpt><trkpt lat="52.609661" lon="16.94829"></trkpt><trkpt lat="52.609478" lon="16.95007"></trkpt><trkpt lat="52.609509" lon="16.950513"></trkpt><trkpt lat="52.60951" lon="16.951677"></trkpt><trkpt lat="52.60939" lon="16.953557"></trkpt><trkpt lat="52.609289" lon="16.95404"></trkpt><trkpt lat="52.608567" lon="16.956675"></trkpt><trkpt lat="52.607973" lon="16.957089"></trkpt><trkpt lat="52.592769" lon="16.96895"></trkpt><trkpt lat="52.592133" lon="16.969578"></trkpt><trkpt lat="52.591469" lon="16.970083"></trkpt><trkpt lat="52.590743" lon="16.970203"></trkpt><trkpt lat="52.590323" lon="16.970198"></trkpt><trkpt lat="52.587662" lon="16.970673"></trkpt><trkpt lat="52.585613" lon="16.971446"></trkpt><trkpt lat="52.585241" lon="16.971671"></trkpt><trkpt lat="52.584848" lon="16.971713"></trkpt><trkpt lat="52.584265" lon="16.971478"></trkpt><trkpt lat="52.583883" lon="16.971561"></trkpt><trkpt lat="52.583625" lon="16.971278"></trkpt><trkpt lat="52.583463" lon="16.970899"></trkpt><trkpt lat="52.583184" lon="16.970876"></trkpt><trkpt lat="52.582734" lon="16.970454"></trkpt><trkpt lat="52.5825" lon="16.969954"></trkpt><trkpt lat="52.581825" lon="16.968173"></trkpt><trkpt lat="52.581733" lon="16.967613"></trkpt><trkpt lat="52.58141" lon="16.966169"></trkpt><trkpt lat="52.581172" lon="16.965866"></trkpt><trkpt lat="52.58094" lon="16.965293"></trkpt><trkpt lat="52.580613" lon="16.964677"></trkpt><trkpt lat="52.579593" lon="16.963071"></trkpt><trkpt lat="52.579207" lon="16.962585"></trkpt><trkpt lat="52.576995" lon="16.960354"></trkpt><trkpt lat="52.576598" lon="16.960111"></trkpt><trkpt lat="52.57564" lon="16.959847"></trkpt><trkpt lat="52.573295" lon="16.96085"></trkpt><trkpt lat="52.566396" lon="16.962689"></trkpt><trkpt lat="52.565995" lon="16.962717"></trkpt><trkpt lat="52.549455" lon="16.962249"></trkpt><trkpt lat="52.54901" lon="16.962429"></trkpt><trkpt lat="52.541334" lon="16.964366"></trkpt><trkpt lat="52.541403" lon="16.96324"></trkpt><trkpt lat="52.541392" lon="16.961426"></trkpt><trkpt lat="52.541238" lon="16.960524"></trkpt><trkpt lat="52.540567" lon="16.954434"></trkpt><trkpt lat="52.540977" lon="16.953737"></trkpt><trkpt lat="52.541318" lon="16.953482"></trkpt><trkpt lat="52.543946" lon="16.950985"></trkpt><trkpt lat="52.544017" lon="16.950165"></trkpt><trkpt lat="52.543969" lon="16.94938"></trkpt><trkpt lat="52.543638" lon="16.948958"></trkpt><trkpt lat="52.543142" lon="16.948622"></trkpt><trkpt lat="52.543022" lon="16.948221"></trkpt><trkpt lat="52.54284" lon="16.947445"></trkpt><trkpt lat="52.543041" lon="16.947084"></trkpt><trkpt lat="52.543317" lon="16.946949"></trkpt><trkpt lat="52.543624" lon="16.946652"></trkpt><trkpt lat="52.543323" lon="16.94684"></trkpt><trkpt lat="52.542879" lon="16.947206"></trkpt><trkpt lat="52.5428" lon="16.947645"></trkpt><trkpt lat="52.543005" lon="16.948399"></trkpt><trkpt lat="52.543659" lon="16.948951"></trkpt><trkpt lat="52.543892" lon="16.94923"></trkpt><trkpt lat="52.54399" lon="16.949729"></trkpt><trkpt lat="52.544001" lon="16.950692"></trkpt><trkpt lat="52.543896" lon="16.951123"></trkpt><trkpt lat="52.543483" lon="16.9517"></trkpt><trkpt lat="52.542625" lon="16.952653"></trkpt><trkpt lat="52.541888" lon="16.953127"></trkpt><trkpt lat="52.540788" lon="16.953641"></trkpt><trkpt lat="52.537433" lon="16.95463"></trkpt><trkpt lat="52.536352" lon="16.95413"></trkpt><trkpt lat="52.535677" lon="16.953933"></trkpt><trkpt lat="52.532992" lon="16.95431"></trkpt><trkpt lat="52.530089" lon="16.955152"></trkpt><trkpt lat="52.52823" lon="16.955368"></trkpt><trkpt lat="52.51727" lon="16.958574"></trkpt><trkpt lat="52.517053" lon="16.958866"></trkpt><trkpt lat="52.516613" lon="16.959219"></trkpt><trkpt lat="52.515289" lon="16.96054"></trkpt><trkpt lat="52.5154" lon="16.961501"></trkpt><trkpt lat="52.515498" lon="16.961963"></trkpt><trkpt lat="52.515484" lon="16.962432"></trkpt><trkpt lat="52.515408" lon="16.962927"></trkpt><trkpt lat="52.51509" lon="16.963537"></trkpt><trkpt lat="52.514073" lon="16.965157"></trkpt><trkpt lat="52.513739" lon="16.965119"></trkpt><trkpt lat="52.513565" lon="16.965476"></trkpt><trkpt lat="52.51283" lon="16.966471"></trkpt><trkpt lat="52.512502" lon="16.966559"></trkpt><trkpt lat="52.512274" lon="16.966808"></trkpt><trkpt lat="52.512018" lon="16.967205"></trkpt><trkpt lat="52.511533" lon="16.967663"></trkpt><trkpt lat="52.511308" lon="16.968128"></trkpt><trkpt lat="52.511074" lon="16.968438"></trkpt><trkpt lat="52.510702" lon="16.96861"></trkpt><trkpt lat="52.509007" lon="16.969118"></trkpt><trkpt lat="52.508761" lon="16.968759"></trkpt><trkpt lat="52.506335" lon="16.964526"></trkpt><trkpt lat="52.506166" lon="16.963806"></trkpt><trkpt lat="52.505354" lon="16.961163"></trkpt><trkpt lat="52.505054" lon="16.960546"></trkpt><trkpt lat="52.503276" lon="16.957496"></trkpt><trkpt lat="52.502661" lon="16.957844"></trkpt><trkpt lat="52.500481" lon="16.959641"></trkpt><trkpt lat="52.500349" lon="16.96042"></trkpt><trkpt lat="52.499636" lon="16.963386"></trkpt><trkpt lat="52.498975" lon="16.96405"></trkpt><trkpt lat="52.496898" lon="16.965584"></trkpt><trkpt lat="52.49646" lon="16.965676"></trkpt><trkpt lat="52.480297" lon="16.969286"></trkpt><trkpt lat="52.472459" lon="16.969536"></trkpt><trkpt lat="52.472404" lon="16.969052"></trkpt><trkpt lat="52.472434" lon="16.96851"></trkpt><trkpt lat="52.472503" lon="16.968027"></trkpt><trkpt lat="52.472537" lon="16.965974"></trkpt><trkpt lat="52.471997" lon="16.965884"></trkpt><trkpt lat="52.462197" lon="16.96603"></trkpt><trkpt lat="52.461958" lon="16.965515"></trkpt><trkpt lat="52.460986" lon="16.962753"></trkpt><trkpt lat="52.460896" lon="16.962214"></trkpt><trkpt lat="52.460663" lon="16.959065"></trkpt><trkpt lat="52.460714" lon="16.958426"></trkpt><trkpt lat="52.460319" lon="16.958025"></trkpt><trkpt lat="52.45992" lon="16.957843"></trkpt><trkpt lat="52.459523" lon="16.957735"></trkpt><trkpt lat="52.459086" lon="16.957683"></trkpt><trkpt lat="52.458172" lon="16.957355"></trkpt><trkpt lat="52.457881" lon="16.957078"></trkpt><trkpt lat="52.457552" lon="16.956653"></trkpt><trkpt lat="52.457317" lon="16.956134"></trkpt><trkpt lat="52.456747" lon="16.955405"></trkpt><trkpt lat="52.455276" lon="16.953891"></trkpt><trkpt lat="52.454803" lon="16.953642"></trkpt><trkpt lat="52.45018" lon="16.950433"></trkpt><trkpt lat="52.450067" lon="16.949782"></trkpt><trkpt lat="52.450226" lon="16.950887"></trkpt><trkpt lat="52.449954" lon="16.951136"></trkpt><trkpt lat="52.449174" lon="16.951006"></trkpt><trkpt lat="52.446209" lon="16.952256"></trkpt><trkpt lat="52.445559" lon="16.952185"></trkpt><trkpt lat="52.436279" lon="16.954768"></trkpt><trkpt lat="52.435949" lon="16.95495"></trkpt><trkpt lat="52.435517" lon="16.955412"></trkpt><trkpt lat="52.433654" lon="16.957833"></trkpt><trkpt lat="52.43093" lon="16.960754"></trkpt><trkpt lat="52.430558" lon="16.960085"></trkpt><trkpt lat="52.430398" lon="16.959159"></trkpt><trkpt lat="52.43041" lon="16.958019"></trkpt><trkpt lat="52.430465" lon="16.957543"></trkpt><trkpt lat="52.430586" lon="16.956937"></trkpt><trkpt lat="52.4315" lon="16.949822"></trkpt><trkpt lat="52.431533" lon="16.948807"></trkpt><trkpt lat="52.431633" lon="16.948044"></trkpt><trkpt lat="52.431781" lon="16.947599"></trkpt><trkpt lat="52.43222" lon="16.946533"></trkpt><trkpt lat="52.432343" lon="16.946008"></trkpt><trkpt lat="52.432519" lon="16.945518"></trkpt><trkpt lat="52.43541" lon="16.935045"></trkpt><trkpt lat="52.435482" lon="16.933729"></trkpt><trkpt lat="52.4358" lon="16.930817"></trkpt><trkpt lat="52.435781" lon="16.930146"></trkpt><trkpt lat="52.435897" lon="16.926243"></trkpt><trkpt lat="52.435946" lon="16.925673"></trkpt><trkpt lat="52.435955" lon="16.925212"></trkpt><trkpt lat="52.43647" lon="16.921231"></trkpt><trkpt lat="52.436939" lon="16.92116"></trkpt></trkseg></trk></gpx>