<?xml version="1.0" encoding="UTF-8" standalone="no" ?><gpx xmlns="http://www.topografix.com/GPX/1/1" xmlns:gpxx="http://www.garmin.com/xmlschemas/GpxExtensions/v3" ><trk><trkseg><trkpt lat="52.463334" lon="16.911804"></trkpt><trkpt lat="52.463661" lon="16.911943"></trkpt><trkpt lat="52.464442" lon="16.911827"></trkpt><trkpt lat="52.4653" lon="16.91228"></trkpt><trkpt lat="52.465593" lon="16.912639"></trkpt><trkpt lat="52.465932" lon="16.913318"></trkpt><trkpt lat="52.465831" lon="16.913755"></trkpt><trkpt lat="52.463902" lon="16.918174"></trkpt><trkpt lat="52.463112" lon="16.917954"></trkpt><trkpt lat="52.462809" lon="16.917987"></trkpt><trkpt lat="52.435982" lon="16.925354"></trkpt><trkpt lat="52.435943" lon="16.92595"></trkpt><trkpt lat="52.433931" lon="16.941934"></trkpt><trkpt lat="52.433497" lon="16.943024"></trkpt><trkpt lat="52.431532" lon="16.949611"></trkpt><trkpt lat="52.431506" lon="16.950495"></trkpt><trkpt lat="52.430966" lon="16.955132"></trkpt><trkpt lat="52.430769" lon="16.956068"></trkpt><trkpt lat="52.43041" lon="16.95937"></trkpt><trkpt lat="52.430486" lon="16.959827"></trkpt><trkpt lat="52.430781" lon="16.960649"></trkpt><trkpt lat="52.430603" lon="16.961174"></trkpt><trkpt lat="52.430113" lon="16.961891"></trkpt><trkpt lat="52.426392" lon="16.96562"></trkpt><trkpt lat="52.426084" lon="16.96548"></trkpt><trkpt lat="52.4251" lon="16.965427"></trkpt><trkpt lat="52.424248" lon="16.965072"></trkpt><trkpt lat="52.42343" lon="16.964525"></trkpt><trkpt lat="52.421312" lon="16.962635"></trkpt><trkpt lat="52.420891" lon="16.962099"></trkpt><trkpt lat="52.417258" lon="16.958415"></trkpt><trkpt lat="52.416417" lon="16.957749"></trkpt><trkpt lat="52.414477" lon="16.9567"></trkpt><trkpt lat="52.41437" lon="16.957125"></trkpt><trkpt lat="52.414173" lon="16.957606"></trkpt><trkpt lat="52.413874" lon="16.957486"></trkpt><trkpt lat="52.413308" lon="16.957513"></trkpt><trkpt lat="52.412812" lon="16.957965"></trkpt><trkpt lat="52.411946" lon="16.958422"></trkpt><trkpt lat="52.411532" lon="16.958323"></trkpt><trkpt lat="52.411043" lon="16.958028"></trkpt><trkpt lat="52.410731" lon="16.957786"></trkpt><trkpt lat="52.410331" lon="16.957747"></trkpt><trkpt lat="52.409617" lon="16.957347"></trkpt><trkpt lat="52.409282" lon="16.956707"></trkpt><trkpt lat="52.408922" lon="16.956172"></trkpt><trkpt lat="52.408397" lon="16.955709"></trkpt><trkpt lat="52.40618" lon="16.954281"></trkpt><trkpt lat="52.405912" lon="16.954218"></trkpt><trkpt lat="52.404898" lon="16.954226"></trkpt><trkpt lat="52.404797" lon="16.954878"></trkpt><trkpt lat="52.404584" lon="16.955183"></trkpt><trkpt lat="52.404264" lon="16.954872"></trkpt><trkpt lat="52.403993" lon="16.954839"></trkpt><trkpt lat="52.401452" lon="16.954121"></trkpt><trkpt lat="52.400993" lon="16.9538"></trkpt><trkpt lat="52.395977" lon="16.951206"></trkpt><trkpt lat="52.395629" lon="16.951444"></trkpt><trkpt lat="52.395335" lon="16.951293"></trkpt><trkpt lat="52.395128" lon="16.950963"></trkpt><trkpt lat="52.394899" lon="16.950378"></trkpt><trkpt lat="52.394527" lon="16.950023"></trkpt><trkpt lat="52.393978" lon="16.94968"></trkpt><trkpt lat="52.393563" lon="16.94952"></trkpt><trkpt lat="52.393074" lon="16.949179"></trkpt><trkpt lat="52.387529" lon="16.946226"></trkpt><trkpt lat="52.380826" lon="16.943949"></trkpt><trkpt lat="52.380435" lon="16.943959"></trkpt><trkpt lat="52.379977" lon="16.943743"></trkpt><trkpt lat="52.379715" lon="16.943569"></trkpt><trkpt lat="52.379849" lon="16.942642"></trkpt><trkpt lat="52.379346" lon="16.942314"></trkpt><trkpt lat="52.379044" lon="16.942279"></trkpt><trkpt lat="52.378724" lon="16.942166"></trkpt><trkpt lat="52.378362" lon="16.941944"></trkpt><trkpt lat="52.37803" lon="16.941656"></trkpt><trkpt lat="52.373785" lon="16.937134"></trkpt><trkpt lat="52.366317" lon="16.930871"></trkpt><trkpt lat="52.36589" lon="16.930847"></trkpt><trkpt lat="52.364237" lon="16.931285"></trkpt><trkpt lat="52.364108" lon="16.932074"></trkpt><trkpt lat="52.362448" lon="16.939293"></trkpt><trkpt lat="52.361823" lon="16.939594"></trkpt><trkpt lat="52.352946" lon="16.942423"></trkpt><trkpt lat="52.338916" lon="16.935561"></trkpt><trkpt lat="52.339007" lon="16.935023"></trkpt><trkpt lat="52.338948" lon="16.934236"></trkpt><trkpt lat="52.33879" lon="16.933794"></trkpt><trkpt lat="52.338527" lon="16.933581"></trkpt><trkpt lat="52.338106" lon="16.933403"></trkpt><trkpt lat="52.337268" lon="16.933181"></trkpt><trkpt lat="52.336903" lon="16.933191"></trkpt><trkpt lat="52.336553" lon="16.933253"></trkpt><trkpt lat="52.333842" lon="16.933171"></trkpt><trkpt lat="52.33323" lon="16.932925"></trkpt><trkpt lat="52.332364" lon="16.93241"></trkpt><trkpt lat="52.329597" lon="16.931309"></trkpt><trkpt lat="52.329097" lon="16.931291"></trkpt><trkpt lat="52.327289" lon="16.931674"></trkpt><trkpt lat="52.326364" lon="16.931681"></trkpt><trkpt lat="52.325641" lon="16.931559"></trkpt><trkpt lat="52.321501" lon="16.931485"></trkpt><trkpt lat="52.32106" lon="16.931645"></trkpt><trkpt lat="52.320503" lon="16.931719"></trkpt><trkpt lat="52.318515" lon="16.932867"></trkpt><trkpt lat="52.318434" lon="16.933348"></trkpt><trkpt lat="52.316245" lon="16.942971"></trkpt><trkpt lat="52.315982" lon="16.943159"></trkpt><trkpt lat="52.315258" lon="16.943449"></trkpt><trkpt lat="52.313475" lon="16.944561"></trkpt><trkpt lat="52.313167" lon="16.945183"></trkpt><trkpt lat="52.309874" lon="16.953323"></trkpt><trkpt lat="52.309991" lon="16.953784"></trkpt><trkpt lat="52.309864" lon="16.954178"></trkpt><trkpt lat="52.309664" lon="16.954524"></trkpt><trkpt lat="52.309275" lon="16.95535"></trkpt><trkpt lat="52.309083" lon="16.955663"></trkpt><trkpt lat="52.305284" lon="16.963101"></trkpt><trkpt lat="52.305011" lon="16.9634"></trkpt><trkpt lat="52.304333" lon="16.964294"></trkpt><trkpt lat="52.304433" lon="16.964711"></trkpt><trkpt lat="52.304269" lon="16.965085"></trkpt><trkpt lat="52.302678" lon="16.969521"></trkpt><trkpt lat="52.301052" lon="16.973071"></trkpt><trkpt lat="52.300756" lon="16.973527"></trkpt><trkpt lat="52.300543" lon="16.973955"></trkpt><trkpt lat="52.300316" lon="16.974509"></trkpt><trkpt lat="52.293281" lon="16.988546"></trkpt><trkpt lat="52.292854" lon="16.988924"></trkpt><trkpt lat="52.290474" lon="16.991537"></trkpt><trkpt lat="52.290158" lon="16.991969"></trkpt><trkpt lat="52.287963" lon="16.994433"></trkpt><trkpt lat="52.287555" lon="16.994586"></trkpt><trkpt lat="52.286656" lon="16.994748"></trkpt><trkpt lat="52.286297" lon="16.99492"></trkpt><trkpt lat="52.285963" lon="16.994563"></trkpt><trkpt lat="52.285589" lon="16.994412"></trkpt><trkpt lat="52.274613" lon="16.991752"></trkpt><trkpt lat="52.273682" lon="16.99212"></trkpt><trkpt lat="52.273273" lon="16.992195"></trkpt><trkpt lat="52.26082" lon="16.996428"></trkpt><trkpt lat="52.260936" lon="16.997222"></trkpt><trkpt lat="52.261046" lon="16.998862"></trkpt><trkpt lat="52.261256" lon="17.015779"></trkpt><trkpt lat="52.261166" lon="17.016387"></trkpt><trkpt lat="52.260728" lon="17.021171"></trkpt><trkpt lat="52.260719" lon="17.021696"></trkpt><trkpt lat="52.2608" lon="17.023875"></trkpt><trkpt lat="52.261346" lon="17.029654"></trkpt><trkpt lat="52.261626" lon="17.031509"></trkpt><trkpt lat="52.261793" lon="17.032235"></trkpt><trkpt lat="52.262546" lon="17.036723"></trkpt><trkpt lat="52.262574" lon="17.03718"></trkpt><trkpt lat="52.262599" lon="17.040659"></trkpt><trkpt lat="52.2625" lon="17.041494"></trkpt><trkpt lat="52.262329" lon="17.042442"></trkpt><trkpt lat="52.261882" lon="17.046799"></trkpt><trkpt lat="52.26206" lon="17.047257"></trkpt><trkpt lat="52.26225" lon="17.047881"></trkpt><trkpt lat="52.263208" lon="17.052123"></trkpt><trkpt lat="52.262645" lon="17.052284"></trkpt><trkpt lat="52.25982" lon="17.054085"></trkpt><trkpt lat="52.259431" lon="17.05487"></trkpt><trkpt lat="52.258934000000004" lon="17.055705"></trkpt><trkpt lat="52.258406" lon="17.056269"></trkpt><trkpt lat="52.257794" lon="17.057104"></trkpt><trkpt lat="52.256511" lon="17.059204"></trkpt><trkpt lat="52.256272" lon="17.05977"></trkpt><trkpt lat="52.251804" lon="17.073524"></trkpt><trkpt lat="52.252123" lon="17.07429"></trkpt><trkpt lat="52.252322" lon="17.074668"></trkpt><trkpt lat="52.252798" lon="17.075358"></trkpt><trkpt lat="52.254146" lon="17.077939"></trkpt><trkpt lat="52.254196" lon="17.078676"></trkpt><trkpt lat="52.254176" lon="17.07942"></trkpt><trkpt lat="52.253994" lon="17.081042"></trkpt><trkpt lat="52.253778" lon="17.081398"></trkpt><trkpt lat="52.253524" lon="17.081651"></trkpt><trkpt lat="52.24716" lon="17.089325"></trkpt><trkpt lat="52.245951" lon="17.090502"></trkpt><trkpt lat="52.245172" lon="17.090496"></trkpt><trkpt lat="52.244694" lon="17.090343"></trkpt><trkpt lat="52.244396" lon="17.090502"></trkpt><trkpt lat="52.244493" lon="17.090947"></trkpt><trkpt lat="52.244425" lon="17.090493"></trkpt><trkpt lat="52.244032" lon="17.090133"></trkpt><trkpt lat="52.243693" lon="17.090072"></trkpt><trkpt lat="52.243215" lon="17.089598"></trkpt><trkpt lat="52.242815" lon="17.089115"></trkpt><trkpt lat="52.242503" lon="17.089071"></trkpt><trkpt lat="52.241356" lon="17.088469"></trkpt><trkpt lat="52.241092" lon="17.08801"></trkpt><trkpt lat="52.240784" lon="17.087786"></trkpt><trkpt lat="52.240498" lon="17.087758"></trkpt><trkpt lat="52.240058" lon="17.087899"></trkpt><trkpt lat="52.239785" lon="17.08806"></trkpt><trkpt lat="52.239708" lon="17.08861"></trkpt><trkpt lat="52.239547" lon="17.089083"></trkpt><trkpt lat="52.239335" lon="17.089423"></trkpt><trkpt lat="52.23903" lon="17.090042"></trkpt><trkpt lat="52.23884" lon="17.090557"></trkpt><trkpt lat="52.238146" lon="17.092089"></trkpt><trkpt lat="52.2379" lon="17.092379"></trkpt><trkpt lat="52.237534" lon="17.092543"></trkpt><trkpt lat="52.237196" lon="17.092501"></trkpt><trkpt lat="52.236734" lon="17.092289"></trkpt><trkpt lat="52.236291" lon="17.092184"></trkpt><trkpt lat="52.235731" lon="17.092134"></trkpt><trkpt lat="52.235473" lon="17.091675"></trkpt><trkpt lat="52.234722" lon="17.090644"></trkpt><trkpt lat="52.234428" lon="17.090736"></trkpt><trkpt lat="52.234022" lon="17.091169"></trkpt><trkpt lat="52.233669" lon="17.091426"></trkpt><trkpt lat="52.233449" lon="17.091693"></trkpt><trkpt lat="52.232689" lon="17.09297"></trkpt><trkpt lat="52.232487" lon="17.093559"></trkpt><trkpt lat="52.232274" lon="17.094001"></trkpt><trkpt lat="52.231943" lon="17.094493"></trkpt><trkpt lat="52.230968" lon="17.095701"></trkpt><trkpt lat="52.230472" lon="17.094838"></trkpt><trkpt lat="52.230051" lon="17.094362"></trkpt><trkpt lat="52.229414" lon="17.093821"></trkpt><trkpt lat="52.228577" lon="17.092943000000002"></trkpt><trkpt lat="52.228785" lon="17.09228"></trkpt><trkpt lat="52.228903" lon="17.091745"></trkpt><trkpt lat="52.22913" lon="17.091257"></trkpt><trkpt lat="52.229454" lon="17.091021"></trkpt><trkpt lat="52.229649" lon="17.090633"></trkpt><trkpt lat="52.229605" lon="17.090075"></trkpt><trkpt lat="52.22952" lon="17.089488"></trkpt><trkpt lat="52.22371" lon="17.060901"></trkpt><trkpt lat="52.222413" lon="17.051151"></trkpt><trkpt lat="52.222358" lon="17.050252"></trkpt><trkpt lat="52.222181" lon="17.048972"></trkpt><trkpt lat="52.221975" lon="17.048627"></trkpt><trkpt lat="52.221757" lon="17.048329"></trkpt><trkpt lat="52.21573" lon="17.038441"></trkpt><trkpt lat="52.215294" lon="17.037412"></trkpt><trkpt lat="52.20965" lon="17.020276"></trkpt><trkpt lat="52.209791" lon="17.019827"></trkpt><trkpt lat="52.209773" lon="17.019342"></trkpt><trkpt lat="52.209361" lon="17.018313"></trkpt><trkpt lat="52.208514" lon="17.015333"></trkpt><trkpt lat="52.208442" lon="17.014523"></trkpt><trkpt lat="52.207969" lon="16.998826"></trkpt><trkpt lat="52.208075" lon="16.99759"></trkpt><trkpt lat="52.208377" lon="16.996708"></trkpt><trkpt lat="52.20864" lon="16.995668"></trkpt><trkpt lat="52.210533" lon="16.989753"></trkpt><trkpt lat="52.210907" lon="16.989282"></trkpt><trkpt lat="52.211621" lon="16.988576"></trkpt><trkpt lat="52.214824" lon="16.984521"></trkpt><trkpt lat="52.215025" lon="16.984086"></trkpt><trkpt lat="52.215544" lon="16.983153"></trkpt><trkpt lat="52.215714" lon="16.982779"></trkpt><trkpt lat="52.217948" lon="16.978765"></trkpt><trkpt lat="52.218493" lon="16.97816"></trkpt><trkpt lat="52.218899" lon="16.977577"></trkpt><trkpt lat="52.219174" lon="16.977366"></trkpt><trkpt lat="52.219634" lon="16.976868"></trkpt><trkpt lat="52.221619" lon="16.97516"></trkpt><trkpt lat="52.222073" lon="16.974938"></trkpt><trkpt lat="52.222473" lon="16.974605"></trkpt><trkpt lat="52.222876" lon="16.974136"></trkpt><trkpt lat="52.223209" lon="16.973594"></trkpt><trkpt lat="52.223374" lon="16.973212"></trkpt><trkpt lat="52.223668" lon="16.972304"></trkpt><trkpt lat="52.225645" lon="16.964498"></trkpt><trkpt lat="52.226547" lon="16.959803"></trkpt><trkpt lat="52.226549" lon="16.95931"></trkpt><trkpt lat="52.22665" lon="16.957666"></trkpt><trkpt lat="52.226834" lon="16.956836"></trkpt><trkpt lat="52.227164" lon="16.955729"></trkpt><trkpt lat="52.228126" lon="16.953184"></trkpt><trkpt lat="52.228866" lon="16.950725"></trkpt><trkpt lat="52.22904" lon="16.949888"></trkpt><trkpt lat="52.229787" lon="16.947563"></trkpt><trkpt lat="52.230735" lon="16.943836"></trkpt><trkpt lat="52.230894" lon="16.942916"></trkpt><trkpt lat="52.232533" lon="16.936111"></trkpt><trkpt lat="52.232725" lon="16.935619"></trkpt><trkpt lat="52.23328" lon="16.93384"></trkpt><trkpt lat="52.232986" lon="16.933452"></trkpt><trkpt lat="52.232885" lon="16.933032"></trkpt><trkpt lat="52.232951" lon="16.932289"></trkpt><trkpt lat="52.233112" lon="16.931701"></trkpt><trkpt lat="52.233179" lon="16.931171"></trkpt><trkpt lat="52.233107" lon="16.930377"></trkpt><trkpt lat="52.232882" lon="16.928913"></trkpt><trkpt lat="52.232802" lon="16.928042"></trkpt><trkpt lat="52.232636" lon="16.927624"></trkpt><trkpt lat="52.232867" lon="16.927328"></trkpt><trkpt lat="52.233385" lon="16.927069"></trkpt><trkpt lat="52.233925" lon="16.926553"></trkpt><trkpt lat="52.234189" lon="16.92613"></trkpt><trkpt lat="52.234734" lon="16.924994"></trkpt><trkpt lat="52.234941" lon="16.924406"></trkpt><trkpt lat="52.235355" lon="16.923442"></trkpt><trkpt lat="52.235499" lon="16.922975"></trkpt><trkpt lat="52.23557" lon="16.922374"></trkpt><trkpt lat="52.235575" lon="16.92165"></trkpt><trkpt lat="52.235759" lon="16.921159"></trkpt><trkpt lat="52.235679" lon="16.920439"></trkpt><trkpt lat="52.235654" lon="16.91981"></trkpt><trkpt lat="52.235515" lon="16.918826"></trkpt><trkpt lat="52.235527" lon="16.91838"></trkpt><trkpt lat="52.235731" lon="16.918066"></trkpt><trkpt lat="52.236193" lon="16.917611"></trkpt><trkpt lat="52.236445" lon="16.917412"></trkpt><trkpt lat="52.23706" lon="16.916484"></trkpt><trkpt lat="52.237193" lon="16.916057"></trkpt><trkpt lat="52.237428" lon="16.915822"></trkpt><trkpt lat="52.237822" lon="16.915507"></trkpt><trkpt lat="52.238285" lon="16.915303"></trkpt><trkpt lat="52.238808" lon="16.91522"></trkpt><trkpt lat="52.239093" lon="16.915561"></trkpt><trkpt lat="52.239172" lon="16.914921"></trkpt><trkpt lat="52.239283" lon="16.914436"></trkpt><trkpt lat="52.239447" lon="16.913906"></trkpt><trkpt lat="52.239711" lon="16.912784"></trkpt><trkpt lat="52.239834" lon="16.912028"></trkpt><trkpt lat="52.239915" lon="16.911187"></trkpt><trkpt lat="52.240012" lon="16.910628"></trkpt><trkpt lat="52.240241" lon="16.910288"></trkpt><trkpt lat="52.240393" lon="16.909778"></trkpt><trkpt lat="52.240579" lon="16.909436"></trkpt><trkpt lat="52.241428" lon="16.908186"></trkpt><trkpt lat="52.24201" lon="16.907526"></trkpt><trkpt lat="52.242342" lon="16.90727"></trkpt><trkpt lat="52.242689" lon="16.907133"></trkpt><trkpt lat="52.24305" lon="16.906792"></trkpt><trkpt lat="52.243227" lon="16.906433"></trkpt><trkpt lat="52.243412" lon="16.905829"></trkpt><trkpt lat="52.243464" lon="16.905329"></trkpt><trkpt lat="52.243692" lon="16.904089"></trkpt><trkpt lat="52.243839" lon="16.903708"></trkpt><trkpt lat="52.244063" lon="16.903258"></trkpt><trkpt lat="52.247228" lon="16.89821"></trkpt><trkpt lat="52.247494" lon="16.898343"></trkpt><trkpt lat="52.247744" lon="16.89853"></trkpt><trkpt lat="52.248079" lon="16.898514"></trkpt><trkpt lat="52.248402" lon="16.898224"></trkpt><trkpt lat="52.248359" lon="16.897743"></trkpt><trkpt lat="52.248191" lon="16.896834"></trkpt><trkpt lat="52.248304" lon="16.896426"></trkpt><trkpt lat="52.248512" lon="16.896028"></trkpt><trkpt lat="52.249049" lon="16.895223"></trkpt><trkpt lat="52.24949" lon="16.894298"></trkpt><trkpt lat="52.250159" lon="16.893125"></trkpt><trkpt lat="52.250667" lon="16.89267"></trkpt><trkpt lat="52.251335" lon="16.89225"></trkpt><trkpt lat="52.25316" lon="16.891465"></trkpt><trkpt lat="52.253716" lon="16.891456"></trkpt><trkpt lat="52.254162" lon="16.890764"></trkpt><trkpt lat="52.25456" lon="16.889708"></trkpt><trkpt lat="52.256404" lon="16.883529"></trkpt><trkpt lat="52.25638" lon="16.882404"></trkpt><trkpt lat="52.256794" lon="16.872428"></trkpt><trkpt lat="52.257069" lon="16.872245"></trkpt><trkpt lat="52.257498" lon="16.872136"></trkpt><trkpt lat="52.260679" lon="16.871858"></trkpt><trkpt lat="52.261144" lon="16.872152"></trkpt><trkpt lat="52.262745" lon="16.872839"></trkpt><trkpt lat="52.263301" lon="16.872976"></trkpt><trkpt lat="52.263816" lon="16.872935"></trkpt><trkpt lat="52.264198" lon="16.872823"></trkpt><trkpt lat="52.26451" lon="16.872852"></trkpt><trkpt lat="52.268833" lon="16.871747"></trkpt><trkpt lat="52.269285000000004" lon="16.871519"></trkpt><trkpt lat="52.273492" lon="16.870101"></trkpt><trkpt lat="52.27421" lon="16.870492"></trkpt><trkpt lat="52.276055" lon="16.871854"></trkpt><trkpt lat="52.276502" lon="16.87236"></trkpt><trkpt lat="52.276808" lon="16.872788"></trkpt><trkpt lat="52.276737" lon="16.873233"></trkpt><trkpt lat="52.277074" lon="16.873519"></trkpt><trkpt lat="52.277244" lon="16.873894"></trkpt><trkpt lat="52.277762" lon="16.874456"></trkpt><trkpt lat="52.278271" lon="16.874891"></trkpt><trkpt lat="52.278536" lon="16.87506"></trkpt><trkpt lat="52.279211" lon="16.875733"></trkpt><trkpt lat="52.279551" lon="16.875955"></trkpt><trkpt lat="52.279844" lon="16.876197"></trkpt><trkpt lat="52.280364" lon="16.876447"></trkpt><trkpt lat="52.281621" lon="16.876796"></trkpt><trkpt lat="52.282271" lon="16.876821"></trkpt><trkpt lat="52.284911" lon="16.877337"></trkpt><trkpt lat="52.285016" lon="16.877798"></trkpt><trkpt lat="52.285088" lon="16.878852"></trkpt><trkpt lat="52.285157" lon="16.879308"></trkpt><trkpt lat="52.285411" lon="16.879534"></trkpt><trkpt lat="52.285814" lon="16.879744"></trkpt><trkpt lat="52.291202" lon="16.88152"></trkpt><trkpt lat="52.292512" lon="16.880716"></trkpt><trkpt lat="52.29275" lon="16.880146"></trkpt><trkpt lat="52.292921" lon="16.879531"></trkpt><trkpt lat="52.29303" lon="16.87892"></trkpt><trkpt lat="52.293077" lon="16.878413"></trkpt><trkpt lat="52.293212" lon="16.877792"></trkpt><trkpt lat="52.294038" lon="16.875052"></trkpt><trkpt lat="52.294369" lon="16.874538"></trkpt><trkpt lat="52.294626" lon="16.874235"></trkpt><trkpt lat="52.295049" lon="16.873855"></trkpt><trkpt lat="52.295331" lon="16.873786"></trkpt><trkpt lat="52.295722" lon="16.873772"></trkpt><trkpt lat="52.296055" lon="16.873837"></trkpt><trkpt lat="52.296345" lon="16.873956"></trkpt><trkpt lat="52.296772" lon="16.874201"></trkpt><trkpt lat="52.297178" lon="16.874629"></trkpt><trkpt lat="52.298049" lon="16.875769"></trkpt><trkpt lat="52.298368" lon="16.876279"></trkpt><trkpt lat="52.298745" lon="16.876438"></trkpt><trkpt lat="52.299028" lon="16.876364"></trkpt><trkpt lat="52.299106" lon="16.877028"></trkpt><trkpt lat="52.299251" lon="16.877729"></trkpt><trkpt lat="52.299571" lon="16.878047"></trkpt><trkpt lat="52.300129" lon="16.878462"></trkpt><trkpt lat="52.300354" lon="16.87874"></trkpt><trkpt lat="52.300566" lon="16.879134"></trkpt><trkpt lat="52.300765" lon="16.879589"></trkpt><trkpt lat="52.302691" lon="16.882972"></trkpt><trkpt lat="52.303034" lon="16.883343"></trkpt><trkpt lat="52.303271" lon="16.883688"></trkpt><trkpt lat="52.303552" lon="16.884029"></trkpt><trkpt lat="52.303877" lon="16.884501"></trkpt><trkpt lat="52.304341" lon="16.88535"></trkpt><trkpt lat="52.304572" lon="16.885862"></trkpt><trkpt lat="52.304716" lon="16.886256"></trkpt><trkpt lat="52.304974" lon="16.88641"></trkpt><trkpt lat="52.304935" lon="16.886996"></trkpt><trkpt lat="52.305012" lon="16.887424"></trkpt><trkpt lat="52.305162" lon="16.887948"></trkpt><trkpt lat="52.305207" lon="16.888455"></trkpt><trkpt lat="52.305285" lon="16.888971"></trkpt><trkpt lat="52.305338" lon="16.889556"></trkpt><trkpt lat="52.305345" lon="16.89"></trkpt><trkpt lat="52.305296" lon="16.890481"></trkpt><trkpt lat="52.305173" lon="16.890921"></trkpt><trkpt lat="52.304867" lon="16.892372"></trkpt><trkpt lat="52.304666" lon="16.892949"></trkpt><trkpt lat="52.304566" lon="16.893532"></trkpt><trkpt lat="52.304518" lon="16.89399"></trkpt><trkpt lat="52.304514" lon="16.894933"></trkpt><trkpt lat="52.304545" lon="16.895496"></trkpt><trkpt lat="52.304722" lon="16.895888"></trkpt><trkpt lat="52.305307" lon="16.896684"></trkpt><trkpt lat="52.305709" lon="16.897004"></trkpt><trkpt lat="52.305993" lon="16.897163"></trkpt><trkpt lat="52.306577" lon="16.8976"></trkpt><trkpt lat="52.306869" lon="16.897641"></trkpt><trkpt lat="52.307369" lon="16.897821"></trkpt><trkpt lat="52.307915" lon="16.897907"></trkpt><trkpt lat="52.310312" lon="16.898753"></trkpt><trkpt lat="52.31052" lon="16.899099"></trkpt><trkpt lat="52.310729" lon="16.899585"></trkpt><trkpt lat="52.310887" lon="16.900079"></trkpt><trkpt lat="52.310961" lon="16.900543"></trkpt><trkpt lat="52.310754" lon="16.901163"></trkpt><trkpt lat="52.310348" lon="16.901749"></trkpt><trkpt lat="52.309984" lon="16.902128"></trkpt><trkpt lat="52.30973" lon="16.902323"></trkpt><trkpt lat="52.3094" lon="16.902509"></trkpt><trkpt lat="52.308427" lon="16.903306"></trkpt><trkpt lat="52.30812" lon="16.903399"></trkpt><trkpt lat="52.307864" lon="16.903626"></trkpt><trkpt lat="52.307686" lon="16.904174"></trkpt><trkpt lat="52.307492" lon="16.904518"></trkpt><trkpt lat="52.307173" lon="16.905233"></trkpt><trkpt lat="52.307083" lon="16.905733"></trkpt><trkpt lat="52.307119" lon="16.906206"></trkpt><trkpt lat="52.307207" lon="16.906838"></trkpt><trkpt lat="52.30739" lon="16.907216"></trkpt><trkpt lat="52.307659" lon="16.90749"></trkpt><trkpt lat="52.308744" lon="16.908375"></trkpt><trkpt lat="52.309056" lon="16.90852"></trkpt><trkpt lat="52.309629" lon="16.908655"></trkpt><trkpt lat="52.309989" lon="16.908624"></trkpt><trkpt lat="52.310663" lon="16.908468"></trkpt><trkpt lat="52.311069" lon="16.908235"></trkpt><trkpt lat="52.311405" lon="16.907986"></trkpt><trkpt lat="52.311943" lon="16.907483"></trkpt><trkpt lat="52.312243" lon="16.907135"></trkpt><trkpt lat="52.312445" lon="16.906786"></trkpt><trkpt lat="52.312658" lon="16.906155"></trkpt><trkpt lat="52.313644" lon="16.902513"></trkpt><trkpt lat="52.313719" lon="16.901854"></trkpt><trkpt lat="52.314516" lon="16.897356"></trkpt><trkpt lat="52.314724" lon="16.897074"></trkpt><trkpt lat="52.314963" lon="16.89646"></trkpt><trkpt lat="52.315419" lon="16.896502"></trkpt><trkpt lat="52.315706" lon="16.896428"></trkpt><trkpt lat="52.31617" lon="16.896381"></trkpt><trkpt lat="52.316911" lon="16.896185"></trkpt><trkpt lat="52.317235" lon="16.895995"></trkpt><trkpt lat="52.31782" lon="16.895505"></trkpt><trkpt lat="52.318114" lon="16.894974"></trkpt><trkpt lat="52.318465" lon="16.894561"></trkpt><trkpt lat="52.320153" lon="16.893209"></trkpt><trkpt lat="52.320449000000004" lon="16.893288"></trkpt><trkpt lat="52.320718" lon="16.893505"></trkpt><trkpt lat="52.322572" lon="16.894657"></trkpt><trkpt lat="52.322863" lon="16.894543"></trkpt><trkpt lat="52.323804" lon="16.894725"></trkpt><trkpt lat="52.324362" lon="16.893919"></trkpt><trkpt lat="52.326373" lon="16.891657"></trkpt><trkpt lat="52.326952" lon="16.891322"></trkpt><trkpt lat="52.327424" lon="16.891161"></trkpt><trkpt lat="52.32807" lon="16.891104"></trkpt><trkpt lat="52.332008" lon="16.892821"></trkpt><trkpt lat="52.331967" lon="16.893276"></trkpt><trkpt lat="52.332287" lon="16.893434"></trkpt><trkpt lat="52.332835" lon="16.893615"></trkpt><trkpt lat="52.333062" lon="16.893887"></trkpt><trkpt lat="52.333553" lon="16.894634"></trkpt><trkpt lat="52.333594" lon="16.89512"></trkpt><trkpt lat="52.333599" lon="16.896125"></trkpt><trkpt lat="52.333707" lon="16.89685"></trkpt><trkpt lat="52.334022" lon="16.896919"></trkpt><trkpt lat="52.334567" lon="16.896571"></trkpt><trkpt lat="52.334868" lon="16.89649"></trkpt><trkpt lat="52.335465" lon="16.896805"></trkpt><trkpt lat="52.335824" lon="16.89718"></trkpt><trkpt lat="52.336076" lon="16.897699"></trkpt><trkpt lat="52.336135" lon="16.898191"></trkpt><trkpt lat="52.336247" lon="16.898766"></trkpt><trkpt lat="52.336494" lon="16.899065"></trkpt><trkpt lat="52.336769" lon="16.899174"></trkpt><trkpt lat="52.337064" lon="16.899104"></trkpt><trkpt lat="52.337412" lon="16.898841"></trkpt><trkpt lat="52.337754" lon="16.89873"></trkpt><trkpt lat="52.338004" lon="16.898531"></trkpt><trkpt lat="52.338319" lon="16.898386"></trkpt><trkpt lat="52.33867" lon="16.898137"></trkpt><trkpt lat="52.338981" lon="16.897979"></trkpt><trkpt lat="52.339314" lon="16.898055"></trkpt><trkpt lat="52.339577" lon="16.898175"></trkpt><trkpt lat="52.340681" lon="16.898499"></trkpt><trkpt lat="52.341137" lon="16.898842"></trkpt><trkpt lat="52.341723" lon="16.899169"></trkpt><trkpt lat="52.343079" lon="16.899663"></trkpt><trkpt lat="52.344501" lon="16.899366"></trkpt><trkpt lat="52.344926" lon="16.899986"></trkpt><trkpt lat="52.346586" lon="16.901561"></trkpt><trkpt lat="52.347067" lon="16.901539"></trkpt><trkpt lat="52.347369" lon="16.901467"></trkpt><trkpt lat="52.348794" lon="16.90136"></trkpt><trkpt lat="52.350329" lon="16.900675"></trkpt><trkpt lat="52.350817" lon="16.900034"></trkpt><trkpt lat="52.351098" lon="16.900042"></trkpt><trkpt lat="52.351542" lon="16.900526"></trkpt><trkpt lat="52.351774" lon="16.900856"></trkpt><trkpt lat="52.352009" lon="16.901122"></trkpt><trkpt lat="52.352551" lon="16.901534"></trkpt><trkpt lat="52.352991" lon="16.901789"></trkpt><trkpt lat="52.353472" lon="16.901977"></trkpt><trkpt lat="52.355382" lon="16.903089"></trkpt><trkpt lat="52.355689" lon="16.903194"></trkpt><trkpt lat="52.356309" lon="16.903603"></trkpt><trkpt lat="52.356743" lon="16.904113"></trkpt><trkpt lat="52.364968" lon="16.915886"></trkpt><trkpt lat="52.365041" lon="16.916375"></trkpt><trkpt lat="52.36516" lon="16.916946"></trkpt><trkpt lat="52.365388" lon="16.917701"></trkpt><trkpt lat="52.365554" lon="16.918139"></trkpt><trkpt lat="52.365897" lon="16.918732"></trkpt><trkpt lat="52.366146" lon="16.919023"></trkpt><trkpt lat="52.367682" lon="16.921529"></trkpt><trkpt lat="52.367793" lon="16.922008"></trkpt><trkpt lat="52.368039" lon="16.922701"></trkpt><trkpt lat="52.368345" lon="16.922972"></trkpt><trkpt lat="52.368753" lon="16.923086"></trkpt><trkpt lat="52.369577" lon="16.923172"></trkpt><trkpt lat="52.369858" lon="16.92339"></trkpt><trkpt lat="52.370253" lon="16.923529"></trkpt><trkpt lat="52.375246" lon="16.92629"></trkpt><trkpt lat="52.375597" lon="16.926906"></trkpt><trkpt lat="52.376673" lon="16.928426"></trkpt><trkpt lat="52.37701" lon="16.928802"></trkpt><trkpt lat="52.378811" lon="16.930443"></trkpt><trkpt lat="52.379626" lon="16.931028"></trkpt><trkpt lat="52.381764" lon="16.933025"></trkpt><trkpt lat="52.381715" lon="16.933711"></trkpt><trkpt lat="52.381731" lon="16.934191"></trkpt><trkpt lat="52.382008" lon="16.934348"></trkpt><trkpt lat="52.382317" lon="16.934468"></trkpt><trkpt lat="52.382465" lon="16.934078"></trkpt><trkpt lat="52.382588" lon="16.93339"></trkpt><trkpt lat="52.38283" lon="16.93277"></trkpt><trkpt lat="52.383115" lon="16.932801"></trkpt><trkpt lat="52.383394" lon="16.932907"></trkpt><trkpt lat="52.402111" lon="16.942905"></trkpt><trkpt lat="52.402392999999996" lon="16.943146"></trkpt><trkpt lat="52.402118" lon="16.944254"></trkpt><trkpt lat="52.401918" lon="16.944821"></trkpt><trkpt lat="52.399963" lon="16.952592"></trkpt><trkpt lat="52.40047" lon="16.952941"></trkpt><trkpt lat="52.403317" lon="16.954169"></trkpt><trkpt lat="52.405302" lon="16.953626"></trkpt><trkpt lat="52.405601" lon="16.953626"></trkpt><trkpt lat="52.406248" lon="16.95375"></trkpt><trkpt lat="52.40696" lon="16.95408"></trkpt><trkpt lat="52.407633" lon="16.954594"></trkpt><trkpt lat="52.409854" lon="16.955882"></trkpt><trkpt lat="52.410549" lon="16.956663"></trkpt><trkpt lat="52.410682" lon="16.957055"></trkpt><trkpt lat="52.411028" lon="16.957439"></trkpt><trkpt lat="52.411403" lon="16.957759"></trkpt><trkpt lat="52.411863" lon="16.957899"></trkpt><trkpt lat="52.412665" lon="16.957484"></trkpt><trkpt lat="52.412992" lon="16.957105"></trkpt><trkpt lat="52.413261" lon="16.956573"></trkpt><trkpt lat="52.413517" lon="16.956733"></trkpt><trkpt lat="52.414068" lon="16.956548"></trkpt><trkpt lat="52.41441" lon="16.956513"></trkpt><trkpt lat="52.415276" lon="16.956835"></trkpt><trkpt lat="52.415581" lon="16.957089"></trkpt><trkpt lat="52.428202" lon="16.96454"></trkpt><trkpt lat="52.428841" lon="16.963674"></trkpt><trkpt lat="52.430724" lon="16.960587"></trkpt><trkpt lat="52.430426" lon="16.959568"></trkpt><trkpt lat="52.430384" lon="16.958353"></trkpt><trkpt lat="52.430492" lon="16.957357"></trkpt><trkpt lat="52.430663" lon="16.956542"></trkpt><trkpt lat="52.431491" lon="16.950757"></trkpt><trkpt lat="52.431501" lon="16.949954"></trkpt><trkpt lat="52.431651" lon="16.947954"></trkpt><trkpt lat="52.431856" lon="16.947366"></trkpt><trkpt lat="52.435503" lon="16.933032999999998"></trkpt><trkpt lat="52.435547" lon="16.932363"></trkpt><trkpt lat="52.435785" lon="16.930681"></trkpt><trkpt lat="52.435767" lon="16.930197"></trkpt><trkpt lat="52.435818" lon="16.927731"></trkpt><trkpt lat="52.436373" lon="16.921259"></trkpt><trkpt lat="52.436937" lon="16.921148"></trkpt><trkpt lat="52.43753" lon="16.921125"></trkpt><trkpt lat="52.464234" lon="16.91614"></trkpt><trkpt lat="52.464369" lon="16.915461"></trkpt><trkpt lat="52.464167" lon="16.915151"></trkpt><trkpt lat="52.464112" lon="16.914703"></trkpt><trkpt lat="52.464206" lon="16.913016"></trkpt><trkpt lat="52.464324" lon="16.912426"></trkpt><trkpt lat="52.464291" lon="16.91167"></trkpt><trkpt lat="52.464227" lon="16.911048"></trkpt><trkpt lat="52.464195" lon="16.910354"></trkpt><trkpt lat="52.463913" lon="16.909533"></trkpt><trkpt lat="52.463431" lon="16.909202"></trkpt><trkpt lat="52.462924" lon="16.909198"></trkpt><trkpt lat="52.461655" lon="16.909436"></trkpt></trkseg></trk></gpx>