<?xml version="1.0" encoding="UTF-8" standalone="no" ?><gpx xmlns="http://www.topografix.com/GPX/1/1" xmlns:gpxx="http://www.garmin.com/xmlschemas/GpxExtensions/v3" ><trk><trkseg><trkpt lat="50.82086" lon="15.521467"></trkpt><trkpt lat="50.820719" lon="15.521196"></trkpt><trkpt lat="50.820493" lon="15.521347"></trkpt><trkpt lat="50.820668" lon="15.52192"></trkpt><trkpt lat="50.820864" lon="15.522281"></trkpt><trkpt lat="50.82105" lon="15.522488"></trkpt><trkpt lat="50.821406" lon="15.522962"></trkpt><trkpt lat="50.821609" lon="15.523323"></trkpt><trkpt lat="50.821671" lon="15.523768"></trkpt><trkpt lat="50.821735" lon="15.524543"></trkpt><trkpt lat="50.821799" lon="15.52485"></trkpt><trkpt lat="50.821909" lon="15.525261"></trkpt><trkpt lat="50.821976" lon="15.52587"></trkpt><trkpt lat="50.822079" lon="15.52638"></trkpt><trkpt lat="50.822183" lon="15.526694"></trkpt><trkpt lat="50.82256" lon="15.526548"></trkpt><trkpt lat="50.822748" lon="15.526652"></trkpt><trkpt lat="50.823034" lon="15.527049"></trkpt><trkpt lat="50.823237" lon="15.52729"></trkpt><trkpt lat="50.823449" lon="15.527473"></trkpt><trkpt lat="50.823677" lon="15.527376"></trkpt><trkpt lat="50.823843" lon="15.527168"></trkpt><trkpt lat="50.824019" lon="15.526997"></trkpt><trkpt lat="50.824179" lon="15.526618"></trkpt><trkpt lat="50.824444" lon="15.526329"></trkpt><trkpt lat="50.824715" lon="15.526076"></trkpt><trkpt lat="50.825142" lon="15.525523"></trkpt><trkpt lat="50.825442" lon="15.525194"></trkpt><trkpt lat="50.82562" lon="15.525034"></trkpt><trkpt lat="50.82605" lon="15.524449"></trkpt><trkpt lat="50.826241" lon="15.523502"></trkpt><trkpt lat="50.826645" lon="15.522621"></trkpt><trkpt lat="50.826761" lon="15.523127"></trkpt><trkpt lat="50.827041" lon="15.524008"></trkpt><trkpt lat="50.827525" lon="15.525206"></trkpt><trkpt lat="50.827644" lon="15.524382"></trkpt><trkpt lat="50.82756" lon="15.523922"></trkpt><trkpt lat="50.8274" lon="15.523387"></trkpt><trkpt lat="50.826965" lon="15.521102"></trkpt><trkpt lat="50.827063" lon="15.520605"></trkpt><trkpt lat="50.82727" lon="15.520305"></trkpt><trkpt lat="50.827692" lon="15.51997"></trkpt><trkpt lat="50.828021" lon="15.519602"></trkpt><trkpt lat="50.828352" lon="15.519083"></trkpt><trkpt lat="50.828651" lon="15.518786"></trkpt><trkpt lat="50.828877" lon="15.518664"></trkpt><trkpt lat="50.829613" lon="15.518124"></trkpt><trkpt lat="50.829746" lon="15.517646"></trkpt><trkpt lat="50.829592" lon="15.517179"></trkpt><trkpt lat="50.829191" lon="15.515646"></trkpt><trkpt lat="50.828894" lon="15.514723"></trkpt><trkpt lat="50.828621" lon="15.51419"></trkpt><trkpt lat="50.827952" lon="15.513094"></trkpt><trkpt lat="50.827031" lon="15.511223"></trkpt><trkpt lat="50.826839" lon="15.51095"></trkpt><trkpt lat="50.826797" lon="15.510635"></trkpt><trkpt lat="50.826685" lon="15.510123"></trkpt><trkpt lat="50.826715" lon="15.509369"></trkpt><trkpt lat="50.826814" lon="15.509016"></trkpt><trkpt lat="50.826821" lon="15.50848"></trkpt><trkpt lat="50.826763" lon="15.508069"></trkpt><trkpt lat="50.826628" lon="15.507791"></trkpt><trkpt lat="50.826365" lon="15.507549"></trkpt><trkpt lat="50.826108" lon="15.50739"></trkpt><trkpt lat="50.825861" lon="15.507287"></trkpt><trkpt lat="50.825636" lon="15.507312"></trkpt><trkpt lat="50.825216" lon="15.507214"></trkpt><trkpt lat="50.825449" lon="15.507282"></trkpt><trkpt lat="50.825935" lon="15.507261"></trkpt><trkpt lat="50.826591" lon="15.507702"></trkpt><trkpt lat="50.826753" lon="15.507963"></trkpt><trkpt lat="50.826856" lon="15.508294"></trkpt><trkpt lat="50.827067" lon="15.508306"></trkpt><trkpt lat="50.82712" lon="15.507764"></trkpt><trkpt lat="50.82714" lon="15.507283"></trkpt><trkpt lat="50.827129" lon="15.50694"></trkpt><trkpt lat="50.826974" lon="15.50637"></trkpt><trkpt lat="50.826905" lon="15.506022"></trkpt><trkpt lat="50.827051" lon="15.505627"></trkpt><trkpt lat="50.827316" lon="15.50459"></trkpt><trkpt lat="50.8276" lon="15.502601"></trkpt><trkpt lat="50.827501" lon="15.502157"></trkpt><trkpt lat="50.827318" lon="15.501682"></trkpt><trkpt lat="50.827086" lon="15.501225"></trkpt><trkpt lat="50.825281" lon="15.497017"></trkpt><trkpt lat="50.825308" lon="15.496659"></trkpt><trkpt lat="50.825285" lon="15.496212"></trkpt><trkpt lat="50.825301" lon="15.495858"></trkpt><trkpt lat="50.825448" lon="15.495096"></trkpt><trkpt lat="50.825524" lon="15.494806"></trkpt><trkpt lat="50.825688" lon="15.494432"></trkpt><trkpt lat="50.825931" lon="15.493683"></trkpt><trkpt lat="50.826244" lon="15.492961"></trkpt><trkpt lat="50.829602" lon="15.483887"></trkpt><trkpt lat="50.829619" lon="15.483235"></trkpt><trkpt lat="50.829673" lon="15.482566"></trkpt><trkpt lat="50.829707" lon="15.481452"></trkpt><trkpt lat="50.829674" lon="15.481078"></trkpt><trkpt lat="50.829595" lon="15.480764"></trkpt><trkpt lat="50.829518" lon="15.480358"></trkpt><trkpt lat="50.82916" lon="15.478903"></trkpt><trkpt lat="50.829006" lon="15.477855"></trkpt><trkpt lat="50.829052" lon="15.477477"></trkpt><trkpt lat="50.829599" lon="15.469501"></trkpt><trkpt lat="50.829534" lon="15.468899"></trkpt><trkpt lat="50.829482" lon="15.467842"></trkpt><trkpt lat="50.829511" lon="15.467316"></trkpt><trkpt lat="50.829487" lon="15.466728"></trkpt><trkpt lat="50.829494" lon="15.465659"></trkpt><trkpt lat="50.829627" lon="15.465165"></trkpt><trkpt lat="50.829733" lon="15.464877"></trkpt><trkpt lat="50.82979" lon="15.46437"></trkpt><trkpt lat="50.833303" lon="15.441783"></trkpt><trkpt lat="50.833" lon="15.442078"></trkpt><trkpt lat="50.83286" lon="15.442304"></trkpt><trkpt lat="50.832179" lon="15.443617"></trkpt><trkpt lat="50.831802" lon="15.443598"></trkpt><trkpt lat="50.83163" lon="15.443351"></trkpt><trkpt lat="50.83148" lon="15.442848"></trkpt><trkpt lat="50.831403" lon="15.442531"></trkpt><trkpt lat="50.831361" lon="15.442146"></trkpt><trkpt lat="50.831393" lon="15.441741"></trkpt><trkpt lat="50.831418" lon="15.440979"></trkpt><trkpt lat="50.831324" lon="15.440698"></trkpt><trkpt lat="50.83114" lon="15.440501"></trkpt><trkpt lat="50.830774" lon="15.440225"></trkpt><trkpt lat="50.830064" lon="15.439566"></trkpt><trkpt lat="50.829876" lon="15.439441"></trkpt><trkpt lat="50.829646" lon="15.439477"></trkpt><trkpt lat="50.827841" lon="15.440416"></trkpt><trkpt lat="50.827605" lon="15.440833"></trkpt><trkpt lat="50.827393" lon="15.441125"></trkpt><trkpt lat="50.826931" lon="15.441437"></trkpt><trkpt lat="50.826647" lon="15.441197"></trkpt><trkpt lat="50.826482" lon="15.440745"></trkpt><trkpt lat="50.826299" lon="15.440551"></trkpt><trkpt lat="50.825985" lon="15.440445"></trkpt><trkpt lat="50.825722" lon="15.440567"></trkpt><trkpt lat="50.825493" lon="15.440815"></trkpt><trkpt lat="50.825327" lon="15.441267"></trkpt><trkpt lat="50.824982" lon="15.442026"></trkpt><trkpt lat="50.824793" lon="15.442217"></trkpt><trkpt lat="50.824596" lon="15.442366"></trkpt><trkpt lat="50.824392" lon="15.442411"></trkpt><trkpt lat="50.823859" lon="15.442355"></trkpt><trkpt lat="50.823612" lon="15.442497"></trkpt><trkpt lat="50.822989" lon="15.442717"></trkpt><trkpt lat="50.822557" lon="15.443044"></trkpt><trkpt lat="50.822391" lon="15.443235"></trkpt><trkpt lat="50.822283" lon="15.44297"></trkpt><trkpt lat="50.821867" lon="15.442257"></trkpt><trkpt lat="50.81996" lon="15.438375"></trkpt><trkpt lat="50.819845" lon="15.437865"></trkpt><trkpt lat="50.819664" lon="15.437413"></trkpt><trkpt lat="50.819516" lon="15.437154"></trkpt><trkpt lat="50.818934" lon="15.436287"></trkpt><trkpt lat="50.818645" lon="15.43575"></trkpt><trkpt lat="50.817248" lon="15.43242"></trkpt><trkpt lat="50.817031" lon="15.43241"></trkpt><trkpt lat="50.816586" lon="15.432044"></trkpt><trkpt lat="50.815786" lon="15.431209"></trkpt><trkpt lat="50.815216" lon="15.430502"></trkpt><trkpt lat="50.812517" lon="15.428218"></trkpt><trkpt lat="50.811445" lon="15.427832"></trkpt><trkpt lat="50.806011" lon="15.42516"></trkpt><trkpt lat="50.805596" lon="15.4248"></trkpt><trkpt lat="50.804845" lon="15.424295"></trkpt><trkpt lat="50.804437" lon="15.423903"></trkpt><trkpt lat="50.803423" lon="15.423115"></trkpt><trkpt lat="50.803596" lon="15.42336"></trkpt><trkpt lat="50.803834" lon="15.423593"></trkpt><trkpt lat="50.80478" lon="15.424375"></trkpt><trkpt lat="50.805003" lon="15.424493"></trkpt><trkpt lat="50.805513" lon="15.424854"></trkpt><trkpt lat="50.805746" lon="15.425072"></trkpt><trkpt lat="50.807005" lon="15.426032"></trkpt><trkpt lat="50.80726" lon="15.426162"></trkpt><trkpt lat="50.808273" lon="15.426553"></trkpt><trkpt lat="50.813502" lon="15.427735"></trkpt><trkpt lat="50.813611" lon="15.428017"></trkpt><trkpt lat="50.813507" lon="15.427742"></trkpt><trkpt lat="50.812973" lon="15.426729"></trkpt><trkpt lat="50.81256" lon="15.42627"></trkpt><trkpt lat="50.807278" lon="15.418548"></trkpt><trkpt lat="50.807534" lon="15.417657"></trkpt><trkpt lat="50.807777" lon="15.417024"></trkpt><trkpt lat="50.808026" lon="15.415614"></trkpt><trkpt lat="50.808021" lon="15.415146"></trkpt><trkpt lat="50.807853" lon="15.414301"></trkpt><trkpt lat="50.807714" lon="15.414062"></trkpt><trkpt lat="50.807524" lon="15.413909"></trkpt><trkpt lat="50.80669" lon="15.413566"></trkpt><trkpt lat="50.804687" lon="15.412481"></trkpt><trkpt lat="50.802504" lon="15.410652"></trkpt><trkpt lat="50.802476" lon="15.410295"></trkpt><trkpt lat="50.802511" lon="15.409621"></trkpt><trkpt lat="50.802667" lon="15.408924"></trkpt><trkpt lat="50.803035" lon="15.408034"></trkpt><trkpt lat="50.804125" lon="15.404665"></trkpt><trkpt lat="50.804264" lon="15.403952"></trkpt><trkpt lat="50.804281" lon="15.403103"></trkpt><trkpt lat="50.80437" lon="15.402318"></trkpt><trkpt lat="50.804404" lon="15.401723"></trkpt><trkpt lat="50.804407" lon="15.40086"></trkpt><trkpt lat="50.804606" lon="15.40037"></trkpt><trkpt lat="50.804728" lon="15.399951"></trkpt><trkpt lat="50.804923" lon="15.399057"></trkpt><trkpt lat="50.804997" lon="15.397797"></trkpt><trkpt lat="50.805471" lon="15.393282"></trkpt><trkpt lat="50.806117" lon="15.392403"></trkpt><trkpt lat="50.806769" lon="15.391867"></trkpt><trkpt lat="50.807471" lon="15.391127"></trkpt><trkpt lat="50.815449" lon="15.381161"></trkpt><trkpt lat="50.81542" lon="15.380568"></trkpt><trkpt lat="50.815436" lon="15.380202"></trkpt><trkpt lat="50.815433" lon="15.379821"></trkpt><trkpt lat="50.81533" lon="15.379289"></trkpt><trkpt lat="50.815209" lon="15.378434"></trkpt><trkpt lat="50.815119" lon="15.377451"></trkpt><trkpt lat="50.815047" lon="15.376965"></trkpt><trkpt lat="50.815069" lon="15.376607"></trkpt><trkpt lat="50.8152" lon="15.376232"></trkpt><trkpt lat="50.815234" lon="15.375828"></trkpt><trkpt lat="50.815217" lon="15.375333"></trkpt><trkpt lat="50.815254" lon="15.374218"></trkpt><trkpt lat="50.815377" lon="15.373962"></trkpt><trkpt lat="50.815585" lon="15.37371"></trkpt><trkpt lat="50.815723" lon="15.373409"></trkpt><trkpt lat="50.815791" lon="15.373006"></trkpt><trkpt lat="50.815831" lon="15.37262"></trkpt><trkpt lat="50.815822" lon="15.372294"></trkpt><trkpt lat="50.815845" lon="15.371923"></trkpt><trkpt lat="50.815961" lon="15.370847"></trkpt><trkpt lat="50.815993" lon="15.370321"></trkpt><trkpt lat="50.816168" lon="15.370145"></trkpt><trkpt lat="50.816694" lon="15.369514"></trkpt><trkpt lat="50.816791" lon="15.369231"></trkpt><trkpt lat="50.81685" lon="15.368917"></trkpt><trkpt lat="50.816936" lon="15.368568"></trkpt><trkpt lat="50.817019" lon="15.368132"></trkpt><trkpt lat="50.816973" lon="15.367775"></trkpt><trkpt lat="50.816913" lon="15.367444"></trkpt><trkpt lat="50.816811" lon="15.367045"></trkpt><trkpt lat="50.81665" lon="15.366561"></trkpt><trkpt lat="50.816524" lon="15.366273"></trkpt><trkpt lat="50.816359" lon="15.366062"></trkpt><trkpt lat="50.816191" lon="15.365806"></trkpt><trkpt lat="50.816029" lon="15.3655"></trkpt><trkpt lat="50.815938" lon="15.365205"></trkpt><trkpt lat="50.815897" lon="15.364858"></trkpt><trkpt lat="50.815874" lon="15.364335"></trkpt><trkpt lat="50.815939" lon="15.364036"></trkpt><trkpt lat="50.816022" lon="15.363735"></trkpt><trkpt lat="50.816125" lon="15.363458"></trkpt><trkpt lat="50.816327" lon="15.363002"></trkpt><trkpt lat="50.816494" lon="15.362693"></trkpt><trkpt lat="50.816664" lon="15.362437"></trkpt><trkpt lat="50.816857" lon="15.362091"></trkpt><trkpt lat="50.816993" lon="15.361674"></trkpt><trkpt lat="50.81713" lon="15.361319"></trkpt><trkpt lat="50.81775" lon="15.359365"></trkpt><trkpt lat="50.817747" lon="15.35905"></trkpt><trkpt lat="50.817668" lon="15.358698"></trkpt><trkpt lat="50.817468" lon="15.357453"></trkpt><trkpt lat="50.817541" lon="15.357105"></trkpt><trkpt lat="50.817669" lon="15.356688"></trkpt><trkpt lat="50.818484" lon="15.353331"></trkpt><trkpt lat="50.818592" lon="15.352628"></trkpt><trkpt lat="50.818825" lon="15.351915"></trkpt><trkpt lat="50.819664" lon="15.349743"></trkpt><trkpt lat="50.820272" lon="15.347867"></trkpt><trkpt lat="50.820038" lon="15.347816"></trkpt><trkpt lat="50.819839" lon="15.347818"></trkpt><trkpt lat="50.819731" lon="15.347495"></trkpt><trkpt lat="50.819718" lon="15.346972"></trkpt><trkpt lat="50.819675" lon="15.346518"></trkpt><trkpt lat="50.819362" lon="15.346195"></trkpt><trkpt lat="50.81913" lon="15.3459"></trkpt><trkpt lat="50.818588" lon="15.345103"></trkpt><trkpt lat="50.818788" lon="15.345442"></trkpt><trkpt lat="50.819179" lon="15.345939"></trkpt><trkpt lat="50.819734" lon="15.346817"></trkpt><trkpt lat="50.819706" lon="15.347136"></trkpt><trkpt lat="50.819746" lon="15.347482"></trkpt><trkpt lat="50.819837" lon="15.347776"></trkpt><trkpt lat="50.820056" lon="15.347826"></trkpt><trkpt lat="50.820334" lon="15.347951"></trkpt><trkpt lat="50.820186" lon="15.348386"></trkpt><trkpt lat="50.817562" lon="15.35819"></trkpt><trkpt lat="50.817676" lon="15.358612"></trkpt><trkpt lat="50.817784" lon="15.359122"></trkpt><trkpt lat="50.81773" lon="15.359485"></trkpt><trkpt lat="50.817663" lon="15.359814"></trkpt><trkpt lat="50.817547" lon="15.36013"></trkpt><trkpt lat="50.815926" lon="15.365447"></trkpt><trkpt lat="50.816121" lon="15.365777"></trkpt><trkpt lat="50.816422" lon="15.366137"></trkpt><trkpt lat="50.81658" lon="15.366391"></trkpt><trkpt lat="50.816813" lon="15.36694"></trkpt><trkpt lat="50.816921" lon="15.367337"></trkpt><trkpt lat="50.816959" lon="15.367686"></trkpt><trkpt lat="50.817026" lon="15.368051"></trkpt><trkpt lat="50.816921" lon="15.368517"></trkpt><trkpt lat="50.81685" lon="15.369044"></trkpt><trkpt lat="50.816762" lon="15.369444"></trkpt><trkpt lat="50.81658" lon="15.369748"></trkpt><trkpt lat="50.816346" lon="15.370053"></trkpt><trkpt lat="50.816109" lon="15.370238"></trkpt><trkpt lat="50.81601" lon="15.370521"></trkpt><trkpt lat="50.81604" lon="15.370837"></trkpt><trkpt lat="50.816333" lon="15.370924"></trkpt><trkpt lat="50.816586" lon="15.370962"></trkpt><trkpt lat="50.816876" lon="15.371076"></trkpt><trkpt lat="50.817087" lon="15.37123"></trkpt><trkpt lat="50.817281" lon="15.371451"></trkpt><trkpt lat="50.818207" lon="15.372246"></trkpt><trkpt lat="50.818468" lon="15.372304"></trkpt><trkpt lat="50.819105" lon="15.372542"></trkpt><trkpt lat="50.819281" lon="15.372789"></trkpt><trkpt lat="50.819479" lon="15.373111"></trkpt><trkpt lat="50.819844" lon="15.373937"></trkpt><trkpt lat="50.819997" lon="15.374397"></trkpt><trkpt lat="50.820161" lon="15.374705"></trkpt><trkpt lat="50.820606" lon="15.3758"></trkpt><trkpt lat="50.820618" lon="15.376318"></trkpt><trkpt lat="50.820533" lon="15.376705"></trkpt><trkpt lat="50.82046" lon="15.377138"></trkpt><trkpt lat="50.820347" lon="15.377629"></trkpt><trkpt lat="50.820212" lon="15.378402"></trkpt><trkpt lat="50.820309" lon="15.378931"></trkpt><trkpt lat="50.82" lon="15.379319"></trkpt><trkpt lat="50.819741" lon="15.379485"></trkpt><trkpt lat="50.814547" lon="15.383621"></trkpt><trkpt lat="50.814269" lon="15.384043"></trkpt><trkpt lat="50.813949" lon="15.38446"></trkpt><trkpt lat="50.813486" lon="15.384909"></trkpt><trkpt lat="50.812361" lon="15.386197"></trkpt><trkpt lat="50.811973" lon="15.386556"></trkpt><trkpt lat="50.811726" lon="15.38683"></trkpt><trkpt lat="50.811259" lon="15.387222"></trkpt><trkpt lat="50.810947" lon="15.387365"></trkpt><trkpt lat="50.810591" lon="15.38767"></trkpt><trkpt lat="50.810403" lon="15.388011"></trkpt><trkpt lat="50.809827" lon="15.388671"></trkpt><trkpt lat="50.809559" lon="15.388882"></trkpt><trkpt lat="50.809257" lon="15.3893"></trkpt><trkpt lat="50.808945" lon="15.389562"></trkpt><trkpt lat="50.807377" lon="15.391137"></trkpt><trkpt lat="50.805617" lon="15.393191"></trkpt><trkpt lat="50.80538" lon="15.393629"></trkpt><trkpt lat="50.805251" lon="15.394295"></trkpt><trkpt lat="50.805099" lon="15.395705"></trkpt><trkpt lat="50.8051" lon="15.396465"></trkpt><trkpt lat="50.805064" lon="15.397025"></trkpt><trkpt lat="50.804962" lon="15.397641"></trkpt><trkpt lat="50.804898" lon="15.398223"></trkpt><trkpt lat="50.804542" lon="15.400216"></trkpt><trkpt lat="50.804451" lon="15.400555"></trkpt><trkpt lat="50.804406" lon="15.401155"></trkpt><trkpt lat="50.803743" lon="15.406573"></trkpt><trkpt lat="50.80318" lon="15.407602"></trkpt><trkpt lat="50.802635" lon="15.408831"></trkpt><trkpt lat="50.802467" lon="15.410337"></trkpt><trkpt lat="50.802501" lon="15.410698"></trkpt><trkpt lat="50.802584" lon="15.411011"></trkpt><trkpt lat="50.802766" lon="15.411378"></trkpt><trkpt lat="50.803281" lon="15.411866"></trkpt><trkpt lat="50.80379" lon="15.412048"></trkpt><trkpt lat="50.804563" lon="15.41243"></trkpt><trkpt lat="50.807821" lon="15.414516"></trkpt><trkpt lat="50.807928" lon="15.415326"></trkpt><trkpt lat="50.80788" lon="15.416071"></trkpt><trkpt lat="50.807695" lon="15.417117"></trkpt><trkpt lat="50.80749" lon="15.417688"></trkpt><trkpt lat="50.807189" lon="15.418912"></trkpt><trkpt lat="50.807127" lon="15.419629"></trkpt><trkpt lat="50.807137" lon="15.419987"></trkpt><trkpt lat="50.807282" lon="15.420735"></trkpt><trkpt lat="50.807813" lon="15.421607"></trkpt><trkpt lat="50.808115" lon="15.421832"></trkpt><trkpt lat="50.811225" lon="15.424706"></trkpt><trkpt lat="50.811681" lon="15.425273"></trkpt><trkpt lat="50.813487" lon="15.427997"></trkpt><trkpt lat="50.813512" lon="15.428309"></trkpt><trkpt lat="50.813713" lon="15.428607"></trkpt><trkpt lat="50.82441" lon="15.44559"></trkpt><trkpt lat="50.824837" lon="15.445956"></trkpt><trkpt lat="50.825992" lon="15.447148"></trkpt><trkpt lat="50.826239" lon="15.447699"></trkpt><trkpt lat="50.826355" lon="15.448188"></trkpt><trkpt lat="50.826456" lon="15.44876"></trkpt><trkpt lat="50.82649" lon="15.449198"></trkpt><trkpt lat="50.82659" lon="15.449964"></trkpt><trkpt lat="50.826605" lon="15.4526"></trkpt><trkpt lat="50.826344" lon="15.453778"></trkpt><trkpt lat="50.826198" lon="15.454852"></trkpt><trkpt lat="50.82615" lon="15.455999"></trkpt><trkpt lat="50.826264" lon="15.472384"></trkpt><trkpt lat="50.826294" lon="15.472763"></trkpt><trkpt lat="50.826296" lon="15.473137"></trkpt><trkpt lat="50.826259" lon="15.474087"></trkpt><trkpt lat="50.826164" lon="15.474408"></trkpt><trkpt lat="50.826043" lon="15.474717"></trkpt><trkpt lat="50.825897" lon="15.475223"></trkpt><trkpt lat="50.8258" lon="15.475911"></trkpt><trkpt lat="50.825723" lon="15.47716"></trkpt><trkpt lat="50.825758" lon="15.477495"></trkpt><trkpt lat="50.825845" lon="15.477816"></trkpt><trkpt lat="50.826012" lon="15.478115"></trkpt><trkpt lat="50.826397" lon="15.478629"></trkpt><trkpt lat="50.826495" lon="15.478935"></trkpt><trkpt lat="50.826513" lon="15.479274"></trkpt><trkpt lat="50.826459" lon="15.480624"></trkpt><trkpt lat="50.826386" lon="15.480919"></trkpt><trkpt lat="50.826235" lon="15.481347"></trkpt><trkpt lat="50.826169" lon="15.481815"></trkpt><trkpt lat="50.826226" lon="15.482174"></trkpt><trkpt lat="50.826409" lon="15.482715"></trkpt><trkpt lat="50.826451" lon="15.483061"></trkpt><trkpt lat="50.82644" lon="15.483415"></trkpt><trkpt lat="50.826402" lon="15.483895"></trkpt><trkpt lat="50.826432" lon="15.484205"></trkpt><trkpt lat="50.826516" lon="15.484535"></trkpt><trkpt lat="50.826642" lon="15.485201"></trkpt><trkpt lat="50.826429" lon="15.48528"></trkpt><trkpt lat="50.826294" lon="15.484858"></trkpt><trkpt lat="50.825944" lon="15.484044"></trkpt><trkpt lat="50.825693" lon="15.484095"></trkpt><trkpt lat="50.825449" lon="15.484343"></trkpt><trkpt lat="50.825279" lon="15.484714"></trkpt><trkpt lat="50.825298" lon="15.485161"></trkpt><trkpt lat="50.825382" lon="15.485446"></trkpt><trkpt lat="50.825469" lon="15.485807"></trkpt><trkpt lat="50.825487" lon="15.486147"></trkpt><trkpt lat="50.825454" lon="15.487035"></trkpt><trkpt lat="50.82541" lon="15.48739"></trkpt><trkpt lat="50.825319" lon="15.48769"></trkpt><trkpt lat="50.82515" lon="15.487921"></trkpt><trkpt lat="50.824564" lon="15.488604"></trkpt><trkpt lat="50.824424" lon="15.488863"></trkpt><trkpt lat="50.824251" lon="15.489414"></trkpt><trkpt lat="50.823878" lon="15.490884"></trkpt><trkpt lat="50.823015" lon="15.49527"></trkpt><trkpt lat="50.823106" lon="15.495592"></trkpt><trkpt lat="50.823272" lon="15.49601"></trkpt><trkpt lat="50.823618" lon="15.497074"></trkpt><trkpt lat="50.823632" lon="15.497393"></trkpt><trkpt lat="50.823602" lon="15.497822"></trkpt><trkpt lat="50.823464" lon="15.498178"></trkpt><trkpt lat="50.822994" lon="15.499006"></trkpt><trkpt lat="50.822879" lon="15.499378"></trkpt><trkpt lat="50.82288" lon="15.499774"></trkpt><trkpt lat="50.82307" lon="15.500049"></trkpt><trkpt lat="50.823363" lon="15.500054"></trkpt><trkpt lat="50.823595" lon="15.499858"></trkpt><trkpt lat="50.823861" lon="15.499795"></trkpt><trkpt lat="50.82405" lon="15.499898"></trkpt><trkpt lat="50.824199" lon="15.500113"></trkpt><trkpt lat="50.824601" lon="15.501616"></trkpt><trkpt lat="50.8249" lon="15.503011"></trkpt><trkpt lat="50.824839" lon="15.503405"></trkpt><trkpt lat="50.824653" lon="15.50373"></trkpt><trkpt lat="50.824532" lon="15.504038"></trkpt><trkpt lat="50.824619" lon="15.504344"></trkpt><trkpt lat="50.824884" lon="15.504349"></trkpt><trkpt lat="50.825087" lon="15.504114"></trkpt><trkpt lat="50.825296" lon="15.503919"></trkpt><trkpt lat="50.825535" lon="15.503868"></trkpt><trkpt lat="50.825552" lon="15.504215"></trkpt><trkpt lat="50.825403" lon="15.504532"></trkpt><trkpt lat="50.825295" lon="15.504866"></trkpt><trkpt lat="50.825083" lon="15.506284"></trkpt><trkpt lat="50.825044" lon="15.506789"></trkpt><trkpt lat="50.825134" lon="15.507119"></trkpt><trkpt lat="50.825334" lon="15.507255"></trkpt><trkpt lat="50.825588" lon="15.507249"></trkpt><trkpt lat="50.826116" lon="15.507358"></trkpt><trkpt lat="50.826462" lon="15.507595"></trkpt><trkpt lat="50.826673" lon="15.50786"></trkpt><trkpt lat="50.826798" lon="15.508256"></trkpt><trkpt lat="50.826808" lon="15.508601"></trkpt><trkpt lat="50.826735" lon="15.509029"></trkpt><trkpt lat="50.826607" lon="15.509516"></trkpt><trkpt lat="50.826592" lon="15.510323"></trkpt><trkpt lat="50.826659" lon="15.51066"></trkpt><trkpt lat="50.826755" lon="15.510955"></trkpt><trkpt lat="50.827546" lon="15.512905"></trkpt><trkpt lat="50.827985" lon="15.513498"></trkpt><trkpt lat="50.82903" lon="15.515175"></trkpt><trkpt lat="50.82935" lon="15.51633"></trkpt><trkpt lat="50.829674" lon="15.517908"></trkpt><trkpt lat="50.829505" lon="15.518208"></trkpt><trkpt lat="50.829262" lon="15.518413"></trkpt><trkpt lat="50.828556" lon="15.518878"></trkpt><trkpt lat="50.828357" lon="15.519087"></trkpt><trkpt lat="50.828166" lon="15.519338"></trkpt><trkpt lat="50.827178" lon="15.520338"></trkpt><trkpt lat="50.826958" lon="15.520821"></trkpt><trkpt lat="50.826874" lon="15.521552"></trkpt><trkpt lat="50.826982" lon="15.522042"></trkpt><trkpt lat="50.826665" lon="15.522447"></trkpt><trkpt lat="50.826281" lon="15.523035"></trkpt><trkpt lat="50.8261" lon="15.524127"></trkpt><trkpt lat="50.826001" lon="15.524468"></trkpt><trkpt lat="50.825828" lon="15.524698"></trkpt><trkpt lat="50.825543" lon="15.525022"></trkpt><trkpt lat="50.825257" lon="15.525288"></trkpt><trkpt lat="50.824753" lon="15.525944"></trkpt><trkpt lat="50.823448" lon="15.527344"></trkpt><trkpt lat="50.823756" lon="15.527135"></trkpt><trkpt lat="50.824095" lon="15.527091"></trkpt><trkpt lat="50.823831" lon="15.527104"></trkpt><trkpt lat="50.823455" lon="15.527467"></trkpt><trkpt lat="50.823183" lon="15.527157"></trkpt><trkpt lat="50.822938" lon="15.526792"></trkpt><trkpt lat="50.822729" lon="15.526548"></trkpt><trkpt lat="50.822528" lon="15.526544"></trkpt><trkpt lat="50.822229" lon="15.526622"></trkpt><trkpt lat="50.822091" lon="15.526272"></trkpt><trkpt lat="50.822028" lon="15.525875"></trkpt><trkpt lat="50.82199" lon="15.525425"></trkpt><trkpt lat="50.821915" lon="15.525087"></trkpt><trkpt lat="50.821763" lon="15.524547"></trkpt><trkpt lat="50.821723" lon="15.52397"></trkpt><trkpt lat="50.821575" lon="15.523192"></trkpt><trkpt lat="50.821378" lon="15.522861"></trkpt><trkpt lat="50.821137" lon="15.522581"></trkpt><trkpt lat="50.820755" lon="15.522047"></trkpt><trkpt lat="50.820628" lon="15.521736"></trkpt><trkpt lat="50.820385" lon="15.521504"></trkpt><trkpt lat="50.820169" lon="15.52133"></trkpt><trkpt lat="50.820518" lon="15.521299"></trkpt><trkpt lat="50.820665" lon="15.521088"></trkpt><trkpt lat="50.820845" lon="15.5213"></trkpt></trkseg></trk></gpx>