<?xml version="1.0" encoding="UTF-8" standalone="no" ?><gpx xmlns="http://www.topografix.com/GPX/1/1" xmlns:gpxx="http://www.garmin.com/xmlschemas/GpxExtensions/v3" ><trk><trkseg><trkpt lat="52.461866" lon="16.908419"></trkpt><trkpt lat="52.461534" lon="16.909251"></trkpt><trkpt lat="52.461804" lon="16.909264"></trkpt><trkpt lat="52.462004" lon="16.909612"></trkpt><trkpt lat="52.462002" lon="16.910644"></trkpt><trkpt lat="52.462307" lon="16.910984"></trkpt><trkpt lat="52.462826" lon="16.911402"></trkpt><trkpt lat="52.463321" lon="16.911715"></trkpt><trkpt lat="52.463778" lon="16.911906"></trkpt><trkpt lat="52.464534" lon="16.911777"></trkpt><trkpt lat="52.464816" lon="16.911776"></trkpt><trkpt lat="52.465077" lon="16.911918"></trkpt><trkpt lat="52.465751" lon="16.912641"></trkpt><trkpt lat="52.465957" lon="16.912969"></trkpt><trkpt lat="52.466253" lon="16.912976"></trkpt><trkpt lat="52.466384" lon="16.912146"></trkpt><trkpt lat="52.466472" lon="16.911261"></trkpt><trkpt lat="52.466762" lon="16.910123"></trkpt><trkpt lat="52.46695" lon="16.909737"></trkpt><trkpt lat="52.471843" lon="16.901388"></trkpt><trkpt lat="52.472379" lon="16.90112"></trkpt><trkpt lat="52.472649" lon="16.900915"></trkpt><trkpt lat="52.473104" lon="16.90065"></trkpt><trkpt lat="52.473555" lon="16.90046"></trkpt><trkpt lat="52.476019" lon="16.899019"></trkpt><trkpt lat="52.482021" lon="16.8945"></trkpt><trkpt lat="52.482351" lon="16.89403"></trkpt><trkpt lat="52.48261" lon="16.893583"></trkpt><trkpt lat="52.483055" lon="16.892953"></trkpt><trkpt lat="52.483301" lon="16.892663"></trkpt><trkpt lat="52.48449" lon="16.89151"></trkpt><trkpt lat="52.484782" lon="16.891327"></trkpt><trkpt lat="52.486286" lon="16.890098"></trkpt><trkpt lat="52.486441" lon="16.889195"></trkpt><trkpt lat="52.486707" lon="16.886795"></trkpt><trkpt lat="52.486703" lon="16.885746"></trkpt><trkpt lat="52.486743" lon="16.885006"></trkpt><trkpt lat="52.486695" lon="16.884542"></trkpt><trkpt lat="52.486677" lon="16.883988"></trkpt><trkpt lat="52.48661" lon="16.883514"></trkpt><trkpt lat="52.486574" lon="16.882691"></trkpt><trkpt lat="52.486607" lon="16.880455"></trkpt><trkpt lat="52.486913" lon="16.880075"></trkpt><trkpt lat="52.487164" lon="16.879666"></trkpt><trkpt lat="52.487436" lon="16.879326"></trkpt><trkpt lat="52.487711" lon="16.879298"></trkpt><trkpt lat="52.48815" lon="16.87901"></trkpt><trkpt lat="52.491078" lon="16.876496"></trkpt><trkpt lat="52.490895" lon="16.875754"></trkpt><trkpt lat="52.490547" lon="16.87468"></trkpt><trkpt lat="52.489967" lon="16.872247"></trkpt><trkpt lat="52.490094" lon="16.871761"></trkpt><trkpt lat="52.49129" lon="16.865121"></trkpt><trkpt lat="52.491314" lon="16.864354"></trkpt><trkpt lat="52.491528" lon="16.862939"></trkpt><trkpt lat="52.491577" lon="16.862415"></trkpt><trkpt lat="52.491546" lon="16.861947"></trkpt><trkpt lat="52.491669" lon="16.861531"></trkpt><trkpt lat="52.491852" lon="16.860491"></trkpt><trkpt lat="52.493026" lon="16.856488"></trkpt><trkpt lat="52.493722" lon="16.855699"></trkpt><trkpt lat="52.496336" lon="16.852125"></trkpt><trkpt lat="52.495897" lon="16.851094"></trkpt><trkpt lat="52.488132" lon="16.833487"></trkpt><trkpt lat="52.487315" lon="16.832302"></trkpt><trkpt lat="52.486447" lon="16.830725"></trkpt><trkpt lat="52.486443" lon="16.829415"></trkpt><trkpt lat="52.486021" lon="16.807813"></trkpt><trkpt lat="52.486254" lon="16.806362"></trkpt><trkpt lat="52.486919" lon="16.799708"></trkpt><trkpt lat="52.487035" lon="16.799249"></trkpt><trkpt lat="52.487695" lon="16.798894"></trkpt><trkpt lat="52.497317" lon="16.795258"></trkpt><trkpt lat="52.498149" lon="16.795098"></trkpt><trkpt lat="52.498653" lon="16.795399"></trkpt><trkpt lat="52.499337" lon="16.795997"></trkpt><trkpt lat="52.501946" lon="16.79767"></trkpt><trkpt lat="52.50263" lon="16.797782"></trkpt><trkpt lat="52.503049" lon="16.797775"></trkpt><trkpt lat="52.509973" lon="16.796569"></trkpt><trkpt lat="52.510695" lon="16.796302"></trkpt><trkpt lat="52.511027" lon="16.796237"></trkpt><trkpt lat="52.523534" lon="16.792519"></trkpt><trkpt lat="52.523841" lon="16.792759"></trkpt><trkpt lat="52.524146" lon="16.792651"></trkpt><trkpt lat="52.534157" lon="16.787566"></trkpt><trkpt lat="52.534432" lon="16.787238"></trkpt><trkpt lat="52.536465" lon="16.784255"></trkpt><trkpt lat="52.536493" lon="16.78344"></trkpt><trkpt lat="52.536471" lon="16.782803"></trkpt><trkpt lat="52.536524" lon="16.781975"></trkpt><trkpt lat="52.536588" lon="16.775475"></trkpt><trkpt lat="52.536557" lon="16.774879"></trkpt><trkpt lat="52.536631" lon="16.77379"></trkpt><trkpt lat="52.537808" lon="16.764548"></trkpt><trkpt lat="52.538674" lon="16.760017"></trkpt><trkpt lat="52.538955" lon="16.759811"></trkpt><trkpt lat="52.539186" lon="16.759508"></trkpt><trkpt lat="52.540008" lon="16.75886"></trkpt><trkpt lat="52.547283" lon="16.75115"></trkpt><trkpt lat="52.547282" lon="16.749848"></trkpt><trkpt lat="52.547045" lon="16.728601"></trkpt><trkpt lat="52.547791" lon="16.714959"></trkpt><trkpt lat="52.5483" lon="16.714699"></trkpt><trkpt lat="52.55126" lon="16.711668"></trkpt><trkpt lat="52.551514" lon="16.710385"></trkpt><trkpt lat="52.554776" lon="16.690342"></trkpt><trkpt lat="52.554782" lon="16.688876"></trkpt><trkpt lat="52.554449" lon="16.683858"></trkpt><trkpt lat="52.554259" lon="16.683352"></trkpt><trkpt lat="52.553548" lon="16.680937"></trkpt><trkpt lat="52.554292" lon="16.680169"></trkpt><trkpt lat="52.556258" lon="16.677576"></trkpt><trkpt lat="52.560334" lon="16.673126"></trkpt><trkpt lat="52.560677" lon="16.672648"></trkpt><trkpt lat="52.560933" lon="16.671516"></trkpt><trkpt lat="52.561134" lon="16.670862"></trkpt><trkpt lat="52.561676" lon="16.669991"></trkpt><trkpt lat="52.571679" lon="16.656022"></trkpt><trkpt lat="52.581476" lon="16.641159"></trkpt><trkpt lat="52.582002" lon="16.640148"></trkpt><trkpt lat="52.589832" lon="16.623122"></trkpt><trkpt lat="52.593438" lon="16.616818"></trkpt><trkpt lat="52.594042" lon="16.616141"></trkpt><trkpt lat="52.595046" lon="16.61475"></trkpt><trkpt lat="52.605014" lon="16.600157"></trkpt><trkpt lat="52.607096" lon="16.596438"></trkpt><trkpt lat="52.607511" lon="16.595113"></trkpt><trkpt lat="52.610003" lon="16.588668"></trkpt><trkpt lat="52.61024" lon="16.588203"></trkpt><trkpt lat="52.609627" lon="16.587515"></trkpt><trkpt lat="52.608974" lon="16.586944"></trkpt><trkpt lat="52.608348" lon="16.586251"></trkpt><trkpt lat="52.607293" lon="16.584844"></trkpt><trkpt lat="52.60673" lon="16.584268"></trkpt><trkpt lat="52.606334" lon="16.584856"></trkpt><trkpt lat="52.605961" lon="16.585245"></trkpt><trkpt lat="52.605614" lon="16.58569"></trkpt><trkpt lat="52.605339" lon="16.586519"></trkpt><trkpt lat="52.605156" lon="16.587214"></trkpt><trkpt lat="52.604703" lon="16.587026"></trkpt><trkpt lat="52.603737" lon="16.585783"></trkpt></trkseg></trk></gpx>