<?xml version="1.0" encoding="UTF-8" standalone="no" ?><gpx xmlns="http://www.topografix.com/GPX/1/1" xmlns:gpxx="http://www.garmin.com/xmlschemas/GpxExtensions/v3" ><trk><trkseg><trkpt lat="50.6770141516" lon="16.3972715009"></trkpt><trkpt lat="50.6769418158" lon="16.3968268409"></trkpt><trkpt lat="50.6770460028" lon="16.3972736802"></trkpt><trkpt lat="50.6771917641" lon="16.3977610879"></trkpt><trkpt lat="50.6772231124" lon="16.398269115"></trkpt><trkpt lat="50.6773574743" lon="16.3986853603"></trkpt><trkpt lat="50.6774068438" lon="16.3991244882"></trkpt><trkpt lat="50.6774912495" lon="16.399592869"></trkpt><trkpt lat="50.6777152978" lon="16.3999705575"></trkpt><trkpt lat="50.677925013" lon="16.4002645947"></trkpt><trkpt lat="50.6802213192" lon="16.402935572"></trkpt><trkpt lat="50.6817501783" lon="16.4050639048"></trkpt><trkpt lat="50.6822853629" lon="16.4056811482"></trkpt><trkpt lat="50.6825661566" lon="16.4058010932"></trkpt><trkpt lat="50.6828635465" lon="16.405851217"></trkpt><trkpt lat="50.6831735931" lon="16.4062577393"></trkpt><trkpt lat="50.6834824663" lon="16.406415822"></trkpt><trkpt lat="50.6836957019" lon="16.406784961"></trkpt><trkpt lat="50.6837687921" lon="16.4072786551"></trkpt><trkpt lat="50.6837187521" lon="16.4077114966"></trkpt><trkpt lat="50.6835781876" lon="16.4081621077"></trkpt><trkpt lat="50.6834355276" lon="16.4087660238"></trkpt><trkpt lat="50.6833975576" lon="16.4092390146"></trkpt><trkpt lat="50.6831669714" lon="16.4095186349"></trkpt><trkpt lat="50.6833053567" lon="16.4099409152"></trkpt><trkpt lat="50.6835779361" lon="16.4101910312"></trkpt><trkpt lat="50.6851148419" lon="16.4119334612"></trkpt><trkpt lat="50.6852507964" lon="16.4123854972"></trkpt><trkpt lat="50.6854604278" lon="16.4126716554"></trkpt><trkpt lat="50.685558496" lon="16.4131050836"></trkpt><trkpt lat="50.6855931971" lon="16.4136011247"></trkpt><trkpt lat="50.6856646948" lon="16.4140447788"></trkpt><trkpt lat="50.6859408785" lon="16.4151671156"></trkpt><trkpt lat="50.6861331593" lon="16.4156098478"></trkpt><trkpt lat="50.6861746497" lon="16.4161166176"></trkpt><trkpt lat="50.6861472409" lon="16.4165416639"></trkpt><trkpt lat="50.686146738" lon="16.4172242023"></trkpt><trkpt lat="50.6862859614" lon="16.4177562855"></trkpt><trkpt lat="50.686336169" lon="16.4182554279"></trkpt><trkpt lat="50.6862807646" lon="16.4187036082"></trkpt><trkpt lat="50.6861339137" lon="16.4192501083"></trkpt><trkpt lat="50.6853264011" lon="16.4215070195"></trkpt><trkpt lat="50.6850048713" lon="16.4218822774"></trkpt><trkpt lat="50.6840125378" lon="16.4232782833"></trkpt><trkpt lat="50.6838612445" lon="16.4236462489"></trkpt><trkpt lat="50.6834517885" lon="16.4248970803"></trkpt><trkpt lat="50.6833692268" lon="16.4253532235"></trkpt><trkpt lat="50.6833191868" lon="16.4258367755"></trkpt><trkpt lat="50.6831150874" lon="16.4263481554"></trkpt><trkpt lat="50.6828938052" lon="16.4266477246"></trkpt><trkpt lat="50.6825690065" lon="16.4269325417"></trkpt><trkpt lat="50.6822652463" lon="16.4269728586"></trkpt><trkpt lat="50.6807209644" lon="16.4274568297"></trkpt><trkpt lat="50.680443272" lon="16.4278770983"></trkpt><trkpt lat="50.6800007075" lon="16.428826768"></trkpt><trkpt lat="50.6799857877" lon="16.4294234756"></trkpt><trkpt lat="50.6798618194" lon="16.4299064409"></trkpt><trkpt lat="50.6793974619" lon="16.4312189631"></trkpt><trkpt lat="50.6790660415" lon="16.4315161016"></trkpt><trkpt lat="50.6773820333" lon="16.4333560131"></trkpt><trkpt lat="50.6771659479" lon="16.4337764494"></trkpt><trkpt lat="50.6770365313" lon="16.434236113"></trkpt><trkpt lat="50.676763365" lon="16.4355090726"></trkpt><trkpt lat="50.6766147539" lon="16.4365387894"></trkpt><trkpt lat="50.6764179468" lon="16.4368971158"></trkpt><trkpt lat="50.6761502288" lon="16.4375020377"></trkpt><trkpt lat="50.6755097676" lon="16.4386806171"></trkpt><trkpt lat="50.6752697099" lon="16.4389537834"></trkpt><trkpt lat="50.6684009079" lon="16.4481994417"></trkpt><trkpt lat="50.6684935279" lon="16.4486663975"></trkpt><trkpt lat="50.6686958671" lon="16.4489794616"></trkpt><trkpt lat="50.6688746531" lon="16.4493836369"></trkpt><trkpt lat="50.66878438" lon="16.449971376"></trkpt><trkpt lat="50.6686604116" lon="16.4503952488"></trkpt><trkpt lat="50.668583801" lon="16.4508141764"></trkpt><trkpt lat="50.6684412248" lon="16.4513652865"></trkpt><trkpt lat="50.6686371099" lon="16.4519225992"></trkpt><trkpt lat="50.6688300613" lon="16.4522965997"></trkpt><trkpt lat="50.6688457355" lon="16.4527595323"></trkpt><trkpt lat="50.668720426" lon="16.4532144181"></trkpt><trkpt lat="50.6685962062" lon="16.4538029116"></trkpt><trkpt lat="50.6684397161" lon="16.4542101882"></trkpt><trkpt lat="50.6656401604" lon="16.4601801988"></trkpt><trkpt lat="50.6654265895" lon="16.4604605734"></trkpt><trkpt lat="50.6652305368" lon="16.4608037286"></trkpt><trkpt lat="50.6650765613" lon="16.4611825906"></trkpt><trkpt lat="50.6648958474" lon="16.4615035336"></trkpt><trkpt lat="50.6649064925" lon="16.4620780293"></trkpt><trkpt lat="50.6648721267" lon="16.4625798538"></trkpt><trkpt lat="50.6646339968" lon="16.4628591388"></trkpt><trkpt lat="50.6643324159" lon="16.463121241"></trkpt><trkpt lat="50.6639933679" lon="16.4634837583"></trkpt><trkpt lat="50.6636966486" lon="16.4639145043"></trkpt><trkpt lat="50.6634596083" lon="16.464121202"></trkpt><trkpt lat="50.6631219853" lon="16.4643346891"></trkpt><trkpt lat="50.6628649961" lon="16.4646354318"></trkpt><trkpt lat="50.6626097672" lon="16.4650711231"></trkpt><trkpt lat="50.6621599942" lon="16.4659986645"></trkpt><trkpt lat="50.6622831244" lon="16.4665142354"></trkpt><trkpt lat="50.6641741656" lon="16.4726840705"></trkpt><trkpt lat="50.6644837931" lon="16.4724125806"></trkpt><trkpt lat="50.664713122" lon="16.4721228182"></trkpt><trkpt lat="50.6643959507" lon="16.4725204557"></trkpt><trkpt lat="50.6640386302" lon="16.4730915986"></trkpt><trkpt lat="50.6642672885" lon="16.4728460927"></trkpt><trkpt lat="50.6644528639" lon="16.4724824019"></trkpt><trkpt lat="50.6647355016" lon="16.4720933139"></trkpt><trkpt lat="50.6644893251" lon="16.4724074677"></trkpt><trkpt lat="50.6643431447" lon="16.4728134032"></trkpt><trkpt lat="50.6646301411" lon="16.4732087776"></trkpt><trkpt lat="50.6650444586" lon="16.4736769907"></trkpt><trkpt lat="50.6653198041" lon="16.473813951"></trkpt><trkpt lat="50.665585259" lon="16.4740254264"></trkpt><trkpt lat="50.666386988" lon="16.4748101402"></trkpt><trkpt lat="50.6665853877" lon="16.475185398"></trkpt><trkpt lat="50.6668514293" lon="16.475517489"></trkpt><trkpt lat="50.6670344062" lon="16.4758513402"></trkpt><trkpt lat="50.667226268" lon="16.4763029572"></trkpt><trkpt lat="50.6675010268" lon="16.4766483754"></trkpt><trkpt lat="50.6678254902" lon="16.4767751098"></trkpt><trkpt lat="50.6680800486" lon="16.4769850764"></trkpt><trkpt lat="50.6684494391" lon="16.4772058558"></trkpt><trkpt lat="50.6693247613" lon="16.4778845385"></trkpt><trkpt lat="50.6695886236" lon="16.4782303758"></trkpt><trkpt lat="50.6698220596" lon="16.4784681704"></trkpt><trkpt lat="50.6700487062" lon="16.47879255"></trkpt><trkpt lat="50.6711644214" lon="16.4800354186"></trkpt><trkpt lat="50.6714821793" lon="16.4799873065"></trkpt><trkpt lat="50.671893144" lon="16.4798568841"></trkpt><trkpt lat="50.6728625949" lon="16.4793338533"></trkpt><trkpt lat="50.6731796823" lon="16.4790335298"></trkpt><trkpt lat="50.6735306326" lon="16.4790628664"></trkpt><trkpt lat="50.6737781502" lon="16.4794036746"></trkpt><trkpt lat="50.6740179565" lon="16.4798081014"></trkpt><trkpt lat="50.6743232254" lon="16.4800200798"></trkpt><trkpt lat="50.674513327" lon="16.480332138"></trkpt><trkpt lat="50.6748275645" lon="16.4807643928"></trkpt><trkpt lat="50.6750887446" lon="16.4809010178"></trkpt><trkpt lat="50.6753374357" lon="16.4811130799"></trkpt><trkpt lat="50.6756147929" lon="16.4812224638"></trkpt><trkpt lat="50.6758658309" lon="16.481482219"></trkpt><trkpt lat="50.6761943176" lon="16.4816579875"></trkpt><trkpt lat="50.6764869299" lon="16.4815688878"></trkpt><trkpt lat="50.6767781172" lon="16.4815589972"></trkpt><trkpt lat="50.6770905945" lon="16.4816383738"></trkpt><trkpt lat="50.6773204263" lon="16.4818954468"></trkpt><trkpt lat="50.6775878929" lon="16.4820318203"></trkpt><trkpt lat="50.6781820022" lon="16.4822225086"></trkpt><trkpt lat="50.6785163563" lon="16.4824698586"></trkpt><trkpt lat="50.6784758717" lon="16.4829231519"></trkpt><trkpt lat="50.6786848325" lon="16.4833485335"></trkpt><trkpt lat="50.6789004151" lon="16.4836881682"></trkpt><trkpt lat="50.6790762674" lon="16.4841740672"></trkpt><trkpt lat="50.6792703085" lon="16.4845473133"></trkpt><trkpt lat="50.6795194186" lon="16.4849025384"></trkpt><trkpt lat="50.6798245199" lon="16.485215351"></trkpt><trkpt lat="50.6801488157" lon="16.4854492899"></trkpt><trkpt lat="50.6803496461" lon="16.4857360348"></trkpt><trkpt lat="50.6804752909" lon="16.4862254541"></trkpt><trkpt lat="50.6803498138" lon="16.4858294092"></trkpt><trkpt lat="50.6803239137" lon="16.4854050335"></trkpt><trkpt lat="50.6800806709" lon="16.4858589973"></trkpt><trkpt lat="50.6797036529" lon="16.4867177233"></trkpt><trkpt lat="50.6787307654" lon="16.4885269571"></trkpt><trkpt lat="50.6785329524" lon="16.4888230059"></trkpt><trkpt lat="50.6780853588" lon="16.489665471"></trkpt><trkpt lat="50.67789861" lon="16.4901037607"></trkpt><trkpt lat="50.676739309" lon="16.4934230782"></trkpt><trkpt lat="50.6766921189" lon="16.4938780479"></trkpt><trkpt lat="50.6766034383" lon="16.4944244642"></trkpt><trkpt lat="50.6764035299" lon="16.4949045796"></trkpt><trkpt lat="50.6763042882" lon="16.4953164663"></trkpt><trkpt lat="50.6757979374" lon="16.4984442573"></trkpt><trkpt lat="50.6758097559" lon="16.4989547152"></trkpt><trkpt lat="50.675733313" lon="16.4994627424"></trkpt><trkpt lat="50.6757455505" lon="16.4999009483"></trkpt><trkpt lat="50.6756966002" lon="16.5011651907"></trkpt><trkpt lat="50.6756515894" lon="16.5016137902"></trkpt><trkpt lat="50.6756416988" lon="16.5021555126"></trkpt><trkpt lat="50.6756873801" lon="16.5026187804"></trkpt><trkpt lat="50.6756163854" lon="16.503109457"></trkpt><trkpt lat="50.6756090932" lon="16.5035562962"></trkpt><trkpt lat="50.6757138669" lon="16.5061420295"></trkpt><trkpt lat="50.6758780684" lon="16.5065371525"></trkpt><trkpt lat="50.6759632286" lon="16.5070182737"></trkpt><trkpt lat="50.6760369893" lon="16.5077659395"></trkpt><trkpt lat="50.6761643942" lon="16.5082022175"></trkpt><trkpt lat="50.676418785" lon="16.509482218"></trkpt><trkpt lat="50.6762939785" lon="16.5099743195"></trkpt><trkpt lat="50.6762766279" lon="16.5105263516"></trkpt><trkpt lat="50.6761620473" lon="16.5109162778"></trkpt><trkpt lat="50.6761332974" lon="16.5115263965"></trkpt><trkpt lat="50.6762235705" lon="16.5119962022"></trkpt><trkpt lat="50.6765182782" lon="16.5120272152"></trkpt><trkpt lat="50.6767767761" lon="16.5118983015"></trkpt><trkpt lat="50.6772640999" lon="16.5115729999"></trkpt><trkpt lat="50.6775386073" lon="16.5111172758"></trkpt><trkpt lat="50.6777907349" lon="16.5109039564"></trkpt><trkpt lat="50.6779718678" lon="16.5105606336"></trkpt><trkpt lat="50.6782374904" lon="16.5099367686"></trkpt><trkpt lat="50.6784486305" lon="16.509531755"></trkpt><trkpt lat="50.6787032727" lon="16.5091416612"></trkpt><trkpt lat="50.6788826454" lon="16.508704545"></trkpt><trkpt lat="50.6791452505" lon="16.5084499028"></trkpt><trkpt lat="50.6792384572" lon="16.5079710446"></trkpt><trkpt lat="50.6796826981" lon="16.5063883737"></trkpt><trkpt lat="50.6799170561" lon="16.5061532613"></trkpt><trkpt lat="50.6801343989" lon="16.5056974534"></trkpt><trkpt lat="50.6804073974" lon="16.5053522028"></trkpt><trkpt lat="50.6806834973" lon="16.5050752647"></trkpt><trkpt lat="50.6810684782" lon="16.5048275795"></trkpt><trkpt lat="50.6813000701" lon="16.5046051238"></trkpt><trkpt lat="50.6820049882" lon="16.5037659276"></trkpt><trkpt lat="50.6822466385" lon="16.503571216"></trkpt><trkpt lat="50.6824589521" lon="16.5038753953"></trkpt><trkpt lat="50.6830034405" lon="16.5048159286"></trkpt><trkpt lat="50.6831664685" lon="16.505386401"></trkpt><trkpt lat="50.6843585428" lon="16.5085714404"></trkpt><trkpt lat="50.6847555097" lon="16.5087168664"></trkpt><trkpt lat="50.6859683711" lon="16.509362692"></trkpt><trkpt lat="50.6861850433" lon="16.5096278116"></trkpt><trkpt lat="50.6870544143" lon="16.5109513141"></trkpt><trkpt lat="50.6871718448" lon="16.5113945492"></trkpt><trkpt lat="50.6873034406" lon="16.5122707933"></trkpt><trkpt lat="50.6874171831" lon="16.5127383359"></trkpt><trkpt lat="50.6876077037" lon="16.5130904596"></trkpt><trkpt lat="50.6878559757" lon="16.5134443436"></trkpt><trkpt lat="50.6885405257" lon="16.5142447315"></trkpt><trkpt lat="50.6887613051" lon="16.5145955142"></trkpt><trkpt lat="50.688985521" lon="16.5151267592"></trkpt><trkpt lat="50.6891551707" lon="16.5156784561"></trkpt><trkpt lat="50.6892564241" lon="16.5161288995"></trkpt><trkpt lat="50.6893834937" lon="16.5165676922"></trkpt><trkpt lat="50.689033214" lon="16.516620582"></trkpt><trkpt lat="50.6887730397" lon="16.5167489927"></trkpt><trkpt lat="50.6884634122" lon="16.5169761423"></trkpt><trkpt lat="50.6884015538" lon="16.5175417531"></trkpt><trkpt lat="50.6884344108" lon="16.5182120539"></trkpt><trkpt lat="50.6883967761" lon="16.5187918302"></trkpt><trkpt lat="50.6882531103" lon="16.5191678423"></trkpt><trkpt lat="50.6875548977" lon="16.5214414336"></trkpt><trkpt lat="50.6875434984" lon="16.5218948945"></trkpt><trkpt lat="50.6874932069" lon="16.5223631915"></trkpt><trkpt lat="50.6874775328" lon="16.5228313208"></trkpt><trkpt lat="50.6872850843" lon="16.5232142061"></trkpt><trkpt lat="50.6870761234" lon="16.5235290304"></trkpt><trkpt lat="50.68679424" lon="16.5237360634"></trkpt><trkpt lat="50.6854584999" lon="16.5249893256"></trkpt><trkpt lat="50.6852413248" lon="16.5253071673"></trkpt><trkpt lat="50.684910072" lon="16.5257038828"></trkpt><trkpt lat="50.6846844312" lon="16.5261207148"></trkpt><trkpt lat="50.6845299527" lon="16.5264723357"></trkpt><trkpt lat="50.6845244206" lon="16.5269213542"></trkpt><trkpt lat="50.6845575292" lon="16.5273723006"></trkpt><trkpt lat="50.6845579483" lon="16.5278587025"></trkpt><trkpt lat="50.6845285278" lon="16.5283440985"></trkpt><trkpt lat="50.6845637318" lon="16.529484624"></trkpt><trkpt lat="50.684652077" lon="16.5301019512"></trkpt><trkpt lat="50.6847610418" lon="16.5305627044"></trkpt><trkpt lat="50.6847830862" lon="16.5312477574"></trkpt><trkpt lat="50.6846482214" lon="16.5317391045"></trkpt><trkpt lat="50.683891084" lon="16.5354595799"></trkpt><trkpt lat="50.6839729752" lon="16.5360224247"></trkpt><trkpt lat="50.6840567943" lon="16.5369912051"></trkpt><trkpt lat="50.6841160543" lon="16.5389348846"></trkpt><trkpt lat="50.6840709597" lon="16.5395862423"></trkpt><trkpt lat="50.6840822753" lon="16.5407973435"></trkpt><trkpt lat="50.6842714548" lon="16.5414474439"></trkpt><trkpt lat="50.684436243" lon="16.542197708"></trkpt><trkpt lat="50.6844038051" lon="16.5426232573"></trkpt><trkpt lat="50.6841053255" lon="16.5430601221"></trkpt><trkpt lat="50.6837493461" lon="16.5431762114"></trkpt><trkpt lat="50.6833710708" lon="16.5431767143"></trkpt><trkpt lat="50.6831623614" lon="16.543517774"></trkpt><trkpt lat="50.6827434339" lon="16.5434764512"></trkpt><trkpt lat="50.6736500748" lon="16.5437890962"></trkpt><trkpt lat="50.6733681075" lon="16.5436585061"></trkpt><trkpt lat="50.6731013115" lon="16.543304706"></trkpt><trkpt lat="50.6727629341" lon="16.5430458728"></trkpt><trkpt lat="50.6723968964" lon="16.5426459722"></trkpt><trkpt lat="50.672034882" lon="16.5421702154"></trkpt><trkpt lat="50.6717522442" lon="16.5419346001"></trkpt><trkpt lat="50.6715131085" lon="16.5416753478"></trkpt><trkpt lat="50.6717038807" lon="16.5413212124"></trkpt><trkpt lat="50.6719708443" lon="16.5411849227"></trkpt><trkpt lat="50.6725486089" lon="16.5409907978"></trkpt><trkpt lat="50.6707573961" lon="16.5414689854"></trkpt></trkseg></trk></gpx>