<?xml version="1.0" encoding="UTF-8" standalone="no" ?><gpx xmlns="http://www.topografix.com/GPX/1/1" xmlns:gpxx="http://www.garmin.com/xmlschemas/GpxExtensions/v3" ><trk><trkseg><trkpt lat="50.820991" lon="15.52132"></trkpt><trkpt lat="50.820656" lon="15.521092"></trkpt><trkpt lat="50.820446" lon="15.52142"></trkpt><trkpt lat="50.820706" lon="15.522091"></trkpt><trkpt lat="50.821042" lon="15.522491"></trkpt><trkpt lat="50.821598" lon="15.523276"></trkpt><trkpt lat="50.821674" lon="15.523639"></trkpt><trkpt lat="50.821708" lon="15.524005"></trkpt><trkpt lat="50.821931" lon="15.525341"></trkpt><trkpt lat="50.821975" lon="15.525736"></trkpt><trkpt lat="50.822096" lon="15.526449"></trkpt><trkpt lat="50.822237" lon="15.526691"></trkpt><trkpt lat="50.822489" lon="15.526557"></trkpt><trkpt lat="50.822708" lon="15.526602"></trkpt><trkpt lat="50.823123" lon="15.527184"></trkpt><trkpt lat="50.823425" lon="15.52746"></trkpt><trkpt lat="50.82364" lon="15.527415"></trkpt><trkpt lat="50.823829" lon="15.527161"></trkpt><trkpt lat="50.824015" lon="15.527019"></trkpt><trkpt lat="50.824209" lon="15.527098"></trkpt><trkpt lat="50.824054" lon="15.526881"></trkpt><trkpt lat="50.823814" lon="15.527114"></trkpt><trkpt lat="50.823485" lon="15.527618"></trkpt><trkpt lat="50.823341" lon="15.528063"></trkpt><trkpt lat="50.823103" lon="15.529017"></trkpt><trkpt lat="50.822933" lon="15.530577"></trkpt><trkpt lat="50.823035" lon="15.531348"></trkpt><trkpt lat="50.823137" lon="15.532557"></trkpt><trkpt lat="50.823319" lon="15.5337"></trkpt><trkpt lat="50.823523" lon="15.534188"></trkpt><trkpt lat="50.823709" lon="15.534497"></trkpt><trkpt lat="50.82358" lon="15.534254"></trkpt><trkpt lat="50.823285" lon="15.533547"></trkpt><trkpt lat="50.823199" lon="15.53315"></trkpt><trkpt lat="50.823118" lon="15.532206"></trkpt><trkpt lat="50.822792" lon="15.532374"></trkpt><trkpt lat="50.822563" lon="15.53254"></trkpt><trkpt lat="50.822047" lon="15.53258"></trkpt><trkpt lat="50.821661" lon="15.532723"></trkpt><trkpt lat="50.821155" lon="15.533002"></trkpt><trkpt lat="50.820743" lon="15.533317"></trkpt><trkpt lat="50.820528" lon="15.533565"></trkpt><trkpt lat="50.820261" lon="15.533803"></trkpt><trkpt lat="50.820209" lon="15.534237"></trkpt><trkpt lat="50.820009" lon="15.535394"></trkpt><trkpt lat="50.819889" lon="15.535688"></trkpt><trkpt lat="50.819595" lon="15.536243"></trkpt><trkpt lat="50.819103" lon="15.537048"></trkpt><trkpt lat="50.818853" lon="15.537291"></trkpt><trkpt lat="50.818351" lon="15.5376"></trkpt><trkpt lat="50.818102" lon="15.537686"></trkpt><trkpt lat="50.817897" lon="15.537825"></trkpt><trkpt lat="50.817682" lon="15.538021"></trkpt><trkpt lat="50.817347" lon="15.538234"></trkpt><trkpt lat="50.816287" lon="15.538705"></trkpt><trkpt lat="50.815873" lon="15.538752"></trkpt><trkpt lat="50.814301" lon="15.539118"></trkpt><trkpt lat="50.814379" lon="15.539504"></trkpt><trkpt lat="50.814522" lon="15.540067"></trkpt><trkpt lat="50.814575" lon="15.540382"></trkpt><trkpt lat="50.814624" lon="15.540889"></trkpt><trkpt lat="50.814561" lon="15.541687"></trkpt><trkpt lat="50.814442" lon="15.542583"></trkpt><trkpt lat="50.814412" lon="15.542961"></trkpt><trkpt lat="50.814469" lon="15.543363"></trkpt><trkpt lat="50.814578" lon="15.543701"></trkpt><trkpt lat="50.814557" lon="15.54402"></trkpt><trkpt lat="50.814357" lon="15.544098"></trkpt><trkpt lat="50.814133" lon="15.543929"></trkpt><trkpt lat="50.813832" lon="15.543658"></trkpt><trkpt lat="50.813547" lon="15.543568"></trkpt><trkpt lat="50.813264" lon="15.543694"></trkpt><trkpt lat="50.813215" lon="15.544295"></trkpt><trkpt lat="50.813251" lon="15.544626"></trkpt><trkpt lat="50.813501" lon="15.545425"></trkpt><trkpt lat="50.813664" lon="15.545823"></trkpt><trkpt lat="50.813791" lon="15.546069"></trkpt><trkpt lat="50.813932" lon="15.546301"></trkpt><trkpt lat="50.814028" lon="15.546608"></trkpt><trkpt lat="50.814028" lon="15.546946"></trkpt><trkpt lat="50.813812" lon="15.548086"></trkpt><trkpt lat="50.8136" lon="15.548299"></trkpt><trkpt lat="50.813401" lon="15.548212"></trkpt><trkpt lat="50.813201" lon="15.548197"></trkpt><trkpt lat="50.813042" lon="15.548504"></trkpt><trkpt lat="50.81297" lon="15.548798"></trkpt><trkpt lat="50.812754" lon="15.549964"></trkpt><trkpt lat="50.812774" lon="15.550506"></trkpt><trkpt lat="50.812891" lon="15.551018"></trkpt><trkpt lat="50.813074" lon="15.551259"></trkpt><trkpt lat="50.813275" lon="15.551437"></trkpt><trkpt lat="50.813405" lon="15.551733"></trkpt><trkpt lat="50.813482" lon="15.552036"></trkpt><trkpt lat="50.813589" lon="15.55233"></trkpt><trkpt lat="50.81377" lon="15.552508"></trkpt><trkpt lat="50.814118" lon="15.552923"></trkpt><trkpt lat="50.81432" lon="15.553955"></trkpt><trkpt lat="50.814365" lon="15.554792"></trkpt><trkpt lat="50.814451" lon="15.55564"></trkpt><trkpt lat="50.814654" lon="15.556419"></trkpt><trkpt lat="50.814763" lon="15.556725"></trkpt><trkpt lat="50.815345" lon="15.558669"></trkpt><trkpt lat="50.815386" lon="15.559091"></trkpt><trkpt lat="50.81542" lon="15.559923"></trkpt><trkpt lat="50.81538" lon="15.56039"></trkpt><trkpt lat="50.815302" lon="15.560773"></trkpt><trkpt lat="50.814747" lon="15.564479"></trkpt><trkpt lat="50.814749" lon="15.565033"></trkpt><trkpt lat="50.815157" lon="15.572969"></trkpt><trkpt lat="50.815444" lon="15.573929"></trkpt><trkpt lat="50.816431" lon="15.578368"></trkpt><trkpt lat="50.81656" lon="15.579425"></trkpt><trkpt lat="50.81703" lon="15.581533"></trkpt><trkpt lat="50.817553" lon="15.582365"></trkpt><trkpt lat="50.817759" lon="15.583019"></trkpt><trkpt lat="50.817783" lon="15.583417"></trkpt><trkpt lat="50.817884" lon="15.584134"></trkpt><trkpt lat="50.817788" lon="15.583814"></trkpt><trkpt lat="50.817781" lon="15.583465"></trkpt><trkpt lat="50.817729" lon="15.582794"></trkpt><trkpt lat="50.817603" lon="15.582539"></trkpt><trkpt lat="50.816697" lon="15.584679"></trkpt><trkpt lat="50.816574" lon="15.585994"></trkpt><trkpt lat="50.816433" lon="15.589036"></trkpt><trkpt lat="50.816807" lon="15.589951"></trkpt><trkpt lat="50.817409" lon="15.591066"></trkpt><trkpt lat="50.818338" lon="15.593073"></trkpt><trkpt lat="50.818104" lon="15.593452"></trkpt><trkpt lat="50.817932" lon="15.593681"></trkpt><trkpt lat="50.81762" lon="15.593902"></trkpt><trkpt lat="50.817236" lon="15.593978"></trkpt><trkpt lat="50.816534" lon="15.594234"></trkpt><trkpt lat="50.81624" lon="15.594838"></trkpt><trkpt lat="50.816054" lon="15.595281"></trkpt><trkpt lat="50.815837" lon="15.595648"></trkpt><trkpt lat="50.815578" lon="15.595874"></trkpt><trkpt lat="50.815372" lon="15.596005"></trkpt><trkpt lat="50.815015" lon="15.596186"></trkpt><trkpt lat="50.814176" lon="15.596723"></trkpt><trkpt lat="50.813924" lon="15.59717"></trkpt><trkpt lat="50.812643" lon="15.600136"></trkpt><trkpt lat="50.812548" lon="15.600586"></trkpt><trkpt lat="50.812327" lon="15.601107"></trkpt><trkpt lat="50.812126" lon="15.601424"></trkpt><trkpt lat="50.811888" lon="15.601972"></trkpt><trkpt lat="50.811739" lon="15.602702"></trkpt><trkpt lat="50.811573" lon="15.603302"></trkpt><trkpt lat="50.811125" lon="15.604315"></trkpt><trkpt lat="50.810818" lon="15.604405"></trkpt><trkpt lat="50.810521" lon="15.604409"></trkpt><trkpt lat="50.810146" lon="15.604342"></trkpt><trkpt lat="50.809848" lon="15.604152"></trkpt><trkpt lat="50.809604" lon="15.604083"></trkpt><trkpt lat="50.80921" lon="15.604078"></trkpt><trkpt lat="50.80693" lon="15.604653"></trkpt><trkpt lat="50.80693" lon="15.605154"></trkpt><trkpt lat="50.806971" lon="15.605561"></trkpt><trkpt lat="50.807289" lon="15.605803"></trkpt><trkpt lat="50.807478" lon="15.606037"></trkpt><trkpt lat="50.807618" lon="15.606298"></trkpt><trkpt lat="50.807822" lon="15.606466"></trkpt><trkpt lat="50.808271" lon="15.606742"></trkpt><trkpt lat="50.808613" lon="15.607027"></trkpt><trkpt lat="50.809019" lon="15.607287"></trkpt><trkpt lat="50.809267" lon="15.607283"></trkpt><trkpt lat="50.809813" lon="15.607361"></trkpt><trkpt lat="50.810091" lon="15.607639"></trkpt><trkpt lat="50.810309" lon="15.607786"></trkpt><trkpt lat="50.810458" lon="15.608044"></trkpt><trkpt lat="50.810383" lon="15.60849"></trkpt><trkpt lat="50.810444" lon="15.608885"></trkpt><trkpt lat="50.810702" lon="15.609103"></trkpt><trkpt lat="50.811035" lon="15.609145"></trkpt><trkpt lat="50.811474" lon="15.609501"></trkpt><trkpt lat="50.811635" lon="15.609784"></trkpt><trkpt lat="50.811767" lon="15.610352"></trkpt><trkpt lat="50.811821" lon="15.610779"></trkpt><trkpt lat="50.811887" lon="15.611141"></trkpt><trkpt lat="50.811988" lon="15.611422"></trkpt><trkpt lat="50.812216" lon="15.611761"></trkpt><trkpt lat="50.812335" lon="15.612049"></trkpt><trkpt lat="50.812256" lon="15.612397"></trkpt><trkpt lat="50.812037" lon="15.612518"></trkpt><trkpt lat="50.811824" lon="15.612583"></trkpt><trkpt lat="50.811859" lon="15.612934"></trkpt><trkpt lat="50.811947" lon="15.613265"></trkpt><trkpt lat="50.811913" lon="15.613609"></trkpt><trkpt lat="50.811895" lon="15.614011"></trkpt><trkpt lat="50.811951" lon="15.614327"></trkpt><trkpt lat="50.812359" lon="15.615203"></trkpt><trkpt lat="50.812608" lon="15.615506"></trkpt><trkpt lat="50.812683" lon="15.615801"></trkpt><trkpt lat="50.812626" lon="15.616113"></trkpt><trkpt lat="50.812519" lon="15.616512"></trkpt><trkpt lat="50.812406" lon="15.616791"></trkpt><trkpt lat="50.812187" lon="15.616856"></trkpt><trkpt lat="50.81193" lon="15.616865"></trkpt><trkpt lat="50.811726" lon="15.616969"></trkpt><trkpt lat="50.811564" lon="15.617163"></trkpt><trkpt lat="50.811476" lon="15.617445"></trkpt><trkpt lat="50.811456" lon="15.617759"></trkpt><trkpt lat="50.81126" lon="15.619289"></trkpt><trkpt lat="50.811361" lon="15.619618"></trkpt><trkpt lat="50.811303" lon="15.619977"></trkpt><trkpt lat="50.810878" lon="15.621952"></trkpt><trkpt lat="50.810681" lon="15.622657"></trkpt><trkpt lat="50.810568" lon="15.622974"></trkpt><trkpt lat="50.810481" lon="15.623315"></trkpt><trkpt lat="50.81045" lon="15.623715"></trkpt><trkpt lat="50.810449" lon="15.624083"></trkpt><trkpt lat="50.810344" lon="15.624728"></trkpt><trkpt lat="50.810236" lon="15.624991"></trkpt><trkpt lat="50.809559" lon="15.627253"></trkpt><trkpt lat="50.809544" lon="15.627726"></trkpt><trkpt lat="50.809611" lon="15.628787"></trkpt><trkpt lat="50.80968" lon="15.629368"></trkpt><trkpt lat="50.809745" lon="15.62973"></trkpt><trkpt lat="50.809874" lon="15.629973"></trkpt><trkpt lat="50.810159" lon="15.630318"></trkpt><trkpt lat="50.810448" lon="15.630982"></trkpt><trkpt lat="50.810385" lon="15.631292"></trkpt><trkpt lat="50.810148" lon="15.631905"></trkpt><trkpt lat="50.810037" lon="15.632316"></trkpt><trkpt lat="50.809546" lon="15.63374"></trkpt><trkpt lat="50.809354" lon="15.633865"></trkpt><trkpt lat="50.809009" lon="15.633896"></trkpt><trkpt lat="50.808856" lon="15.634133"></trkpt><trkpt lat="50.808829" lon="15.635034"></trkpt><trkpt lat="50.808926" lon="15.63563"></trkpt><trkpt lat="50.809009" lon="15.635987"></trkpt><trkpt lat="50.809191" lon="15.63622"></trkpt><trkpt lat="50.809597" lon="15.636614"></trkpt><trkpt lat="50.809871" lon="15.637124"></trkpt><trkpt lat="50.810736" lon="15.639062"></trkpt><trkpt lat="50.810822" lon="15.639362"></trkpt><trkpt lat="50.810886" lon="15.639748"></trkpt><trkpt lat="50.810878" lon="15.640228"></trkpt><trkpt lat="50.810703" lon="15.640976"></trkpt><trkpt lat="50.81044" lon="15.642704"></trkpt><trkpt lat="50.810493" lon="15.643344"></trkpt><trkpt lat="50.810551" lon="15.643783"></trkpt><trkpt lat="50.810408" lon="15.644418"></trkpt><trkpt lat="50.810328" lon="15.644892"></trkpt><trkpt lat="50.810344" lon="15.645744"></trkpt><trkpt lat="50.810327" lon="15.646206"></trkpt><trkpt lat="50.810206" lon="15.646512"></trkpt><trkpt lat="50.810072" lon="15.646996"></trkpt><trkpt lat="50.809791" lon="15.647755"></trkpt><trkpt lat="50.809588" lon="15.647995"></trkpt><trkpt lat="50.809357" lon="15.648416"></trkpt><trkpt lat="50.809285" lon="15.648715"></trkpt><trkpt lat="50.80925" lon="15.649059"></trkpt><trkpt lat="50.808828" lon="15.650669"></trkpt><trkpt lat="50.808601" lon="15.651189"></trkpt><trkpt lat="50.808983" lon="15.651829"></trkpt><trkpt lat="50.809255" lon="15.652117"></trkpt><trkpt lat="50.810063" lon="15.653155"></trkpt><trkpt lat="50.810512" lon="15.653849"></trkpt><trkpt lat="50.810674" lon="15.655122"></trkpt><trkpt lat="50.811046" lon="15.656878"></trkpt><trkpt lat="50.811192" lon="15.657197"></trkpt><trkpt lat="50.811518" lon="15.658342"></trkpt><trkpt lat="50.811566" lon="15.659246"></trkpt><trkpt lat="50.811561" lon="15.660247"></trkpt><trkpt lat="50.811419" lon="15.66051"></trkpt><trkpt lat="50.811226" lon="15.660683"></trkpt><trkpt lat="50.811028" lon="15.660806"></trkpt><trkpt lat="50.810924" lon="15.661148"></trkpt><trkpt lat="50.81092" lon="15.661798"></trkpt><trkpt lat="50.810734" lon="15.662963"></trkpt><trkpt lat="50.810526" lon="15.663445"></trkpt><trkpt lat="50.810495" lon="15.663945"></trkpt><trkpt lat="50.81054" lon="15.664619"></trkpt><trkpt lat="50.810679" lon="15.665426"></trkpt><trkpt lat="50.810802" lon="15.665768"></trkpt><trkpt lat="50.81088" lon="15.666101"></trkpt><trkpt lat="50.810578" lon="15.666164"></trkpt><trkpt lat="50.81018" lon="15.666195"></trkpt><trkpt lat="50.809951" lon="15.666645"></trkpt><trkpt lat="50.8097" lon="15.66699"></trkpt><trkpt lat="50.809206" lon="15.667571"></trkpt><trkpt lat="50.80911" lon="15.668111"></trkpt><trkpt lat="50.809019" lon="15.6684"></trkpt><trkpt lat="50.80878" lon="15.66813"></trkpt><trkpt lat="50.808818" lon="15.667535"></trkpt><trkpt lat="50.808809" lon="15.666239"></trkpt><trkpt lat="50.80874" lon="15.665908"></trkpt><trkpt lat="50.808822" lon="15.666399"></trkpt><trkpt lat="50.808813" lon="15.667233"></trkpt><trkpt lat="50.808756" lon="15.668192"></trkpt><trkpt lat="50.808874" lon="15.668487"></trkpt><trkpt lat="50.809087" lon="15.668302"></trkpt><trkpt lat="50.809151" lon="15.668005"></trkpt><trkpt lat="50.809248" lon="15.667664"></trkpt><trkpt lat="50.809414" lon="15.667371"></trkpt><trkpt lat="50.809737" lon="15.666887"></trkpt><trkpt lat="50.810316" lon="15.666142"></trkpt><trkpt lat="50.810039" lon="15.666389"></trkpt><trkpt lat="50.809776" lon="15.666816"></trkpt><trkpt lat="50.809465" lon="15.667243"></trkpt><trkpt lat="50.809218" lon="15.667706"></trkpt><trkpt lat="50.808882" lon="15.667997"></trkpt><trkpt lat="50.80882" lon="15.667342"></trkpt><trkpt lat="50.808849" lon="15.66699"></trkpt><trkpt lat="50.808823" lon="15.666383"></trkpt><trkpt lat="50.808742" lon="15.665888"></trkpt><trkpt lat="50.808634" lon="15.66493"></trkpt><trkpt lat="50.808699" lon="15.664519"></trkpt><trkpt lat="50.808828" lon="15.663323"></trkpt><trkpt lat="50.8088" lon="15.662874"></trkpt><trkpt lat="50.808594" lon="15.662663"></trkpt><trkpt lat="50.808312" lon="15.663133"></trkpt><trkpt lat="50.808468" lon="15.663473"></trkpt><trkpt lat="50.808562" lon="15.663808"></trkpt><trkpt lat="50.808337" lon="15.664416"></trkpt><trkpt lat="50.808086" lon="15.664682"></trkpt><trkpt lat="50.807662" lon="15.66537"></trkpt><trkpt lat="50.807593" lon="15.665698"></trkpt><trkpt lat="50.807441" lon="15.666035"></trkpt><trkpt lat="50.807224" lon="15.666153"></trkpt><trkpt lat="50.806854" lon="15.665836"></trkpt><trkpt lat="50.806607" lon="15.665489"></trkpt><trkpt lat="50.806367" lon="15.665297"></trkpt><trkpt lat="50.805978" lon="15.665114"></trkpt><trkpt lat="50.805808" lon="15.664898"></trkpt><trkpt lat="50.805743" lon="15.664585"></trkpt><trkpt lat="50.805752" lon="15.664245"></trkpt><trkpt lat="50.805834" lon="15.663928"></trkpt><trkpt lat="50.805934" lon="15.663611"></trkpt><trkpt lat="50.80593" lon="15.663017"></trkpt><trkpt lat="50.805808" lon="15.662721"></trkpt><trkpt lat="50.805682" lon="15.662287"></trkpt><trkpt lat="50.805619" lon="15.661482"></trkpt><trkpt lat="50.805502" lon="15.661014"></trkpt><trkpt lat="50.805287" lon="15.660496"></trkpt><trkpt lat="50.805144" lon="15.659954"></trkpt><trkpt lat="50.805045" lon="15.659366"></trkpt><trkpt lat="50.804823" lon="15.658788"></trkpt><trkpt lat="50.804586" lon="15.658586"></trkpt><trkpt lat="50.803585" lon="15.657565"></trkpt><trkpt lat="50.803077" lon="15.656889"></trkpt><trkpt lat="50.802898" lon="15.656599"></trkpt><trkpt lat="50.801905" lon="15.655383"></trkpt><trkpt lat="50.801668" lon="15.655316"></trkpt><trkpt lat="50.801471" lon="15.655284"></trkpt><trkpt lat="50.800991" lon="15.655302"></trkpt><trkpt lat="50.800788" lon="15.655145"></trkpt><trkpt lat="50.800562" lon="15.654644"></trkpt><trkpt lat="50.799768" lon="15.653265"></trkpt><trkpt lat="50.799564" lon="15.653112"></trkpt><trkpt lat="50.799376" lon="15.652938"></trkpt><trkpt lat="50.79919" lon="15.652737"></trkpt><trkpt lat="50.79894" lon="15.652547"></trkpt><trkpt lat="50.798682" lon="15.65229"></trkpt><trkpt lat="50.79801" lon="15.651721"></trkpt><trkpt lat="50.797821" lon="15.651591"></trkpt><trkpt lat="50.797591" lon="15.651493"></trkpt><trkpt lat="50.797263" lon="15.651396"></trkpt><trkpt lat="50.792284" lon="15.65051"></trkpt><trkpt lat="50.792057" lon="15.650628"></trkpt><trkpt lat="50.791591" lon="15.650963"></trkpt><trkpt lat="50.791596" lon="15.651324"></trkpt><trkpt lat="50.791759" lon="15.651515"></trkpt><trkpt lat="50.792027" lon="15.651964"></trkpt><trkpt lat="50.793035" lon="15.654093"></trkpt><trkpt lat="50.793159" lon="15.654841"></trkpt><trkpt lat="50.793203" lon="15.655389"></trkpt><trkpt lat="50.79319" lon="15.656171"></trkpt><trkpt lat="50.793164" lon="15.656569"></trkpt><trkpt lat="50.792769" lon="15.659912"></trkpt><trkpt lat="50.792499" lon="15.660569"></trkpt><trkpt lat="50.792153" lon="15.661169"></trkpt><trkpt lat="50.79071" lon="15.664107"></trkpt><trkpt lat="50.790747" lon="15.664538"></trkpt><trkpt lat="50.790861" lon="15.664924"></trkpt><trkpt lat="50.791755" lon="15.666467"></trkpt><trkpt lat="50.792887" lon="15.668006"></trkpt><trkpt lat="50.793087" lon="15.668046"></trkpt><trkpt lat="50.79403" lon="15.667636"></trkpt><trkpt lat="50.79459" lon="15.667461"></trkpt><trkpt lat="50.795024" lon="15.667678"></trkpt><trkpt lat="50.795192" lon="15.66794"></trkpt><trkpt lat="50.795315" lon="15.668255"></trkpt><trkpt lat="50.79539" lon="15.668622"></trkpt><trkpt lat="50.795408" lon="15.66903"></trkpt><trkpt lat="50.795354" lon="15.669434"></trkpt><trkpt lat="50.795248" lon="15.669779"></trkpt><trkpt lat="50.79491" lon="15.670657"></trkpt><trkpt lat="50.79436" lon="15.672639"></trkpt><trkpt lat="50.794305" lon="15.673478"></trkpt><trkpt lat="50.793986" lon="15.675961"></trkpt><trkpt lat="50.793801" lon="15.676261"></trkpt><trkpt lat="50.793406" lon="15.677073"></trkpt><trkpt lat="50.793361" lon="15.677438"></trkpt><trkpt lat="50.792899" lon="15.683507"></trkpt><trkpt lat="50.792913" lon="15.683857"></trkpt><trkpt lat="50.792882" lon="15.68417"></trkpt><trkpt lat="50.792773" lon="15.68459"></trkpt><trkpt lat="50.792644" lon="15.685001"></trkpt><trkpt lat="50.792572" lon="15.685435"></trkpt><trkpt lat="50.792588" lon="15.685826"></trkpt><trkpt lat="50.792719" lon="15.686195"></trkpt><trkpt lat="50.793509" lon="15.689047"></trkpt><trkpt lat="50.793561" lon="15.689698"></trkpt><trkpt lat="50.793901" lon="15.692314"></trkpt><trkpt lat="50.794051" lon="15.692549"></trkpt><trkpt lat="50.794271" lon="15.692703"></trkpt><trkpt lat="50.794522" lon="15.692794"></trkpt><trkpt lat="50.79546" lon="15.692964"></trkpt><trkpt lat="50.795706" lon="15.692825"></trkpt><trkpt lat="50.795897" lon="15.692622"></trkpt><trkpt lat="50.796074" lon="15.692293"></trkpt><trkpt lat="50.796192" lon="15.69189"></trkpt><trkpt lat="50.796315" lon="15.691318"></trkpt><trkpt lat="50.796472" lon="15.691016"></trkpt><trkpt lat="50.79668" lon="15.690931"></trkpt><trkpt lat="50.796624" lon="15.691257"></trkpt><trkpt lat="50.796591" lon="15.691719"></trkpt><trkpt lat="50.796478" lon="15.692421"></trkpt><trkpt lat="50.796222" lon="15.692797"></trkpt><trkpt lat="50.795538" lon="15.693633"></trkpt><trkpt lat="50.795284" lon="15.693866"></trkpt><trkpt lat="50.794984" lon="15.694056"></trkpt><trkpt lat="50.794732" lon="15.694367"></trkpt><trkpt lat="50.794591" lon="15.694632"></trkpt><trkpt lat="50.794299" lon="15.695335"></trkpt><trkpt lat="50.794203" lon="15.695738"></trkpt><trkpt lat="50.794164" lon="15.696228"></trkpt><trkpt lat="50.794192" lon="15.697964"></trkpt><trkpt lat="50.794321" lon="15.698268"></trkpt><trkpt lat="50.794547" lon="15.698531"></trkpt><trkpt lat="50.794859" lon="15.698988"></trkpt><trkpt lat="50.795019" lon="15.699268"></trkpt><trkpt lat="50.795125" lon="15.699569"></trkpt><trkpt lat="50.795321" lon="15.700322"></trkpt><trkpt lat="50.795328" lon="15.700793"></trkpt><trkpt lat="50.79528" lon="15.701158"></trkpt><trkpt lat="50.795267" lon="15.701682"></trkpt><trkpt lat="50.795292" lon="15.702067"></trkpt><trkpt lat="50.795286" lon="15.702442"></trkpt><trkpt lat="50.795318" lon="15.702795"></trkpt><trkpt lat="50.795281" lon="15.704468"></trkpt><trkpt lat="50.795159" lon="15.705359"></trkpt><trkpt lat="50.79509" lon="15.705723"></trkpt><trkpt lat="50.795065" lon="15.706037"></trkpt><trkpt lat="50.795062" lon="15.706425"></trkpt><trkpt lat="50.794936" lon="15.706932"></trkpt><trkpt lat="50.794909" lon="15.707267"></trkpt><trkpt lat="50.794814" lon="15.707939"></trkpt><trkpt lat="50.794674" lon="15.70867"></trkpt><trkpt lat="50.794535" lon="15.708903"></trkpt><trkpt lat="50.79418" lon="15.70882"></trkpt><trkpt lat="50.793852" lon="15.708797"></trkpt><trkpt lat="50.793525" lon="15.708921"></trkpt><trkpt lat="50.793354" lon="15.709107"></trkpt><trkpt lat="50.793285" lon="15.709445"></trkpt><trkpt lat="50.793272" lon="15.709848"></trkpt><trkpt lat="50.793324" lon="15.710484"></trkpt><trkpt lat="50.793528" lon="15.71094"></trkpt><trkpt lat="50.793634" lon="15.711454"></trkpt><trkpt lat="50.793745" lon="15.711719"></trkpt><trkpt lat="50.794034" lon="15.712096"></trkpt><trkpt lat="50.794548" lon="15.712927"></trkpt><trkpt lat="50.794647" lon="15.713228"></trkpt><trkpt lat="50.794892" lon="15.713629"></trkpt><trkpt lat="50.795158" lon="15.714385"></trkpt><trkpt lat="50.795313" lon="15.715603"></trkpt><trkpt lat="50.795333" lon="15.716013"></trkpt><trkpt lat="50.795049" lon="15.715988"></trkpt><trkpt lat="50.792221" lon="15.716564"></trkpt><trkpt lat="50.791993" lon="15.716685"></trkpt><trkpt lat="50.791614" lon="15.716934"></trkpt><trkpt lat="50.791195" lon="15.717146"></trkpt><trkpt lat="50.790728" lon="15.717255"></trkpt><trkpt lat="50.790202" lon="15.717032"></trkpt><trkpt lat="50.789919" lon="15.716678"></trkpt><trkpt lat="50.789665" lon="15.716292"></trkpt><trkpt lat="50.789488" lon="15.716142"></trkpt><trkpt lat="50.789255" lon="15.716029"></trkpt><trkpt lat="50.788935" lon="15.715965"></trkpt><trkpt lat="50.788034" lon="15.715948"></trkpt><trkpt lat="50.787513" lon="15.715875"></trkpt><trkpt lat="50.78726" lon="15.71571"></trkpt><trkpt lat="50.787032" lon="15.715524"></trkpt><trkpt lat="50.786801" lon="15.715276"></trkpt><trkpt lat="50.786102" lon="15.71475"></trkpt><trkpt lat="50.786008" lon="15.715035"></trkpt><trkpt lat="50.78611" lon="15.715714"></trkpt><trkpt lat="50.786127" lon="15.716084"></trkpt><trkpt lat="50.786174" lon="15.716532"></trkpt><trkpt lat="50.786186" lon="15.717038"></trkpt><trkpt lat="50.786348" lon="15.719367"></trkpt><trkpt lat="50.786517" lon="15.719703"></trkpt><trkpt lat="50.786907" lon="15.720961"></trkpt><trkpt lat="50.786709" lon="15.721354"></trkpt><trkpt lat="50.786505" lon="15.721422"></trkpt><trkpt lat="50.786184" lon="15.721421"></trkpt><trkpt lat="50.785297" lon="15.721541"></trkpt><trkpt lat="50.785065" lon="15.721682"></trkpt><trkpt lat="50.783667" lon="15.722906"></trkpt><trkpt lat="50.783259" lon="15.723473"></trkpt><trkpt lat="50.782615" lon="15.723865"></trkpt><trkpt lat="50.781009" lon="15.724629"></trkpt><trkpt lat="50.780799" lon="15.724568"></trkpt><trkpt lat="50.780392" lon="15.724607"></trkpt><trkpt lat="50.779866" lon="15.724852"></trkpt><trkpt lat="50.778648" lon="15.725824"></trkpt><trkpt lat="50.777333" lon="15.726465"></trkpt><trkpt lat="50.776928" lon="15.726471"></trkpt><trkpt lat="50.77673" lon="15.72652"></trkpt><trkpt lat="50.776286" lon="15.726711"></trkpt><trkpt lat="50.776" lon="15.726784"></trkpt><trkpt lat="50.775775" lon="15.72677"></trkpt><trkpt lat="50.775095" lon="15.726513"></trkpt><trkpt lat="50.774711" lon="15.726431"></trkpt><trkpt lat="50.774493" lon="15.726571"></trkpt><trkpt lat="50.774324" lon="15.726947"></trkpt><trkpt lat="50.774127" lon="15.727542"></trkpt><trkpt lat="50.773449" lon="15.729196"></trkpt><trkpt lat="50.772904" lon="15.730883"></trkpt><trkpt lat="50.772979" lon="15.731265"></trkpt><trkpt lat="50.773004" lon="15.731645"></trkpt><trkpt lat="50.773173" lon="15.731888"></trkpt><trkpt lat="50.773366" lon="15.731551"></trkpt><trkpt lat="50.773411" lon="15.73122"></trkpt><trkpt lat="50.773549" lon="15.730925"></trkpt><trkpt lat="50.773784" lon="15.730687"></trkpt><trkpt lat="50.774575" lon="15.730049"></trkpt><trkpt lat="50.774768" lon="15.730323"></trkpt><trkpt lat="50.774694" lon="15.73064"></trkpt><trkpt lat="50.77413" lon="15.731801"></trkpt><trkpt lat="50.773857" lon="15.732993"></trkpt><trkpt lat="50.773708" lon="15.734301"></trkpt><trkpt lat="50.773756" lon="15.734653"></trkpt><trkpt lat="50.773931" lon="15.734841"></trkpt><trkpt lat="50.774145" lon="15.734761"></trkpt><trkpt lat="50.774498" lon="15.734226"></trkpt><trkpt lat="50.774659" lon="15.73402"></trkpt><trkpt lat="50.774907" lon="15.733936"></trkpt><trkpt lat="50.775154" lon="15.734149"></trkpt><trkpt lat="50.775215" lon="15.734459"></trkpt><trkpt lat="50.775138" lon="15.734828"></trkpt><trkpt lat="50.774901" lon="15.73562"></trkpt><trkpt lat="50.774807" lon="15.736495"></trkpt><trkpt lat="50.774784" lon="15.737261"></trkpt><trkpt lat="50.774807" lon="15.737629"></trkpt><trkpt lat="50.7749" lon="15.737935"></trkpt><trkpt lat="50.775114" lon="15.73813"></trkpt><trkpt lat="50.775235" lon="15.73839"></trkpt><trkpt lat="50.775001" lon="15.738448"></trkpt><trkpt lat="50.774705" lon="15.738221"></trkpt><trkpt lat="50.774462" lon="15.737767"></trkpt><trkpt lat="50.774311" lon="15.737553"></trkpt><trkpt lat="50.77409" lon="15.737412"></trkpt><trkpt lat="50.773885" lon="15.737572"></trkpt><trkpt lat="50.773789" lon="15.737902"></trkpt><trkpt lat="50.773712" lon="15.738489"></trkpt><trkpt lat="50.773552" lon="15.738735"></trkpt><trkpt lat="50.773555" lon="15.73946"></trkpt><trkpt lat="50.773583" lon="15.739128"></trkpt><trkpt lat="50.773507" lon="15.739641"></trkpt><trkpt lat="50.773551" lon="15.739133"></trkpt><trkpt lat="50.773627" lon="15.738565"></trkpt><trkpt lat="50.773566" lon="15.738897"></trkpt><trkpt lat="50.773603" lon="15.738445"></trkpt><trkpt lat="50.773593" lon="15.738912"></trkpt><trkpt lat="50.77342" lon="15.73914"></trkpt><trkpt lat="50.773636" lon="15.738727"></trkpt><trkpt lat="50.773809" lon="15.738999"></trkpt><trkpt lat="50.774317" lon="15.739631"></trkpt><trkpt lat="50.77454" lon="15.739969"></trkpt><trkpt lat="50.775157" lon="15.741243"></trkpt><trkpt lat="50.775579" lon="15.741703"></trkpt><trkpt lat="50.775891" lon="15.742221"></trkpt><trkpt lat="50.776106" lon="15.742644"></trkpt><trkpt lat="50.776181" lon="15.743043"></trkpt><trkpt lat="50.776207" lon="15.743387"></trkpt><trkpt lat="50.776216" lon="15.743707"></trkpt><trkpt lat="50.77618" lon="15.744037"></trkpt><trkpt lat="50.776102" lon="15.74434"></trkpt><trkpt lat="50.775964" lon="15.744628"></trkpt><trkpt lat="50.775652" lon="15.745137"></trkpt><trkpt lat="50.773291" lon="15.748472"></trkpt><trkpt lat="50.772987" lon="15.74897"></trkpt><trkpt lat="50.772889" lon="15.749389"></trkpt><trkpt lat="50.772892" lon="15.749813"></trkpt><trkpt lat="50.772996" lon="15.750157"></trkpt><trkpt lat="50.773181" lon="15.750485"></trkpt><trkpt lat="50.773344" lon="15.750853"></trkpt><trkpt lat="50.773437" lon="15.751278"></trkpt><trkpt lat="50.773459" lon="15.751624"></trkpt><trkpt lat="50.773718" lon="15.753817"></trkpt><trkpt lat="50.773974" lon="15.753906"></trkpt><trkpt lat="50.774178" lon="15.754263"></trkpt><trkpt lat="50.774266" lon="15.754546"></trkpt><trkpt lat="50.776802" lon="15.760615"></trkpt><trkpt lat="50.777258" lon="15.760952"></trkpt><trkpt lat="50.777722" lon="15.76136"></trkpt><trkpt lat="50.779551" lon="15.762704"></trkpt><trkpt lat="50.779798" lon="15.762818"></trkpt><trkpt lat="50.780153" lon="15.762869"></trkpt><trkpt lat="50.781085" lon="15.762875"></trkpt><trkpt lat="50.78135" lon="15.762426"></trkpt><trkpt lat="50.781546" lon="15.762309"></trkpt><trkpt lat="50.781898" lon="15.762224"></trkpt><trkpt lat="50.782108" lon="15.762111"></trkpt><trkpt lat="50.782741" lon="15.762248"></trkpt><trkpt lat="50.782929" lon="15.762084"></trkpt><trkpt lat="50.783004" lon="15.761773"></trkpt><trkpt lat="50.782793" lon="15.76143"></trkpt><trkpt lat="50.782494" lon="15.761233"></trkpt><trkpt lat="50.782354" lon="15.760955"></trkpt><trkpt lat="50.782415" lon="15.760541"></trkpt><trkpt lat="50.782583" lon="15.759952"></trkpt><trkpt lat="50.782949" lon="15.758246"></trkpt><trkpt lat="50.782669" lon="15.75771"></trkpt><trkpt lat="50.782659" lon="15.757322"></trkpt><trkpt lat="50.782863" lon="15.756326"></trkpt><trkpt lat="50.782982" lon="15.756021"></trkpt><trkpt lat="50.783445" lon="15.755561"></trkpt><trkpt lat="50.78365" lon="15.755287"></trkpt><trkpt lat="50.784077" lon="15.755484"></trkpt><trkpt lat="50.7843" lon="15.75553"></trkpt><trkpt lat="50.784517" lon="15.755544"></trkpt><trkpt lat="50.784762" lon="15.755608"></trkpt><trkpt lat="50.785211" lon="15.755645"></trkpt><trkpt lat="50.785431" lon="15.755571"></trkpt><trkpt lat="50.785634" lon="15.755583"></trkpt><trkpt lat="50.78654" lon="15.755764"></trkpt><trkpt lat="50.786741" lon="15.755851"></trkpt><trkpt lat="50.787151" lon="15.755976"></trkpt><trkpt lat="50.788274" lon="15.755874"></trkpt><trkpt lat="50.790597" lon="15.755372"></trkpt><trkpt lat="50.790931" lon="15.7552"></trkpt><trkpt lat="50.791537" lon="15.754472"></trkpt><trkpt lat="50.791547" lon="15.754057"></trkpt><trkpt lat="50.791381" lon="15.75315"></trkpt><trkpt lat="50.791179" lon="15.752801"></trkpt><trkpt lat="50.790885" lon="15.752137"></trkpt><trkpt lat="50.79079" lon="15.751846"></trkpt><trkpt lat="50.790813" lon="15.751492"></trkpt><trkpt lat="50.791156" lon="15.751225"></trkpt><trkpt lat="50.791361" lon="15.751101"></trkpt><trkpt lat="50.791595" lon="15.750841"></trkpt><trkpt lat="50.7918" lon="15.750399"></trkpt><trkpt lat="50.791839" lon="15.750065"></trkpt><trkpt lat="50.791832" lon="15.749535"></trkpt><trkpt lat="50.791899" lon="15.749138"></trkpt><trkpt lat="50.792008" lon="15.748847"></trkpt><trkpt lat="50.792057" lon="15.748446"></trkpt><trkpt lat="50.792036" lon="15.747955"></trkpt><trkpt lat="50.792123" lon="15.7463"></trkpt><trkpt lat="50.792125" lon="15.745956"></trkpt><trkpt lat="50.792199" lon="15.745297"></trkpt><trkpt lat="50.792301" lon="15.744919"></trkpt><trkpt lat="50.792358" lon="15.744506"></trkpt><trkpt lat="50.792314" lon="15.743975"></trkpt><trkpt lat="50.792245" lon="15.743564"></trkpt><trkpt lat="50.792165" lon="15.74323"></trkpt><trkpt lat="50.79207" lon="15.742915"></trkpt><trkpt lat="50.791979" lon="15.742437"></trkpt><trkpt lat="50.792035" lon="15.74209"></trkpt><trkpt lat="50.792254" lon="15.742106"></trkpt><trkpt lat="50.792434" lon="15.742294"></trkpt><trkpt lat="50.792752" lon="15.742446"></trkpt><trkpt lat="50.792947" lon="15.742617"></trkpt><trkpt lat="50.793183" lon="15.742877"></trkpt><trkpt lat="50.793353" lon="15.743267"></trkpt><trkpt lat="50.793433" lon="15.743578"></trkpt><trkpt lat="50.793806" lon="15.744409"></trkpt><trkpt lat="50.794087" lon="15.744635"></trkpt><trkpt lat="50.794252" lon="15.7449"></trkpt><trkpt lat="50.794486" lon="15.745365"></trkpt><trkpt lat="50.794815" lon="15.746133"></trkpt><trkpt lat="50.795873" lon="15.74817"></trkpt><trkpt lat="50.796285" lon="15.748685"></trkpt><trkpt lat="50.796589" lon="15.748971"></trkpt><trkpt lat="50.797168" lon="15.749248"></trkpt><trkpt lat="50.797796" lon="15.749809"></trkpt><trkpt lat="50.798194" lon="15.750433"></trkpt><trkpt lat="50.798405" lon="15.750987"></trkpt><trkpt lat="50.798451" lon="15.751483"></trkpt><trkpt lat="50.798411" lon="15.751858"></trkpt><trkpt lat="50.798465" lon="15.752604"></trkpt><trkpt lat="50.798699" lon="15.753337"></trkpt><trkpt lat="50.799008" lon="15.754018"></trkpt><trkpt lat="50.799494" lon="15.754672"></trkpt><trkpt lat="50.799945" lon="15.755442"></trkpt><trkpt lat="50.800119" lon="15.755628"></trkpt><trkpt lat="50.800345" lon="15.755678"></trkpt><trkpt lat="50.800904" lon="15.75568"></trkpt><trkpt lat="50.801368" lon="15.755771"></trkpt><trkpt lat="50.801753" lon="15.756216"></trkpt><trkpt lat="50.802414" lon="15.756815"></trkpt><trkpt lat="50.803425" lon="15.757581"></trkpt><trkpt lat="50.803923" lon="15.758032"></trkpt><trkpt lat="50.804187" lon="15.75819"></trkpt><trkpt lat="50.804717" lon="15.758233"></trkpt><trkpt lat="50.805438" lon="15.758032"></trkpt><trkpt lat="50.806398" lon="15.757646"></trkpt><trkpt lat="50.806677" lon="15.757449"></trkpt><trkpt lat="50.80697" lon="15.757424"></trkpt><trkpt lat="50.807552" lon="15.757803"></trkpt><trkpt lat="50.808114" lon="15.758654"></trkpt><trkpt lat="50.808867" lon="15.760029"></trkpt><trkpt lat="50.809095" lon="15.760215"></trkpt><trkpt lat="50.809302" lon="15.760519"></trkpt><trkpt lat="50.809379" lon="15.761296"></trkpt><trkpt lat="50.809632" lon="15.761764"></trkpt><trkpt lat="50.809995" lon="15.761885"></trkpt><trkpt lat="50.811777" lon="15.762744"></trkpt><trkpt lat="50.812183" lon="15.762874"></trkpt><trkpt lat="50.814769" lon="15.76173"></trkpt><trkpt lat="50.81482" lon="15.761341"></trkpt><trkpt lat="50.81499" lon="15.760945"></trkpt><trkpt lat="50.815093" lon="15.760104"></trkpt><trkpt lat="50.81508" lon="15.75972"></trkpt><trkpt lat="50.815128" lon="15.75914"></trkpt><trkpt lat="50.815167" lon="15.757941"></trkpt><trkpt lat="50.815136" lon="15.757169"></trkpt><trkpt lat="50.815186" lon="15.756275"></trkpt><trkpt lat="50.815276" lon="15.755584"></trkpt><trkpt lat="50.815471" lon="15.755523"></trkpt><trkpt lat="50.816005" lon="15.755093"></trkpt><trkpt lat="50.816658" lon="15.754727"></trkpt><trkpt lat="50.816862" lon="15.754582"></trkpt><trkpt lat="50.817023" lon="15.754335"></trkpt><trkpt lat="50.817227" lon="15.753964"></trkpt><trkpt lat="50.817462" lon="15.753659"></trkpt><trkpt lat="50.817898" lon="15.752725"></trkpt><trkpt lat="50.818318" lon="15.752127"></trkpt><trkpt lat="50.818514" lon="15.752055"></trkpt><trkpt lat="50.819317" lon="15.752197"></trkpt><trkpt lat="50.820134" lon="15.752205"></trkpt><trkpt lat="50.819935" lon="15.752144"></trkpt><trkpt lat="50.819231" lon="15.752176"></trkpt><trkpt lat="50.818444" lon="15.751967"></trkpt><trkpt lat="50.818448" lon="15.751638"></trkpt><trkpt lat="50.818678" lon="15.750905"></trkpt><trkpt lat="50.818949" lon="15.749798"></trkpt><trkpt lat="50.819065" lon="15.749087"></trkpt><trkpt lat="50.8193" lon="15.748675"></trkpt><trkpt lat="50.819523" lon="15.748455"></trkpt><trkpt lat="50.820997" lon="15.747382"></trkpt><trkpt lat="50.821521" lon="15.747408"></trkpt><trkpt lat="50.821977" lon="15.747297"></trkpt><trkpt lat="50.822287" lon="15.747317"></trkpt><trkpt lat="50.822525" lon="15.747174"></trkpt><trkpt lat="50.822712" lon="15.747027"></trkpt><trkpt lat="50.822924" lon="15.746991"></trkpt><trkpt lat="50.823165" lon="15.747105"></trkpt><trkpt lat="50.823406" lon="15.747063"></trkpt><trkpt lat="50.823982" lon="15.746221"></trkpt><trkpt lat="50.824951" lon="15.745092"></trkpt><trkpt lat="50.824754" lon="15.74484"></trkpt><trkpt lat="50.823235" lon="15.743308"></trkpt><trkpt lat="50.822793" lon="15.742769"></trkpt><trkpt lat="50.822265" lon="15.742271"></trkpt><trkpt lat="50.821672" lon="15.742138"></trkpt><trkpt lat="50.821461" lon="15.742054"></trkpt><trkpt lat="50.821021" lon="15.741727"></trkpt><trkpt lat="50.820614" lon="15.741559"></trkpt><trkpt lat="50.82016" lon="15.741461"></trkpt><trkpt lat="50.81979" lon="15.741168"></trkpt><trkpt lat="50.819602" lon="15.740845"></trkpt><trkpt lat="50.819432" lon="15.740322"></trkpt><trkpt lat="50.81938" lon="15.739682"></trkpt><trkpt lat="50.819376" lon="15.739205"></trkpt><trkpt lat="50.819444" lon="15.738656"></trkpt><trkpt lat="50.819407" lon="15.73827"></trkpt><trkpt lat="50.81908" lon="15.737896"></trkpt><trkpt lat="50.81869" lon="15.73738"></trkpt><trkpt lat="50.818588" lon="15.736861"></trkpt><trkpt lat="50.818791" lon="15.736318"></trkpt><trkpt lat="50.821153" lon="15.730988"></trkpt><trkpt lat="50.822021" lon="15.729377"></trkpt><trkpt lat="50.823435" lon="15.72722"></trkpt><trkpt lat="50.823891" lon="15.726654"></trkpt><trkpt lat="50.825226" lon="15.725224"></trkpt><trkpt lat="50.82565" lon="15.724841"></trkpt><trkpt lat="50.825778" lon="15.725092"></trkpt><trkpt lat="50.825884" lon="15.725444"></trkpt><trkpt lat="50.826119" lon="15.726001"></trkpt><trkpt lat="50.826777" lon="15.726914"></trkpt><trkpt lat="50.827575" lon="15.727731"></trkpt><trkpt lat="50.827923" lon="15.727866"></trkpt><trkpt lat="50.828672" lon="15.728336"></trkpt><trkpt lat="50.828956" lon="15.728671"></trkpt><trkpt lat="50.829224" lon="15.729075"></trkpt><trkpt lat="50.829447" lon="15.729343"></trkpt><trkpt lat="50.832492" lon="15.732416"></trkpt><trkpt lat="50.832783" lon="15.732539"></trkpt><trkpt lat="50.833077" lon="15.732531"></trkpt><trkpt lat="50.833271" lon="15.732439"></trkpt><trkpt lat="50.834348" lon="15.732222"></trkpt><trkpt lat="50.834627" lon="15.732475"></trkpt><trkpt lat="50.834869" lon="15.732746"></trkpt><trkpt lat="50.835109" lon="15.733105"></trkpt><trkpt lat="50.835674" lon="15.73372"></trkpt><trkpt lat="50.83589" lon="15.734008"></trkpt><trkpt lat="50.836115" lon="15.734172"></trkpt><trkpt lat="50.836524" lon="15.73454"></trkpt><trkpt lat="50.836838" lon="15.734921"></trkpt><trkpt lat="50.837" lon="15.735333"></trkpt><trkpt lat="50.837271" lon="15.736198"></trkpt><trkpt lat="50.838675" lon="15.73983"></trkpt><trkpt lat="50.838887" lon="15.739752"></trkpt><trkpt lat="50.839793" lon="15.738985"></trkpt><trkpt lat="50.840323" lon="15.738614"></trkpt><trkpt lat="50.841031" lon="15.738538"></trkpt><trkpt lat="50.841938" lon="15.738743"></trkpt><trkpt lat="50.842023" lon="15.739029"></trkpt><trkpt lat="50.842085" lon="15.739509"></trkpt><trkpt lat="50.842207" lon="15.739847"></trkpt><trkpt lat="50.842422" lon="15.74005"></trkpt><trkpt lat="50.843316" lon="15.740749"></trkpt><trkpt lat="50.843996" lon="15.740924"></trkpt><trkpt lat="50.84421" lon="15.740895"></trkpt><trkpt lat="50.844547" lon="15.740797"></trkpt><trkpt lat="50.844786" lon="15.740546"></trkpt><trkpt lat="50.845341" lon="15.739433"></trkpt><trkpt lat="50.846179" lon="15.737986"></trkpt><trkpt lat="50.846461" lon="15.737825"></trkpt><trkpt lat="50.846888" lon="15.737649"></trkpt><trkpt lat="50.847079" lon="15.737504"></trkpt><trkpt lat="50.847388" lon="15.73734"></trkpt><trkpt lat="50.8481" lon="15.737624"></trkpt><trkpt lat="50.848322" lon="15.737475"></trkpt><trkpt lat="50.848845" lon="15.736929"></trkpt><trkpt lat="50.84916" lon="15.73643"></trkpt><trkpt lat="50.849686" lon="15.735749"></trkpt><trkpt lat="50.849881" lon="15.735639"></trkpt><trkpt lat="50.850301" lon="15.735494"></trkpt><trkpt lat="50.850496" lon="15.735241"></trkpt><trkpt lat="50.850835" lon="15.734482"></trkpt><trkpt lat="50.851005" lon="15.733815"></trkpt><trkpt lat="50.851246" lon="15.733376"></trkpt><trkpt lat="50.851453" lon="15.733209"></trkpt><trkpt lat="50.852389" lon="15.732836"></trkpt><trkpt lat="50.852603" lon="15.732863"></trkpt><trkpt lat="50.852828" lon="15.732928"></trkpt><trkpt lat="50.853068" lon="15.732893"></trkpt><trkpt lat="50.853297" lon="15.732814"></trkpt><trkpt lat="50.854177" lon="15.732628"></trkpt><trkpt lat="50.854648" lon="15.732441"></trkpt><trkpt lat="50.855096" lon="15.732201"></trkpt><trkpt lat="50.857169" lon="15.73142"></trkpt><trkpt lat="50.858166" lon="15.731941"></trkpt><trkpt lat="50.859076" lon="15.732142"></trkpt><trkpt lat="50.859919" lon="15.732076"></trkpt><trkpt lat="50.860115" lon="15.732257"></trkpt><trkpt lat="50.860523" lon="15.733018"></trkpt><trkpt lat="50.860757" lon="15.733202"></trkpt><trkpt lat="50.861925" lon="15.733533"></trkpt><trkpt lat="50.863085" lon="15.732936"></trkpt><trkpt lat="50.863367" lon="15.732514"></trkpt><trkpt lat="50.86359" lon="15.732453"></trkpt><trkpt lat="50.864088" lon="15.732662"></trkpt><trkpt lat="50.864478" lon="15.732741"></trkpt><trkpt lat="50.865728" lon="15.732853"></trkpt><trkpt lat="50.871892" lon="15.73465"></trkpt><trkpt lat="50.872695" lon="15.735438"></trkpt><trkpt lat="50.876073" lon="15.737953"></trkpt><trkpt lat="50.876696" lon="15.738199"></trkpt><trkpt lat="50.876892" lon="15.738346"></trkpt><trkpt lat="50.877204" lon="15.738698"></trkpt><trkpt lat="50.877887" lon="15.739646"></trkpt><trkpt lat="50.878541" lon="15.740736"></trkpt><trkpt lat="50.879483" lon="15.741996"></trkpt><trkpt lat="50.880108" lon="15.74242"></trkpt><trkpt lat="50.880627" lon="15.742563"></trkpt><trkpt lat="50.881476" lon="15.742579"></trkpt><trkpt lat="50.882216" lon="15.742769"></trkpt><trkpt lat="50.883283" lon="15.743252"></trkpt><trkpt lat="50.883496" lon="15.743589"></trkpt><trkpt lat="50.88379" lon="15.743988"></trkpt><trkpt lat="50.883989" lon="15.744042"></trkpt><trkpt lat="50.884498" lon="15.744024"></trkpt><trkpt lat="50.885192" lon="15.743818"></trkpt><trkpt lat="50.885993" lon="15.743434"></trkpt><trkpt lat="50.886976" lon="15.742697"></trkpt><trkpt lat="50.888962" lon="15.740676"></trkpt><trkpt lat="50.890644" lon="15.738451"></trkpt><trkpt lat="50.891029" lon="15.73771"></trkpt><trkpt lat="50.891216" lon="15.737507"></trkpt><trkpt lat="50.891472" lon="15.73718"></trkpt><trkpt lat="50.891744" lon="15.7369"></trkpt><trkpt lat="50.891906" lon="15.736679"></trkpt><trkpt lat="50.892757" lon="15.735783"></trkpt><trkpt lat="50.893345" lon="15.73544"></trkpt><trkpt lat="50.89707" lon="15.73394"></trkpt><trkpt lat="50.89719" lon="15.734213"></trkpt><trkpt lat="50.903166" lon="15.750173"></trkpt><trkpt lat="50.903142" lon="15.750506"></trkpt><trkpt lat="50.902822" lon="15.751987"></trkpt><trkpt lat="50.902166" lon="15.755895"></trkpt><trkpt lat="50.902441" lon="15.756004"></trkpt></trkseg></trk></gpx>