<?xml version="1.0" encoding="UTF-8" standalone="no" ?><gpx xmlns="http://www.topografix.com/GPX/1/1" xmlns:gpxx="http://www.garmin.com/xmlschemas/GpxExtensions/v3" ><trk><trkseg><trkpt lat="52.392126" lon="16.948525"></trkpt><trkpt lat="52.391879" lon="16.948445"></trkpt><trkpt lat="52.391709" lon="16.948276"></trkpt><trkpt lat="52.391423" lon="16.948035"></trkpt><trkpt lat="52.391088" lon="16.947858"></trkpt><trkpt lat="52.380756" lon="16.94401"></trkpt><trkpt lat="52.380543" lon="16.943968"></trkpt><trkpt lat="52.379845" lon="16.943636"></trkpt><trkpt lat="52.37962" lon="16.943446"></trkpt><trkpt lat="52.37981" lon="16.942739"></trkpt><trkpt lat="52.379952" lon="16.942355"></trkpt><trkpt lat="52.380119" lon="16.941671"></trkpt><trkpt lat="52.380394" lon="16.94099"></trkpt><trkpt lat="52.38145" lon="16.937721"></trkpt><trkpt lat="52.381587" lon="16.937052"></trkpt><trkpt lat="52.381718" lon="16.936191"></trkpt><trkpt lat="52.382546" lon="16.928436"></trkpt><trkpt lat="52.382284" lon="16.928272"></trkpt><trkpt lat="52.382008" lon="16.928153"></trkpt><trkpt lat="52.381857" lon="16.928466"></trkpt><trkpt lat="52.381711" lon="16.928967"></trkpt><trkpt lat="52.381324" lon="16.929869"></trkpt><trkpt lat="52.381075" lon="16.930107"></trkpt><trkpt lat="52.380739" lon="16.930639"></trkpt><trkpt lat="52.380762" lon="16.931045"></trkpt><trkpt lat="52.380834" lon="16.931574"></trkpt><trkpt lat="52.380474" lon="16.931599"></trkpt><trkpt lat="52.380278" lon="16.931483"></trkpt><trkpt lat="52.379933" lon="16.931213"></trkpt><trkpt lat="52.379618" lon="16.931031"></trkpt><trkpt lat="52.379348" lon="16.930802"></trkpt><trkpt lat="52.379093" lon="16.930638"></trkpt><trkpt lat="52.377776" lon="16.929607"></trkpt><trkpt lat="52.377568" lon="16.929396"></trkpt><trkpt lat="52.37597" lon="16.927417"></trkpt><trkpt lat="52.375821" lon="16.927168"></trkpt><trkpt lat="52.374632" lon="16.925446"></trkpt><trkpt lat="52.37426" lon="16.9253"></trkpt><trkpt lat="52.367778" lon="16.921713"></trkpt><trkpt lat="52.3676" lon="16.92108"></trkpt><trkpt lat="52.367191" lon="16.920139"></trkpt><trkpt lat="52.366816" lon="16.919759"></trkpt><trkpt lat="52.366606" lon="16.919509"></trkpt><trkpt lat="52.365514" lon="16.91784"></trkpt><trkpt lat="52.365312" lon="16.917311"></trkpt><trkpt lat="52.36521" lon="16.916903"></trkpt><trkpt lat="52.365021" lon="16.915905"></trkpt><trkpt lat="52.364148" lon="16.912284"></trkpt><trkpt lat="52.36391" lon="16.91215"></trkpt><trkpt lat="52.363726" lon="16.912005"></trkpt><trkpt lat="52.363474" lon="16.911877"></trkpt><trkpt lat="52.362716" lon="16.911394"></trkpt><trkpt lat="52.362274" lon="16.91105"></trkpt><trkpt lat="52.361227" lon="16.910018"></trkpt><trkpt lat="52.36092" lon="16.909662"></trkpt><trkpt lat="52.359795" lon="16.908149"></trkpt><trkpt lat="52.355388" lon="16.903028"></trkpt><trkpt lat="52.355201" lon="16.902846"></trkpt><trkpt lat="52.354846" lon="16.902659"></trkpt><trkpt lat="52.35146" lon="16.900354"></trkpt><trkpt lat="52.351233" lon="16.900049"></trkpt><trkpt lat="52.35107" lon="16.899862"></trkpt><trkpt lat="52.350884" lon="16.899529"></trkpt><trkpt lat="52.350598" lon="16.899136"></trkpt><trkpt lat="52.350352" lon="16.898853"></trkpt><trkpt lat="52.348423" lon="16.896953"></trkpt><trkpt lat="52.348286" lon="16.896677"></trkpt><trkpt lat="52.348028" lon="16.896421"></trkpt><trkpt lat="52.346702" lon="16.895313"></trkpt><trkpt lat="52.346401" lon="16.895133"></trkpt><trkpt lat="52.345312" lon="16.89464"></trkpt><trkpt lat="52.344273" lon="16.894298"></trkpt><trkpt lat="52.344345" lon="16.895298"></trkpt><trkpt lat="52.344362" lon="16.89589"></trkpt><trkpt lat="52.344306" lon="16.899365"></trkpt><trkpt lat="52.343974" lon="16.899314"></trkpt><trkpt lat="52.343636" lon="16.89945"></trkpt><trkpt lat="52.343354" lon="16.8996"></trkpt><trkpt lat="52.342995" lon="16.899624"></trkpt><trkpt lat="52.342433" lon="16.899508"></trkpt><trkpt lat="52.342137" lon="16.899342"></trkpt><trkpt lat="52.338876" lon="16.897978"></trkpt><trkpt lat="52.338596" lon="16.898213"></trkpt><trkpt lat="52.338249" lon="16.898414"></trkpt><trkpt lat="52.337549" lon="16.898724"></trkpt><trkpt lat="52.337187" lon="16.899105"></trkpt><trkpt lat="52.336889" lon="16.899158"></trkpt><trkpt lat="52.336669" lon="16.899163"></trkpt><trkpt lat="52.336498" lon="16.898971"></trkpt><trkpt lat="52.336296" lon="16.898891"></trkpt><trkpt lat="52.336212" lon="16.898352"></trkpt><trkpt lat="52.336092" lon="16.897801"></trkpt><trkpt lat="52.33604" lon="16.897479"></trkpt><trkpt lat="52.335783" lon="16.89704"></trkpt><trkpt lat="52.335474" lon="16.896741"></trkpt><trkpt lat="52.335274" lon="16.89661"></trkpt><trkpt lat="52.335073" lon="16.896541"></trkpt><trkpt lat="52.334656" lon="16.896631"></trkpt><trkpt lat="52.334334" lon="16.896744"></trkpt><trkpt lat="52.333889" lon="16.896982"></trkpt><trkpt lat="52.333718" lon="16.89681"></trkpt><trkpt lat="52.333652" lon="16.896489"></trkpt><trkpt lat="52.333661" lon="16.895899"></trkpt><trkpt lat="52.333646" lon="16.895373"></trkpt><trkpt lat="52.333535" lon="16.894381"></trkpt><trkpt lat="52.333284" lon="16.894079"></trkpt><trkpt lat="52.333045" lon="16.893714"></trkpt><trkpt lat="52.332833" lon="16.893561"></trkpt><trkpt lat="52.332497" lon="16.893497"></trkpt><trkpt lat="52.332278" lon="16.893366"></trkpt><trkpt lat="52.332038" lon="16.893293"></trkpt><trkpt lat="52.332006" lon="16.892826"></trkpt><trkpt lat="52.33213" lon="16.892363"></trkpt><trkpt lat="52.33228" lon="16.891466"></trkpt><trkpt lat="52.331832" lon="16.891087"></trkpt><trkpt lat="52.331477" lon="16.890867"></trkpt><trkpt lat="52.331207" lon="16.890784"></trkpt><trkpt lat="52.331057" lon="16.891075"></trkpt><trkpt lat="52.330863" lon="16.890983"></trkpt><trkpt lat="52.330703" lon="16.891196"></trkpt><trkpt lat="52.330446" lon="16.891257"></trkpt><trkpt lat="52.328389" lon="16.891035"></trkpt><trkpt lat="52.326569" lon="16.8915"></trkpt><trkpt lat="52.326009" lon="16.891876"></trkpt><trkpt lat="52.325812" lon="16.892047"></trkpt><trkpt lat="52.325607" lon="16.892299"></trkpt><trkpt lat="52.325422" lon="16.892433"></trkpt><trkpt lat="52.325022" lon="16.892803"></trkpt><trkpt lat="52.324865" lon="16.893203"></trkpt><trkpt lat="52.324676" lon="16.89349"></trkpt><trkpt lat="52.324464" lon="16.893763"></trkpt><trkpt lat="52.324106" lon="16.894314"></trkpt><trkpt lat="52.323646" lon="16.894786"></trkpt><trkpt lat="52.323341" lon="16.894722"></trkpt><trkpt lat="52.32301" lon="16.894582"></trkpt><trkpt lat="52.322605" lon="16.894616"></trkpt><trkpt lat="52.322411" lon="16.894685"></trkpt><trkpt lat="52.322021" lon="16.89439"></trkpt><trkpt lat="52.321822" lon="16.894298"></trkpt><trkpt lat="52.321637" lon="16.894148"></trkpt><trkpt lat="52.319877" lon="16.892987"></trkpt><trkpt lat="52.319452" lon="16.893411"></trkpt><trkpt lat="52.318735" lon="16.89425"></trkpt><trkpt lat="52.318035" lon="16.895224"></trkpt><trkpt lat="52.317619" lon="16.895709"></trkpt><trkpt lat="52.317424" lon="16.895793"></trkpt><trkpt lat="52.317233" lon="16.895931"></trkpt><trkpt lat="52.316784" lon="16.896187"></trkpt><trkpt lat="52.316396" lon="16.896271"></trkpt><trkpt lat="52.316132" lon="16.896262"></trkpt><trkpt lat="52.315659" lon="16.89639"></trkpt><trkpt lat="52.314987" lon="16.896324"></trkpt><trkpt lat="52.314762" lon="16.896882"></trkpt><trkpt lat="52.314589" lon="16.89714"></trkpt><trkpt lat="52.314402" lon="16.897249"></trkpt><trkpt lat="52.314226" lon="16.897446"></trkpt><trkpt lat="52.313983" lon="16.898138"></trkpt><trkpt lat="52.313927" lon="16.898595"></trkpt><trkpt lat="52.313905" lon="16.898969"></trkpt><trkpt lat="52.313295" lon="16.904485"></trkpt><trkpt lat="52.313041" lon="16.904955"></trkpt><trkpt lat="52.312857" lon="16.905505"></trkpt><trkpt lat="52.312764" lon="16.905961"></trkpt><trkpt lat="52.312612" lon="16.906444"></trkpt><trkpt lat="52.312472" lon="16.906733"></trkpt><trkpt lat="52.312146" lon="16.907158"></trkpt><trkpt lat="52.311503" lon="16.907882"></trkpt><trkpt lat="52.311145" lon="16.908157"></trkpt><trkpt lat="52.310811" lon="16.908337"></trkpt><trkpt lat="52.310435" lon="16.908473"></trkpt><trkpt lat="52.310179" lon="16.908515"></trkpt><trkpt lat="52.30931" lon="16.908493"></trkpt><trkpt lat="52.309109" lon="16.908679"></trkpt><trkpt lat="52.308836" lon="16.908348"></trkpt><trkpt lat="52.308445" lon="16.908115"></trkpt><trkpt lat="52.308218" lon="16.907942"></trkpt><trkpt lat="52.307281" lon="16.907024"></trkpt><trkpt lat="52.307218" lon="16.906551"></trkpt><trkpt lat="52.307147" lon="16.905674"></trkpt><trkpt lat="52.307213" lon="16.90536"></trkpt><trkpt lat="52.30732" lon="16.904998"></trkpt><trkpt lat="52.307455" lon="16.904713"></trkpt><trkpt lat="52.307833" lon="16.903735"></trkpt><trkpt lat="52.30802" lon="16.903478"></trkpt><trkpt lat="52.308244" lon="16.903408"></trkpt><trkpt lat="52.308523" lon="16.903045"></trkpt><trkpt lat="52.308808" lon="16.902896"></trkpt><trkpt lat="52.309009" lon="16.90271"></trkpt><trkpt lat="52.309199" lon="16.902586"></trkpt><trkpt lat="52.309403" lon="16.90249"></trkpt><trkpt lat="52.309867" lon="16.902168"></trkpt><trkpt lat="52.310081" lon="16.901981"></trkpt><trkpt lat="52.310244" lon="16.901751"></trkpt><trkpt lat="52.310804" lon="16.900692"></trkpt><trkpt lat="52.310818" lon="16.900321"></trkpt><trkpt lat="52.310779" lon="16.899905"></trkpt><trkpt lat="52.310692" lon="16.899609"></trkpt><trkpt lat="52.310492" lon="16.899049"></trkpt><trkpt lat="52.310259" lon="16.898685"></trkpt><trkpt lat="52.309808" lon="16.898203"></trkpt><trkpt lat="52.309493" lon="16.898054"></trkpt><trkpt lat="52.309213" lon="16.897983"></trkpt><trkpt lat="52.308699" lon="16.897923"></trkpt><trkpt lat="52.306219" lon="16.897316"></trkpt><trkpt lat="52.306005" lon="16.897175"></trkpt><trkpt lat="52.305766" lon="16.897058"></trkpt><trkpt lat="52.30553" lon="16.896858"></trkpt><trkpt lat="52.30499" lon="16.896302"></trkpt><trkpt lat="52.304682" lon="16.895745"></trkpt><trkpt lat="52.304541" lon="16.895438"></trkpt><trkpt lat="52.304533" lon="16.895096"></trkpt><trkpt lat="52.304568" lon="16.893605"></trkpt><trkpt lat="52.304601" lon="16.893259"></trkpt><trkpt lat="52.304721" lon="16.892995"></trkpt><trkpt lat="52.30483" lon="16.892535"></trkpt><trkpt lat="52.30486" lon="16.892118"></trkpt><trkpt lat="52.304978" lon="16.891712"></trkpt><trkpt lat="52.305314" lon="16.890277"></trkpt><trkpt lat="52.305319" lon="16.88985"></trkpt><trkpt lat="52.305291" lon="16.889449"></trkpt><trkpt lat="52.305063" lon="16.88763"></trkpt><trkpt lat="52.304953" lon="16.88732"></trkpt><trkpt lat="52.304965" lon="16.886982"></trkpt><trkpt lat="52.305198" lon="16.886589"></trkpt><trkpt lat="52.304999" lon="16.886518"></trkpt><trkpt lat="52.304669" lon="16.886217"></trkpt><trkpt lat="52.304495" lon="16.885699"></trkpt><trkpt lat="52.304189" lon="16.885038"></trkpt><trkpt lat="52.303662" lon="16.884109"></trkpt><trkpt lat="52.303479" lon="16.883885"></trkpt><trkpt lat="52.301259" lon="16.880717"></trkpt><trkpt lat="52.301097" lon="16.880354"></trkpt><trkpt lat="52.300064" lon="16.878527"></trkpt><trkpt lat="52.299706" lon="16.878228"></trkpt><trkpt lat="52.299527" lon="16.878027"></trkpt><trkpt lat="52.2993" lon="16.877847"></trkpt><trkpt lat="52.299152" lon="16.877145"></trkpt><trkpt lat="52.299083" lon="16.876519"></trkpt><trkpt lat="52.298928" lon="16.876287"></trkpt><trkpt lat="52.298728" lon="16.876516"></trkpt><trkpt lat="52.298506" lon="16.876447"></trkpt><trkpt lat="52.298171" lon="16.875975"></trkpt><trkpt lat="52.296483" lon="16.873959"></trkpt><trkpt lat="52.296263" lon="16.873849"></trkpt><trkpt lat="52.295916" lon="16.873722"></trkpt><trkpt lat="52.295657" lon="16.873671"></trkpt><trkpt lat="52.294778" lon="16.874031"></trkpt><trkpt lat="52.294619" lon="16.874243"></trkpt><trkpt lat="52.294291" lon="16.874608"></trkpt><trkpt lat="52.293834" lon="16.875018"></trkpt><trkpt lat="52.293633" lon="16.875128"></trkpt><trkpt lat="52.29362" lon="16.874635"></trkpt><trkpt lat="52.293736" lon="16.87401"></trkpt><trkpt lat="52.294487" lon="16.870793"></trkpt><trkpt lat="52.29472" lon="16.870892"></trkpt><trkpt lat="52.294957" lon="16.871051"></trkpt><trkpt lat="52.295144" lon="16.871258"></trkpt><trkpt lat="52.294681" lon="16.870325"></trkpt><trkpt lat="52.294501" lon="16.870144"></trkpt><trkpt lat="52.294504" lon="16.870541"></trkpt><trkpt lat="52.293886" lon="16.870698"></trkpt><trkpt lat="52.293542" lon="16.870734"></trkpt><trkpt lat="52.273848" lon="16.870265"></trkpt><trkpt lat="52.27361" lon="16.870212"></trkpt><trkpt lat="52.273425" lon="16.869982"></trkpt><trkpt lat="52.273144" lon="16.869932"></trkpt><trkpt lat="52.272788" lon="16.869918"></trkpt><trkpt lat="52.272566" lon="16.869687"></trkpt><trkpt lat="52.272303" lon="16.869137"></trkpt><trkpt lat="52.272129" lon="16.868556"></trkpt><trkpt lat="52.271939" lon="16.867726"></trkpt><trkpt lat="52.271959" lon="16.867363"></trkpt><trkpt lat="52.271885" lon="16.866646"></trkpt><trkpt lat="52.271878" lon="16.865582"></trkpt><trkpt lat="52.27193" lon="16.864207"></trkpt><trkpt lat="52.271901" lon="16.863865"></trkpt><trkpt lat="52.271943" lon="16.863433"></trkpt><trkpt lat="52.271954" lon="16.862965"></trkpt><trkpt lat="52.272152" lon="16.863108"></trkpt><trkpt lat="52.271964" lon="16.863268"></trkpt><trkpt lat="52.271929" lon="16.863682"></trkpt><trkpt lat="52.271945" lon="16.864035"></trkpt><trkpt lat="52.271923" lon="16.86456"></trkpt><trkpt lat="52.271931" lon="16.866979"></trkpt><trkpt lat="52.271978" lon="16.867568"></trkpt><trkpt lat="52.272156" lon="16.868521"></trkpt><trkpt lat="52.272188" lon="16.86888"></trkpt><trkpt lat="52.272327" lon="16.869226"></trkpt><trkpt lat="52.272465" lon="16.869461"></trkpt><trkpt lat="52.27265" lon="16.869668"></trkpt><trkpt lat="52.272816" lon="16.869896"></trkpt><trkpt lat="52.273133" lon="16.869933"></trkpt><trkpt lat="52.273567" lon="16.870035"></trkpt><trkpt lat="52.273841" lon="16.870248"></trkpt><trkpt lat="52.274109" lon="16.870417"></trkpt><trkpt lat="52.27646" lon="16.872288"></trkpt><trkpt lat="52.276647" lon="16.872493"></trkpt><trkpt lat="52.27679" lon="16.872803"></trkpt><trkpt lat="52.276813" lon="16.873128"></trkpt><trkpt lat="52.276976" lon="16.873334"></trkpt><trkpt lat="52.277119" lon="16.873566"></trkpt><trkpt lat="52.277389" lon="16.873924"></trkpt><trkpt lat="52.277974" lon="16.87458"></trkpt><trkpt lat="52.278533" lon="16.874932"></trkpt><trkpt lat="52.278797" lon="16.875195"></trkpt><trkpt lat="52.28018" lon="16.8763"></trkpt><trkpt lat="52.280528" lon="16.87647"></trkpt><trkpt lat="52.281236" lon="16.876723"></trkpt><trkpt lat="52.281476" lon="16.876725"></trkpt><trkpt lat="52.284909" lon="16.876284"></trkpt><trkpt lat="52.285007" lon="16.87681"></trkpt><trkpt lat="52.285013" lon="16.877656"></trkpt><trkpt lat="52.285114" lon="16.879272"></trkpt><trkpt lat="52.285661" lon="16.879558"></trkpt><trkpt lat="52.285981" lon="16.879668"></trkpt><trkpt lat="52.286202" lon="16.879786"></trkpt><trkpt lat="52.286543" lon="16.879921"></trkpt><trkpt lat="52.291799" lon="16.881264"></trkpt><trkpt lat="52.292104" lon="16.881141"></trkpt><trkpt lat="52.29238" lon="16.880911"></trkpt><trkpt lat="52.292609" lon="16.880522"></trkpt><trkpt lat="52.292752" lon="16.880114"></trkpt><trkpt lat="52.292954" lon="16.879376"></trkpt><trkpt lat="52.292991" lon="16.87901"></trkpt><trkpt lat="52.293048" lon="16.878647"></trkpt><trkpt lat="52.293245" lon="16.877729"></trkpt><trkpt lat="52.2938" lon="16.875644"></trkpt><trkpt lat="52.293811" lon="16.875263"></trkpt><trkpt lat="52.29415" lon="16.874914"></trkpt><trkpt lat="52.294387" lon="16.874537"></trkpt><trkpt lat="52.294646" lon="16.874233"></trkpt><trkpt lat="52.294877" lon="16.87401"></trkpt><trkpt lat="52.295108" lon="16.873917"></trkpt><trkpt lat="52.296067" lon="16.873794"></trkpt><trkpt lat="52.296341" lon="16.873926"></trkpt><trkpt lat="52.296558" lon="16.873961"></trkpt><trkpt lat="52.296773" lon="16.874102"></trkpt><trkpt lat="52.297126" lon="16.87441"></trkpt><trkpt lat="52.297342" lon="16.874749"></trkpt><trkpt lat="52.297692" lon="16.875204"></trkpt><trkpt lat="52.297831" lon="16.875442"></trkpt><trkpt lat="52.298543" lon="16.876445"></trkpt><trkpt lat="52.298771" lon="16.87643"></trkpt><trkpt lat="52.298982" lon="16.876262"></trkpt><trkpt lat="52.29908" lon="16.876812"></trkpt><trkpt lat="52.299113" lon="16.877199"></trkpt><trkpt lat="52.299196" lon="16.877591"></trkpt><trkpt lat="52.299487" lon="16.877934"></trkpt><trkpt lat="52.299791" lon="16.878181"></trkpt><trkpt lat="52.300356" lon="16.878745"></trkpt><trkpt lat="52.30049" lon="16.879065"></trkpt><trkpt lat="52.300671" lon="16.879415"></trkpt><trkpt lat="52.300901" lon="16.879961"></trkpt><trkpt lat="52.302041" lon="16.882283"></trkpt><trkpt lat="52.302296" lon="16.882602"></trkpt><trkpt lat="52.302488" lon="16.882748"></trkpt><trkpt lat="52.30292" lon="16.883192"></trkpt><trkpt lat="52.303148" lon="16.883478"></trkpt><trkpt lat="52.303975" lon="16.884681"></trkpt><trkpt lat="52.304215" lon="16.885126"></trkpt><trkpt lat="52.304446" lon="16.885691"></trkpt><trkpt lat="52.304589" lon="16.886137"></trkpt><trkpt lat="52.304756" lon="16.886334"></trkpt><trkpt lat="52.305006" lon="16.886381"></trkpt><trkpt lat="52.305151" lon="16.886606"></trkpt><trkpt lat="52.305026" lon="16.886888"></trkpt><trkpt lat="52.304916" lon="16.887191"></trkpt><trkpt lat="52.305041" lon="16.887453"></trkpt><trkpt lat="52.305094" lon="16.887767"></trkpt><trkpt lat="52.305331" lon="16.889745"></trkpt><trkpt lat="52.305312" lon="16.890304"></trkpt><trkpt lat="52.305203" lon="16.890798"></trkpt><trkpt lat="52.305087" lon="16.891127"></trkpt><trkpt lat="52.305019" lon="16.891438"></trkpt><trkpt lat="52.304918" lon="16.891789"></trkpt><trkpt lat="52.304861" lon="16.892584"></trkpt><trkpt lat="52.304616" lon="16.893081"></trkpt><trkpt lat="52.304513" lon="16.893891"></trkpt><trkpt lat="52.304478" lon="16.894887"></trkpt><trkpt lat="52.304486" lon="16.895251"></trkpt><trkpt lat="52.30458" lon="16.895585"></trkpt><trkpt lat="52.304752" lon="16.89593"></trkpt><trkpt lat="52.304916" lon="16.896205"></trkpt><trkpt lat="52.305361" lon="16.896668"></trkpt><trkpt lat="52.305749" lon="16.896972"></trkpt><trkpt lat="52.306164" lon="16.897224"></trkpt><trkpt lat="52.306418" lon="16.897482"></trkpt><trkpt lat="52.306617" lon="16.89757"></trkpt><trkpt lat="52.306862" lon="16.8976"></trkpt><trkpt lat="52.307161" lon="16.89773"></trkpt><trkpt lat="52.307513" lon="16.897793"></trkpt><trkpt lat="52.310419" lon="16.898855"></trkpt><trkpt lat="52.310592" lon="16.899172"></trkpt><trkpt lat="52.310724" lon="16.899517"></trkpt><trkpt lat="52.310958" lon="16.900237"></trkpt><trkpt lat="52.310946" lon="16.900609"></trkpt><trkpt lat="52.310865" lon="16.900945"></trkpt><trkpt lat="52.310693" lon="16.901298"></trkpt><trkpt lat="52.310476" lon="16.901584"></trkpt><trkpt lat="52.310332" lon="16.901831"></trkpt><trkpt lat="52.310005" lon="16.902142"></trkpt><trkpt lat="52.309586" lon="16.902433"></trkpt><trkpt lat="52.309265" lon="16.902612"></trkpt><trkpt lat="52.308936" lon="16.902844"></trkpt><trkpt lat="52.308452" lon="16.903294"></trkpt><trkpt lat="52.308239" lon="16.903413"></trkpt><trkpt lat="52.307895" lon="16.903695"></trkpt><trkpt lat="52.307787" lon="16.904022"></trkpt><trkpt lat="52.307653" lon="16.90435"></trkpt><trkpt lat="52.307163" lon="16.906099"></trkpt><trkpt lat="52.307206" lon="16.906523"></trkpt><trkpt lat="52.307299" lon="16.907125"></trkpt><trkpt lat="52.307621" lon="16.907508"></trkpt><trkpt lat="52.307843" lon="16.907713"></trkpt><trkpt lat="52.30845" lon="16.908174"></trkpt><trkpt lat="52.308651" lon="16.908265"></trkpt><trkpt lat="52.309702" lon="16.9086"></trkpt><trkpt lat="52.310157" lon="16.908545"></trkpt><trkpt lat="52.310577" lon="16.908428"></trkpt><trkpt lat="52.311019" lon="16.908208"></trkpt><trkpt lat="52.311298" lon="16.908033"></trkpt><trkpt lat="52.311473" lon="16.90788"></trkpt><trkpt lat="52.31227" lon="16.907002"></trkpt><trkpt lat="52.312425" lon="16.906781"></trkpt><trkpt lat="52.312595" lon="16.906588"></trkpt><trkpt lat="52.312741" lon="16.906026"></trkpt><trkpt lat="52.313003" lon="16.9052"></trkpt><trkpt lat="52.313202" lon="16.904822"></trkpt><trkpt lat="52.313393" lon="16.90437"></trkpt><trkpt lat="52.313537" lon="16.903898"></trkpt><trkpt lat="52.31357" lon="16.903517"></trkpt><trkpt lat="52.314377" lon="16.897484"></trkpt><trkpt lat="52.314656" lon="16.897191"></trkpt><trkpt lat="52.314949" lon="16.896547"></trkpt><trkpt lat="52.315163" lon="16.896452"></trkpt><trkpt lat="52.315368" lon="16.896423"></trkpt><trkpt lat="52.31746" lon="16.895866"></trkpt><trkpt lat="52.317685" lon="16.89566"></trkpt><trkpt lat="52.317976" lon="16.895321"></trkpt><trkpt lat="52.318181" lon="16.894995"></trkpt><trkpt lat="52.31843" lon="16.894663"></trkpt><trkpt lat="52.318873" lon="16.894165"></trkpt><trkpt lat="52.319102" lon="16.893866"></trkpt><trkpt lat="52.319954" lon="16.89309"></trkpt><trkpt lat="52.320157" lon="16.893183"></trkpt><trkpt lat="52.320375" lon="16.893212"></trkpt><trkpt lat="52.320677" lon="16.89341"></trkpt><trkpt lat="52.320925" lon="16.893615"></trkpt><trkpt lat="52.32109" lon="16.893821"></trkpt><trkpt lat="52.321378" lon="16.894012"></trkpt><trkpt lat="52.322566" lon="16.894634"></trkpt><trkpt lat="52.32274" lon="16.894479"></trkpt><trkpt lat="52.322973" lon="16.894589"></trkpt><trkpt lat="52.323784" lon="16.894724"></trkpt><trkpt lat="52.324131" lon="16.89423"></trkpt><trkpt lat="52.3263" lon="16.891676"></trkpt><trkpt lat="52.326657" lon="16.891444"></trkpt><trkpt lat="52.327241" lon="16.891182"></trkpt><trkpt lat="52.327464" lon="16.891117"></trkpt><trkpt lat="52.328057" lon="16.891084"></trkpt><trkpt lat="52.328739" lon="16.890966"></trkpt><trkpt lat="52.330743" lon="16.891072"></trkpt><trkpt lat="52.330951" lon="16.891028"></trkpt><trkpt lat="52.331211" lon="16.890858"></trkpt><trkpt lat="52.331723" lon="16.891103"></trkpt><trkpt lat="52.332229" lon="16.891467"></trkpt><trkpt lat="52.332182" lon="16.891788"></trkpt><trkpt lat="52.332039" lon="16.893309"></trkpt><trkpt lat="52.332255" lon="16.893407"></trkpt><trkpt lat="52.332545" lon="16.893476"></trkpt><trkpt lat="52.332852" lon="16.893611"></trkpt><trkpt lat="52.333019" lon="16.8938"></trkpt><trkpt lat="52.333234" lon="16.894097"></trkpt><trkpt lat="52.333576" lon="16.894914"></trkpt><trkpt lat="52.333622" lon="16.895434"></trkpt><trkpt lat="52.333638" lon="16.895913"></trkpt><trkpt lat="52.333622" lon="16.896898"></trkpt><trkpt lat="52.333941" lon="16.896918"></trkpt><trkpt lat="52.334132" lon="16.896823"></trkpt><trkpt lat="52.334701" lon="16.896611"></trkpt><trkpt lat="52.335212" lon="16.896631"></trkpt><trkpt lat="52.335445" lon="16.896803"></trkpt><trkpt lat="52.33566" lon="16.897005"></trkpt><trkpt lat="52.335944" lon="16.897362"></trkpt><trkpt lat="52.33607" lon="16.897632"></trkpt><trkpt lat="52.336152" lon="16.898236"></trkpt><trkpt lat="52.336234" lon="16.898677"></trkpt><trkpt lat="52.336353" lon="16.898948"></trkpt><trkpt lat="52.336533" lon="16.899097"></trkpt><trkpt lat="52.336724" lon="16.899191"></trkpt><trkpt lat="52.337037" lon="16.899086"></trkpt><trkpt lat="52.337247" lon="16.899043"></trkpt><trkpt lat="52.337452" lon="16.899197"></trkpt><trkpt lat="52.337633" lon="16.89892"></trkpt><trkpt lat="52.337863" lon="16.898691"></trkpt><trkpt lat="52.33837" lon="16.898373"></trkpt><trkpt lat="52.338656" lon="16.89815"></trkpt><trkpt lat="52.339008" lon="16.897969"></trkpt><trkpt lat="52.339234" lon="16.898027"></trkpt><trkpt lat="52.339619" lon="16.898182"></trkpt><trkpt lat="52.340588" lon="16.898449"></trkpt><trkpt lat="52.341083" lon="16.898798"></trkpt><trkpt lat="52.341334" lon="16.898938"></trkpt><trkpt lat="52.343056" lon="16.899616"></trkpt><trkpt lat="52.343328" lon="16.899567"></trkpt><trkpt lat="52.34377" lon="16.899357"></trkpt><trkpt lat="52.344077" lon="16.899319"></trkpt><trkpt lat="52.344544" lon="16.899503"></trkpt><trkpt lat="52.34488" lon="16.899927"></trkpt><trkpt lat="52.346715" lon="16.901569"></trkpt><trkpt lat="52.347149" lon="16.90153"></trkpt><trkpt lat="52.347374" lon="16.901468"></trkpt><trkpt lat="52.348979" lon="16.901405"></trkpt><trkpt lat="52.350025" lon="16.901235"></trkpt><trkpt lat="52.35021" lon="16.900963"></trkpt><trkpt lat="52.350443" lon="16.900533"></trkpt><trkpt lat="52.350928" lon="16.899964"></trkpt><trkpt lat="52.351141" lon="16.900065"></trkpt><trkpt lat="52.351538" lon="16.900509"></trkpt><trkpt lat="52.351749" lon="16.900803"></trkpt><trkpt lat="52.352024" lon="16.901128"></trkpt><trkpt lat="52.352342" lon="16.901389"></trkpt><trkpt lat="52.352591" lon="16.901547"></trkpt><trkpt lat="52.352905" lon="16.901827"></trkpt><trkpt lat="52.353366" lon="16.901932"></trkpt><trkpt lat="52.353882" lon="16.902201"></trkpt><trkpt lat="52.356891" lon="16.904312"></trkpt><trkpt lat="52.357363" lon="16.904947"></trkpt><trkpt lat="52.363397" lon="16.911852"></trkpt><trkpt lat="52.363593" lon="16.911991"></trkpt><trkpt lat="52.364214" lon="16.912348"></trkpt><trkpt lat="52.364332" lon="16.912718"></trkpt><trkpt lat="52.36441" lon="16.913021"></trkpt><trkpt lat="52.364482" lon="16.91375"></trkpt><trkpt lat="52.364576" lon="16.91421"></trkpt><trkpt lat="52.364768" lon="16.914888"></trkpt><trkpt lat="52.364995" lon="16.915908"></trkpt><trkpt lat="52.365037" lon="16.916227"></trkpt><trkpt lat="52.365183" lon="16.916937"></trkpt><trkpt lat="52.365344" lon="16.917492"></trkpt><trkpt lat="52.365553" lon="16.918054"></trkpt><trkpt lat="52.366008" lon="16.918911"></trkpt><trkpt lat="52.36624" lon="16.919161"></trkpt><trkpt lat="52.367487" lon="16.920879"></trkpt><trkpt lat="52.367669" lon="16.921456"></trkpt><trkpt lat="52.368246" lon="16.922937"></trkpt><trkpt lat="52.368535" lon="16.923081"></trkpt><trkpt lat="52.368772" lon="16.923122"></trkpt><trkpt lat="52.368989" lon="16.923059"></trkpt><trkpt lat="52.369295" lon="16.92301"></trkpt><trkpt lat="52.369514" lon="16.923194"></trkpt><trkpt lat="52.369685" lon="16.923377"></trkpt><trkpt lat="52.370057" lon="16.923612"></trkpt><trkpt lat="52.370358" lon="16.92372"></trkpt><trkpt lat="52.375253" lon="16.926155"></trkpt><trkpt lat="52.375435" lon="16.926502"></trkpt><trkpt lat="52.376796" lon="16.928644"></trkpt><trkpt lat="52.377093" lon="16.929004"></trkpt><trkpt lat="52.377613" lon="16.929509"></trkpt><trkpt lat="52.377889" lon="16.929686"></trkpt><trkpt lat="52.378108" lon="16.929914"></trkpt><trkpt lat="52.378342" lon="16.930116"></trkpt><trkpt lat="52.380899" lon="16.931951"></trkpt><trkpt lat="52.381739" lon="16.932704"></trkpt><trkpt lat="52.381754" lon="16.933478"></trkpt><trkpt lat="52.381742" lon="16.93385"></trkpt><trkpt lat="52.381774" lon="16.934193"></trkpt><trkpt lat="52.382018" lon="16.934321"></trkpt><trkpt lat="52.382262" lon="16.934354"></trkpt><trkpt lat="52.382071" lon="16.935285"></trkpt><trkpt lat="52.381985" lon="16.935833"></trkpt><trkpt lat="52.38179" lon="16.938163"></trkpt><trkpt lat="52.381993" lon="16.937294"></trkpt><trkpt lat="52.382236" lon="16.936892"></trkpt><trkpt lat="52.383039" lon="16.936942"></trkpt><trkpt lat="52.38401" lon="16.937129"></trkpt><trkpt lat="52.384519" lon="16.937344"></trkpt><trkpt lat="52.396497" lon="16.944521"></trkpt><trkpt lat="52.396621" lon="16.944839"></trkpt><trkpt lat="52.396772" lon="16.945067"></trkpt><trkpt lat="52.396797" lon="16.945549"></trkpt><trkpt lat="52.396677" lon="16.946043"></trkpt><trkpt lat="52.395992" lon="16.949567"></trkpt><trkpt lat="52.396222" lon="16.949646"></trkpt><trkpt lat="52.396425" lon="16.949994"></trkpt><trkpt lat="52.396699" lon="16.949935"></trkpt><trkpt lat="52.396813" lon="16.949654"></trkpt><trkpt lat="52.396668" lon="16.949985"></trkpt><trkpt lat="52.396409" lon="16.9501"></trkpt><trkpt lat="52.39637" lon="16.950419"></trkpt><trkpt lat="52.396275" lon="16.950793"></trkpt><trkpt lat="52.396656" lon="16.951291"></trkpt><trkpt lat="52.397004" lon="16.951467"></trkpt><trkpt lat="52.397318" lon="16.951587"></trkpt><trkpt lat="52.397982" lon="16.951997"></trkpt><trkpt lat="52.403728" lon="16.954634"></trkpt><trkpt lat="52.40509" lon="16.954174"></trkpt><trkpt lat="52.406041" lon="16.954279"></trkpt><trkpt lat="52.40664" lon="16.954512"></trkpt><trkpt lat="52.407256" lon="16.954905"></trkpt><trkpt lat="52.408961" lon="16.956226"></trkpt><trkpt lat="52.409316" lon="16.956773"></trkpt><trkpt lat="52.409644" lon="16.957401"></trkpt><trkpt lat="52.410505" lon="16.957649"></trkpt><trkpt lat="52.410785" lon="16.95781"></trkpt><trkpt lat="52.41095" lon="16.95799"></trkpt><trkpt lat="52.411164" lon="16.958114"></trkpt><trkpt lat="52.412143" lon="16.958452"></trkpt><trkpt lat="52.412819" lon="16.957999"></trkpt><trkpt lat="52.413228" lon="16.957599"></trkpt><trkpt lat="52.413459" lon="16.957515"></trkpt><trkpt lat="52.41385" lon="16.95753"></trkpt><trkpt lat="52.414084" lon="16.957612"></trkpt><trkpt lat="52.414273" lon="16.957784"></trkpt><trkpt lat="52.41438" lon="16.95713"></trkpt><trkpt lat="52.414554" lon="16.956839"></trkpt><trkpt lat="52.414652" lon="16.95654"></trkpt><trkpt lat="52.415228" lon="16.956792"></trkpt><trkpt lat="52.415869" lon="16.957339"></trkpt><trkpt lat="52.42749" lon="16.965548"></trkpt><trkpt lat="52.427923" lon="16.964916"></trkpt><trkpt lat="52.430519" lon="16.959935"></trkpt><trkpt lat="52.430421" lon="16.959523"></trkpt><trkpt lat="52.430395" lon="16.959187"></trkpt><trkpt lat="52.430435" lon="16.957857"></trkpt><trkpt lat="52.43058" lon="16.956997"></trkpt><trkpt lat="52.431502" lon="16.952871"></trkpt><trkpt lat="52.431492" lon="16.952455"></trkpt><trkpt lat="52.431568" lon="16.948401"></trkpt><trkpt lat="52.431807" lon="16.947571"></trkpt><trkpt lat="52.432207" lon="16.946474"></trkpt><trkpt lat="52.43539" lon="16.935522"></trkpt><trkpt lat="52.43544" lon="16.934204"></trkpt><trkpt lat="52.435768" lon="16.930873"></trkpt><trkpt lat="52.435852" lon="16.930531"></trkpt><trkpt lat="52.435768" lon="16.930042"></trkpt><trkpt lat="52.435787" lon="16.929021"></trkpt><trkpt lat="52.436336" lon="16.921259"></trkpt><trkpt lat="52.437066" lon="16.921164"></trkpt></trkseg></trk></gpx>