<?xml version="1.0" encoding="UTF-8" standalone="no" ?><gpx xmlns="http://www.topografix.com/GPX/1/1" xmlns:gpxx="http://www.garmin.com/xmlschemas/GpxExtensions/v3" ><trk><trkseg><trkpt lat="52.464487" lon="16.911794"></trkpt><trkpt lat="52.464447" lon="16.91246"></trkpt><trkpt lat="52.464282" lon="16.912816"></trkpt><trkpt lat="52.464007" lon="16.912864"></trkpt><trkpt lat="52.464273" lon="16.912705"></trkpt><trkpt lat="52.464526" lon="16.911831"></trkpt><trkpt lat="52.464978" lon="16.911851"></trkpt><trkpt lat="52.465243" lon="16.911685"></trkpt><trkpt lat="52.465661" lon="16.912201"></trkpt><trkpt lat="52.465941" lon="16.912646"></trkpt><trkpt lat="52.466214" lon="16.913001"></trkpt><trkpt lat="52.46633" lon="16.912527"></trkpt><trkpt lat="52.466422" lon="16.911992"></trkpt><trkpt lat="52.466455" lon="16.911287"></trkpt><trkpt lat="52.466523" lon="16.910806"></trkpt><trkpt lat="52.466667" lon="16.910369"></trkpt><trkpt lat="52.466947" lon="16.909727"></trkpt><trkpt lat="52.467233" lon="16.909208"></trkpt><trkpt lat="52.467632" lon="16.908321"></trkpt><trkpt lat="52.468109" lon="16.90744"></trkpt><trkpt lat="52.471846" lon="16.902238"></trkpt><trkpt lat="52.47233" lon="16.902677"></trkpt><trkpt lat="52.482193" lon="16.90983"></trkpt><trkpt lat="52.483171" lon="16.910304"></trkpt><trkpt lat="52.483821" lon="16.910211"></trkpt><trkpt lat="52.488849" lon="16.908614"></trkpt><trkpt lat="52.489073" lon="16.908323"></trkpt><trkpt lat="52.489182" lon="16.907916"></trkpt><trkpt lat="52.489153" lon="16.907105"></trkpt><trkpt lat="52.489203" lon="16.90526"></trkpt><trkpt lat="52.48926" lon="16.904801"></trkpt><trkpt lat="52.489134" lon="16.903995"></trkpt><trkpt lat="52.486249" lon="16.890554"></trkpt><trkpt lat="52.486254" lon="16.890105"></trkpt><trkpt lat="52.48642" lon="16.889351"></trkpt><trkpt lat="52.486681" lon="16.887676"></trkpt><trkpt lat="52.486703" lon="16.886742"></trkpt><trkpt lat="52.486573" lon="16.882602"></trkpt><trkpt lat="52.48666" lon="16.880374"></trkpt><trkpt lat="52.48691" lon="16.880118"></trkpt><trkpt lat="52.487138" lon="16.879821"></trkpt><trkpt lat="52.487273" lon="16.879408"></trkpt><trkpt lat="52.487659" lon="16.879358"></trkpt><trkpt lat="52.488184" lon="16.878992"></trkpt><trkpt lat="52.491077" lon="16.876454"></trkpt><trkpt lat="52.490839" lon="16.875632"></trkpt><trkpt lat="52.490188" lon="16.871382"></trkpt><trkpt lat="52.490469" lon="16.870202"></trkpt><trkpt lat="52.490623" lon="16.869303"></trkpt><trkpt lat="52.491048" lon="16.867504"></trkpt><trkpt lat="52.491245" lon="16.867069"></trkpt><trkpt lat="52.49131" lon="16.865195"></trkpt><trkpt lat="52.491533" lon="16.862944"></trkpt><trkpt lat="52.491546" lon="16.862379"></trkpt><trkpt lat="52.49174" lon="16.861178"></trkpt><trkpt lat="52.49296" lon="16.856575"></trkpt><trkpt lat="52.493224" lon="16.856307"></trkpt><trkpt lat="52.496847" lon="16.853389"></trkpt><trkpt lat="52.497173" lon="16.854101"></trkpt><trkpt lat="52.499908" lon="16.859065"></trkpt><trkpt lat="52.500341" lon="16.860164"></trkpt><trkpt lat="52.504264" lon="16.872571"></trkpt><trkpt lat="52.504327" lon="16.874037"></trkpt><trkpt lat="52.504156" lon="16.878199"></trkpt><trkpt lat="52.5036" lon="16.877842"></trkpt><trkpt lat="52.503225" lon="16.877675"></trkpt><trkpt lat="52.50357" lon="16.877789"></trkpt><trkpt lat="52.504007" lon="16.878167"></trkpt><trkpt lat="52.504489" lon="16.878339"></trkpt><trkpt lat="52.504541" lon="16.878987"></trkpt><trkpt lat="52.504945" lon="16.88168"></trkpt><trkpt lat="52.505357" lon="16.882852"></trkpt><trkpt lat="52.505794" lon="16.883623"></trkpt><trkpt lat="52.510103" lon="16.88977"></trkpt><trkpt lat="52.511013" lon="16.891332"></trkpt><trkpt lat="52.514303" lon="16.898358"></trkpt><trkpt lat="52.51468" lon="16.899536"></trkpt><trkpt lat="52.518332" lon="16.908341"></trkpt><trkpt lat="52.518952" lon="16.909063"></trkpt><trkpt lat="52.521989" lon="16.911742"></trkpt><trkpt lat="52.522774" lon="16.911717"></trkpt><trkpt lat="52.528947" lon="16.912875"></trkpt><trkpt lat="52.529707" lon="16.913254"></trkpt><trkpt lat="52.530436" lon="16.913777"></trkpt><trkpt lat="52.530853" lon="16.914522"></trkpt><trkpt lat="52.531117" lon="16.915353"></trkpt><trkpt lat="52.53803" lon="16.938788"></trkpt><trkpt lat="52.538483" lon="16.939558"></trkpt><trkpt lat="52.543593" lon="16.946582"></trkpt><trkpt lat="52.543383" lon="16.946883"></trkpt><trkpt lat="52.543125" lon="16.947037"></trkpt><trkpt lat="52.542892" lon="16.947279"></trkpt><trkpt lat="52.543054" lon="16.947954"></trkpt><trkpt lat="52.543202" lon="16.948428"></trkpt><trkpt lat="52.543839" lon="16.948888"></trkpt><trkpt lat="52.544015" lon="16.94943"></trkpt><trkpt lat="52.544041" lon="16.949972"></trkpt><trkpt lat="52.544025" lon="16.950716"></trkpt><trkpt lat="52.543878" lon="16.951161"></trkpt><trkpt lat="52.543568" lon="16.951606"></trkpt><trkpt lat="52.54288" lon="16.952422"></trkpt><trkpt lat="52.541738" lon="16.953204"></trkpt><trkpt lat="52.540497" lon="16.954676"></trkpt><trkpt lat="52.540414" lon="16.955689"></trkpt><trkpt lat="52.540589" lon="16.956798"></trkpt><trkpt lat="52.54132" lon="16.964851"></trkpt><trkpt lat="52.541295" lon="16.965425"></trkpt><trkpt lat="52.541317" lon="16.965959"></trkpt><trkpt lat="52.541252" lon="16.967066"></trkpt><trkpt lat="52.54061" lon="16.972538"></trkpt><trkpt lat="52.540134" lon="16.972831"></trkpt><trkpt lat="52.529409" lon="16.977634"></trkpt><trkpt lat="52.528853" lon="16.977484"></trkpt><trkpt lat="52.512894" lon="16.97563"></trkpt><trkpt lat="52.512516" lon="16.975903"></trkpt><trkpt lat="52.51209" lon="16.976125"></trkpt><trkpt lat="52.511595" lon="16.976228"></trkpt><trkpt lat="52.511438" lon="16.976689"></trkpt><trkpt lat="52.511058" lon="16.977582"></trkpt><trkpt lat="52.51094" lon="16.978007"></trkpt><trkpt lat="52.510417" lon="16.980464"></trkpt><trkpt lat="52.510122" lon="16.982433"></trkpt><trkpt lat="52.508127" lon="16.990982"></trkpt><trkpt lat="52.507599" lon="16.991263"></trkpt><trkpt lat="52.504104" lon="16.993708"></trkpt><trkpt lat="52.503911" lon="16.994048"></trkpt><trkpt lat="52.498708" lon="17.001366"></trkpt><trkpt lat="52.498188" lon="17.001236"></trkpt><trkpt lat="52.497582" lon="17.000973"></trkpt><trkpt lat="52.495104" lon="17.000286"></trkpt><trkpt lat="52.495008" lon="17.000823"></trkpt><trkpt lat="52.494732" lon="17.001595"></trkpt><trkpt lat="52.494096" lon="17.003057"></trkpt><trkpt lat="52.493015" lon="17.004977"></trkpt><trkpt lat="52.492726" lon="17.005033"></trkpt><trkpt lat="52.492425" lon="17.004853"></trkpt><trkpt lat="52.492121" lon="17.004788"></trkpt><trkpt lat="52.491636" lon="17.005029"></trkpt><trkpt lat="52.487173" lon="17.008024"></trkpt><trkpt lat="52.485913" lon="17.008654"></trkpt><trkpt lat="52.485372" lon="17.008612"></trkpt><trkpt lat="52.484785" lon="17.008465"></trkpt><trkpt lat="52.483845" lon="17.00851"></trkpt><trkpt lat="52.483288" lon="17.008717"></trkpt><trkpt lat="52.482879" lon="17.008021"></trkpt><trkpt lat="52.482723" lon="17.007423"></trkpt><trkpt lat="52.482381" lon="17.006412"></trkpt><trkpt lat="52.482087" lon="17.006331"></trkpt><trkpt lat="52.481788" lon="17.006365"></trkpt><trkpt lat="52.481539" lon="17.006143"></trkpt><trkpt lat="52.481398" lon="17.005604"></trkpt><trkpt lat="52.481057" lon="17.006338"></trkpt><trkpt lat="52.480419" lon="17.008073"></trkpt><trkpt lat="52.480169" lon="17.008618"></trkpt><trkpt lat="52.480056" lon="17.009104"></trkpt><trkpt lat="52.479847" lon="17.010376"></trkpt><trkpt lat="52.480019" lon="17.010747"></trkpt><trkpt lat="52.47972" lon="17.010246"></trkpt><trkpt lat="52.479655" lon="17.009782"></trkpt><trkpt lat="52.478999" lon="17.00655"></trkpt><trkpt lat="52.478753" lon="17.005633"></trkpt><trkpt lat="52.478726" lon="17.005135"></trkpt><trkpt lat="52.478633" lon="17.0045"></trkpt><trkpt lat="52.478805" lon="17.004115"></trkpt><trkpt lat="52.479035" lon="17.003845"></trkpt><trkpt lat="52.479253" lon="17.003483"></trkpt><trkpt lat="52.478885" lon="17.002731"></trkpt><trkpt lat="52.478348" lon="17.002216"></trkpt><trkpt lat="52.477594" lon="17.001635"></trkpt><trkpt lat="52.477018" lon="17.001029"></trkpt><trkpt lat="52.476733" lon="17.000645"></trkpt><trkpt lat="52.47632" lon="16.999958"></trkpt><trkpt lat="52.474917" lon="16.998258"></trkpt><trkpt lat="52.474343" lon="16.997845"></trkpt><trkpt lat="52.473733" lon="16.997538"></trkpt><trkpt lat="52.473373" lon="16.99728"></trkpt><trkpt lat="52.473039" lon="16.99689"></trkpt><trkpt lat="52.472407" lon="16.995557"></trkpt><trkpt lat="52.46744" lon="16.98733"></trkpt><trkpt lat="52.467187" lon="16.98698"></trkpt><trkpt lat="52.466568" lon="16.985654"></trkpt><trkpt lat="52.466236" lon="16.984755"></trkpt><trkpt lat="52.46621" lon="16.984307"></trkpt><trkpt lat="52.466068" lon="16.983882"></trkpt><trkpt lat="52.465525" lon="16.983196"></trkpt><trkpt lat="52.465034" lon="16.982384"></trkpt><trkpt lat="52.464836" lon="16.981798"></trkpt><trkpt lat="52.465158" lon="16.981699"></trkpt><trkpt lat="52.465448" lon="16.981731"></trkpt><trkpt lat="52.46501" lon="16.981711"></trkpt><trkpt lat="52.464669" lon="16.981624"></trkpt><trkpt lat="52.46429" lon="16.981629"></trkpt><trkpt lat="52.463967" lon="16.981785"></trkpt><trkpt lat="52.456036" lon="16.984269"></trkpt><trkpt lat="52.454016" lon="16.984501"></trkpt><trkpt lat="52.438279" lon="16.981521"></trkpt><trkpt lat="52.437903" lon="16.981378"></trkpt><trkpt lat="52.437703" lon="16.981027"></trkpt><trkpt lat="52.437459" lon="16.980821"></trkpt><trkpt lat="52.437151" lon="16.980842"></trkpt><trkpt lat="52.436575" lon="16.980713"></trkpt><trkpt lat="52.42668" lon="16.976417"></trkpt><trkpt lat="52.426706" lon="16.975919"></trkpt><trkpt lat="52.426855" lon="16.974802"></trkpt><trkpt lat="52.426961" lon="16.973342"></trkpt><trkpt lat="52.428107" lon="16.965167"></trkpt><trkpt lat="52.428443" lon="16.964693"></trkpt><trkpt lat="52.437831" lon="16.953656"></trkpt><trkpt lat="52.438069" lon="16.953885"></trkpt><trkpt lat="52.439411" lon="16.954788"></trkpt><trkpt lat="52.43939" lon="16.955278"></trkpt><trkpt lat="52.43969" lon="16.955465"></trkpt><trkpt lat="52.440412" lon="16.955732"></trkpt><trkpt lat="52.440547" lon="16.955023"></trkpt><trkpt lat="52.440516" lon="16.954492"></trkpt><trkpt lat="52.440612" lon="16.95347"></trkpt><trkpt lat="52.440635" lon="16.952867"></trkpt><trkpt lat="52.440774" lon="16.951867"></trkpt><trkpt lat="52.441339" lon="16.951723"></trkpt><trkpt lat="52.441782" lon="16.951722"></trkpt><trkpt lat="52.442915" lon="16.951905"></trkpt><trkpt lat="52.446455" lon="16.950389"></trkpt><trkpt lat="52.446501" lon="16.949704"></trkpt><trkpt lat="52.446801" lon="16.947325"></trkpt><trkpt lat="52.447124" lon="16.947461"></trkpt><trkpt lat="52.447092" lon="16.94692"></trkpt><trkpt lat="52.447266" lon="16.946423"></trkpt><trkpt lat="52.447522" lon="16.94627"></trkpt><trkpt lat="52.447945" lon="16.946273"></trkpt><trkpt lat="52.450446" lon="16.94574"></trkpt><trkpt lat="52.450897" lon="16.945279"></trkpt><trkpt lat="52.462481" lon="16.930657"></trkpt><trkpt lat="52.462676" lon="16.929694"></trkpt><trkpt lat="52.462881" lon="16.928038"></trkpt><trkpt lat="52.462898" lon="16.927278"></trkpt><trkpt lat="52.463516" lon="16.921262"></trkpt><trkpt lat="52.463782" lon="16.921166"></trkpt><trkpt lat="52.463792" lon="16.920299"></trkpt><trkpt lat="52.46392" lon="16.919236"></trkpt><trkpt lat="52.464131" lon="16.918169"></trkpt><trkpt lat="52.464495" lon="16.918426"></trkpt><trkpt lat="52.464783" lon="16.918577"></trkpt><trkpt lat="52.465085" lon="16.917694"></trkpt><trkpt lat="52.465238" lon="16.916964"></trkpt><trkpt lat="52.464903" lon="16.916779"></trkpt><trkpt lat="52.464362" lon="16.91627"></trkpt><trkpt lat="52.464372" lon="16.915539"></trkpt><trkpt lat="52.464458" lon="16.914327"></trkpt><trkpt lat="52.46446" lon="16.913804"></trkpt><trkpt lat="52.464306" lon="16.912934"></trkpt><trkpt lat="52.464513" lon="16.911884"></trkpt><trkpt lat="52.464344" lon="16.911373"></trkpt><trkpt lat="52.464246" lon="16.910642"></trkpt><trkpt lat="52.464226" lon="16.910109"></trkpt><trkpt lat="52.46406" lon="16.909159"></trkpt><trkpt lat="52.461647" lon="16.909337"></trkpt></trkseg></trk></gpx>