<?xml version="1.0" encoding="UTF-8" standalone="no" ?><gpx xmlns="http://www.topografix.com/GPX/1/1" xmlns:gpxx="http://www.garmin.com/xmlschemas/GpxExtensions/v3" ><trk><trkseg><trkpt lat="50.820795" lon="15.521368"></trkpt><trkpt lat="50.820663" lon="15.521116"></trkpt><trkpt lat="50.820501" lon="15.521363"></trkpt><trkpt lat="50.820634" lon="15.521819"></trkpt><trkpt lat="50.8208" lon="15.522194"></trkpt><trkpt lat="50.821008" lon="15.522456"></trkpt><trkpt lat="50.821639" lon="15.52341"></trkpt><trkpt lat="50.821695" lon="15.52379"></trkpt><trkpt lat="50.821748" lon="15.524552"></trkpt><trkpt lat="50.821939" lon="15.525335"></trkpt><trkpt lat="50.821968" lon="15.525663"></trkpt><trkpt lat="50.82207" lon="15.526331"></trkpt><trkpt lat="50.822151" lon="15.526682"></trkpt><trkpt lat="50.822362" lon="15.526651"></trkpt><trkpt lat="50.82256" lon="15.526559"></trkpt><trkpt lat="50.822818" lon="15.526737"></trkpt><trkpt lat="50.823063" lon="15.527092"></trkpt><trkpt lat="50.823269" lon="15.527326"></trkpt><trkpt lat="50.823538" lon="15.527541"></trkpt><trkpt lat="50.823912" lon="15.527091"></trkpt><trkpt lat="50.824206" lon="15.527166"></trkpt><trkpt lat="50.824038" lon="15.526929"></trkpt><trkpt lat="50.823887" lon="15.526672"></trkpt><trkpt lat="50.824044" lon="15.526877"></trkpt><trkpt lat="50.824293" lon="15.52648"></trkpt><trkpt lat="50.824733" lon="15.526041"></trkpt><trkpt lat="50.825349" lon="15.525269"></trkpt><trkpt lat="50.825989" lon="15.524581"></trkpt><trkpt lat="50.826114" lon="15.524241"></trkpt><trkpt lat="50.826189" lon="15.523915"></trkpt><trkpt lat="50.82627" lon="15.523414"></trkpt><trkpt lat="50.826364" lon="15.523005"></trkpt><trkpt lat="50.826606" lon="15.522672"></trkpt><trkpt lat="50.826793" lon="15.522847"></trkpt><trkpt lat="50.826803" lon="15.523165"></trkpt><trkpt lat="50.827124" lon="15.524234"></trkpt><trkpt lat="50.827482" lon="15.525206"></trkpt><trkpt lat="50.827642" lon="15.524478"></trkpt><trkpt lat="50.827542" lon="15.523861"></trkpt><trkpt lat="50.827356" lon="15.52322"></trkpt><trkpt lat="50.826962" lon="15.521131"></trkpt><trkpt lat="50.827098" lon="15.520553"></trkpt><trkpt lat="50.827298" lon="15.520286"></trkpt><trkpt lat="50.827566" lon="15.520042"></trkpt><trkpt lat="50.828101" lon="15.519427"></trkpt><trkpt lat="50.828378" lon="15.519035"></trkpt><trkpt lat="50.828676" lon="15.518764"></trkpt><trkpt lat="50.828931" lon="15.518658"></trkpt><trkpt lat="50.829299" lon="15.518422"></trkpt><trkpt lat="50.829579" lon="15.518149"></trkpt><trkpt lat="50.829814" lon="15.51801"></trkpt><trkpt lat="50.830481" lon="15.518293"></trkpt><trkpt lat="50.830685" lon="15.518418"></trkpt><trkpt lat="50.830915" lon="15.518745"></trkpt><trkpt lat="50.831104" lon="15.51906"></trkpt><trkpt lat="50.831165" lon="15.519415"></trkpt><trkpt lat="50.831191" lon="15.519827"></trkpt><trkpt lat="50.831184" lon="15.520238"></trkpt><trkpt lat="50.831314" lon="15.521203"></trkpt><trkpt lat="50.831511" lon="15.521114"></trkpt><trkpt lat="50.831629" lon="15.520809"></trkpt><trkpt lat="50.831832" lon="15.520799"></trkpt><trkpt lat="50.832023" lon="15.520941"></trkpt><trkpt lat="50.832376" lon="15.521113"></trkpt><trkpt lat="50.832658" lon="15.521205"></trkpt><trkpt lat="50.832981" lon="15.521354"></trkpt><trkpt lat="50.834515" lon="15.522283"></trkpt><trkpt lat="50.835361" lon="15.522674"></trkpt><trkpt lat="50.836588" lon="15.521807"></trkpt><trkpt lat="50.838404" lon="15.520219"></trkpt><trkpt lat="50.838651" lon="15.519752"></trkpt><trkpt lat="50.838801" lon="15.519417"></trkpt><trkpt lat="50.839296" lon="15.518818"></trkpt><trkpt lat="50.839577" lon="15.518921"></trkpt><trkpt lat="50.839827" lon="15.519077"></trkpt><trkpt lat="50.840002" lon="15.519224"></trkpt><trkpt lat="50.840595" lon="15.519867"></trkpt><trkpt lat="50.840672" lon="15.51956"></trkpt><trkpt lat="50.840645" lon="15.519235"></trkpt><trkpt lat="50.840514" lon="15.518845"></trkpt><trkpt lat="50.839557" lon="15.516691"></trkpt><trkpt lat="50.839352" lon="15.516545"></trkpt><trkpt lat="50.838798" lon="15.515993"></trkpt><trkpt lat="50.838686" lon="15.515556"></trkpt><trkpt lat="50.838615" lon="15.515167"></trkpt><trkpt lat="50.83835" lon="15.513142"></trkpt><trkpt lat="50.838619" lon="15.512999"></trkpt><trkpt lat="50.838839" lon="15.513027"></trkpt><trkpt lat="50.8397" lon="15.512786"></trkpt><trkpt lat="50.839914" lon="15.512475"></trkpt><trkpt lat="50.840214" lon="15.511933"></trkpt><trkpt lat="50.840347" lon="15.511559"></trkpt><trkpt lat="50.840611" lon="15.51094"></trkpt><trkpt lat="50.84072" lon="15.510588"></trkpt><trkpt lat="50.840839" lon="15.510309"></trkpt><trkpt lat="50.84114" lon="15.509778"></trkpt><trkpt lat="50.841349" lon="15.509518"></trkpt><trkpt lat="50.841318" lon="15.509034"></trkpt><trkpt lat="50.841324" lon="15.508634"></trkpt><trkpt lat="50.841387" lon="15.507646"></trkpt><trkpt lat="50.841508" lon="15.506534"></trkpt><trkpt lat="50.841625" lon="15.505903"></trkpt><trkpt lat="50.842718" lon="15.497972"></trkpt><trkpt lat="50.842648" lon="15.497641"></trkpt><trkpt lat="50.842533" lon="15.497225"></trkpt><trkpt lat="50.842126" lon="15.495369"></trkpt><trkpt lat="50.842077" lon="15.494969"></trkpt><trkpt lat="50.842037" lon="15.49438"></trkpt><trkpt lat="50.841972" lon="15.489804"></trkpt><trkpt lat="50.842019" lon="15.489338"></trkpt><trkpt lat="50.842257" lon="15.484976"></trkpt><trkpt lat="50.842206" lon="15.484349"></trkpt><trkpt lat="50.842053" lon="15.48323"></trkpt><trkpt lat="50.841918" lon="15.482656"></trkpt><trkpt lat="50.842134" lon="15.482164"></trkpt><trkpt lat="50.842303" lon="15.481896"></trkpt><trkpt lat="50.842567" lon="15.481642"></trkpt><trkpt lat="50.842739" lon="15.481423"></trkpt><trkpt lat="50.842921" lon="15.48127"></trkpt><trkpt lat="50.843198" lon="15.480976"></trkpt><trkpt lat="50.843387" lon="15.480522"></trkpt><trkpt lat="50.843516" lon="15.480061"></trkpt><trkpt lat="50.843621" lon="15.479748"></trkpt><trkpt lat="50.843836" lon="15.479446"></trkpt><trkpt lat="50.843978" lon="15.479082"></trkpt><trkpt lat="50.84408" lon="15.47868"></trkpt><trkpt lat="50.844238" lon="15.478373"></trkpt><trkpt lat="50.844316" lon="15.478066"></trkpt><trkpt lat="50.844509" lon="15.477455"></trkpt><trkpt lat="50.844647" lon="15.477173"></trkpt><trkpt lat="50.844819" lon="15.476762"></trkpt><trkpt lat="50.845027" lon="15.476168"></trkpt><trkpt lat="50.845095" lon="15.475835"></trkpt><trkpt lat="50.845319" lon="15.474288"></trkpt><trkpt lat="50.845431" lon="15.4738"></trkpt><trkpt lat="50.845652" lon="15.473306"></trkpt><trkpt lat="50.845751" lon="15.472965"></trkpt><trkpt lat="50.84629" lon="15.47156"></trkpt><trkpt lat="50.846333" lon="15.47091"></trkpt><trkpt lat="50.846313" lon="15.469065"></trkpt><trkpt lat="50.846332" lon="15.468687"></trkpt><trkpt lat="50.846378" lon="15.468204"></trkpt><trkpt lat="50.846555" lon="15.467432"></trkpt><trkpt lat="50.846627" lon="15.466837"></trkpt><trkpt lat="50.846625" lon="15.466158"></trkpt><trkpt lat="50.846719" lon="15.464966"></trkpt><trkpt lat="50.84678" lon="15.464657"></trkpt><trkpt lat="50.846839" lon="15.464091"></trkpt><trkpt lat="50.846681" lon="15.463273"></trkpt><trkpt lat="50.846383" lon="15.461225"></trkpt><trkpt lat="50.846424" lon="15.459841"></trkpt><trkpt lat="50.846743" lon="15.455557"></trkpt><trkpt lat="50.846803" lon="15.455204"></trkpt><trkpt lat="50.848616" lon="15.447224"></trkpt><trkpt lat="50.848783" lon="15.446839"></trkpt><trkpt lat="50.848917" lon="15.446424"></trkpt><trkpt lat="50.849065" lon="15.44586"></trkpt><trkpt lat="50.849138" lon="15.445515"></trkpt><trkpt lat="50.849202" lon="15.444995"></trkpt><trkpt lat="50.849229" lon="15.444351"></trkpt><trkpt lat="50.849212" lon="15.443562"></trkpt><trkpt lat="50.849318" lon="15.443264"></trkpt><trkpt lat="50.84941" lon="15.443573"></trkpt><trkpt lat="50.850246" lon="15.445894"></trkpt><trkpt lat="50.850469" lon="15.445769"></trkpt><trkpt lat="50.850662" lon="15.445843"></trkpt><trkpt lat="50.850523" lon="15.445613"></trkpt><trkpt lat="50.850211" lon="15.445878"></trkpt><trkpt lat="50.849983" lon="15.445611"></trkpt><trkpt lat="50.849805" lon="15.445035"></trkpt><trkpt lat="50.849517" lon="15.443856"></trkpt><trkpt lat="50.849177" lon="15.442986"></trkpt><trkpt lat="50.849001" lon="15.442085"></trkpt><trkpt lat="50.848274" lon="15.439337"></trkpt><trkpt lat="50.847903" lon="15.438805"></trkpt><trkpt lat="50.846896" lon="15.436992"></trkpt><trkpt lat="50.846797" lon="15.43642"></trkpt><trkpt lat="50.846101" lon="15.433403"></trkpt><trkpt lat="50.845916" lon="15.433196"></trkpt><trkpt lat="50.845608" lon="15.432734"></trkpt><trkpt lat="50.844202" lon="15.431097"></trkpt><trkpt lat="50.843448" lon="15.4306"></trkpt><trkpt lat="50.842619" lon="15.429933"></trkpt><trkpt lat="50.841567" lon="15.429399"></trkpt><trkpt lat="50.840246" lon="15.428351"></trkpt><trkpt lat="50.840099" lon="15.428075"></trkpt><trkpt lat="50.840002" lon="15.427723"></trkpt><trkpt lat="50.839931" lon="15.427188"></trkpt><trkpt lat="50.839903" lon="15.426142"></trkpt><trkpt lat="50.839919" lon="15.425704"></trkpt><trkpt lat="50.839878" lon="15.425"></trkpt><trkpt lat="50.839384" lon="15.421208"></trkpt><trkpt lat="50.839191" lon="15.420925"></trkpt><trkpt lat="50.838698" lon="15.420522"></trkpt><trkpt lat="50.837665" lon="15.41946"></trkpt><trkpt lat="50.837439" lon="15.419069"></trkpt><trkpt lat="50.837275" lon="15.418834"></trkpt><trkpt lat="50.8372" lon="15.418518"></trkpt><trkpt lat="50.837094" lon="15.418211"></trkpt><trkpt lat="50.836876" lon="15.4177"></trkpt><trkpt lat="50.836564" lon="15.417089"></trkpt><trkpt lat="50.836357" lon="15.416748"></trkpt><trkpt lat="50.835738" lon="15.415539"></trkpt><trkpt lat="50.835623" lon="15.415241"></trkpt><trkpt lat="50.835494" lon="15.414957"></trkpt><trkpt lat="50.835344" lon="15.414532"></trkpt><trkpt lat="50.835245" lon="15.414117"></trkpt><trkpt lat="50.834664" lon="15.412541"></trkpt><trkpt lat="50.834109" lon="15.411922"></trkpt><trkpt lat="50.833806" lon="15.411327"></trkpt><trkpt lat="50.832985" lon="15.409253"></trkpt><trkpt lat="50.832859" lon="15.408701"></trkpt><trkpt lat="50.832394" lon="15.407077"></trkpt><trkpt lat="50.832199" lon="15.406671"></trkpt><trkpt lat="50.832038" lon="15.406446"></trkpt><trkpt lat="50.831797" lon="15.406171"></trkpt><trkpt lat="50.830662" lon="15.40511"></trkpt><trkpt lat="50.829773" lon="15.404499"></trkpt><trkpt lat="50.829283" lon="15.404493"></trkpt><trkpt lat="50.828835" lon="15.404429"></trkpt><trkpt lat="50.82855" lon="15.404073"></trkpt><trkpt lat="50.828287" lon="15.403543"></trkpt><trkpt lat="50.828188" lon="15.403221"></trkpt><trkpt lat="50.82754" lon="15.400637"></trkpt><trkpt lat="50.827515" lon="15.40021"></trkpt><trkpt lat="50.827411" lon="15.399299"></trkpt><trkpt lat="50.827452" lon="15.398268"></trkpt><trkpt lat="50.827433" lon="15.394253"></trkpt><trkpt lat="50.826961" lon="15.389004"></trkpt><trkpt lat="50.826643" lon="15.38823"></trkpt><trkpt lat="50.82647" lon="15.387704"></trkpt><trkpt lat="50.826036" lon="15.386631"></trkpt><trkpt lat="50.825856" lon="15.386353"></trkpt><trkpt lat="50.825272" lon="15.385876"></trkpt><trkpt lat="50.824606" lon="15.385729"></trkpt><trkpt lat="50.824008" lon="15.385782"></trkpt><trkpt lat="50.822787" lon="15.386029"></trkpt><trkpt lat="50.821339" lon="15.386491"></trkpt><trkpt lat="50.82092" lon="15.386577"></trkpt><trkpt lat="50.82042" lon="15.386776"></trkpt><trkpt lat="50.820024" lon="15.386877"></trkpt><trkpt lat="50.818446" lon="15.387485"></trkpt><trkpt lat="50.817935" lon="15.387833"></trkpt><trkpt lat="50.817425" lon="15.388094"></trkpt><trkpt lat="50.817033" lon="15.388232"></trkpt><trkpt lat="50.816555" lon="15.387976"></trkpt><trkpt lat="50.816382" lon="15.387757"></trkpt><trkpt lat="50.81621" lon="15.387432"></trkpt><trkpt lat="50.816092" lon="15.387171"></trkpt><trkpt lat="50.815725" lon="15.38672"></trkpt><trkpt lat="50.815608" lon="15.386465"></trkpt><trkpt lat="50.815467" lon="15.38601"></trkpt><trkpt lat="50.814873" lon="15.383669"></trkpt><trkpt lat="50.814852" lon="15.383309"></trkpt><trkpt lat="50.814893" lon="15.382985"></trkpt><trkpt lat="50.815108" lon="15.383"></trkpt><trkpt lat="50.815578" lon="15.382177"></trkpt><trkpt lat="50.81586" lon="15.381887"></trkpt><trkpt lat="50.816977" lon="15.380985"></trkpt><trkpt lat="50.817228" lon="15.380875"></trkpt><trkpt lat="50.820457" lon="15.37903"></trkpt><trkpt lat="50.821189" lon="15.378472"></trkpt><trkpt lat="50.835241" lon="15.369635"></trkpt><trkpt lat="50.835768" lon="15.36938"></trkpt><trkpt lat="50.841859" lon="15.367193"></trkpt><trkpt lat="50.842094" lon="15.367222"></trkpt><trkpt lat="50.846456" lon="15.366075"></trkpt><trkpt lat="50.846603" lon="15.365806"></trkpt><trkpt lat="50.84667" lon="15.365495"></trkpt><trkpt lat="50.84704" lon="15.364149"></trkpt><trkpt lat="50.847219" lon="15.363794"></trkpt><trkpt lat="50.847672" lon="15.362644"></trkpt><trkpt lat="50.848817" lon="15.360799"></trkpt><trkpt lat="50.849142" lon="15.360514"></trkpt><trkpt lat="50.849495" lon="15.360142"></trkpt><trkpt lat="50.850188" lon="15.359537"></trkpt><trkpt lat="50.850409" lon="15.359418"></trkpt><trkpt lat="50.850741" lon="15.359311"></trkpt><trkpt lat="50.853958" lon="15.358707"></trkpt><trkpt lat="50.854008" lon="15.359089"></trkpt><trkpt lat="50.8541" lon="15.359446"></trkpt><trkpt lat="50.854255" lon="15.359748"></trkpt><trkpt lat="50.854658" lon="15.360658"></trkpt><trkpt lat="50.854627" lon="15.361035"></trkpt><trkpt lat="50.8547" lon="15.360656"></trkpt><trkpt lat="50.854483" lon="15.360204"></trkpt><trkpt lat="50.854401" lon="15.359884"></trkpt><trkpt lat="50.854389" lon="15.359562"></trkpt><trkpt lat="50.85441" lon="15.359168"></trkpt><trkpt lat="50.854498" lon="15.358396"></trkpt><trkpt lat="50.854656" lon="15.358182"></trkpt><trkpt lat="50.855171" lon="15.357992"></trkpt><trkpt lat="50.859503" lon="15.35695"></trkpt><trkpt lat="50.85973" lon="15.357051"></trkpt><trkpt lat="50.86014" lon="15.357172"></trkpt><trkpt lat="50.860505" lon="15.356962"></trkpt><trkpt lat="50.860685" lon="15.356704"></trkpt><trkpt lat="50.860951" lon="15.356473"></trkpt><trkpt lat="50.861608" lon="15.356062"></trkpt><trkpt lat="50.86195" lon="15.355952"></trkpt><trkpt lat="50.862163" lon="15.355855"></trkpt><trkpt lat="50.86378" lon="15.354821"></trkpt><trkpt lat="50.863982" lon="15.354597"></trkpt><trkpt lat="50.864366" lon="15.354299"></trkpt><trkpt lat="50.864648" lon="15.354452"></trkpt><trkpt lat="50.864932" lon="15.35473"></trkpt><trkpt lat="50.86642" lon="15.355881"></trkpt><trkpt lat="50.866762" lon="15.355746"></trkpt><trkpt lat="50.8674" lon="15.355222"></trkpt><trkpt lat="50.868068" lon="15.354839"></trkpt><trkpt lat="50.868401" lon="15.354798"></trkpt><trkpt lat="50.868629" lon="15.354704"></trkpt><trkpt lat="50.868932" lon="15.354625"></trkpt><trkpt lat="50.869132" lon="15.354601"></trkpt><trkpt lat="50.869379" lon="15.354505"></trkpt><trkpt lat="50.869609" lon="15.354292"></trkpt><trkpt lat="50.870121" lon="15.353904"></trkpt><trkpt lat="50.871245" lon="15.352874"></trkpt><trkpt lat="50.871472" lon="15.352551"></trkpt><trkpt lat="50.871754" lon="15.352082"></trkpt><trkpt lat="50.871893" lon="15.351796"></trkpt><trkpt lat="50.871999" lon="15.351463"></trkpt><trkpt lat="50.872059" lon="15.351163"></trkpt><trkpt lat="50.87218" lon="15.350771"></trkpt><trkpt lat="50.872433" lon="15.349686"></trkpt><trkpt lat="50.872499" lon="15.349119"></trkpt><trkpt lat="50.872553" lon="15.348351"></trkpt><trkpt lat="50.872679" lon="15.348062"></trkpt><trkpt lat="50.87294" lon="15.347556"></trkpt><trkpt lat="50.873175" lon="15.347024"></trkpt><trkpt lat="50.873279" lon="15.34667"></trkpt><trkpt lat="50.87363" lon="15.34585"></trkpt><trkpt lat="50.874025" lon="15.345278"></trkpt><trkpt lat="50.874227" lon="15.345202"></trkpt><trkpt lat="50.874672" lon="15.345265"></trkpt><trkpt lat="50.875222" lon="15.345267"></trkpt><trkpt lat="50.875934" lon="15.344595"></trkpt><trkpt lat="50.877211" lon="15.343817"></trkpt><trkpt lat="50.877668" lon="15.343615"></trkpt><trkpt lat="50.877584" lon="15.342893"></trkpt><trkpt lat="50.877607" lon="15.342428"></trkpt><trkpt lat="50.877657" lon="15.342085"></trkpt><trkpt lat="50.877723" lon="15.340998"></trkpt><trkpt lat="50.877669" lon="15.340362"></trkpt><trkpt lat="50.877677" lon="15.339837"></trkpt><trkpt lat="50.877805" lon="15.339106"></trkpt><trkpt lat="50.879224" lon="15.33285"></trkpt><trkpt lat="50.879283" lon="15.332468"></trkpt><trkpt lat="50.879627" lon="15.330919"></trkpt><trkpt lat="50.879787" lon="15.330374"></trkpt><trkpt lat="50.879837" lon="15.329957"></trkpt><trkpt lat="50.880036" lon="15.329318"></trkpt><trkpt lat="50.881134" lon="15.32488"></trkpt><trkpt lat="50.88113" lon="15.324171"></trkpt><trkpt lat="50.881165" lon="15.323537"></trkpt><trkpt lat="50.881133" lon="15.322274"></trkpt><trkpt lat="50.881094" lon="15.321837"></trkpt><trkpt lat="50.881" lon="15.321272"></trkpt><trkpt lat="50.880822" lon="15.319717"></trkpt><trkpt lat="50.880885" lon="15.318795"></trkpt><trkpt lat="50.881407" lon="15.314355"></trkpt><trkpt lat="50.88152" lon="15.313998"></trkpt><trkpt lat="50.881983" lon="15.312894"></trkpt><trkpt lat="50.882032" lon="15.312584"></trkpt><trkpt lat="50.883494" lon="15.305973"></trkpt><trkpt lat="50.883753" lon="15.305054"></trkpt><trkpt lat="50.883956" lon="15.304642"></trkpt><trkpt lat="50.886409" lon="15.29881"></trkpt><trkpt lat="50.886429" lon="15.298319"></trkpt><trkpt lat="50.886508" lon="15.297761"></trkpt><trkpt lat="50.887093" lon="15.294666"></trkpt><trkpt lat="50.887296" lon="15.294228"></trkpt><trkpt lat="50.887902" lon="15.293107"></trkpt><trkpt lat="50.888175" lon="15.292927"></trkpt><trkpt lat="50.888456" lon="15.292783"></trkpt><trkpt lat="50.888521" lon="15.293108"></trkpt><trkpt lat="50.888881" lon="15.295517"></trkpt><trkpt lat="50.888912" lon="15.295955"></trkpt><trkpt lat="50.888975" lon="15.296365"></trkpt><trkpt lat="50.88911" lon="15.296682"></trkpt><trkpt lat="50.889217" lon="15.297034"></trkpt><trkpt lat="50.889348" lon="15.297308"></trkpt><trkpt lat="50.88943" lon="15.297599"></trkpt><trkpt lat="50.889485" lon="15.297935"></trkpt><trkpt lat="50.889608" lon="15.29832"></trkpt><trkpt lat="50.889688" lon="15.298789"></trkpt><trkpt lat="50.889779" lon="15.29912"></trkpt><trkpt lat="50.889859" lon="15.299497"></trkpt><trkpt lat="50.889942" lon="15.299788"></trkpt><trkpt lat="50.890037" lon="15.300065"></trkpt><trkpt lat="50.890117" lon="15.300355"></trkpt><trkpt lat="50.891341" lon="15.304034"></trkpt><trkpt lat="50.891622" lon="15.304231"></trkpt><trkpt lat="50.891765" lon="15.304574"></trkpt><trkpt lat="50.892079" lon="15.305564"></trkpt><trkpt lat="50.892198" lon="15.305869"></trkpt><trkpt lat="50.892434" lon="15.30607"></trkpt><trkpt lat="50.89263" lon="15.306281"></trkpt><trkpt lat="50.892715" lon="15.306637"></trkpt><trkpt lat="50.892681" lon="15.306968"></trkpt><trkpt lat="50.892622" lon="15.307282"></trkpt><trkpt lat="50.892373" lon="15.308231"></trkpt><trkpt lat="50.892238" lon="15.308464"></trkpt><trkpt lat="50.892002" lon="15.308797"></trkpt><trkpt lat="50.892316" lon="15.308948"></trkpt><trkpt lat="50.892362" lon="15.308636"></trkpt><trkpt lat="50.892262" lon="15.309003"></trkpt><trkpt lat="50.892239" lon="15.309342"></trkpt><trkpt lat="50.892495" lon="15.30918"></trkpt><trkpt lat="50.892829" lon="15.308774"></trkpt><trkpt lat="50.893015" lon="15.308609"></trkpt><trkpt lat="50.893196" lon="15.308475"></trkpt><trkpt lat="50.893858" lon="15.307826"></trkpt><trkpt lat="50.894044" lon="15.307546"></trkpt><trkpt lat="50.894278" lon="15.307049"></trkpt><trkpt lat="50.894717" lon="15.306274"></trkpt><trkpt lat="50.894888" lon="15.306081"></trkpt><trkpt lat="50.895141" lon="15.305892"></trkpt><trkpt lat="50.895452" lon="15.305415"></trkpt><trkpt lat="50.895604" lon="15.304871"></trkpt><trkpt lat="50.895675" lon="15.304522"></trkpt><trkpt lat="50.895685" lon="15.304174"></trkpt><trkpt lat="50.895639" lon="15.303579"></trkpt><trkpt lat="50.895555" lon="15.300651"></trkpt><trkpt lat="50.8958" lon="15.300962"></trkpt><trkpt lat="50.896269" lon="15.301668"></trkpt><trkpt lat="50.897896" lon="15.304683"></trkpt><trkpt lat="50.898018" lon="15.305186"></trkpt><trkpt lat="50.898099" lon="15.305917"></trkpt><trkpt lat="50.898119" lon="15.306293"></trkpt><trkpt lat="50.898115" lon="15.307381"></trkpt><trkpt lat="50.898075" lon="15.307861"></trkpt><trkpt lat="50.897985" lon="15.308357"></trkpt><trkpt lat="50.897529" lon="15.310286"></trkpt><trkpt lat="50.897386" lon="15.310676"></trkpt><trkpt lat="50.896429" lon="15.314134"></trkpt><trkpt lat="50.896404" lon="15.314624"></trkpt><trkpt lat="50.896401" lon="15.315433"></trkpt><trkpt lat="50.896445" lon="15.316294"></trkpt><trkpt lat="50.896653" lon="15.317991"></trkpt><trkpt lat="50.896875" lon="15.31926"></trkpt><trkpt lat="50.897108" lon="15.321251"></trkpt><trkpt lat="50.896997" lon="15.321553"></trkpt><trkpt lat="50.896826" lon="15.321819"></trkpt><trkpt lat="50.896641" lon="15.322031"></trkpt><trkpt lat="50.896262" lon="15.322302"></trkpt><trkpt lat="50.895748" lon="15.322402"></trkpt><trkpt lat="50.894917" lon="15.322456"></trkpt><trkpt lat="50.894285" lon="15.322326"></trkpt><trkpt lat="50.893847" lon="15.322176"></trkpt><trkpt lat="50.891082" lon="15.32156"></trkpt><trkpt lat="50.890849" lon="15.321568"></trkpt><trkpt lat="50.890665" lon="15.32169"></trkpt><trkpt lat="50.890575" lon="15.322017"></trkpt><trkpt lat="50.890613" lon="15.322412"></trkpt><trkpt lat="50.890602" lon="15.324183"></trkpt><trkpt lat="50.890538" lon="15.324742"></trkpt><trkpt lat="50.890499" lon="15.325396"></trkpt><trkpt lat="50.890632" lon="15.325139"></trkpt><trkpt lat="50.890454" lon="15.325564"></trkpt><trkpt lat="50.890533" lon="15.326057"></trkpt><trkpt lat="50.890735" lon="15.326908"></trkpt><trkpt lat="50.891121" lon="15.327839"></trkpt><trkpt lat="50.891752" lon="15.329113"></trkpt><trkpt lat="50.89213" lon="15.329675"></trkpt><trkpt lat="50.893707" lon="15.332512"></trkpt><trkpt lat="50.893957" lon="15.333123"></trkpt><trkpt lat="50.894191" lon="15.333819"></trkpt><trkpt lat="50.89427" lon="15.334155"></trkpt><trkpt lat="50.894304" lon="15.334526"></trkpt><trkpt lat="50.894286" lon="15.334907"></trkpt><trkpt lat="50.894206" lon="15.335452"></trkpt><trkpt lat="50.894002" lon="15.336496"></trkpt><trkpt lat="50.893072" lon="15.340278"></trkpt><trkpt lat="50.892763" lon="15.340848"></trkpt><trkpt lat="50.8924" lon="15.341389"></trkpt><trkpt lat="50.89209" lon="15.342057"></trkpt><trkpt lat="50.891986" lon="15.342353"></trkpt><trkpt lat="50.891872" lon="15.342814"></trkpt><trkpt lat="50.891841" lon="15.343148"></trkpt><trkpt lat="50.891814" lon="15.344283"></trkpt><trkpt lat="50.891836" lon="15.344602"></trkpt><trkpt lat="50.891968" lon="15.345444"></trkpt><trkpt lat="50.892311" lon="15.347113"></trkpt><trkpt lat="50.892491" lon="15.347725"></trkpt><trkpt lat="50.892651" lon="15.348458"></trkpt><trkpt lat="50.892526" lon="15.349992"></trkpt><trkpt lat="50.892063" lon="15.351225"></trkpt><trkpt lat="50.891683" lon="15.352015"></trkpt><trkpt lat="50.891305" lon="15.352632"></trkpt><trkpt lat="50.891071" lon="15.352867"></trkpt><trkpt lat="50.890868" lon="15.352949"></trkpt><trkpt lat="50.890201" lon="15.352922"></trkpt><trkpt lat="50.88934" lon="15.353112"></trkpt><trkpt lat="50.889404" lon="15.353455"></trkpt><trkpt lat="50.889625" lon="15.354095"></trkpt><trkpt lat="50.8897" lon="15.355228"></trkpt><trkpt lat="50.889816" lon="15.356104"></trkpt><trkpt lat="50.889982" lon="15.35667"></trkpt><trkpt lat="50.890495" lon="15.358853"></trkpt><trkpt lat="50.89046" lon="15.359253"></trkpt><trkpt lat="50.890325" lon="15.35955"></trkpt><trkpt lat="50.890114" lon="15.359656"></trkpt><trkpt lat="50.889901" lon="15.359598"></trkpt><trkpt lat="50.889478" lon="15.35938"></trkpt><trkpt lat="50.889103" lon="15.359448"></trkpt><trkpt lat="50.888782" lon="15.359712"></trkpt><trkpt lat="50.888849" lon="15.36004"></trkpt><trkpt lat="50.888982" lon="15.360355"></trkpt><trkpt lat="50.889167" lon="15.361134"></trkpt><trkpt lat="50.8896" lon="15.363811"></trkpt><trkpt lat="50.88961" lon="15.364351"></trkpt><trkpt lat="50.889656" lon="15.364704"></trkpt><trkpt lat="50.889756" lon="15.365025"></trkpt><trkpt lat="50.889915" lon="15.365296"></trkpt><trkpt lat="50.890163" lon="15.365496"></trkpt><trkpt lat="50.890564" lon="15.365734"></trkpt><trkpt lat="50.890974" lon="15.366183"></trkpt><trkpt lat="50.891139" lon="15.366395"></trkpt><trkpt lat="50.891351" lon="15.366726"></trkpt><trkpt lat="50.891493" lon="15.367144"></trkpt><trkpt lat="50.891546" lon="15.367471"></trkpt><trkpt lat="50.891699" lon="15.3689"></trkpt><trkpt lat="50.891713" lon="15.369408"></trkpt><trkpt lat="50.891667" lon="15.369759"></trkpt><trkpt lat="50.891589" lon="15.370101"></trkpt><trkpt lat="50.890984" lon="15.372116"></trkpt><trkpt lat="50.890664" lon="15.372323"></trkpt><trkpt lat="50.890545" lon="15.372676"></trkpt><trkpt lat="50.890639" lon="15.373006"></trkpt><trkpt lat="50.890809" lon="15.373283"></trkpt><trkpt lat="50.891083" lon="15.373598"></trkpt><trkpt lat="50.891282" lon="15.373727"></trkpt><trkpt lat="50.891482" lon="15.37357"></trkpt><trkpt lat="50.891233" lon="15.374303"></trkpt><trkpt lat="50.890951" lon="15.374882"></trkpt><trkpt lat="50.890687" lon="15.375615"></trkpt><trkpt lat="50.890578" lon="15.376095"></trkpt><trkpt lat="50.890449" lon="15.377326"></trkpt><trkpt lat="50.889937" lon="15.3804"></trkpt><trkpt lat="50.889578" lon="15.381058"></trkpt><trkpt lat="50.886138" lon="15.388851"></trkpt><trkpt lat="50.886054" lon="15.389521"></trkpt><trkpt lat="50.885978" lon="15.389904"></trkpt><trkpt lat="50.885503" lon="15.3917"></trkpt><trkpt lat="50.885365" lon="15.392108"></trkpt><trkpt lat="50.881921" lon="15.400184"></trkpt><trkpt lat="50.881457" lon="15.400714"></trkpt><trkpt lat="50.881015" lon="15.401571"></trkpt><trkpt lat="50.880815" lon="15.402456"></trkpt><trkpt lat="50.880657" lon="15.403382"></trkpt><trkpt lat="50.879847" lon="15.406566"></trkpt><trkpt lat="50.879653" lon="15.406877"></trkpt><trkpt lat="50.879095" lon="15.407551"></trkpt><trkpt lat="50.878749" lon="15.407782"></trkpt><trkpt lat="50.877071" lon="15.409139"></trkpt><trkpt lat="50.876796" lon="15.409589"></trkpt><trkpt lat="50.874109" lon="15.414806"></trkpt><trkpt lat="50.874002" lon="15.415183"></trkpt><trkpt lat="50.865933" lon="15.445839"></trkpt><trkpt lat="50.865818" lon="15.446146"></trkpt><trkpt lat="50.865107" lon="15.447609"></trkpt><trkpt lat="50.864625" lon="15.448325"></trkpt><trkpt lat="50.85922" lon="15.457896"></trkpt><trkpt lat="50.858934" lon="15.459114"></trkpt><trkpt lat="50.857183" lon="15.468576"></trkpt><trkpt lat="50.857036" lon="15.46999"></trkpt><trkpt lat="50.852484" lon="15.501918"></trkpt><trkpt lat="50.852133" lon="15.50302"></trkpt><trkpt lat="50.851698" lon="15.504875"></trkpt><trkpt lat="50.851395" lon="15.506723"></trkpt><trkpt lat="50.851313" lon="15.507532"></trkpt><trkpt lat="50.847869" lon="15.530515"></trkpt><trkpt lat="50.847742" lon="15.5302"></trkpt><trkpt lat="50.847363" lon="15.528958"></trkpt><trkpt lat="50.846935" lon="15.527876"></trkpt><trkpt lat="50.846781" lon="15.527581"></trkpt><trkpt lat="50.845272" lon="15.525085"></trkpt><trkpt lat="50.844853" lon="15.524714"></trkpt><trkpt lat="50.844429" lon="15.524426"></trkpt><trkpt lat="50.842865" lon="15.522999"></trkpt><trkpt lat="50.842606" lon="15.522539"></trkpt><trkpt lat="50.841063" lon="15.520173"></trkpt><trkpt lat="50.840687" lon="15.519778"></trkpt><trkpt lat="50.839382" lon="15.518743"></trkpt><trkpt lat="50.839113" lon="15.518813"></trkpt><trkpt lat="50.838908" lon="15.519115"></trkpt><trkpt lat="50.838622" lon="15.519837"></trkpt><trkpt lat="50.83835" lon="15.520418"></trkpt><trkpt lat="50.83815" lon="15.520712"></trkpt><trkpt lat="50.837956" lon="15.5209"></trkpt><trkpt lat="50.837724" lon="15.521052"></trkpt><trkpt lat="50.834941" lon="15.522524"></trkpt><trkpt lat="50.834371" lon="15.522073"></trkpt><trkpt lat="50.833174" lon="15.521354"></trkpt><trkpt lat="50.832441" lon="15.521032"></trkpt><trkpt lat="50.831599" lon="15.520851"></trkpt><trkpt lat="50.831502" lon="15.521141"></trkpt><trkpt lat="50.831288" lon="15.521008"></trkpt><trkpt lat="50.831276" lon="15.520179"></trkpt><trkpt lat="50.831328" lon="15.518915"></trkpt><trkpt lat="50.831546" lon="15.51807"></trkpt><trkpt lat="50.831696" lon="15.517658"></trkpt><trkpt lat="50.831588" lon="15.517329"></trkpt><trkpt lat="50.831396" lon="15.51749"></trkpt><trkpt lat="50.83124" lon="15.517746"></trkpt><trkpt lat="50.831028" lon="15.517839"></trkpt><trkpt lat="50.830613" lon="15.517719"></trkpt><trkpt lat="50.830055" lon="15.517953"></trkpt><trkpt lat="50.829795" lon="15.517909"></trkpt><trkpt lat="50.829542" lon="15.518199"></trkpt><trkpt lat="50.828997" lon="15.518631"></trkpt><trkpt lat="50.82873" lon="15.518746"></trkpt><trkpt lat="50.828487" lon="15.518905"></trkpt><trkpt lat="50.827961" lon="15.519671"></trkpt><trkpt lat="50.827801" lon="15.51987"></trkpt><trkpt lat="50.827238" lon="15.520345"></trkpt><trkpt lat="50.827115" lon="15.520613"></trkpt><trkpt lat="50.826939" lon="15.52134"></trkpt><trkpt lat="50.82693" lon="15.521721"></trkpt><trkpt lat="50.826979" lon="15.522164"></trkpt><trkpt lat="50.826676" lon="15.522547"></trkpt><trkpt lat="50.826302" lon="15.523161"></trkpt><trkpt lat="50.826108" lon="15.524309"></trkpt><trkpt lat="50.825983" lon="15.524648"></trkpt><trkpt lat="50.825458" lon="15.525229"></trkpt><trkpt lat="50.824373" lon="15.526947"></trkpt><trkpt lat="50.824174" lon="15.527085"></trkpt><trkpt lat="50.823964" lon="15.526994"></trkpt><trkpt lat="50.82373" lon="15.526987"></trkpt><trkpt lat="50.823943" lon="15.527029"></trkpt><trkpt lat="50.823739" lon="15.527099"></trkpt><trkpt lat="50.823599" lon="15.527423"></trkpt><trkpt lat="50.823374" lon="15.527376"></trkpt><trkpt lat="50.82313" lon="15.527086"></trkpt><trkpt lat="50.822929" lon="15.526763"></trkpt><trkpt lat="50.822643" lon="15.5264"></trkpt><trkpt lat="50.82242" lon="15.526275"></trkpt><trkpt lat="50.822099" lon="15.526179"></trkpt><trkpt lat="50.821996" lon="15.525748"></trkpt><trkpt lat="50.821957" lon="15.525422"></trkpt><trkpt lat="50.821799" lon="15.524868"></trkpt><trkpt lat="50.821726" lon="15.524316"></trkpt><trkpt lat="50.821713" lon="15.523917"></trkpt><trkpt lat="50.821645" lon="15.523362"></trkpt><trkpt lat="50.821453" lon="15.52308"></trkpt><trkpt lat="50.821294" lon="15.522799"></trkpt><trkpt lat="50.821062" lon="15.522495"></trkpt><trkpt lat="50.820742" lon="15.522007"></trkpt><trkpt lat="50.820643" lon="15.521729"></trkpt><trkpt lat="50.820502" lon="15.521497"></trkpt><trkpt lat="50.820663" lon="15.521105"></trkpt><trkpt lat="50.820873" lon="15.521372"></trkpt></trkseg></trk></gpx>