<?xml version="1.0" encoding="UTF-8" standalone="no" ?><gpx xmlns="http://www.topografix.com/GPX/1/1" xmlns:gpxx="http://www.garmin.com/xmlschemas/GpxExtensions/v3" ><trk><trkseg><trkpt lat="50.4901708849" lon="16.3283954747"></trkpt><trkpt lat="50.4885332286" lon="16.3287563156"></trkpt><trkpt lat="50.4872349557" lon="16.3286881708"></trkpt><trkpt lat="50.4869550839" lon="16.3287921902"></trkpt><trkpt lat="50.4868141003" lon="16.3291687053"></trkpt><trkpt lat="50.4867876135" lon="16.3296023849"></trkpt><trkpt lat="50.4868431855" lon="16.3300227374"></trkpt><trkpt lat="50.4870256595" lon="16.3309471775"></trkpt><trkpt lat="50.4871109035" lon="16.3316894788"></trkpt><trkpt lat="50.4868529085" lon="16.3318618108"></trkpt><trkpt lat="50.4865255114" lon="16.3315771613"></trkpt><trkpt lat="50.4862460587" lon="16.3312564697"></trkpt><trkpt lat="50.4860468209" lon="16.3309550565"></trkpt><trkpt lat="50.4853739217" lon="16.3302601967"></trkpt><trkpt lat="50.4853625223" lon="16.3307808805"></trkpt><trkpt lat="50.4854927771" lon="16.3311710581"></trkpt><trkpt lat="50.4860880598" lon="16.3335441425"></trkpt><trkpt lat="50.4861852899" lon="16.3340744656"></trkpt><trkpt lat="50.4861607309" lon="16.3345007692"></trkpt><trkpt lat="50.4859775864" lon="16.3348988257"></trkpt><trkpt lat="50.4857495986" lon="16.3351569045"></trkpt><trkpt lat="50.4854448326" lon="16.3352975529"></trkpt><trkpt lat="50.4851072934" lon="16.3353905082"></trkpt><trkpt lat="50.4845667444" lon="16.3354457449"></trkpt><trkpt lat="50.4844736215" lon="16.3358578831"></trkpt><trkpt lat="50.4841605574" lon="16.3359585498"></trkpt><trkpt lat="50.4839938413" lon="16.3364245836"></trkpt><trkpt lat="50.4837622494" lon="16.3369332813"></trkpt><trkpt lat="50.4835676216" lon="16.3374740817"></trkpt><trkpt lat="50.4837525263" lon="16.3377946056"></trkpt><trkpt lat="50.4838512652" lon="16.3382470608"></trkpt><trkpt lat="50.4841385968" lon="16.3384779822"></trkpt><trkpt lat="50.4845096637" lon="16.3384906389"></trkpt><trkpt lat="50.4848019406" lon="16.3388679083"></trkpt><trkpt lat="50.4850025196" lon="16.3392109796"></trkpt><trkpt lat="50.4853061959" lon="16.3391349558"></trkpt><trkpt lat="50.4855473433" lon="16.339376606"></trkpt><trkpt lat="50.4852938745" lon="16.3391507138"></trkpt><trkpt lat="50.48522003" lon="16.3395709824"></trkpt><trkpt lat="50.4849801399" lon="16.3393584173"></trkpt><trkpt lat="50.4847296886" lon="16.3390203752"></trkpt><trkpt lat="50.4844140261" lon="16.3387181237"></trkpt><trkpt lat="50.4840768222" lon="16.3386652339"></trkpt><trkpt lat="50.4838966951" lon="16.3382445462"></trkpt><trkpt lat="50.4836386163" lon="16.3378776703"></trkpt><trkpt lat="50.4836488422" lon="16.3373708166"></trkpt><trkpt lat="50.4839372635" lon="16.3369467761"></trkpt><trkpt lat="50.4842633195" lon="16.3365777209"></trkpt><trkpt lat="50.4845154472" lon="16.336412346"></trkpt><trkpt lat="50.484661879" lon="16.3360479008"></trkpt><trkpt lat="50.4849385656" lon="16.3358507585"></trkpt><trkpt lat="50.4852415714" lon="16.3357653469"></trkpt><trkpt lat="50.4854973033" lon="16.3355700485"></trkpt><trkpt lat="50.4857595731" lon="16.3354668673"></trkpt><trkpt lat="50.4860133771" lon="16.3352773525"></trkpt><trkpt lat="50.4861862119" lon="16.3348839059"></trkpt><trkpt lat="50.4861042369" lon="16.3344042096"></trkpt><trkpt lat="50.4859971162" lon="16.3339873776"></trkpt><trkpt lat="50.4859248642" lon="16.3334185816"></trkpt><trkpt lat="50.4858325794" lon="16.3329608459"></trkpt><trkpt lat="50.4856372811" lon="16.3325517252"></trkpt><trkpt lat="50.4855113849" lon="16.3320350647"></trkpt><trkpt lat="50.4853451718" lon="16.3306189422"></trkpt><trkpt lat="50.4857389536" lon="16.3307830598"></trkpt><trkpt lat="50.4860251117" lon="16.3310647756"></trkpt><trkpt lat="50.4862417001" lon="16.3314365968"></trkpt><trkpt lat="50.4866574425" lon="16.331970524"></trkpt><trkpt lat="50.4869683273" lon="16.3317235932"></trkpt><trkpt lat="50.4869310278" lon="16.3311632629"></trkpt><trkpt lat="50.486848969" lon="16.3306547329"></trkpt><trkpt lat="50.4867489729" lon="16.3296377566"></trkpt><trkpt lat="50.4868894536" lon="16.3291143067"></trkpt><trkpt lat="50.4871865083" lon="16.3287397195"></trkpt><trkpt lat="50.4874497" lon="16.3285555691"></trkpt><trkpt lat="50.487782713" lon="16.3286792859"></trkpt><trkpt lat="50.4886508267" lon="16.3288235385"></trkpt><trkpt lat="50.4901390336" lon="16.3283241447"></trkpt><trkpt lat="50.4904149659" lon="16.3281643018"></trkpt><trkpt lat="50.4910476319" lon="16.3276901376"></trkpt><trkpt lat="50.4913052917" lon="16.3274647482"></trkpt></trkseg><trkseg><trkpt lat="50.4668676853" lon="16.2712434679"></trkpt><trkpt lat="50.4666883126" lon="16.2708959542"></trkpt><trkpt lat="50.4664148111" lon="16.2709164061"></trkpt><trkpt lat="50.4661346041" lon="16.2707013264"></trkpt><trkpt lat="50.4658547323" lon="16.2708369456"></trkpt><trkpt lat="50.4655491281" lon="16.2707595807"></trkpt><trkpt lat="50.4652757104" lon="16.2703147531"></trkpt><trkpt lat="50.4646008834" lon="16.2694090046"></trkpt><trkpt lat="50.464286143" lon="16.2688758317"></trkpt><trkpt lat="50.4639116395" lon="16.268012831"></trkpt><trkpt lat="50.4636212066" lon="16.2676810753"></trkpt><trkpt lat="50.4634104855" lon="16.2671254389"></trkpt><trkpt lat="50.4632188752" lon="16.266789576"></trkpt><trkpt lat="50.4631905444" lon="16.2663064431"></trkpt><trkpt lat="50.4632036202" lon="16.2657736894"></trkpt><trkpt lat="50.4630625527" lon="16.2653508224"></trkpt><trkpt lat="50.4628763068" lon="16.2649337389"></trkpt><trkpt lat="50.4623963591" lon="16.2640825566"></trkpt><trkpt lat="50.4619905911" lon="16.2635508925"></trkpt><trkpt lat="50.4617179278" lon="16.2633811589"></trkpt><trkpt lat="50.4615826439" lon="16.2629888859"></trkpt><trkpt lat="50.4614442587" lon="16.2624189164"></trkpt><trkpt lat="50.4611928854" lon="16.2620335165"></trkpt><trkpt lat="50.4611077253" lon="16.2615611125"></trkpt><trkpt lat="50.4612073861" lon="16.2611196376"></trkpt><trkpt lat="50.461426992" lon="16.2607332319"></trkpt><trkpt lat="50.4616168421" lon="16.260278346"></trkpt><trkpt lat="50.4618338495" lon="16.2595610227"></trkpt><trkpt lat="50.4620711412" lon="16.2590571027"></trkpt><trkpt lat="50.4623338301" lon="16.2585911527"></trkpt><trkpt lat="50.4624726344" lon="16.2580740731"></trkpt><trkpt lat="50.4626810085" lon="16.2577418983"></trkpt><trkpt lat="50.4629474692" lon="16.2575647049"></trkpt><trkpt lat="50.4631568491" lon="16.2571453582"></trkpt><trkpt lat="50.4632931389" lon="16.2566674221"></trkpt><trkpt lat="50.4635307658" lon="16.2562322337"></trkpt><trkpt lat="50.4638619348" lon="16.2557232846"></trkpt><trkpt lat="50.4637161735" lon="16.2552814744"></trkpt><trkpt lat="50.463222228" lon="16.2542346586"></trkpt><trkpt lat="50.4629677534" lon="16.2539330777"></trkpt><trkpt lat="50.4626948386" lon="16.2537055928"></trkpt><trkpt lat="50.4623739794" lon="16.2535657827"></trkpt><trkpt lat="50.4620754998" lon="16.2531543989"></trkpt><trkpt lat="50.4618854821" lon="16.2527367286"></trkpt><trkpt lat="50.4613955598" lon="16.2520889752"></trkpt><trkpt lat="50.4610944819" lon="16.2522761431"></trkpt><trkpt lat="50.4608229082" lon="16.2523384206"></trkpt><trkpt lat="50.4604059923" lon="16.2521810923"></trkpt><trkpt lat="50.4579144716" lon="16.2517883163"></trkpt></trkseg></trk></gpx>