<?xml version="1.0" encoding="UTF-8" standalone="no" ?><gpx xmlns="http://www.topografix.com/GPX/1/1" xmlns:gpxx="http://www.garmin.com/xmlschemas/GpxExtensions/v3" ><trk><trkseg><trkpt lat="52.465056" lon="16.930492"></trkpt><trkpt lat="52.465241" lon="16.930618"></trkpt><trkpt lat="52.465075" lon="16.931623"></trkpt><trkpt lat="52.465107" lon="16.931991"></trkpt><trkpt lat="52.465188" lon="16.932299"></trkpt><trkpt lat="52.465666" lon="16.933182"></trkpt><trkpt lat="52.46614" lon="16.93371"></trkpt><trkpt lat="52.466582" lon="16.93409"></trkpt><trkpt lat="52.466907" lon="16.934503"></trkpt><trkpt lat="52.467131" lon="16.934639"></trkpt><trkpt lat="52.467455" lon="16.934884"></trkpt><trkpt lat="52.467561" lon="16.935196"></trkpt><trkpt lat="52.46751" lon="16.935571"></trkpt><trkpt lat="52.467342" lon="16.936444"></trkpt><trkpt lat="52.46729" lon="16.936829"></trkpt><trkpt lat="52.467474" lon="16.937018"></trkpt><trkpt lat="52.467972" lon="16.937302"></trkpt><trkpt lat="52.468052" lon="16.937636"></trkpt><trkpt lat="52.467904" lon="16.938265"></trkpt><trkpt lat="52.467912" lon="16.938642"></trkpt><trkpt lat="52.46789" lon="16.939558"></trkpt><trkpt lat="52.467721" lon="16.94202"></trkpt><trkpt lat="52.467532" lon="16.942118"></trkpt><trkpt lat="52.46735" lon="16.942438"></trkpt><trkpt lat="52.467598" lon="16.942923"></trkpt><trkpt lat="52.467782" lon="16.943396"></trkpt><trkpt lat="52.467964" lon="16.944313"></trkpt><trkpt lat="52.468425" lon="16.947388"></trkpt><trkpt lat="52.468288" lon="16.947633"></trkpt><trkpt lat="52.468103" lon="16.94779"></trkpt><trkpt lat="52.467867" lon="16.948433"></trkpt><trkpt lat="52.467798" lon="16.9491"></trkpt><trkpt lat="52.467799" lon="16.95007"></trkpt><trkpt lat="52.46767" lon="16.95183"></trkpt><trkpt lat="52.467539" lon="16.952369"></trkpt><trkpt lat="52.46717" lon="16.953514"></trkpt><trkpt lat="52.466926" lon="16.954478"></trkpt><trkpt lat="52.466883" lon="16.954807"></trkpt><trkpt lat="52.467053" lon="16.955041"></trkpt><trkpt lat="52.467613" lon="16.955079"></trkpt><trkpt lat="52.469413" lon="16.955506"></trkpt><trkpt lat="52.469315" lon="16.956658"></trkpt><trkpt lat="52.46929" lon="16.957899"></trkpt><trkpt lat="52.469343" lon="16.959068"></trkpt><trkpt lat="52.46958" lon="16.959079"></trkpt><trkpt lat="52.472856" lon="16.959628"></trkpt><trkpt lat="52.472714" lon="16.960466"></trkpt><trkpt lat="52.472718" lon="16.961298"></trkpt><trkpt lat="52.472788" lon="16.962696"></trkpt><trkpt lat="52.472789" lon="16.966219"></trkpt><trkpt lat="52.47266" lon="16.966982"></trkpt><trkpt lat="52.472618" lon="16.967476"></trkpt><trkpt lat="52.472557" lon="16.967874"></trkpt><trkpt lat="52.47243" lon="16.969175"></trkpt><trkpt lat="52.472643" lon="16.969807"></trkpt><trkpt lat="52.472703" lon="16.970124"></trkpt><trkpt lat="52.472865" lon="16.970335"></trkpt><trkpt lat="52.473168" lon="16.970436"></trkpt><trkpt lat="52.473553" lon="16.970511"></trkpt><trkpt lat="52.474015" lon="16.970515"></trkpt><trkpt lat="52.474594" lon="16.970416"></trkpt><trkpt lat="52.494251" lon="16.966132"></trkpt><trkpt lat="52.498669" lon="16.964351"></trkpt><trkpt lat="52.499153" lon="16.963851"></trkpt><trkpt lat="52.499931" lon="16.962659"></trkpt><trkpt lat="52.500075" lon="16.962018"></trkpt><trkpt lat="52.500319" lon="16.960607"></trkpt><trkpt lat="52.500592" lon="16.959375"></trkpt><trkpt lat="52.500822" lon="16.95907"></trkpt><trkpt lat="52.501249" lon="16.958715"></trkpt><trkpt lat="52.501887" lon="16.958343"></trkpt><trkpt lat="52.503551" lon="16.95767"></trkpt><trkpt lat="52.503872" lon="16.958415"></trkpt><trkpt lat="52.504029" lon="16.958618"></trkpt><trkpt lat="52.504188" lon="16.958918"></trkpt><trkpt lat="52.505983" lon="16.963076"></trkpt><trkpt lat="52.506209" lon="16.963844"></trkpt><trkpt lat="52.506281" lon="16.964174"></trkpt><trkpt lat="52.506483" lon="16.965377"></trkpt><trkpt lat="52.506701" lon="16.965682"></trkpt><trkpt lat="52.506874" lon="16.965852"></trkpt><trkpt lat="52.507001" lon="16.966168"></trkpt><trkpt lat="52.507387" lon="16.966709"></trkpt><trkpt lat="52.507921" lon="16.967581"></trkpt><trkpt lat="52.509024" lon="16.969115"></trkpt><trkpt lat="52.509253" lon="16.969113"></trkpt><trkpt lat="52.509638" lon="16.968978"></trkpt><trkpt lat="52.511218" lon="16.968162"></trkpt><trkpt lat="52.511345" lon="16.967775"></trkpt><trkpt lat="52.511549" lon="16.967687"></trkpt><trkpt lat="52.511752" lon="16.967471"></trkpt><trkpt lat="52.512031" lon="16.967114"></trkpt><trkpt lat="52.512223" lon="16.966825"></trkpt><trkpt lat="52.512439" lon="16.966557"></trkpt><trkpt lat="52.512641" lon="16.966522"></trkpt><trkpt lat="52.512892" lon="16.966438"></trkpt><trkpt lat="52.513091" lon="16.966274"></trkpt><trkpt lat="52.513324" lon="16.965996"></trkpt><trkpt lat="52.513482" lon="16.965667"></trkpt><trkpt lat="52.513569" lon="16.96533"></trkpt><trkpt lat="52.513777" lon="16.965184"></trkpt><trkpt lat="52.514035" lon="16.965304"></trkpt><trkpt lat="52.514232" lon="16.965106"></trkpt><trkpt lat="52.514595" lon="16.964434"></trkpt><trkpt lat="52.514744" lon="16.964195"></trkpt><trkpt lat="52.51491" lon="16.963843"></trkpt><trkpt lat="52.515161" lon="16.963407"></trkpt><trkpt lat="52.51539" lon="16.962834"></trkpt><trkpt lat="52.515465" lon="16.962307"></trkpt><trkpt lat="52.515497" lon="16.96188"></trkpt><trkpt lat="52.515404" lon="16.961562"></trkpt><trkpt lat="52.515319" lon="16.961028"></trkpt><trkpt lat="52.515316" lon="16.96064"></trkpt><trkpt lat="52.515479" lon="16.960328"></trkpt><trkpt lat="52.515751" lon="16.95997"></trkpt><trkpt lat="52.516031" lon="16.959671"></trkpt><trkpt lat="52.516369" lon="16.959402"></trkpt><trkpt lat="52.517256" lon="16.958478"></trkpt><trkpt lat="52.517656" lon="16.957861"></trkpt><trkpt lat="52.5181" lon="16.957017"></trkpt><trkpt lat="52.518029" lon="16.956687"></trkpt><trkpt lat="52.517874" lon="16.955678"></trkpt><trkpt lat="52.518145" lon="16.95574"></trkpt><trkpt lat="52.518438" lon="16.955735"></trkpt><trkpt lat="52.518698" lon="16.955654"></trkpt><trkpt lat="52.519158" lon="16.9556"></trkpt><trkpt lat="52.519268" lon="16.956001"></trkpt><trkpt lat="52.519484" lon="16.956163"></trkpt><trkpt lat="52.521306" lon="16.956926"></trkpt><trkpt lat="52.522612" lon="16.956547"></trkpt><trkpt lat="52.524196" lon="16.955785"></trkpt><trkpt lat="52.524391" lon="16.955628"></trkpt><trkpt lat="52.524875" lon="16.955376"></trkpt><trkpt lat="52.525256" lon="16.955273"></trkpt><trkpt lat="52.525891" lon="16.9552"></trkpt><trkpt lat="52.541158" lon="16.95969"></trkpt><trkpt lat="52.541196" lon="16.96001"></trkpt><trkpt lat="52.541414" lon="16.961291"></trkpt><trkpt lat="52.54146" lon="16.96265"></trkpt><trkpt lat="52.541354" lon="16.964295"></trkpt><trkpt lat="52.541323" lon="16.965948"></trkpt><trkpt lat="52.540986" lon="16.971263"></trkpt><trkpt lat="52.54102" lon="16.972345"></trkpt><trkpt lat="52.540928" lon="16.97269"></trkpt><trkpt lat="52.541053" lon="16.973393"></trkpt><trkpt lat="52.543603" lon="16.993864"></trkpt><trkpt lat="52.543368" lon="16.99451"></trkpt><trkpt lat="52.540181" lon="17.00186"></trkpt><trkpt lat="52.539848" lon="17.002519"></trkpt><trkpt lat="52.539698" lon="17.003143"></trkpt><trkpt lat="52.535488" lon="17.01724"></trkpt><trkpt lat="52.535126" lon="17.017945"></trkpt><trkpt lat="52.533813" lon="17.020138"></trkpt><trkpt lat="52.533594" lon="17.01966"></trkpt><trkpt lat="52.533416" lon="17.01946"></trkpt><trkpt lat="52.533218" lon="17.019523"></trkpt><trkpt lat="52.532691" lon="17.020099"></trkpt><trkpt lat="52.531039" lon="17.022606"></trkpt><trkpt lat="52.531189" lon="17.023242"></trkpt><trkpt lat="52.531546" lon="17.025155"></trkpt><trkpt lat="52.535047" lon="17.050291"></trkpt><trkpt lat="52.53495" lon="17.05091"></trkpt><trkpt lat="52.535131" lon="17.051047"></trkpt><trkpt lat="52.535697" lon="17.051635"></trkpt><trkpt lat="52.536135" lon="17.051412"></trkpt><trkpt lat="52.536369" lon="17.051091"></trkpt><trkpt lat="52.536586" lon="17.051026"></trkpt><trkpt lat="52.53684" lon="17.05115"></trkpt><trkpt lat="52.537529" lon="17.051611"></trkpt><trkpt lat="52.538499" lon="17.052431"></trkpt><trkpt lat="52.539109" lon="17.052725"></trkpt><trkpt lat="52.539543" lon="17.052398"></trkpt><trkpt lat="52.540063" lon="17.051856"></trkpt><trkpt lat="52.54527" lon="17.045503"></trkpt><trkpt lat="52.550849" lon="17.039676"></trkpt><trkpt lat="52.551655" lon="17.039133"></trkpt><trkpt lat="52.552508" lon="17.038742"></trkpt><trkpt lat="52.554613" lon="17.037429"></trkpt><trkpt lat="52.554863" lon="17.037336"></trkpt><trkpt lat="52.555595" lon="17.03742"></trkpt><trkpt lat="52.556567" lon="17.037155"></trkpt><trkpt lat="52.556685" lon="17.037442"></trkpt><trkpt lat="52.556616" lon="17.037789"></trkpt><trkpt lat="52.556514" lon="17.038465"></trkpt><trkpt lat="52.555039" lon="17.045153"></trkpt><trkpt lat="52.554902" lon="17.045421"></trkpt><trkpt lat="52.552084" lon="17.051852"></trkpt><trkpt lat="52.551612" lon="17.053115"></trkpt><trkpt lat="52.550964" lon="17.05555"></trkpt><trkpt lat="52.550827" lon="17.056651"></trkpt><trkpt lat="52.550499" lon="17.058519"></trkpt><trkpt lat="52.549534" lon="17.062546"></trkpt><trkpt lat="52.5492" lon="17.063175"></trkpt><trkpt lat="52.548946" lon="17.06359"></trkpt><trkpt lat="52.548721" lon="17.064093"></trkpt><trkpt lat="52.548104" lon="17.065716"></trkpt><trkpt lat="52.547986" lon="17.066124"></trkpt><trkpt lat="52.546622" lon="17.070085"></trkpt><trkpt lat="52.546608" lon="17.07043"></trkpt><trkpt lat="52.546735" lon="17.070879"></trkpt><trkpt lat="52.546997" lon="17.071612"></trkpt><trkpt lat="52.54719" lon="17.072009"></trkpt><trkpt lat="52.547345" lon="17.072215"></trkpt><trkpt lat="52.547717" lon="17.072395"></trkpt><trkpt lat="52.547926" lon="17.07257"></trkpt><trkpt lat="52.548103" lon="17.07284"></trkpt><trkpt lat="52.54854" lon="17.07339"></trkpt><trkpt lat="52.54873" lon="17.073529"></trkpt><trkpt lat="52.551039" lon="17.075604"></trkpt><trkpt lat="52.55123" lon="17.075831"></trkpt><trkpt lat="52.553469" lon="17.078933"></trkpt><trkpt lat="52.553581" lon="17.079266"></trkpt><trkpt lat="52.554173" lon="17.080728"></trkpt><trkpt lat="52.554699" lon="17.080676"></trkpt><trkpt lat="52.555112" lon="17.080825"></trkpt><trkpt lat="52.555561" lon="17.081094"></trkpt><trkpt lat="52.55661" lon="17.081566"></trkpt><trkpt lat="52.557052" lon="17.08155"></trkpt><trkpt lat="52.558046" lon="17.081762"></trkpt><trkpt lat="52.558347" lon="17.081887"></trkpt><trkpt lat="52.558683" lon="17.082096"></trkpt><trkpt lat="52.55905" lon="17.082475"></trkpt><trkpt lat="52.559276" lon="17.082906"></trkpt><trkpt lat="52.559328" lon="17.083242"></trkpt><trkpt lat="52.559461" lon="17.083827"></trkpt><trkpt lat="52.560738" lon="17.088151"></trkpt><trkpt lat="52.561" lon="17.088539"></trkpt><trkpt lat="52.573874" lon="17.110496"></trkpt><trkpt lat="52.573811" lon="17.110829"></trkpt><trkpt lat="52.5736" lon="17.111378"></trkpt><trkpt lat="52.571771" lon="17.117042"></trkpt><trkpt lat="52.571575" lon="17.117831"></trkpt><trkpt lat="52.568567" lon="17.127708"></trkpt><trkpt lat="52.568255" lon="17.129342"></trkpt><trkpt lat="52.568262" lon="17.129821"></trkpt><trkpt lat="52.568385" lon="17.131157"></trkpt><trkpt lat="52.568824" lon="17.131604"></trkpt><trkpt lat="52.570783" lon="17.133933"></trkpt><trkpt lat="52.570827" lon="17.134285"></trkpt><trkpt lat="52.570743" lon="17.134797"></trkpt><trkpt lat="52.570698" lon="17.135219"></trkpt><trkpt lat="52.570856" lon="17.135562"></trkpt><trkpt lat="52.570952" lon="17.13587"></trkpt><trkpt lat="52.571191" lon="17.136515"></trkpt><trkpt lat="52.571475" lon="17.137576"></trkpt><trkpt lat="52.571429" lon="17.138066"></trkpt><trkpt lat="52.571148" lon="17.139167"></trkpt><trkpt lat="52.570925" lon="17.139795"></trkpt><trkpt lat="52.571443" lon="17.140157"></trkpt><trkpt lat="52.571935" lon="17.140101"></trkpt><trkpt lat="52.572133" lon="17.140161"></trkpt><trkpt lat="52.572797" lon="17.140589"></trkpt><trkpt lat="52.57305" lon="17.140606"></trkpt><trkpt lat="52.573506" lon="17.14047"></trkpt><trkpt lat="52.57393" lon="17.140437"></trkpt><trkpt lat="52.574588" lon="17.14068"></trkpt><trkpt lat="52.575072" lon="17.140974"></trkpt><trkpt lat="52.575322" lon="17.140879"></trkpt><trkpt lat="52.575931" lon="17.1401"></trkpt><trkpt lat="52.576116" lon="17.139971"></trkpt><trkpt lat="52.57634" lon="17.139954"></trkpt><trkpt lat="52.576547" lon="17.140118"></trkpt><trkpt lat="52.576736" lon="17.140351"></trkpt><trkpt lat="52.576944" lon="17.140392"></trkpt><trkpt lat="52.577141" lon="17.140265"></trkpt><trkpt lat="52.577373" lon="17.140272"></trkpt><trkpt lat="52.577532" lon="17.140547"></trkpt><trkpt lat="52.577759" lon="17.141155"></trkpt><trkpt lat="52.578125" lon="17.141944"></trkpt><trkpt lat="52.57838" lon="17.142135"></trkpt><trkpt lat="52.578687" lon="17.142256"></trkpt><trkpt lat="52.578925" lon="17.142388"></trkpt><trkpt lat="52.579323" lon="17.142672"></trkpt><trkpt lat="52.579517" lon="17.142868"></trkpt><trkpt lat="52.579767" lon="17.143216"></trkpt><trkpt lat="52.583918" lon="17.150215"></trkpt><trkpt lat="52.584045" lon="17.150539"></trkpt><trkpt lat="52.584239" lon="17.150769"></trkpt><trkpt lat="52.585648" lon="17.152183"></trkpt><trkpt lat="52.585832" lon="17.152313"></trkpt><trkpt lat="52.586055" lon="17.15235"></trkpt><trkpt lat="52.586082" lon="17.151974"></trkpt><trkpt lat="52.586409" lon="17.151916"></trkpt><trkpt lat="52.586713" lon="17.152066"></trkpt><trkpt lat="52.586933" lon="17.152231"></trkpt><trkpt lat="52.587295" lon="17.1526"></trkpt><trkpt lat="52.587505" lon="17.152706"></trkpt><trkpt lat="52.587912" lon="17.152983"></trkpt><trkpt lat="52.588298" lon="17.153181"></trkpt><trkpt lat="52.588649" lon="17.15322"></trkpt><trkpt lat="52.607872" lon="17.154531"></trkpt><trkpt lat="52.608045" lon="17.154728"></trkpt><trkpt lat="52.611818" lon="17.158405"></trkpt><trkpt lat="52.612543" lon="17.158799"></trkpt><trkpt lat="52.619163" lon="17.163414"></trkpt><trkpt lat="52.619414" lon="17.164013"></trkpt><trkpt lat="52.620439" lon="17.166114"></trkpt><trkpt lat="52.620743" lon="17.16636"></trkpt><trkpt lat="52.620809" lon="17.166671"></trkpt><trkpt lat="52.620784" lon="17.167074"></trkpt><trkpt lat="52.620838" lon="17.167426"></trkpt><trkpt lat="52.620945" lon="17.167737"></trkpt><trkpt lat="52.621509" lon="17.168973"></trkpt><trkpt lat="52.621661" lon="17.169208"></trkpt><trkpt lat="52.62199" lon="17.169247"></trkpt><trkpt lat="52.622166" lon="17.169475"></trkpt><trkpt lat="52.622581" lon="17.170096"></trkpt><trkpt lat="52.622729" lon="17.170373"></trkpt><trkpt lat="52.622999" lon="17.170472"></trkpt><trkpt lat="52.623288" lon="17.170411"></trkpt><trkpt lat="52.623656" lon="17.170434"></trkpt><trkpt lat="52.624044" lon="17.170018"></trkpt><trkpt lat="52.62424" lon="17.1699"></trkpt><trkpt lat="52.624461" lon="17.169875"></trkpt><trkpt lat="52.624664" lon="17.170009"></trkpt><trkpt lat="52.624932" lon="17.170144"></trkpt><trkpt lat="52.625148" lon="17.170073"></trkpt><trkpt lat="52.626195" lon="17.169597"></trkpt><trkpt lat="52.626675" lon="17.169185"></trkpt><trkpt lat="52.627602" lon="17.168537"></trkpt><trkpt lat="52.627827" lon="17.168465"></trkpt><trkpt lat="52.62836" lon="17.168569"></trkpt><trkpt lat="52.628864" lon="17.168924"></trkpt><trkpt lat="52.631161" lon="17.171055"></trkpt><trkpt lat="52.631531" lon="17.17167"></trkpt><trkpt lat="52.631819" lon="17.17205"></trkpt><trkpt lat="52.633299" lon="17.173715"></trkpt><trkpt lat="52.638992" lon="17.179178"></trkpt><trkpt lat="52.639446" lon="17.179495"></trkpt><trkpt lat="52.639844" lon="17.179837"></trkpt><trkpt lat="52.640265" lon="17.180129"></trkpt><trkpt lat="52.641408" lon="17.181083"></trkpt><trkpt lat="52.647187" lon="17.185074"></trkpt><trkpt lat="52.647483" lon="17.185059"></trkpt><trkpt lat="52.648026" lon="17.185235"></trkpt><trkpt lat="52.648585" lon="17.185649"></trkpt><trkpt lat="52.648826" lon="17.185899"></trkpt><trkpt lat="52.649035" lon="17.18619"></trkpt><trkpt lat="52.649311" lon="17.186481"></trkpt><trkpt lat="52.649461" lon="17.186735"></trkpt><trkpt lat="52.649579" lon="17.187054"></trkpt><trkpt lat="52.64967" lon="17.187365"></trkpt><trkpt lat="52.650552" lon="17.189764"></trkpt><trkpt lat="52.6508" lon="17.190023"></trkpt><trkpt lat="52.651518" lon="17.190961"></trkpt><trkpt lat="52.652104" lon="17.191846"></trkpt><trkpt lat="52.652423" lon="17.192402"></trkpt><trkpt lat="52.655415" lon="17.196442"></trkpt><trkpt lat="52.655592" lon="17.196158"></trkpt><trkpt lat="52.664325" lon="17.179327"></trkpt><trkpt lat="52.663875" lon="17.178926"></trkpt><trkpt lat="52.662683" lon="17.177665"></trkpt><trkpt lat="52.662521" lon="17.177417"></trkpt><trkpt lat="52.662402" lon="17.177087"></trkpt><trkpt lat="52.662368" lon="17.176765"></trkpt><trkpt lat="52.662407" lon="17.176231"></trkpt><trkpt lat="52.662525" lon="17.175431"></trkpt><trkpt lat="52.66271" lon="17.173015"></trkpt><trkpt lat="52.662416" lon="17.172213"></trkpt><trkpt lat="52.662062" lon="17.170965"></trkpt><trkpt lat="52.662129" lon="17.170336"></trkpt><trkpt lat="52.662084" lon="17.16989"></trkpt><trkpt lat="52.661883" lon="17.169336"></trkpt><trkpt lat="52.661696" lon="17.169032"></trkpt><trkpt lat="52.661228" lon="17.168608"></trkpt><trkpt lat="52.660317" lon="17.167313"></trkpt><trkpt lat="52.66006" lon="17.166663"></trkpt><trkpt lat="52.659473" lon="17.165465"></trkpt><trkpt lat="52.659189" lon="17.165"></trkpt><trkpt lat="52.65898" lon="17.164595"></trkpt><trkpt lat="52.658842" lon="17.163757"></trkpt><trkpt lat="52.658509" lon="17.16067"></trkpt><trkpt lat="52.658572" lon="17.160329"></trkpt><trkpt lat="52.65876" lon="17.1599"></trkpt><trkpt lat="52.658855" lon="17.159596"></trkpt><trkpt lat="52.658913" lon="17.158746"></trkpt><trkpt lat="52.658975" lon="17.158207"></trkpt><trkpt lat="52.658484" lon="17.157811"></trkpt><trkpt lat="52.658271" lon="17.157707"></trkpt><trkpt lat="52.657303" lon="17.156976"></trkpt><trkpt lat="52.657142" lon="17.156483"></trkpt><trkpt lat="52.657047" lon="17.156082"></trkpt><trkpt lat="52.656805" lon="17.155366"></trkpt><trkpt lat="52.656301" lon="17.154132"></trkpt><trkpt lat="52.655822" lon="17.153131"></trkpt><trkpt lat="52.653218" lon="17.15768"></trkpt><trkpt lat="52.652705" lon="17.157864"></trkpt><trkpt lat="52.652258" lon="17.15809"></trkpt><trkpt lat="52.652087" lon="17.158332"></trkpt><trkpt lat="52.651859" lon="17.158449"></trkpt><trkpt lat="52.651668" lon="17.158697"></trkpt><trkpt lat="52.647394" lon="17.163486"></trkpt><trkpt lat="52.64719" lon="17.163594"></trkpt><trkpt lat="52.645317" lon="17.164335"></trkpt><trkpt lat="52.643484" lon="17.164838"></trkpt><trkpt lat="52.642223" lon="17.164649"></trkpt><trkpt lat="52.639091" lon="17.164596"></trkpt><trkpt lat="52.637969" lon="17.164427"></trkpt><trkpt lat="52.637942" lon="17.163997"></trkpt><trkpt lat="52.637149" lon="17.156835"></trkpt><trkpt lat="52.636955" lon="17.156253"></trkpt><trkpt lat="52.636681" lon="17.155216"></trkpt><trkpt lat="52.636609" lon="17.15481"></trkpt><trkpt lat="52.636657" lon="17.153834"></trkpt><trkpt lat="52.636749" lon="17.153188"></trkpt><trkpt lat="52.636938" lon="17.152437"></trkpt><trkpt lat="52.636969" lon="17.15113"></trkpt><trkpt lat="52.637024" lon="17.150794"></trkpt><trkpt lat="52.637155" lon="17.150514"></trkpt><trkpt lat="52.63733" lon="17.150314"></trkpt><trkpt lat="52.637546" lon="17.150133"></trkpt><trkpt lat="52.637687" lon="17.149899"></trkpt><trkpt lat="52.637737" lon="17.14956"></trkpt><trkpt lat="52.637641" lon="17.148181"></trkpt><trkpt lat="52.637612" lon="17.146847"></trkpt><trkpt lat="52.637758" lon="17.14622"></trkpt><trkpt lat="52.637976" lon="17.144944"></trkpt><trkpt lat="52.63797" lon="17.144608"></trkpt><trkpt lat="52.637613" lon="17.144492"></trkpt><trkpt lat="52.637011" lon="17.144097"></trkpt><trkpt lat="52.636511" lon="17.144112"></trkpt><trkpt lat="52.636273" lon="17.144012"></trkpt><trkpt lat="52.63607" lon="17.143975"></trkpt><trkpt lat="52.6359" lon="17.14375"></trkpt><trkpt lat="52.635239" lon="17.143541"></trkpt><trkpt lat="52.634601" lon="17.143445"></trkpt><trkpt lat="52.634185" lon="17.14377"></trkpt></trkseg></trk></gpx>