<?xml version="1.0" encoding="UTF-8" standalone="no" ?><gpx xmlns="http://www.topografix.com/GPX/1/1" xmlns:gpxx="http://www.garmin.com/xmlschemas/GpxExtensions/v3" ><trk><trkseg><trkpt lat="52.36827" lon="16.92286"></trkpt><trkpt lat="52.368065" lon="16.922596"></trkpt><trkpt lat="52.367932" lon="16.922139"></trkpt><trkpt lat="52.367856" lon="16.921757"></trkpt><trkpt lat="52.367598" lon="16.920943"></trkpt><trkpt lat="52.367358" lon="16.920315"></trkpt><trkpt lat="52.367143" lon="16.920085"></trkpt><trkpt lat="52.365529" lon="16.917974"></trkpt><trkpt lat="52.36522" lon="16.917145"></trkpt><trkpt lat="52.365149" lon="16.916801"></trkpt><trkpt lat="52.36508" lon="16.916341"></trkpt><trkpt lat="52.364658" lon="16.914492"></trkpt><trkpt lat="52.364524" lon="16.913683"></trkpt><trkpt lat="52.364495" lon="16.913253"></trkpt><trkpt lat="52.364428" lon="16.912917"></trkpt><trkpt lat="52.36428" lon="16.912603"></trkpt><trkpt lat="52.363978" lon="16.912201"></trkpt><trkpt lat="52.363521" lon="16.911919"></trkpt><trkpt lat="52.361238" lon="16.910073"></trkpt><trkpt lat="52.360574" lon="16.909258"></trkpt><trkpt lat="52.353666" lon="16.902051"></trkpt><trkpt lat="52.353183" lon="16.901825"></trkpt><trkpt lat="52.352933" lon="16.901817"></trkpt><trkpt lat="52.352698" lon="16.901599"></trkpt><trkpt lat="52.352429" lon="16.901419"></trkpt><trkpt lat="52.351983" lon="16.901045"></trkpt><trkpt lat="52.351781" lon="16.900825"></trkpt><trkpt lat="52.351314" lon="16.900208"></trkpt><trkpt lat="52.348468" lon="16.896958"></trkpt><trkpt lat="52.348289" lon="16.896692"></trkpt><trkpt lat="52.34811" lon="16.896545"></trkpt><trkpt lat="52.347909" lon="16.896344"></trkpt><trkpt lat="52.347718" lon="16.896089"></trkpt><trkpt lat="52.347207" lon="16.895654"></trkpt><trkpt lat="52.346974" lon="16.89557"></trkpt><trkpt lat="52.346699" lon="16.895425"></trkpt><trkpt lat="52.346605" lon="16.895841"></trkpt><trkpt lat="52.345824" lon="16.897456"></trkpt><trkpt lat="52.345364" lon="16.89738"></trkpt><trkpt lat="52.345016" lon="16.897276"></trkpt><trkpt lat="52.344718" lon="16.897316"></trkpt><trkpt lat="52.344434" lon="16.897391"></trkpt><trkpt lat="52.344434" lon="16.898506"></trkpt><trkpt lat="52.344386" lon="16.89933"></trkpt><trkpt lat="52.344158" lon="16.89936"></trkpt><trkpt lat="52.343298" lon="16.899603"></trkpt><trkpt lat="52.342639" lon="16.899523"></trkpt><trkpt lat="52.342143" lon="16.899363"></trkpt><trkpt lat="52.341666" lon="16.899069"></trkpt><trkpt lat="52.339653" lon="16.898143"></trkpt><trkpt lat="52.338876" lon="16.897987"></trkpt><trkpt lat="52.3385" lon="16.898243"></trkpt><trkpt lat="52.337565" lon="16.898717"></trkpt><trkpt lat="52.337342" lon="16.898992"></trkpt><trkpt lat="52.33711" lon="16.89908"></trkpt><trkpt lat="52.336545" lon="16.899023"></trkpt><trkpt lat="52.336356" lon="16.898913"></trkpt><trkpt lat="52.336175" lon="16.898084"></trkpt><trkpt lat="52.335877" lon="16.897114"></trkpt><trkpt lat="52.335613" lon="16.896843"></trkpt><trkpt lat="52.335403" lon="16.896684"></trkpt><trkpt lat="52.335144" lon="16.896524"></trkpt><trkpt lat="52.334937" lon="16.896446"></trkpt><trkpt lat="52.333899" lon="16.896972"></trkpt><trkpt lat="52.333681" lon="16.896725"></trkpt><trkpt lat="52.333657" lon="16.8963"></trkpt><trkpt lat="52.333672" lon="16.89559"></trkpt><trkpt lat="52.333647" lon="16.895052"></trkpt><trkpt lat="52.333465" lon="16.894298"></trkpt><trkpt lat="52.333205" lon="16.893982"></trkpt><trkpt lat="52.332543" lon="16.893512"></trkpt><trkpt lat="52.33229" lon="16.893415"></trkpt><trkpt lat="52.332014" lon="16.893271"></trkpt><trkpt lat="52.332148" lon="16.892373"></trkpt><trkpt lat="52.332249" lon="16.89129"></trkpt><trkpt lat="52.331536" lon="16.890999"></trkpt><trkpt lat="52.331363" lon="16.890817"></trkpt><trkpt lat="52.331155" lon="16.89082"></trkpt><trkpt lat="52.33098" lon="16.890978"></trkpt><trkpt lat="52.33078" lon="16.891121"></trkpt><trkpt lat="52.330416" lon="16.891285"></trkpt><trkpt lat="52.32958" lon="16.891053"></trkpt><trkpt lat="52.329323" lon="16.891029"></trkpt><trkpt lat="52.326247" lon="16.891701"></trkpt><trkpt lat="52.325923" lon="16.891934"></trkpt><trkpt lat="52.325742" lon="16.892109"></trkpt><trkpt lat="52.325549" lon="16.89233"></trkpt><trkpt lat="52.325207" lon="16.89259"></trkpt><trkpt lat="52.325031" lon="16.892788"></trkpt><trkpt lat="52.32492" lon="16.893099"></trkpt><trkpt lat="52.324436" lon="16.893784"></trkpt><trkpt lat="52.324168" lon="16.894225"></trkpt><trkpt lat="52.323818" lon="16.894701"></trkpt><trkpt lat="52.323576" lon="16.894757"></trkpt><trkpt lat="52.32298" lon="16.894547"></trkpt><trkpt lat="52.322669" lon="16.894509"></trkpt><trkpt lat="52.322495" lon="16.894684"></trkpt><trkpt lat="52.322096" lon="16.894495"></trkpt><trkpt lat="52.321873" lon="16.894323"></trkpt><trkpt lat="52.319771" lon="16.893134"></trkpt><trkpt lat="52.319551" lon="16.893342"></trkpt><trkpt lat="52.319298" lon="16.893647"></trkpt><trkpt lat="52.316849" lon="16.896144"></trkpt><trkpt lat="52.31657" lon="16.896173"></trkpt><trkpt lat="52.314951" lon="16.896653"></trkpt><trkpt lat="52.314829" lon="16.896939"></trkpt><trkpt lat="52.314628" lon="16.897112"></trkpt><trkpt lat="52.314409" lon="16.897254"></trkpt><trkpt lat="52.314277" lon="16.897508"></trkpt><trkpt lat="52.314128" lon="16.897923"></trkpt><trkpt lat="52.314059" lon="16.898267"></trkpt><trkpt lat="52.313954" lon="16.899156"></trkpt><trkpt lat="52.312876" lon="16.905622"></trkpt><trkpt lat="52.312752" lon="16.905904"></trkpt><trkpt lat="52.312461" lon="16.906764"></trkpt><trkpt lat="52.312282" lon="16.907032"></trkpt><trkpt lat="52.311959" lon="16.907441"></trkpt><trkpt lat="52.311672" lon="16.907727"></trkpt><trkpt lat="52.311229" lon="16.90809"></trkpt><trkpt lat="52.311032" lon="16.908195"></trkpt><trkpt lat="52.309734" lon="16.908562"></trkpt><trkpt lat="52.308229" lon="16.907898"></trkpt><trkpt lat="52.307847" lon="16.90758"></trkpt><trkpt lat="52.307319" lon="16.907006"></trkpt><trkpt lat="52.307256" lon="16.906699"></trkpt><trkpt lat="52.3072" lon="16.90634"></trkpt><trkpt lat="52.307165" lon="16.905929"></trkpt><trkpt lat="52.307177" lon="16.905591"></trkpt><trkpt lat="52.307273" lon="16.905103"></trkpt><trkpt lat="52.307462" lon="16.904672"></trkpt><trkpt lat="52.308089" lon="16.903528"></trkpt><trkpt lat="52.308269" lon="16.903389"></trkpt><trkpt lat="52.308458" lon="16.903178"></trkpt><trkpt lat="52.308833" lon="16.902924"></trkpt><trkpt lat="52.309063" lon="16.902696"></trkpt><trkpt lat="52.309362" lon="16.902555"></trkpt><trkpt lat="52.309784" lon="16.902278"></trkpt><trkpt lat="52.310096" lon="16.902016"></trkpt><trkpt lat="52.310277" lon="16.901781"></trkpt><trkpt lat="52.310741" lon="16.901043"></trkpt><trkpt lat="52.310849" lon="16.900753"></trkpt><trkpt lat="52.310825" lon="16.900364"></trkpt><trkpt lat="52.310736" lon="16.899929"></trkpt><trkpt lat="52.310603" lon="16.899482"></trkpt><trkpt lat="52.310451" lon="16.899142"></trkpt><trkpt lat="52.310032" lon="16.898553"></trkpt><trkpt lat="52.309596" lon="16.898161"></trkpt><trkpt lat="52.309243" lon="16.898025"></trkpt><trkpt lat="52.308717" lon="16.897902"></trkpt><trkpt lat="52.308225" lon="16.897848"></trkpt><trkpt lat="52.306188" lon="16.897281"></trkpt><trkpt lat="52.305992" lon="16.89716"></trkpt><trkpt lat="52.305792" lon="16.897068"></trkpt><trkpt lat="52.305536" lon="16.896906"></trkpt><trkpt lat="52.304968" lon="16.896337"></trkpt><trkpt lat="52.304791" lon="16.896069"></trkpt><trkpt lat="52.304668" lon="16.895777"></trkpt><trkpt lat="52.304558" lon="16.895444"></trkpt><trkpt lat="52.304507" lon="16.89459"></trkpt><trkpt lat="52.30457" lon="16.893871"></trkpt><trkpt lat="52.30467" lon="16.89313"></trkpt><trkpt lat="52.304858" lon="16.892726"></trkpt><trkpt lat="52.304865" lon="16.892196"></trkpt><trkpt lat="52.304949" lon="16.891898"></trkpt><trkpt lat="52.305064" lon="16.891396"></trkpt><trkpt lat="52.305177" lon="16.891101"></trkpt><trkpt lat="52.305264" lon="16.890714"></trkpt><trkpt lat="52.305278" lon="16.89032"></trkpt><trkpt lat="52.305232" lon="16.889144"></trkpt><trkpt lat="52.30519" lon="16.888679"></trkpt><trkpt lat="52.305187" lon="16.888213"></trkpt><trkpt lat="52.305094" lon="16.887916"></trkpt><trkpt lat="52.305039" lon="16.887557"></trkpt><trkpt lat="52.304907" lon="16.887166"></trkpt><trkpt lat="52.30504" lon="16.886903"></trkpt><trkpt lat="52.30519" lon="16.886659"></trkpt><trkpt lat="52.304981" lon="16.886551"></trkpt><trkpt lat="52.304705" lon="16.886352"></trkpt><trkpt lat="52.30461" lon="16.885979"></trkpt><trkpt lat="52.304478" lon="16.885683"></trkpt><trkpt lat="52.30361" lon="16.884114"></trkpt><trkpt lat="52.303345" lon="16.883769"></trkpt><trkpt lat="52.302566" lon="16.882917"></trkpt><trkpt lat="52.301682" lon="16.881758"></trkpt><trkpt lat="52.301532" lon="16.881478"></trkpt><trkpt lat="52.301378" lon="16.88105"></trkpt><trkpt lat="52.301196" lon="16.88063"></trkpt><trkpt lat="52.301066" lon="16.880233"></trkpt><trkpt lat="52.300406" lon="16.878759"></trkpt><trkpt lat="52.300153" lon="16.878554"></trkpt><trkpt lat="52.299342" lon="16.877775"></trkpt><trkpt lat="52.29923" lon="16.877025"></trkpt><trkpt lat="52.299061" lon="16.876313"></trkpt><trkpt lat="52.298872" lon="16.876502"></trkpt><trkpt lat="52.298591" lon="16.876513"></trkpt><trkpt lat="52.29839" lon="16.876269"></trkpt><trkpt lat="52.298223" lon="16.876008"></trkpt><trkpt lat="52.296968" lon="16.874322"></trkpt><trkpt lat="52.296637" lon="16.874079"></trkpt><trkpt lat="52.296303" lon="16.873919"></trkpt><trkpt lat="52.295582" lon="16.873715"></trkpt><trkpt lat="52.294749" lon="16.874167"></trkpt><trkpt lat="52.294474" lon="16.874523"></trkpt><trkpt lat="52.294279" lon="16.874738"></trkpt><trkpt lat="52.293955" lon="16.874943"></trkpt><trkpt lat="52.29397" lon="16.875288"></trkpt><trkpt lat="52.293877" lon="16.875596"></trkpt><trkpt lat="52.293335" lon="16.87778"></trkpt><trkpt lat="52.293177" lon="16.878028"></trkpt><trkpt lat="52.293069" lon="16.878619"></trkpt><trkpt lat="52.293039" lon="16.87902"></trkpt><trkpt lat="52.292971" lon="16.879491"></trkpt><trkpt lat="52.292771" lon="16.880284"></trkpt><trkpt lat="52.292634" lon="16.880596"></trkpt><trkpt lat="52.292485" lon="16.88086"></trkpt><trkpt lat="52.292291" lon="16.881055"></trkpt><trkpt lat="52.291959" lon="16.881214"></trkpt><trkpt lat="52.29072" lon="16.881646"></trkpt><trkpt lat="52.290362" lon="16.881639"></trkpt><trkpt lat="52.289973" lon="16.881561"></trkpt><trkpt lat="52.289243" lon="16.881321"></trkpt><trkpt lat="52.288975" lon="16.881137"></trkpt><trkpt lat="52.287866" lon="16.88053"></trkpt><trkpt lat="52.287653" lon="16.880493"></trkpt><trkpt lat="52.287204" lon="16.880345"></trkpt><trkpt lat="52.286932" lon="16.880218"></trkpt><trkpt lat="52.285238" lon="16.878923"></trkpt><trkpt lat="52.285241" lon="16.878448"></trkpt><trkpt lat="52.285182" lon="16.876985"></trkpt><trkpt lat="52.285129" lon="16.876523"></trkpt><trkpt lat="52.284921" lon="16.876431"></trkpt><trkpt lat="52.284691" lon="16.876405"></trkpt><trkpt lat="52.278426" lon="16.874914"></trkpt><trkpt lat="52.278238" lon="16.874804"></trkpt><trkpt lat="52.277922" lon="16.874472"></trkpt><trkpt lat="52.277577" lon="16.874047"></trkpt><trkpt lat="52.276939" lon="16.873384"></trkpt><trkpt lat="52.276843" lon="16.873087"></trkpt><trkpt lat="52.276755" lon="16.872654"></trkpt><trkpt lat="52.276414" lon="16.872286"></trkpt><trkpt lat="52.274793" lon="16.870799"></trkpt><trkpt lat="52.274313" lon="16.870526"></trkpt><trkpt lat="52.273043" lon="16.869981"></trkpt><trkpt lat="52.272823" lon="16.869938"></trkpt><trkpt lat="52.272427" lon="16.869427"></trkpt><trkpt lat="52.272317" lon="16.869132"></trkpt><trkpt lat="52.271797" lon="16.868715"></trkpt><trkpt lat="52.271598" lon="16.868618"></trkpt><trkpt lat="52.271402" lon="16.86907"></trkpt><trkpt lat="52.270752" lon="16.870366"></trkpt><trkpt lat="52.270874" lon="16.870685"></trkpt><trkpt lat="52.270239" lon="16.870999"></trkpt><trkpt lat="52.265483" lon="16.872726"></trkpt><trkpt lat="52.265279" lon="16.87277"></trkpt><trkpt lat="52.264318" lon="16.87285"></trkpt><trkpt lat="52.264095" lon="16.872903"></trkpt><trkpt lat="52.263406" lon="16.872964"></trkpt><trkpt lat="52.262532" lon="16.87278"></trkpt><trkpt lat="52.261827" lon="16.872516"></trkpt><trkpt lat="52.26128" lon="16.872128"></trkpt><trkpt lat="52.259854" lon="16.871669"></trkpt><trkpt lat="52.259192" lon="16.871762"></trkpt><trkpt lat="52.253231" lon="16.873331"></trkpt><trkpt lat="52.253088" lon="16.87368"></trkpt><trkpt lat="52.25293" lon="16.873976"></trkpt><trkpt lat="52.25272" lon="16.874003"></trkpt><trkpt lat="52.252435" lon="16.873793"></trkpt><trkpt lat="52.252263" lon="16.873521"></trkpt><trkpt lat="52.251932" lon="16.873089"></trkpt><trkpt lat="52.251539" lon="16.872883"></trkpt><trkpt lat="52.251273" lon="16.872967"></trkpt><trkpt lat="52.251041" lon="16.873131"></trkpt><trkpt lat="52.250006" lon="16.874029"></trkpt><trkpt lat="52.248874" lon="16.874823"></trkpt><trkpt lat="52.24862" lon="16.874447"></trkpt><trkpt lat="52.248536" lon="16.874137"></trkpt><trkpt lat="52.248466" lon="16.873759"></trkpt><trkpt lat="52.248335" lon="16.873271"></trkpt><trkpt lat="52.248224" lon="16.87273"></trkpt><trkpt lat="52.247998" lon="16.871267"></trkpt><trkpt lat="52.247659" lon="16.86788"></trkpt><trkpt lat="52.247632" lon="16.86739"></trkpt><trkpt lat="52.247554" lon="16.866721"></trkpt><trkpt lat="52.247519" lon="16.866142"></trkpt><trkpt lat="52.247438" lon="16.86561"></trkpt><trkpt lat="52.246667" lon="16.861899"></trkpt><trkpt lat="52.244993" lon="16.855566"></trkpt><trkpt lat="52.244802" lon="16.855026"></trkpt><trkpt lat="52.244612" lon="16.854378"></trkpt><trkpt lat="52.244472" lon="16.853653"></trkpt><trkpt lat="52.243943" lon="16.851712"></trkpt><trkpt lat="52.243773" lon="16.851905"></trkpt><trkpt lat="52.243593" lon="16.852848"></trkpt><trkpt lat="52.243398" lon="16.853568"></trkpt><trkpt lat="52.242384" lon="16.856544"></trkpt><trkpt lat="52.241453" lon="16.858763"></trkpt><trkpt lat="52.24078" lon="16.861145"></trkpt><trkpt lat="52.240572" lon="16.862377"></trkpt><trkpt lat="52.236292" lon="16.881204"></trkpt><trkpt lat="52.235447" lon="16.881323"></trkpt><trkpt lat="52.232344" lon="16.882494"></trkpt><trkpt lat="52.231785" lon="16.883407"></trkpt><trkpt lat="52.231259" lon="16.884735"></trkpt><trkpt lat="52.229587" lon="16.889862"></trkpt><trkpt lat="52.229412" lon="16.891193"></trkpt><trkpt lat="52.228463" lon="16.896368"></trkpt><trkpt lat="52.227867" lon="16.897196"></trkpt><trkpt lat="52.226926" lon="16.898031"></trkpt><trkpt lat="52.216423" lon="16.909041"></trkpt><trkpt lat="52.215989" lon="16.910549"></trkpt><trkpt lat="52.211311" lon="16.93028"></trkpt><trkpt lat="52.211218" lon="16.931479"></trkpt><trkpt lat="52.209777" lon="16.943307"></trkpt><trkpt lat="52.209511" lon="16.944443"></trkpt><trkpt lat="52.208773" lon="16.948764"></trkpt><trkpt lat="52.208513" lon="16.949887"></trkpt><trkpt lat="52.208391" lon="16.950317"></trkpt><trkpt lat="52.208013" lon="16.950487"></trkpt><trkpt lat="52.207633" lon="16.9506"></trkpt><trkpt lat="52.203169" lon="16.952588"></trkpt><trkpt lat="52.202844" lon="16.952855"></trkpt><trkpt lat="52.202574" lon="16.953144"></trkpt><trkpt lat="52.200889" lon="16.954629"></trkpt><trkpt lat="52.200131" lon="16.955093"></trkpt><trkpt lat="52.197864" lon="16.957173"></trkpt><trkpt lat="52.197596" lon="16.958177"></trkpt><trkpt lat="52.194964" lon="16.970836"></trkpt><trkpt lat="52.19484" lon="16.971805"></trkpt><trkpt lat="52.1943" lon="16.974802"></trkpt><trkpt lat="52.194245" lon="16.975436"></trkpt><trkpt lat="52.194151" lon="16.976106"></trkpt><trkpt lat="52.194044" lon="16.976461"></trkpt><trkpt lat="52.193864" lon="16.976958"></trkpt><trkpt lat="52.193505" lon="16.977674"></trkpt><trkpt lat="52.192007" lon="16.98024"></trkpt><trkpt lat="52.191817" lon="16.980445"></trkpt><trkpt lat="52.191587" lon="16.980623"></trkpt><trkpt lat="52.191105" lon="16.980758"></trkpt><trkpt lat="52.190852" lon="16.980747"></trkpt><trkpt lat="52.190698" lon="16.980356"></trkpt><trkpt lat="52.190577" lon="16.979729"></trkpt><trkpt lat="52.19048" lon="16.979394"></trkpt><trkpt lat="52.190388" lon="16.978909"></trkpt><trkpt lat="52.189227" lon="16.974121"></trkpt><trkpt lat="52.188686" lon="16.973809"></trkpt><trkpt lat="52.18823" lon="16.973606"></trkpt><trkpt lat="52.187871" lon="16.973666"></trkpt><trkpt lat="52.183468" lon="16.974993"></trkpt><trkpt lat="52.183165" lon="16.97523"></trkpt><trkpt lat="52.180444" lon="16.976908"></trkpt><trkpt lat="52.180242" lon="16.976967"></trkpt><trkpt lat="52.168537" lon="16.979018"></trkpt><trkpt lat="52.147982" lon="16.975852"></trkpt><trkpt lat="52.147751" lon="16.975861"></trkpt><trkpt lat="52.147514" lon="16.975804"></trkpt><trkpt lat="52.147288" lon="16.975794"></trkpt><trkpt lat="52.144758" lon="16.976305"></trkpt><trkpt lat="52.144271" lon="16.976532"></trkpt><trkpt lat="52.144072" lon="16.97635"></trkpt><trkpt lat="52.143939" lon="16.976006"></trkpt><trkpt lat="52.143752" lon="16.97579"></trkpt><trkpt lat="52.143418" lon="16.975734"></trkpt><trkpt lat="52.142844" lon="16.975366"></trkpt><trkpt lat="52.141839" lon="16.974212"></trkpt><trkpt lat="52.141791" lon="16.973448"></trkpt><trkpt lat="52.138342" lon="16.940013"></trkpt><trkpt lat="52.137297" lon="16.921509"></trkpt><trkpt lat="52.137576" lon="16.919718"></trkpt><trkpt lat="52.139465" lon="16.902654"></trkpt><trkpt lat="52.139501" lon="16.901198"></trkpt><trkpt lat="52.140089" lon="16.893509"></trkpt><trkpt lat="52.140297" lon="16.893146"></trkpt><trkpt lat="52.140484" lon="16.892888"></trkpt><trkpt lat="52.140728" lon="16.892665"></trkpt><trkpt lat="52.141023" lon="16.892296"></trkpt><trkpt lat="52.140986" lon="16.891971"></trkpt><trkpt lat="52.140806" lon="16.891468"></trkpt><trkpt lat="52.140638" lon="16.890825"></trkpt><trkpt lat="52.140228" lon="16.889551"></trkpt><trkpt lat="52.14006" lon="16.889347"></trkpt><trkpt lat="52.13985" lon="16.889284"></trkpt><trkpt lat="52.138947" lon="16.889244"></trkpt><trkpt lat="52.138147" lon="16.889108"></trkpt><trkpt lat="52.137948" lon="16.888859"></trkpt><trkpt lat="52.137359" lon="16.887399"></trkpt><trkpt lat="52.136712" lon="16.884938"></trkpt><trkpt lat="52.136614" lon="16.883655"></trkpt><trkpt lat="52.135932" lon="16.879112"></trkpt><trkpt lat="52.135659" lon="16.878394"></trkpt><trkpt lat="52.130305" lon="16.866295"></trkpt><trkpt lat="52.129976" lon="16.866003"></trkpt><trkpt lat="52.129813" lon="16.865757"></trkpt><trkpt lat="52.12938" lon="16.864731"></trkpt><trkpt lat="52.129301" lon="16.864403"></trkpt><trkpt lat="52.129157" lon="16.863644"></trkpt><trkpt lat="52.125863" lon="16.851417"></trkpt><trkpt lat="52.125429" lon="16.850951"></trkpt><trkpt lat="52.125368" lon="16.850644"></trkpt><trkpt lat="52.125571" lon="16.849889"></trkpt><trkpt lat="52.129716" lon="16.830618"></trkpt><trkpt lat="52.129914" lon="16.829013"></trkpt><trkpt lat="52.134024" lon="16.806635"></trkpt><trkpt lat="52.134607" lon="16.805656"></trkpt><trkpt lat="52.137643" lon="16.799539"></trkpt><trkpt lat="52.138072" lon="16.798241"></trkpt><trkpt lat="52.141277" lon="16.786059"></trkpt><trkpt lat="52.141467" lon="16.784571"></trkpt><trkpt lat="52.143279" lon="16.762531"></trkpt><trkpt lat="52.143206" lon="16.762224"></trkpt><trkpt lat="52.142979" lon="16.761656"></trkpt><trkpt lat="52.142782" lon="16.760413"></trkpt><trkpt lat="52.142662" lon="16.759184"></trkpt><trkpt lat="52.142267" lon="16.756491"></trkpt><trkpt lat="52.141768" lon="16.75655"></trkpt><trkpt lat="52.141569" lon="16.756442"></trkpt><trkpt lat="52.140976" lon="16.75578"></trkpt><trkpt lat="52.140819" lon="16.755576"></trkpt><trkpt lat="52.140686" lon="16.755086"></trkpt><trkpt lat="52.140541" lon="16.754831"></trkpt><trkpt lat="52.140311" lon="16.754607"></trkpt><trkpt lat="52.140356" lon="16.754026"></trkpt></trkseg></trk></gpx>