<?xml version="1.0" encoding="UTF-8" standalone="no" ?><gpx xmlns="http://www.topografix.com/GPX/1/1" xmlns:gpxx="http://www.garmin.com/xmlschemas/GpxExtensions/v3" ><trk><trkseg><trkpt lat="52.310335" lon="17.807102"></trkpt><trkpt lat="52.3106" lon="17.807544"></trkpt><trkpt lat="52.310615" lon="17.807931"></trkpt><trkpt lat="52.310774" lon="17.808165"></trkpt><trkpt lat="52.313911" lon="17.811945"></trkpt><trkpt lat="52.314557" lon="17.812587"></trkpt><trkpt lat="52.315205" lon="17.813049"></trkpt><trkpt lat="52.315978" lon="17.813265"></trkpt><trkpt lat="52.316668" lon="17.813706"></trkpt><trkpt lat="52.317303" lon="17.814246"></trkpt><trkpt lat="52.320898" lon="17.817983"></trkpt><trkpt lat="52.32068" lon="17.8186"></trkpt><trkpt lat="52.31907" lon="17.825457"></trkpt><trkpt lat="52.319831" lon="17.825716"></trkpt><trkpt lat="52.327431" lon="17.827324"></trkpt><trkpt lat="52.329278" lon="17.827946"></trkpt><trkpt lat="52.330361" lon="17.828482"></trkpt><trkpt lat="52.332268" lon="17.830022"></trkpt><trkpt lat="52.333222" lon="17.831067"></trkpt><trkpt lat="52.337321" lon="17.834671"></trkpt><trkpt lat="52.338099" lon="17.835014"></trkpt><trkpt lat="52.341006" lon="17.835536"></trkpt><trkpt lat="52.346537" lon="17.835269"></trkpt><trkpt lat="52.347206" lon="17.835981"></trkpt><trkpt lat="52.348064" lon="17.837121"></trkpt><trkpt lat="52.348714" lon="17.838138"></trkpt><trkpt lat="52.35061" lon="17.840596"></trkpt><trkpt lat="52.35571" lon="17.848645"></trkpt><trkpt lat="52.355909" lon="17.850366"></trkpt><trkpt lat="52.357867" lon="17.860907"></trkpt><trkpt lat="52.358438" lon="17.861804"></trkpt><trkpt lat="52.366103" lon="17.872251"></trkpt><trkpt lat="52.366106" lon="17.872601"></trkpt><trkpt lat="52.366001" lon="17.873087"></trkpt><trkpt lat="52.365791" lon="17.873525"></trkpt><trkpt lat="52.365686" lon="17.873804"></trkpt><trkpt lat="52.36488" lon="17.876462"></trkpt><trkpt lat="52.364893" lon="17.877576"></trkpt><trkpt lat="52.365253" lon="17.884158"></trkpt><trkpt lat="52.365205" lon="17.889051"></trkpt><trkpt lat="52.364802" lon="17.888947"></trkpt><trkpt lat="52.3645" lon="17.88895"></trkpt><trkpt lat="52.364514" lon="17.889619"></trkpt><trkpt lat="52.364402" lon="17.89048"></trkpt><trkpt lat="52.363608" lon="17.901029"></trkpt><trkpt lat="52.363778" lon="17.902397"></trkpt><trkpt lat="52.364338" lon="17.905282"></trkpt><trkpt lat="52.364444" lon="17.906763"></trkpt><trkpt lat="52.364637" lon="17.908313"></trkpt><trkpt lat="52.365267" lon="17.909111"></trkpt><trkpt lat="52.365417" lon="17.909418"></trkpt><trkpt lat="52.365679" lon="17.911018"></trkpt><trkpt lat="52.365776" lon="17.911981"></trkpt><trkpt lat="52.365796" lon="17.913253"></trkpt><trkpt lat="52.365921" lon="17.914681"></trkpt><trkpt lat="52.365992" lon="17.91517"></trkpt><trkpt lat="52.366118" lon="17.915529"></trkpt><trkpt lat="52.366798" lon="17.916362"></trkpt><trkpt lat="52.366915" lon="17.916711"></trkpt><trkpt lat="52.366885" lon="17.917075"></trkpt><trkpt lat="52.366716" lon="17.918144"></trkpt><trkpt lat="52.366554" lon="17.918857"></trkpt><trkpt lat="52.366002" lon="17.922014"></trkpt><trkpt lat="52.365955" lon="17.922431"></trkpt><trkpt lat="52.362453" lon="17.944577"></trkpt><trkpt lat="52.362356" lon="17.944933"></trkpt><trkpt lat="52.362003" lon="17.946839"></trkpt><trkpt lat="52.361979" lon="17.947346"></trkpt><trkpt lat="52.362073" lon="17.946342"></trkpt><trkpt lat="52.362161" lon="17.945912"></trkpt><trkpt lat="52.364064" lon="17.939322"></trkpt><trkpt lat="52.364919" lon="17.938805"></trkpt><trkpt lat="52.366362" lon="17.937712"></trkpt><trkpt lat="52.367131" lon="17.936865"></trkpt><trkpt lat="52.367659" lon="17.936174"></trkpt><trkpt lat="52.368096" lon="17.934243"></trkpt><trkpt lat="52.368343" lon="17.932816"></trkpt><trkpt lat="52.370744" lon="17.922521"></trkpt><trkpt lat="52.370983" lon="17.922049"></trkpt><trkpt lat="52.372381" lon="17.918623"></trkpt><trkpt lat="52.372523" lon="17.917493"></trkpt><trkpt lat="52.372644" lon="17.916796"></trkpt><trkpt lat="52.372833" lon="17.91666"></trkpt><trkpt lat="52.37308" lon="17.916669"></trkpt><trkpt lat="52.374004" lon="17.916493"></trkpt><trkpt lat="52.374237" lon="17.91577"></trkpt><trkpt lat="52.374551" lon="17.915005"></trkpt><trkpt lat="52.374738" lon="17.915177"></trkpt><trkpt lat="52.374794" lon="17.915495"></trkpt><trkpt lat="52.376091" lon="17.921196"></trkpt><trkpt lat="52.376685" lon="17.920696"></trkpt><trkpt lat="52.377156" lon="17.920373"></trkpt><trkpt lat="52.377339" lon="17.920585"></trkpt><trkpt lat="52.377643" lon="17.9217"></trkpt><trkpt lat="52.377866" lon="17.922786"></trkpt><trkpt lat="52.377981" lon="17.923691"></trkpt><trkpt lat="52.378643" lon="17.927217"></trkpt><trkpt lat="52.37904" lon="17.927139"></trkpt><trkpt lat="52.389868" lon="17.926275"></trkpt><trkpt lat="52.390368" lon="17.926411"></trkpt><trkpt lat="52.391371" lon="17.926519"></trkpt><trkpt lat="52.393088" lon="17.926999"></trkpt><trkpt lat="52.393749" lon="17.927531"></trkpt><trkpt lat="52.393941" lon="17.927721"></trkpt><trkpt lat="52.39535" lon="17.928896"></trkpt><trkpt lat="52.396264" lon="17.929472"></trkpt><trkpt lat="52.396497" lon="17.929511"></trkpt><trkpt lat="52.396724" lon="17.929386"></trkpt><trkpt lat="52.397385" lon="17.928735"></trkpt><trkpt lat="52.399209" lon="17.926576"></trkpt><trkpt lat="52.403403" lon="17.919974"></trkpt><trkpt lat="52.403478" lon="17.919618"></trkpt><trkpt lat="52.404053" lon="17.915942"></trkpt><trkpt lat="52.403994" lon="17.914533"></trkpt><trkpt lat="52.404001" lon="17.910871"></trkpt><trkpt lat="52.404538" lon="17.909644"></trkpt><trkpt lat="52.404925" lon="17.908882"></trkpt><trkpt lat="52.405135" lon="17.908841"></trkpt><trkpt lat="52.407939" lon="17.908633"></trkpt><trkpt lat="52.407947" lon="17.908964"></trkpt><trkpt lat="52.407902" lon="17.909337"></trkpt><trkpt lat="52.407766" lon="17.909777"></trkpt><trkpt lat="52.407861" lon="17.910227"></trkpt><trkpt lat="52.408004" lon="17.910575"></trkpt><trkpt lat="52.408147" lon="17.910867"></trkpt><trkpt lat="52.408227" lon="17.911248"></trkpt><trkpt lat="52.408369" lon="17.911624"></trkpt><trkpt lat="52.408622" lon="17.911686"></trkpt><trkpt lat="52.408868" lon="17.911687"></trkpt><trkpt lat="52.409509" lon="17.911585"></trkpt><trkpt lat="52.409764" lon="17.911074"></trkpt><trkpt lat="52.409861" lon="17.910539"></trkpt><trkpt lat="52.410036" lon="17.909794"></trkpt><trkpt lat="52.410333" lon="17.909334"></trkpt><trkpt lat="52.410456" lon="17.909022"></trkpt><trkpt lat="52.410981" lon="17.90789"></trkpt><trkpt lat="52.411172" lon="17.908073"></trkpt><trkpt lat="52.411708" lon="17.908771"></trkpt><trkpt lat="52.411998" lon="17.909219"></trkpt><trkpt lat="52.412283" lon="17.910249"></trkpt><trkpt lat="52.412321" lon="17.911376"></trkpt><trkpt lat="52.4124" lon="17.912386"></trkpt><trkpt lat="52.412532" lon="17.913407"></trkpt><trkpt lat="52.412593" lon="17.91504"></trkpt><trkpt lat="52.412584" lon="17.915953"></trkpt><trkpt lat="52.412838" lon="17.918674"></trkpt><trkpt lat="52.413438" lon="17.918539"></trkpt><trkpt lat="52.41699" lon="17.918242"></trkpt><trkpt lat="52.417907" lon="17.918541"></trkpt><trkpt lat="52.427796" lon="17.923178"></trkpt><trkpt lat="52.428388" lon="17.924126"></trkpt><trkpt lat="52.432416" lon="17.931786"></trkpt><trkpt lat="52.432495" lon="17.932382"></trkpt><trkpt lat="52.43252" lon="17.933643"></trkpt><trkpt lat="52.432279" lon="17.933785"></trkpt><trkpt lat="52.432109" lon="17.933975"></trkpt><trkpt lat="52.431965" lon="17.934233"></trkpt><trkpt lat="52.431712" lon="17.934949"></trkpt><trkpt lat="52.431584" lon="17.935378"></trkpt><trkpt lat="52.431508" lon="17.935708"></trkpt><trkpt lat="52.431604" lon="17.936005"></trkpt><trkpt lat="52.431942" lon="17.936876"></trkpt><trkpt lat="52.432205" lon="17.937673"></trkpt><trkpt lat="52.432035" lon="17.93795"></trkpt><trkpt lat="52.432271" lon="17.937748"></trkpt><trkpt lat="52.432416" lon="17.938084"></trkpt><trkpt lat="52.432639" lon="17.938015"></trkpt><trkpt lat="52.432917" lon="17.937787"></trkpt><trkpt lat="52.433146" lon="17.938449"></trkpt><trkpt lat="52.433699" lon="17.939743"></trkpt><trkpt lat="52.434061" lon="17.939487"></trkpt><trkpt lat="52.434248" lon="17.940137"></trkpt><trkpt lat="52.434414" lon="17.940858"></trkpt><trkpt lat="52.434342" lon="17.941206"></trkpt><trkpt lat="52.434183" lon="17.941592"></trkpt><trkpt lat="52.431681" lon="17.948833"></trkpt><trkpt lat="52.431605" lon="17.949148"></trkpt><trkpt lat="52.431603" lon="17.949668"></trkpt><trkpt lat="52.431539" lon="17.950004"></trkpt><trkpt lat="52.431495" lon="17.950647"></trkpt><trkpt lat="52.431449" lon="17.953689"></trkpt><trkpt lat="52.431538" lon="17.953986"></trkpt><trkpt lat="52.434434" lon="17.96203"></trkpt><trkpt lat="52.434825" lon="17.962658"></trkpt><trkpt lat="52.442416" lon="17.972902"></trkpt><trkpt lat="52.442615" lon="17.972799"></trkpt><trkpt lat="52.442844" lon="17.972791"></trkpt><trkpt lat="52.443585" lon="17.973591"></trkpt><trkpt lat="52.443805" lon="17.97379"></trkpt><trkpt lat="52.444339" lon="17.973844"></trkpt><trkpt lat="52.444611" lon="17.973914"></trkpt><trkpt lat="52.444817" lon="17.974133"></trkpt><trkpt lat="52.445344" lon="17.974982"></trkpt><trkpt lat="52.445557" lon="17.97521"></trkpt><trkpt lat="52.447775" lon="17.977175"></trkpt><trkpt lat="52.448454" lon="17.976941"></trkpt><trkpt lat="52.449193" lon="17.97591"></trkpt><trkpt lat="52.449577" lon="17.975198"></trkpt><trkpt lat="52.450008" lon="17.974689"></trkpt><trkpt lat="52.45137" lon="17.973345"></trkpt><trkpt lat="52.451535" lon="17.974375"></trkpt><trkpt lat="52.452508" lon="17.978136"></trkpt><trkpt lat="52.452935" lon="17.979158"></trkpt><trkpt lat="52.454095" lon="17.982539"></trkpt><trkpt lat="52.454412" lon="17.984145"></trkpt><trkpt lat="52.455219" lon="17.989774"></trkpt><trkpt lat="52.455385" lon="17.991701"></trkpt><trkpt lat="52.456625" lon="18.000389"></trkpt><trkpt lat="52.457197" lon="18.00127"></trkpt><trkpt lat="52.457932" lon="18.002694"></trkpt><trkpt lat="52.458248" lon="18.003903"></trkpt><trkpt lat="52.459215" lon="18.006595"></trkpt><trkpt lat="52.459691" lon="18.007102"></trkpt><trkpt lat="52.460706" lon="18.008469"></trkpt><trkpt lat="52.460901" lon="18.008981"></trkpt><trkpt lat="52.460554" lon="18.00932"></trkpt><trkpt lat="52.460194" lon="18.009601"></trkpt><trkpt lat="52.459735" lon="18.010076"></trkpt><trkpt lat="52.459553" lon="18.010341"></trkpt><trkpt lat="52.459175" lon="18.011122"></trkpt><trkpt lat="52.458897" lon="18.012105"></trkpt><trkpt lat="52.458619" lon="18.013368"></trkpt><trkpt lat="52.457673" lon="18.016862"></trkpt><trkpt lat="52.457107" lon="18.017731"></trkpt><trkpt lat="52.456557" lon="18.018459"></trkpt><trkpt lat="52.453273" lon="18.022058"></trkpt><trkpt lat="52.452446" lon="18.022611"></trkpt><trkpt lat="52.45166" lon="18.023287"></trkpt><trkpt lat="52.452188" lon="18.024727"></trkpt><trkpt lat="52.452723" lon="18.025925"></trkpt><trkpt lat="52.453986" lon="18.029658"></trkpt><trkpt lat="52.454828" lon="18.031619"></trkpt><trkpt lat="52.455353" lon="18.032135"></trkpt><trkpt lat="52.455993" lon="18.032658"></trkpt><trkpt lat="52.458155" lon="18.0352"></trkpt><trkpt lat="52.458455" lon="18.035953"></trkpt><trkpt lat="52.458673" lon="18.036067"></trkpt><trkpt lat="52.459468" lon="18.035471"></trkpt><trkpt lat="52.460259" lon="18.035013"></trkpt><trkpt lat="52.460841" lon="18.035226"></trkpt><trkpt lat="52.469346" lon="18.039406"></trkpt><trkpt lat="52.469551" lon="18.039579"></trkpt><trkpt lat="52.469749" lon="18.039821"></trkpt><trkpt lat="52.470637" lon="18.041373"></trkpt><trkpt lat="52.473063" lon="18.044562"></trkpt><trkpt lat="52.473351" lon="18.044426"></trkpt><trkpt lat="52.480478" lon="18.042489"></trkpt><trkpt lat="52.480901" lon="18.042941"></trkpt><trkpt lat="52.482615" lon="18.044476"></trkpt><trkpt lat="52.482986" lon="18.04453"></trkpt><trkpt lat="52.486699" lon="18.044428"></trkpt><trkpt lat="52.486529" lon="18.045469"></trkpt><trkpt lat="52.486312" lon="18.04737"></trkpt><trkpt lat="52.486277" lon="18.049068"></trkpt><trkpt lat="52.486146" lon="18.050634"></trkpt><trkpt lat="52.485441" lon="18.055043"></trkpt><trkpt lat="52.485008" lon="18.056405"></trkpt><trkpt lat="52.484308" lon="18.059746"></trkpt><trkpt lat="52.484312" lon="18.061096"></trkpt><trkpt lat="52.483965" lon="18.068214"></trkpt><trkpt lat="52.483197" lon="18.069181"></trkpt><trkpt lat="52.482788" lon="18.069974"></trkpt><trkpt lat="52.480556" lon="18.075024"></trkpt><trkpt lat="52.48038" lon="18.076204"></trkpt><trkpt lat="52.479723" lon="18.08306"></trkpt><trkpt lat="52.479815" lon="18.083453"></trkpt><trkpt lat="52.479835" lon="18.083816"></trkpt><trkpt lat="52.479953" lon="18.084822"></trkpt><trkpt lat="52.480045" lon="18.085204"></trkpt><trkpt lat="52.480149" lon="18.08553"></trkpt><trkpt lat="52.480506" lon="18.086402"></trkpt><trkpt lat="52.480815" lon="18.086947"></trkpt><trkpt lat="52.481036" lon="18.087213"></trkpt><trkpt lat="52.481446" lon="18.087581"></trkpt><trkpt lat="52.481952" lon="18.087814"></trkpt><trkpt lat="52.482621" lon="18.088295"></trkpt><trkpt lat="52.483778" lon="18.088916"></trkpt><trkpt lat="52.484103" lon="18.089142"></trkpt><trkpt lat="52.484264" lon="18.089446"></trkpt><trkpt lat="52.484475" lon="18.090071"></trkpt><trkpt lat="52.484901" lon="18.091138"></trkpt><trkpt lat="52.485244" lon="18.092183"></trkpt><trkpt lat="52.491693" lon="18.108816"></trkpt><trkpt lat="52.492395" lon="18.110064"></trkpt><trkpt lat="52.494938" lon="18.113442"></trkpt><trkpt lat="52.495638" lon="18.113526"></trkpt><trkpt lat="52.496279" lon="18.113854"></trkpt><trkpt lat="52.496886" lon="18.114448"></trkpt><trkpt lat="52.497048" lon="18.114766"></trkpt><trkpt lat="52.497309" lon="18.11515"></trkpt><trkpt lat="52.497893" lon="18.115811"></trkpt><trkpt lat="52.500921" lon="18.118296"></trkpt><trkpt lat="52.501505" lon="18.118547"></trkpt><trkpt lat="52.501965" lon="18.118821"></trkpt><trkpt lat="52.502215" lon="18.119216"></trkpt><trkpt lat="52.502389" lon="18.120289"></trkpt><trkpt lat="52.502355" lon="18.120894"></trkpt><trkpt lat="52.502464" lon="18.121239"></trkpt><trkpt lat="52.502696" lon="18.121594"></trkpt><trkpt lat="52.502924" lon="18.122138"></trkpt><trkpt lat="52.503049" lon="18.122509"></trkpt><trkpt lat="52.508982" lon="18.137181"></trkpt><trkpt lat="52.509202" lon="18.137057"></trkpt><trkpt lat="52.525838" lon="18.129836"></trkpt><trkpt lat="52.525989" lon="18.130063"></trkpt><trkpt lat="52.526147" lon="18.130446"></trkpt><trkpt lat="52.526347" lon="18.131205"></trkpt><trkpt lat="52.526975" lon="18.132089"></trkpt><trkpt lat="52.527449" lon="18.132905"></trkpt><trkpt lat="52.527583" lon="18.133252"></trkpt><trkpt lat="52.528162" lon="18.134032"></trkpt><trkpt lat="52.529887" lon="18.136041"></trkpt><trkpt lat="52.530365" lon="18.136487"></trkpt><trkpt lat="52.530633" lon="18.13678"></trkpt><trkpt lat="52.530867" lon="18.137078"></trkpt><trkpt lat="52.531227" lon="18.137811"></trkpt><trkpt lat="52.532299" lon="18.139428"></trkpt><trkpt lat="52.532714" lon="18.139823"></trkpt><trkpt lat="52.533365" lon="18.140626"></trkpt><trkpt lat="52.533633" lon="18.140712"></trkpt><trkpt lat="52.533902" lon="18.140975"></trkpt><trkpt lat="52.535121" lon="18.142373"></trkpt><trkpt lat="52.535261" lon="18.142669"></trkpt><trkpt lat="52.535452" lon="18.142897"></trkpt><trkpt lat="52.535735" lon="18.143181"></trkpt><trkpt lat="52.539748" lon="18.14613"></trkpt><trkpt lat="52.540371" lon="18.145895"></trkpt><trkpt lat="52.540922" lon="18.145589"></trkpt><trkpt lat="52.540943" lon="18.145216"></trkpt><trkpt lat="52.541142" lon="18.144956"></trkpt><trkpt lat="52.541645" lon="18.14393"></trkpt><trkpt lat="52.541483" lon="18.143482"></trkpt><trkpt lat="52.541635" lon="18.14371"></trkpt><trkpt lat="52.541736" lon="18.144181"></trkpt><trkpt lat="52.541884" lon="18.144555"></trkpt><trkpt lat="52.542208" lon="18.144161"></trkpt><trkpt lat="52.542598" lon="18.143498"></trkpt><trkpt lat="52.544258" lon="18.14121"></trkpt><trkpt lat="52.544914" lon="18.140524"></trkpt><trkpt lat="52.545082" lon="18.140204"></trkpt><trkpt lat="52.545166" lon="18.139825"></trkpt><trkpt lat="52.5452" lon="18.139294"></trkpt><trkpt lat="52.545354" lon="18.137945"></trkpt><trkpt lat="52.545728" lon="18.137085"></trkpt><trkpt lat="52.546014" lon="18.136141"></trkpt><trkpt lat="52.546264" lon="18.135102"></trkpt><trkpt lat="52.550407" lon="18.121138"></trkpt><trkpt lat="52.550718" lon="18.120319"></trkpt><trkpt lat="52.553134" lon="18.111995"></trkpt><trkpt lat="52.553088" lon="18.111497"></trkpt><trkpt lat="52.553137" lon="18.111109"></trkpt><trkpt lat="52.553272" lon="18.110867"></trkpt><trkpt lat="52.553472" lon="18.110757"></trkpt><trkpt lat="52.554259" lon="18.110434"></trkpt><trkpt lat="52.554499" lon="18.110368"></trkpt><trkpt lat="52.555099" lon="18.11035"></trkpt><trkpt lat="52.559092" lon="18.109724"></trkpt><trkpt lat="52.559389" lon="18.109617"></trkpt><trkpt lat="52.562713" lon="18.107637"></trkpt><trkpt lat="52.563721" lon="18.106295"></trkpt><trkpt lat="52.564788" lon="18.105094"></trkpt><trkpt lat="52.564999" lon="18.105276"></trkpt><trkpt lat="52.56679" lon="18.107353"></trkpt><trkpt lat="52.567301" lon="18.108227"></trkpt><trkpt lat="52.567989" lon="18.109671"></trkpt><trkpt lat="52.568987" lon="18.111371"></trkpt><trkpt lat="52.569536" lon="18.112072"></trkpt><trkpt lat="52.572417" lon="18.115113"></trkpt><trkpt lat="52.573104" lon="18.115697"></trkpt><trkpt lat="52.576757" lon="18.118111"></trkpt><trkpt lat="52.577856" lon="18.119013"></trkpt><trkpt lat="52.578057" lon="18.119219"></trkpt><trkpt lat="52.582303" lon="18.12272"></trkpt><trkpt lat="52.583381" lon="18.123254"></trkpt><trkpt lat="52.589401" lon="18.127111"></trkpt><trkpt lat="52.589957" lon="18.127701"></trkpt><trkpt lat="52.590637" lon="18.128072"></trkpt><trkpt lat="52.59154" lon="18.1284"></trkpt><trkpt lat="52.592487" lon="18.128874"></trkpt><trkpt lat="52.594106" lon="18.129445"></trkpt><trkpt lat="52.594976" lon="18.129491"></trkpt><trkpt lat="52.595868" lon="18.12928"></trkpt><trkpt lat="52.598359" lon="18.129163"></trkpt><trkpt lat="52.598884" lon="18.129308"></trkpt><trkpt lat="52.599154" lon="18.129178"></trkpt><trkpt lat="52.599402" lon="18.129169"></trkpt><trkpt lat="52.599741" lon="18.129336"></trkpt><trkpt lat="52.604212" lon="18.132212"></trkpt><trkpt lat="52.604446" lon="18.13258"></trkpt><trkpt lat="52.60447" lon="18.132988"></trkpt><trkpt lat="52.604563" lon="18.133479"></trkpt><trkpt lat="52.604616" lon="18.134398"></trkpt><trkpt lat="52.604389" lon="18.134996"></trkpt><trkpt lat="52.603918" lon="18.136572"></trkpt><trkpt lat="52.604075" lon="18.136897"></trkpt><trkpt lat="52.604671" lon="18.137941"></trkpt><trkpt lat="52.611227" lon="18.147779"></trkpt><trkpt lat="52.612146" lon="18.148936"></trkpt><trkpt lat="52.612618" lon="18.149698"></trkpt><trkpt lat="52.613426" lon="18.15081"></trkpt><trkpt lat="52.614364" lon="18.151631"></trkpt><trkpt lat="52.615135" lon="18.152461"></trkpt><trkpt lat="52.61602" lon="18.153587"></trkpt><trkpt lat="52.624367" lon="18.16166"></trkpt><trkpt lat="52.624415" lon="18.160511"></trkpt><trkpt lat="52.624093" lon="18.129984"></trkpt><trkpt lat="52.623728" lon="18.129478"></trkpt><trkpt lat="52.622966" lon="18.128231"></trkpt><trkpt lat="52.621728" lon="18.125786"></trkpt><trkpt lat="52.622213" lon="18.125828"></trkpt><trkpt lat="52.622752" lon="18.12568"></trkpt><trkpt lat="52.623364" lon="18.125203"></trkpt><trkpt lat="52.624022" lon="18.124829"></trkpt><trkpt lat="52.624747" lon="18.124132"></trkpt><trkpt lat="52.626027" lon="18.122674"></trkpt><trkpt lat="52.627804" lon="18.120957"></trkpt><trkpt lat="52.628507" lon="18.121052"></trkpt><trkpt lat="52.628973" lon="18.120926"></trkpt><trkpt lat="52.630101" lon="18.120753"></trkpt><trkpt lat="52.63068" lon="18.120773"></trkpt><trkpt lat="52.632868" lon="18.120397"></trkpt><trkpt lat="52.634571" lon="18.11987"></trkpt><trkpt lat="52.635172" lon="18.119562"></trkpt><trkpt lat="52.638086" lon="18.118591"></trkpt><trkpt lat="52.639264" lon="18.118766"></trkpt><trkpt lat="52.640829" lon="18.118796"></trkpt><trkpt lat="52.641014" lon="18.118047"></trkpt><trkpt lat="52.642642" lon="18.112592"></trkpt><trkpt lat="52.642953" lon="18.112859"></trkpt><trkpt lat="52.64402" lon="18.113974"></trkpt><trkpt lat="52.645688" lon="18.11603"></trkpt><trkpt lat="52.645556" lon="18.11665"></trkpt><trkpt lat="52.645438" lon="18.117026"></trkpt><trkpt lat="52.645186" lon="18.117575"></trkpt><trkpt lat="52.644428" lon="18.11887"></trkpt><trkpt lat="52.644083" lon="18.119147"></trkpt><trkpt lat="52.643538" lon="18.119292"></trkpt><trkpt lat="52.642904" lon="18.119238"></trkpt><trkpt lat="52.625885" lon="18.122822"></trkpt><trkpt lat="52.625212" lon="18.123632"></trkpt><trkpt lat="52.62463" lon="18.124227"></trkpt><trkpt lat="52.623157" lon="18.125275"></trkpt><trkpt lat="52.622754" lon="18.125661"></trkpt><trkpt lat="52.622536" lon="18.125794"></trkpt><trkpt lat="52.62188" lon="18.125742"></trkpt><trkpt lat="52.621598" lon="18.125845"></trkpt><trkpt lat="52.621826" lon="18.126331"></trkpt><trkpt lat="52.622379" lon="18.12723"></trkpt><trkpt lat="52.625618" lon="18.133987"></trkpt><trkpt lat="52.625596" lon="18.134489"></trkpt><trkpt lat="52.625602" lon="18.135413"></trkpt><trkpt lat="52.625587" lon="18.135747"></trkpt><trkpt lat="52.62552" lon="18.136059"></trkpt><trkpt lat="52.625518" lon="18.136485"></trkpt><trkpt lat="52.625482" lon="18.137164"></trkpt><trkpt lat="52.62305" lon="18.156963"></trkpt><trkpt lat="52.622832" lon="18.156371"></trkpt><trkpt lat="52.620041" lon="18.150036"></trkpt><trkpt lat="52.620029" lon="18.150487"></trkpt><trkpt lat="52.620045" lon="18.151384"></trkpt><trkpt lat="52.620678" lon="18.159701"></trkpt></trkseg></trk></gpx>