<?xml version="1.0" encoding="UTF-8" standalone="no" ?><gpx xmlns="http://www.topografix.com/GPX/1/1" xmlns:gpxx="http://www.garmin.com/xmlschemas/GpxExtensions/v3" ><trk><trkseg><trkpt lat="52.603851" lon="16.585993"></trkpt><trkpt lat="52.6043" lon="16.586537"></trkpt><trkpt lat="52.604926" lon="16.587418"></trkpt><trkpt lat="52.605117" lon="16.587519"></trkpt><trkpt lat="52.6056" lon="16.587548"></trkpt><trkpt lat="52.60593" lon="16.587379"></trkpt><trkpt lat="52.606448" lon="16.586762"></trkpt><trkpt lat="52.607031" lon="16.585835"></trkpt><trkpt lat="52.607369" lon="16.585187"></trkpt><trkpt lat="52.607766" lon="16.585559"></trkpt><trkpt lat="52.608154" lon="16.58605"></trkpt><trkpt lat="52.609331" lon="16.587296"></trkpt><trkpt lat="52.609873" lon="16.587771"></trkpt><trkpt lat="52.610019" lon="16.587997"></trkpt><trkpt lat="52.610056" lon="16.588483"></trkpt><trkpt lat="52.610223" lon="16.588303"></trkpt><trkpt lat="52.610623" lon="16.587752"></trkpt><trkpt lat="52.611108" lon="16.587244"></trkpt><trkpt lat="52.6116" lon="16.586812"></trkpt><trkpt lat="52.611862" lon="16.586502"></trkpt><trkpt lat="52.612001" lon="16.586243"></trkpt><trkpt lat="52.612392" lon="16.585262"></trkpt><trkpt lat="52.612595" lon="16.584843"></trkpt><trkpt lat="52.612914" lon="16.584412"></trkpt><trkpt lat="52.613124" lon="16.584025"></trkpt><trkpt lat="52.613126" lon="16.58357"></trkpt><trkpt lat="52.612667" lon="16.582675"></trkpt><trkpt lat="52.612552" lon="16.582323"></trkpt><trkpt lat="52.612426" lon="16.581859"></trkpt><trkpt lat="52.612292" lon="16.581214"></trkpt><trkpt lat="52.612177" lon="16.580211"></trkpt><trkpt lat="52.612041" lon="16.579567"></trkpt><trkpt lat="52.6119" lon="16.578693"></trkpt><trkpt lat="52.61218" lon="16.578538"></trkpt><trkpt lat="52.613823" lon="16.577351"></trkpt><trkpt lat="52.614" lon="16.576867"></trkpt><trkpt lat="52.614168" lon="16.576658"></trkpt><trkpt lat="52.614673" lon="16.576378"></trkpt><trkpt lat="52.615147" lon="16.57619"></trkpt><trkpt lat="52.61573" lon="16.575636"></trkpt><trkpt lat="52.616306" lon="16.575314"></trkpt><trkpt lat="52.616256" lon="16.575795"></trkpt><trkpt lat="52.616484" lon="16.576002"></trkpt><trkpt lat="52.616688" lon="16.576588"></trkpt><trkpt lat="52.616827" lon="16.57692"></trkpt><trkpt lat="52.617315" lon="16.576858"></trkpt><trkpt lat="52.623953" lon="16.576806"></trkpt><trkpt lat="52.62481" lon="16.576983"></trkpt><trkpt lat="52.645077" lon="16.583807"></trkpt><trkpt lat="52.645203" lon="16.584159"></trkpt><trkpt lat="52.645579" lon="16.585023"></trkpt><trkpt lat="52.645727" lon="16.585317"></trkpt><trkpt lat="52.646611" lon="16.586096"></trkpt><trkpt lat="52.646945" lon="16.586455"></trkpt><trkpt lat="52.647029" lon="16.586762"></trkpt><trkpt lat="52.647031" lon="16.587111"></trkpt><trkpt lat="52.646736" lon="16.588178"></trkpt><trkpt lat="52.646565" lon="16.588418"></trkpt><trkpt lat="52.646343" lon="16.588435"></trkpt><trkpt lat="52.646115" lon="16.588367"></trkpt><trkpt lat="52.645731" lon="16.588923"></trkpt><trkpt lat="52.645539" lon="16.589518"></trkpt><trkpt lat="52.643647" lon="16.596624"></trkpt><trkpt lat="52.644125" lon="16.597118"></trkpt><trkpt lat="52.648228" lon="16.602229"></trkpt><trkpt lat="52.649066" lon="16.603517"></trkpt><trkpt lat="52.652903" lon="16.608451"></trkpt><trkpt lat="52.6538" lon="16.609197"></trkpt><trkpt lat="52.655697" lon="16.611081"></trkpt><trkpt lat="52.657888" lon="16.613648"></trkpt><trkpt lat="52.658437" lon="16.614536"></trkpt><trkpt lat="52.664376" lon="16.622875"></trkpt><trkpt lat="52.664883" lon="16.623236"></trkpt><trkpt lat="52.665204" lon="16.623711"></trkpt><trkpt lat="52.665541" lon="16.624121"></trkpt><trkpt lat="52.66575" lon="16.62444"></trkpt><trkpt lat="52.665964" lon="16.625007"></trkpt><trkpt lat="52.666086" lon="16.62569"></trkpt><trkpt lat="52.666112" lon="16.62659"></trkpt><trkpt lat="52.66619" lon="16.627405"></trkpt><trkpt lat="52.666682" lon="16.630857"></trkpt><trkpt lat="52.668078" lon="16.638166"></trkpt><trkpt lat="52.668274" lon="16.638268"></trkpt><trkpt lat="52.669063" lon="16.638532"></trkpt><trkpt lat="52.670629" lon="16.638506"></trkpt><trkpt lat="52.671145" lon="16.638251"></trkpt><trkpt lat="52.67251" lon="16.637334"></trkpt><trkpt lat="52.672912" lon="16.636719"></trkpt><trkpt lat="52.676708" lon="16.631747"></trkpt><trkpt lat="52.677067" lon="16.631376"></trkpt><trkpt lat="52.681892" lon="16.625477"></trkpt><trkpt lat="52.682576" lon="16.625134"></trkpt><trkpt lat="52.683156" lon="16.624747"></trkpt><trkpt lat="52.683997" lon="16.624379"></trkpt><trkpt lat="52.684544" lon="16.623905"></trkpt><trkpt lat="52.684997" lon="16.623034"></trkpt><trkpt lat="52.685404" lon="16.622064"></trkpt><trkpt lat="52.686001" lon="16.621061"></trkpt><trkpt lat="52.686572" lon="16.6204"></trkpt><trkpt lat="52.687844" lon="16.619215"></trkpt><trkpt lat="52.698753" lon="16.606537"></trkpt><trkpt lat="52.698881" lon="16.605276"></trkpt><trkpt lat="52.698994" lon="16.604675"></trkpt><trkpt lat="52.69973" lon="16.604457"></trkpt><trkpt lat="52.70142" lon="16.602987"></trkpt><trkpt lat="52.701366" lon="16.602417"></trkpt><trkpt lat="52.70134" lon="16.601857"></trkpt><trkpt lat="52.70151" lon="16.601669"></trkpt><trkpt lat="52.701766" lon="16.601558"></trkpt><trkpt lat="52.702001" lon="16.60133"></trkpt><trkpt lat="52.702204" lon="16.601076"></trkpt><trkpt lat="52.703074" lon="16.599767"></trkpt><trkpt lat="52.703447" lon="16.599026"></trkpt><trkpt lat="52.703763" lon="16.598285"></trkpt><trkpt lat="52.704962" lon="16.594907"></trkpt><trkpt lat="52.706602" lon="16.590962"></trkpt><trkpt lat="52.707162" lon="16.590307"></trkpt><trkpt lat="52.707575" lon="16.589713"></trkpt><trkpt lat="52.707908" lon="16.588979"></trkpt><trkpt lat="52.708184" lon="16.588103"></trkpt><trkpt lat="52.708333" lon="16.587369"></trkpt><trkpt lat="52.708614" lon="16.585509"></trkpt><trkpt lat="52.708725" lon="16.584381"></trkpt><trkpt lat="52.708734" lon="16.58405"></trkpt><trkpt lat="52.708424" lon="16.565375"></trkpt><trkpt lat="52.708356" lon="16.564544"></trkpt><trkpt lat="52.708078" lon="16.562453"></trkpt><trkpt lat="52.707975" lon="16.561984"></trkpt><trkpt lat="52.707944" lon="16.561523"></trkpt><trkpt lat="52.707685" lon="16.56002"></trkpt><trkpt lat="52.707353" lon="16.559289"></trkpt><trkpt lat="52.706752" lon="16.557721"></trkpt><trkpt lat="52.706574" lon="16.556729"></trkpt><trkpt lat="52.706528" lon="16.556341"></trkpt><trkpt lat="52.706207" lon="16.554544"></trkpt><trkpt lat="52.705682" lon="16.550169"></trkpt><trkpt lat="52.70572" lon="16.549133"></trkpt><trkpt lat="52.705832" lon="16.547963"></trkpt><trkpt lat="52.706156" lon="16.541151"></trkpt><trkpt lat="52.706109" lon="16.54017"></trkpt><trkpt lat="52.706127" lon="16.537601"></trkpt><trkpt lat="52.706283" lon="16.535091"></trkpt><trkpt lat="52.706417" lon="16.534105"></trkpt><trkpt lat="52.707792" lon="16.52688"></trkpt><trkpt lat="52.707911" lon="16.526398"></trkpt><trkpt lat="52.708451" lon="16.52478"></trkpt><trkpt lat="52.708551" lon="16.523922"></trkpt><trkpt lat="52.708664" lon="16.52349"></trkpt><trkpt lat="52.709028" lon="16.523482"></trkpt><trkpt lat="52.71211" lon="16.522969"></trkpt><trkpt lat="52.71238" lon="16.52278"></trkpt><trkpt lat="52.712696" lon="16.522436"></trkpt><trkpt lat="52.712838" lon="16.522669"></trkpt><trkpt lat="52.713037" lon="16.523428"></trkpt><trkpt lat="52.713226" lon="16.524682"></trkpt><trkpt lat="52.71323" lon="16.525014"></trkpt><trkpt lat="52.713388" lon="16.526003"></trkpt><trkpt lat="52.713386" lon="16.526363"></trkpt><trkpt lat="52.713274" lon="16.528685"></trkpt><trkpt lat="52.713275" lon="16.529708"></trkpt><trkpt lat="52.713493" lon="16.531779"></trkpt><trkpt lat="52.713624" lon="16.532094"></trkpt><trkpt lat="52.713847" lon="16.532246"></trkpt><trkpt lat="52.714678" lon="16.532351"></trkpt><trkpt lat="52.716585" lon="16.532816"></trkpt><trkpt lat="52.71693" lon="16.533031"></trkpt><trkpt lat="52.721479" lon="16.53517"></trkpt><trkpt lat="52.723721" lon="16.534415"></trkpt><trkpt lat="52.724205" lon="16.534659"></trkpt><trkpt lat="52.748692" lon="16.547118"></trkpt><trkpt lat="52.749836" lon="16.547859"></trkpt><trkpt lat="52.753336" lon="16.550728"></trkpt><trkpt lat="52.753666" lon="16.551384"></trkpt><trkpt lat="52.753839" lon="16.551792"></trkpt><trkpt lat="52.754186" lon="16.552769"></trkpt><trkpt lat="52.75803" lon="16.561573"></trkpt><trkpt lat="52.758802" lon="16.561839"></trkpt><trkpt lat="52.75911" lon="16.56188"></trkpt><trkpt lat="52.761001" lon="16.5624"></trkpt><trkpt lat="52.761363" lon="16.563274"></trkpt><trkpt lat="52.761606" lon="16.56417"></trkpt><trkpt lat="52.763562" lon="16.569792"></trkpt><trkpt lat="52.763927" lon="16.570494"></trkpt><trkpt lat="52.769722" lon="16.583666"></trkpt><trkpt lat="52.770062" lon="16.584956"></trkpt><trkpt lat="52.772924" lon="16.592774"></trkpt><trkpt lat="52.77348" lon="16.59341"></trkpt><trkpt lat="52.775656" lon="16.595497"></trkpt><trkpt lat="52.776506" lon="16.596893"></trkpt><trkpt lat="52.77704" lon="16.598142"></trkpt><trkpt lat="52.777244" lon="16.598761"></trkpt><trkpt lat="52.777552" lon="16.600141"></trkpt><trkpt lat="52.778957" lon="16.604766"></trkpt><trkpt lat="52.779668" lon="16.605488"></trkpt><trkpt lat="52.802276" lon="16.626743"></trkpt><trkpt lat="52.809226" lon="16.632092"></trkpt><trkpt lat="52.813028" lon="16.628402"></trkpt><trkpt lat="52.813219" lon="16.628168"></trkpt><trkpt lat="52.813512" lon="16.627872"></trkpt><trkpt lat="52.813906" lon="16.62676"></trkpt><trkpt lat="52.815055" lon="16.62449"></trkpt><trkpt lat="52.815476" lon="16.624242"></trkpt><trkpt lat="52.820116" lon="16.620839"></trkpt><trkpt lat="52.820285" lon="16.620649"></trkpt><trkpt lat="52.826477" lon="16.614726"></trkpt><trkpt lat="52.827168" lon="16.614664"></trkpt><trkpt lat="52.841269" lon="16.611624"></trkpt><trkpt lat="52.841754" lon="16.611113"></trkpt><trkpt lat="52.842039" lon="16.610745"></trkpt><trkpt lat="52.842165" lon="16.610469"></trkpt><trkpt lat="52.842414" lon="16.610257"></trkpt><trkpt lat="52.842616" lon="16.610267"></trkpt><trkpt lat="52.843287" lon="16.609987"></trkpt><trkpt lat="52.843695" lon="16.609909"></trkpt><trkpt lat="52.843903" lon="16.609794"></trkpt><trkpt lat="52.844224" lon="16.609008"></trkpt><trkpt lat="52.848972" lon="16.595065"></trkpt><trkpt lat="52.849074" lon="16.594163"></trkpt><trkpt lat="52.85155" lon="16.578575"></trkpt><trkpt lat="52.851779" lon="16.578438"></trkpt><trkpt lat="52.851927" lon="16.578208"></trkpt><trkpt lat="52.852397" lon="16.577731"></trkpt><trkpt lat="52.852748" lon="16.57764"></trkpt><trkpt lat="52.853019" lon="16.57736"></trkpt><trkpt lat="52.853222" lon="16.576888"></trkpt><trkpt lat="52.853357" lon="16.576243"></trkpt><trkpt lat="52.853412" lon="16.57557"></trkpt><trkpt lat="52.855819" lon="16.561683"></trkpt><trkpt lat="52.856361" lon="16.561948"></trkpt><trkpt lat="52.859636" lon="16.563094"></trkpt><trkpt lat="52.860437" lon="16.563249"></trkpt><trkpt lat="52.86154" lon="16.56364"></trkpt><trkpt lat="52.862007" lon="16.563878"></trkpt><trkpt lat="52.86272" lon="16.564132"></trkpt><trkpt lat="52.863658" lon="16.563467"></trkpt><trkpt lat="52.866541" lon="16.560855"></trkpt><trkpt lat="52.866726" lon="16.560558"></trkpt><trkpt lat="52.867629" lon="16.559319"></trkpt><trkpt lat="52.867864" lon="16.559174"></trkpt><trkpt lat="52.868757" lon="16.55922"></trkpt><trkpt lat="52.881864" lon="16.556918"></trkpt><trkpt lat="52.882144" lon="16.556613"></trkpt><trkpt lat="52.882638" lon="16.556188"></trkpt><trkpt lat="52.882908" lon="16.556172"></trkpt><trkpt lat="52.883116" lon="16.556102"></trkpt><trkpt lat="52.883346" lon="16.55615"></trkpt><trkpt lat="52.88366" lon="16.556325"></trkpt><trkpt lat="52.883983" lon="16.556683"></trkpt><trkpt lat="52.884652" lon="16.557169"></trkpt><trkpt lat="52.885421" lon="16.557573"></trkpt><trkpt lat="52.885702" lon="16.557766"></trkpt><trkpt lat="52.886562" lon="16.557999"></trkpt><trkpt lat="52.887508" lon="16.55812"></trkpt><trkpt lat="52.888905" lon="16.55739"></trkpt><trkpt lat="52.889467" lon="16.556816"></trkpt><trkpt lat="52.893622" lon="16.553369"></trkpt><trkpt lat="52.893951" lon="16.553547"></trkpt><trkpt lat="52.894401" lon="16.553989"></trkpt><trkpt lat="52.895438" lon="16.555201"></trkpt><trkpt lat="52.904466" lon="16.564255"></trkpt><trkpt lat="52.904769" lon="16.564389"></trkpt><trkpt lat="52.904993" lon="16.564385"></trkpt><trkpt lat="52.905351" lon="16.564585"></trkpt><trkpt lat="52.905457" lon="16.564242"></trkpt><trkpt lat="52.905524" lon="16.563325"></trkpt><trkpt lat="52.905559" lon="16.562065"></trkpt><trkpt lat="52.905827" lon="16.558264"></trkpt><trkpt lat="52.906" lon="16.558008"></trkpt><trkpt lat="52.914469" lon="16.547763"></trkpt><trkpt lat="52.91502" lon="16.547345"></trkpt><trkpt lat="52.916298" lon="16.546118"></trkpt><trkpt lat="52.920895" lon="16.542407"></trkpt><trkpt lat="52.921519" lon="16.542019"></trkpt><trkpt lat="52.92191" lon="16.54192"></trkpt><trkpt lat="52.923214" lon="16.542495"></trkpt><trkpt lat="52.923755" lon="16.54282"></trkpt><trkpt lat="52.927076" lon="16.544091"></trkpt><trkpt lat="52.927995" lon="16.54412"></trkpt><trkpt lat="52.928251" lon="16.544068"></trkpt><trkpt lat="52.928872" lon="16.543789"></trkpt><trkpt lat="52.930804" lon="16.543158"></trkpt><trkpt lat="52.931529" lon="16.54308"></trkpt><trkpt lat="52.932171" lon="16.542934"></trkpt><trkpt lat="52.93242" lon="16.542745"></trkpt><trkpt lat="52.93282" lon="16.542077"></trkpt><trkpt lat="52.933315" lon="16.540949"></trkpt><trkpt lat="52.933754" lon="16.540446"></trkpt><trkpt lat="52.935914" lon="16.537454"></trkpt><trkpt lat="52.936135" lon="16.537616"></trkpt><trkpt lat="52.935909" lon="16.537423"></trkpt><trkpt lat="52.935964" lon="16.537034"></trkpt><trkpt lat="52.936214" lon="16.535892"></trkpt><trkpt lat="52.937347" lon="16.532229"></trkpt><trkpt lat="52.938076" lon="16.531118"></trkpt><trkpt lat="52.93871" lon="16.530374"></trkpt><trkpt lat="52.944738" lon="16.524305"></trkpt><trkpt lat="52.945148" lon="16.525059"></trkpt><trkpt lat="52.945787" lon="16.526701"></trkpt><trkpt lat="52.945882" lon="16.527006"></trkpt><trkpt lat="52.945966" lon="16.52736"></trkpt><trkpt lat="52.945895" lon="16.528077"></trkpt><trkpt lat="52.945897" lon="16.528449"></trkpt><trkpt lat="52.945963" lon="16.528837"></trkpt><trkpt lat="52.946111" lon="16.529165"></trkpt><trkpt lat="52.946347" lon="16.529478"></trkpt><trkpt lat="52.946928" lon="16.529819"></trkpt><trkpt lat="52.947334" lon="16.529957"></trkpt><trkpt lat="52.948062" lon="16.530094"></trkpt><trkpt lat="52.957102" lon="16.530701"></trkpt><trkpt lat="52.959119" lon="16.531196"></trkpt><trkpt lat="52.959674" lon="16.531519"></trkpt><trkpt lat="52.962988" lon="16.534171"></trkpt><trkpt lat="52.963455" lon="16.53497"></trkpt><trkpt lat="52.964043" lon="16.535728"></trkpt><trkpt lat="52.964692" lon="16.536392"></trkpt><trkpt lat="52.965859" lon="16.53737"></trkpt><trkpt lat="52.966465" lon="16.537997"></trkpt><trkpt lat="52.968933" lon="16.541156"></trkpt><trkpt lat="52.970509" lon="16.54276"></trkpt><trkpt lat="52.971355" lon="16.543429"></trkpt><trkpt lat="52.972044" lon="16.543834"></trkpt><trkpt lat="52.978451" lon="16.546753"></trkpt><trkpt lat="52.979002" lon="16.546291"></trkpt><trkpt lat="52.979196" lon="16.54597"></trkpt><trkpt lat="52.9794" lon="16.54591"></trkpt><trkpt lat="52.97988" lon="16.546911"></trkpt><trkpt lat="52.980362" lon="16.54755"></trkpt><trkpt lat="52.981252" lon="16.548418"></trkpt><trkpt lat="52.981836" lon="16.54831"></trkpt><trkpt lat="52.982919" lon="16.547846"></trkpt><trkpt lat="52.987425" lon="16.546687"></trkpt><trkpt lat="52.988126" lon="16.546654"></trkpt><trkpt lat="52.993926" lon="16.545617"></trkpt><trkpt lat="52.99459" lon="16.545319"></trkpt><trkpt lat="52.995393" lon="16.545073"></trkpt><trkpt lat="52.996285" lon="16.544478"></trkpt><trkpt lat="52.99693" lon="16.544238"></trkpt><trkpt lat="52.997798" lon="16.544184"></trkpt><trkpt lat="52.999962" lon="16.544725"></trkpt><trkpt lat="53.000647" lon="16.544774"></trkpt><trkpt lat="53.001434" lon="16.54449"></trkpt><trkpt lat="53.002203" lon="16.544342"></trkpt><trkpt lat="53.003059" lon="16.544342"></trkpt><trkpt lat="53.003834" lon="16.54447"></trkpt><trkpt lat="53.004494" lon="16.544501"></trkpt><trkpt lat="53.010893" lon="16.543228"></trkpt><trkpt lat="53.0112" lon="16.542736"></trkpt><trkpt lat="53.01137" lon="16.542002"></trkpt><trkpt lat="53.01266" lon="16.538325"></trkpt><trkpt lat="53.012893" lon="16.53795"></trkpt><trkpt lat="53.013651" lon="16.536519"></trkpt><trkpt lat="53.013794" lon="16.53603"></trkpt><trkpt lat="53.014071" lon="16.534703"></trkpt><trkpt lat="53.014202" lon="16.533217"></trkpt><trkpt lat="53.015635" lon="16.522362"></trkpt><trkpt lat="53.015919" lon="16.517994"></trkpt><trkpt lat="53.015682" lon="16.517137"></trkpt><trkpt lat="53.015213" lon="16.514187"></trkpt><trkpt lat="53.015465" lon="16.513045"></trkpt><trkpt lat="53.017849" lon="16.504313"></trkpt><trkpt lat="53.018196" lon="16.503324"></trkpt><trkpt lat="53.02179" lon="16.49053"></trkpt><trkpt lat="53.021746" lon="16.489677"></trkpt><trkpt lat="53.021695" lon="16.489208"></trkpt><trkpt lat="53.021608" lon="16.488891"></trkpt><trkpt lat="53.021586" lon="16.488445"></trkpt><trkpt lat="53.021426" lon="16.486852"></trkpt><trkpt lat="53.020635" lon="16.48158"></trkpt><trkpt lat="53.02048" lon="16.480999"></trkpt><trkpt lat="53.020278" lon="16.479789"></trkpt><trkpt lat="53.020273" lon="16.479188"></trkpt><trkpt lat="53.020519" lon="16.478061"></trkpt><trkpt lat="53.0214" lon="16.475236"></trkpt><trkpt lat="53.022034" lon="16.474941"></trkpt><trkpt lat="53.035112" lon="16.467039"></trkpt><trkpt lat="53.034566" lon="16.466602"></trkpt><trkpt lat="53.034077" lon="16.466017"></trkpt><trkpt lat="53.033814" lon="16.465773"></trkpt><trkpt lat="53.033827" lon="16.466191"></trkpt></trkseg></trk></gpx>