<?xml version="1.0" encoding="UTF-8" standalone="no" ?><gpx xmlns="http://www.topografix.com/GPX/1/1" xmlns:gpxx="http://www.garmin.com/xmlschemas/GpxExtensions/v3" ><trk><trkseg><trkpt lat="49.4663528446" lon="20.5564790592"></trkpt><trkpt lat="49.4660706259" lon="20.5572390463"></trkpt><trkpt lat="49.4661260303" lon="20.5576491728"></trkpt><trkpt lat="49.4659615774" lon="20.5580846965"></trkpt><trkpt lat="49.4656868186" lon="20.5584477168"></trkpt><trkpt lat="49.4651019294" lon="20.5590808857"></trkpt><trkpt lat="49.4649953116" lon="20.5594864022"></trkpt><trkpt lat="49.4651383907" lon="20.5598542839"></trkpt><trkpt lat="49.4652323518" lon="20.5603339802"></trkpt><trkpt lat="49.465496717" lon="20.5612452608"></trkpt><trkpt lat="49.4654674642" lon="20.5617307406"></trkpt><trkpt lat="49.4655665383" lon="20.5621324014"></trkpt><trkpt lat="49.4657780137" lon="20.562554514"></trkpt><trkpt lat="49.4658754114" lon="20.5630218051"></trkpt><trkpt lat="49.4659347553" lon="20.5635808781"></trkpt><trkpt lat="49.4664002862" lon="20.566378003"></trkpt><trkpt lat="49.4666727819" lon="20.5668525025"></trkpt><trkpt lat="49.4669157732" lon="20.5671507306"></trkpt><trkpt lat="49.4675647002" lon="20.5681035854"></trkpt><trkpt lat="49.4676408917" lon="20.5685538612"></trkpt><trkpt lat="49.4681051653" lon="20.5704214331"></trkpt><trkpt lat="49.4683852885" lon="20.5708019715"></trkpt><trkpt lat="49.4686313812" lon="20.5712493137"></trkpt><trkpt lat="49.4688411802" lon="20.5718271621"></trkpt><trkpt lat="49.4692140073" lon="20.5723328423"></trkpt><trkpt lat="49.4695911929" lon="20.5725906696"></trkpt><trkpt lat="49.4698708132" lon="20.57256083"></trkpt><trkpt lat="49.4702212606" lon="20.5724424776"></trkpt><trkpt lat="49.4705195725" lon="20.572158834"></trkpt><trkpt lat="49.470977392" lon="20.5716259964"></trkpt><trkpt lat="49.4713768736" lon="20.5709821824"></trkpt><trkpt lat="49.4716042746" lon="20.5705309846"></trkpt><trkpt lat="49.4733597804" lon="20.5676459335"></trkpt><trkpt lat="49.4741794467" lon="20.5658534635"></trkpt><trkpt lat="49.4742374495" lon="20.5653429218"></trkpt><trkpt lat="49.4742491841" lon="20.5643103551"></trkpt><trkpt lat="49.4743246213" lon="20.5637834687"></trkpt><trkpt lat="49.4744667783" lon="20.5634110607"></trkpt><trkpt lat="49.4754661527" lon="20.5612870026"></trkpt><trkpt lat="49.4758084696" lon="20.561236795"></trkpt><trkpt lat="49.4763083663" lon="20.5610735156"></trkpt><trkpt lat="49.4770524278" lon="20.5609567557"></trkpt><trkpt lat="49.4772710279" lon="20.5612813868"></trkpt><trkpt lat="49.4774933998" lon="20.561730573"></trkpt><trkpt lat="49.4776249118" lon="20.5622935854"></trkpt><trkpt lat="49.4778810628" lon="20.5626998562"></trkpt><trkpt lat="49.4780684821" lon="20.5630762037"></trkpt><trkpt lat="49.4783937" lon="20.5636223685"></trkpt><trkpt lat="49.4787490088" lon="20.5637269747"></trkpt><trkpt lat="49.4789724704" lon="20.5639722291"></trkpt><trkpt lat="49.4794851076" lon="20.5644183978"></trkpt><trkpt lat="49.4800388161" lon="20.5648063123"></trkpt><trkpt lat="49.480372332" lon="20.5647102557"></trkpt><trkpt lat="49.4806501083" lon="20.5645420309"></trkpt><trkpt lat="49.4836078305" lon="20.5633054487"></trkpt><trkpt lat="49.4838691782" lon="20.5635374598"></trkpt><trkpt lat="49.4839485548" lon="20.5642075092"></trkpt><trkpt lat="49.4840597827" lon="20.5647946615"></trkpt><trkpt lat="49.4843813125" lon="20.5652070511"></trkpt><trkpt lat="49.4847642817" lon="20.5651030317"></trkpt><trkpt lat="49.4850964565" lon="20.5648909695"></trkpt><trkpt lat="49.4854216743" lon="20.5645907298"></trkpt><trkpt lat="49.4856887218" lon="20.5645256862"></trkpt><trkpt lat="49.4854128733" lon="20.5644171406"></trkpt><trkpt lat="49.4857261889" lon="20.5642531905"></trkpt><trkpt lat="49.4860004447" lon="20.5639679544"></trkpt><trkpt lat="49.4863212202" lon="20.5635166727"></trkpt><trkpt lat="49.4864292629" lon="20.5630555004"></trkpt><trkpt lat="49.486743249" lon="20.5631124135"></trkpt><trkpt lat="49.4869833905" lon="20.563340988"></trkpt><trkpt lat="49.4872674532" lon="20.5636750069"></trkpt><trkpt lat="49.4876304734" lon="20.5638770107"></trkpt><trkpt lat="49.4876730535" lon="20.5634078756"></trkpt><trkpt lat="49.4876569603" lon="20.5629161093"></trkpt><trkpt lat="49.487970192" lon="20.5628705956"></trkpt><trkpt lat="49.48817119" lon="20.5632714182"></trkpt><trkpt lat="49.4890684728" lon="20.5654606037"></trkpt><trkpt lat="49.4890523795" lon="20.5659734085"></trkpt><trkpt lat="49.4891247991" lon="20.5664914101"></trkpt><trkpt lat="49.4893256295" lon="20.5669219885"></trkpt><trkpt lat="49.4896225166" lon="20.5670090765"></trkpt><trkpt lat="49.4898590539" lon="20.5666185636"></trkpt><trkpt lat="49.4902778976" lon="20.5665685236"></trkpt><trkpt lat="49.4905741978" lon="20.566744376"></trkpt><trkpt lat="49.4908569194" lon="20.5668535084"></trkpt><trkpt lat="49.4912225381" lon="20.5668040551"></trkpt><trkpt lat="49.4917070959" lon="20.5666707829"></trkpt><trkpt lat="49.4925500639" lon="20.5662609078"></trkpt><trkpt lat="49.4927596953" lon="20.5657337699"></trkpt><trkpt lat="49.4930735976" lon="20.565328924"></trkpt><trkpt lat="49.4933455065" lon="20.5654042773"></trkpt><trkpt lat="49.4936951995" lon="20.5656833947"></trkpt><trkpt lat="49.4938868098" lon="20.5660456605"></trkpt><trkpt lat="49.4941634964" lon="20.5664657615"></trkpt><trkpt lat="49.4944068231" lon="20.5667634029"></trkpt><trkpt lat="49.4945432805" lon="20.567154754"></trkpt><trkpt lat="49.4946017861" lon="20.5676549021"></trkpt><trkpt lat="49.4945216551" lon="20.5681194272"></trkpt><trkpt lat="49.494579155" lon="20.5687492434"></trkpt><trkpt lat="49.4948431011" lon="20.5693698395"></trkpt><trkpt lat="49.4949747808" lon="20.5698463507"></trkpt><trkpt lat="49.4951229729" lon="20.5702563096"></trkpt><trkpt lat="49.4951985776" lon="20.5707065854"></trkpt><trkpt lat="49.4951767009" lon="20.5713781435"></trkpt><trkpt lat="49.4953644555" lon="20.5753921531"></trkpt><trkpt lat="49.4957141485" lon="20.5759140104"></trkpt><trkpt lat="49.4960725587" lon="20.576297231"></trkpt><trkpt lat="49.4967615511" lon="20.5769028235"></trkpt><trkpt lat="49.4971407484" lon="20.5770437233"></trkpt><trkpt lat="49.497400336" lon="20.5772843678"></trkpt><trkpt lat="49.4976571575" lon="20.577726597"></trkpt><trkpt lat="49.4984180667" lon="20.5787811242"></trkpt><trkpt lat="49.4987589587" lon="20.5790852197"></trkpt><trkpt lat="49.4991197158" lon="20.5792388599"></trkpt><trkpt lat="49.4994723424" lon="20.5795572884"></trkpt><trkpt lat="49.4998662919" lon="20.5796476454"></trkpt><trkpt lat="49.5002596546" lon="20.5798334721"></trkpt><trkpt lat="49.5005185716" lon="20.580172101"></trkpt><trkpt lat="49.5008599665" lon="20.5804054532"></trkpt><trkpt lat="49.5013111643" lon="20.580551466"></trkpt><trkpt lat="49.5017405692" lon="20.5808302481"></trkpt><trkpt lat="49.5020472631" lon="20.5808897596"></trkpt><trkpt lat="49.502357645" lon="20.5810338445"></trkpt><trkpt lat="49.5027064998" lon="20.5809921864"></trkpt><trkpt lat="49.5029855333" lon="20.5813437235"></trkpt><trkpt lat="49.5036362205" lon="20.5823390745"></trkpt><trkpt lat="49.5039140806" lon="20.5825411621"></trkpt><trkpt lat="49.5042330958" lon="20.5829443317"></trkpt><trkpt lat="49.5045985468" lon="20.5834974535"></trkpt><trkpt lat="49.5048132911" lon="20.5840047263"></trkpt><trkpt lat="49.5051082503" lon="20.5843536649"></trkpt><trkpt lat="49.5054455381" lon="20.5845140945"></trkpt><trkpt lat="49.5056289341" lon="20.5849679746"></trkpt><trkpt lat="49.5059062913" lon="20.5858485773"></trkpt><trkpt lat="49.5061470196" lon="20.5862447061"></trkpt><trkpt lat="49.5064136479" lon="20.5864842609"></trkpt><trkpt lat="49.5071976073" lon="20.5870377179"></trkpt><trkpt lat="49.5077284332" lon="20.5875855591"></trkpt><trkpt lat="49.5079252403" lon="20.5880454741"></trkpt><trkpt lat="49.5081605203" lon="20.5883075763"></trkpt><trkpt lat="49.5083388034" lon="20.5888849217"></trkpt><trkpt lat="49.5085871592" lon="20.5892859958"></trkpt><trkpt lat="49.5091404486" lon="20.5899928417"></trkpt><trkpt lat="49.5093837753" lon="20.5903992802"></trkpt><trkpt lat="49.5098964125" lon="20.5914962199"></trkpt><trkpt lat="49.5099662337" lon="20.5920299795"></trkpt><trkpt lat="49.5102784596" lon="20.5925131962"></trkpt><trkpt lat="49.5107145701" lon="20.5927148648"></trkpt><trkpt lat="49.5111640077" lon="20.5930392444"></trkpt><trkpt lat="49.5113729686" lon="20.5934772827"></trkpt><trkpt lat="49.5117531717" lon="20.5936978944"></trkpt><trkpt lat="49.5119893737" lon="20.5940229446"></trkpt><trkpt lat="49.5125467703" lon="20.5949556828"></trkpt><trkpt lat="49.5125808846" lon="20.5956384726"></trkpt><trkpt lat="49.5125730895" lon="20.5961205997"></trkpt><trkpt lat="49.5126249734" lon="20.5973958224"></trkpt><trkpt lat="49.5125595108" lon="20.5987726338"></trkpt><trkpt lat="49.5124326088" lon="20.599442767"></trkpt><trkpt lat="49.512498742" lon="20.6000085454"></trkpt><trkpt lat="49.514077222" lon="20.6086641178"></trkpt><trkpt lat="49.5142773818" lon="20.6092239451"></trkpt><trkpt lat="49.5146632846" lon="20.6107253954"></trkpt><trkpt lat="49.514690442" lon="20.6112784334"></trkpt><trkpt lat="49.5148869976" lon="20.6129341107"></trkpt><trkpt lat="49.5150709804" lon="20.6133836322"></trkpt><trkpt lat="49.5154252835" lon="20.6139825191"></trkpt><trkpt lat="49.5157004613" lon="20.6143604591"></trkpt><trkpt lat="49.51594471" lon="20.614813501"></trkpt><trkpt lat="49.5169125684" lon="20.6163022947"></trkpt><trkpt lat="49.5176689513" lon="20.6171950512"></trkpt><trkpt lat="49.5180004556" lon="20.6173838954"></trkpt><trkpt lat="49.5182994381" lon="20.6171006709"></trkpt><trkpt lat="49.518481493" lon="20.6166809052"></trkpt><trkpt lat="49.51832911" lon="20.6170575041"></trkpt><trkpt lat="49.5182284433" lon="20.6174834725"></trkpt><trkpt lat="49.5185466204" lon="20.6176493503"></trkpt><trkpt lat="49.5272815693" lon="20.6217075326"></trkpt><trkpt lat="49.527629083" lon="20.6217634398"></trkpt><trkpt lat="49.5279786084" lon="20.6218999811"></trkpt><trkpt lat="49.5312902983" lon="20.6227178872"></trkpt><trkpt lat="49.5324713923" lon="20.6231763773"></trkpt><trkpt lat="49.5378441084" lon="20.6260881666"></trkpt><trkpt lat="49.5381006785" lon="20.6264485884"></trkpt><trkpt lat="49.5384326857" lon="20.6267065834"></trkpt><trkpt lat="49.5389740728" lon="20.6272400916"></trkpt><trkpt lat="49.5396110974" lon="20.6276811473"></trkpt><trkpt lat="49.5399522409" lon="20.627988847"></trkpt><trkpt lat="49.5402037818" lon="20.6283253804"></trkpt><trkpt lat="49.5405725017" lon="20.6286164839"></trkpt><trkpt lat="49.5446378086" lon="20.631157374"></trkpt><trkpt lat="49.5449698996" lon="20.6312701944"></trkpt><trkpt lat="49.545293944" lon="20.6313203182"></trkpt><trkpt lat="49.5460530091" lon="20.6315505691"></trkpt><trkpt lat="49.54642592" lon="20.6317450292"></trkpt><trkpt lat="49.5474263001" lon="20.6324277353"></trkpt><trkpt lat="49.547705166" lon="20.6326820422"></trkpt><trkpt lat="49.5480124466" lon="20.6328738201"></trkpt><trkpt lat="49.5485156123" lon="20.6331080943"></trkpt><trkpt lat="49.5519962814" lon="20.6352640036"></trkpt><trkpt lat="49.5522640832" lon="20.6355665065"></trkpt><trkpt lat="49.5525302086" lon="20.6357827596"></trkpt><trkpt lat="49.552905634" lon="20.6359012797"></trkpt><trkpt lat="49.5532022696" lon="20.6360754557"></trkpt><trkpt lat="49.5569581166" lon="20.6376829371"></trkpt><trkpt lat="49.5572275948" lon="20.6378471386"></trkpt><trkpt lat="49.5575128309" lon="20.6377627328"></trkpt><trkpt lat="49.5581678767" lon="20.6376712862"></trkpt></trkseg></trk></gpx>