<?xml version="1.0" encoding="UTF-8" standalone="no" ?><gpx xmlns="http://www.topografix.com/GPX/1/1" xmlns:gpxx="http://www.garmin.com/xmlschemas/GpxExtensions/v3" ><trk><trkseg><trkpt lat="53.589213" lon="16.039225"></trkpt><trkpt lat="53.589281" lon="16.039544"></trkpt><trkpt lat="53.589467" lon="16.039737"></trkpt><trkpt lat="53.589488" lon="16.040498"></trkpt><trkpt lat="53.589468" lon="16.041038"></trkpt><trkpt lat="53.589474" lon="16.042005"></trkpt><trkpt lat="53.589701" lon="16.042778"></trkpt><trkpt lat="53.589873" lon="16.042967"></trkpt><trkpt lat="53.590159" lon="16.043336"></trkpt><trkpt lat="53.590396" lon="16.044178"></trkpt><trkpt lat="53.594393" lon="16.055787"></trkpt><trkpt lat="53.595189" lon="16.055943"></trkpt><trkpt lat="53.596513" lon="16.056376"></trkpt><trkpt lat="53.597248" lon="16.05691"></trkpt><trkpt lat="53.599409" lon="16.058965"></trkpt><trkpt lat="53.599962" lon="16.059652"></trkpt><trkpt lat="53.601822" lon="16.06154"></trkpt><trkpt lat="53.602512" lon="16.062018"></trkpt><trkpt lat="53.609299" lon="16.067776"></trkpt><trkpt lat="53.60973" lon="16.068307"></trkpt><trkpt lat="53.611497" lon="16.070124"></trkpt><trkpt lat="53.612158" lon="16.070695"></trkpt><trkpt lat="53.612753" lon="16.071041"></trkpt><trkpt lat="53.617453" lon="16.074769"></trkpt><trkpt lat="53.617839" lon="16.075889"></trkpt><trkpt lat="53.618402" lon="16.076494"></trkpt><trkpt lat="53.622042" lon="16.079629"></trkpt><trkpt lat="53.623037" lon="16.079995"></trkpt><trkpt lat="53.623767" lon="16.079837"></trkpt><trkpt lat="53.623997" lon="16.079624"></trkpt><trkpt lat="53.624478" lon="16.078921"></trkpt><trkpt lat="53.625019" lon="16.078359"></trkpt><trkpt lat="53.625704" lon="16.077931"></trkpt><trkpt lat="53.626245" lon="16.077307"></trkpt><trkpt lat="53.626909" lon="16.076217"></trkpt><trkpt lat="53.627127" lon="16.076131"></trkpt><trkpt lat="53.627478" lon="16.07612"></trkpt><trkpt lat="53.629866" lon="16.076676"></trkpt><trkpt lat="53.630059" lon="16.076875"></trkpt><trkpt lat="53.63058" lon="16.077077"></trkpt><trkpt lat="53.631883" lon="16.077862"></trkpt><trkpt lat="53.632246" lon="16.078262"></trkpt><trkpt lat="53.636802" lon="16.082068"></trkpt><trkpt lat="53.637476" lon="16.082186"></trkpt><trkpt lat="53.642547" lon="16.082362"></trkpt><trkpt lat="53.64308" lon="16.082277"></trkpt><trkpt lat="53.647077" lon="16.082437"></trkpt><trkpt lat="53.647632" lon="16.082955"></trkpt><trkpt lat="53.649597" lon="16.08515"></trkpt><trkpt lat="53.649493" lon="16.08544"></trkpt><trkpt lat="53.649384" lon="16.085809"></trkpt><trkpt lat="53.649109" lon="16.087498"></trkpt><trkpt lat="53.64907" lon="16.088168"></trkpt><trkpt lat="53.648995" lon="16.088709"></trkpt><trkpt lat="53.648962" lon="16.089376"></trkpt><trkpt lat="53.648615" lon="16.092877"></trkpt><trkpt lat="53.648513" lon="16.093529"></trkpt><trkpt lat="53.648453" lon="16.094517"></trkpt><trkpt lat="53.648548" lon="16.094873"></trkpt><trkpt lat="53.65015" lon="16.102587"></trkpt><trkpt lat="53.650245" lon="16.103391"></trkpt><trkpt lat="53.656461" lon="16.14667"></trkpt><trkpt lat="53.656514" lon="16.147219"></trkpt><trkpt lat="53.656762" lon="16.15212"></trkpt><trkpt lat="53.656452" lon="16.153314"></trkpt><trkpt lat="53.656437" lon="16.153697"></trkpt><trkpt lat="53.656494" lon="16.154064"></trkpt><trkpt lat="53.656603" lon="16.154367"></trkpt><trkpt lat="53.657328" lon="16.15682"></trkpt><trkpt lat="53.65726" lon="16.15716"></trkpt><trkpt lat="53.656935" lon="16.15791"></trkpt><trkpt lat="53.655844" lon="16.159829"></trkpt><trkpt lat="53.655216" lon="16.161751"></trkpt><trkpt lat="53.655183" lon="16.162175"></trkpt><trkpt lat="53.655231" lon="16.162606"></trkpt><trkpt lat="53.655375" lon="16.162995"></trkpt><trkpt lat="53.655702" lon="16.164126"></trkpt><trkpt lat="53.655643" lon="16.164455"></trkpt><trkpt lat="53.655462" lon="16.164795"></trkpt><trkpt lat="53.654671" lon="16.166558"></trkpt><trkpt lat="53.654655" lon="16.167185"></trkpt><trkpt lat="53.65474" lon="16.167789"></trkpt><trkpt lat="53.655276" lon="16.168662"></trkpt><trkpt lat="53.655559" lon="16.16934"></trkpt><trkpt lat="53.655753" lon="16.170384"></trkpt><trkpt lat="53.65594" lon="16.171978"></trkpt><trkpt lat="53.655847" lon="16.17231"></trkpt><trkpt lat="53.656066" lon="16.17229"></trkpt><trkpt lat="53.655832" lon="16.172401"></trkpt><trkpt lat="53.655454" lon="16.173194"></trkpt><trkpt lat="53.645912" lon="16.189663"></trkpt><trkpt lat="53.645159" lon="16.190022"></trkpt><trkpt lat="53.642711" lon="16.190611"></trkpt><trkpt lat="53.642126" lon="16.190584"></trkpt><trkpt lat="53.641771" lon="16.190822"></trkpt><trkpt lat="53.641612" lon="16.191072"></trkpt><trkpt lat="53.632515" lon="16.203291"></trkpt><trkpt lat="53.632303" lon="16.203048"></trkpt><trkpt lat="53.630785" lon="16.201584"></trkpt><trkpt lat="53.630407" lon="16.201312"></trkpt><trkpt lat="53.628888" lon="16.200433"></trkpt><trkpt lat="53.624004" lon="16.198314"></trkpt><trkpt lat="53.623699" lon="16.198222"></trkpt><trkpt lat="53.622545" lon="16.198066"></trkpt><trkpt lat="53.61433" lon="16.198012"></trkpt><trkpt lat="53.613749" lon="16.1981"></trkpt><trkpt lat="53.611776" lon="16.198795"></trkpt><trkpt lat="53.61099" lon="16.19919"></trkpt><trkpt lat="53.608965" lon="16.199901"></trkpt><trkpt lat="53.60846" lon="16.199937"></trkpt><trkpt lat="53.605966" lon="16.19898"></trkpt><trkpt lat="53.605291" lon="16.197996"></trkpt><trkpt lat="53.605189" lon="16.197703"></trkpt><trkpt lat="53.604961" lon="16.196397"></trkpt><trkpt lat="53.604849" lon="16.195958"></trkpt><trkpt lat="53.604662" lon="16.195616"></trkpt><trkpt lat="53.604441" lon="16.195407"></trkpt><trkpt lat="53.60421" lon="16.19532"></trkpt><trkpt lat="53.603941" lon="16.195303"></trkpt><trkpt lat="53.604184" lon="16.195222"></trkpt><trkpt lat="53.603641" lon="16.195425"></trkpt><trkpt lat="53.603044" lon="16.19554"></trkpt><trkpt lat="53.602425" lon="16.195281"></trkpt><trkpt lat="53.601234" lon="16.195258"></trkpt><trkpt lat="53.600688" lon="16.195436"></trkpt><trkpt lat="53.600495" lon="16.195557"></trkpt><trkpt lat="53.600316" lon="16.195787"></trkpt><trkpt lat="53.599892" lon="16.196969"></trkpt><trkpt lat="53.599606" lon="16.198041"></trkpt><trkpt lat="53.599549" lon="16.198893"></trkpt><trkpt lat="53.599617" lon="16.199562"></trkpt><trkpt lat="53.599713" lon="16.201537"></trkpt><trkpt lat="53.599452" lon="16.202691"></trkpt><trkpt lat="53.599099" lon="16.204936"></trkpt><trkpt lat="53.599015" lon="16.205918"></trkpt><trkpt lat="53.598881" lon="16.209498"></trkpt><trkpt lat="53.598888" lon="16.21057"></trkpt><trkpt lat="53.598284" lon="16.217592"></trkpt><trkpt lat="53.597765" lon="16.218297"></trkpt><trkpt lat="53.597112" lon="16.218666"></trkpt><trkpt lat="53.59654" lon="16.218722"></trkpt><trkpt lat="53.583716" lon="16.221519"></trkpt><trkpt lat="53.582764" lon="16.221907"></trkpt><trkpt lat="53.577154" lon="16.225088"></trkpt><trkpt lat="53.576633" lon="16.225714"></trkpt><trkpt lat="53.571865" lon="16.230427"></trkpt><trkpt lat="53.570688" lon="16.230899"></trkpt><trkpt lat="53.570059" lon="16.231293"></trkpt><trkpt lat="53.569529" lon="16.231856"></trkpt><trkpt lat="53.569317" lon="16.231881"></trkpt><trkpt lat="53.569005" lon="16.231651"></trkpt><trkpt lat="53.566764" lon="16.230357"></trkpt><trkpt lat="53.565902" lon="16.230553"></trkpt><trkpt lat="53.564468" lon="16.231061"></trkpt><trkpt lat="53.564226" lon="16.231338"></trkpt><trkpt lat="53.562058" lon="16.234254"></trkpt><trkpt lat="53.562066" lon="16.234733"></trkpt><trkpt lat="53.562196" lon="16.236199"></trkpt><trkpt lat="53.562315" lon="16.23699"></trkpt><trkpt lat="53.562629" lon="16.240118"></trkpt><trkpt lat="53.562824" lon="16.243472"></trkpt><trkpt lat="53.562834" lon="16.244506"></trkpt><trkpt lat="53.562799" lon="16.244859"></trkpt><trkpt lat="53.562648" lon="16.245097"></trkpt><trkpt lat="53.561905" lon="16.245643"></trkpt><trkpt lat="53.561726" lon="16.24584"></trkpt><trkpt lat="53.561488" lon="16.246172"></trkpt><trkpt lat="53.560882" lon="16.247249"></trkpt><trkpt lat="53.56082" lon="16.247587"></trkpt><trkpt lat="53.560661" lon="16.248218"></trkpt><trkpt lat="53.560569" lon="16.248734"></trkpt><trkpt lat="53.559949" lon="16.251415"></trkpt><trkpt lat="53.559892" lon="16.252118"></trkpt><trkpt lat="53.55983" lon="16.252557"></trkpt><trkpt lat="53.559861" lon="16.252906"></trkpt><trkpt lat="53.559959" lon="16.253201"></trkpt><trkpt lat="53.561387" lon="16.258389"></trkpt><trkpt lat="53.561962" lon="16.260934"></trkpt><trkpt lat="53.562192" lon="16.262311"></trkpt><trkpt lat="53.562166" lon="16.262789"></trkpt><trkpt lat="53.558498" lon="16.306743"></trkpt><trkpt lat="53.558256" lon="16.307839"></trkpt><trkpt lat="53.558189" lon="16.309185"></trkpt><trkpt lat="53.557886" lon="16.312376"></trkpt><trkpt lat="53.557358" lon="16.31586"></trkpt><trkpt lat="53.557103" lon="16.31689"></trkpt><trkpt lat="53.557123" lon="16.317249"></trkpt><trkpt lat="53.557474" lon="16.318608"></trkpt><trkpt lat="53.557721" lon="16.319956"></trkpt><trkpt lat="53.557451" lon="16.319331"></trkpt><trkpt lat="53.557597" lon="16.319861"></trkpt><trkpt lat="53.557541" lon="16.320189"></trkpt><trkpt lat="53.557269" lon="16.3206"></trkpt><trkpt lat="53.556906" lon="16.321559"></trkpt><trkpt lat="53.556834" lon="16.321922"></trkpt><trkpt lat="53.556853" lon="16.322882"></trkpt><trkpt lat="53.557028" lon="16.323631"></trkpt><trkpt lat="53.557248" lon="16.324066"></trkpt><trkpt lat="53.558339" lon="16.326596"></trkpt><trkpt lat="53.558566" lon="16.327561"></trkpt><trkpt lat="53.559179" lon="16.329311"></trkpt><trkpt lat="53.559425" lon="16.329784"></trkpt><trkpt lat="53.560719" lon="16.333061"></trkpt><trkpt lat="53.560768" lon="16.333798"></trkpt><trkpt lat="53.560949" lon="16.33488"></trkpt><trkpt lat="53.561143" lon="16.335773"></trkpt><trkpt lat="53.562024" lon="16.341017"></trkpt><trkpt lat="53.562167" lon="16.342185"></trkpt><trkpt lat="53.562233" lon="16.343106"></trkpt><trkpt lat="53.562225" lon="16.346738"></trkpt><trkpt lat="53.562086" lon="16.347727"></trkpt><trkpt lat="53.562065" lon="16.348257"></trkpt><trkpt lat="53.562134" lon="16.34938"></trkpt><trkpt lat="53.562241" lon="16.35033"></trkpt><trkpt lat="53.563325" lon="16.355788"></trkpt><trkpt lat="53.563622" lon="16.356056"></trkpt><trkpt lat="53.574677" lon="16.367818"></trkpt><trkpt lat="53.575117" lon="16.3685"></trkpt><trkpt lat="53.585948" lon="16.387819"></trkpt><trkpt lat="53.586024" lon="16.38836"></trkpt><trkpt lat="53.586031" lon="16.389192"></trkpt><trkpt lat="53.586109" lon="16.390101"></trkpt><trkpt lat="53.586344" lon="16.39103"></trkpt><trkpt lat="53.586723" lon="16.39227"></trkpt><trkpt lat="53.587658" lon="16.39723"></trkpt><trkpt lat="53.587455" lon="16.397555"></trkpt><trkpt lat="53.587342" lon="16.397876"></trkpt><trkpt lat="53.587278" lon="16.398216"></trkpt><trkpt lat="53.585031" lon="16.414493"></trkpt><trkpt lat="53.585195" lon="16.415649"></trkpt><trkpt lat="53.585662" lon="16.420695"></trkpt><trkpt lat="53.58542" lon="16.421769"></trkpt><trkpt lat="53.584916" lon="16.424666"></trkpt><trkpt lat="53.584832" lon="16.425385"></trkpt><trkpt lat="53.584688" lon="16.426051"></trkpt><trkpt lat="53.583392" lon="16.43398"></trkpt><trkpt lat="53.583398" lon="16.434724"></trkpt><trkpt lat="53.583486" lon="16.435674"></trkpt><trkpt lat="53.583711" lon="16.436838"></trkpt><trkpt lat="53.584241" lon="16.441088"></trkpt><trkpt lat="53.58418" lon="16.442002"></trkpt><trkpt lat="53.584179" lon="16.443062"></trkpt><trkpt lat="53.584232" lon="16.44391"></trkpt><trkpt lat="53.584408" lon="16.445054"></trkpt><trkpt lat="53.584626" lon="16.446146"></trkpt><trkpt lat="53.587242" lon="16.463542"></trkpt><trkpt lat="53.587202" lon="16.46453"></trkpt><trkpt lat="53.58573" lon="16.509071"></trkpt><trkpt lat="53.586255" lon="16.510214"></trkpt><trkpt lat="53.58712" lon="16.512997"></trkpt><trkpt lat="53.587061" lon="16.514233"></trkpt><trkpt lat="53.586907" lon="16.515575"></trkpt><trkpt lat="53.586279" lon="16.524951"></trkpt><trkpt lat="53.586272" lon="16.526168"></trkpt><trkpt lat="53.586372" lon="16.527428"></trkpt><trkpt lat="53.586653" lon="16.535439"></trkpt><trkpt lat="53.586475" lon="16.5358"></trkpt><trkpt lat="53.585918" lon="16.537172"></trkpt><trkpt lat="53.58562" lon="16.537799"></trkpt><trkpt lat="53.582301" lon="16.547955"></trkpt><trkpt lat="53.582744" lon="16.548618"></trkpt><trkpt lat="53.582909" lon="16.548831"></trkpt><trkpt lat="53.584387" lon="16.551214"></trkpt><trkpt lat="53.584239" lon="16.551918"></trkpt><trkpt lat="53.583846" lon="16.552026"></trkpt><trkpt lat="53.58356" lon="16.55217"></trkpt><trkpt lat="53.582795" lon="16.552859"></trkpt><trkpt lat="53.582714" lon="16.553375"></trkpt><trkpt lat="53.582666" lon="16.554896"></trkpt><trkpt lat="53.582872" lon="16.5556"></trkpt><trkpt lat="53.583058" lon="16.555995"></trkpt><trkpt lat="53.583309" lon="16.556249"></trkpt><trkpt lat="53.584335" lon="16.557502"></trkpt><trkpt lat="53.584631" lon="16.557983"></trkpt><trkpt lat="53.585156" lon="16.559062"></trkpt><trkpt lat="53.585262" lon="16.559393"></trkpt><trkpt lat="53.585555" lon="16.560595"></trkpt><trkpt lat="53.585816" lon="16.56138"></trkpt><trkpt lat="53.586338" lon="16.562637"></trkpt><trkpt lat="53.58647" lon="16.563011"></trkpt><trkpt lat="53.586506" lon="16.564081"></trkpt><trkpt lat="53.586483" lon="16.564605"></trkpt><trkpt lat="53.586538" lon="16.565132"></trkpt><trkpt lat="53.586626" lon="16.565572"></trkpt><trkpt lat="53.58683" lon="16.56638"></trkpt><trkpt lat="53.587153" lon="16.56802"></trkpt><trkpt lat="53.587151" lon="16.568689"></trkpt><trkpt lat="53.587281" lon="16.569205"></trkpt><trkpt lat="53.587422" lon="16.569927"></trkpt><trkpt lat="53.587549" lon="16.570373"></trkpt><trkpt lat="53.587604" lon="16.570703"></trkpt><trkpt lat="53.587822" lon="16.571633"></trkpt><trkpt lat="53.587941" lon="16.572023"></trkpt><trkpt lat="53.588002" lon="16.572374"></trkpt><trkpt lat="53.588092" lon="16.572672"></trkpt><trkpt lat="53.588213" lon="16.57318"></trkpt><trkpt lat="53.588852" lon="16.575395"></trkpt><trkpt lat="53.589349" lon="16.575709"></trkpt><trkpt lat="53.589975" lon="16.576199"></trkpt><trkpt lat="53.590258" lon="16.576716"></trkpt><trkpt lat="53.593749" lon="16.58408"></trkpt><trkpt lat="53.593875" lon="16.584494"></trkpt><trkpt lat="53.594009" lon="16.584837"></trkpt><trkpt lat="53.595401" lon="16.589304"></trkpt><trkpt lat="53.595628" lon="16.590447"></trkpt><trkpt lat="53.597588" lon="16.598228"></trkpt><trkpt lat="53.597939" lon="16.599115"></trkpt><trkpt lat="53.601851" lon="16.607236"></trkpt><trkpt lat="53.602283" lon="16.607225"></trkpt><trkpt lat="53.602868" lon="16.607334"></trkpt><trkpt lat="53.603361" lon="16.607663"></trkpt><trkpt lat="53.603611" lon="16.607888"></trkpt><trkpt lat="53.603751" lon="16.608145"></trkpt><trkpt lat="53.603856" lon="16.608591"></trkpt><trkpt lat="53.604075" lon="16.608711"></trkpt><trkpt lat="53.604616" lon="16.60849"></trkpt><trkpt lat="53.604812" lon="16.608596"></trkpt><trkpt lat="53.604983" lon="16.608953"></trkpt><trkpt lat="53.605247" lon="16.609422"></trkpt><trkpt lat="53.606336" lon="16.611691"></trkpt><trkpt lat="53.606417" lon="16.612015"></trkpt><trkpt lat="53.606641" lon="16.61253"></trkpt><trkpt lat="53.606814" lon="16.613041"></trkpt><trkpt lat="53.60705" lon="16.613633"></trkpt><trkpt lat="53.607435" lon="16.613826"></trkpt><trkpt lat="53.607788" lon="16.613887"></trkpt><trkpt lat="53.608067" lon="16.614233"></trkpt><trkpt lat="53.610998" lon="16.617237"></trkpt><trkpt lat="53.611264" lon="16.617297"></trkpt><trkpt lat="53.611788" lon="16.617344"></trkpt><trkpt lat="53.61245" lon="16.617511"></trkpt><trkpt lat="53.612662" lon="16.617629"></trkpt><trkpt lat="53.614582" lon="16.618956"></trkpt><trkpt lat="53.614768" lon="16.619186"></trkpt><trkpt lat="53.615039" lon="16.619428"></trkpt><trkpt lat="53.61531" lon="16.619412"></trkpt><trkpt lat="53.615569" lon="16.619339"></trkpt><trkpt lat="53.616047" lon="16.619356"></trkpt><trkpt lat="53.616485" lon="16.618944"></trkpt><trkpt lat="53.61673" lon="16.618512"></trkpt><trkpt lat="53.616857" lon="16.618179"></trkpt><trkpt lat="53.616945" lon="16.617864"></trkpt><trkpt lat="53.61694" lon="16.617511"></trkpt><trkpt lat="53.616781" lon="16.616817"></trkpt><trkpt lat="53.616753" lon="16.61646"></trkpt><trkpt lat="53.616963" lon="16.615949"></trkpt><trkpt lat="53.617497" lon="16.615857"></trkpt><trkpt lat="53.622013" lon="16.615649"></trkpt><trkpt lat="53.622369" lon="16.615781"></trkpt><trkpt lat="53.622761" lon="16.615749"></trkpt><trkpt lat="53.623395" lon="16.615364"></trkpt><trkpt lat="53.623661" lon="16.615087"></trkpt><trkpt lat="53.62379" lon="16.614798"></trkpt><trkpt lat="53.623886" lon="16.614483"></trkpt><trkpt lat="53.624333" lon="16.613729"></trkpt><trkpt lat="53.624514" lon="16.613581"></trkpt><trkpt lat="53.62507" lon="16.613442"></trkpt><trkpt lat="53.636635" lon="16.612103"></trkpt><trkpt lat="53.637114" lon="16.613096"></trkpt><trkpt lat="53.639163" lon="16.61593"></trkpt><trkpt lat="53.639879" lon="16.616504"></trkpt><trkpt lat="53.643836" lon="16.618937"></trkpt><trkpt lat="53.6443" lon="16.61888"></trkpt><trkpt lat="53.646139" lon="16.619402"></trkpt><trkpt lat="53.646841" lon="16.619725"></trkpt><trkpt lat="53.647092" lon="16.619921"></trkpt><trkpt lat="53.65027" lon="16.623129"></trkpt><trkpt lat="53.650374" lon="16.623912"></trkpt><trkpt lat="53.650891" lon="16.626555"></trkpt><trkpt lat="53.651157" lon="16.626656"></trkpt><trkpt lat="53.65191" lon="16.627039"></trkpt><trkpt lat="53.651881" lon="16.627567"></trkpt><trkpt lat="53.651455" lon="16.630309"></trkpt><trkpt lat="53.651235" lon="16.630835"></trkpt><trkpt lat="53.650998" lon="16.631801"></trkpt><trkpt lat="53.650869" lon="16.632895"></trkpt><trkpt lat="53.650892" lon="16.633265"></trkpt><trkpt lat="53.651202" lon="16.633859"></trkpt><trkpt lat="53.651441" lon="16.633772"></trkpt><trkpt lat="53.651919" lon="16.634186"></trkpt><trkpt lat="53.652189" lon="16.634265"></trkpt><trkpt lat="53.654805" lon="16.633152"></trkpt><trkpt lat="53.654998" lon="16.632962"></trkpt><trkpt lat="53.655195" lon="16.63281"></trkpt><trkpt lat="53.655765" lon="16.632048"></trkpt><trkpt lat="53.656404" lon="16.631324"></trkpt><trkpt lat="53.657092" lon="16.630776"></trkpt><trkpt lat="53.657756" lon="16.629624"></trkpt><trkpt lat="53.658232" lon="16.628673"></trkpt><trkpt lat="53.659794" lon="16.626345"></trkpt><trkpt lat="53.660373" lon="16.62635"></trkpt><trkpt lat="53.66097" lon="16.626175"></trkpt><trkpt lat="53.66154" lon="16.625916"></trkpt><trkpt lat="53.661974" lon="16.625659"></trkpt><trkpt lat="53.662194" lon="16.62544"></trkpt><trkpt lat="53.662656" lon="16.625072"></trkpt><trkpt lat="53.663118" lon="16.625099"></trkpt><trkpt lat="53.663395" lon="16.625011"></trkpt><trkpt lat="53.664129" lon="16.624672"></trkpt><trkpt lat="53.664442" lon="16.624234"></trkpt><trkpt lat="53.666418" lon="16.621893"></trkpt><trkpt lat="53.667434" lon="16.620981"></trkpt><trkpt lat="53.667578" lon="16.621269"></trkpt><trkpt lat="53.667693" lon="16.621631"></trkpt><trkpt lat="53.668009" lon="16.622859"></trkpt><trkpt lat="53.668127" lon="16.623504"></trkpt><trkpt lat="53.668299" lon="16.624229"></trkpt><trkpt lat="53.668794" lon="16.626892"></trkpt><trkpt lat="53.678628" lon="16.668083"></trkpt><trkpt lat="53.678789" lon="16.668462"></trkpt><trkpt lat="53.678777" lon="16.668875"></trkpt><trkpt lat="53.678683" lon="16.669193"></trkpt><trkpt lat="53.678519" lon="16.669953"></trkpt><trkpt lat="53.678466" lon="16.670278"></trkpt><trkpt lat="53.678475" lon="16.670632"></trkpt><trkpt lat="53.678617" lon="16.671021"></trkpt><trkpt lat="53.679609" lon="16.673042"></trkpt><trkpt lat="53.680195" lon="16.67375"></trkpt><trkpt lat="53.680465" lon="16.674027"></trkpt><trkpt lat="53.681041" lon="16.674516"></trkpt><trkpt lat="53.68131" lon="16.674633"></trkpt><trkpt lat="53.681842" lon="16.674581"></trkpt><trkpt lat="53.682218" lon="16.674483"></trkpt><trkpt lat="53.682709" lon="16.674705"></trkpt><trkpt lat="53.683181" lon="16.675423"></trkpt><trkpt lat="53.684332" lon="16.676891"></trkpt><trkpt lat="53.684525" lon="16.677268"></trkpt><trkpt lat="53.6848" lon="16.67818"></trkpt><trkpt lat="53.685224" lon="16.679372"></trkpt><trkpt lat="53.685639" lon="16.680776"></trkpt><trkpt lat="53.68568" lon="16.681493"></trkpt><trkpt lat="53.685655" lon="16.683814"></trkpt><trkpt lat="53.685682" lon="16.684146"></trkpt><trkpt lat="53.68577" lon="16.686655"></trkpt><trkpt lat="53.685403" lon="16.687489"></trkpt><trkpt lat="53.684902" lon="16.688888"></trkpt><trkpt lat="53.685478" lon="16.689636"></trkpt><trkpt lat="53.687737" lon="16.69203"></trkpt><trkpt lat="53.688157" lon="16.692326"></trkpt><trkpt lat="53.688913" lon="16.693006"></trkpt><trkpt lat="53.692724" lon="16.695866"></trkpt><trkpt lat="53.69367" lon="16.696342"></trkpt><trkpt lat="53.694736" lon="16.697082"></trkpt><trkpt lat="53.694663" lon="16.697428"></trkpt><trkpt lat="53.693864" lon="16.700493"></trkpt><trkpt lat="53.693335" lon="16.703043"></trkpt><trkpt lat="53.693456" lon="16.703623"></trkpt><trkpt lat="53.693564" lon="16.703967"></trkpt><trkpt lat="53.693867" lon="16.704502"></trkpt><trkpt lat="53.693682" lon="16.704675"></trkpt><trkpt lat="53.693698" lon="16.705218"></trkpt></trkseg></trk></gpx>