<?xml version="1.0" encoding="UTF-8" standalone="no" ?><gpx xmlns="http://www.topografix.com/GPX/1/1" xmlns:gpxx="http://www.garmin.com/xmlschemas/GpxExtensions/v3" ><trk><trkseg><trkpt lat="53.053172" lon="15.591525"></trkpt><trkpt lat="53.053397" lon="15.591262"></trkpt><trkpt lat="53.053688" lon="15.590788"></trkpt><trkpt lat="53.054109" lon="15.590216"></trkpt><trkpt lat="53.054309" lon="15.590419"></trkpt><trkpt lat="53.054675" lon="15.590862"></trkpt><trkpt lat="53.055511" lon="15.592399"></trkpt><trkpt lat="53.055852" lon="15.593316"></trkpt><trkpt lat="53.057484" lon="15.596799"></trkpt><trkpt lat="53.058073" lon="15.597744"></trkpt><trkpt lat="53.058464" lon="15.598824"></trkpt><trkpt lat="53.060726" lon="15.603499"></trkpt><trkpt lat="53.061205" lon="15.603714"></trkpt><trkpt lat="53.061814" lon="15.603886"></trkpt><trkpt lat="53.06238" lon="15.603845"></trkpt><trkpt lat="53.063033" lon="15.603528"></trkpt><trkpt lat="53.063669" lon="15.602853"></trkpt><trkpt lat="53.066034" lon="15.600742"></trkpt><trkpt lat="53.066868" lon="15.600138"></trkpt><trkpt lat="53.073555" lon="15.596538"></trkpt><trkpt lat="53.073929" lon="15.596542"></trkpt><trkpt lat="53.074774" lon="15.59641"></trkpt><trkpt lat="53.076068" lon="15.596869"></trkpt><trkpt lat="53.076661" lon="15.597363"></trkpt><trkpt lat="53.084084" lon="15.602185"></trkpt><trkpt lat="53.084819" lon="15.602103"></trkpt><trkpt lat="53.087094" lon="15.60315"></trkpt><trkpt lat="53.087371" lon="15.604016"></trkpt><trkpt lat="53.089246" lon="15.60843"></trkpt><trkpt lat="53.089756" lon="15.608883"></trkpt><trkpt lat="53.090541" lon="15.609451"></trkpt><trkpt lat="53.097431" lon="15.613467"></trkpt><trkpt lat="53.098157" lon="15.613737"></trkpt><trkpt lat="53.101444" lon="15.615536"></trkpt><trkpt lat="53.102264" lon="15.616668"></trkpt><trkpt lat="53.103622" lon="15.619102"></trkpt><trkpt lat="53.103841" lon="15.619341"></trkpt><trkpt lat="53.104604" lon="15.619697"></trkpt><trkpt lat="53.10486" lon="15.619993"></trkpt><trkpt lat="53.104978" lon="15.620268"></trkpt><trkpt lat="53.105304" lon="15.621268"></trkpt><trkpt lat="53.105568" lon="15.621472"></trkpt><trkpt lat="53.105758" lon="15.621578"></trkpt><trkpt lat="53.106104" lon="15.62186"></trkpt><trkpt lat="53.105539" lon="15.622332"></trkpt><trkpt lat="53.104976" lon="15.623041"></trkpt><trkpt lat="53.10459" lon="15.623989"></trkpt><trkpt lat="53.104204" lon="15.625593"></trkpt><trkpt lat="53.10386" lon="15.627472"></trkpt><trkpt lat="53.104045" lon="15.627699"></trkpt><trkpt lat="53.104839" lon="15.628362"></trkpt><trkpt lat="53.105227" lon="15.628512"></trkpt><trkpt lat="53.105428" lon="15.628541"></trkpt><trkpt lat="53.105712" lon="15.628671"></trkpt><trkpt lat="53.106296" lon="15.629236"></trkpt><trkpt lat="53.106513" lon="15.63004"></trkpt><trkpt lat="53.107541" lon="15.632822"></trkpt><trkpt lat="53.107956" lon="15.633084"></trkpt><trkpt lat="53.110065" lon="15.63511"></trkpt><trkpt lat="53.110384" lon="15.635804"></trkpt><trkpt lat="53.11441" lon="15.64274"></trkpt><trkpt lat="53.115032" lon="15.643156"></trkpt><trkpt lat="53.117744" lon="15.64547"></trkpt><trkpt lat="53.118319" lon="15.646421"></trkpt><trkpt lat="53.131266" lon="15.665029"></trkpt><trkpt lat="53.131584" lon="15.66533"></trkpt><trkpt lat="53.14587" lon="15.681159"></trkpt><trkpt lat="53.145908" lon="15.68152"></trkpt><trkpt lat="53.145983" lon="15.681848"></trkpt><trkpt lat="53.146025" lon="15.682176"></trkpt><trkpt lat="53.146103" lon="15.682505"></trkpt><trkpt lat="53.146306" lon="15.683199"></trkpt><trkpt lat="53.146318" lon="15.683729"></trkpt><trkpt lat="53.146494" lon="15.684532"></trkpt><trkpt lat="53.14826" lon="15.691104"></trkpt><trkpt lat="53.149107" lon="15.691304"></trkpt><trkpt lat="53.1509" lon="15.691963"></trkpt><trkpt lat="53.151536" lon="15.692353"></trkpt><trkpt lat="53.157161" lon="15.695064"></trkpt><trkpt lat="53.189346" lon="15.714816"></trkpt><trkpt lat="53.189707" lon="15.715151"></trkpt><trkpt lat="53.19281" lon="15.717529"></trkpt><trkpt lat="53.19329" lon="15.717819"></trkpt><trkpt lat="53.196315" lon="15.719166"></trkpt><trkpt lat="53.196834" lon="15.719028"></trkpt><trkpt lat="53.19731" lon="15.718723"></trkpt><trkpt lat="53.199331" lon="15.717692"></trkpt><trkpt lat="53.199566" lon="15.71766"></trkpt><trkpt lat="53.200475" lon="15.717652"></trkpt><trkpt lat="53.201005" lon="15.717548"></trkpt><trkpt lat="53.206502" lon="15.717768"></trkpt><trkpt lat="53.206833" lon="15.719064"></trkpt><trkpt lat="53.20713" lon="15.720607"></trkpt><trkpt lat="53.213161" lon="15.744941"></trkpt><trkpt lat="53.213723" lon="15.746073"></trkpt><trkpt lat="53.219422" lon="15.759867"></trkpt><trkpt lat="53.219144" lon="15.760229"></trkpt><trkpt lat="53.21878" lon="15.760781"></trkpt><trkpt lat="53.218705" lon="15.761087"></trkpt><trkpt lat="53.218593" lon="15.761916"></trkpt><trkpt lat="53.218522" lon="15.762277"></trkpt><trkpt lat="53.218319" lon="15.763072"></trkpt><trkpt lat="53.218038" lon="15.763475"></trkpt><trkpt lat="53.217427" lon="15.763867"></trkpt><trkpt lat="53.2154" lon="15.766019"></trkpt><trkpt lat="53.215013" lon="15.766975"></trkpt><trkpt lat="53.214987" lon="15.767321"></trkpt><trkpt lat="53.215282" lon="15.768474"></trkpt><trkpt lat="53.216" lon="15.770517"></trkpt><trkpt lat="53.216471" lon="15.771421"></trkpt><trkpt lat="53.240968" lon="15.819117"></trkpt><trkpt lat="53.257945" lon="15.857674"></trkpt><trkpt lat="53.258134" lon="15.85699"></trkpt><trkpt lat="53.258428" lon="15.856119"></trkpt><trkpt lat="53.25858" lon="15.855535"></trkpt><trkpt lat="53.258613" lon="15.85517"></trkpt><trkpt lat="53.258615" lon="15.854504"></trkpt><trkpt lat="53.258631" lon="15.854174"></trkpt><trkpt lat="53.258784" lon="15.853867"></trkpt><trkpt lat="53.259331" lon="15.853615"></trkpt><trkpt lat="53.259767" lon="15.853045"></trkpt><trkpt lat="53.26056" lon="15.852207"></trkpt><trkpt lat="53.260938" lon="15.85211"></trkpt><trkpt lat="53.261829" lon="15.851728"></trkpt><trkpt lat="53.265419" lon="15.85063"></trkpt><trkpt lat="53.265953" lon="15.850535"></trkpt><trkpt lat="53.269161" lon="15.84955"></trkpt><trkpt lat="53.269373" lon="15.849355"></trkpt><trkpt lat="53.270011" lon="15.848872"></trkpt><trkpt lat="53.270343" lon="15.848699"></trkpt><trkpt lat="53.270759" lon="15.848415"></trkpt><trkpt lat="53.271869" lon="15.847447"></trkpt><trkpt lat="53.272047" lon="15.84716"></trkpt><trkpt lat="53.272399" lon="15.846694"></trkpt><trkpt lat="53.272587" lon="15.846372"></trkpt><trkpt lat="53.272755" lon="15.846134"></trkpt><trkpt lat="53.274318" lon="15.844238"></trkpt><trkpt lat="53.274355" lon="15.844709"></trkpt><trkpt lat="53.274444" lon="15.845413"></trkpt><trkpt lat="53.274617" lon="15.84756"></trkpt><trkpt lat="53.275277" lon="15.852875"></trkpt><trkpt lat="53.275409" lon="15.853286"></trkpt><trkpt lat="53.275455" lon="15.85363"></trkpt><trkpt lat="53.27546" lon="15.854499"></trkpt><trkpt lat="53.275567" lon="15.855942"></trkpt><trkpt lat="53.276368" lon="15.862551"></trkpt><trkpt lat="53.276505" lon="15.863328"></trkpt><trkpt lat="53.276678" lon="15.863792"></trkpt><trkpt lat="53.293239" lon="15.901808"></trkpt><trkpt lat="53.293444" lon="15.901852"></trkpt><trkpt lat="53.293673" lon="15.902154"></trkpt><trkpt lat="53.294522" lon="15.902939"></trkpt><trkpt lat="53.295021" lon="15.903311"></trkpt><trkpt lat="53.295229" lon="15.903537"></trkpt><trkpt lat="53.295024" lon="15.904398"></trkpt><trkpt lat="53.294999" lon="15.904755"></trkpt><trkpt lat="53.295302" lon="15.905008"></trkpt><trkpt lat="53.296036" lon="15.905751"></trkpt><trkpt lat="53.296341" lon="15.906147"></trkpt><trkpt lat="53.296684" lon="15.906284"></trkpt><trkpt lat="53.296381" lon="15.907285"></trkpt><trkpt lat="53.295679" lon="15.910558"></trkpt><trkpt lat="53.295536" lon="15.911591"></trkpt><trkpt lat="53.295468" lon="15.913324"></trkpt><trkpt lat="53.295577" lon="15.913746"></trkpt><trkpt lat="53.295863" lon="15.91447"></trkpt><trkpt lat="53.296195" lon="15.915123"></trkpt><trkpt lat="53.296385" lon="15.915331"></trkpt><trkpt lat="53.296744" lon="15.915324"></trkpt><trkpt lat="53.298349" lon="15.915104"></trkpt><trkpt lat="53.299193" lon="15.913987"></trkpt><trkpt lat="53.299402" lon="15.913822"></trkpt><trkpt lat="53.2999" lon="15.913323"></trkpt><trkpt lat="53.299882" lon="15.912876"></trkpt><trkpt lat="53.299928" lon="15.911279"></trkpt><trkpt lat="53.299999" lon="15.911667"></trkpt><trkpt lat="53.299996" lon="15.911126"></trkpt><trkpt lat="53.299957" lon="15.910402"></trkpt><trkpt lat="53.300526" lon="15.910248"></trkpt><trkpt lat="53.301125" lon="15.909858"></trkpt><trkpt lat="53.301709" lon="15.90957"></trkpt><trkpt lat="53.302408" lon="15.910055"></trkpt><trkpt lat="53.302705" lon="15.910388"></trkpt><trkpt lat="53.303758" lon="15.911763"></trkpt><trkpt lat="53.303914" lon="15.912158"></trkpt><trkpt lat="53.304194" lon="15.913179"></trkpt><trkpt lat="53.305517" lon="15.917181"></trkpt><trkpt lat="53.30595" lon="15.917929"></trkpt><trkpt lat="53.306486" lon="15.918653"></trkpt><trkpt lat="53.306979" lon="15.918961"></trkpt><trkpt lat="53.307371" lon="15.919129"></trkpt><trkpt lat="53.307725" lon="15.919229"></trkpt><trkpt lat="53.30805" lon="15.919279"></trkpt><trkpt lat="53.310485" lon="15.919293"></trkpt><trkpt lat="53.311397" lon="15.919566"></trkpt><trkpt lat="53.325723" lon="15.925707"></trkpt><trkpt lat="53.326451" lon="15.926246"></trkpt><trkpt lat="53.337848" lon="15.933105"></trkpt><trkpt lat="53.338228" lon="15.933228"></trkpt><trkpt lat="53.340741" lon="15.933588"></trkpt><trkpt lat="53.344807" lon="15.932466"></trkpt><trkpt lat="53.354092" lon="15.9316"></trkpt><trkpt lat="53.354717" lon="15.932106"></trkpt><trkpt lat="53.357743" lon="15.934127"></trkpt><trkpt lat="53.358322" lon="15.934223"></trkpt><trkpt lat="53.362297" lon="15.934413"></trkpt><trkpt lat="53.364005" lon="15.93476"></trkpt><trkpt lat="53.364442" lon="15.934949"></trkpt><trkpt lat="53.367469" lon="15.935863"></trkpt><trkpt lat="53.367893" lon="15.935902"></trkpt><trkpt lat="53.37154" lon="15.936842"></trkpt><trkpt lat="53.375609" lon="15.938409"></trkpt><trkpt lat="53.376362" lon="15.939405"></trkpt><trkpt lat="53.382621" lon="15.946359"></trkpt><trkpt lat="53.383757" lon="15.946701"></trkpt><trkpt lat="53.387154" lon="15.94833"></trkpt><trkpt lat="53.387605" lon="15.948767"></trkpt><trkpt lat="53.388416" lon="15.949411"></trkpt><trkpt lat="53.391717" lon="15.952741"></trkpt><trkpt lat="53.392184" lon="15.953829"></trkpt><trkpt lat="53.394861" lon="15.95916"></trkpt><trkpt lat="53.39537" lon="15.95982"></trkpt><trkpt lat="53.396125" lon="15.960992"></trkpt><trkpt lat="53.4001" lon="15.9681"></trkpt><trkpt lat="53.400495" lon="15.969081"></trkpt><trkpt lat="53.400838" lon="15.969738"></trkpt><trkpt lat="53.401054" lon="15.970257"></trkpt><trkpt lat="53.401375" lon="15.971342"></trkpt><trkpt lat="53.401999" lon="15.97397"></trkpt><trkpt lat="53.401947" lon="15.974291"></trkpt><trkpt lat="53.401597" lon="15.975298"></trkpt><trkpt lat="53.401394" lon="15.976118"></trkpt><trkpt lat="53.401255" lon="15.97733"></trkpt><trkpt lat="53.401209" lon="15.978425"></trkpt><trkpt lat="53.401221" lon="15.979247"></trkpt><trkpt lat="53.401261" lon="15.97959"></trkpt><trkpt lat="53.401762" lon="15.98251"></trkpt><trkpt lat="53.40213" lon="15.982703"></trkpt><trkpt lat="53.405627" lon="15.98532"></trkpt><trkpt lat="53.405852" lon="15.986249"></trkpt><trkpt lat="53.42174" lon="16.043434"></trkpt><trkpt lat="53.422389" lon="16.044732"></trkpt><trkpt lat="53.435621" lon="16.067428"></trkpt><trkpt lat="53.436044" lon="16.06778"></trkpt><trkpt lat="53.436945" lon="16.068687"></trkpt><trkpt lat="53.437213" lon="16.069398"></trkpt><trkpt lat="53.437318" lon="16.069966"></trkpt><trkpt lat="53.438236" lon="16.073726"></trkpt><trkpt lat="53.438951" lon="16.073789"></trkpt><trkpt lat="53.444844" lon="16.075166"></trkpt><trkpt lat="53.445896" lon="16.07617"></trkpt><trkpt lat="53.450125" lon="16.078585"></trkpt><trkpt lat="53.45054" lon="16.078248"></trkpt><trkpt lat="53.481041" lon="16.048742"></trkpt><trkpt lat="53.481217" lon="16.048391"></trkpt><trkpt lat="53.481374" lon="16.047998"></trkpt><trkpt lat="53.482551" lon="16.045477"></trkpt><trkpt lat="53.482911" lon="16.045222"></trkpt><trkpt lat="53.483258" lon="16.045115"></trkpt><trkpt lat="53.485595" lon="16.044036"></trkpt><trkpt lat="53.486386" lon="16.043185"></trkpt><trkpt lat="53.503581" lon="16.027672"></trkpt><trkpt lat="53.50449" lon="16.027115"></trkpt><trkpt lat="53.51066" lon="16.024166"></trkpt><trkpt lat="53.513254" lon="16.023285"></trkpt><trkpt lat="53.514768" lon="16.022353"></trkpt><trkpt lat="53.515637" lon="16.021517"></trkpt><trkpt lat="53.519913" lon="16.0182"></trkpt><trkpt lat="53.522659" lon="16.016456"></trkpt><trkpt lat="53.52916" lon="16.014035"></trkpt><trkpt lat="53.529094" lon="16.014501"></trkpt><trkpt lat="53.529259" lon="16.014776"></trkpt><trkpt lat="53.53003" lon="16.014899"></trkpt><trkpt lat="53.532482" lon="16.014811"></trkpt><trkpt lat="53.532562" lon="16.014133"></trkpt><trkpt lat="53.532589" lon="16.01345"></trkpt><trkpt lat="53.533042" lon="16.01057"></trkpt><trkpt lat="53.533292" lon="16.010586"></trkpt><trkpt lat="53.533549" lon="16.010515"></trkpt><trkpt lat="53.533962" lon="16.01055"></trkpt><trkpt lat="53.53478" lon="16.011087"></trkpt><trkpt lat="53.535064" lon="16.011035"></trkpt><trkpt lat="53.534672" lon="16.011242"></trkpt><trkpt lat="53.535146" lon="16.011335"></trkpt><trkpt lat="53.53571" lon="16.011071"></trkpt><trkpt lat="53.535906" lon="16.010924"></trkpt><trkpt lat="53.536476" lon="16.01117"></trkpt><trkpt lat="53.536755" lon="16.011485"></trkpt><trkpt lat="53.537024" lon="16.011837"></trkpt><trkpt lat="53.537656" lon="16.012459"></trkpt><trkpt lat="53.537857" lon="16.012777"></trkpt><trkpt lat="53.537924" lon="16.013204"></trkpt><trkpt lat="53.538049" lon="16.01378"></trkpt><trkpt lat="53.538344" lon="16.013794"></trkpt><trkpt lat="53.539413" lon="16.013512"></trkpt><trkpt lat="53.540438" lon="16.013112"></trkpt><trkpt lat="53.546918" lon="16.009417"></trkpt><trkpt lat="53.54748" lon="16.008584"></trkpt><trkpt lat="53.550653" lon="16.005258"></trkpt><trkpt lat="53.551401" lon="16.00544"></trkpt><trkpt lat="53.552212" lon="16.0059"></trkpt><trkpt lat="53.552419" lon="16.006076"></trkpt><trkpt lat="53.553323" lon="16.007001"></trkpt><trkpt lat="53.55334" lon="16.007342"></trkpt><trkpt lat="53.553272" lon="16.007705"></trkpt><trkpt lat="53.553226" lon="16.008103"></trkpt><trkpt lat="53.553016" lon="16.011023"></trkpt><trkpt lat="53.553221" lon="16.010973"></trkpt><trkpt lat="53.553878" lon="16.011216"></trkpt><trkpt lat="53.554131" lon="16.011225"></trkpt><trkpt lat="53.554344" lon="16.011133"></trkpt><trkpt lat="53.554648" lon="16.011055"></trkpt><trkpt lat="53.554967" lon="16.011077"></trkpt><trkpt lat="53.555893" lon="16.011263"></trkpt><trkpt lat="53.557291" lon="16.010783"></trkpt><trkpt lat="53.557695" lon="16.010594"></trkpt><trkpt lat="53.558002" lon="16.010518"></trkpt><trkpt lat="53.558347" lon="16.010824"></trkpt><trkpt lat="53.558659" lon="16.010961"></trkpt><trkpt lat="53.558995" lon="16.011047"></trkpt><trkpt lat="53.559557" lon="16.011118"></trkpt><trkpt lat="53.559777" lon="16.011198"></trkpt><trkpt lat="53.560099" lon="16.011137"></trkpt><trkpt lat="53.560287" lon="16.011018"></trkpt><trkpt lat="53.560421" lon="16.010575"></trkpt><trkpt lat="53.560665" lon="16.010293"></trkpt><trkpt lat="53.560966" lon="16.010223"></trkpt><trkpt lat="53.561288" lon="16.010197"></trkpt><trkpt lat="53.562814" lon="16.009869"></trkpt><trkpt lat="53.566611" lon="16.010107"></trkpt><trkpt lat="53.576502" lon="16.012231"></trkpt><trkpt lat="53.57731" lon="16.013508"></trkpt><trkpt lat="53.578337" lon="16.015464"></trkpt><trkpt lat="53.57874" lon="16.016598"></trkpt><trkpt lat="53.579459" lon="16.019665"></trkpt><trkpt lat="53.579568" lon="16.020862"></trkpt><trkpt lat="53.579736" lon="16.021984"></trkpt><trkpt lat="53.580377" lon="16.023006"></trkpt><trkpt lat="53.588368" lon="16.033978"></trkpt><trkpt lat="53.589228" lon="16.035453"></trkpt><trkpt lat="53.58958" lon="16.036544"></trkpt><trkpt lat="53.5896" lon="16.036876"></trkpt><trkpt lat="53.589571" lon="16.037753"></trkpt><trkpt lat="53.589303" lon="16.039699"></trkpt><trkpt lat="53.589494" lon="16.039954"></trkpt><trkpt lat="53.589481" lon="16.040474"></trkpt><trkpt lat="53.589383" lon="16.041842"></trkpt><trkpt lat="53.589615" lon="16.042627"></trkpt><trkpt lat="53.589177" lon="16.043033"></trkpt><trkpt lat="53.588717" lon="16.043319"></trkpt><trkpt lat="53.588532" lon="16.043496"></trkpt><trkpt lat="53.58829" lon="16.043663"></trkpt><trkpt lat="53.588033" lon="16.043769"></trkpt><trkpt lat="53.586786" lon="16.044046"></trkpt><trkpt lat="53.586349" lon="16.044023"></trkpt><trkpt lat="53.585562" lon="16.043658"></trkpt><trkpt lat="53.585306" lon="16.043632"></trkpt><trkpt lat="53.585731" lon="16.043762"></trkpt><trkpt lat="53.586184" lon="16.043991"></trkpt><trkpt lat="53.586734" lon="16.044072"></trkpt><trkpt lat="53.588813" lon="16.043295"></trkpt><trkpt lat="53.589349" lon="16.043017"></trkpt><trkpt lat="53.589674" lon="16.042919"></trkpt><trkpt lat="53.589518" lon="16.042098"></trkpt><trkpt lat="53.589488" lon="16.041274"></trkpt><trkpt lat="53.589517" lon="16.040537"></trkpt><trkpt lat="53.589512" lon="16.039847"></trkpt><trkpt lat="53.589262" lon="16.039572"></trkpt><trkpt lat="53.589094" lon="16.039329"></trkpt><trkpt lat="53.589247" lon="16.03958"></trkpt><trkpt lat="53.589461" lon="16.039753"></trkpt><trkpt lat="53.589421" lon="16.040627"></trkpt><trkpt lat="53.589424" lon="16.04189"></trkpt><trkpt lat="53.589586" lon="16.042583"></trkpt><trkpt lat="53.589769" lon="16.042849"></trkpt><trkpt lat="53.590042" lon="16.043015"></trkpt><trkpt lat="53.590573" lon="16.042971"></trkpt><trkpt lat="53.591905" lon="16.042643"></trkpt><trkpt lat="53.593723" lon="16.041914"></trkpt><trkpt lat="53.594358" lon="16.04123"></trkpt><trkpt lat="53.59482" lon="16.04089"></trkpt><trkpt lat="53.595591" lon="16.040477"></trkpt><trkpt lat="53.59618" lon="16.041348"></trkpt><trkpt lat="53.59678" lon="16.042095"></trkpt><trkpt lat="53.597072" lon="16.04228"></trkpt><trkpt lat="53.597313" lon="16.04234"></trkpt><trkpt lat="53.597754" lon="16.042316"></trkpt><trkpt lat="53.602209" lon="16.041174"></trkpt><trkpt lat="53.602238" lon="16.040277"></trkpt><trkpt lat="53.602212" lon="16.039147"></trkpt><trkpt lat="53.602233" lon="16.038238"></trkpt><trkpt lat="53.602164" lon="16.03558"></trkpt><trkpt lat="53.602127" lon="16.0352"></trkpt><trkpt lat="53.602129" lon="16.034776"></trkpt><trkpt lat="53.601975" lon="16.034328"></trkpt><trkpt lat="53.60216" lon="16.034797"></trkpt><trkpt lat="53.60217" lon="16.035688"></trkpt><trkpt lat="53.602267" lon="16.036333"></trkpt><trkpt lat="53.602268" lon="16.037169"></trkpt><trkpt lat="53.601991" lon="16.042094"></trkpt><trkpt lat="53.602495" lon="16.042199"></trkpt><trkpt lat="53.603673" lon="16.042147"></trkpt><trkpt lat="53.619188" lon="16.039517"></trkpt><trkpt lat="53.619961" lon="16.039174"></trkpt><trkpt lat="53.632076" lon="16.035795"></trkpt><trkpt lat="53.632498" lon="16.036063"></trkpt><trkpt lat="53.635062" lon="16.038409"></trkpt><trkpt lat="53.634823" lon="16.039357"></trkpt><trkpt lat="53.634506" lon="16.041783"></trkpt><trkpt lat="53.630942" lon="16.061938"></trkpt><trkpt lat="53.630664" lon="16.063067"></trkpt><trkpt lat="53.630478" lon="16.06414"></trkpt><trkpt lat="53.630389" lon="16.065308"></trkpt><trkpt lat="53.630207" lon="16.074144"></trkpt><trkpt lat="53.63018" lon="16.074515"></trkpt><trkpt lat="53.630088" lon="16.074849"></trkpt><trkpt lat="53.629609" lon="16.075779"></trkpt><trkpt lat="53.629414" lon="16.075957"></trkpt><trkpt lat="53.628919" lon="16.075993"></trkpt><trkpt lat="53.629171" lon="16.075924"></trkpt><trkpt lat="53.629513" lon="16.075961"></trkpt><trkpt lat="53.630099" lon="16.074848"></trkpt><trkpt lat="53.630215" lon="16.074431"></trkpt><trkpt lat="53.630221" lon="16.074073"></trkpt><trkpt lat="53.630094" lon="16.073234"></trkpt><trkpt lat="53.629998" lon="16.07182"></trkpt><trkpt lat="53.630026" lon="16.071452"></trkpt><trkpt lat="53.631608" lon="16.059537"></trkpt><trkpt lat="53.631957" lon="16.05812"></trkpt><trkpt lat="53.632211" lon="16.056528"></trkpt><trkpt lat="53.632281" lon="16.055778"></trkpt><trkpt lat="53.63157" lon="16.055902"></trkpt><trkpt lat="53.621159" lon="16.056381"></trkpt><trkpt lat="53.620818" lon="16.056181"></trkpt><trkpt lat="53.598564" lon="16.046813"></trkpt><trkpt lat="53.595819" lon="16.047471"></trkpt><trkpt lat="53.59493" lon="16.047514"></trkpt><trkpt lat="53.591132" lon="16.046755"></trkpt><trkpt lat="53.590869" lon="16.045757"></trkpt><trkpt lat="53.589782" lon="16.042798"></trkpt><trkpt lat="53.589627" lon="16.042525"></trkpt><trkpt lat="53.589497" lon="16.041864"></trkpt><trkpt lat="53.589503" lon="16.040881"></trkpt><trkpt lat="53.589785" lon="16.03643"></trkpt><trkpt lat="53.589977" lon="16.036308"></trkpt><trkpt lat="53.589885" lon="16.035906"></trkpt><trkpt lat="53.589844" lon="16.036306"></trkpt><trkpt lat="53.589618" lon="16.03646"></trkpt><trkpt lat="53.589568" lon="16.036826"></trkpt><trkpt lat="53.589551" lon="16.037632"></trkpt><trkpt lat="53.589282" lon="16.039643"></trkpt></trkseg></trk></gpx>