<?xml version="1.0" encoding="UTF-8" standalone="no" ?><gpx xmlns="http://www.topografix.com/GPX/1/1" xmlns:gpxx="http://www.garmin.com/xmlschemas/GpxExtensions/v3" ><trk><trkseg><trkpt lat="49.6096864063" lon="19.9522363767"></trkpt><trkpt lat="49.609767627" lon="19.9527009018"></trkpt><trkpt lat="49.6097789425" lon="19.9531923328"></trkpt><trkpt lat="49.6095901821" lon="19.9536342267"></trkpt><trkpt lat="49.6093819756" lon="19.9542597681"></trkpt><trkpt lat="49.6096434072" lon="19.9546144903"></trkpt><trkpt lat="49.609369738" lon="19.9547022488"></trkpt><trkpt lat="49.609138146" lon="19.9550406262"></trkpt><trkpt lat="49.6090052929" lon="19.9555218313"></trkpt><trkpt lat="49.6088122576" lon="19.9560247455"></trkpt><trkpt lat="49.6084363293" lon="19.9572672788"></trkpt><trkpt lat="49.6083939169" lon="19.9578400981"></trkpt><trkpt lat="49.6084089205" lon="19.9584223051"></trkpt><trkpt lat="49.6083501633" lon="19.9588755146"></trkpt><trkpt lat="49.607362356" lon="19.9639292993"></trkpt><trkpt lat="49.6070958953" lon="19.9642491527"></trkpt><trkpt lat="49.6069836617" lon="19.9648730177"></trkpt><trkpt lat="49.6069967374" lon="19.9653970543"></trkpt><trkpt lat="49.6069317777" lon="19.966058135"></trkpt><trkpt lat="49.6067598648" lon="19.9666910525"></trkpt><trkpt lat="49.6064042207" lon="19.9665876199"></trkpt><trkpt lat="49.6031332668" lon="19.9661090132"></trkpt><trkpt lat="49.603023883" lon="19.9665533379"></trkpt><trkpt lat="49.6028923709" lon="19.9673556536"></trkpt><trkpt lat="49.6021650732" lon="19.9705165531"></trkpt><trkpt lat="49.6020924021" lon="19.9710203055"></trkpt><trkpt lat="49.602043787" lon="19.9716192763"></trkpt><trkpt lat="49.6017082594" lon="19.9739102181"></trkpt><trkpt lat="49.6014297288" lon="19.9740660377"></trkpt><trkpt lat="49.601254547" lon="19.9745231029"></trkpt><trkpt lat="49.6011770982" lon="19.9749279488"></trkpt><trkpt lat="49.6007509623" lon="19.9765602406"></trkpt><trkpt lat="49.6005771216" lon="19.9769538548"></trkpt><trkpt lat="49.600271266" lon="19.9778430071"></trkpt><trkpt lat="49.5999058988" lon="19.9786713906"></trkpt><trkpt lat="49.5995970257" lon="19.979009768"></trkpt><trkpt lat="49.5991149824" lon="19.9797009397"></trkpt><trkpt lat="49.5989890862" lon="19.9801585916"></trkpt><trkpt lat="49.598895628" lon="19.9807611667"></trkpt><trkpt lat="49.5989171695" lon="19.981310349"></trkpt><trkpt lat="49.5988874137" lon="19.9817593675"></trkpt><trkpt lat="49.5983679034" lon="19.9856148753"></trkpt><trkpt lat="49.5981033705" lon="19.985940177"></trkpt><trkpt lat="49.5979159512" lon="19.9862523191"></trkpt><trkpt lat="49.5975757297" lon="19.986622883"></trkpt><trkpt lat="49.5972673595" lon="19.9868206121"></trkpt><trkpt lat="49.5969355199" lon="19.9870983884"></trkpt><trkpt lat="49.5967760123" lon="19.9874370173"></trkpt><trkpt lat="49.5966675505" lon="19.9878818449"></trkpt><trkpt lat="49.596594125" lon="19.9882953241"></trkpt><trkpt lat="49.5964057837" lon="19.9886133336"></trkpt><trkpt lat="49.5957686752" lon="19.9894758314"></trkpt><trkpt lat="49.5954462234" lon="19.9897830281"></trkpt><trkpt lat="49.5951205865" lon="19.9898959324"></trkpt><trkpt lat="49.5947594102" lon="19.9898573756"></trkpt><trkpt lat="49.5943095535" lon="19.9897227623"></trkpt><trkpt lat="49.5940440148" lon="19.9894545414"></trkpt><trkpt lat="49.5937599521" lon="19.9893494323"></trkpt><trkpt lat="49.5915857702" lon="19.9888656288"></trkpt><trkpt lat="49.5910789166" lon="19.9888883438"></trkpt><trkpt lat="49.5906190015" lon="19.98880025"></trkpt><trkpt lat="49.5903341006" lon="19.9886917882"></trkpt><trkpt lat="49.5897415839" lon="19.989004517"></trkpt><trkpt lat="49.5895280968" lon="19.9893071875"></trkpt><trkpt lat="49.5891488995" lon="19.9900071602"></trkpt><trkpt lat="49.5890345704" lon="19.9905115832"></trkpt><trkpt lat="49.5888703689" lon="19.9910353683"></trkpt><trkpt lat="49.5886247791" lon="19.9913452473"></trkpt><trkpt lat="49.5884555485" lon="19.9917129613"></trkpt><trkpt lat="49.5878904406" lon="19.9927254114"></trkpt><trkpt lat="49.5876311045" lon="19.9928869307"></trkpt><trkpt lat="49.587437734" lon="19.9932467658"></trkpt><trkpt lat="49.587605875" lon="19.9937066808"></trkpt><trkpt lat="49.5876184478" lon="19.9942208268"></trkpt><trkpt lat="49.5874751173" lon="19.9946750421"></trkpt><trkpt lat="49.587187618" lon="19.9953906052"></trkpt><trkpt lat="49.5870675892" lon="19.9958893284"></trkpt><trkpt lat="49.58686064" lon="19.9961754028"></trkpt><trkpt lat="49.5866546966" lon="19.9965905584"></trkpt><trkpt lat="49.5865211729" lon="19.99699926"></trkpt><trkpt lat="49.5864103641" lon="19.9974522181"></trkpt><trkpt lat="49.5859635249" lon="19.9987350684"></trkpt><trkpt lat="49.5857648738" lon="19.9990961608"></trkpt><trkpt lat="49.5855725091" lon="19.9996081274"></trkpt><trkpt lat="49.5853767917" lon="19.9999152403"></trkpt><trkpt lat="49.5852048788" lon="20.000245655"></trkpt><trkpt lat="49.5849080756" lon="20.0006406941"></trkpt><trkpt lat="49.5846857876" lon="20.0010145269"></trkpt><trkpt lat="49.5843860507" lon="20.0016588438"></trkpt><trkpt lat="49.5842230227" lon="20.0022190902"></trkpt><trkpt lat="49.5838769339" lon="20.0031451229"></trkpt><trkpt lat="49.5833331998" lon="20.0043307431"></trkpt><trkpt lat="49.583104793" lon="20.0047316495"></trkpt><trkpt lat="49.5828626398" lon="20.0052841846"></trkpt><trkpt lat="49.582846798" lon="20.0058664754"></trkpt><trkpt lat="49.5829146076" lon="20.0064813718"></trkpt><trkpt lat="49.5829684194" lon="20.0076933112"></trkpt><trkpt lat="49.5828047208" lon="20.008161189"></trkpt></trkseg></trk></gpx>