<?xml version="1.0" encoding="UTF-8" standalone="no" ?><gpx xmlns="http://www.topografix.com/GPX/1/1" xmlns:gpxx="http://www.garmin.com/xmlschemas/GpxExtensions/v3" ><trk><trkseg><trkpt lat="51.064749" lon="15.792841"></trkpt><trkpt lat="51.064847" lon="15.79228"></trkpt><trkpt lat="51.064826" lon="15.791845"></trkpt><trkpt lat="51.064462" lon="15.788351"></trkpt><trkpt lat="51.063951" lon="15.785299"></trkpt><trkpt lat="51.062376" lon="15.778493"></trkpt><trkpt lat="51.062047" lon="15.778114"></trkpt><trkpt lat="51.061754" lon="15.77768"></trkpt><trkpt lat="51.061631" lon="15.77722"></trkpt><trkpt lat="51.061423" lon="15.776663"></trkpt><trkpt lat="51.0596" lon="15.77057"></trkpt><trkpt lat="51.059571" lon="15.770062"></trkpt><trkpt lat="51.059586" lon="15.769553"></trkpt><trkpt lat="51.059694" lon="15.76838"></trkpt><trkpt lat="51.0597" lon="15.767834"></trkpt><trkpt lat="51.059804" lon="15.767404"></trkpt><trkpt lat="51.059981" lon="15.766859"></trkpt><trkpt lat="51.060177" lon="15.766071"></trkpt><trkpt lat="51.060205" lon="15.765629"></trkpt><trkpt lat="51.060227" lon="15.761751"></trkpt><trkpt lat="51.059961" lon="15.761841"></trkpt><trkpt lat="51.059669" lon="15.762049"></trkpt><trkpt lat="51.060004" lon="15.761781"></trkpt><trkpt lat="51.060245" lon="15.761462"></trkpt><trkpt lat="51.059975" lon="15.761325"></trkpt><trkpt lat="51.05926" lon="15.761101"></trkpt><trkpt lat="51.058917" lon="15.761133"></trkpt><trkpt lat="51.058631" lon="15.761201"></trkpt><trkpt lat="51.057474" lon="15.761657"></trkpt><trkpt lat="51.057323" lon="15.762054"></trkpt><trkpt lat="51.05702" lon="15.761972"></trkpt><trkpt lat="51.056708" lon="15.761978"></trkpt><trkpt lat="51.057066" lon="15.762148"></trkpt><trkpt lat="51.057351" lon="15.762111"></trkpt><trkpt lat="51.057442" lon="15.761694"></trkpt><trkpt lat="51.057743" lon="15.761459"></trkpt><trkpt lat="51.05802" lon="15.761379"></trkpt><trkpt lat="51.059614" lon="15.761171"></trkpt><trkpt lat="51.059949" lon="15.761264"></trkpt><trkpt lat="51.0602" lon="15.761463"></trkpt><trkpt lat="51.059928" lon="15.761303"></trkpt><trkpt lat="51.059594" lon="15.761195"></trkpt><trkpt lat="51.058883" lon="15.761104"></trkpt><trkpt lat="51.058493" lon="15.76124"></trkpt><trkpt lat="51.058181" lon="15.761282"></trkpt><trkpt lat="51.057938" lon="15.761538"></trkpt><trkpt lat="51.057653" lon="15.761499"></trkpt><trkpt lat="51.057391" lon="15.76174"></trkpt><trkpt lat="51.057009" lon="15.761954"></trkpt><trkpt lat="51.056679" lon="15.761838"></trkpt><trkpt lat="51.056187" lon="15.76194"></trkpt><trkpt lat="51.056113" lon="15.762379"></trkpt><trkpt lat="51.056245" lon="15.762771"></trkpt><trkpt lat="51.056053" lon="15.763085"></trkpt><trkpt lat="51.056322" lon="15.762873"></trkpt><trkpt lat="51.056236" lon="15.762436"></trkpt><trkpt lat="51.056365" lon="15.762018"></trkpt><trkpt lat="51.05666" lon="15.76205"></trkpt><trkpt lat="51.056933" lon="15.762159"></trkpt><trkpt lat="51.057272" lon="15.762113"></trkpt><trkpt lat="51.057531" lon="15.762326"></trkpt><trkpt lat="51.057629" lon="15.762851"></trkpt><trkpt lat="51.057747" lon="15.763952"></trkpt><trkpt lat="51.05773" lon="15.764454"></trkpt><trkpt lat="51.057816" lon="15.766536"></trkpt><trkpt lat="51.057962" lon="15.766988"></trkpt><trkpt lat="51.058628" lon="15.769645"></trkpt><trkpt lat="51.059524" lon="15.772465"></trkpt><trkpt lat="51.059824" lon="15.772733"></trkpt><trkpt lat="51.060118" lon="15.773127"></trkpt><trkpt lat="51.060337" lon="15.77357"></trkpt><trkpt lat="51.060504" lon="15.774031"></trkpt><trkpt lat="51.064304" lon="15.787206"></trkpt><trkpt lat="51.064801" lon="15.792786"></trkpt></trkseg></trk></gpx>