<?xml version="1.0" encoding="UTF-8" standalone="no" ?><gpx xmlns="http://www.topografix.com/GPX/1/1" xmlns:gpxx="http://www.garmin.com/xmlschemas/GpxExtensions/v3" ><trk><trkseg><trkpt lat="52.309645" lon="16.399089"></trkpt><trkpt lat="52.309726" lon="16.399634"></trkpt><trkpt lat="52.31" lon="16.400999"></trkpt><trkpt lat="52.309726" lon="16.402008"></trkpt><trkpt lat="52.309824" lon="16.402415"></trkpt><trkpt lat="52.309767" lon="16.402727"></trkpt><trkpt lat="52.309714" lon="16.402064"></trkpt><trkpt lat="52.309558" lon="16.400959"></trkpt><trkpt lat="52.309182" lon="16.399091"></trkpt><trkpt lat="52.308943" lon="16.39906"></trkpt><trkpt lat="52.308416" lon="16.399258"></trkpt><trkpt lat="52.308345" lon="16.400364"></trkpt><trkpt lat="52.308332" lon="16.400995"></trkpt><trkpt lat="52.30799" lon="16.401165"></trkpt><trkpt lat="52.307548" lon="16.401802"></trkpt><trkpt lat="52.30654" lon="16.403027"></trkpt><trkpt lat="52.306162" lon="16.403125"></trkpt><trkpt lat="52.305787" lon="16.403076"></trkpt><trkpt lat="52.305281" lon="16.403267"></trkpt><trkpt lat="52.304641" lon="16.403597"></trkpt><trkpt lat="52.304252" lon="16.404294"></trkpt><trkpt lat="52.30399" lon="16.404861"></trkpt><trkpt lat="52.303627" lon="16.40507"></trkpt><trkpt lat="52.30324" lon="16.405351"></trkpt><trkpt lat="52.303203" lon="16.4057"></trkpt><trkpt lat="52.303188" lon="16.406239"></trkpt><trkpt lat="52.303101" lon="16.407362"></trkpt><trkpt lat="52.302799" lon="16.406647"></trkpt><trkpt lat="52.293902" lon="16.388745"></trkpt><trkpt lat="52.293627" lon="16.389101"></trkpt><trkpt lat="52.293513" lon="16.389452"></trkpt><trkpt lat="52.293656" lon="16.389115"></trkpt><trkpt lat="52.293898" lon="16.388815"></trkpt><trkpt lat="52.294338" lon="16.388724"></trkpt><trkpt lat="52.294777" lon="16.388761"></trkpt><trkpt lat="52.295266" lon="16.388614"></trkpt><trkpt lat="52.295226" lon="16.388203"></trkpt><trkpt lat="52.294775" lon="16.385544"></trkpt><trkpt lat="52.29459" lon="16.385401"></trkpt><trkpt lat="52.293961" lon="16.385221"></trkpt><trkpt lat="52.293426" lon="16.384987"></trkpt><trkpt lat="52.293211" lon="16.383863"></trkpt><trkpt lat="52.286848" lon="16.34699"></trkpt><trkpt lat="52.284687" lon="16.328104"></trkpt><trkpt lat="52.284945" lon="16.32716"></trkpt><trkpt lat="52.285206" lon="16.326447"></trkpt><trkpt lat="52.285851" lon="16.324949"></trkpt><trkpt lat="52.291364" lon="16.30967"></trkpt><trkpt lat="52.291449" lon="16.308257"></trkpt><trkpt lat="52.291479" lon="16.297919"></trkpt><trkpt lat="52.291359" lon="16.297513"></trkpt><trkpt lat="52.291208" lon="16.29661"></trkpt><trkpt lat="52.291053" lon="16.29592"></trkpt><trkpt lat="52.290787" lon="16.295003"></trkpt><trkpt lat="52.290674" lon="16.294041"></trkpt><trkpt lat="52.290149" lon="16.290923"></trkpt><trkpt lat="52.289793" lon="16.287972"></trkpt><trkpt lat="52.289653" lon="16.287185"></trkpt><trkpt lat="52.289446" lon="16.286298"></trkpt><trkpt lat="52.289245" lon="16.285075"></trkpt><trkpt lat="52.288565" lon="16.281897"></trkpt><trkpt lat="52.28855" lon="16.281329"></trkpt><trkpt lat="52.288356" lon="16.280347"></trkpt><trkpt lat="52.281603" lon="16.244223"></trkpt><trkpt lat="52.277723" lon="16.228136"></trkpt><trkpt lat="52.277634" lon="16.227521"></trkpt><trkpt lat="52.277581" lon="16.22688"></trkpt><trkpt lat="52.277398" lon="16.226718"></trkpt><trkpt lat="52.277014" lon="16.226719"></trkpt><trkpt lat="52.276575" lon="16.226497"></trkpt><trkpt lat="52.276513" lon="16.225778"></trkpt><trkpt lat="52.276577" lon="16.225136"></trkpt><trkpt lat="52.277141" lon="16.224982"></trkpt><trkpt lat="52.279532" lon="16.22388"></trkpt><trkpt lat="52.279736" lon="16.223669"></trkpt><trkpt lat="52.279968" lon="16.223208"></trkpt><trkpt lat="52.280242" lon="16.222569"></trkpt><trkpt lat="52.281555" lon="16.218263"></trkpt><trkpt lat="52.281383" lon="16.217439"></trkpt><trkpt lat="52.281239" lon="16.216479"></trkpt><trkpt lat="52.28122" lon="16.216156"></trkpt><trkpt lat="52.281214" lon="16.214603"></trkpt><trkpt lat="52.280862" lon="16.207101"></trkpt><trkpt lat="52.280774" lon="16.206404"></trkpt><trkpt lat="52.280705" lon="16.205428"></trkpt><trkpt lat="52.28072" lon="16.204425"></trkpt><trkpt lat="52.280796" lon="16.20357"></trkpt><trkpt lat="52.280912" lon="16.20032"></trkpt><trkpt lat="52.280773" lon="16.199156"></trkpt><trkpt lat="52.280617" lon="16.195668"></trkpt><trkpt lat="52.280622" lon="16.195187"></trkpt><trkpt lat="52.280522" lon="16.192132"></trkpt><trkpt lat="52.280405" lon="16.19097"></trkpt><trkpt lat="52.275564" lon="16.158236"></trkpt><trkpt lat="52.275104" lon="16.157052"></trkpt><trkpt lat="52.27479" lon="16.155954"></trkpt><trkpt lat="52.267011" lon="16.133104"></trkpt><trkpt lat="52.267549" lon="16.132675"></trkpt><trkpt lat="52.268052" lon="16.132363"></trkpt><trkpt lat="52.268326" lon="16.132139"></trkpt><trkpt lat="52.268277" lon="16.131467"></trkpt><trkpt lat="52.268185" lon="16.130923"></trkpt><trkpt lat="52.26761" lon="16.128424"></trkpt><trkpt lat="52.267238" lon="16.127806"></trkpt><trkpt lat="52.265574" lon="16.124619"></trkpt><trkpt lat="52.265459" lon="16.124286"></trkpt><trkpt lat="52.263238" lon="16.116167"></trkpt><trkpt lat="52.263355" lon="16.115588"></trkpt><trkpt lat="52.263603" lon="16.114784"></trkpt><trkpt lat="52.263769" lon="16.114096"></trkpt><trkpt lat="52.263911" lon="16.113613"></trkpt><trkpt lat="52.264248" lon="16.111435"></trkpt><trkpt lat="52.264472" lon="16.108379"></trkpt><trkpt lat="52.264367" lon="16.108086"></trkpt><trkpt lat="52.26449" lon="16.10861"></trkpt><trkpt lat="52.264682" lon="16.108964"></trkpt><trkpt lat="52.264983" lon="16.109059"></trkpt><trkpt lat="52.266616" lon="16.108341"></trkpt><trkpt lat="52.26721" lon="16.107943"></trkpt><trkpt lat="52.267726" lon="16.107762"></trkpt><trkpt lat="52.267925" lon="16.107808"></trkpt><trkpt lat="52.268125" lon="16.107892"></trkpt><trkpt lat="52.268397" lon="16.107886"></trkpt><trkpt lat="52.268714" lon="16.107751"></trkpt><trkpt lat="52.269096" lon="16.10768"></trkpt><trkpt lat="52.269439" lon="16.107684"></trkpt><trkpt lat="52.269947" lon="16.107599"></trkpt><trkpt lat="52.272418" lon="16.107721"></trkpt><trkpt lat="52.274412" lon="16.107311"></trkpt><trkpt lat="52.274692" lon="16.10699"></trkpt><trkpt lat="52.276365" lon="16.105474"></trkpt><trkpt lat="52.27675" lon="16.105638"></trkpt><trkpt lat="52.277423" lon="16.106055"></trkpt><trkpt lat="52.277698" lon="16.106266"></trkpt><trkpt lat="52.27901" lon="16.107095"></trkpt><trkpt lat="52.279338" lon="16.107381"></trkpt><trkpt lat="52.279598" lon="16.107562"></trkpt><trkpt lat="52.279969" lon="16.10766"></trkpt><trkpt lat="52.28033" lon="16.107405"></trkpt><trkpt lat="52.280639" lon="16.107026"></trkpt><trkpt lat="52.280962" lon="16.106536"></trkpt><trkpt lat="52.281335" lon="16.106368"></trkpt><trkpt lat="52.281562" lon="16.106137"></trkpt><trkpt lat="52.281697" lon="16.105596"></trkpt><trkpt lat="52.283054" lon="16.101259"></trkpt><trkpt lat="52.28334" lon="16.100895"></trkpt><trkpt lat="52.283576" lon="16.100531"></trkpt><trkpt lat="52.283706" lon="16.100277"></trkpt><trkpt lat="52.28385" lon="16.099932"></trkpt><trkpt lat="52.283995" lon="16.099195"></trkpt><trkpt lat="52.284206" lon="16.097314"></trkpt><trkpt lat="52.284206" lon="16.096835"></trkpt><trkpt lat="52.284091" lon="16.094913"></trkpt><trkpt lat="52.28401" lon="16.094246"></trkpt><trkpt lat="52.283393" lon="16.090854"></trkpt><trkpt lat="52.283244" lon="16.090249"></trkpt><trkpt lat="52.283164" lon="16.089829"></trkpt><trkpt lat="52.283112" lon="16.089353"></trkpt><trkpt lat="52.283227" lon="16.088922"></trkpt><trkpt lat="52.283398" lon="16.08848"></trkpt><trkpt lat="52.283578" lon="16.087845"></trkpt><trkpt lat="52.283558" lon="16.087246"></trkpt><trkpt lat="52.283462" lon="16.086777"></trkpt><trkpt lat="52.283153" lon="16.085675"></trkpt><trkpt lat="52.282871" lon="16.085307"></trkpt><trkpt lat="52.282565" lon="16.085072"></trkpt><trkpt lat="52.282078" lon="16.084621"></trkpt><trkpt lat="52.281612" lon="16.084376"></trkpt><trkpt lat="52.281023" lon="16.084152"></trkpt><trkpt lat="52.280662" lon="16.084116"></trkpt><trkpt lat="52.280408" lon="16.084042"></trkpt><trkpt lat="52.279951" lon="16.083826"></trkpt><trkpt lat="52.278628" lon="16.083014"></trkpt><trkpt lat="52.278739" lon="16.082318"></trkpt><trkpt lat="52.278722" lon="16.081825"></trkpt><trkpt lat="52.278631" lon="16.081104"></trkpt><trkpt lat="52.278592" lon="16.080429"></trkpt><trkpt lat="52.278485" lon="16.079375"></trkpt><trkpt lat="52.278096" lon="16.078799"></trkpt><trkpt lat="52.277363" lon="16.077519"></trkpt><trkpt lat="52.277042" lon="16.077199"></trkpt><trkpt lat="52.276721" lon="16.077136"></trkpt><trkpt lat="52.276492" lon="16.076944"></trkpt><trkpt lat="52.276249" lon="16.076378"></trkpt><trkpt lat="52.274692" lon="16.073253"></trkpt><trkpt lat="52.274186" lon="16.072873"></trkpt><trkpt lat="52.273873" lon="16.072454"></trkpt><trkpt lat="52.273734" lon="16.071977"></trkpt><trkpt lat="52.273726" lon="16.07157"></trkpt><trkpt lat="52.273762" lon="16.071063"></trkpt><trkpt lat="52.273772" lon="16.07044"></trkpt><trkpt lat="52.273674" lon="16.070147"></trkpt><trkpt lat="52.273499" lon="16.069929"></trkpt><trkpt lat="52.272927" lon="16.068872"></trkpt><trkpt lat="52.272641" lon="16.068106"></trkpt><trkpt lat="52.272305" lon="16.067507"></trkpt><trkpt lat="52.269877" lon="16.064137"></trkpt><trkpt lat="52.269677" lon="16.064182"></trkpt><trkpt lat="52.266426" lon="16.064453"></trkpt><trkpt lat="52.266036" lon="16.064003"></trkpt><trkpt lat="52.265636" lon="16.063267"></trkpt><trkpt lat="52.26549" lon="16.062918"></trkpt><trkpt lat="52.265285" lon="16.062269"></trkpt><trkpt lat="52.26384" lon="16.058591"></trkpt><trkpt lat="52.263544" lon="16.057975"></trkpt><trkpt lat="52.262776" lon="16.055784"></trkpt><trkpt lat="52.262668" lon="16.054878"></trkpt><trkpt lat="52.262738" lon="16.054528"></trkpt><trkpt lat="52.262967" lon="16.053972"></trkpt><trkpt lat="52.263075" lon="16.052898"></trkpt><trkpt lat="52.263108" lon="16.051763"></trkpt><trkpt lat="52.263531" lon="16.047143"></trkpt><trkpt lat="52.263641" lon="16.046602"></trkpt><trkpt lat="52.264273" lon="16.042435"></trkpt><trkpt lat="52.264257" lon="16.041617"></trkpt><trkpt lat="52.264277" lon="16.04089"></trkpt><trkpt lat="52.264237" lon="16.038373"></trkpt><trkpt lat="52.264674" lon="16.027315"></trkpt><trkpt lat="52.264782" lon="16.026761"></trkpt><trkpt lat="52.26556" lon="16.0239"></trkpt><trkpt lat="52.265887" lon="16.023159"></trkpt><trkpt lat="52.266369" lon="16.021691"></trkpt><trkpt lat="52.266572" lon="16.020558"></trkpt><trkpt lat="52.267692" lon="16.012028"></trkpt><trkpt lat="52.267485" lon="16.011442"></trkpt><trkpt lat="52.265595" lon="16.004777"></trkpt><trkpt lat="52.265737" lon="16.004261"></trkpt><trkpt lat="52.265836" lon="16.003257"></trkpt><trkpt lat="52.265753" lon="16.002633"></trkpt><trkpt lat="52.265651" lon="16.002303"></trkpt><trkpt lat="52.265307" lon="16.001914"></trkpt><trkpt lat="52.264913" lon="16.001533"></trkpt><trkpt lat="52.264373" lon="16.001305"></trkpt><trkpt lat="52.263835" lon="16.001282"></trkpt><trkpt lat="52.263573" lon="16.001235"></trkpt><trkpt lat="52.263271" lon="16.000967"></trkpt><trkpt lat="52.262982" lon="16.000664"></trkpt><trkpt lat="52.262651" lon="16.000369"></trkpt><trkpt lat="52.262309" lon="15.999951"></trkpt><trkpt lat="52.262079" lon="15.999584"></trkpt><trkpt lat="52.261772" lon="15.998882"></trkpt><trkpt lat="52.261051" lon="15.997489"></trkpt><trkpt lat="52.260905" lon="15.997018"></trkpt><trkpt lat="52.260811" lon="15.996329"></trkpt><trkpt lat="52.260771" lon="15.995852"></trkpt><trkpt lat="52.260666" lon="15.995569"></trkpt><trkpt lat="52.260506" lon="15.995337"></trkpt><trkpt lat="52.259318" lon="15.993915"></trkpt><trkpt lat="52.258952" lon="15.993625"></trkpt><trkpt lat="52.258417" lon="15.993094"></trkpt><trkpt lat="52.254799" lon="15.98891"></trkpt><trkpt lat="52.254571" lon="15.988327"></trkpt><trkpt lat="52.253923" lon="15.987016"></trkpt><trkpt lat="52.253647" lon="15.986754"></trkpt><trkpt lat="52.249004" lon="15.983068"></trkpt><trkpt lat="52.248287" lon="15.982641"></trkpt><trkpt lat="52.248066" lon="15.98258"></trkpt><trkpt lat="52.247076" lon="15.982177"></trkpt><trkpt lat="52.242863" lon="15.979781"></trkpt><trkpt lat="52.243128" lon="15.979524"></trkpt><trkpt lat="52.243239" lon="15.979132"></trkpt><trkpt lat="52.243289" lon="15.978531"></trkpt><trkpt lat="52.2466" lon="15.941433"></trkpt><trkpt lat="52.246624" lon="15.940567"></trkpt><trkpt lat="52.247189" lon="15.933184"></trkpt><trkpt lat="52.247382" lon="15.93246"></trkpt><trkpt lat="52.24799" lon="15.929637"></trkpt><trkpt lat="52.247771" lon="15.929648"></trkpt><trkpt lat="52.228749" lon="15.926349"></trkpt><trkpt lat="52.228213" lon="15.925272"></trkpt><trkpt lat="52.228056" lon="15.925039"></trkpt><trkpt lat="52.227605" lon="15.924135"></trkpt><trkpt lat="52.227424" lon="15.923882"></trkpt><trkpt lat="52.226904" lon="15.923334"></trkpt><trkpt lat="52.219655" lon="15.917001"></trkpt><trkpt lat="52.21885" lon="15.917201"></trkpt><trkpt lat="52.218291" lon="15.917409"></trkpt><trkpt lat="52.218165" lon="15.917669"></trkpt><trkpt lat="52.218188" lon="15.918174"></trkpt><trkpt lat="52.218176" lon="15.918562"></trkpt><trkpt lat="52.217993" lon="15.918745"></trkpt><trkpt lat="52.217791" lon="15.91891"></trkpt><trkpt lat="52.217483" lon="15.918998"></trkpt><trkpt lat="52.216817" lon="15.918914"></trkpt><trkpt lat="52.216646" lon="15.91873"></trkpt><trkpt lat="52.216466" lon="15.918407"></trkpt><trkpt lat="52.216049" lon="15.917874"></trkpt><trkpt lat="52.215575" lon="15.917516"></trkpt><trkpt lat="52.209191" lon="15.911245"></trkpt><trkpt lat="52.209112" lon="15.910225"></trkpt><trkpt lat="52.208813" lon="15.907812"></trkpt><trkpt lat="52.208324" lon="15.907039"></trkpt><trkpt lat="52.208018" lon="15.90663"></trkpt><trkpt lat="52.200569" lon="15.898299"></trkpt><trkpt lat="52.200075" lon="15.898311"></trkpt><trkpt lat="52.199755" lon="15.898358"></trkpt><trkpt lat="52.199988" lon="15.898372"></trkpt><trkpt lat="52.200659" lon="15.898237"></trkpt><trkpt lat="52.200983" lon="15.897996"></trkpt><trkpt lat="52.201254" lon="15.897844"></trkpt><trkpt lat="52.201573" lon="15.8976"></trkpt><trkpt lat="52.201649" lon="15.897067"></trkpt><trkpt lat="52.201466" lon="15.896651"></trkpt><trkpt lat="52.197785" lon="15.886847"></trkpt><trkpt lat="52.19772" lon="15.88622"></trkpt><trkpt lat="52.198107" lon="15.885894"></trkpt><trkpt lat="52.198377" lon="15.885802"></trkpt><trkpt lat="52.199559" lon="15.885903"></trkpt><trkpt lat="52.199997" lon="15.886073"></trkpt><trkpt lat="52.205415" lon="15.889045"></trkpt><trkpt lat="52.205316" lon="15.889346"></trkpt><trkpt lat="52.205152" lon="15.890015"></trkpt><trkpt lat="52.205052" lon="15.890577"></trkpt><trkpt lat="52.204916" lon="15.890905"></trkpt><trkpt lat="52.204702" lon="15.891031"></trkpt><trkpt lat="52.204974" lon="15.890887"></trkpt><trkpt lat="52.205188" lon="15.89083"></trkpt><trkpt lat="52.205405" lon="15.890746"></trkpt><trkpt lat="52.205714" lon="15.890696"></trkpt><trkpt lat="52.205946" lon="15.890601"></trkpt><trkpt lat="52.205744" lon="15.89075"></trkpt><trkpt lat="52.205508" lon="15.890881"></trkpt><trkpt lat="52.205294" lon="15.890906"></trkpt><trkpt lat="52.205061" lon="15.890972"></trkpt><trkpt lat="52.204947" lon="15.890642"></trkpt><trkpt lat="52.205017" lon="15.890338"></trkpt><trkpt lat="52.204999" lon="15.889863"></trkpt><trkpt lat="52.205136" lon="15.889396"></trkpt><trkpt lat="52.205353" lon="15.889064"></trkpt><trkpt lat="52.20546" lon="15.888694"></trkpt><trkpt lat="52.205763" lon="15.888617"></trkpt><trkpt lat="52.206171" lon="15.888803"></trkpt><trkpt lat="52.209998" lon="15.891048"></trkpt><trkpt lat="52.210277" lon="15.891138"></trkpt><trkpt lat="52.210584" lon="15.891001"></trkpt><trkpt lat="52.210883" lon="15.890598"></trkpt><trkpt lat="52.211131" lon="15.890198"></trkpt><trkpt lat="52.2118" lon="15.889281"></trkpt><trkpt lat="52.212207" lon="15.888983"></trkpt><trkpt lat="52.213271" lon="15.888453"></trkpt><trkpt lat="52.213895" lon="15.888304"></trkpt><trkpt lat="52.236998" lon="15.88269"></trkpt><trkpt lat="52.243308" lon="15.88191"></trkpt><trkpt lat="52.247705" lon="15.883032"></trkpt><trkpt lat="52.247691" lon="15.88377"></trkpt><trkpt lat="52.24765" lon="15.884221"></trkpt><trkpt lat="52.247681" lon="15.883883"></trkpt><trkpt lat="52.24771" lon="15.883237"></trkpt><trkpt lat="52.247685" lon="15.882847"></trkpt><trkpt lat="52.247689" lon="15.882338"></trkpt><trkpt lat="52.247758" lon="15.88126"></trkpt><trkpt lat="52.247948" lon="15.880748"></trkpt><trkpt lat="52.2482" lon="15.880431"></trkpt><trkpt lat="52.248551" lon="15.88023"></trkpt><trkpt lat="52.24964" lon="15.879788"></trkpt><trkpt lat="52.250416" lon="15.87983"></trkpt><trkpt lat="52.251114" lon="15.879971"></trkpt><trkpt lat="52.251245" lon="15.880443"></trkpt><trkpt lat="52.252638" lon="15.886667"></trkpt><trkpt lat="52.25264" lon="15.887645"></trkpt><trkpt lat="52.253139" lon="15.894391"></trkpt><trkpt lat="52.253286" lon="15.894696"></trkpt><trkpt lat="52.253328" lon="15.895401"></trkpt><trkpt lat="52.25333" lon="15.895864"></trkpt><trkpt lat="52.253451" lon="15.896406"></trkpt><trkpt lat="52.253599" lon="15.896797"></trkpt><trkpt lat="52.253886" lon="15.89723"></trkpt><trkpt lat="52.254627" lon="15.897361"></trkpt><trkpt lat="52.254871" lon="15.89746"></trkpt><trkpt lat="52.254809" lon="15.898245"></trkpt><trkpt lat="52.254209" lon="15.902257"></trkpt><trkpt lat="52.253897" lon="15.902592"></trkpt><trkpt lat="52.252293" lon="15.904761"></trkpt><trkpt lat="52.252176" lon="15.905043"></trkpt><trkpt lat="52.251931" lon="15.905507"></trkpt><trkpt lat="52.251774" lon="15.905758"></trkpt><trkpt lat="52.251653" lon="15.906057"></trkpt><trkpt lat="52.251401" lon="15.906891"></trkpt><trkpt lat="52.251425" lon="15.907259"></trkpt><trkpt lat="52.251276" lon="15.907597"></trkpt><trkpt lat="52.248666" lon="15.912613"></trkpt><trkpt lat="52.248411" lon="15.912967"></trkpt><trkpt lat="52.248318" lon="15.913254"></trkpt><trkpt lat="52.248049" lon="15.913226"></trkpt><trkpt lat="52.247967" lon="15.912651"></trkpt><trkpt lat="52.247861" lon="15.912231"></trkpt><trkpt lat="52.247846" lon="15.911784"></trkpt><trkpt lat="52.24718" lon="15.911368"></trkpt><trkpt lat="52.247082" lon="15.911057"></trkpt><trkpt lat="52.247252" lon="15.911271"></trkpt><trkpt lat="52.247481" lon="15.91162"></trkpt><trkpt lat="52.247679" lon="15.911842"></trkpt><trkpt lat="52.2476" lon="15.911492"></trkpt><trkpt lat="52.247483" lon="15.911068"></trkpt><trkpt lat="52.247598" lon="15.911514"></trkpt><trkpt lat="52.247717" lon="15.911893"></trkpt><trkpt lat="52.247952" lon="15.911994"></trkpt><trkpt lat="52.247894" lon="15.912304"></trkpt><trkpt lat="52.247994" lon="15.913066"></trkpt><trkpt lat="52.248169" lon="15.91334"></trkpt><trkpt lat="52.248319" lon="15.913838"></trkpt><trkpt lat="52.249041" lon="15.915815"></trkpt><trkpt lat="52.249564" lon="15.915477"></trkpt><trkpt lat="52.249725" lon="15.914997"></trkpt><trkpt lat="52.249877" lon="15.914429"></trkpt><trkpt lat="52.250286" lon="15.913441"></trkpt><trkpt lat="52.250738" lon="15.912924"></trkpt><trkpt lat="52.251082" lon="15.912654"></trkpt><trkpt lat="52.25143" lon="15.912302"></trkpt><trkpt lat="52.251755" lon="15.911832"></trkpt><trkpt lat="52.260014" lon="15.897874"></trkpt><trkpt lat="52.260161" lon="15.897303"></trkpt><trkpt lat="52.26033" lon="15.896487"></trkpt><trkpt lat="52.260201" lon="15.896157"></trkpt><trkpt lat="52.260018" lon="15.895868"></trkpt><trkpt lat="52.260012" lon="15.895528"></trkpt><trkpt lat="52.260051" lon="15.894887"></trkpt><trkpt lat="52.259991" lon="15.895462"></trkpt><trkpt lat="52.259833" lon="15.896683"></trkpt></trkseg></trk></gpx>