<?xml version="1.0" encoding="UTF-8" standalone="no" ?><gpx xmlns="http://www.topografix.com/GPX/1/1" xmlns:gpxx="http://www.garmin.com/xmlschemas/GpxExtensions/v3" ><trk><trkseg><trkpt lat="52.467306" lon="16.928277"></trkpt><trkpt lat="52.467498" lon="16.928492"></trkpt><trkpt lat="52.467675" lon="16.928764"></trkpt><trkpt lat="52.467464" lon="16.929707"></trkpt><trkpt lat="52.46708" lon="16.932085"></trkpt><trkpt lat="52.467037" lon="16.932481"></trkpt><trkpt lat="52.46697" lon="16.932866"></trkpt><trkpt lat="52.466815" lon="16.934152"></trkpt><trkpt lat="52.466906" lon="16.934444"></trkpt><trkpt lat="52.466752" lon="16.935026"></trkpt><trkpt lat="52.46655" lon="16.935616"></trkpt><trkpt lat="52.4661" lon="16.937397"></trkpt><trkpt lat="52.466579" lon="16.937715"></trkpt><trkpt lat="52.466606" lon="16.938078"></trkpt><trkpt lat="52.466497" lon="16.938628"></trkpt><trkpt lat="52.466052" lon="16.941725"></trkpt><trkpt lat="52.466181" lon="16.942005"></trkpt><trkpt lat="52.466402" lon="16.942137"></trkpt><trkpt lat="52.467677" lon="16.943071"></trkpt><trkpt lat="52.467847" lon="16.943812"></trkpt><trkpt lat="52.468475" lon="16.947287"></trkpt><trkpt lat="52.468336" lon="16.947559"></trkpt><trkpt lat="52.467984" lon="16.948006"></trkpt><trkpt lat="52.467809" lon="16.948465"></trkpt><trkpt lat="52.467751" lon="16.948788"></trkpt><trkpt lat="52.467761" lon="16.949474"></trkpt><trkpt lat="52.467708" lon="16.951232"></trkpt><trkpt lat="52.467543" lon="16.952195"></trkpt><trkpt lat="52.467452" lon="16.952506"></trkpt><trkpt lat="52.466885" lon="16.954963"></trkpt><trkpt lat="52.46735" lon="16.955083"></trkpt><trkpt lat="52.467729" lon="16.955125"></trkpt><trkpt lat="52.469351" lon="16.955493"></trkpt><trkpt lat="52.469303" lon="16.956222"></trkpt><trkpt lat="52.46925" lon="16.958987"></trkpt><trkpt lat="52.469455" lon="16.959098"></trkpt><trkpt lat="52.469781" lon="16.959141"></trkpt><trkpt lat="52.472758" lon="16.959967"></trkpt><trkpt lat="52.47267" lon="16.960499"></trkpt><trkpt lat="52.472694" lon="16.961561"></trkpt><trkpt lat="52.472514" lon="16.968142"></trkpt><trkpt lat="52.472466" lon="16.968476"></trkpt><trkpt lat="52.472412" lon="16.969323"></trkpt><trkpt lat="52.472555" lon="16.969695"></trkpt><trkpt lat="52.473152" lon="16.970504"></trkpt><trkpt lat="52.473412" lon="16.970564"></trkpt><trkpt lat="52.473911" lon="16.970569"></trkpt><trkpt lat="52.475057" lon="16.970406"></trkpt><trkpt lat="52.475429" lon="16.970277"></trkpt><trkpt lat="52.475729" lon="16.970268"></trkpt><trkpt lat="52.477579" lon="16.969995"></trkpt><trkpt lat="52.478204" lon="16.969826"></trkpt><trkpt lat="52.481151" lon="16.969615"></trkpt><trkpt lat="52.48139" lon="16.969789"></trkpt><trkpt lat="52.481772" lon="16.969709"></trkpt><trkpt lat="52.48221" lon="16.969679"></trkpt><trkpt lat="52.482951" lon="16.96954"></trkpt><trkpt lat="52.483575" lon="16.969533"></trkpt><trkpt lat="52.483768" lon="16.969424"></trkpt><trkpt lat="52.484113" lon="16.96894"></trkpt><trkpt lat="52.485448" lon="16.967409"></trkpt><trkpt lat="52.485735" lon="16.967347"></trkpt><trkpt lat="52.486638" lon="16.967272"></trkpt><trkpt lat="52.491379" lon="16.966216"></trkpt><trkpt lat="52.491346" lon="16.965836"></trkpt><trkpt lat="52.491343" lon="16.964273"></trkpt><trkpt lat="52.491506" lon="16.963891"></trkpt><trkpt lat="52.493577" lon="16.958212"></trkpt><trkpt lat="52.493647" lon="16.957902"></trkpt><trkpt lat="52.493771" lon="16.957507"></trkpt><trkpt lat="52.493951" lon="16.957361"></trkpt><trkpt lat="52.494172" lon="16.957378"></trkpt><trkpt lat="52.494346" lon="16.957579"></trkpt><trkpt lat="52.494132" lon="16.957502"></trkpt><trkpt lat="52.493902" lon="16.957626"></trkpt><trkpt lat="52.493868" lon="16.958043"></trkpt><trkpt lat="52.493941" lon="16.958441"></trkpt><trkpt lat="52.494136" lon="16.958211"></trkpt><trkpt lat="52.494144" lon="16.957853"></trkpt><trkpt lat="52.494295" lon="16.957572"></trkpt><trkpt lat="52.49453" lon="16.957492"></trkpt><trkpt lat="52.494732" lon="16.957301"></trkpt><trkpt lat="52.494896" lon="16.957517"></trkpt><trkpt lat="52.495078" lon="16.957652"></trkpt><trkpt lat="52.495161" lon="16.957349"></trkpt><trkpt lat="52.4953" lon="16.956938"></trkpt><trkpt lat="52.495432" lon="16.956671"></trkpt><trkpt lat="52.495684" lon="16.95655"></trkpt><trkpt lat="52.495756" lon="16.956181"></trkpt><trkpt lat="52.495836" lon="16.955883"></trkpt><trkpt lat="52.495976" lon="16.955614"></trkpt><trkpt lat="52.496156" lon="16.955315"></trkpt><trkpt lat="52.496237" lon="16.954999"></trkpt><trkpt lat="52.496523" lon="16.954448"></trkpt><trkpt lat="52.496846" lon="16.953693"></trkpt><trkpt lat="52.496818" lon="16.953291"></trkpt><trkpt lat="52.496576" lon="16.953526"></trkpt><trkpt lat="52.496421" lon="16.953864"></trkpt><trkpt lat="52.496211" lon="16.954176"></trkpt><trkpt lat="52.496016" lon="16.954333"></trkpt><trkpt lat="52.495998" lon="16.953899"></trkpt><trkpt lat="52.495931" lon="16.95351"></trkpt><trkpt lat="52.495985" lon="16.953082"></trkpt><trkpt lat="52.496118" lon="16.952677"></trkpt><trkpt lat="52.497595" lon="16.949007"></trkpt><trkpt lat="52.497812" lon="16.948954"></trkpt><trkpt lat="52.498045" lon="16.949163"></trkpt><trkpt lat="52.498263" lon="16.949241"></trkpt><trkpt lat="52.498352" lon="16.949752"></trkpt><trkpt lat="52.49848" lon="16.950113"></trkpt><trkpt lat="52.498668" lon="16.950296"></trkpt><trkpt lat="52.49892" lon="16.950294"></trkpt><trkpt lat="52.499381" lon="16.95036"></trkpt><trkpt lat="52.499662" lon="16.950585"></trkpt><trkpt lat="52.49989" lon="16.950817"></trkpt><trkpt lat="52.500062" lon="16.95104"></trkpt><trkpt lat="52.500236" lon="16.951313"></trkpt><trkpt lat="52.500528" lon="16.951853"></trkpt><trkpt lat="52.506251" lon="16.964197"></trkpt><trkpt lat="52.50639" lon="16.964706"></trkpt><trkpt lat="52.506472" lon="16.965089"></trkpt><trkpt lat="52.506488" lon="16.965416"></trkpt><trkpt lat="52.506663" lon="16.965666"></trkpt><trkpt lat="52.506851" lon="16.965816"></trkpt><trkpt lat="52.507021" lon="16.966178"></trkpt><trkpt lat="52.507206" lon="16.966488"></trkpt><trkpt lat="52.509242" lon="16.969107"></trkpt><trkpt lat="52.509536" lon="16.968998"></trkpt><trkpt lat="52.509858" lon="16.968922"></trkpt><trkpt lat="52.511013" lon="16.968472"></trkpt><trkpt lat="52.511226" lon="16.968171"></trkpt><trkpt lat="52.511346" lon="16.967803"></trkpt><trkpt lat="52.511546" lon="16.967691"></trkpt><trkpt lat="52.511907" lon="16.967322"></trkpt><trkpt lat="52.512164" lon="16.966959"></trkpt><trkpt lat="52.512353" lon="16.966633"></trkpt><trkpt lat="52.512597" lon="16.966542"></trkpt><trkpt lat="52.51316" lon="16.966199"></trkpt><trkpt lat="52.51338" lon="16.9659"></trkpt><trkpt lat="52.513564" lon="16.965404"></trkpt><trkpt lat="52.513761" lon="16.965179"></trkpt><trkpt lat="52.514056" lon="16.965292"></trkpt><trkpt lat="52.514251" lon="16.965073"></trkpt><trkpt lat="52.514512" lon="16.964598"></trkpt><trkpt lat="52.515433" lon="16.962654"></trkpt><trkpt lat="52.515499" lon="16.961934"></trkpt><trkpt lat="52.51537" lon="16.961527"></trkpt><trkpt lat="52.515293" lon="16.961129"></trkpt><trkpt lat="52.515256" lon="16.96072"></trkpt><trkpt lat="52.515433" lon="16.96044"></trkpt><trkpt lat="52.51605" lon="16.959659"></trkpt><trkpt lat="52.516263" lon="16.959464"></trkpt><trkpt lat="52.516542" lon="16.959264"></trkpt><trkpt lat="52.517077" lon="16.95878"></trkpt><trkpt lat="52.51728" lon="16.958455"></trkpt><trkpt lat="52.518012" lon="16.95676"></trkpt><trkpt lat="52.517892" lon="16.956357"></trkpt><trkpt lat="52.517863" lon="16.955826"></trkpt><trkpt lat="52.518058" lon="16.955738"></trkpt><trkpt lat="52.518478" lon="16.955747"></trkpt><trkpt lat="52.519103" lon="16.955547"></trkpt><trkpt lat="52.525836" lon="16.954264"></trkpt><trkpt lat="52.52601" lon="16.954477"></trkpt><trkpt lat="52.526137" lon="16.954777"></trkpt><trkpt lat="52.526422" lon="16.955096"></trkpt><trkpt lat="52.526804" lon="16.955145"></trkpt><trkpt lat="52.529842" lon="16.955176"></trkpt><trkpt lat="52.530449" lon="16.954889"></trkpt><trkpt lat="52.531938" lon="16.954371"></trkpt><trkpt lat="52.532316" lon="16.954329"></trkpt><trkpt lat="52.543566" lon="16.951656"></trkpt><trkpt lat="52.543854" lon="16.951246"></trkpt><trkpt lat="52.543982" lon="16.950907"></trkpt><trkpt lat="52.544046" lon="16.950395"></trkpt><trkpt lat="52.544054" lon="16.949951"></trkpt><trkpt lat="52.544019" lon="16.949429"></trkpt><trkpt lat="52.543855" lon="16.949075"></trkpt><trkpt lat="52.543635" lon="16.948928"></trkpt><trkpt lat="52.543165" lon="16.948534"></trkpt><trkpt lat="52.543008" lon="16.948143"></trkpt><trkpt lat="52.542885" lon="16.94774"></trkpt><trkpt lat="52.542911" lon="16.947389"></trkpt><trkpt lat="52.543006" lon="16.947073"></trkpt><trkpt lat="52.542772" lon="16.946683"></trkpt><trkpt lat="52.542638" lon="16.946426"></trkpt><trkpt lat="52.542511" lon="16.94611"></trkpt><trkpt lat="52.54279" lon="16.945532"></trkpt><trkpt lat="52.542513" lon="16.945894"></trkpt><trkpt lat="52.542306" lon="16.945839"></trkpt><trkpt lat="52.542037" lon="16.945417"></trkpt><trkpt lat="52.53621" lon="16.934818"></trkpt><trkpt lat="52.536119" lon="16.934358"></trkpt><trkpt lat="52.532698" lon="16.92054"></trkpt><trkpt lat="52.530555" lon="16.913785"></trkpt><trkpt lat="52.530214" lon="16.913473"></trkpt><trkpt lat="52.529839" lon="16.913288"></trkpt><trkpt lat="52.524895" lon="16.911531"></trkpt><trkpt lat="52.524303" lon="16.911589"></trkpt><trkpt lat="52.52024" lon="16.910589"></trkpt><trkpt lat="52.519874" lon="16.91014"></trkpt><trkpt lat="52.516507" lon="16.905218"></trkpt><trkpt lat="52.516272" lon="16.90446"></trkpt><trkpt lat="52.511881" lon="16.892668"></trkpt><trkpt lat="52.511735" lon="16.892431"></trkpt><trkpt lat="52.50902" lon="16.888705"></trkpt><trkpt lat="52.50853" lon="16.888314"></trkpt><trkpt lat="52.50815" lon="16.88792"></trkpt><trkpt lat="52.507765" lon="16.887258"></trkpt><trkpt lat="52.504895" lon="16.881164"></trkpt><trkpt lat="52.504734" lon="16.880207"></trkpt><trkpt lat="52.504629" lon="16.879335"></trkpt><trkpt lat="52.504511" lon="16.87753"></trkpt><trkpt lat="52.503404" lon="16.867874"></trkpt><trkpt lat="52.503227" lon="16.867547"></trkpt><trkpt lat="52.502554" lon="16.866107"></trkpt><trkpt lat="52.502406" lon="16.865687"></trkpt><trkpt lat="52.498964" lon="16.857697"></trkpt><trkpt lat="52.498686" lon="16.85731"></trkpt><trkpt lat="52.498464" lon="16.856828"></trkpt><trkpt lat="52.496274" lon="16.852833"></trkpt><trkpt lat="52.495795" lon="16.853341"></trkpt><trkpt lat="52.495466" lon="16.853833"></trkpt><trkpt lat="52.495086" lon="16.854172"></trkpt><trkpt lat="52.494831" lon="16.854452"></trkpt><trkpt lat="52.49229" lon="16.857909"></trkpt><trkpt lat="52.492163" lon="16.858697"></trkpt><trkpt lat="52.491334" lon="16.86656"></trkpt><trkpt lat="52.491231" lon="16.867051"></trkpt><trkpt lat="52.490977" lon="16.867533"></trkpt><trkpt lat="52.49081" lon="16.86823"></trkpt><trkpt lat="52.490615" lon="16.869297"></trkpt><trkpt lat="52.489888" lon="16.872343"></trkpt><trkpt lat="52.490109" lon="16.873267"></trkpt><trkpt lat="52.490316" lon="16.873963"></trkpt><trkpt lat="52.491063" lon="16.877007"></trkpt><trkpt lat="52.490872" lon="16.877129"></trkpt><trkpt lat="52.486625" lon="16.880423"></trkpt><trkpt lat="52.486575" lon="16.880986"></trkpt><trkpt lat="52.486583" lon="16.881408"></trkpt><trkpt lat="52.486566" lon="16.881863"></trkpt><trkpt lat="52.486575" lon="16.882328"></trkpt><trkpt lat="52.486712" lon="16.884091"></trkpt><trkpt lat="52.486721" lon="16.88448"></trkpt><trkpt lat="52.486761" lon="16.884913"></trkpt><trkpt lat="52.486772" lon="16.885292"></trkpt><trkpt lat="52.486719" lon="16.885869"></trkpt><trkpt lat="52.486709" lon="16.886363"></trkpt><trkpt lat="52.486725" lon="16.887"></trkpt><trkpt lat="52.48669" lon="16.887625"></trkpt><trkpt lat="52.486547" lon="16.888873"></trkpt><trkpt lat="52.486479" lon="16.889231"></trkpt><trkpt lat="52.48635" lon="16.890177"></trkpt><trkpt lat="52.486264" lon="16.890523"></trkpt><trkpt lat="52.486085" lon="16.890692"></trkpt><trkpt lat="52.48585" lon="16.890813"></trkpt><trkpt lat="52.483733" lon="16.892232"></trkpt><trkpt lat="52.483214" lon="16.892897"></trkpt><trkpt lat="52.482645" lon="16.893744"></trkpt><trkpt lat="52.480665" lon="16.896188"></trkpt><trkpt lat="52.480275" lon="16.896567"></trkpt><trkpt lat="52.479516" lon="16.897124"></trkpt><trkpt lat="52.479322" lon="16.897224"></trkpt></trkseg></trk></gpx>