<?xml version="1.0" encoding="UTF-8" standalone="no" ?><gpx xmlns="http://www.topografix.com/GPX/1/1" xmlns:gpxx="http://www.garmin.com/xmlschemas/GpxExtensions/v3" ><trk><trkseg><trkpt lat="50.820753" lon="15.521357"></trkpt><trkpt lat="50.820619" lon="15.521068"></trkpt><trkpt lat="50.820383" lon="15.521457"></trkpt><trkpt lat="50.820548" lon="15.521637"></trkpt><trkpt lat="50.820666" lon="15.521916"></trkpt><trkpt lat="50.820834" lon="15.522235"></trkpt><trkpt lat="50.821011" lon="15.522411"></trkpt><trkpt lat="50.82126" lon="15.522717"></trkpt><trkpt lat="50.821471" lon="15.52304"></trkpt><trkpt lat="50.821665" lon="15.523268"></trkpt><trkpt lat="50.821914" lon="15.523295"></trkpt><trkpt lat="50.822127" lon="15.523414"></trkpt><trkpt lat="50.822385" lon="15.523416"></trkpt><trkpt lat="50.822771" lon="15.523265"></trkpt><trkpt lat="50.823391" lon="15.522816"></trkpt><trkpt lat="50.823651" lon="15.522702"></trkpt><trkpt lat="50.823985" lon="15.523186"></trkpt><trkpt lat="50.824224" lon="15.52375"></trkpt><trkpt lat="50.824731" lon="15.524635"></trkpt><trkpt lat="50.825163" lon="15.525113"></trkpt><trkpt lat="50.825384" lon="15.525276"></trkpt><trkpt lat="50.825804" lon="15.524833"></trkpt><trkpt lat="50.826051" lon="15.524472"></trkpt><trkpt lat="50.826202" lon="15.523783"></trkpt><trkpt lat="50.826302" lon="15.52307"></trkpt><trkpt lat="50.826698" lon="15.522508"></trkpt><trkpt lat="50.826842" lon="15.52227"></trkpt><trkpt lat="50.826921" lon="15.521977"></trkpt><trkpt lat="50.826855" lon="15.52167"></trkpt><trkpt lat="50.826892" lon="15.521337"></trkpt><trkpt lat="50.826984" lon="15.520887"></trkpt><trkpt lat="50.827146" lon="15.52046"></trkpt><trkpt lat="50.827419" lon="15.520169"></trkpt><trkpt lat="50.827805" lon="15.519876"></trkpt><trkpt lat="50.828113" lon="15.519423"></trkpt><trkpt lat="50.828658" lon="15.518781"></trkpt><trkpt lat="50.829151" lon="15.518548"></trkpt><trkpt lat="50.829494" lon="15.518263"></trkpt><trkpt lat="50.829734" lon="15.517877"></trkpt><trkpt lat="50.829699" lon="15.517447"></trkpt><trkpt lat="50.829511" lon="15.517001"></trkpt><trkpt lat="50.829382" lon="15.516565"></trkpt><trkpt lat="50.829267" lon="15.516064"></trkpt><trkpt lat="50.828745" lon="15.514449"></trkpt><trkpt lat="50.828537" lon="15.514107"></trkpt><trkpt lat="50.828335" lon="15.513718"></trkpt><trkpt lat="50.828095" lon="15.513466"></trkpt><trkpt lat="50.827867" lon="15.513149"></trkpt><trkpt lat="50.827528" lon="15.512563"></trkpt><trkpt lat="50.827352" lon="15.512106"></trkpt><trkpt lat="50.826679" lon="15.509784"></trkpt><trkpt lat="50.826837" lon="15.50901"></trkpt><trkpt lat="50.827084" lon="15.508136"></trkpt><trkpt lat="50.827145" lon="15.507599"></trkpt><trkpt lat="50.827108" lon="15.507231"></trkpt><trkpt lat="50.827121" lon="15.506701"></trkpt><trkpt lat="50.826989" lon="15.506116"></trkpt><trkpt lat="50.827063" lon="15.505716"></trkpt><trkpt lat="50.827243" lon="15.505206"></trkpt><trkpt lat="50.827339" lon="15.504639"></trkpt><trkpt lat="50.827457" lon="15.504133"></trkpt><trkpt lat="50.82766" lon="15.502958"></trkpt><trkpt lat="50.827555" lon="15.502444"></trkpt><trkpt lat="50.827401" lon="15.501997"></trkpt><trkpt lat="50.827104" lon="15.501356"></trkpt><trkpt lat="50.8254" lon="15.496943"></trkpt><trkpt lat="50.82536" lon="15.496621"></trkpt><trkpt lat="50.825363" lon="15.496279"></trkpt><trkpt lat="50.825405" lon="15.495967"></trkpt><trkpt lat="50.825408" lon="15.495529"></trkpt><trkpt lat="50.825447" lon="15.495168"></trkpt><trkpt lat="50.825439" lon="15.494837"></trkpt><trkpt lat="50.825153" lon="15.49409"></trkpt><trkpt lat="50.825023" lon="15.493471"></trkpt><trkpt lat="50.824507" lon="15.491909"></trkpt><trkpt lat="50.824356" lon="15.491704"></trkpt><trkpt lat="50.824639" lon="15.492048"></trkpt><trkpt lat="50.824797" lon="15.492363"></trkpt><trkpt lat="50.824882" lon="15.492735"></trkpt><trkpt lat="50.825111" lon="15.492855"></trkpt><trkpt lat="50.82533" lon="15.492998"></trkpt><trkpt lat="50.825516" lon="15.493209"></trkpt><trkpt lat="50.825706" lon="15.49333"></trkpt><trkpt lat="50.82578" lon="15.493736"></trkpt><trkpt lat="50.825791" lon="15.494183"></trkpt><trkpt lat="50.825925" lon="15.493751"></trkpt><trkpt lat="50.826268" lon="15.492864"></trkpt><trkpt lat="50.828463" lon="15.488008"></trkpt><trkpt lat="50.828884" lon="15.487426"></trkpt><trkpt lat="50.829127" lon="15.486962"></trkpt><trkpt lat="50.829253" lon="15.486678"></trkpt><trkpt lat="50.829417" lon="15.486245"></trkpt><trkpt lat="50.829502" lon="15.485769"></trkpt><trkpt lat="50.829483" lon="15.485358"></trkpt><trkpt lat="50.829548" lon="15.484816"></trkpt><trkpt lat="50.829593" lon="15.4833"></trkpt><trkpt lat="50.829534" lon="15.480596"></trkpt><trkpt lat="50.829461" lon="15.480209"></trkpt><trkpt lat="50.829203" lon="15.477417"></trkpt><trkpt lat="50.82927" lon="15.47677"></trkpt><trkpt lat="50.829324" lon="15.475306"></trkpt><trkpt lat="50.829392" lon="15.474721"></trkpt><trkpt lat="50.82958" lon="15.473711"></trkpt><trkpt lat="50.829686" lon="15.473371"></trkpt><trkpt lat="50.82991" lon="15.47214"></trkpt><trkpt lat="50.82981" lon="15.471607"></trkpt><trkpt lat="50.829581" lon="15.469589"></trkpt><trkpt lat="50.829586" lon="15.469073"></trkpt><trkpt lat="50.829562" lon="15.468403"></trkpt><trkpt lat="50.829599" lon="15.465176"></trkpt><trkpt lat="50.829695" lon="15.464717"></trkpt><trkpt lat="50.82979" lon="15.46401"></trkpt><trkpt lat="50.831518" lon="15.443015"></trkpt><trkpt lat="50.831424" lon="15.442688"></trkpt><trkpt lat="50.831353" lon="15.442219"></trkpt><trkpt lat="50.831428" lon="15.441279"></trkpt><trkpt lat="50.831379" lon="15.440876"></trkpt><trkpt lat="50.831215" lon="15.440571"></trkpt><trkpt lat="50.83097" lon="15.440413"></trkpt><trkpt lat="50.830591" lon="15.440113"></trkpt><trkpt lat="50.829454" lon="15.439461"></trkpt><trkpt lat="50.828987" lon="15.439567"></trkpt><trkpt lat="50.828518" lon="15.43958"></trkpt><trkpt lat="50.828121" lon="15.439772"></trkpt><trkpt lat="50.827945" lon="15.440134"></trkpt><trkpt lat="50.827213" lon="15.44132"></trkpt><trkpt lat="50.826824" lon="15.441404"></trkpt><trkpt lat="50.826602" lon="15.441166"></trkpt><trkpt lat="50.82644" lon="15.440692"></trkpt><trkpt lat="50.826221" lon="15.44051"></trkpt><trkpt lat="50.825882" lon="15.440455"></trkpt><trkpt lat="50.825496" lon="15.440811"></trkpt><trkpt lat="50.825365" lon="15.441157"></trkpt><trkpt lat="50.824811" lon="15.442185"></trkpt><trkpt lat="50.824617" lon="15.442341"></trkpt><trkpt lat="50.824413" lon="15.442413"></trkpt><trkpt lat="50.823839" lon="15.442361"></trkpt><trkpt lat="50.823645" lon="15.442463"></trkpt><trkpt lat="50.823028" lon="15.442683"></trkpt><trkpt lat="50.822597" lon="15.442951"></trkpt><trkpt lat="50.822416" lon="15.443163"></trkpt><trkpt lat="50.822208" lon="15.443268"></trkpt><trkpt lat="50.822028" lon="15.4435"></trkpt><trkpt lat="50.822308" lon="15.443222"></trkpt><trkpt lat="50.821793" lon="15.44221"></trkpt><trkpt lat="50.814216" lon="15.429295"></trkpt><trkpt lat="50.813646" lon="15.428658"></trkpt><trkpt lat="50.81343" lon="15.428542"></trkpt><trkpt lat="50.812153" lon="15.428107"></trkpt><trkpt lat="50.805922" lon="15.425151"></trkpt><trkpt lat="50.805455" lon="15.424755"></trkpt><trkpt lat="50.804946" lon="15.424408"></trkpt><trkpt lat="50.8035" lon="15.423219"></trkpt><trkpt lat="50.801535" lon="15.421952"></trkpt><trkpt lat="50.80117" lon="15.42181"></trkpt><trkpt lat="50.800033" lon="15.421502"></trkpt><trkpt lat="50.799789" lon="15.421465"></trkpt><trkpt lat="50.79994" lon="15.421677"></trkpt><trkpt lat="50.799754" lon="15.421516"></trkpt><trkpt lat="50.799105" lon="15.421415"></trkpt><trkpt lat="50.788231" lon="15.421176"></trkpt><trkpt lat="50.787641" lon="15.421487"></trkpt><trkpt lat="50.786995" lon="15.42198"></trkpt><trkpt lat="50.786466" lon="15.422476"></trkpt><trkpt lat="50.784696" lon="15.423868"></trkpt><trkpt lat="50.784484" lon="15.423876"></trkpt><trkpt lat="50.784281" lon="15.423845"></trkpt><trkpt lat="50.783815" lon="15.423695"></trkpt><trkpt lat="50.783798" lon="15.424018"></trkpt><trkpt lat="50.783632" lon="15.424542"></trkpt><trkpt lat="50.782505" lon="15.427487"></trkpt><trkpt lat="50.782326" lon="15.427853"></trkpt><trkpt lat="50.782131" lon="15.428186"></trkpt><trkpt lat="50.781939" lon="15.42858"></trkpt><trkpt lat="50.782068" lon="15.429198"></trkpt><trkpt lat="50.78172" lon="15.429548"></trkpt><trkpt lat="50.781529" lon="15.429663"></trkpt><trkpt lat="50.781295" lon="15.42991"></trkpt><trkpt lat="50.78105" lon="15.430488"></trkpt><trkpt lat="50.78094" lon="15.43099"></trkpt><trkpt lat="50.780695" lon="15.431367"></trkpt><trkpt lat="50.780358" lon="15.431647"></trkpt><trkpt lat="50.780145" lon="15.431751"></trkpt><trkpt lat="50.779212" lon="15.432011"></trkpt><trkpt lat="50.779044" lon="15.432206"></trkpt><trkpt lat="50.778807" lon="15.433204"></trkpt><trkpt lat="50.77867" lon="15.433947"></trkpt><trkpt lat="50.778455" lon="15.434856"></trkpt><trkpt lat="50.778314" lon="15.435292"></trkpt><trkpt lat="50.777808" lon="15.436605"></trkpt><trkpt lat="50.777663" lon="15.436826"></trkpt><trkpt lat="50.777432" lon="15.437115"></trkpt><trkpt lat="50.777061" lon="15.437407"></trkpt><trkpt lat="50.776826" lon="15.437638"></trkpt><trkpt lat="50.776605" lon="15.437979"></trkpt><trkpt lat="50.776396" lon="15.438251"></trkpt><trkpt lat="50.776269" lon="15.438527"></trkpt><trkpt lat="50.775986" lon="15.439326"></trkpt><trkpt lat="50.7758" lon="15.439645"></trkpt><trkpt lat="50.774839" lon="15.441553"></trkpt><trkpt lat="50.774661" lon="15.441977"></trkpt><trkpt lat="50.774469" lon="15.442334"></trkpt><trkpt lat="50.772916" lon="15.445884"></trkpt><trkpt lat="50.772877" lon="15.446396"></trkpt><trkpt lat="50.772817" lon="15.446867"></trkpt><trkpt lat="50.772599" lon="15.447069"></trkpt><trkpt lat="50.772324" lon="15.44728"></trkpt><trkpt lat="50.772159" lon="15.44753"></trkpt><trkpt lat="50.772004" lon="15.448015"></trkpt><trkpt lat="50.771952" lon="15.448461"></trkpt><trkpt lat="50.771873" lon="15.44886"></trkpt><trkpt lat="50.77185" lon="15.449444"></trkpt><trkpt lat="50.771685" lon="15.449811"></trkpt><trkpt lat="50.771337" lon="15.450715"></trkpt><trkpt lat="50.771272" lon="15.451097"></trkpt><trkpt lat="50.771147" lon="15.451504"></trkpt><trkpt lat="50.770968" lon="15.451784"></trkpt><trkpt lat="50.770796" lon="15.452138"></trkpt><trkpt lat="50.770653" lon="15.452509"></trkpt><trkpt lat="50.77076" lon="15.452213"></trkpt><trkpt lat="50.771007" lon="15.451885"></trkpt><trkpt lat="50.771262" lon="15.451683"></trkpt><trkpt lat="50.771251" lon="15.452044"></trkpt><trkpt lat="50.771132" lon="15.452381"></trkpt><trkpt lat="50.771075" lon="15.452779"></trkpt><trkpt lat="50.771087" lon="15.453092"></trkpt><trkpt lat="50.771071" lon="15.453803"></trkpt><trkpt lat="50.77104" lon="15.454208"></trkpt><trkpt lat="50.770984" lon="15.454541"></trkpt><trkpt lat="50.770902" lon="15.455724"></trkpt><trkpt lat="50.770881" lon="15.456602"></trkpt><trkpt lat="50.770923" lon="15.457337"></trkpt><trkpt lat="50.770841" lon="15.457645"></trkpt><trkpt lat="50.770527" lon="15.458008"></trkpt><trkpt lat="50.769381" lon="15.459592"></trkpt><trkpt lat="50.769226" lon="15.459891"></trkpt><trkpt lat="50.76906" lon="15.460128"></trkpt><trkpt lat="50.768885" lon="15.460466"></trkpt><trkpt lat="50.768715" lon="15.461047"></trkpt><trkpt lat="50.768568" lon="15.461397"></trkpt><trkpt lat="50.768518" lon="15.461716"></trkpt><trkpt lat="50.768561" lon="15.462109"></trkpt><trkpt lat="50.768631" lon="15.462554"></trkpt><trkpt lat="50.768906" lon="15.463034"></trkpt><trkpt lat="50.769108" lon="15.463299"></trkpt><trkpt lat="50.76934" lon="15.46356"></trkpt><trkpt lat="50.770154" lon="15.464296"></trkpt><trkpt lat="50.770379" lon="15.464452"></trkpt><trkpt lat="50.770761" lon="15.464663"></trkpt><trkpt lat="50.770959" lon="15.464665"></trkpt><trkpt lat="50.77117" lon="15.46478"></trkpt><trkpt lat="50.77161" lon="15.465199"></trkpt><trkpt lat="50.771823" lon="15.465488"></trkpt><trkpt lat="50.772002" lon="15.465884"></trkpt><trkpt lat="50.772083" lon="15.466178"></trkpt><trkpt lat="50.772308" lon="15.466745"></trkpt><trkpt lat="50.772637" lon="15.467826"></trkpt><trkpt lat="50.772632" lon="15.468158"></trkpt><trkpt lat="50.772517" lon="15.468614"></trkpt><trkpt lat="50.772409" lon="15.468954"></trkpt><trkpt lat="50.772086" lon="15.469582"></trkpt><trkpt lat="50.771949" lon="15.469974"></trkpt><trkpt lat="50.771772" lon="15.470334"></trkpt><trkpt lat="50.771536" lon="15.470714"></trkpt><trkpt lat="50.770978" lon="15.471802"></trkpt><trkpt lat="50.77083" lon="15.47223"></trkpt><trkpt lat="50.770681" lon="15.472575"></trkpt><trkpt lat="50.770593" lon="15.472896"></trkpt><trkpt lat="50.770423" lon="15.473397"></trkpt><trkpt lat="50.769931" lon="15.474537"></trkpt><trkpt lat="50.769889" lon="15.474929"></trkpt><trkpt lat="50.769879" lon="15.4753"></trkpt><trkpt lat="50.769897" lon="15.476022"></trkpt><trkpt lat="50.769947" lon="15.476382"></trkpt><trkpt lat="50.769952" lon="15.476777"></trkpt><trkpt lat="50.769978" lon="15.477194"></trkpt><trkpt lat="50.769989" lon="15.478422"></trkpt><trkpt lat="50.770092" lon="15.479028"></trkpt><trkpt lat="50.770368" lon="15.481566"></trkpt><trkpt lat="50.770205" lon="15.481968"></trkpt><trkpt lat="50.770058" lon="15.482267"></trkpt><trkpt lat="50.769921" lon="15.482639"></trkpt><trkpt lat="50.769726" lon="15.48302"></trkpt><trkpt lat="50.769576" lon="15.483247"></trkpt><trkpt lat="50.769253" lon="15.483627"></trkpt><trkpt lat="50.769068" lon="15.483807"></trkpt><trkpt lat="50.768893" lon="15.484008"></trkpt><trkpt lat="50.768607" lon="15.484259"></trkpt><trkpt lat="50.768387" lon="15.484655"></trkpt><trkpt lat="50.768239" lon="15.485114"></trkpt><trkpt lat="50.767931" lon="15.485835"></trkpt><trkpt lat="50.767794" lon="15.486095"></trkpt><trkpt lat="50.767473" lon="15.486512"></trkpt><trkpt lat="50.767311" lon="15.486838"></trkpt><trkpt lat="50.766927" lon="15.487405"></trkpt><trkpt lat="50.766757" lon="15.487575"></trkpt><trkpt lat="50.766566" lon="15.487732"></trkpt><trkpt lat="50.765197" lon="15.489081"></trkpt><trkpt lat="50.765192" lon="15.489459"></trkpt><trkpt lat="50.765283" lon="15.489742"></trkpt><trkpt lat="50.765549" lon="15.490182"></trkpt><trkpt lat="50.765729" lon="15.49072"></trkpt><trkpt lat="50.765893" lon="15.491329"></trkpt><trkpt lat="50.765911" lon="15.491776"></trkpt><trkpt lat="50.765865" lon="15.492257"></trkpt><trkpt lat="50.765642" lon="15.493789"></trkpt><trkpt lat="50.765492" lon="15.494194"></trkpt><trkpt lat="50.765281" lon="15.494942"></trkpt><trkpt lat="50.765221" lon="15.495254"></trkpt><trkpt lat="50.765174" lon="15.495607"></trkpt><trkpt lat="50.765218" lon="15.496178"></trkpt><trkpt lat="50.765298" lon="15.496472"></trkpt><trkpt lat="50.765413" lon="15.496789"></trkpt><trkpt lat="50.765562" lon="15.497049"></trkpt><trkpt lat="50.765828" lon="15.497753"></trkpt><trkpt lat="50.765853" lon="15.498162"></trkpt><trkpt lat="50.765808" lon="15.498533"></trkpt><trkpt lat="50.765577" lon="15.499892"></trkpt><trkpt lat="50.765607" lon="15.500272"></trkpt><trkpt lat="50.765553" lon="15.500795"></trkpt><trkpt lat="50.765524" lon="15.501382"></trkpt><trkpt lat="50.765465" lon="15.501866"></trkpt><trkpt lat="50.765464" lon="15.502622"></trkpt><trkpt lat="50.765585" lon="15.503035"></trkpt><trkpt lat="50.765919" lon="15.504559"></trkpt><trkpt lat="50.765832" lon="15.50493"></trkpt><trkpt lat="50.765623" lon="15.505371"></trkpt><trkpt lat="50.765487" lon="15.506047"></trkpt><trkpt lat="50.765576" lon="15.506378"></trkpt><trkpt lat="50.76563" lon="15.506681"></trkpt><trkpt lat="50.765556" lon="15.506369"></trkpt><trkpt lat="50.765661" lon="15.506041"></trkpt><trkpt lat="50.765901" lon="15.505599"></trkpt><trkpt lat="50.766235" lon="15.505413"></trkpt><trkpt lat="50.766389" lon="15.505178"></trkpt><trkpt lat="50.766495" lon="15.504593"></trkpt><trkpt lat="50.766602" lon="15.504131"></trkpt><trkpt lat="50.766956" lon="15.503067"></trkpt><trkpt lat="50.767108" lon="15.502813"></trkpt><trkpt lat="50.767262" lon="15.502604"></trkpt><trkpt lat="50.767691" lon="15.502103"></trkpt><trkpt lat="50.767874" lon="15.501934"></trkpt><trkpt lat="50.768091" lon="15.501853"></trkpt><trkpt lat="50.768705" lon="15.50224"></trkpt><trkpt lat="50.768871" lon="15.502552"></trkpt><trkpt lat="50.768989" lon="15.502824"></trkpt><trkpt lat="50.76911" lon="15.503309"></trkpt><trkpt lat="50.769369" lon="15.504093"></trkpt><trkpt lat="50.769562" lon="15.504339"></trkpt><trkpt lat="50.769843" lon="15.504777"></trkpt><trkpt lat="50.770138" lon="15.505124"></trkpt><trkpt lat="50.770335" lon="15.505265"></trkpt><trkpt lat="50.770529" lon="15.505346"></trkpt><trkpt lat="50.773002" lon="15.506086"></trkpt><trkpt lat="50.77323" lon="15.506115"></trkpt><trkpt lat="50.773759" lon="15.506108"></trkpt><trkpt lat="50.773985" lon="15.505857"></trkpt><trkpt lat="50.774306" lon="15.505606"></trkpt><trkpt lat="50.776536" lon="15.504506"></trkpt><trkpt lat="50.777051" lon="15.504413"></trkpt><trkpt lat="50.777213" lon="15.504215"></trkpt><trkpt lat="50.777155" lon="15.503838"></trkpt><trkpt lat="50.776599" lon="15.502437"></trkpt><trkpt lat="50.776086" lon="15.501608"></trkpt><trkpt lat="50.775285" lon="15.500767"></trkpt><trkpt lat="50.774863" lon="15.500403"></trkpt><trkpt lat="50.774222" lon="15.500015"></trkpt><trkpt lat="50.77389" lon="15.499711"></trkpt><trkpt lat="50.7736" lon="15.499209"></trkpt><trkpt lat="50.773478" lon="15.498746"></trkpt><trkpt lat="50.773317" lon="15.497618"></trkpt><trkpt lat="50.773342" lon="15.497001"></trkpt><trkpt lat="50.773336" lon="15.496438"></trkpt><trkpt lat="50.773411" lon="15.498563"></trkpt><trkpt lat="50.773323" lon="15.497943"></trkpt><trkpt lat="50.773327" lon="15.497358"></trkpt><trkpt lat="50.773377" lon="15.496631"></trkpt><trkpt lat="50.77331" lon="15.49622"></trkpt><trkpt lat="50.773186" lon="15.49573"></trkpt><trkpt lat="50.773059" lon="15.49504"></trkpt><trkpt lat="50.773054" lon="15.494695"></trkpt><trkpt lat="50.773074" lon="15.494181"></trkpt><trkpt lat="50.773148" lon="15.49388"></trkpt><trkpt lat="50.773262" lon="15.493607"></trkpt><trkpt lat="50.773465" lon="15.49323"></trkpt><trkpt lat="50.773883" lon="15.492643"></trkpt><trkpt lat="50.775352" lon="15.49096"></trkpt><trkpt lat="50.77593" lon="15.490456"></trkpt><trkpt lat="50.776954" lon="15.489713"></trkpt><trkpt lat="50.78458" lon="15.483062"></trkpt><trkpt lat="50.784745" lon="15.482667"></trkpt><trkpt lat="50.785008" lon="15.481929"></trkpt><trkpt lat="50.78482" lon="15.481723"></trkpt><trkpt lat="50.784616" lon="15.481682"></trkpt><trkpt lat="50.784255" lon="15.481829"></trkpt><trkpt lat="50.783924" lon="15.481917"></trkpt><trkpt lat="50.783021" lon="15.481538"></trkpt><trkpt lat="50.78074" lon="15.480167"></trkpt><trkpt lat="50.780318" lon="15.479539"></trkpt><trkpt lat="50.779917" lon="15.47882"></trkpt><trkpt lat="50.779578" lon="15.47798"></trkpt><trkpt lat="50.779407" lon="15.47743"></trkpt><trkpt lat="50.779093" lon="15.476103"></trkpt><trkpt lat="50.7788" lon="15.474508"></trkpt><trkpt lat="50.778754" lon="15.473927"></trkpt><trkpt lat="50.778763" lon="15.473558"></trkpt><trkpt lat="50.778901" lon="15.472449"></trkpt><trkpt lat="50.779014" lon="15.471877"></trkpt><trkpt lat="50.779383" lon="15.468764"></trkpt><trkpt lat="50.779447" lon="15.467524"></trkpt><trkpt lat="50.779417" lon="15.466019"></trkpt><trkpt lat="50.779116" lon="15.46492"></trkpt><trkpt lat="50.778937" lon="15.464041"></trkpt><trkpt lat="50.778925" lon="15.463705"></trkpt><trkpt lat="50.778938" lon="15.46339"></trkpt><trkpt lat="50.779042" lon="15.463008"></trkpt><trkpt lat="50.77924" lon="15.462779"></trkpt><trkpt lat="50.779488" lon="15.46269"></trkpt><trkpt lat="50.780225" lon="15.462635"></trkpt><trkpt lat="50.787049" lon="15.461233"></trkpt><trkpt lat="50.787356" lon="15.460497"></trkpt><trkpt lat="50.787467" lon="15.460122"></trkpt><trkpt lat="50.787516" lon="15.459659"></trkpt><trkpt lat="50.787512" lon="15.458802"></trkpt><trkpt lat="50.787449" lon="15.458032"></trkpt><trkpt lat="50.787344" lon="15.45745"></trkpt><trkpt lat="50.787095" lon="15.456711"></trkpt><trkpt lat="50.786861" lon="15.455782"></trkpt><trkpt lat="50.786739" lon="15.455132"></trkpt><trkpt lat="50.786659" lon="15.45439"></trkpt><trkpt lat="50.786669" lon="15.453606"></trkpt><trkpt lat="50.78646" lon="15.452699"></trkpt><trkpt lat="50.7864" lon="15.452364"></trkpt><trkpt lat="50.786376" lon="15.451618"></trkpt><trkpt lat="50.786482" lon="15.450975"></trkpt><trkpt lat="50.786625" lon="15.450489"></trkpt><trkpt lat="50.78694" lon="15.449735"></trkpt><trkpt lat="50.78711" lon="15.449504"></trkpt><trkpt lat="50.787303" lon="15.449334"></trkpt><trkpt lat="50.78793" lon="15.448917"></trkpt><trkpt lat="50.789221" lon="15.448283"></trkpt><trkpt lat="50.789766" lon="15.448202"></trkpt><trkpt lat="50.790932" lon="15.448552"></trkpt><trkpt lat="50.791119" lon="15.448709"></trkpt><trkpt lat="50.791275" lon="15.448916"></trkpt><trkpt lat="50.791402" lon="15.449172"></trkpt><trkpt lat="50.79163" lon="15.449737"></trkpt><trkpt lat="50.791772" lon="15.450171"></trkpt><trkpt lat="50.791905" lon="15.451387"></trkpt><trkpt lat="50.792208" lon="15.453317"></trkpt><trkpt lat="50.792708" lon="15.455616"></trkpt><trkpt lat="50.792867" lon="15.455903"></trkpt><trkpt lat="50.793067" lon="15.455743"></trkpt><trkpt lat="50.793127" lon="15.455293"></trkpt><trkpt lat="50.793221" lon="15.454921"></trkpt><trkpt lat="50.793335" lon="15.454664"></trkpt><trkpt lat="50.793727" lon="15.453964"></trkpt><trkpt lat="50.793925" lon="15.453722"></trkpt><trkpt lat="50.794292" lon="15.453335"></trkpt><trkpt lat="50.795494" lon="15.452263"></trkpt><trkpt lat="50.795736" lon="15.452132"></trkpt><trkpt lat="50.795979" lon="15.452059"></trkpt><trkpt lat="50.79804" lon="15.4512"></trkpt><trkpt lat="50.802226" lon="15.448825"></trkpt><trkpt lat="50.802627" lon="15.448231"></trkpt><trkpt lat="50.803436" lon="15.446618"></trkpt><trkpt lat="50.803519" lon="15.446014"></trkpt><trkpt lat="50.80386" lon="15.445868"></trkpt><trkpt lat="50.803546" lon="15.445657"></trkpt><trkpt lat="50.803428" lon="15.445382"></trkpt><trkpt lat="50.802896" lon="15.444484"></trkpt><trkpt lat="50.802186" lon="15.443726"></trkpt><trkpt lat="50.801572" lon="15.443369"></trkpt><trkpt lat="50.80085" lon="15.442768"></trkpt><trkpt lat="50.800208" lon="15.442025"></trkpt><trkpt lat="50.792793" lon="15.434788"></trkpt><trkpt lat="50.792498" lon="15.434623"></trkpt><trkpt lat="50.792324" lon="15.434451"></trkpt><trkpt lat="50.792127" lon="15.434145"></trkpt><trkpt lat="50.792003" lon="15.433842"></trkpt><trkpt lat="50.791951" lon="15.433474"></trkpt><trkpt lat="50.792055" lon="15.432724"></trkpt><trkpt lat="50.792254" lon="15.43183"></trkpt><trkpt lat="50.792384" lon="15.431447"></trkpt><trkpt lat="50.79256" lon="15.431015"></trkpt><trkpt lat="50.792795" lon="15.430563"></trkpt><trkpt lat="50.793187" lon="15.429943"></trkpt><trkpt lat="50.793488" lon="15.429536"></trkpt><trkpt lat="50.793754" lon="15.429251"></trkpt><trkpt lat="50.794181" lon="15.428863"></trkpt><trkpt lat="50.795538" lon="15.427943"></trkpt><trkpt lat="50.796084" lon="15.427784"></trkpt><trkpt lat="50.799259" lon="15.426489"></trkpt><trkpt lat="50.79962" lon="15.426215"></trkpt><trkpt lat="50.800675" lon="15.425696"></trkpt><trkpt lat="50.802006" lon="15.425252"></trkpt><trkpt lat="50.802466" lon="15.425153"></trkpt><trkpt lat="50.803285" lon="15.424882"></trkpt><trkpt lat="50.803142" lon="15.424609"></trkpt><trkpt lat="50.802811" lon="15.424199"></trkpt><trkpt lat="50.80256" lon="15.423934"></trkpt><trkpt lat="50.800454" lon="15.422041"></trkpt><trkpt lat="50.800213" lon="15.421875"></trkpt><trkpt lat="50.800028" lon="15.421628"></trkpt><trkpt lat="50.800241" lon="15.421646"></trkpt><trkpt lat="50.801165" lon="15.421842"></trkpt><trkpt lat="50.801394" lon="15.421926"></trkpt><trkpt lat="50.801847" lon="15.422156"></trkpt><trkpt lat="50.803319" lon="15.423115"></trkpt><trkpt lat="50.803752" lon="15.423529"></trkpt><trkpt lat="50.805094" lon="15.424592"></trkpt><trkpt lat="50.808078" lon="15.426506"></trkpt><trkpt lat="50.80866" lon="15.426727"></trkpt><trkpt lat="50.814482" lon="15.429657"></trkpt><trkpt lat="50.815005" lon="15.430343"></trkpt><trkpt lat="50.81749" lon="15.432466"></trkpt><trkpt lat="50.817099" lon="15.433091"></trkpt><trkpt lat="50.817133" lon="15.4327"></trkpt><trkpt lat="50.817195" lon="15.432389"></trkpt><trkpt lat="50.817423" lon="15.432043"></trkpt><trkpt lat="50.817423" lon="15.431543"></trkpt><trkpt lat="50.817399" lon="15.431134"></trkpt><trkpt lat="50.816955" lon="15.431126"></trkpt><trkpt lat="50.816644" lon="15.430878"></trkpt><trkpt lat="50.816215" lon="15.430287"></trkpt><trkpt lat="50.815018" lon="15.428888"></trkpt><trkpt lat="50.81481" lon="15.428837"></trkpt><trkpt lat="50.81461" lon="15.428718"></trkpt><trkpt lat="50.814146" lon="15.428158"></trkpt><trkpt lat="50.813765" lon="15.42779"></trkpt><trkpt lat="50.81356" lon="15.427769"></trkpt><trkpt lat="50.813276" lon="15.427178"></trkpt><trkpt lat="50.812957" lon="15.426798"></trkpt><trkpt lat="50.808215" lon="15.421938"></trkpt><trkpt lat="50.807719" lon="15.421535"></trkpt><trkpt lat="50.807374" lon="15.420923"></trkpt><trkpt lat="50.807266" lon="15.420569"></trkpt><trkpt lat="50.807141" lon="15.420066"></trkpt><trkpt lat="50.807118" lon="15.419749"></trkpt><trkpt lat="50.80723" lon="15.418714"></trkpt><trkpt lat="50.807405" lon="15.418061"></trkpt><trkpt lat="50.807698" lon="15.417247"></trkpt><trkpt lat="50.807864" lon="15.41632"></trkpt><trkpt lat="50.807922" lon="15.415256"></trkpt><trkpt lat="50.807719" lon="15.414208"></trkpt><trkpt lat="50.807524" lon="15.413956"></trkpt><trkpt lat="50.807072" lon="15.41371"></trkpt><trkpt lat="50.80659" lon="15.413576"></trkpt><trkpt lat="50.805901" lon="15.413244"></trkpt><trkpt lat="50.805594" lon="15.413048"></trkpt><trkpt lat="50.802489" lon="15.410581"></trkpt><trkpt lat="50.802471" lon="15.41018"></trkpt><trkpt lat="50.802484" lon="15.409774"></trkpt><trkpt lat="50.802621" lon="15.408917"></trkpt><trkpt lat="50.803127" lon="15.407746"></trkpt><trkpt lat="50.803829" lon="15.406353"></trkpt><trkpt lat="50.804024" lon="15.405326"></trkpt><trkpt lat="50.804085" lon="15.40457"></trkpt><trkpt lat="50.804196" lon="15.403937"></trkpt><trkpt lat="50.80419" lon="15.403275"></trkpt><trkpt lat="50.804317" lon="15.402146"></trkpt><trkpt lat="50.804607" lon="15.400406"></trkpt><trkpt lat="50.804708" lon="15.400063"></trkpt><trkpt lat="50.804932" lon="15.399138"></trkpt><trkpt lat="50.804975" lon="15.39814"></trkpt><trkpt lat="50.805021" lon="15.397791"></trkpt><trkpt lat="50.805153" lon="15.395028"></trkpt><trkpt lat="50.805332" lon="15.39376"></trkpt><trkpt lat="50.805429" lon="15.393481"></trkpt><trkpt lat="50.805565" lon="15.393251"></trkpt><trkpt lat="50.806069" lon="15.392511"></trkpt><trkpt lat="50.806324" lon="15.39229"></trkpt><trkpt lat="50.808489" lon="15.390016"></trkpt><trkpt lat="50.815483" lon="15.38148"></trkpt><trkpt lat="50.815436" lon="15.381171"></trkpt><trkpt lat="50.815515" lon="15.381739"></trkpt><trkpt lat="50.815499" lon="15.3823"></trkpt><trkpt lat="50.815281" lon="15.382565"></trkpt><trkpt lat="50.814886" lon="15.383357"></trkpt><trkpt lat="50.814582" lon="15.38356"></trkpt><trkpt lat="50.81436" lon="15.383918"></trkpt><trkpt lat="50.813814" lon="15.38463"></trkpt><trkpt lat="50.813577" lon="15.384865"></trkpt><trkpt lat="50.81334" lon="15.385058"></trkpt><trkpt lat="50.812502" lon="15.385953"></trkpt><trkpt lat="50.812298" lon="15.386229"></trkpt><trkpt lat="50.812103" lon="15.38641"></trkpt><trkpt lat="50.811532" lon="15.387068"></trkpt><trkpt lat="50.811331" lon="15.387173"></trkpt><trkpt lat="50.810569" lon="15.387671"></trkpt><trkpt lat="50.810354" lon="15.388075"></trkpt><trkpt lat="50.809913" lon="15.388619"></trkpt><trkpt lat="50.809556" lon="15.388945"></trkpt><trkpt lat="50.809385" lon="15.389183"></trkpt><trkpt lat="50.808989" lon="15.389643"></trkpt><trkpt lat="50.808775" lon="15.389835"></trkpt><trkpt lat="50.805553" lon="15.393303"></trkpt><trkpt lat="50.805357" lon="15.393739"></trkpt><trkpt lat="50.805285" lon="15.394213"></trkpt><trkpt lat="50.805188" lon="15.395909"></trkpt><trkpt lat="50.805204" lon="15.396416"></trkpt><trkpt lat="50.805169" lon="15.396937"></trkpt><trkpt lat="50.805078" lon="15.397541"></trkpt><trkpt lat="50.805008" lon="15.398274"></trkpt><trkpt lat="50.804985" lon="15.398793"></trkpt><trkpt lat="50.804926" lon="15.399275"></trkpt><trkpt lat="50.804775" lon="15.399823"></trkpt><trkpt lat="50.804381" lon="15.401823"></trkpt><trkpt lat="50.804215" lon="15.403732"></trkpt><trkpt lat="50.804017" lon="15.405173"></trkpt><trkpt lat="50.803761" lon="15.406452"></trkpt><trkpt lat="50.803216" lon="15.407488"></trkpt><trkpt lat="50.802526" lon="15.409233"></trkpt><trkpt lat="50.802487" lon="15.410424"></trkpt><trkpt lat="50.802535" lon="15.41075"></trkpt><trkpt lat="50.803047" lon="15.411665"></trkpt><trkpt lat="50.803227" lon="15.411825"></trkpt><trkpt lat="50.803766" lon="15.412011"></trkpt><trkpt lat="50.804666" lon="15.412456"></trkpt><trkpt lat="50.805497" lon="15.41299"></trkpt><trkpt lat="50.807057" lon="15.413673"></trkpt><trkpt lat="50.807665" lon="15.414066"></trkpt><trkpt lat="50.807797" lon="15.414335"></trkpt><trkpt lat="50.807946" lon="15.415373"></trkpt><trkpt lat="50.807874" lon="15.416399"></trkpt><trkpt lat="50.807804" lon="15.41678"></trkpt><trkpt lat="50.807659" lon="15.417394"></trkpt><trkpt lat="50.807388" lon="15.418202"></trkpt><trkpt lat="50.807294" lon="15.41859"></trkpt><trkpt lat="50.807181" lon="15.419636"></trkpt><trkpt lat="50.807275" lon="15.420448"></trkpt><trkpt lat="50.80744" lon="15.420999"></trkpt><trkpt lat="50.807801" lon="15.421574"></trkpt><trkpt lat="50.808473" lon="15.42209"></trkpt><trkpt lat="50.811117" lon="15.424547"></trkpt><trkpt lat="50.811551" lon="15.425122"></trkpt><trkpt lat="50.812111" lon="15.425759"></trkpt><trkpt lat="50.813483" lon="15.427688"></trkpt><trkpt lat="50.813557" lon="15.428163"></trkpt><trkpt lat="50.813704" lon="15.42858"></trkpt><trkpt lat="50.813819" lon="15.428843"></trkpt><trkpt lat="50.814299" lon="15.429449"></trkpt><trkpt lat="50.819015" lon="15.43645"></trkpt><trkpt lat="50.819902" lon="15.438244"></trkpt><trkpt lat="50.820065" lon="15.439022"></trkpt><trkpt lat="50.820161" lon="15.439324"></trkpt><trkpt lat="50.820344" lon="15.439733"></trkpt><trkpt lat="50.820718" lon="15.440382"></trkpt><trkpt lat="50.823742" lon="15.444913"></trkpt><trkpt lat="50.824181" lon="15.445406"></trkpt><trkpt lat="50.824694" lon="15.445878"></trkpt><trkpt lat="50.826313" lon="15.447881"></trkpt><trkpt lat="50.826467" lon="15.448509"></trkpt><trkpt lat="50.826602" lon="15.449253"></trkpt><trkpt lat="50.826924" lon="15.451648"></trkpt><trkpt lat="50.826705" lon="15.452655"></trkpt><trkpt lat="50.826289" lon="15.455975"></trkpt><trkpt lat="50.826237" lon="15.457514"></trkpt><trkpt lat="50.826198" lon="15.457996"></trkpt><trkpt lat="50.826202" lon="15.458569"></trkpt><trkpt lat="50.826122" lon="15.459659"></trkpt><trkpt lat="50.826058" lon="15.463683"></trkpt><trkpt lat="50.825985" lon="15.464744"></trkpt><trkpt lat="50.82596" lon="15.46591"></trkpt><trkpt lat="50.825835" lon="15.46687"></trkpt><trkpt lat="50.825634" lon="15.467784"></trkpt><trkpt lat="50.825352" lon="15.469457"></trkpt><trkpt lat="50.825396" lon="15.469766"></trkpt><trkpt lat="50.825493" lon="15.47004"></trkpt><trkpt lat="50.825883" lon="15.470887"></trkpt><trkpt lat="50.826153" lon="15.471658"></trkpt><trkpt lat="50.826337" lon="15.472311"></trkpt><trkpt lat="50.826377" lon="15.472638"></trkpt><trkpt lat="50.826384" lon="15.472987"></trkpt><trkpt lat="50.82636" lon="15.473983"></trkpt><trkpt lat="50.826286" lon="15.474292"></trkpt><trkpt lat="50.826117" lon="15.474715"></trkpt><trkpt lat="50.825968" lon="15.475178"></trkpt><trkpt lat="50.825849" lon="15.476058"></trkpt><trkpt lat="50.825778" lon="15.476988"></trkpt><trkpt lat="50.825788" lon="15.477353"></trkpt><trkpt lat="50.825847" lon="15.477694"></trkpt><trkpt lat="50.825961" lon="15.47798"></trkpt><trkpt lat="50.826131" lon="15.478205"></trkpt><trkpt lat="50.82649" lon="15.478755"></trkpt><trkpt lat="50.826561" lon="15.479204"></trkpt><trkpt lat="50.826526" lon="15.480508"></trkpt><trkpt lat="50.826421" lon="15.480937"></trkpt><trkpt lat="50.826297" lon="15.48132"></trkpt><trkpt lat="50.826247" lon="15.481751"></trkpt><trkpt lat="50.826305" lon="15.482198"></trkpt><trkpt lat="50.826493" lon="15.482737"></trkpt><trkpt lat="50.826542" lon="15.483049"></trkpt><trkpt lat="50.826529" lon="15.483375"></trkpt><trkpt lat="50.826561" lon="15.484339"></trkpt><trkpt lat="50.82672" lon="15.484958"></trkpt><trkpt lat="50.826642" lon="15.485317"></trkpt><trkpt lat="50.826401" lon="15.485208"></trkpt><trkpt lat="50.826096" lon="15.484179"></trkpt><trkpt lat="50.825909" lon="15.483982"></trkpt><trkpt lat="50.825664" lon="15.484045"></trkpt><trkpt lat="50.825438" lon="15.484345"></trkpt><trkpt lat="50.825338" lon="15.484791"></trkpt><trkpt lat="50.825382" lon="15.485098"></trkpt><trkpt lat="50.825473" lon="15.485406"></trkpt><trkpt lat="50.825538" lon="15.485706"></trkpt><trkpt lat="50.825548" lon="15.486041"></trkpt><trkpt lat="50.825502" lon="15.486908"></trkpt><trkpt lat="50.825467" lon="15.48725"></trkpt><trkpt lat="50.825379" lon="15.48755"></trkpt><trkpt lat="50.825246" lon="15.487794"></trkpt><trkpt lat="50.825086" lon="15.487992"></trkpt><trkpt lat="50.824369" lon="15.489042"></trkpt><trkpt lat="50.823982" lon="15.490503"></trkpt><trkpt lat="50.823088" lon="15.495064"></trkpt><trkpt lat="50.82314" lon="15.495375"></trkpt><trkpt lat="50.823229" lon="15.495661"></trkpt><trkpt lat="50.823675" lon="15.496763"></trkpt><trkpt lat="50.823732" lon="15.497155"></trkpt><trkpt lat="50.823666" lon="15.497964"></trkpt><trkpt lat="50.823499" lon="15.498295"></trkpt><trkpt lat="50.82294" lon="15.499644"></trkpt><trkpt lat="50.823077" lon="15.500041"></trkpt><trkpt lat="50.823337" lon="15.500132"></trkpt><trkpt lat="50.823578" lon="15.499938"></trkpt><trkpt lat="50.823831" lon="15.499819"></trkpt><trkpt lat="50.824172" lon="15.500031"></trkpt><trkpt lat="50.824338" lon="15.500402"></trkpt><trkpt lat="50.824678" lon="15.50181"></trkpt><trkpt lat="50.824828" lon="15.50232"></trkpt><trkpt lat="50.824909" lon="15.503119"></trkpt><trkpt lat="50.824812" lon="15.503499"></trkpt><trkpt lat="50.824628" lon="15.503798"></trkpt><trkpt lat="50.824547" lon="15.504146"></trkpt><trkpt lat="50.824692" lon="15.504403"></trkpt><trkpt lat="50.824935" lon="15.504321"></trkpt><trkpt lat="50.825207" lon="15.503999"></trkpt><trkpt lat="50.825431" lon="15.503907"></trkpt><trkpt lat="50.825617" lon="15.504131"></trkpt><trkpt lat="50.825527" lon="15.504458"></trkpt><trkpt lat="50.825378" lon="15.504774"></trkpt><trkpt lat="50.825288" lon="15.505191"></trkpt><trkpt lat="50.825193" lon="15.505796"></trkpt><trkpt lat="50.825091" lon="15.5069"></trkpt><trkpt lat="50.825228" lon="15.507196"></trkpt><trkpt lat="50.825453" lon="15.507284"></trkpt><trkpt lat="50.825903" lon="15.50726"></trkpt><trkpt lat="50.826452" lon="15.507556"></trkpt><trkpt lat="50.826676" lon="15.507803"></trkpt><trkpt lat="50.826823" lon="15.508161"></trkpt><trkpt lat="50.826864" lon="15.508637"></trkpt><trkpt lat="50.826789" lon="15.509061"></trkpt><trkpt lat="50.826666" lon="15.509488"></trkpt><trkpt lat="50.826627" lon="15.509801"></trkpt><trkpt lat="50.82663" lon="15.510129"></trkpt><trkpt lat="50.826677" lon="15.510449"></trkpt><trkpt lat="50.826779" lon="15.510773"></trkpt><trkpt lat="50.826964" lon="15.511266"></trkpt><trkpt lat="50.82789" lon="15.513269"></trkpt><trkpt lat="50.828246" lon="15.513749"></trkpt><trkpt lat="50.828903" lon="15.514811"></trkpt><trkpt lat="50.829125" lon="15.515469"></trkpt><trkpt lat="50.829369" lon="15.516523"></trkpt><trkpt lat="50.829581" lon="15.517188"></trkpt><trkpt lat="50.829701" lon="15.517456"></trkpt><trkpt lat="50.829736" lon="15.517819"></trkpt><trkpt lat="50.829512" lon="15.518183"></trkpt><trkpt lat="50.829331" lon="15.518428"></trkpt><trkpt lat="50.829111" lon="15.518581"></trkpt><trkpt lat="50.828515" lon="15.51888"></trkpt><trkpt lat="50.827883" lon="15.519758"></trkpt><trkpt lat="50.827088" lon="15.520521"></trkpt><trkpt lat="50.826985" lon="15.52082"></trkpt><trkpt lat="50.826905" lon="15.521639"></trkpt><trkpt lat="50.826975" lon="15.521989"></trkpt><trkpt lat="50.826852" lon="15.522316"></trkpt><trkpt lat="50.826512" lon="15.522759"></trkpt><trkpt lat="50.826328" lon="15.523078"></trkpt><trkpt lat="50.826245" lon="15.523413"></trkpt><trkpt lat="50.826184" lon="15.523924"></trkpt><trkpt lat="50.826021" lon="15.524566"></trkpt><trkpt lat="50.825523" lon="15.52516"></trkpt><trkpt lat="50.825286" lon="15.525185"></trkpt><trkpt lat="50.824933" lon="15.524813"></trkpt><trkpt lat="50.824619" lon="15.524376"></trkpt><trkpt lat="50.82434" lon="15.523913"></trkpt><trkpt lat="50.824096" lon="15.523315"></trkpt><trkpt lat="50.823822" lon="15.522841"></trkpt><trkpt lat="50.823649" lon="15.522654"></trkpt><trkpt lat="50.823133" lon="15.522984"></trkpt><trkpt lat="50.822254" lon="15.523416"></trkpt><trkpt lat="50.821757" lon="15.523278"></trkpt><trkpt lat="50.821558" lon="15.523182"></trkpt><trkpt lat="50.821345" lon="15.522877"></trkpt><trkpt lat="50.820847" lon="15.522264"></trkpt><trkpt lat="50.82071" lon="15.522037"></trkpt><trkpt lat="50.820613" lon="15.52175"></trkpt><trkpt lat="50.820438" lon="15.52148"></trkpt><trkpt lat="50.820665" lon="15.521096"></trkpt></trkseg></trk></gpx>