<?xml version="1.0" encoding="UTF-8" standalone="no" ?><gpx xmlns="http://www.topografix.com/GPX/1/1" xmlns:gpxx="http://www.garmin.com/xmlschemas/GpxExtensions/v3" ><trk><trkseg><trkpt lat="50.3386092279" lon="16.3888740912"></trkpt><trkpt lat="50.3385705035" lon="16.3884206302"></trkpt><trkpt lat="50.3382281028" lon="16.3881858531"></trkpt><trkpt lat="50.3382277675" lon="16.3886284176"></trkpt><trkpt lat="50.3385005984" lon="16.389243314"></trkpt><trkpt lat="50.3381616343" lon="16.3892989699"></trkpt><trkpt lat="50.3370967973" lon="16.3889534678"></trkpt><trkpt lat="50.3369965497" lon="16.388553232"></trkpt><trkpt lat="50.3367904387" lon="16.3882058859"></trkpt><trkpt lat="50.3367055301" lon="16.3877906464"></trkpt><trkpt lat="50.3366872575" lon="16.3872578926"></trkpt><trkpt lat="50.3364259936" lon="16.3873770833"></trkpt><trkpt lat="50.3362139314" lon="16.3877289556"></trkpt><trkpt lat="50.3358675074" lon="16.3881035428"></trkpt><trkpt lat="50.3356664255" lon="16.387764914"></trkpt><trkpt lat="50.335054379" lon="16.3885929622"></trkpt><trkpt lat="50.3347428236" lon="16.3887828123"></trkpt><trkpt lat="50.3350765072" lon="16.3885950577"></trkpt><trkpt lat="50.3355473187" lon="16.3884227257"></trkpt><trkpt lat="50.3356717061" lon="16.3879086636"></trkpt><trkpt lat="50.3353814408" lon="16.3882156927"></trkpt><trkpt lat="50.3356420342" lon="16.3885112386"></trkpt><trkpt lat="50.3353821952" lon="16.3887973968"></trkpt><trkpt lat="50.3350220248" lon="16.3888403121"></trkpt><trkpt lat="50.3347518761" lon="16.3890553918"></trkpt><trkpt lat="50.3344299272" lon="16.3890138175"></trkpt><trkpt lat="50.3347605933" lon="16.389013147"></trkpt><trkpt lat="50.335071478" lon="16.3888900168"></trkpt><trkpt lat="50.3354237694" lon="16.3888140768"></trkpt><trkpt lat="50.3357090894" lon="16.388568487"></trkpt><trkpt lat="50.3359901346" lon="16.3881262578"></trkpt><trkpt lat="50.3363304399" lon="16.3873047475"></trkpt><trkpt lat="50.3366074618" lon="16.3870793581"></trkpt><trkpt lat="50.3368054423" lon="16.386744082"></trkpt><trkpt lat="50.3372228611" lon="16.3858194742"></trkpt><trkpt lat="50.3374904115" lon="16.3855831884"></trkpt><trkpt lat="50.337712029" lon="16.3852083497"></trkpt><trkpt lat="50.3379920684" lon="16.3848869037"></trkpt><trkpt lat="50.3382120095" lon="16.3844062015"></trkpt><trkpt lat="50.3384291008" lon="16.3841294311"></trkpt><trkpt lat="50.338649042" lon="16.3837943226"></trkpt><trkpt lat="50.3389238007" lon="16.383506991"></trkpt><trkpt lat="50.3391949553" lon="16.3833331503"></trkpt><trkpt lat="50.3395682015" lon="16.383202225"></trkpt><trkpt lat="50.3398788348" lon="16.3831825275"></trkpt><trkpt lat="50.340189971" lon="16.3828944415"></trkpt><trkpt lat="50.3405286837" lon="16.3827366102"></trkpt><trkpt lat="50.3407915402" lon="16.3825657032"></trkpt><trkpt lat="50.3412470128" lon="16.3821472786"></trkpt><trkpt lat="50.3409778699" lon="16.3824578281"></trkpt><trkpt lat="50.3406191245" lon="16.3826681301"></trkpt><trkpt lat="50.338129783" lon="16.3845555671"></trkpt><trkpt lat="50.3378976043" lon="16.3848889992"></trkpt><trkpt lat="50.3364563361" lon="16.3871712238"></trkpt></trkseg></trk></gpx>