<?xml version="1.0" encoding="UTF-8" standalone="no" ?><gpx xmlns="http://www.topografix.com/GPX/1/1" xmlns:gpxx="http://www.garmin.com/xmlschemas/GpxExtensions/v3" ><trk><trkseg><trkpt lat="50.1509405114" lon="16.6692137159"></trkpt><trkpt lat="50.1512140967" lon="16.6693534423"></trkpt><trkpt lat="50.1513476204" lon="16.6688333452"></trkpt><trkpt lat="50.1511438563" lon="16.6685352847"></trkpt><trkpt lat="50.1510132663" lon="16.6680436861"></trkpt><trkpt lat="50.151336221" lon="16.6676044744"></trkpt><trkpt lat="50.1516432501" lon="16.6674063262"></trkpt><trkpt lat="50.151938796" lon="16.6671091877"></trkpt><trkpt lat="50.1522810291" lon="16.6670393664"></trkpt><trkpt lat="50.153187532" lon="16.6670383606"></trkpt><trkpt lat="50.1535015181" lon="16.6666294914"></trkpt><trkpt lat="50.1539140753" lon="16.6661995836"></trkpt><trkpt lat="50.154195372" lon="16.6659718473"></trkpt><trkpt lat="50.1554550044" lon="16.664688075"></trkpt><trkpt lat="50.1555707585" lon="16.6643007472"></trkpt><trkpt lat="50.1556103211" lon="16.6637923848"></trkpt><trkpt lat="50.1555505581" lon="16.663370356"></trkpt><trkpt lat="50.1556251571" lon="16.6628444754"></trkpt><trkpt lat="50.1559411548" lon="16.6624180879"></trkpt><trkpt lat="50.1568314806" lon="16.6609864589"></trkpt><trkpt lat="50.1573040523" lon="16.6604075208"></trkpt><trkpt lat="50.1578803919" lon="16.6598360427"></trkpt><trkpt lat="50.1583441626" lon="16.6592801549"></trkpt><trkpt lat="50.1585590746" lon="16.6589389276"></trkpt><trkpt lat="50.1592177246" lon="16.658136528"></trkpt><trkpt lat="50.159657523" lon="16.6580768488"></trkpt><trkpt lat="50.1599691622" lon="16.6579883359"></trkpt><trkpt lat="50.1620148495" lon="16.6576958913"></trkpt><trkpt lat="50.1622579247" lon="16.6578901839"></trkpt><trkpt lat="50.1623899397" lon="16.6582838818"></trkpt><trkpt lat="50.1626776904" lon="16.6580859013"></trkpt><trkpt lat="50.1629615016" lon="16.6580433212"></trkpt><trkpt lat="50.1633287128" lon="16.6582335066"></trkpt><trkpt lat="50.1639788132" lon="16.6586942598"></trkpt><trkpt lat="50.1643984951" lon="16.6589221638"></trkpt><trkpt lat="50.1649281476" lon="16.6593424324"></trkpt><trkpt lat="50.1651966199" lon="16.6594235692"></trkpt><trkpt lat="50.1655716263" lon="16.6594809853"></trkpt><trkpt lat="50.1676215045" lon="16.6594984196"></trkpt><trkpt lat="50.1680050604" lon="16.659663124"></trkpt><trkpt lat="50.1685793046" lon="16.6597815603"></trkpt><trkpt lat="50.1689471025" lon="16.6600393038"></trkpt><trkpt lat="50.1693257969" lon="16.660182802"></trkpt><trkpt lat="50.169581864" lon="16.660690913"></trkpt><trkpt lat="50.1697235182" lon="16.6610623989"></trkpt><trkpt lat="50.1699458063" lon="16.6614158638"></trkpt><trkpt lat="50.1702220738" lon="16.661624657"></trkpt><trkpt lat="50.1719355863" lon="16.6633347329"></trkpt><trkpt lat="50.1720989496" lon="16.6636974178"></trkpt><trkpt lat="50.1723514963" lon="16.664050715"></trkpt><trkpt lat="50.1725181285" lon="16.6644771025"></trkpt><trkpt lat="50.1726320386" lon="16.6648876481"></trkpt><trkpt lat="50.1728979964" lon="16.6654468048"></trkpt><trkpt lat="50.1731241401" lon="16.6657229885"></trkpt><trkpt lat="50.1733429078" lon="16.6660611983"></trkpt><trkpt lat="50.1739977021" lon="16.6668993887"></trkpt><trkpt lat="50.1742712874" lon="16.6671846248"></trkpt><trkpt lat="50.1749111619" lon="16.6676789057"></trkpt><trkpt lat="50.175205702" lon="16.6676975973"></trkpt><trkpt lat="50.1755736675" lon="16.6677715257"></trkpt><trkpt lat="50.1777670439" lon="16.667821398"></trkpt><trkpt lat="50.1781241968" lon="16.6676306259"></trkpt><trkpt lat="50.1784815174" lon="16.667672703"></trkpt><trkpt lat="50.1781764161" lon="16.6676126886"></trkpt><trkpt lat="50.1778615918" lon="16.6677276883"></trkpt><trkpt lat="50.1776026748" lon="16.6679894552"></trkpt><trkpt lat="50.1775289141" lon="16.6684398148"></trkpt><trkpt lat="50.177792022" lon="16.6689694673"></trkpt><trkpt lat="50.1779334247" lon="16.6694144625"></trkpt><trkpt lat="50.1782442257" lon="16.6694205813"></trkpt><trkpt lat="50.1804046612" lon="16.669071978"></trkpt><trkpt lat="50.1807008777" lon="16.6688926052"></trkpt><trkpt lat="50.1813109126" lon="16.6684106458"></trkpt><trkpt lat="50.1817005873" lon="16.6682561673"></trkpt><trkpt lat="50.1823451556" lon="16.6681239009"></trkpt><trkpt lat="50.1832062285" lon="16.6684315167"></trkpt><trkpt lat="50.1835406665" lon="16.6686261445"></trkpt><trkpt lat="50.1839958876" lon="16.6689660307"></trkpt><trkpt lat="50.1843299903" lon="16.6692956071"></trkpt><trkpt lat="50.1871812623" lon="16.6713813599"></trkpt><trkpt lat="50.187574625" lon="16.6713309009"></trkpt><trkpt lat="50.1884934492" lon="16.6715927515"></trkpt><trkpt lat="50.1887923479" lon="16.6711473372"></trkpt><trkpt lat="50.1890922524" lon="16.6709587444"></trkpt><trkpt lat="50.1895232499" lon="16.6707610991"></trkpt><trkpt lat="50.1898613758" lon="16.6705222987"></trkpt><trkpt lat="50.1902124938" lon="16.67051333"></trkpt><trkpt lat="50.1917183027" lon="16.6702504735"></trkpt><trkpt lat="50.191962719" lon="16.6707539745"></trkpt><trkpt lat="50.1919838414" lon="16.6712133866"></trkpt><trkpt lat="50.1920588594" lon="16.6717133671"></trkpt><trkpt lat="50.1921315305" lon="16.6725274175"></trkpt><trkpt lat="50.1922209654" lon="16.6760562826"></trkpt><trkpt lat="50.1921763737" lon="16.676683249"></trkpt><trkpt lat="50.1921450254" lon="16.6816411447"></trkpt><trkpt lat="50.1922011841" lon="16.6822217591"></trkpt><trkpt lat="50.1940376591" lon="16.6961713415"></trkpt><trkpt lat="50.1940447837" lon="16.6966156662"></trkpt><trkpt lat="50.1939553488" lon="16.6970269661"></trkpt><trkpt lat="50.1938225795" lon="16.6974527668"></trkpt><trkpt lat="50.1937998645" lon="16.6980931442"></trkpt><trkpt lat="50.1938271895" lon="16.6985455994"></trkpt><trkpt lat="50.1938282792" lon="16.6992959473"></trkpt><trkpt lat="50.1935849525" lon="16.7034703027"></trkpt><trkpt lat="50.1936221682" lon="16.7043301184"></trkpt><trkpt lat="50.1936846972" lon="16.7048181966"></trkpt><trkpt lat="50.1938309614" lon="16.7077286448"></trkpt><trkpt lat="50.1936897263" lon="16.7081058305"></trkpt><trkpt lat="50.1934736408" lon="16.7084218282"></trkpt><trkpt lat="50.1930954494" lon="16.7086681724"></trkpt><trkpt lat="50.192650957" lon="16.7088711821"></trkpt><trkpt lat="50.1897415146" lon="16.7097691353"></trkpt><trkpt lat="50.1893857867" lon="16.7098258808"></trkpt><trkpt lat="50.1801584009" lon="16.7105665058"></trkpt><trkpt lat="50.1798706502" lon="16.7106458824"></trkpt><trkpt lat="50.1792623755" lon="16.7109766323"></trkpt><trkpt lat="50.179009242" lon="16.711414"></trkpt><trkpt lat="50.1786768995" lon="16.7115678079"></trkpt><trkpt lat="50.1784795057" lon="16.7111781333"></trkpt><trkpt lat="50.1787163783" lon="16.7116393056"></trkpt><trkpt lat="50.1785510872" lon="16.7121815309"></trkpt><trkpt lat="50.1783310622" lon="16.7124956846"></trkpt><trkpt lat="50.1775885932" lon="16.7132164445"></trkpt><trkpt lat="50.1773281675" lon="16.712810928"></trkpt><trkpt lat="50.1771337073" lon="16.7123971134"></trkpt><trkpt lat="50.1767338067" lon="16.7116870824"></trkpt><trkpt lat="50.1701185573" lon="16.7018935829"></trkpt><trkpt lat="50.1697713789" lon="16.7017502524"></trkpt><trkpt lat="50.1676292997" lon="16.7005394865"></trkpt><trkpt lat="50.1674340013" lon="16.700182585"></trkpt><trkpt lat="50.167109035" lon="16.6998016275"></trkpt><trkpt lat="50.1668295823" lon="16.6993877292"></trkpt><trkpt lat="50.1622291747" lon="16.6936899628"></trkpt><trkpt lat="50.1619904581" lon="16.6934786551"></trkpt><trkpt lat="50.1607220247" lon="16.6920927912"></trkpt><trkpt lat="50.1600179449" lon="16.6914621368"></trkpt><trkpt lat="50.1590828598" lon="16.6903995629"></trkpt><trkpt lat="50.1588583086" lon="16.6898498777"></trkpt><trkpt lat="50.1572462171" lon="16.6849703528"></trkpt><trkpt lat="50.1572799962" lon="16.6844879743"></trkpt><trkpt lat="50.1572850253" lon="16.6826938279"></trkpt><trkpt lat="50.1572341472" lon="16.682215305"></trkpt><trkpt lat="50.1569727156" lon="16.6765154433"></trkpt><trkpt lat="50.1570549421" lon="16.6760815959"></trkpt><trkpt lat="50.1577083115" lon="16.6709818784"></trkpt><trkpt lat="50.1573863626" lon="16.6710367799"></trkpt><trkpt lat="50.1556173619" lon="16.6710731573"></trkpt><trkpt lat="50.1550942473" lon="16.6709742509"></trkpt><trkpt lat="50.154721085" lon="16.6708096303"></trkpt><trkpt lat="50.1512883604" lon="16.6687624343"></trkpt><trkpt lat="50.1510248333" lon="16.668336885"></trkpt><trkpt lat="50.1507479791" lon="16.6679871082"></trkpt><trkpt lat="50.1503808517" lon="16.6678838432"></trkpt><trkpt lat="50.1499438193" lon="16.66766298"></trkpt><trkpt lat="50.1495874207" lon="16.6673763189"></trkpt><trkpt lat="50.1487095002" lon="16.6668446548"></trkpt><trkpt lat="50.1484355796" lon="16.666795956"></trkpt><trkpt lat="50.1479961164" lon="16.6666507814"></trkpt><trkpt lat="50.1481903251" lon="16.6662596818"></trkpt><trkpt lat="50.1482288819" lon="16.6655826755"></trkpt><trkpt lat="50.1480915025" lon="16.6663629469"></trkpt><trkpt lat="50.1480350085" lon="16.666874662"></trkpt><trkpt lat="50.1483065821" lon="16.6672015563"></trkpt><trkpt lat="50.1487236656" lon="16.6673590522"></trkpt><trkpt lat="50.1490567625" lon="16.6673610639"></trkpt><trkpt lat="50.1493874285" lon="16.6674302984"></trkpt><trkpt lat="50.1496760175" lon="16.6675644927"></trkpt><trkpt lat="50.1500190049" lon="16.6678596195"></trkpt><trkpt lat="50.1504178159" lon="16.6676840186"></trkpt><trkpt lat="50.1507444587" lon="16.6679698415"></trkpt><trkpt lat="50.1509813312" lon="16.6682793852"></trkpt><trkpt lat="50.1512196288" lon="16.6686706524"></trkpt><trkpt lat="50.1512870193" lon="16.6691590659"></trkpt><trkpt lat="50.1510076504" lon="16.6693287995"></trkpt><trkpt lat="50.1507032197" lon="16.6692629177"></trkpt><trkpt lat="50.1505484059" lon="16.669695843"></trkpt><trkpt lat="50.1504225098" lon="16.6701743659"></trkpt><trkpt lat="50.150235258" lon="16.6711288132"></trkpt><trkpt lat="50.1502186619" lon="16.6717033926"></trkpt><trkpt lat="50.1500917599" lon="16.6731237061"></trkpt><trkpt lat="50.150240371" lon="16.673576748"></trkpt><trkpt lat="50.1505064126" lon="16.6738132015"></trkpt><trkpt lat="50.1509682555" lon="16.6743616294"></trkpt><trkpt lat="50.1508514117" lon="16.6749330238"></trkpt><trkpt lat="50.1507401839" lon="16.675338624"></trkpt><trkpt lat="50.1505856216" lon="16.676101964"></trkpt><trkpt lat="50.1503354218" lon="16.6778723896"></trkpt><trkpt lat="50.1498608384" lon="16.6836166754"></trkpt><trkpt lat="50.1496318448" lon="16.694314247"></trkpt><trkpt lat="50.1497311704" lon="16.6948735714"></trkpt><trkpt lat="50.1499311626" lon="16.6956922319"></trkpt><trkpt lat="50.1501937676" lon="16.6958993487"></trkpt><trkpt lat="50.1504184864" lon="16.6963976528"></trkpt><trkpt lat="50.1505554467" lon="16.6968833841"></trkpt><trkpt lat="50.150645636" lon="16.6973158903"></trkpt><trkpt lat="50.15085686" lon="16.6978479736"></trkpt><trkpt lat="50.1510556787" lon="16.6981425975"></trkpt><trkpt lat="50.1511295233" lon="16.6985512991"></trkpt><trkpt lat="50.1514019351" lon="16.698796805"></trkpt><trkpt lat="50.15177669" lon="16.6989319213"></trkpt><trkpt lat="50.1520699728" lon="16.6990983859"></trkpt><trkpt lat="50.152307013" lon="16.6993644275"></trkpt><trkpt lat="50.1525065023" lon="16.6997303814"></trkpt><trkpt lat="50.1526608132" lon="16.7002286017"></trkpt><trkpt lat="50.1527582947" lon="16.7007235531"></trkpt><trkpt lat="50.1528054848" lon="16.7012620065"></trkpt><trkpt lat="50.1530190557" lon="16.701596193"></trkpt><trkpt lat="50.1532869413" lon="16.7018826865"></trkpt><trkpt lat="50.1535340399" lon="16.7023403384"></trkpt><trkpt lat="50.1537151728" lon="16.7028145026"></trkpt><trkpt lat="50.1540855691" lon="16.7040548567"></trkpt><trkpt lat="50.1541052666" lon="16.7045453656"></trkpt><trkpt lat="50.1542609185" lon="16.7051032651"></trkpt><trkpt lat="50.1544558816" lon="16.7055022437"></trkpt><trkpt lat="50.154609438" lon="16.7059519328"></trkpt><trkpt lat="50.1548701152" lon="16.7064567748"></trkpt><trkpt lat="50.1551082451" lon="16.7066993471"></trkpt><trkpt lat="50.1548748091" lon="16.7064542603"></trkpt><trkpt lat="50.1546549518" lon="16.7060752306"></trkpt><trkpt lat="50.154532576" lon="16.7056518607"></trkpt><trkpt lat="50.1543423906" lon="16.7052652035"></trkpt><trkpt lat="50.1541205216" lon="16.7046876904"></trkpt><trkpt lat="50.1540776063" lon="16.7041180562"></trkpt><trkpt lat="50.153990183" lon="16.7036544532"></trkpt><trkpt lat="50.1538683102" lon="16.7032262217"></trkpt><trkpt lat="50.1536507998" lon="16.7026703339"></trkpt><trkpt lat="50.1531652361" lon="16.7017178982"></trkpt><trkpt lat="50.1528141182" lon="16.7014283035"></trkpt><trkpt lat="50.152784111" lon="16.7009821348"></trkpt><trkpt lat="50.1526864618" lon="16.7005513888"></trkpt><trkpt lat="50.1526084263" lon="16.7000095826"></trkpt><trkpt lat="50.1524583902" lon="16.6996479873"></trkpt><trkpt lat="50.1522543747" lon="16.6992726456"></trkpt><trkpt lat="50.1519997325" lon="16.6990188416"></trkpt><trkpt lat="50.1517165918" lon="16.6988538858"></trkpt><trkpt lat="50.1513101533" lon="16.6987590864"></trkpt><trkpt lat="50.1510876138" lon="16.6984663904"></trkpt><trkpt lat="50.1510245819" lon="16.69805157"></trkpt><trkpt lat="50.1508192252" lon="16.6977624781"></trkpt><trkpt lat="50.1506583765" lon="16.6974133719"></trkpt><trkpt lat="50.1505670138" lon="16.6969823744"></trkpt><trkpt lat="50.1504261978" lon="16.6965071205"></trkpt><trkpt lat="50.1502234396" lon="16.6959780548"></trkpt><trkpt lat="50.1499417238" lon="16.6957320459"></trkpt><trkpt lat="50.1497903466" lon="16.6953259427"></trkpt><trkpt lat="50.1497051027" lon="16.6948240343"></trkpt><trkpt lat="50.1492515579" lon="16.6906116251"></trkpt><trkpt lat="50.1492658071" lon="16.690154057"></trkpt><trkpt lat="50.1493688207" lon="16.6897477023"></trkpt><trkpt lat="50.1494365465" lon="16.6893040482"></trkpt><trkpt lat="50.1495806314" lon="16.6877236404"></trkpt><trkpt lat="50.1495906059" lon="16.6872549243"></trkpt><trkpt lat="50.1503780019" lon="16.6771049425"></trkpt><trkpt lat="50.1504917443" lon="16.6765198018"></trkpt><trkpt lat="50.1507438719" lon="16.6740695201"></trkpt><trkpt lat="50.1504572947" lon="16.673790738"></trkpt><trkpt lat="50.1500595734" lon="16.6733139753"></trkpt><trkpt lat="50.1501293946" lon="16.6727248952"></trkpt><trkpt lat="50.1501588151" lon="16.672215024"></trkpt><trkpt lat="50.1501585636" lon="16.6694495827"></trkpt><trkpt lat="50.1499636844" lon="16.6690749954"></trkpt><trkpt lat="50.1497326791" lon="16.6687874962"></trkpt><trkpt lat="50.1496678032" lon="16.6683009267"></trkpt><trkpt lat="50.1497714035" lon="16.6678346414"></trkpt><trkpt lat="50.1495026797" lon="16.6674774885"></trkpt><trkpt lat="50.1493490394" lon="16.667124778"></trkpt><trkpt lat="50.149124153" lon="16.6668809485"></trkpt><trkpt lat="50.1488498133" lon="16.6667304095"></trkpt><trkpt lat="50.1485323906" lon="16.6668517794"></trkpt><trkpt lat="50.1479602419" lon="16.6665276513"></trkpt><trkpt lat="50.1481748186" lon="16.6661720909"></trkpt><trkpt lat="50.1484703645" lon="16.6660388187"></trkpt><trkpt lat="50.148167694" lon="16.6662427504"></trkpt><trkpt lat="50.147937946" lon="16.6665862408"></trkpt><trkpt lat="50.1476699766" lon="16.6664978955"></trkpt><trkpt lat="50.1474347804" lon="16.6662865877"></trkpt><trkpt lat="50.1470553316" lon="16.6662185267"></trkpt><trkpt lat="50.1467723586" lon="16.6663181037"></trkpt><trkpt lat="50.1464616414" lon="16.666329084"></trkpt><trkpt lat="50.146141788" lon="16.6660818178"></trkpt><trkpt lat="50.1460451446" lon="16.6655605473"></trkpt><trkpt lat="50.1459181588" lon="16.6651828587"></trkpt><trkpt lat="50.1456622593" lon="16.6649432201"></trkpt><trkpt lat="50.1452828944" lon="16.6644537169"></trkpt><trkpt lat="50.1450328622" lon="16.6640606057"></trkpt><trkpt lat="50.1444942411" lon="16.6634006985"></trkpt><trkpt lat="50.1442432869" lon="16.6631618142"></trkpt><trkpt lat="50.1440346614" lon="16.6628186591"></trkpt><trkpt lat="50.1439909078" lon="16.6623376217"></trkpt><trkpt lat="50.1437227707" lon="16.660667276"></trkpt><trkpt lat="50.1436042506" lon="16.660268968"></trkpt><trkpt lat="50.1435454935" lon="16.6598476935"></trkpt><trkpt lat="50.1432694774" lon="16.6561695468"></trkpt><trkpt lat="50.1433517039" lon="16.6556980647"></trkpt><trkpt lat="50.1431777794" lon="16.6553741042"></trkpt><trkpt lat="50.1433491055" lon="16.6550425161"></trkpt><trkpt lat="50.1437062584" lon="16.6551161092"></trkpt><trkpt lat="50.1438898221" lon="16.6550130118"></trkpt></trkseg></trk></gpx>