<?xml version="1.0" encoding="UTF-8" standalone="no" ?><gpx xmlns="http://www.topografix.com/GPX/1/1" xmlns:gpxx="http://www.garmin.com/xmlschemas/GpxExtensions/v3" ><trk><trkseg><trkpt lat="49.5828281064" lon="20.0082128216"></trkpt><trkpt lat="49.5829939842" lon="20.0078492984"></trkpt><trkpt lat="49.5830002706" lon="20.0072159618"></trkpt><trkpt lat="49.5829592831" lon="20.0068019796"></trkpt><trkpt lat="49.5829884522" lon="20.0049083401"></trkpt><trkpt lat="49.5832359698" lon="20.0045405421"></trkpt><trkpt lat="49.5836440008" lon="20.0038041919"></trkpt><trkpt lat="49.5838008262" lon="20.003372021"></trkpt><trkpt lat="49.5840638503" lon="20.0028183125"></trkpt><trkpt lat="49.584206678" lon="20.0024223514"></trkpt><trkpt lat="49.5843743999" lon="20.0018112268"></trkpt><trkpt lat="49.5846177265" lon="20.0011710171"></trkpt><trkpt lat="49.5848364104" lon="20.000759298"></trkpt><trkpt lat="49.5850948244" lon="20.0003837049"></trkpt><trkpt lat="49.5858991519" lon="19.998955261"></trkpt><trkpt lat="49.5860332623" lon="19.9985903129"></trkpt><trkpt lat="49.5878158417" lon="19.9946583621"></trkpt><trkpt lat="49.5881581586" lon="19.9947412591"></trkpt><trkpt lat="49.5884775091" lon="19.9948757049"></trkpt><trkpt lat="49.5888005476" lon="19.9948951509"></trkpt><trkpt lat="49.5890965965" lon="19.9950711709"></trkpt><trkpt lat="49.5895135123" lon="19.9951620307"></trkpt><trkpt lat="49.5904573984" lon="19.995565284"></trkpt><trkpt lat="49.590670215" lon="19.9960236065"></trkpt><trkpt lat="49.5907323249" lon="19.9965494033"></trkpt><trkpt lat="49.590976825" lon="19.9968084879"></trkpt><trkpt lat="49.5912670065" lon="19.9968423508"></trkpt><trkpt lat="49.5916056354" lon="19.9969892018"></trkpt><trkpt lat="49.5918700844" lon="19.9971440993"></trkpt><trkpt lat="49.5920688193" lon="19.997459678"></trkpt><trkpt lat="49.5922779478" lon="19.9977316707"></trkpt><trkpt lat="49.5925342664" lon="19.9979756679"></trkpt><trkpt lat="49.5928050857" lon="19.9978176691"></trkpt><trkpt lat="49.5931186527" lon="19.9978430662"></trkpt><trkpt lat="49.5933603868" lon="19.998112293"></trkpt><trkpt lat="49.593540933" lon="19.9984852038"></trkpt><trkpt lat="49.5936135203" lon="19.9990407564"></trkpt><trkpt lat="49.5939209685" lon="19.9994295929"></trkpt><trkpt lat="49.5942091383" lon="19.9996655434"></trkpt><trkpt lat="49.5945151616" lon="19.9996043555"></trkpt><trkpt lat="49.5953049045" lon="19.9995723367"></trkpt><trkpt lat="49.5955437887" lon="19.9993376434"></trkpt><trkpt lat="49.5958395861" lon="19.9992617872"></trkpt><trkpt lat="49.5960906241" lon="19.9988063145"></trkpt><trkpt lat="49.5977014583" lon="19.9963642471"></trkpt><trkpt lat="49.5979717746" lon="19.9962183181"></trkpt><trkpt lat="49.5987828914" lon="19.9959679507"></trkpt><trkpt lat="49.6033042576" lon="19.9938273802"></trkpt><trkpt lat="49.6034320816" lon="19.9933218677"></trkpt><trkpt lat="49.6036363486" lon="19.9921603035"></trkpt><trkpt lat="49.6054133959" lon="19.97841876"></trkpt><trkpt lat="49.6056079399" lon="19.9773943238"></trkpt><trkpt lat="49.6058188286" lon="19.9769282062"></trkpt><trkpt lat="49.6060384344" lon="19.9765859731"></trkpt><trkpt lat="49.6062930766" lon="19.9761073664"></trkpt><trkpt lat="49.606606476" lon="19.9756233953"></trkpt><trkpt lat="49.606809821" lon="19.9752415158"></trkpt><trkpt lat="49.6069528162" lon="19.9747628253"></trkpt><trkpt lat="49.6077644359" lon="19.971268326"></trkpt><trkpt lat="49.607805172" lon="19.9707857799"></trkpt><trkpt lat="49.6080187429" lon="19.9696293287"></trkpt><trkpt lat="49.6082344931" lon="19.9687719438"></trkpt><trkpt lat="49.6084170509" lon="19.9683325645"></trkpt><trkpt lat="49.6106941625" lon="19.9637852982"></trkpt><trkpt lat="49.610518394" lon="19.9642269406"></trkpt><trkpt lat="49.6103593055" lon="19.9647489656"></trkpt><trkpt lat="49.6105575375" lon="19.9650339503"></trkpt><trkpt lat="49.6108520776" lon="19.9628533144"></trkpt></trkseg></trk></gpx>