<?xml version="1.0" encoding="UTF-8" standalone="no" ?><gpx xmlns="http://www.topografix.com/GPX/1/1" xmlns:gpxx="http://www.garmin.com/xmlschemas/GpxExtensions/v3" ><trk><trkseg><trkpt lat="52.748228" lon="17.183026"></trkpt><trkpt lat="52.753959" lon="17.183295"></trkpt><trkpt lat="52.75647" lon="17.183714"></trkpt><trkpt lat="52.782965" lon="17.188474"></trkpt><trkpt lat="52.80175" lon="17.194466"></trkpt><trkpt lat="52.802041" lon="17.194729"></trkpt><trkpt lat="52.804797" lon="17.1968"></trkpt><trkpt lat="52.80484" lon="17.196475"></trkpt><trkpt lat="52.804854" lon="17.195454"></trkpt><trkpt lat="52.804915" lon="17.195131"></trkpt><trkpt lat="52.80536" lon="17.1945"></trkpt><trkpt lat="52.805572" lon="17.194152"></trkpt><trkpt lat="52.806505" lon="17.192878"></trkpt><trkpt lat="52.807234" lon="17.192559"></trkpt><trkpt lat="52.807517" lon="17.192508"></trkpt><trkpt lat="52.807687" lon="17.192271"></trkpt><trkpt lat="52.807768" lon="17.191445"></trkpt><trkpt lat="52.808161" lon="17.188792"></trkpt><trkpt lat="52.80843" lon="17.188695"></trkpt><trkpt lat="52.834315" lon="17.17767"></trkpt><trkpt lat="52.836254" lon="17.177122"></trkpt><trkpt lat="52.838846" lon="17.17607"></trkpt><trkpt lat="52.841942" lon="17.174203"></trkpt><trkpt lat="52.842139" lon="17.173744"></trkpt><trkpt lat="52.854237" lon="17.149608"></trkpt><trkpt lat="52.855002" lon="17.149657"></trkpt><trkpt lat="52.856417" lon="17.149385"></trkpt><trkpt lat="52.856565" lon="17.149158"></trkpt><trkpt lat="52.877407" lon="17.121363"></trkpt><trkpt lat="52.877622" lon="17.121116"></trkpt><trkpt lat="52.878046" lon="17.120525"></trkpt><trkpt lat="52.878083" lon="17.120157"></trkpt><trkpt lat="52.878068" lon="17.119227"></trkpt><trkpt lat="52.878017" lon="17.118897"></trkpt><trkpt lat="52.877879" lon="17.11707"></trkpt><trkpt lat="52.877995" lon="17.116107"></trkpt><trkpt lat="52.878016" lon="17.115627"></trkpt><trkpt lat="52.878229" lon="17.115648"></trkpt><trkpt lat="52.878541" lon="17.115553"></trkpt><trkpt lat="52.878842" lon="17.114938"></trkpt><trkpt lat="52.878927" lon="17.114603"></trkpt><trkpt lat="52.878973" lon="17.114269"></trkpt><trkpt lat="52.879002" lon="17.113731"></trkpt><trkpt lat="52.879163" lon="17.113063"></trkpt><trkpt lat="52.879419" lon="17.112677"></trkpt><trkpt lat="52.880014" lon="17.112121"></trkpt><trkpt lat="52.880302" lon="17.111926"></trkpt><trkpt lat="52.880561" lon="17.111842"></trkpt><trkpt lat="52.881103" lon="17.111736"></trkpt><trkpt lat="52.881852" lon="17.111493"></trkpt><trkpt lat="52.882098" lon="17.111381"></trkpt><trkpt lat="52.882033" lon="17.111786"></trkpt><trkpt lat="52.882118" lon="17.112105"></trkpt><trkpt lat="52.881973" lon="17.11165"></trkpt><trkpt lat="52.881813" lon="17.11144"></trkpt><trkpt lat="52.881407" lon="17.111569"></trkpt><trkpt lat="52.881128" lon="17.111537"></trkpt><trkpt lat="52.881244" lon="17.110621"></trkpt><trkpt lat="52.881413" lon="17.109738"></trkpt><trkpt lat="52.882536" lon="17.106146"></trkpt><trkpt lat="52.88307" lon="17.105539"></trkpt><trkpt lat="52.905361" lon="17.079842"></trkpt><trkpt lat="52.906253" lon="17.079111"></trkpt><trkpt lat="52.909936" lon="17.074709"></trkpt><trkpt lat="52.909755" lon="17.073754"></trkpt><trkpt lat="52.908803" lon="17.067109"></trkpt><trkpt lat="52.909025" lon="17.067066"></trkpt><trkpt lat="52.909928" lon="17.067355"></trkpt><trkpt lat="52.910118" lon="17.067578"></trkpt><trkpt lat="52.910626" lon="17.068684"></trkpt><trkpt lat="52.912725" lon="17.072282"></trkpt><trkpt lat="52.913875" lon="17.072955"></trkpt><trkpt lat="52.919561" lon="17.074845"></trkpt><trkpt lat="52.920583" lon="17.073509"></trkpt><trkpt lat="52.92333" lon="17.070686"></trkpt><trkpt lat="52.924051" lon="17.070741"></trkpt><trkpt lat="52.924796" lon="17.070902"></trkpt><trkpt lat="52.933488" lon="17.074318"></trkpt><trkpt lat="52.93372" lon="17.074548"></trkpt><trkpt lat="52.933988" lon="17.074634"></trkpt><trkpt lat="52.934918" lon="17.074572"></trkpt><trkpt lat="52.947782" lon="17.076964"></trkpt><trkpt lat="52.948052" lon="17.077069"></trkpt><trkpt lat="52.948844" lon="17.077168"></trkpt><trkpt lat="52.949584" lon="17.077356"></trkpt><trkpt lat="52.950223" lon="17.077312"></trkpt><trkpt lat="52.950982" lon="17.077019"></trkpt><trkpt lat="52.951641" lon="17.076629"></trkpt><trkpt lat="52.952576" lon="17.076236"></trkpt><trkpt lat="52.953182" lon="17.076135"></trkpt><trkpt lat="52.954106" lon="17.075705"></trkpt><trkpt lat="52.954546" lon="17.075286"></trkpt><trkpt lat="52.954993" lon="17.074776"></trkpt><trkpt lat="52.955605" lon="17.07445"></trkpt><trkpt lat="52.956117" lon="17.074301"></trkpt><trkpt lat="52.961653" lon="17.073644"></trkpt><trkpt lat="52.962587" lon="17.074042"></trkpt><trkpt lat="52.963438" lon="17.074575"></trkpt><trkpt lat="52.963586" lon="17.074845"></trkpt><trkpt lat="52.964175" lon="17.075712"></trkpt><trkpt lat="52.96446" lon="17.075804"></trkpt><trkpt lat="52.965122" lon="17.075844"></trkpt><trkpt lat="52.965384" lon="17.075988"></trkpt><trkpt lat="52.96612" lon="17.076757"></trkpt><trkpt lat="52.96652" lon="17.076924"></trkpt><trkpt lat="52.966997" lon="17.076928"></trkpt><trkpt lat="52.967731" lon="17.077066"></trkpt><trkpt lat="52.970444" lon="17.078007"></trkpt><trkpt lat="52.970499" lon="17.079235"></trkpt><trkpt lat="52.970422" lon="17.080282"></trkpt><trkpt lat="52.970557" lon="17.080584"></trkpt><trkpt lat="52.970789" lon="17.080619"></trkpt><trkpt lat="52.972883" lon="17.081214"></trkpt><trkpt lat="52.972912" lon="17.081705"></trkpt><trkpt lat="52.973117" lon="17.08188"></trkpt><trkpt lat="52.97384" lon="17.081735"></trkpt><trkpt lat="52.975123" lon="17.081659"></trkpt><trkpt lat="52.975592" lon="17.081958"></trkpt><trkpt lat="52.975861" lon="17.082054"></trkpt><trkpt lat="52.976091" lon="17.08102"></trkpt><trkpt lat="52.976419" lon="17.079827"></trkpt><trkpt lat="52.97662" lon="17.079918"></trkpt><trkpt lat="52.977798" lon="17.081012"></trkpt><trkpt lat="52.978264" lon="17.081689"></trkpt><trkpt lat="52.978867" lon="17.082738"></trkpt><trkpt lat="52.978778" lon="17.083164"></trkpt><trkpt lat="52.978733" lon="17.083889"></trkpt><trkpt lat="52.978646" lon="17.084554"></trkpt><trkpt lat="52.978714" lon="17.084931"></trkpt><trkpt lat="52.978914" lon="17.085127"></trkpt><trkpt lat="52.979099" lon="17.085348"></trkpt><trkpt lat="52.980295" lon="17.086499"></trkpt><trkpt lat="52.980403" lon="17.085951"></trkpt><trkpt lat="52.980685" lon="17.084876"></trkpt><trkpt lat="52.981316" lon="17.081782"></trkpt><trkpt lat="52.981453" lon="17.081507"></trkpt><trkpt lat="52.982129" lon="17.080892"></trkpt><trkpt lat="52.982488" lon="17.080164"></trkpt><trkpt lat="52.982645" lon="17.079779"></trkpt><trkpt lat="52.982805" lon="17.079447"></trkpt><trkpt lat="52.983764" lon="17.077815"></trkpt><trkpt lat="52.983998" lon="17.077595"></trkpt><trkpt lat="52.98432" lon="17.076924"></trkpt><trkpt lat="52.985885" lon="17.074614"></trkpt><trkpt lat="52.986294" lon="17.074312"></trkpt><trkpt lat="52.996074" lon="17.065117"></trkpt><trkpt lat="52.996362" lon="17.063912"></trkpt><trkpt lat="52.99648" lon="17.063247"></trkpt><trkpt lat="52.996545" lon="17.061724"></trkpt><trkpt lat="52.996709" lon="17.060077"></trkpt><trkpt lat="52.997313" lon="17.059003"></trkpt><trkpt lat="52.998504" lon="17.05718"></trkpt><trkpt lat="52.998968" lon="17.056731"></trkpt><trkpt lat="53.000362" lon="17.055056"></trkpt><trkpt lat="53.000499" lon="17.05459"></trkpt><trkpt lat="53.000673" lon="17.053846"></trkpt><trkpt lat="53.000906" lon="17.052454"></trkpt><trkpt lat="53.000897" lon="17.051789"></trkpt><trkpt lat="53.000918" lon="17.051445"></trkpt><trkpt lat="53.001145" lon="17.050211"></trkpt><trkpt lat="53.001496" lon="17.048756"></trkpt><trkpt lat="53.001644" lon="17.048448"></trkpt><trkpt lat="53.002045" lon="17.047875"></trkpt><trkpt lat="53.006458" lon="17.042661"></trkpt><trkpt lat="53.007011" lon="17.042542"></trkpt><trkpt lat="53.010816" lon="17.04092"></trkpt><trkpt lat="53.010638" lon="17.04059"></trkpt><trkpt lat="53.009557" lon="17.037986"></trkpt><trkpt lat="53.009636" lon="17.036901"></trkpt><trkpt lat="53.009981" lon="17.02354"></trkpt><trkpt lat="53.009939" lon="17.023195"></trkpt><trkpt lat="53.009029" lon="17.011268"></trkpt><trkpt lat="53.009129" lon="17.010544"></trkpt><trkpt lat="53.010649" lon="17.002581"></trkpt><trkpt lat="53.011156" lon="17.001797"></trkpt><trkpt lat="53.012897" lon="16.998581"></trkpt><trkpt lat="53.012563" lon="16.997276"></trkpt><trkpt lat="53.003704" lon="16.954621"></trkpt><trkpt lat="53.003615" lon="16.953299"></trkpt><trkpt lat="53.00356" lon="16.948538"></trkpt><trkpt lat="53.00329" lon="16.947528"></trkpt><trkpt lat="52.996985" lon="16.918444"></trkpt><trkpt lat="52.997635" lon="16.917994"></trkpt><trkpt lat="53.010676" lon="16.911192"></trkpt><trkpt lat="53.011448" lon="16.911418"></trkpt><trkpt lat="53.012793" lon="16.911233"></trkpt><trkpt lat="53.013076" lon="16.910994"></trkpt><trkpt lat="53.016698" lon="16.90737"></trkpt><trkpt lat="53.019207" lon="16.904441"></trkpt><trkpt lat="53.019278" lon="16.904103"></trkpt><trkpt lat="53.019251" lon="16.903725"></trkpt><trkpt lat="53.019368" lon="16.903395"></trkpt><trkpt lat="53.019908" lon="16.902694"></trkpt><trkpt lat="53.021118" lon="16.900772"></trkpt><trkpt lat="53.021866" lon="16.899362"></trkpt><trkpt lat="53.025401" lon="16.891376"></trkpt><trkpt lat="53.025858" lon="16.889857"></trkpt><trkpt lat="53.026788" lon="16.887301"></trkpt><trkpt lat="53.027217" lon="16.887082"></trkpt><trkpt lat="53.051251" lon="16.877891"></trkpt><trkpt lat="53.051751" lon="16.878647"></trkpt><trkpt lat="53.052709" lon="16.879875"></trkpt><trkpt lat="53.052913" lon="16.879888"></trkpt><trkpt lat="53.05312" lon="16.879802"></trkpt><trkpt lat="53.053314" lon="16.879611"></trkpt><trkpt lat="53.053473" lon="16.879346"></trkpt><trkpt lat="53.054125" lon="16.877628"></trkpt><trkpt lat="53.054643" lon="16.876544"></trkpt><trkpt lat="53.054865" lon="16.876324"></trkpt><trkpt lat="53.055258" lon="16.876163"></trkpt><trkpt lat="53.056154" lon="16.876211"></trkpt><trkpt lat="53.082991" lon="16.877186"></trkpt><trkpt lat="53.096384" lon="16.880084"></trkpt><trkpt lat="53.096743" lon="16.881321"></trkpt><trkpt lat="53.097061" lon="16.882203"></trkpt><trkpt lat="53.097297" lon="16.882328"></trkpt><trkpt lat="53.09821" lon="16.882448"></trkpt><trkpt lat="53.100598" lon="16.882418"></trkpt><trkpt lat="53.10078" lon="16.881852"></trkpt><trkpt lat="53.101509" lon="16.878335"></trkpt><trkpt lat="53.101554" lon="16.87713"></trkpt><trkpt lat="53.101351" lon="16.844552"></trkpt><trkpt lat="53.100827" lon="16.843881"></trkpt><trkpt lat="53.099892" lon="16.842456"></trkpt><trkpt lat="53.100086" lon="16.841471"></trkpt><trkpt lat="53.100551" lon="16.839571"></trkpt><trkpt lat="53.101237" lon="16.837347"></trkpt><trkpt lat="53.101572" lon="16.836035"></trkpt><trkpt lat="53.101557" lon="16.83564"></trkpt><trkpt lat="53.101336" lon="16.835288"></trkpt><trkpt lat="53.100806" lon="16.834803"></trkpt><trkpt lat="53.098592" lon="16.832366"></trkpt><trkpt lat="53.098828" lon="16.831335"></trkpt><trkpt lat="53.098873" lon="16.830954"></trkpt><trkpt lat="53.098846" lon="16.830565"></trkpt><trkpt lat="53.09868" lon="16.829478"></trkpt><trkpt lat="53.097468" lon="16.823711"></trkpt><trkpt lat="53.097139" lon="16.822562"></trkpt><trkpt lat="53.096818" lon="16.821156"></trkpt><trkpt lat="53.096782" lon="16.820822"></trkpt><trkpt lat="53.095685" lon="16.813631"></trkpt><trkpt lat="53.095386" lon="16.813435"></trkpt><trkpt lat="53.094822" lon="16.812696"></trkpt><trkpt lat="53.094671" lon="16.812242"></trkpt><trkpt lat="53.094573" lon="16.811656"></trkpt><trkpt lat="53.094535" lon="16.810869"></trkpt><trkpt lat="53.094518" lon="16.800963"></trkpt><trkpt lat="53.095369" lon="16.800663"></trkpt><trkpt lat="53.095724" lon="16.800478"></trkpt><trkpt lat="53.095875" lon="16.800222"></trkpt><trkpt lat="53.096359" lon="16.798787"></trkpt><trkpt lat="53.098996" lon="16.792135"></trkpt><trkpt lat="53.099343" lon="16.791521"></trkpt><trkpt lat="53.099471" lon="16.791158"></trkpt><trkpt lat="53.100228" lon="16.789396"></trkpt><trkpt lat="53.100474" lon="16.789359"></trkpt><trkpt lat="53.10095" lon="16.789186"></trkpt><trkpt lat="53.101093" lon="16.788637"></trkpt><trkpt lat="53.101222" lon="16.788382"></trkpt><trkpt lat="53.101094" lon="16.787592"></trkpt><trkpt lat="53.101012" lon="16.786848"></trkpt><trkpt lat="53.101206" lon="16.785481"></trkpt><trkpt lat="53.101481" lon="16.784356"></trkpt><trkpt lat="53.101603" lon="16.783191"></trkpt><trkpt lat="53.101663" lon="16.78286"></trkpt><trkpt lat="53.102023" lon="16.781866"></trkpt><trkpt lat="53.102071" lon="16.781404"></trkpt><trkpt lat="53.102053" lon="16.780754"></trkpt><trkpt lat="53.102244" lon="16.780663"></trkpt><trkpt lat="53.102684" lon="16.78105"></trkpt><trkpt lat="53.103048" lon="16.78118"></trkpt><trkpt lat="53.103183" lon="16.781508"></trkpt><trkpt lat="53.103265" lon="16.781204"></trkpt><trkpt lat="53.103484" lon="16.781014"></trkpt><trkpt lat="53.103682" lon="16.781054"></trkpt><trkpt lat="53.103849" lon="16.781253"></trkpt><trkpt lat="53.103954" lon="16.781543"></trkpt><trkpt lat="53.104215" lon="16.782644"></trkpt><trkpt lat="53.104559" lon="16.783725"></trkpt><trkpt lat="53.105712" lon="16.786763"></trkpt><trkpt lat="53.106907" lon="16.789461"></trkpt><trkpt lat="53.107182" lon="16.789825"></trkpt><trkpt lat="53.10787" lon="16.790287"></trkpt><trkpt lat="53.109402" lon="16.791101"></trkpt><trkpt lat="53.110047" lon="16.791306"></trkpt><trkpt lat="53.110927" lon="16.791476"></trkpt><trkpt lat="53.11185" lon="16.791528"></trkpt><trkpt lat="53.125549" lon="16.78897"></trkpt><trkpt lat="53.12601" lon="16.788025"></trkpt><trkpt lat="53.129389" lon="16.782022"></trkpt><trkpt lat="53.129825" lon="16.781068"></trkpt><trkpt lat="53.140564" lon="16.760791"></trkpt><trkpt lat="53.140709" lon="16.760377"></trkpt><trkpt lat="53.140842" lon="16.760117"></trkpt><trkpt lat="53.141166" lon="16.760179"></trkpt><trkpt lat="53.141385" lon="16.76001"></trkpt><trkpt lat="53.141983" lon="16.759197"></trkpt><trkpt lat="53.14334" lon="16.756585"></trkpt><trkpt lat="53.143444" lon="16.756142"></trkpt><trkpt lat="53.143639" lon="16.755904"></trkpt><trkpt lat="53.144061" lon="16.755604"></trkpt><trkpt lat="53.146102" lon="16.753599"></trkpt><trkpt lat="53.146619" lon="16.752668"></trkpt><trkpt lat="53.14684" lon="16.752205"></trkpt><trkpt lat="53.147229" lon="16.751538"></trkpt><trkpt lat="53.147129" lon="16.751209"></trkpt><trkpt lat="53.146615" lon="16.750286"></trkpt><trkpt lat="53.146126" lon="16.748616"></trkpt><trkpt lat="53.146096" lon="16.747523"></trkpt><trkpt lat="53.146047" lon="16.746996"></trkpt><trkpt lat="53.14594" lon="16.74654"></trkpt><trkpt lat="53.145759" lon="16.746356"></trkpt><trkpt lat="53.145593" lon="16.746152"></trkpt><trkpt lat="53.145121" lon="16.745469"></trkpt><trkpt lat="53.1449" lon="16.745101"></trkpt><trkpt lat="53.144559" lon="16.744397"></trkpt><trkpt lat="53.144524" lon="16.744023"></trkpt><trkpt lat="53.144266" lon="16.7438"></trkpt><trkpt lat="53.143776" lon="16.743859"></trkpt></trkseg></trk></gpx>