<?xml version="1.0" encoding="UTF-8" standalone="no" ?><gpx xmlns="http://www.topografix.com/GPX/1/1" xmlns:gpxx="http://www.garmin.com/xmlschemas/GpxExtensions/v3" ><trk><trkseg><trkpt lat="52.437765" lon="16.921049"></trkpt><trkpt lat="52.436269" lon="16.921272"></trkpt><trkpt lat="52.436099" lon="16.921657"></trkpt><trkpt lat="52.436073" lon="16.922095"></trkpt><trkpt lat="52.434024" lon="16.941725"></trkpt><trkpt lat="52.433686" lon="16.94255"></trkpt><trkpt lat="52.431521" lon="16.949292"></trkpt><trkpt lat="52.431505" lon="16.949806"></trkpt><trkpt lat="52.431044" lon="16.954629"></trkpt><trkpt lat="52.430845" lon="16.955627"></trkpt><trkpt lat="52.430395" lon="16.95949"></trkpt><trkpt lat="52.430468" lon="16.959829"></trkpt><trkpt lat="52.430787" lon="16.960642"></trkpt><trkpt lat="52.43069" lon="16.961065"></trkpt><trkpt lat="52.430553" lon="16.961304"></trkpt><trkpt lat="52.430161" lon="16.961806"></trkpt><trkpt lat="52.429811" lon="16.962342"></trkpt><trkpt lat="52.427243" lon="16.965725"></trkpt><trkpt lat="52.426428" lon="16.965636"></trkpt><trkpt lat="52.426199" lon="16.965545"></trkpt><trkpt lat="52.425978" lon="16.96558"></trkpt><trkpt lat="52.424141" lon="16.965028"></trkpt><trkpt lat="52.423622" lon="16.96468"></trkpt><trkpt lat="52.422905" lon="16.964054"></trkpt><trkpt lat="52.422553" lon="16.963812"></trkpt><trkpt lat="52.421899" lon="16.963263"></trkpt><trkpt lat="52.42135" lon="16.962711"></trkpt><trkpt lat="52.420947" lon="16.962229"></trkpt><trkpt lat="52.416412" lon="16.957792"></trkpt><trkpt lat="52.415637" lon="16.957171"></trkpt><trkpt lat="52.414342" lon="16.956532"></trkpt><trkpt lat="52.414132" lon="16.95653"></trkpt><trkpt lat="52.41391" lon="16.956623"></trkpt><trkpt lat="52.413331" lon="16.956742"></trkpt><trkpt lat="52.413064" lon="16.957071"></trkpt><trkpt lat="52.412695" lon="16.958095"></trkpt><trkpt lat="52.412012" lon="16.958436"></trkpt><trkpt lat="52.411454" lon="16.958321"></trkpt><trkpt lat="52.411245" lon="16.958202"></trkpt><trkpt lat="52.411045" lon="16.958043"></trkpt><trkpt lat="52.410827" lon="16.957905"></trkpt><trkpt lat="52.410625" lon="16.957698"></trkpt><trkpt lat="52.410359" lon="16.957783"></trkpt><trkpt lat="52.409643" lon="16.95764"></trkpt><trkpt lat="52.409446" lon="16.95755"></trkpt><trkpt lat="52.409195" lon="16.957551"></trkpt><trkpt lat="52.409008" lon="16.957289"></trkpt><trkpt lat="52.408791" lon="16.957402"></trkpt><trkpt lat="52.403801" lon="16.955468"></trkpt><trkpt lat="52.40364" lon="16.956658"></trkpt><trkpt lat="52.402074" lon="16.964802"></trkpt><trkpt lat="52.401628" lon="16.96646"></trkpt><trkpt lat="52.399745" lon="16.975072"></trkpt><trkpt lat="52.399724" lon="16.9757"></trkpt><trkpt lat="52.399762" lon="16.977496"></trkpt><trkpt lat="52.399879" lon="16.978107"></trkpt><trkpt lat="52.399992" lon="16.980373"></trkpt><trkpt lat="52.399944" lon="16.981564"></trkpt><trkpt lat="52.399959" lon="16.982611"></trkpt><trkpt lat="52.400036" lon="16.982957"></trkpt><trkpt lat="52.399962" lon="16.984465"></trkpt><trkpt lat="52.399778" lon="16.986394"></trkpt><trkpt lat="52.399601" lon="16.986756"></trkpt><trkpt lat="52.399382" lon="16.987539"></trkpt><trkpt lat="52.399679" lon="16.988145"></trkpt><trkpt lat="52.400001" lon="16.988711"></trkpt><trkpt lat="52.400238" lon="16.988699"></trkpt><trkpt lat="52.400629" lon="16.988558"></trkpt><trkpt lat="52.402375" lon="16.989597"></trkpt><trkpt lat="52.402213" lon="16.989849"></trkpt><trkpt lat="52.400617" lon="16.991898"></trkpt><trkpt lat="52.400082" lon="16.992308"></trkpt><trkpt lat="52.39946" lon="16.992698"></trkpt><trkpt lat="52.399233" lon="16.99263"></trkpt><trkpt lat="52.398899" lon="16.992438"></trkpt><trkpt lat="52.398604" lon="16.992401"></trkpt><trkpt lat="52.398204" lon="16.992657"></trkpt><trkpt lat="52.397447" lon="16.993333"></trkpt><trkpt lat="52.396815" lon="16.994208"></trkpt><trkpt lat="52.396512" lon="16.994771"></trkpt><trkpt lat="52.396293" lon="16.995382"></trkpt><trkpt lat="52.396222" lon="16.995698"></trkpt><trkpt lat="52.396137" lon="16.996426"></trkpt><trkpt lat="52.395973" lon="16.997237"></trkpt><trkpt lat="52.395949" lon="16.997593"></trkpt><trkpt lat="52.396063" lon="16.99903"></trkpt><trkpt lat="52.396168" lon="17.002809"></trkpt><trkpt lat="52.395931" lon="17.003287"></trkpt><trkpt lat="52.395621" lon="17.004051"></trkpt><trkpt lat="52.395583" lon="17.004409"></trkpt><trkpt lat="52.395592" lon="17.00485"></trkpt><trkpt lat="52.395616" lon="17.005206"></trkpt><trkpt lat="52.395441" lon="17.006495"></trkpt><trkpt lat="52.395455" lon="17.006885"></trkpt><trkpt lat="52.395568" lon="17.00752"></trkpt><trkpt lat="52.395605" lon="17.008115"></trkpt><trkpt lat="52.395535" lon="17.008711"></trkpt><trkpt lat="52.395433" lon="17.009339"></trkpt><trkpt lat="52.395306" lon="17.009884"></trkpt><trkpt lat="52.395147" lon="17.010202"></trkpt><trkpt lat="52.395019" lon="17.010529"></trkpt><trkpt lat="52.394852" lon="17.011343"></trkpt><trkpt lat="52.394827" lon="17.01176"></trkpt><trkpt lat="52.3949" lon="17.012463"></trkpt><trkpt lat="52.394983" lon="17.012992"></trkpt><trkpt lat="52.395114" lon="17.013488"></trkpt><trkpt lat="52.395128" lon="17.013868"></trkpt><trkpt lat="52.395037" lon="17.014419"></trkpt><trkpt lat="52.39491" lon="17.014702"></trkpt><trkpt lat="52.394715" lon="17.014482"></trkpt><trkpt lat="52.39436" lon="17.014162"></trkpt><trkpt lat="52.39413" lon="17.014182"></trkpt><trkpt lat="52.393647" lon="17.01438"></trkpt><trkpt lat="52.393351" lon="17.014583"></trkpt><trkpt lat="52.39316" lon="17.015055"></trkpt><trkpt lat="52.39298" lon="17.015222"></trkpt><trkpt lat="52.392819" lon="17.014808"></trkpt><trkpt lat="52.392607" lon="17.014727"></trkpt><trkpt lat="52.392212" lon="17.014768"></trkpt><trkpt lat="52.391896" lon="17.014849"></trkpt><trkpt lat="52.387935" lon="17.017432"></trkpt><trkpt lat="52.387952" lon="17.018093"></trkpt><trkpt lat="52.388019" lon="17.019014"></trkpt><trkpt lat="52.388093" lon="17.019462"></trkpt><trkpt lat="52.388326" lon="17.020527"></trkpt><trkpt lat="52.388755" lon="17.021337"></trkpt><trkpt lat="52.390043" lon="17.024147"></trkpt><trkpt lat="52.389838" lon="17.024381"></trkpt><trkpt lat="52.386621" lon="17.027489"></trkpt><trkpt lat="52.386325" lon="17.027266"></trkpt><trkpt lat="52.386524" lon="17.027551"></trkpt><trkpt lat="52.387073" lon="17.02758"></trkpt><trkpt lat="52.387246" lon="17.027786"></trkpt><trkpt lat="52.387685" lon="17.028633"></trkpt><trkpt lat="52.38759" lon="17.028984"></trkpt><trkpt lat="52.387283" lon="17.029466"></trkpt><trkpt lat="52.387055" lon="17.029881"></trkpt><trkpt lat="52.386816" lon="17.030383"></trkpt><trkpt lat="52.386983" lon="17.030119"></trkpt><trkpt lat="52.386516" lon="17.030105"></trkpt><trkpt lat="52.379637" lon="17.031158"></trkpt><trkpt lat="52.37973" lon="17.032454"></trkpt><trkpt lat="52.379778" lon="17.034304"></trkpt><trkpt lat="52.379555" lon="17.034516"></trkpt><trkpt lat="52.378776" lon="17.034711"></trkpt><trkpt lat="52.365877" lon="17.036246"></trkpt><trkpt lat="52.365463" lon="17.036112"></trkpt><trkpt lat="52.362005" lon="17.034419"></trkpt><trkpt lat="52.3617" lon="17.034132"></trkpt><trkpt lat="52.355088" lon="17.029366"></trkpt><trkpt lat="52.354782" lon="17.030132"></trkpt><trkpt lat="52.354505" lon="17.030703"></trkpt><trkpt lat="52.350882" lon="17.039363"></trkpt><trkpt lat="52.350654" lon="17.040874"></trkpt><trkpt lat="52.346966" lon="17.059226"></trkpt><trkpt lat="52.346787" lon="17.05986"></trkpt><trkpt lat="52.346078" lon="17.062961"></trkpt><trkpt lat="52.345819" lon="17.063801"></trkpt><trkpt lat="52.345631" lon="17.064909"></trkpt><trkpt lat="52.345132" lon="17.067204"></trkpt><trkpt lat="52.34507" lon="17.067626"></trkpt><trkpt lat="52.345086" lon="17.067962"></trkpt><trkpt lat="52.345031" lon="17.068291"></trkpt><trkpt lat="52.343383" lon="17.07596"></trkpt><trkpt lat="52.343155" lon="17.075839"></trkpt><trkpt lat="52.342956" lon="17.076014"></trkpt><trkpt lat="52.342757" lon="17.076299"></trkpt><trkpt lat="52.342619" lon="17.076548"></trkpt><trkpt lat="52.342503" lon="17.07693"></trkpt><trkpt lat="52.342329" lon="17.077853"></trkpt><trkpt lat="52.341887" lon="17.078671"></trkpt><trkpt lat="52.341774" lon="17.078946"></trkpt><trkpt lat="52.341764" lon="17.079292"></trkpt><trkpt lat="52.341944" lon="17.080261"></trkpt><trkpt lat="52.341892" lon="17.0806"></trkpt><trkpt lat="52.341409" lon="17.081519"></trkpt><trkpt lat="52.341109" lon="17.081787"></trkpt><trkpt lat="52.340404" lon="17.082022"></trkpt><trkpt lat="52.339945" lon="17.08206"></trkpt><trkpt lat="52.339692" lon="17.081983"></trkpt><trkpt lat="52.339085" lon="17.081614"></trkpt><trkpt lat="52.338534" lon="17.081187"></trkpt><trkpt lat="52.337726" lon="17.080747"></trkpt><trkpt lat="52.33729" lon="17.080447"></trkpt><trkpt lat="52.336999" lon="17.080102"></trkpt><trkpt lat="52.336138" lon="17.079568"></trkpt><trkpt lat="52.335581" lon="17.079599"></trkpt><trkpt lat="52.322936" lon="17.080224"></trkpt><trkpt lat="52.322531" lon="17.079956"></trkpt><trkpt lat="52.322293" lon="17.079755"></trkpt><trkpt lat="52.310904" lon="17.069954"></trkpt><trkpt lat="52.310545" lon="17.069243"></trkpt><trkpt lat="52.310166" lon="17.06812"></trkpt><trkpt lat="52.309983" lon="17.067971"></trkpt><trkpt lat="52.309756" lon="17.067845"></trkpt><trkpt lat="52.309656" lon="17.067555"></trkpt><trkpt lat="52.309281" lon="17.067021"></trkpt><trkpt lat="52.302635" lon="17.058844"></trkpt><trkpt lat="52.299355" lon="17.055429"></trkpt><trkpt lat="52.298995" lon="17.055175"></trkpt><trkpt lat="52.299003" lon="17.05484"></trkpt><trkpt lat="52.299203" lon="17.054282"></trkpt><trkpt lat="52.299478" lon="17.053633"></trkpt><trkpt lat="52.300973" lon="17.05067"></trkpt><trkpt lat="52.301239" lon="17.050486"></trkpt><trkpt lat="52.301351" lon="17.050154"></trkpt><trkpt lat="52.301259" lon="17.049095"></trkpt><trkpt lat="52.301245" lon="17.04863"></trkpt><trkpt lat="52.301509" lon="17.047939"></trkpt><trkpt lat="52.301632" lon="17.047527"></trkpt><trkpt lat="52.301478" lon="17.047755"></trkpt><trkpt lat="52.301134" lon="17.048773"></trkpt><trkpt lat="52.301007" lon="17.049228"></trkpt><trkpt lat="52.301234" lon="17.04939"></trkpt><trkpt lat="52.301318" lon="17.049954"></trkpt><trkpt lat="52.301328" lon="17.050293"></trkpt><trkpt lat="52.301152" lon="17.050512"></trkpt><trkpt lat="52.300669" lon="17.050979"></trkpt><trkpt lat="52.300275" lon="17.051729"></trkpt><trkpt lat="52.299806" lon="17.052825"></trkpt><trkpt lat="52.29859" lon="17.054854"></trkpt><trkpt lat="52.298115" lon="17.054596"></trkpt><trkpt lat="52.296725" lon="17.053644"></trkpt><trkpt lat="52.296062" lon="17.05302"></trkpt><trkpt lat="52.295771" lon="17.052631"></trkpt><trkpt lat="52.296347" lon="17.052243"></trkpt><trkpt lat="52.296553" lon="17.052163"></trkpt><trkpt lat="52.297333" lon="17.051628"></trkpt><trkpt lat="52.300557" lon="17.048932"></trkpt><trkpt lat="52.300724" lon="17.048675"></trkpt><trkpt lat="52.300895" lon="17.048333"></trkpt><trkpt lat="52.301305" lon="17.047153"></trkpt><trkpt lat="52.301721" lon="17.045368"></trkpt><trkpt lat="52.30199" lon="17.044852"></trkpt><trkpt lat="52.302174" lon="17.044623"></trkpt><trkpt lat="52.302157" lon="17.045117"></trkpt></trkseg></trk></gpx>