<?xml version="1.0" encoding="UTF-8" standalone="no" ?><gpx xmlns="http://www.topografix.com/GPX/1/1" xmlns:gpxx="http://www.garmin.com/xmlschemas/GpxExtensions/v3" ><trk><trkseg><trkpt lat="50.7470391691" lon="15.8239083365"></trkpt><trkpt lat="50.7471037935" lon="15.824327264"></trkpt><trkpt lat="50.7469420228" lon="15.8239549398"></trkpt><trkpt lat="50.747009078" lon="15.823539868"></trkpt><trkpt lat="50.7472482137" lon="15.823088754"></trkpt><trkpt lat="50.7474636286" lon="15.8227882627"></trkpt><trkpt lat="50.7477196958" lon="15.8225185331"></trkpt><trkpt lat="50.748289749" lon="15.8221027069"></trkpt><trkpt lat="50.7485381048" lon="15.8217372559"></trkpt><trkpt lat="50.748732565" lon="15.8213562984"></trkpt><trkpt lat="50.7489480637" lon="15.8210166637"></trkpt><trkpt lat="50.7492371555" lon="15.8204684034"></trkpt><trkpt lat="50.7494538277" lon="15.8201421797"></trkpt><trkpt lat="50.7497035246" lon="15.8199115098"></trkpt><trkpt lat="50.7499601785" lon="15.8197634015"></trkpt><trkpt lat="50.750236949" lon="15.8196868747"></trkpt><trkpt lat="50.7504861429" lon="15.8195201587"></trkpt><trkpt lat="50.7511490677" lon="15.8191931807"></trkpt><trkpt lat="50.75259679" lon="15.8182487916"></trkpt><trkpt lat="50.7529207505" lon="15.8179700095"></trkpt><trkpt lat="50.7532066572" lon="15.8178520761"></trkpt><trkpt lat="50.7534850203" lon="15.8176422771"></trkpt><trkpt lat="50.7539328653" lon="15.8173780795"></trkpt><trkpt lat="50.7544078678" lon="15.8171859663"></trkpt><trkpt lat="50.7547339238" lon="15.8171265386"></trkpt><trkpt lat="50.7549317367" lon="15.816773409"></trkpt><trkpt lat="50.755203478" lon="15.8164082933"></trkpt><trkpt lat="50.7553508319" lon="15.8159998432"></trkpt><trkpt lat="50.7553551905" lon="15.8155607153"></trkpt><trkpt lat="50.7553846948" lon="15.815119911"></trkpt><trkpt lat="50.7553800009" lon="15.8146608341"></trkpt><trkpt lat="50.7551669329" lon="15.8115094062"></trkpt><trkpt lat="50.7551105227" lon="15.8110896405"></trkpt><trkpt lat="50.7548597362" lon="15.8098530583"></trkpt><trkpt lat="50.7547402103" lon="15.80944838"></trkpt><trkpt lat="50.7529261149" lon="15.8015737496"></trkpt><trkpt lat="50.7527875621" lon="15.8007568493"></trkpt><trkpt lat="50.7525397092" lon="15.7985364832"></trkpt><trkpt lat="50.7526100334" lon="15.7978645898"></trkpt><trkpt lat="50.7528127916" lon="15.7933136355"></trkpt><trkpt lat="50.7527868077" lon="15.7928632759"></trkpt><trkpt lat="50.7528861333" lon="15.7923976611"></trkpt><trkpt lat="50.7527329121" lon="15.7920184638"></trkpt><trkpt lat="50.752679687" lon="15.7915955968"></trkpt><trkpt lat="50.7527509332" lon="15.7920733653"></trkpt><trkpt lat="50.7528295554" lon="15.7929802034"></trkpt><trkpt lat="50.7528391108" lon="15.7935075089"></trkpt><trkpt lat="50.7526970375" lon="15.7972269785"></trkpt><trkpt lat="50.7526442315" lon="15.7977267075"></trkpt><trkpt lat="50.7525595743" lon="15.7995172497"></trkpt><trkpt lat="50.7526513562" lon="15.7999318186"></trkpt><trkpt lat="50.7527132146" lon="15.8003825136"></trkpt><trkpt lat="50.7527991291" lon="15.8008106612"></trkpt><trkpt lat="50.7528484147" lon="15.8012492862"></trkpt><trkpt lat="50.7529330719" lon="15.8017374482"></trkpt><trkpt lat="50.754725961" lon="15.8093768824"></trkpt><trkpt lat="50.7548636757" lon="15.8097848296"></trkpt><trkpt lat="50.7550174836" lon="15.8103871532"></trkpt><trkpt lat="50.7550950162" lon="15.810895348"></trkpt><trkpt lat="50.755367931" lon="15.8138078079"></trkpt><trkpt lat="50.7553927414" lon="15.8145560604"></trkpt><trkpt lat="50.7553759776" lon="15.8150104433"></trkpt><trkpt lat="50.7552137878" lon="15.8163807169"></trkpt><trkpt lat="50.7548775058" lon="15.8167801984"></trkpt><trkpt lat="50.754400827" lon="15.8171557076"></trkpt><trkpt lat="50.7540675625" lon="15.8172961883"></trkpt><trkpt lat="50.753427688" lon="15.8177470509"></trkpt><trkpt lat="50.7531487383" lon="15.8178434428"></trkpt><trkpt lat="50.7529039029" lon="15.8180281799"></trkpt><trkpt lat="50.7508062478" lon="15.8192580566"></trkpt><trkpt lat="50.7505599875" lon="15.8194878045"></trkpt><trkpt lat="50.7502644416" lon="15.8196449652"></trkpt><trkpt lat="50.7492738683" lon="15.8203558344"></trkpt><trkpt lat="50.7490719482" lon="15.8207378816"></trkpt><trkpt lat="50.7488694414" lon="15.8210289851"></trkpt><trkpt lat="50.7485655975" lon="15.8215736412"></trkpt><trkpt lat="50.748194363" lon="15.8220749628"></trkpt><trkpt lat="50.7479144074" lon="15.8222257532"></trkpt><trkpt lat="50.7476206217" lon="15.8225674834"></trkpt><trkpt lat="50.7473957352" lon="15.8228813019"></trkpt><trkpt lat="50.7471940666" lon="15.8232267201"></trkpt><trkpt lat="50.7470812462" lon="15.823732987"></trkpt><trkpt lat="50.7469549309" lon="15.8241596259"></trkpt><trkpt lat="50.746907657" lon="15.8237099368"></trkpt><trkpt lat="50.7469234988" lon="15.8232781012"></trkpt><trkpt lat="50.7467080001" lon="15.8228277415"></trkpt><trkpt lat="50.7463841233" lon="15.8226117399"></trkpt><trkpt lat="50.7461348455" lon="15.8223539963"></trkpt><trkpt lat="50.7458110526" lon="15.8219388407"></trkpt><trkpt lat="50.7455347013" lon="15.8214687835"></trkpt><trkpt lat="50.7453305181" lon="15.8210528735"></trkpt><trkpt lat="50.74510823" lon="15.8208038472"></trkpt><trkpt lat="50.7445370872" lon="15.8202859294"></trkpt><trkpt lat="50.7445087563" lon="15.8209804539"></trkpt><trkpt lat="50.7444370911" lon="15.8202788047"></trkpt><trkpt lat="50.7442977838" lon="15.8199001104"></trkpt><trkpt lat="50.7437863201" lon="15.8202934731"></trkpt><trkpt lat="50.7434273232" lon="15.8207995724"></trkpt><trkpt lat="50.7437429857" lon="15.8205851633"></trkpt><trkpt lat="50.7440630905" lon="15.8202729374"></trkpt><trkpt lat="50.7444354985" lon="15.8195239305"></trkpt><trkpt lat="50.7441706304" lon="15.8198628109"></trkpt><trkpt lat="50.7443880569" lon="15.8202026971"></trkpt><trkpt lat="50.744646471" lon="15.8205020986"></trkpt><trkpt lat="50.7448913902" lon="15.8208631072"></trkpt><trkpt lat="50.7451451942" lon="15.8211717289"></trkpt><trkpt lat="50.7454913668" lon="15.8217257727"></trkpt><trkpt lat="50.745268492" lon="15.8220282756"></trkpt><trkpt lat="50.745073529" lon="15.8223495539"></trkpt><trkpt lat="50.7448605448" lon="15.8226388972"></trkpt><trkpt lat="50.7441671938" lon="15.823803395"></trkpt><trkpt lat="50.7440213487" lon="15.824298095"></trkpt><trkpt lat="50.7438604999" lon="15.8246539067"></trkpt><trkpt lat="50.7435474358" lon="15.8247136697"></trkpt><trkpt lat="50.7432809751" lon="15.8245520666"></trkpt><trkpt lat="50.7429337967" lon="15.8242530003"></trkpt><trkpt lat="50.7427111734" lon="15.8239875454"></trkpt><trkpt lat="50.7424169686" lon="15.8237134572"></trkpt><trkpt lat="50.7421128731" lon="15.8236428816"></trkpt><trkpt lat="50.7417584863" lon="15.8234941866"></trkpt><trkpt lat="50.7412386406" lon="15.8233528677"></trkpt><trkpt lat="50.7405721117" lon="15.8232725691"></trkpt><trkpt lat="50.7383583672" lon="15.8226798009"></trkpt><trkpt lat="50.737957377" lon="15.8224250749"></trkpt><trkpt lat="50.7370547298" lon="15.8216883056"></trkpt><trkpt lat="50.7304670569" lon="15.8174528461"></trkpt><trkpt lat="50.7301000971" lon="15.817555692"></trkpt><trkpt lat="50.7295685168" lon="15.8172791731"></trkpt><trkpt lat="50.7290945202" lon="15.8171196654"></trkpt><trkpt lat="50.7285312563" lon="15.8170236088"></trkpt><trkpt lat="50.7282357942" lon="15.8171246946"></trkpt><trkpt lat="50.7279497199" lon="15.8172706235"></trkpt><trkpt lat="50.7276344765" lon="15.8173688594"></trkpt><trkpt lat="50.7272497471" lon="15.8173985314"></trkpt><trkpt lat="50.7261821441" lon="15.8171433862"></trkpt><trkpt lat="50.7259277534" lon="15.8169889916"></trkpt><trkpt lat="50.7255241647" lon="15.8166757599"></trkpt><trkpt lat="50.7244376186" lon="15.815585861"></trkpt><trkpt lat="50.724263275" lon="15.8150765765"></trkpt><trkpt lat="50.7238917891" lon="15.8136405889"></trkpt><trkpt lat="50.7239144202" lon="15.8140659705"></trkpt><trkpt lat="50.7241538074" lon="15.8145398833"></trkpt><trkpt lat="50.7244071085" lon="15.8152268641"></trkpt><trkpt lat="50.7245981321" lon="15.8156276867"></trkpt><trkpt lat="50.7250489946" lon="15.816246355"></trkpt><trkpt lat="50.7254057284" lon="15.8165631071"></trkpt><trkpt lat="50.7262770273" lon="15.8171641733"></trkpt><trkpt lat="50.7268636767" lon="15.8174406923"></trkpt><trkpt lat="50.7273228373" lon="15.8173727989"></trkpt><trkpt lat="50.7282665558" lon="15.8170882333"></trkpt><trkpt lat="50.7285407279" lon="15.8169640135"></trkpt><trkpt lat="50.7288623415" lon="15.8169392869"></trkpt><trkpt lat="50.7291665208" lon="15.8170540351"></trkpt><trkpt lat="50.7296817563" lon="15.8173284587"></trkpt><trkpt lat="50.7301362231" lon="15.8174644969"></trkpt><trkpt lat="50.7305440865" lon="15.8172344975"></trkpt><trkpt lat="50.7307829708" lon="15.8168962877"></trkpt><trkpt lat="50.7311270479" lon="15.8166153263"></trkpt><trkpt lat="50.7314519305" lon="15.8164833114"></trkpt><trkpt lat="50.7323477883" lon="15.817042049"></trkpt><trkpt lat="50.7326563261" lon="15.8173728827"></trkpt><trkpt lat="50.7329052687" lon="15.8175805863"></trkpt><trkpt lat="50.7331976295" lon="15.8178872801"></trkpt><trkpt lat="50.7394243777" lon="15.8231884986"></trkpt><trkpt lat="50.7397809438" lon="15.8232716471"></trkpt><trkpt lat="50.7400716282" lon="15.8232817892"></trkpt><trkpt lat="50.7422998734" lon="15.823669536"></trkpt><trkpt lat="50.7426172122" lon="15.823849747"></trkpt><trkpt lat="50.7428821642" lon="15.8241407666"></trkpt><trkpt lat="50.74343713" lon="15.8246307727"></trkpt><trkpt lat="50.7437139004" lon="15.8246771246"></trkpt><trkpt lat="50.7462688722" lon="15.8237894811"></trkpt><trkpt lat="50.7464873046" lon="15.8234483376"></trkpt><trkpt lat="50.7467781566" lon="15.8236234356"></trkpt><trkpt lat="50.7468895521" lon="15.8240991924"></trkpt><trkpt lat="50.7470849343" lon="15.8242150303"></trkpt></trkseg></trk></gpx>