<?xml version="1.0" encoding="UTF-8" standalone="no" ?><gpx xmlns="http://www.topografix.com/GPX/1/1" xmlns:gpxx="http://www.garmin.com/xmlschemas/GpxExtensions/v3" ><trk><trkseg><trkpt lat="52.70526" lon="16.385592"></trkpt><trkpt lat="52.705434" lon="16.385399"></trkpt><trkpt lat="52.705451" lon="16.38492"></trkpt><trkpt lat="52.705562" lon="16.383674"></trkpt><trkpt lat="52.705695" lon="16.380594"></trkpt><trkpt lat="52.705418" lon="16.380661"></trkpt><trkpt lat="52.705271" lon="16.379516"></trkpt><trkpt lat="52.704889" lon="16.374654"></trkpt><trkpt lat="52.705549" lon="16.374036"></trkpt><trkpt lat="52.705732" lon="16.373809"></trkpt><trkpt lat="52.705724" lon="16.373453"></trkpt><trkpt lat="52.705564" lon="16.37316"></trkpt><trkpt lat="52.70557" lon="16.3718"></trkpt><trkpt lat="52.705695" lon="16.371479"></trkpt><trkpt lat="52.706256" lon="16.370875"></trkpt><trkpt lat="52.706815" lon="16.370469"></trkpt><trkpt lat="52.707189" lon="16.370012"></trkpt><trkpt lat="52.707302" lon="16.369713"></trkpt><trkpt lat="52.706974" lon="16.369023"></trkpt><trkpt lat="52.706719" lon="16.368572"></trkpt><trkpt lat="52.706046" lon="16.36804"></trkpt><trkpt lat="52.702435" lon="16.364341"></trkpt><trkpt lat="52.702095" lon="16.363665"></trkpt><trkpt lat="52.701312" lon="16.362355"></trkpt><trkpt lat="52.700848" lon="16.361736"></trkpt><trkpt lat="52.697327" lon="16.35631"></trkpt><trkpt lat="52.697561" lon="16.354827"></trkpt><trkpt lat="52.698231" lon="16.352129"></trkpt><trkpt lat="52.698772" lon="16.350744"></trkpt><trkpt lat="52.703211" lon="16.337416"></trkpt><trkpt lat="52.707355" lon="16.326895"></trkpt><trkpt lat="52.707617" lon="16.325765"></trkpt><trkpt lat="52.707699" lon="16.324258"></trkpt><trkpt lat="52.708232" lon="16.31891"></trkpt><trkpt lat="52.708349" lon="16.318605"></trkpt><trkpt lat="52.713404" lon="16.302779"></trkpt><trkpt lat="52.7137" lon="16.301291"></trkpt><trkpt lat="52.715086" lon="16.292119"></trkpt><trkpt lat="52.7148" lon="16.291994"></trkpt><trkpt lat="52.714554" lon="16.29194"></trkpt><trkpt lat="52.71371" lon="16.291998"></trkpt><trkpt lat="52.713562" lon="16.291769"></trkpt><trkpt lat="52.713537" lon="16.290291"></trkpt><trkpt lat="52.7136" lon="16.288827"></trkpt><trkpt lat="52.713592" lon="16.287525"></trkpt><trkpt lat="52.713372" lon="16.283664"></trkpt><trkpt lat="52.713221" lon="16.282613"></trkpt><trkpt lat="52.708001" lon="16.255106"></trkpt><trkpt lat="52.707846" lon="16.254867"></trkpt><trkpt lat="52.70763" lon="16.254216"></trkpt><trkpt lat="52.707465" lon="16.253982"></trkpt><trkpt lat="52.707227" lon="16.254008"></trkpt><trkpt lat="52.706855" lon="16.25429"></trkpt><trkpt lat="52.704229" lon="16.256698"></trkpt><trkpt lat="52.703763" lon="16.257628"></trkpt><trkpt lat="52.702669" lon="16.259209"></trkpt><trkpt lat="52.702517" lon="16.259519"></trkpt><trkpt lat="52.702582" lon="16.260849"></trkpt><trkpt lat="52.702564" lon="16.261577"></trkpt><trkpt lat="52.702372" lon="16.262009"></trkpt><trkpt lat="52.70207" lon="16.262302"></trkpt><trkpt lat="52.701789" lon="16.262472"></trkpt><trkpt lat="52.697188" lon="16.26466"></trkpt><trkpt lat="52.695833" lon="16.26432"></trkpt><trkpt lat="52.692751" lon="16.264716"></trkpt><trkpt lat="52.692547" lon="16.264534"></trkpt><trkpt lat="52.691926" lon="16.26421"></trkpt><trkpt lat="52.691127" lon="16.264328"></trkpt><trkpt lat="52.689901" lon="16.264663"></trkpt><trkpt lat="52.689256" lon="16.265064"></trkpt><trkpt lat="52.688956" lon="16.265468"></trkpt><trkpt lat="52.687758" lon="16.266057"></trkpt><trkpt lat="52.687492" lon="16.265115"></trkpt><trkpt lat="52.686002" lon="16.258207"></trkpt><trkpt lat="52.685845" lon="16.257155"></trkpt><trkpt lat="52.685644" lon="16.256129"></trkpt><trkpt lat="52.684515" lon="16.24847"></trkpt><trkpt lat="52.684109" lon="16.246459"></trkpt><trkpt lat="52.683806" lon="16.246924"></trkpt><trkpt lat="52.683241" lon="16.247549"></trkpt><trkpt lat="52.668648" lon="16.261089"></trkpt><trkpt lat="52.668864" lon="16.259235"></trkpt><trkpt lat="52.669736" lon="16.247221"></trkpt><trkpt lat="52.669601" lon="16.24657"></trkpt><trkpt lat="52.663279" lon="16.22405"></trkpt><trkpt lat="52.662451" lon="16.22434"></trkpt><trkpt lat="52.653204" lon="16.228964"></trkpt><trkpt lat="52.65243" lon="16.229881"></trkpt><trkpt lat="52.650587" lon="16.232433"></trkpt><trkpt lat="52.650327" lon="16.232902"></trkpt><trkpt lat="52.648227" lon="16.236135"></trkpt><trkpt lat="52.647944" lon="16.236392"></trkpt><trkpt lat="52.646855" lon="16.237627"></trkpt><trkpt lat="52.64681" lon="16.238031"></trkpt><trkpt lat="52.646892" lon="16.238393"></trkpt><trkpt lat="52.647159" lon="16.239008"></trkpt><trkpt lat="52.647195" lon="16.239353"></trkpt><trkpt lat="52.647145" lon="16.239698"></trkpt><trkpt lat="52.647034" lon="16.240048"></trkpt><trkpt lat="52.646522" lon="16.24075"></trkpt><trkpt lat="52.646255" lon="16.240974"></trkpt><trkpt lat="52.645778" lon="16.241152"></trkpt><trkpt lat="52.645514" lon="16.241181"></trkpt><trkpt lat="52.644521" lon="16.24211"></trkpt><trkpt lat="52.644206" lon="16.242351"></trkpt><trkpt lat="52.642938" lon="16.243143"></trkpt><trkpt lat="52.642394" lon="16.243406"></trkpt><trkpt lat="52.640951" lon="16.243913"></trkpt><trkpt lat="52.636547" lon="16.244827"></trkpt><trkpt lat="52.631956" lon="16.243331"></trkpt><trkpt lat="52.629634" lon="16.24285"></trkpt><trkpt lat="52.629675" lon="16.243187"></trkpt><trkpt lat="52.629785" lon="16.24369"></trkpt><trkpt lat="52.629667" lon="16.242831"></trkpt><trkpt lat="52.627137" lon="16.231123"></trkpt><trkpt lat="52.626419" lon="16.232427"></trkpt><trkpt lat="52.623643" lon="16.235875"></trkpt><trkpt lat="52.623321" lon="16.235799"></trkpt><trkpt lat="52.62116" lon="16.235586"></trkpt><trkpt lat="52.620591" lon="16.235774"></trkpt><trkpt lat="52.617203" lon="16.237318"></trkpt><trkpt lat="52.616763" lon="16.237972"></trkpt><trkpt lat="52.616493" lon="16.238465"></trkpt><trkpt lat="52.611948" lon="16.24533"></trkpt><trkpt lat="52.611761" lon="16.245202"></trkpt><trkpt lat="52.611566" lon="16.244955"></trkpt><trkpt lat="52.611408" lon="16.244633"></trkpt><trkpt lat="52.61152" lon="16.244952"></trkpt><trkpt lat="52.61141" lon="16.245283"></trkpt><trkpt lat="52.611269" lon="16.245604"></trkpt><trkpt lat="52.610324" lon="16.247411"></trkpt><trkpt lat="52.61015" lon="16.24758"></trkpt><trkpt lat="52.609718" lon="16.247801"></trkpt><trkpt lat="52.609457" lon="16.24789"></trkpt><trkpt lat="52.606443" lon="16.249293"></trkpt><trkpt lat="52.606201" lon="16.249587"></trkpt><trkpt lat="52.606006" lon="16.250048"></trkpt><trkpt lat="52.605862" lon="16.250455"></trkpt><trkpt lat="52.605446" lon="16.251383"></trkpt><trkpt lat="52.605177" lon="16.251509"></trkpt><trkpt lat="52.604889" lon="16.251505"></trkpt><trkpt lat="52.604056" lon="16.251372"></trkpt><trkpt lat="52.603315" lon="16.251666"></trkpt><trkpt lat="52.602725" lon="16.251989"></trkpt><trkpt lat="52.600956" lon="16.253338"></trkpt><trkpt lat="52.600695" lon="16.253751"></trkpt><trkpt lat="52.600387" lon="16.254087"></trkpt><trkpt lat="52.600022" lon="16.254283"></trkpt><trkpt lat="52.593526" lon="16.259046"></trkpt><trkpt lat="52.593014" lon="16.260187"></trkpt><trkpt lat="52.59214" lon="16.261859"></trkpt><trkpt lat="52.591921" lon="16.26179"></trkpt><trkpt lat="52.591527" lon="16.261496"></trkpt><trkpt lat="52.590859" lon="16.261092"></trkpt><trkpt lat="52.590681" lon="16.26125"></trkpt><trkpt lat="52.590426" lon="16.26165"></trkpt><trkpt lat="52.590238" lon="16.261762"></trkpt><trkpt lat="52.59031" lon="16.262097"></trkpt><trkpt lat="52.590094" lon="16.263558"></trkpt><trkpt lat="52.589718" lon="16.267804"></trkpt><trkpt lat="52.589743" lon="16.268655"></trkpt><trkpt lat="52.588955" lon="16.301133"></trkpt><trkpt lat="52.588484" lon="16.301204"></trkpt><trkpt lat="52.58671" lon="16.301266"></trkpt><trkpt lat="52.585905" lon="16.300982"></trkpt><trkpt lat="52.583546" lon="16.300438"></trkpt><trkpt lat="52.583345" lon="16.301483"></trkpt><trkpt lat="52.579981" lon="16.314491"></trkpt><trkpt lat="52.579818" lon="16.314689"></trkpt><trkpt lat="52.579681" lon="16.315014"></trkpt><trkpt lat="52.579405" lon="16.316426"></trkpt><trkpt lat="52.579271" lon="16.317771"></trkpt><trkpt lat="52.579363" lon="16.318821"></trkpt><trkpt lat="52.579455" lon="16.32121"></trkpt><trkpt lat="52.578941" lon="16.322729"></trkpt><trkpt lat="52.578676" lon="16.323841"></trkpt><trkpt lat="52.577964" lon="16.325538"></trkpt><trkpt lat="52.57768" lon="16.325982"></trkpt><trkpt lat="52.577513" lon="16.326191"></trkpt><trkpt lat="52.577312" lon="16.32651"></trkpt><trkpt lat="52.57702" lon="16.326912"></trkpt><trkpt lat="52.57017" lon="16.338248"></trkpt><trkpt lat="52.570166" lon="16.339251"></trkpt><trkpt lat="52.57036" lon="16.344253"></trkpt><trkpt lat="52.570589" lon="16.345065"></trkpt><trkpt lat="52.572056" lon="16.347724"></trkpt><trkpt lat="52.572367" lon="16.347819"></trkpt><trkpt lat="52.573105" lon="16.347814"></trkpt><trkpt lat="52.573823" lon="16.347523"></trkpt><trkpt lat="52.581116" lon="16.345718"></trkpt><trkpt lat="52.581156" lon="16.346169"></trkpt><trkpt lat="52.581328" lon="16.347327"></trkpt><trkpt lat="52.581482" lon="16.347636"></trkpt><trkpt lat="52.584862" lon="16.353526"></trkpt><trkpt lat="52.586289" lon="16.356417"></trkpt><trkpt lat="52.586584" lon="16.356854"></trkpt><trkpt lat="52.586901" lon="16.357405"></trkpt><trkpt lat="52.601834" lon="16.384109"></trkpt><trkpt lat="52.616412" lon="16.410132"></trkpt><trkpt lat="52.625235" lon="16.428578"></trkpt><trkpt lat="52.625327" lon="16.429019"></trkpt><trkpt lat="52.625885" lon="16.431103"></trkpt><trkpt lat="52.626082" lon="16.431382"></trkpt><trkpt lat="52.627056" lon="16.433816"></trkpt><trkpt lat="52.627101" lon="16.434272"></trkpt><trkpt lat="52.627201" lon="16.436689"></trkpt><trkpt lat="52.627151" lon="16.437593"></trkpt><trkpt lat="52.627088" lon="16.438219"></trkpt><trkpt lat="52.626759" lon="16.439256"></trkpt><trkpt lat="52.626472" lon="16.439911"></trkpt><trkpt lat="52.625718" lon="16.442518"></trkpt><trkpt lat="52.625781" lon="16.443552"></trkpt><trkpt lat="52.625943" lon="16.444746"></trkpt><trkpt lat="52.626094" lon="16.445419"></trkpt><trkpt lat="52.626234" lon="16.445668"></trkpt><trkpt lat="52.626903" lon="16.446357"></trkpt><trkpt lat="52.627415" lon="16.447005"></trkpt><trkpt lat="52.627679" lon="16.447428"></trkpt><trkpt lat="52.627592" lon="16.447742"></trkpt><trkpt lat="52.627264" lon="16.448591"></trkpt><trkpt lat="52.62698" lon="16.448799"></trkpt><trkpt lat="52.626815" lon="16.449055"></trkpt><trkpt lat="52.626758" lon="16.449552"></trkpt><trkpt lat="52.626729" lon="16.450539"></trkpt><trkpt lat="52.626542" lon="16.45313"></trkpt><trkpt lat="52.626204" lon="16.453554"></trkpt><trkpt lat="52.623032" lon="16.456969"></trkpt><trkpt lat="52.617195" lon="16.464328"></trkpt><trkpt lat="52.617263" lon="16.463992"></trkpt><trkpt lat="52.617314" lon="16.463603"></trkpt><trkpt lat="52.616708" lon="16.46415"></trkpt><trkpt lat="52.616027" lon="16.464984"></trkpt><trkpt lat="52.607207" lon="16.478225"></trkpt><trkpt lat="52.60705" lon="16.479314"></trkpt><trkpt lat="52.606097" lon="16.483968"></trkpt><trkpt lat="52.605654" lon="16.485039"></trkpt><trkpt lat="52.605458" lon="16.485857"></trkpt><trkpt lat="52.605276" lon="16.486337"></trkpt><trkpt lat="52.601292" lon="16.498858"></trkpt><trkpt lat="52.601175" lon="16.499399"></trkpt><trkpt lat="52.596156" lon="16.529678"></trkpt><trkpt lat="52.596166" lon="16.530407"></trkpt><trkpt lat="52.598086" lon="16.564428"></trkpt><trkpt lat="52.598205" lon="16.564698"></trkpt><trkpt lat="52.599759" lon="16.56772"></trkpt><trkpt lat="52.605644" lon="16.581458"></trkpt><trkpt lat="52.605392" lon="16.58189"></trkpt><trkpt lat="52.605298" lon="16.582197"></trkpt><trkpt lat="52.605031" lon="16.582779"></trkpt><trkpt lat="52.604984" lon="16.583098"></trkpt><trkpt lat="52.605154" lon="16.583419"></trkpt><trkpt lat="52.604791" lon="16.583999"></trkpt><trkpt lat="52.604464" lon="16.584639"></trkpt><trkpt lat="52.603838" lon="16.585686"></trkpt><trkpt lat="52.603671" lon="16.585883"></trkpt><trkpt lat="52.603453" lon="16.585667"></trkpt></trkseg></trk></gpx>