<?xml version="1.0" encoding="UTF-8" standalone="no" ?><gpx xmlns="http://www.topografix.com/GPX/1/1" xmlns:gpxx="http://www.garmin.com/xmlschemas/GpxExtensions/v3" ><trk><trkseg><trkpt lat="49.2365089059" lon="19.7883420903"></trkpt><trkpt lat="49.2368198745" lon="19.7882591095"></trkpt><trkpt lat="49.2371051107" lon="19.7879270185"></trkpt><trkpt lat="49.2372581642" lon="19.787491411"></trkpt><trkpt lat="49.2373285722" lon="19.7869834676"></trkpt><trkpt lat="49.2374377884" lon="19.786544675"></trkpt><trkpt lat="49.2376003135" lon="19.7861191258"></trkpt><trkpt lat="49.2375942785" lon="19.7856254317"></trkpt><trkpt lat="49.2375101242" lon="19.7851904109"></trkpt><trkpt lat="49.2374391295" lon="19.7843706608"></trkpt><trkpt lat="49.2375952005" lon="19.7840285115"></trkpt><trkpt lat="49.2377289757" lon="19.7836209834"></trkpt><trkpt lat="49.2379589751" lon="19.7832033969"></trkpt><trkpt lat="49.2381836101" lon="19.7829381097"></trkpt><trkpt lat="49.2383881286" lon="19.7824265622"></trkpt><trkpt lat="49.2385138571" lon="19.7819705866"></trkpt><trkpt lat="49.238662133" lon="19.7815711051"></trkpt><trkpt lat="49.2388903722" lon="19.781242786"></trkpt><trkpt lat="49.2392595951" lon="19.7812364157"></trkpt><trkpt lat="49.2395825498" lon="19.781131139"></trkpt><trkpt lat="49.2397877388" lon="19.7808599845"></trkpt><trkpt lat="49.2412590142" lon="19.7784485109"></trkpt><trkpt lat="49.2409975827" lon="19.7780842334"></trkpt><trkpt lat="49.2407191359" lon="19.7778466064"></trkpt><trkpt lat="49.2404116876" lon="19.7777783778"></trkpt><trkpt lat="49.2400200851" lon="19.7778000869"></trkpt><trkpt lat="49.2386452015" lon="19.7775202151"></trkpt><trkpt lat="49.2383093387" lon="19.7774047125"></trkpt><trkpt lat="49.2378821969" lon="19.7774754558"></trkpt><trkpt lat="49.2375726532" lon="19.7775886953"></trkpt><trkpt lat="49.2372046877" lon="19.7776293475"></trkpt><trkpt lat="49.2363516614" lon="19.7773539182"></trkpt><trkpt lat="49.236563053" lon="19.7770946659"></trkpt><trkpt lat="49.2371471878" lon="19.776194701"></trkpt><trkpt lat="49.2372025084" lon="19.7757353727"></trkpt><trkpt lat="49.2373727448" lon="19.7748069093"></trkpt><trkpt lat="49.237595452" lon="19.7740155738"></trkpt><trkpt lat="49.2378487531" lon="19.7738258913"></trkpt><trkpt lat="49.2380713765" lon="19.7735242266"></trkpt><trkpt lat="49.2383198161" lon="19.7732496355"></trkpt><trkpt lat="49.238562556" lon="19.772903882"></trkpt><trkpt lat="49.2385636456" lon="19.7724733874"></trkpt><trkpt lat="49.2383909784" lon="19.7721209284"></trkpt><trkpt lat="49.2382478993" lon="19.7717605904"></trkpt><trkpt lat="49.2380650062" lon="19.7714396473"></trkpt><trkpt lat="49.2379047442" lon="19.7710778005"></trkpt><trkpt lat="49.2377119604" lon="19.7707583662"></trkpt><trkpt lat="49.2376679555" lon="19.7702971939"></trkpt><trkpt lat="49.2374614254" lon="19.7699574754"></trkpt><trkpt lat="49.2372957151" lon="19.769587582"></trkpt><trkpt lat="49.2370771989" lon="19.7693153378"></trkpt><trkpt lat="49.2368662264" lon="19.7689985018"></trkpt><trkpt lat="49.2366033699" lon="19.7687461227"></trkpt><trkpt lat="49.2365260888" lon="19.7683021333"></trkpt><trkpt lat="49.2366415914" lon="19.7678759135"></trkpt><trkpt lat="49.236623235" lon="19.7673859075"></trkpt><trkpt lat="49.2366348021" lon="19.7668026108"></trkpt><trkpt lat="49.2363340594" lon="19.7667994257"></trkpt><trkpt lat="49.2360544391" lon="19.7667107452"></trkpt><trkpt lat="49.2344741151" lon="19.7664400097"></trkpt><trkpt lat="49.2341940757" lon="19.7665908001"></trkpt><trkpt lat="49.2337432131" lon="19.7669119108"></trkpt><trkpt lat="49.2334412131" lon="19.7670300957"></trkpt><trkpt lat="49.2331567314" lon="19.7672010865"></trkpt><trkpt lat="49.232912818" lon="19.7673997376"></trkpt><trkpt lat="49.2323635519" lon="19.7677396238"></trkpt><trkpt lat="49.2320845183" lon="19.7678210959"></trkpt><trkpt lat="49.2318131123" lon="19.7680341639"></trkpt><trkpt lat="49.2315406166" lon="19.7681746446"></trkpt><trkpt lat="49.2312718928" lon="19.7684169654"></trkpt><trkpt lat="49.2305462714" lon="19.7689181194"></trkpt><trkpt lat="49.2301810719" lon="19.769022055"></trkpt><trkpt lat="49.2298233323" lon="19.7689891141"></trkpt><trkpt lat="49.2294787522" lon="19.7688294388"></trkpt><trkpt lat="49.2286710721" lon="19.7685706895"></trkpt><trkpt lat="49.2279950716" lon="19.7682512552"></trkpt><trkpt lat="49.2277301196" lon="19.768069284"></trkpt><trkpt lat="49.2269687075" lon="19.7676852252"></trkpt><trkpt lat="49.2266347725" lon="19.7676161584"></trkpt><trkpt lat="49.2263569962" lon="19.7674772702"></trkpt><trkpt lat="49.2260878533" lon="19.7674336843"></trkpt><trkpt lat="49.225732293" lon="19.7673061956"></trkpt><trkpt lat="49.2254276108" lon="19.7672449239"></trkpt><trkpt lat="49.224825874" lon="19.7672357876"></trkpt><trkpt lat="49.2245312501" lon="19.7673391365"></trkpt><trkpt lat="49.2242346983" lon="19.7673804592"></trkpt><trkpt lat="49.2235973384" lon="19.7673811298"></trkpt><trkpt lat="49.2233332247" lon="19.7672901861"></trkpt><trkpt lat="49.2230777442" lon="19.7671192791"></trkpt><trkpt lat="49.222868029" lon="19.7668171953"></trkpt><trkpt lat="49.2225928511" lon="19.7666186281"></trkpt><trkpt lat="49.2217845004" lon="19.7658943478"></trkpt><trkpt lat="49.2210627347" lon="19.7653768491"></trkpt><trkpt lat="49.220460495" lon="19.76483915"></trkpt><trkpt lat="49.2201952916" lon="19.764501946"></trkpt><trkpt lat="49.2199642863" lon="19.7642579488"></trkpt><trkpt lat="49.2197686527" lon="19.7639199905"></trkpt><trkpt lat="49.2195583507" lon="19.7636157274"></trkpt><trkpt lat="49.2153970711" lon="19.7585941292"></trkpt><trkpt lat="49.2151148524" lon="19.7587043513"></trkpt><trkpt lat="49.2145473137" lon="19.7588324267"></trkpt><trkpt lat="49.2142187431" lon="19.7588532977"></trkpt><trkpt lat="49.2139278073" lon="19.7589895036"></trkpt><trkpt lat="49.2136284057" lon="19.7590383701"></trkpt><trkpt lat="49.2133306805" lon="19.7591905855"></trkpt><trkpt lat="49.2130189575" lon="19.7593044955"></trkpt><trkpt lat="49.2127302848" lon="19.7593522724"></trkpt><trkpt lat="49.2112963926" lon="19.759798022"></trkpt><trkpt lat="49.2110485397" lon="19.7599719465"></trkpt><trkpt lat="49.2096462473" lon="19.7612099536"></trkpt><trkpt lat="49.2094504461" lon="19.7615137976"></trkpt><trkpt lat="49.2091750167" lon="19.7616782505"></trkpt><trkpt lat="49.2089590151" lon="19.7619313002"></trkpt><trkpt lat="49.2088932171" lon="19.7623343859"></trkpt><trkpt lat="49.2086293548" lon="19.7624585219"></trkpt><trkpt lat="49.2083864473" lon="19.7626476176"></trkpt><trkpt lat="49.2082016263" lon="19.7630060278"></trkpt><trkpt lat="49.2079234309" lon="19.7630729154"></trkpt><trkpt lat="49.207644565" lon="19.7631018329"></trkpt><trkpt lat="49.2074607499" lon="19.7634055931"></trkpt><trkpt lat="49.207341224" lon="19.763824353"></trkpt><trkpt lat="49.2072677147" lon="19.7642236669"></trkpt><trkpt lat="49.2070362903" lon="19.7650862485"></trkpt><trkpt lat="49.2068453506" lon="19.7655899171"></trkpt><trkpt lat="49.2066099867" lon="19.7658174857"></trkpt><trkpt lat="49.206475541" lon="19.7661872115"></trkpt><trkpt lat="49.2063640617" lon="19.7665761318"></trkpt><trkpt lat="49.2061783187" lon="19.7668865975"></trkpt><trkpt lat="49.2060356587" lon="19.7672489472"></trkpt><trkpt lat="49.2059049848" lon="19.7676820401"></trkpt><trkpt lat="49.2059864569" lon="19.7680972796"></trkpt><trkpt lat="49.2060364131" lon="19.7685136925"></trkpt><trkpt lat="49.2060079984" lon="19.7689248249"></trkpt><trkpt lat="49.2059131991" lon="19.7693376336"></trkpt><trkpt lat="49.2059224192" lon="19.7697998956"></trkpt><trkpt lat="49.2058816832" lon="19.7702270374"></trkpt><trkpt lat="49.2058037315" lon="19.7707112599"></trkpt><trkpt lat="49.2056936771" lon="19.7711174469"></trkpt><trkpt lat="49.2058100179" lon="19.7706925683"></trkpt><trkpt lat="49.2059162166" lon="19.7701510135"></trkpt><trkpt lat="49.2058921605" lon="19.7696748376"></trkpt><trkpt lat="49.2058378458" lon="19.7691810597"></trkpt><trkpt lat="49.2059325613" lon="19.7687866073"></trkpt><trkpt lat="49.2060030531" lon="19.7683709487"></trkpt><trkpt lat="49.2059615627" lon="19.7679158114"></trkpt><trkpt lat="49.2060261033" lon="19.7675136477"></trkpt><trkpt lat="49.2061767261" lon="19.7668857593"></trkpt><trkpt lat="49.2063562665" lon="19.7665422689"></trkpt><trkpt lat="49.2064596992" lon="19.7661544383"></trkpt><trkpt lat="49.206619123" lon="19.7658034042"></trkpt><trkpt lat="49.2068680655" lon="19.7655954491"></trkpt><trkpt lat="49.2070277408" lon="19.7652314231"></trkpt><trkpt lat="49.2071953788" lon="19.764724737"></trkpt><trkpt lat="49.2072372045" lon="19.7643086594"></trkpt><trkpt lat="49.2073533777" lon="19.7638963535"></trkpt><trkpt lat="49.2074239533" lon="19.7634662781"></trkpt><trkpt lat="49.2075730674" lon="19.7630927805"></trkpt><trkpt lat="49.2078541126" lon="19.763127733"></trkpt><trkpt lat="49.2081300449" lon="19.7630324308"></trkpt><trkpt lat="49.2087707575" lon="19.7627000045"></trkpt><trkpt lat="49.2089290917" lon="19.762292644"></trkpt><trkpt lat="49.2089914531" lon="19.7618851997"></trkpt><trkpt lat="49.2092707381" lon="19.7616558708"></trkpt><trkpt lat="49.2094973847" lon="19.7614158131"></trkpt><trkpt lat="49.2096957006" lon="19.7611268889"></trkpt><trkpt lat="49.2099428829" lon="19.7608398926"></trkpt><trkpt lat="49.2103017122" lon="19.7605660558"></trkpt><trkpt lat="49.2105845176" lon="19.7602786403"></trkpt><trkpt lat="49.2108628806" lon="19.7601234075"></trkpt><trkpt lat="49.2111137509" lon="19.759920733"></trkpt><trkpt lat="49.2113815527" lon="19.7598284483"></trkpt><trkpt lat="49.2115401383" lon="19.7601721063"></trkpt><trkpt lat="49.2113455106" lon="19.7604820691"></trkpt><trkpt lat="49.2112791259" lon="19.7608854901"></trkpt><trkpt lat="49.2113315966" lon="19.7613116261"></trkpt><trkpt lat="49.2116015777" lon="19.7612107079"></trkpt><trkpt lat="49.2120145541" lon="19.7611244582"></trkpt><trkpt lat="49.2124481499" lon="19.7612759192"></trkpt><trkpt lat="49.2125691008" lon="19.7616549488"></trkpt><trkpt lat="49.2140683718" lon="19.7654636018"></trkpt><trkpt lat="49.2142590601" lon="19.7658505104"></trkpt><trkpt lat="49.2151721846" lon="19.7681541927"></trkpt><trkpt lat="49.2152631283" lon="19.7685786523"></trkpt><trkpt lat="49.2151181214" lon="19.7690042015"></trkpt><trkpt lat="49.214881584" lon="19.7692185268"></trkpt><trkpt lat="49.214826934" lon="19.7696694732"></trkpt><trkpt lat="49.2148172949" lon="19.7704322264"></trkpt><trkpt lat="49.2149653193" lon="19.770804299"></trkpt><trkpt lat="49.2151320353" lon="19.7713713348"></trkpt><trkpt lat="49.2151501402" lon="19.7718221135"></trkpt><trkpt lat="49.2152064666" lon="19.7722565476"></trkpt><trkpt lat="49.2152193747" lon="19.7727082483"></trkpt><trkpt lat="49.2153021041" lon="19.773137318"></trkpt><trkpt lat="49.2155714985" lon="19.7733815666"></trkpt><trkpt lat="49.21581164" lon="19.7736710776"></trkpt><trkpt lat="49.2160646059" lon="19.773886241"></trkpt><trkpt lat="49.2163158953" lon="19.7741651908"></trkpt><trkpt lat="49.2165709566" lon="19.7743391152"></trkpt><trkpt lat="49.2167790793" lon="19.7746625729"></trkpt><trkpt lat="49.217020059" lon="19.7749005351"></trkpt><trkpt lat="49.2173055466" lon="19.7749847732"></trkpt><trkpt lat="49.2180624325" lon="19.7753239889"></trkpt><trkpt lat="49.2183388676" lon="19.7755710036"></trkpt><trkpt lat="49.2185655981" lon="19.7758482769"></trkpt><trkpt lat="49.2188395187" lon="19.7761268076"></trkpt><trkpt lat="49.219060801" lon="19.7764850501"></trkpt><trkpt lat="49.219319215" lon="19.7766453121"></trkpt><trkpt lat="49.2195141781" lon="19.7769692726"></trkpt><trkpt lat="49.2197262403" lon="19.7773942351"></trkpt><trkpt lat="49.2199661303" lon="19.7776720114"></trkpt><trkpt lat="49.220408611" lon="19.7783020791"></trkpt><trkpt lat="49.2205622513" lon="19.7787038237"></trkpt><trkpt lat="49.2207657639" lon="19.779071454"></trkpt><trkpt lat="49.2210015468" lon="19.7793701012"></trkpt><trkpt lat="49.22129374" lon="19.7798433434"></trkpt><trkpt lat="49.2222745065" lon="19.7817434371"></trkpt><trkpt lat="49.2225279752" lon="19.7820780426"></trkpt><trkpt lat="49.2226865608" lon="19.7824839782"></trkpt><trkpt lat="49.2229184043" lon="19.7827998921"></trkpt><trkpt lat="49.2232387606" lon="19.7829955257"></trkpt><trkpt lat="49.2235553451" lon="19.7828971222"></trkpt><trkpt lat="49.2238752823" lon="19.7829253692"></trkpt><trkpt lat="49.2241797969" lon="19.7831034847"></trkpt><trkpt lat="49.224448856" lon="19.7831386048"></trkpt><trkpt lat="49.2247009836" lon="19.7829511855"></trkpt><trkpt lat="49.2249376047" lon="19.782734178"></trkpt><trkpt lat="49.225137094" lon="19.7830414586"></trkpt><trkpt lat="49.2252985295" lon="19.783384027"></trkpt><trkpt lat="49.2253670935" lon="19.7837990988"></trkpt><trkpt lat="49.2256759666" lon="19.7838229872"></trkpt><trkpt lat="49.2259798106" lon="19.7836186364"></trkpt><trkpt lat="49.2262713332" lon="19.7836835962"></trkpt><trkpt lat="49.2265908513" lon="19.783667922"></trkpt><trkpt lat="49.2273228429" lon="19.7838270105"></trkpt><trkpt lat="49.2275639903" lon="19.78404033"></trkpt><trkpt lat="49.2279130127" lon="19.784107469"></trkpt><trkpt lat="49.2282759491" lon="19.784103781"></trkpt><trkpt lat="49.2285434995" lon="19.7840340436"></trkpt><trkpt lat="49.2288164981" lon="19.7840265837"></trkpt><trkpt lat="49.2290910892" lon="19.7841097321"></trkpt><trkpt lat="49.2299147788" lon="19.7842451837"></trkpt><trkpt lat="49.2305835709" lon="19.7842601873"></trkpt><trkpt lat="49.231248172" lon="19.7843765281"></trkpt><trkpt lat="49.2315952666" lon="19.7845371254"></trkpt><trkpt lat="49.2321810778" lon="19.7849005647"></trkpt><trkpt lat="49.2336215917" lon="19.7860479634"></trkpt><trkpt lat="49.2337769084" lon="19.7863986623"></trkpt><trkpt lat="49.234781228" lon="19.7882404178"></trkpt><trkpt lat="49.2350292485" lon="19.7884264123"></trkpt><trkpt lat="49.2353005707" lon="19.7887344472"></trkpt><trkpt lat="49.2355446517" lon="19.7889486887"></trkpt><trkpt lat="49.2357612401" lon="19.7892270517"></trkpt><trkpt lat="49.2361279484" lon="19.7890729923"></trkpt><trkpt lat="49.2363788188" lon="19.7889010794"></trkpt><trkpt lat="49.2363962531" lon="19.788335301"></trkpt></trkseg></trk></gpx>