<?xml version="1.0" encoding="UTF-8" standalone="no" ?><gpx xmlns="http://www.topografix.com/GPX/1/1" xmlns:gpxx="http://www.garmin.com/xmlschemas/GpxExtensions/v3" ><trk><trkseg><trkpt lat="52.2801299952" lon="16.7093637027"></trkpt><trkpt lat="52.2798922006" lon="16.7091029417"></trkpt><trkpt lat="52.2796316072" lon="16.708898088"></trkpt><trkpt lat="52.2793805692" lon="16.7085829284"></trkpt><trkpt lat="52.2791061457" lon="16.7086035479"></trkpt><trkpt lat="52.2787409462" lon="16.7087191343"></trkpt><trkpt lat="52.2790970095" lon="16.7088265903"></trkpt><trkpt lat="52.2792508174" lon="16.7094209511"></trkpt><trkpt lat="52.2792507336" lon="16.710168533"></trkpt><trkpt lat="52.2791925631" lon="16.711192634"></trkpt><trkpt lat="52.2791820019" lon="16.7242048681"></trkpt><trkpt lat="52.2793938126" lon="16.7246242147"></trkpt><trkpt lat="52.2795716766" lon="16.7251692899"></trkpt><trkpt lat="52.2798062861" lon="16.7255941685"></trkpt><trkpt lat="52.2798876744" lon="16.7261188757"></trkpt><trkpt lat="52.2798562422" lon="16.7266424932"></trkpt><trkpt lat="52.279892033" lon="16.7272230238"></trkpt><trkpt lat="52.2798795439" lon="16.7279407661"></trkpt><trkpt lat="52.2797663044" lon="16.7287610192"></trkpt><trkpt lat="52.2795943916" lon="16.7291190941"></trkpt><trkpt lat="52.2791664116" lon="16.7302151956"></trkpt><trkpt lat="52.2794017754" lon="16.7309160065"></trkpt><trkpt lat="52.2796794679" lon="16.7314032465"></trkpt><trkpt lat="52.2799148317" lon="16.7319776583"></trkpt><trkpt lat="52.2803241201" lon="16.7327948101"></trkpt><trkpt lat="52.2804919258" lon="16.7333477642"></trkpt><trkpt lat="52.2806952707" lon="16.733819833"></trkpt><trkpt lat="52.2808844503" lon="16.7341769859"></trkpt><trkpt lat="52.2811574489" lon="16.7348490469"></trkpt><trkpt lat="52.2811692674" lon="16.7354794499"></trkpt><trkpt lat="52.2811076604" lon="16.7360701226"></trkpt><trkpt lat="52.2814187966" lon="16.7362047359"></trkpt><trkpt lat="52.2825681232" lon="16.7359081842"></trkpt><trkpt lat="52.2833104245" lon="16.7358302325"></trkpt><trkpt lat="52.2836630512" lon="16.7360901553"></trkpt><trkpt lat="52.2840376385" lon="16.7361061648"></trkpt><trkpt lat="52.2842610162" lon="16.7363815941"></trkpt><trkpt lat="52.2843601741" lon="16.7368236557"></trkpt><trkpt lat="52.2843695618" lon="16.7372970656"></trkpt><trkpt lat="52.2844580747" lon="16.7378018238"></trkpt><trkpt lat="52.2844512016" lon="16.7386124376"></trkpt><trkpt lat="52.2841753531" lon="16.7430081591"></trkpt><trkpt lat="52.2839993332" lon="16.7435795534"></trkpt><trkpt lat="52.2836204711" lon="16.7455938924"></trkpt><trkpt lat="52.2836156096" lon="16.7461605091"></trkpt><trkpt lat="52.2837061342" lon="16.7468398623"></trkpt><trkpt lat="52.2837322857" lon="16.7475461215"></trkpt><trkpt lat="52.2839041147" lon="16.7480260693"></trkpt><trkpt lat="52.2839530651" lon="16.7484878283"></trkpt><trkpt lat="52.2840365488" lon="16.7489847075"></trkpt><trkpt lat="52.2840673104" lon="16.749520814"></trkpt><trkpt lat="52.2840624489" lon="16.7508768383"></trkpt><trkpt lat="52.2841504589" lon="16.7513433751"></trkpt><trkpt lat="52.2845454141" lon="16.7528390419"></trkpt><trkpt lat="52.2848496772" lon="16.7543421686"></trkpt><trkpt lat="52.2851168923" lon="16.7546892632"></trkpt><trkpt lat="52.2856315412" lon="16.7555379309"></trkpt><trkpt lat="52.2857518215" lon="16.7559545115"></trkpt><trkpt lat="52.2860462777" lon="16.7562886979"></trkpt><trkpt lat="52.2863039374" lon="16.7567254789"></trkpt><trkpt lat="52.286679782" lon="16.7575482465"></trkpt><trkpt lat="52.2862942982" lon="16.7578316387"></trkpt><trkpt lat="52.2780448291" lon="16.7623828445"></trkpt><trkpt lat="52.2777981497" lon="16.7620592192"></trkpt><trkpt lat="52.277591452" lon="16.7616798542"></trkpt><trkpt lat="52.2768300399" lon="16.7605179548"></trkpt><trkpt lat="52.2765809298" lon="16.7602053937"></trkpt><trkpt lat="52.2762480006" lon="16.7601576168"></trkpt><trkpt lat="52.2760106251" lon="16.7605134286"></trkpt><trkpt lat="52.2739058454" lon="16.7631419096"></trkpt><trkpt lat="52.2736418992" lon="16.7633614317"></trkpt><trkpt lat="52.2732901946" lon="16.7635332607"></trkpt><trkpt lat="52.2728269268" lon="16.7636827938"></trkpt><trkpt lat="52.2724950872" lon="16.7637089454"></trkpt><trkpt lat="52.2724160459" lon="16.7641351651"></trkpt><trkpt lat="52.2725561075" lon="16.7645449564"></trkpt><trkpt lat="52.2735432442" lon="16.7681873124"></trkpt><trkpt lat="52.2737166658" lon="16.7686652485"></trkpt><trkpt lat="52.2738595773" lon="16.7691846751"></trkpt><trkpt lat="52.275604438" lon="16.7774926499"></trkpt><trkpt lat="52.2754615266" lon="16.7780943029"></trkpt><trkpt lat="52.2724930756" lon="16.7921999563"></trkpt><trkpt lat="52.2706742026" lon="16.7988740467"></trkpt><trkpt lat="52.2705219034" lon="16.7992389947"></trkpt><trkpt lat="52.2685238253" lon="16.8029791676"></trkpt><trkpt lat="52.2677680291" lon="16.8019221257"></trkpt><trkpt lat="52.2674423084" lon="16.801964622"></trkpt><trkpt lat="52.2671634424" lon="16.8018693198"></trkpt><trkpt lat="52.2660732083" lon="16.8011630606"></trkpt><trkpt lat="52.2659955081" lon="16.8006997928"></trkpt><trkpt lat="52.2658809274" lon="16.8002372794"></trkpt><trkpt lat="52.2656163946" lon="16.8000587448"></trkpt><trkpt lat="52.2647558246" lon="16.8004245311"></trkpt><trkpt lat="52.260344848" lon="16.8030235916"></trkpt><trkpt lat="52.2600953188" lon="16.8035108317"></trkpt><trkpt lat="52.2599441931" lon="16.8040220439"></trkpt><trkpt lat="52.2596560232" lon="16.8044597469"></trkpt><trkpt lat="52.259286046" lon="16.8048370164"></trkpt><trkpt lat="52.258985471" lon="16.8053007033"></trkpt><trkpt lat="52.2578240745" lon="16.8067283928"></trkpt><trkpt lat="52.2574920673" lon="16.8068133015"></trkpt><trkpt lat="52.2571549471" lon="16.8067773432"></trkpt><trkpt lat="52.2567417193" lon="16.8064549752"></trkpt><trkpt lat="52.2559907846" lon="16.8060028553"></trkpt><trkpt lat="52.2555816639" lon="16.8061694037"></trkpt><trkpt lat="52.2553299554" lon="16.8063832261"></trkpt><trkpt lat="52.255032314" lon="16.8067248724"></trkpt><trkpt lat="52.2546167392" lon="16.8070565443"></trkpt><trkpt lat="52.2542378772" lon="16.8074448779"></trkpt><trkpt lat="52.2538128309" lon="16.8079715967"></trkpt><trkpt lat="52.2535861004" lon="16.8084595073"></trkpt><trkpt lat="52.2533733677" lon="16.8088262994"></trkpt><trkpt lat="52.2531256825" lon="16.8091590609"></trkpt><trkpt lat="52.2528060805" lon="16.8096909765"></trkpt><trkpt lat="52.2525817808" lon="16.8101507239"></trkpt><trkpt lat="52.2524355166" lon="16.8106009159"></trkpt><trkpt lat="52.2522311658" lon="16.8110369425"></trkpt><trkpt lat="52.2519554012" lon="16.8113451451"></trkpt><trkpt lat="52.251191726" lon="16.8124209624"></trkpt><trkpt lat="52.2511072364" lon="16.8130243756"></trkpt><trkpt lat="52.2509476449" lon="16.8135210872"></trkpt><trkpt lat="52.2508527618" lon="16.8139810022"></trkpt><trkpt lat="52.2505375184" lon="16.814278895"></trkpt><trkpt lat="52.250254713" lon="16.8143949006"></trkpt><trkpt lat="52.2498577461" lon="16.8144767918"></trkpt><trkpt lat="52.249596063" lon="16.8146614451"></trkpt><trkpt lat="52.249604445" lon="16.8153037503"></trkpt><trkpt lat="52.2497151699" lon="16.8158856221"></trkpt><trkpt lat="52.2498140763" lon="16.8172227871"></trkpt><trkpt lat="52.2497338615" lon="16.8176951073"></trkpt><trkpt lat="52.2495881002" lon="16.8180806749"></trkpt><trkpt lat="52.2494754475" lon="16.8185160309"></trkpt><trkpt lat="52.249292722" lon="16.8190585077"></trkpt><trkpt lat="52.2489145305" lon="16.8204628117"></trkpt><trkpt lat="52.2488236707" lon="16.8209347129"></trkpt><trkpt lat="52.2487003729" lon="16.8213759363"></trkpt><trkpt lat="52.2484248597" lon="16.8226526678"></trkpt><trkpt lat="52.2486009635" lon="16.823043013"></trkpt><trkpt lat="52.2486069985" lon="16.8234889302"></trkpt><trkpt lat="52.2486816812" lon="16.8239594903"></trkpt><trkpt lat="52.248807326" lon="16.8244895618"></trkpt><trkpt lat="52.2490026243" lon="16.8249696773"></trkpt><trkpt lat="52.2492452804" lon="16.8253408279"></trkpt><trkpt lat="52.2495946381" lon="16.8260743283"></trkpt><trkpt lat="52.2498912737" lon="16.8260959536"></trkpt><trkpt lat="52.250999948" lon="16.8264142983"></trkpt><trkpt lat="52.2512084898" lon="16.8267225008"></trkpt><trkpt lat="52.2527086828" lon="16.8294208869"></trkpt><trkpt lat="52.2528845351" lon="16.8299037684"></trkpt><trkpt lat="52.2532887105" lon="16.8313099165"></trkpt><trkpt lat="52.2530890536" lon="16.8317036144"></trkpt><trkpt lat="52.2468148638" lon="16.8422477972"></trkpt><trkpt lat="52.2457269765" lon="16.8434822839"></trkpt></trkseg></trk></gpx>