<?xml version="1.0" encoding="UTF-8" standalone="no" ?><gpx xmlns="http://www.topografix.com/GPX/1/1" xmlns:gpxx="http://www.garmin.com/xmlschemas/GpxExtensions/v3" ><trk><trkseg><trkpt lat="50.172561463" lon="16.7713642213"></trkpt><trkpt lat="50.1726804022" lon="16.7719419859"></trkpt><trkpt lat="50.1727006864" lon="16.7724768352"></trkpt><trkpt lat="50.1727949828" lon="16.7734267563"></trkpt><trkpt lat="50.172945438" lon="16.7739129905"></trkpt><trkpt lat="50.1731119025" lon="16.7742970493"></trkpt><trkpt lat="50.173697127" lon="16.7760139145"></trkpt><trkpt lat="50.1739201695" lon="16.7764831334"></trkpt><trkpt lat="50.174191827" lon="16.7766402103"></trkpt><trkpt lat="50.1744783204" lon="16.7765270546"></trkpt><trkpt lat="50.1747721061" lon="16.7762139905"></trkpt><trkpt lat="50.1754878368" lon="16.7756915465"></trkpt><trkpt lat="50.1757751685" lon="16.7757058796"></trkpt><trkpt lat="50.1770094037" lon="16.7760045268"></trkpt><trkpt lat="50.1772808097" lon="16.7763102148"></trkpt><trkpt lat="50.1775009185" lon="16.7768112011"></trkpt><trkpt lat="50.1792929694" lon="16.7817928176"></trkpt><trkpt lat="50.1792968251" lon="16.7822565883"></trkpt><trkpt lat="50.1791947335" lon="16.7841051333"></trkpt><trkpt lat="50.1792131737" lon="16.7866688222"></trkpt><trkpt lat="50.1791621279" lon="16.787195541"></trkpt><trkpt lat="50.1791473757" lon="16.7876500916"></trkpt><trkpt lat="50.1791703422" lon="16.7885553371"></trkpt><trkpt lat="50.1790758781" lon="16.791119026"></trkpt><trkpt lat="50.1789769717" lon="16.7915534601"></trkpt><trkpt lat="50.1788255107" lon="16.7920144647"></trkpt><trkpt lat="50.1790983416" lon="16.7921197414"></trkpt><trkpt lat="50.1793933008" lon="16.7919557076"></trkpt><trkpt lat="50.1797801256" lon="16.7916034162"></trkpt><trkpt lat="50.1807854511" lon="16.7908873502"></trkpt><trkpt lat="50.1808376703" lon="16.7902991083"></trkpt><trkpt lat="50.1808495726" lon="16.7894744128"></trkpt><trkpt lat="50.1807325613" lon="16.7899366748"></trkpt><trkpt lat="50.1807846967" lon="16.790427519"></trkpt><trkpt lat="50.180661818" lon="16.7908455245"></trkpt><trkpt lat="50.1803943515" lon="16.7910943832"></trkpt><trkpt lat="50.179277882" lon="16.7924398463"></trkpt><trkpt lat="50.1795439236" lon="16.7925166246"></trkpt><trkpt lat="50.1803854667" lon="16.7926416826"></trkpt><trkpt lat="50.1822735742" lon="16.792650735"></trkpt><trkpt lat="50.1824614964" lon="16.792196352"></trkpt><trkpt lat="50.1825959422" lon="16.7917500995"></trkpt><trkpt lat="50.1827945933" lon="16.7912877537"></trkpt><trkpt lat="50.183111513" lon="16.7911396455"></trkpt><trkpt lat="50.1833348069" lon="16.7914745025"></trkpt><trkpt lat="50.183416279" lon="16.791885132"></trkpt><trkpt lat="50.1835749485" lon="16.7923794966"></trkpt><trkpt lat="50.1837528963" lon="16.7927017808"></trkpt><trkpt lat="50.1847510971" lon="16.7941741459"></trkpt><trkpt lat="50.1850000396" lon="16.7944064923"></trkpt><trkpt lat="50.1852171309" lon="16.7947123479"></trkpt><trkpt lat="50.1873174682" lon="16.7982589826"></trkpt><trkpt lat="50.1874781493" lon="16.7986385152"></trkpt><trkpt lat="50.1877962425" lon="16.7992216442"></trkpt><trkpt lat="50.1879560016" lon="16.7995749414"></trkpt><trkpt lat="50.1881710812" lon="16.7998828925"></trkpt><trkpt lat="50.1883861609" lon="16.8002542946"></trkpt><trkpt lat="50.1889315713" lon="16.8010149524"></trkpt><trkpt lat="50.1891682763" lon="16.8012802396"></trkpt><trkpt lat="50.1899171993" lon="16.8018725049"></trkpt><trkpt lat="50.1901973225" lon="16.8017559964"></trkpt><trkpt lat="50.1905121468" lon="16.8017461058"></trkpt><trkpt lat="50.1908161584" lon="16.8018382229"></trkpt><trkpt lat="50.1915128622" lon="16.8021526281"></trkpt><trkpt lat="50.1917825919" lon="16.8022309989"></trkpt><trkpt lat="50.1917289477" lon="16.8027174007"></trkpt><trkpt lat="50.1917152852" lon="16.803682493"></trkpt><trkpt lat="50.1918469649" lon="16.8040679768"></trkpt><trkpt lat="50.1919541694" lon="16.8044886645"></trkpt><trkpt lat="50.1933900733" lon="16.8089346774"></trkpt><trkpt lat="50.1936196536" lon="16.8092850409"></trkpt><trkpt lat="50.1944264118" lon="16.8103049509"></trkpt><trkpt lat="50.1947103068" lon="16.8105399795"></trkpt><trkpt lat="50.1950470079" lon="16.8108890858"></trkpt><trkpt lat="50.1953329984" lon="16.8110819533"></trkpt><trkpt lat="50.1955593936" lon="16.8113376014"></trkpt><trkpt lat="50.1958478149" lon="16.8115992844"></trkpt><trkpt lat="50.1964358892" lon="16.8122645561"></trkpt><trkpt lat="50.1966135856" lon="16.812598072"></trkpt><trkpt lat="50.1967717521" lon="16.8130460009"></trkpt><trkpt lat="50.1969529688" lon="16.8134541158"></trkpt><trkpt lat="50.1969836466" lon="16.8139410205"></trkpt><trkpt lat="50.1968958881" lon="16.8143407535"></trkpt><trkpt lat="50.1967127435" lon="16.8147080485"></trkpt><trkpt lat="50.1964731887" lon="16.814970402"></trkpt><trkpt lat="50.1953836251" lon="16.816414604"></trkpt><trkpt lat="50.1951681264" lon="16.8168285023"></trkpt><trkpt lat="50.1950259693" lon="16.8172405567"></trkpt><trkpt lat="50.1949725766" lon="16.817713799"></trkpt><trkpt lat="50.1949549746" lon="16.8181464728"></trkpt><trkpt lat="50.1950158272" lon="16.8185636401"></trkpt><trkpt lat="50.1951290667" lon="16.8190715834"></trkpt><trkpt lat="50.1953086909" lon="16.8195364438"></trkpt><trkpt lat="50.1955210883" lon="16.8202426191"></trkpt><trkpt lat="50.1956123672" lon="16.8206757959"></trkpt><trkpt lat="50.1961463783" lon="16.822481174"></trkpt><trkpt lat="50.1963968296" lon="16.8228306156"></trkpt><trkpt lat="50.1967503782" lon="16.8232425023"></trkpt><trkpt lat="50.197010804" lon="16.8234368786"></trkpt><trkpt lat="50.197222447" lon="16.8236999027"></trkpt><trkpt lat="50.1974428911" lon="16.8241223507"></trkpt><trkpt lat="50.1976313163" lon="16.8245639093"></trkpt><trkpt lat="50.1978882216" lon="16.8248494808"></trkpt><trkpt lat="50.198136745" lon="16.8251817394"></trkpt><trkpt lat="50.1983509026" lon="16.8255495373"></trkpt><trkpt lat="50.1985892002" lon="16.8258648645"></trkpt><trkpt lat="50.1994601637" lon="16.8273186218"></trkpt><trkpt lat="50.1996001415" lon="16.8277227972"></trkpt><trkpt lat="50.199801391" lon="16.8280382082"></trkpt><trkpt lat="50.2000476513" lon="16.8282630946"></trkpt><trkpt lat="50.2001527604" lon="16.8287068326"></trkpt><trkpt lat="50.2003714442" lon="16.829384258"></trkpt><trkpt lat="50.200595241" lon="16.8296571728"></trkpt><trkpt lat="50.2011201158" lon="16.8305030745"></trkpt><trkpt lat="50.2012464311" lon="16.8310357444"></trkpt><trkpt lat="50.2013854869" lon="16.8314167019"></trkpt><trkpt lat="50.2016352676" lon="16.8323492724"></trkpt><trkpt lat="50.2017204277" lon="16.8328285497"></trkpt><trkpt lat="50.2020286303" lon="16.8329328205"></trkpt><trkpt lat="50.2023725398" lon="16.832869621"></trkpt><trkpt lat="50.2027940657" lon="16.8330103531"></trkpt><trkpt lat="50.203204276" lon="16.8330774084"></trkpt><trkpt lat="50.2034864109" lon="16.8330763187"></trkpt><trkpt lat="50.207351055" lon="16.8325089477"></trkpt><trkpt lat="50.2080089506" lon="16.8323032558"></trkpt><trkpt lat="50.2077926975" lon="16.833125269"></trkpt><trkpt lat="50.207972154" lon="16.8324966263"></trkpt><trkpt lat="50.2078626864" lon="16.8329225108"></trkpt><trkpt lat="50.2077017538" lon="16.8333468866"></trkpt><trkpt lat="50.2069952432" lon="16.8348699622"></trkpt><trkpt lat="50.2067684289" lon="16.8352211639"></trkpt><trkpt lat="50.2064812649" lon="16.8355557695"></trkpt><trkpt lat="50.2062374353" lon="16.8357608747"></trkpt><trkpt lat="50.2060084417" lon="16.8361107353"></trkpt><trkpt lat="50.2056747582" lon="16.8364261463"></trkpt><trkpt lat="50.2054083813" lon="16.836574506"></trkpt><trkpt lat="50.2051384002" lon="16.8368003983"></trkpt><trkpt lat="50.2048416808" lon="16.8369953614"></trkpt><trkpt lat="50.2042413689" lon="16.8375616428"></trkpt><trkpt lat="50.2041671891" lon="16.8380046263"></trkpt><trkpt lat="50.2040966135" lon="16.8387288228"></trkpt><trkpt lat="50.2041535266" lon="16.8391703814"></trkpt><trkpt lat="50.2043503337" lon="16.8395255227"></trkpt><trkpt lat="50.2044005413" lon="16.8399434444"></trkpt><trkpt lat="50.204633642" lon="16.8403197918"></trkpt><trkpt lat="50.2048721071" lon="16.8405734282"></trkpt><trkpt lat="50.2051235642" lon="16.8409076985"></trkpt><trkpt lat="50.2053155936" lon="16.8412278034"></trkpt><trkpt lat="50.2054726705" lon="16.8415841181"></trkpt><trkpt lat="50.2056812961" lon="16.8419426121"></trkpt><trkpt lat="50.2058316674" lon="16.8423046265"></trkpt><trkpt lat="50.2060817834" lon="16.8430562317"></trkpt><trkpt lat="50.2061904129" lon="16.8435032386"></trkpt><trkpt lat="50.206323266" lon="16.8439148739"></trkpt><trkpt lat="50.2065308858" lon="16.8447315227"></trkpt><trkpt lat="50.2070491388" lon="16.8462957535"></trkpt><trkpt lat="50.2072411682" lon="16.8466686644"></trkpt><trkpt lat="50.2073910367" lon="16.8471467681"></trkpt><trkpt lat="50.2072854247" lon="16.8467305228"></trkpt><trkpt lat="50.2071020287" lon="16.8463287782"></trkpt><trkpt lat="50.2065974381" lon="16.844939813"></trkpt><trkpt lat="50.2064856235" lon="16.8444235716"></trkpt><trkpt lat="50.2063636668" lon="16.8440268561"></trkpt><trkpt lat="50.2052049525" lon="16.8409946188"></trkpt><trkpt lat="50.2050077263" lon="16.8407032639"></trkpt><trkpt lat="50.2047390863" lon="16.8403914571"></trkpt><trkpt lat="50.2044822648" lon="16.8401555903"></trkpt><trkpt lat="50.2044569515" lon="16.8397100922"></trkpt><trkpt lat="50.2042412013" lon="16.8393172324"></trkpt><trkpt lat="50.2041103598" lon="16.8387696426"></trkpt><trkpt lat="50.2041614056" lon="16.8383067939"></trkpt><trkpt lat="50.2042805124" lon="16.8376113474"></trkpt><trkpt lat="50.2044899762" lon="16.8372653425"></trkpt><trkpt lat="50.2047746256" lon="16.8370594829"></trkpt><trkpt lat="50.2050855942" lon="16.8368955329"></trkpt><trkpt lat="50.2054310963" lon="16.8366187625"></trkpt><trkpt lat="50.2057303302" lon="16.836471241"></trkpt><trkpt lat="50.2059534565" lon="16.8361925427"></trkpt><trkpt lat="50.2061849646" lon="16.8358055502"></trkpt><trkpt lat="50.2064593881" lon="16.8356161192"></trkpt><trkpt lat="50.206695674" lon="16.8353155442"></trkpt><trkpt lat="50.2074002568" lon="16.8342387211"></trkpt><trkpt lat="50.2075664699" lon="16.8337866012"></trkpt><trkpt lat="50.2079333458" lon="16.8324455805"></trkpt><trkpt lat="50.2076293342" lon="16.8325048406"></trkpt><trkpt lat="50.207227841" lon="16.8324871548"></trkpt><trkpt lat="50.2069979254" lon="16.8327956926"></trkpt><trkpt lat="50.2066973504" lon="16.8329237681"></trkpt><trkpt lat="50.2062632516" lon="16.8329993729"></trkpt><trkpt lat="50.2049253322" lon="16.8329676054"></trkpt><trkpt lat="50.2046428621" lon="16.8330439646"></trkpt><trkpt lat="50.203647092" lon="16.833174387"></trkpt><trkpt lat="50.2016373631" lon="16.8325449899"></trkpt><trkpt lat="50.2015684638" lon="16.8320860807"></trkpt><trkpt lat="50.2013834752" lon="16.831380073"></trkpt><trkpt lat="50.2012186032" lon="16.8309072498"></trkpt><trkpt lat="50.2007941436" lon="16.8299719971"></trkpt><trkpt lat="50.2005613782" lon="16.829656167"></trkpt><trkpt lat="50.2001640759" lon="16.8289535958"></trkpt><trkpt lat="50.2000888065" lon="16.8283984624"></trkpt><trkpt lat="50.1998316497" lon="16.8280341011"></trkpt><trkpt lat="50.1994777657" lon="16.8273672368"></trkpt><trkpt lat="50.1993559767" lon="16.8269010354"></trkpt><trkpt lat="50.1990900189" lon="16.8265139591"></trkpt><trkpt lat="50.1955080125" lon="16.8203032203"></trkpt><trkpt lat="50.1954037417" lon="16.8198861368"></trkpt><trkpt lat="50.195250269" lon="16.8194343522"></trkpt><trkpt lat="50.194966374" lon="16.8183724489"></trkpt><trkpt lat="50.1949477661" lon="16.8178723007"></trkpt><trkpt lat="50.1949692238" lon="16.8173905089"></trkpt><trkpt lat="50.1950841397" lon="16.8169655465"></trkpt><trkpt lat="50.1952693798" lon="16.8166074716"></trkpt><trkpt lat="50.1957628224" lon="16.8158152979"></trkpt><trkpt lat="50.1959712803" lon="16.8155459873"></trkpt><trkpt lat="50.1962779742" lon="16.8152221944"></trkpt><trkpt lat="50.1968273241" lon="16.8144839164"></trkpt><trkpt lat="50.1969567407" lon="16.8140222412"></trkpt><trkpt lat="50.1969550643" lon="16.8135199975"></trkpt><trkpt lat="50.1967929583" lon="16.8131348491"></trkpt><trkpt lat="50.1966554113" lon="16.8126922846"></trkpt><trkpt lat="50.1964654773" lon="16.8123725988"></trkpt><trkpt lat="50.1961930655" lon="16.8120659888"></trkpt><trkpt lat="50.1957831066" lon="16.8116860371"></trkpt><trkpt lat="50.1933998801" lon="16.8090001401"></trkpt><trkpt lat="50.1932062581" lon="16.8085916899"></trkpt><trkpt lat="50.1927797869" lon="16.8074727897"></trkpt><trkpt lat="50.192383239" lon="16.8061808869"></trkpt><trkpt lat="50.1916598808" lon="16.8030090909"></trkpt><trkpt lat="50.1917486452" lon="16.8025386147"></trkpt><trkpt lat="50.1915682666" lon="16.8021435756"></trkpt><trkpt lat="50.1912958547" lon="16.8020332698"></trkpt><trkpt lat="50.1906626858" lon="16.8018693198"></trkpt><trkpt lat="50.1901788823" lon="16.8018239737"></trkpt><trkpt lat="50.1898740325" lon="16.8019514624"></trkpt><trkpt lat="50.1894407719" lon="16.8016597722"></trkpt><trkpt lat="50.1891589724" lon="16.8013478816"></trkpt><trkpt lat="50.1881854981" lon="16.8000330124"></trkpt><trkpt lat="50.1879796386" lon="16.7996675614"></trkpt><trkpt lat="50.18670341" lon="16.7969534174"></trkpt><trkpt lat="50.1862549782" lon="16.7961630877"></trkpt><trkpt lat="50.1855210587" lon="16.7951311078"></trkpt><trkpt lat="50.1852515806" lon="16.7948169541"></trkpt><trkpt lat="50.1834310312" lon="16.7921992019"></trkpt><trkpt lat="50.1833660714" lon="16.7916961201"></trkpt><trkpt lat="50.1832220703" lon="16.7913288251"></trkpt><trkpt lat="50.1829718705" lon="16.7911347002"></trkpt><trkpt lat="50.1826987881" lon="16.7914392147"></trkpt><trkpt lat="50.1825270429" lon="16.7919302266"></trkpt><trkpt lat="50.1824317407" lon="16.7923625652"></trkpt><trkpt lat="50.1822391246" lon="16.7927172873"></trkpt><trkpt lat="50.1819375437" lon="16.7926894594"></trkpt><trkpt lat="50.1816215459" lon="16.7928211391"></trkpt><trkpt lat="50.181332035" lon="16.792752156"></trkpt><trkpt lat="50.1809292845" lon="16.7927855998"></trkpt><trkpt lat="50.180340372" lon="16.7926468793"></trkpt><trkpt lat="50.1797279064" lon="16.7925958335"></trkpt><trkpt lat="50.1789405104" lon="16.7923357431"></trkpt><trkpt lat="50.1789058093" lon="16.7918141373"></trkpt><trkpt lat="50.1790729444" lon="16.7913231254"></trkpt><trkpt lat="50.1791296061" lon="16.7907752842"></trkpt><trkpt lat="50.1791490521" lon="16.7902341485"></trkpt><trkpt lat="50.1789042167" lon="16.7798651475"></trkpt><trkpt lat="50.1787425298" lon="16.7794881295"></trkpt><trkpt lat="50.1767871995" lon="16.7757280916"></trkpt><trkpt lat="50.1765002869" lon="16.7756363936"></trkpt><trkpt lat="50.176194096" lon="16.775640836"></trkpt><trkpt lat="50.1749526523" lon="16.7759334482"></trkpt><trkpt lat="50.1747093257" lon="16.7762988992"></trkpt><trkpt lat="50.1744816732" lon="16.7765338439"></trkpt><trkpt lat="50.1742209122" lon="16.7766620871"></trkpt><trkpt lat="50.1739200857" lon="16.7764589097"></trkpt><trkpt lat="50.1737350132" lon="16.7760173511"></trkpt><trkpt lat="50.1726528257" lon="16.7727442179"></trkpt><trkpt lat="50.1726700924" lon="16.7722506076"></trkpt><trkpt lat="50.1726484671" lon="16.7716875952"></trkpt><trkpt lat="50.1727000996" lon="16.7712407559"></trkpt><trkpt lat="50.172976451" lon="16.771092061"></trkpt><trkpt lat="50.1727363095" lon="16.7713939771"></trkpt></trkseg></trk></gpx>