<?xml version="1.0" encoding="UTF-8" standalone="no" ?><gpx xmlns="http://www.topografix.com/GPX/1/1" xmlns:gpxx="http://www.garmin.com/xmlschemas/GpxExtensions/v3" ><trk><trkseg><trkpt lat="54.072308" lon="16.883229"></trkpt><trkpt lat="54.072215" lon="16.882499"></trkpt><trkpt lat="54.072095" lon="16.882183"></trkpt><trkpt lat="54.072259" lon="16.881899"></trkpt><trkpt lat="54.072654" lon="16.881313"></trkpt><trkpt lat="54.075211" lon="16.876659"></trkpt><trkpt lat="54.075988" lon="16.874732"></trkpt><trkpt lat="54.075967" lon="16.874357"></trkpt><trkpt lat="54.075545" lon="16.873202"></trkpt><trkpt lat="54.073579" lon="16.86681"></trkpt><trkpt lat="54.073379" lon="16.865643"></trkpt><trkpt lat="54.072389" lon="16.857031"></trkpt><trkpt lat="54.072372" lon="16.855993"></trkpt><trkpt lat="54.072552" lon="16.848966"></trkpt><trkpt lat="54.072519" lon="16.848631"></trkpt><trkpt lat="54.072446" lon="16.848306"></trkpt><trkpt lat="54.072132" lon="16.84744"></trkpt><trkpt lat="54.071752" lon="16.846676"></trkpt><trkpt lat="54.071459" lon="16.845964"></trkpt><trkpt lat="54.07145" lon="16.845601"></trkpt><trkpt lat="54.071586" lon="16.845237"></trkpt><trkpt lat="54.072364" lon="16.844375"></trkpt><trkpt lat="54.073702" lon="16.842503"></trkpt><trkpt lat="54.073764" lon="16.841983"></trkpt><trkpt lat="54.074433" lon="16.833261"></trkpt><trkpt lat="54.074534" lon="16.830254"></trkpt><trkpt lat="54.074277" lon="16.820894"></trkpt><trkpt lat="54.074119" lon="16.820388"></trkpt><trkpt lat="54.072754" lon="16.815084"></trkpt><trkpt lat="54.072589" lon="16.813574"></trkpt><trkpt lat="54.072302" lon="16.812387"></trkpt><trkpt lat="54.072136" lon="16.81204"></trkpt><trkpt lat="54.070975" lon="16.809953"></trkpt><trkpt lat="54.06875" lon="16.805007"></trkpt><trkpt lat="54.068709" lon="16.804626"></trkpt><trkpt lat="54.067016" lon="16.793469"></trkpt><trkpt lat="54.06686" lon="16.793011"></trkpt><trkpt lat="54.064664" lon="16.785209"></trkpt><trkpt lat="54.064903" lon="16.78495"></trkpt><trkpt lat="54.065174" lon="16.78502"></trkpt><trkpt lat="54.065958" lon="16.784975"></trkpt><trkpt lat="54.066143" lon="16.785107"></trkpt><trkpt lat="54.066309" lon="16.785372"></trkpt><trkpt lat="54.066552" lon="16.785432"></trkpt><trkpt lat="54.067164" lon="16.784956"></trkpt><trkpt lat="54.067702" lon="16.784659"></trkpt><trkpt lat="54.06787" lon="16.784462"></trkpt><trkpt lat="54.067985" lon="16.784179"></trkpt><trkpt lat="54.068384" lon="16.783407"></trkpt><trkpt lat="54.068769" lon="16.783051"></trkpt><trkpt lat="54.069031" lon="16.782911"></trkpt><trkpt lat="54.069322" lon="16.782714"></trkpt><trkpt lat="54.069537" lon="16.782469"></trkpt><trkpt lat="54.069723" lon="16.782317"></trkpt><trkpt lat="54.069903" lon="16.78214"></trkpt><trkpt lat="54.070127" lon="16.782087"></trkpt><trkpt lat="54.070605" lon="16.782271"></trkpt><trkpt lat="54.07082" lon="16.782307"></trkpt><trkpt lat="54.071264" lon="16.781975"></trkpt><trkpt lat="54.071494" lon="16.781556"></trkpt><trkpt lat="54.072188" lon="16.780699"></trkpt><trkpt lat="54.072366" lon="16.780876"></trkpt><trkpt lat="54.072519" lon="16.781493"></trkpt><trkpt lat="54.072324" lon="16.780806"></trkpt><trkpt lat="54.072127" lon="16.780698"></trkpt><trkpt lat="54.071977" lon="16.780263"></trkpt><trkpt lat="54.071866" lon="16.779847"></trkpt><trkpt lat="54.071997" lon="16.779441"></trkpt><trkpt lat="54.072165" lon="16.779068"></trkpt><trkpt lat="54.072276" lon="16.778679"></trkpt><trkpt lat="54.072323" lon="16.778266"></trkpt><trkpt lat="54.072296" lon="16.77778"></trkpt><trkpt lat="54.072146" lon="16.776666"></trkpt><trkpt lat="54.07194" lon="16.776504"></trkpt><trkpt lat="54.07172" lon="16.776264"></trkpt><trkpt lat="54.071605" lon="16.775943"></trkpt><trkpt lat="54.071541" lon="16.775494"></trkpt><trkpt lat="54.071689" lon="16.774552"></trkpt><trkpt lat="54.071835" lon="16.774182"></trkpt><trkpt lat="54.07203" lon="16.774016"></trkpt><trkpt lat="54.071907" lon="16.773612"></trkpt><trkpt lat="54.071592" lon="16.773091"></trkpt><trkpt lat="54.071441" lon="16.772716"></trkpt><trkpt lat="54.070734" lon="16.770361"></trkpt><trkpt lat="54.070873" lon="16.770117"></trkpt><trkpt lat="54.071529" lon="16.769125"></trkpt><trkpt lat="54.071916" lon="16.768708"></trkpt><trkpt lat="54.072369" lon="16.768294"></trkpt><trkpt lat="54.072854" lon="16.767937"></trkpt><trkpt lat="54.073178" lon="16.767759"></trkpt><trkpt lat="54.073399" lon="16.767387"></trkpt><trkpt lat="54.073669" lon="16.766767"></trkpt><trkpt lat="54.074596" lon="16.764225"></trkpt><trkpt lat="54.074714" lon="16.763459"></trkpt><trkpt lat="54.074875" lon="16.763253"></trkpt><trkpt lat="54.075513" lon="16.764277"></trkpt><trkpt lat="54.075695" lon="16.764647"></trkpt><trkpt lat="54.075872" lon="16.764947"></trkpt><trkpt lat="54.076098" lon="16.765182"></trkpt><trkpt lat="54.076285" lon="16.765457"></trkpt><trkpt lat="54.076499" lon="16.765939"></trkpt><trkpt lat="54.076711" lon="16.766274"></trkpt><trkpt lat="54.077575" lon="16.7679"></trkpt><trkpt lat="54.077911" lon="16.768171"></trkpt><trkpt lat="54.078247" lon="16.768494"></trkpt><trkpt lat="54.078549" lon="16.769071"></trkpt><trkpt lat="54.078709" lon="16.769309"></trkpt><trkpt lat="54.079604" lon="16.770383"></trkpt><trkpt lat="54.079845" lon="16.770566"></trkpt><trkpt lat="54.080047" lon="16.770527"></trkpt><trkpt lat="54.080357" lon="16.770404"></trkpt><trkpt lat="54.080464" lon="16.7701"></trkpt><trkpt lat="54.080438" lon="16.769333"></trkpt><trkpt lat="54.080088" lon="16.76867"></trkpt><trkpt lat="54.079731" lon="16.767624"></trkpt><trkpt lat="54.079272" lon="16.765996"></trkpt><trkpt lat="54.079309" lon="16.765656"></trkpt><trkpt lat="54.079412" lon="16.765343"></trkpt><trkpt lat="54.079913" lon="16.764512"></trkpt><trkpt lat="54.080122" lon="16.764509"></trkpt><trkpt lat="54.080301" lon="16.764756"></trkpt><trkpt lat="54.080652" lon="16.765165"></trkpt><trkpt lat="54.081697" lon="16.766144"></trkpt><trkpt lat="54.082042" lon="16.766369"></trkpt><trkpt lat="54.082958" lon="16.766727"></trkpt><trkpt lat="54.083295" lon="16.766716"></trkpt><trkpt lat="54.083664" lon="16.766773"></trkpt><trkpt lat="54.084853" lon="16.766786"></trkpt><trkpt lat="54.085317" lon="16.766578"></trkpt><trkpt lat="54.085685" lon="16.766363"></trkpt><trkpt lat="54.086016" lon="16.76623"></trkpt><trkpt lat="54.086266" lon="16.766199"></trkpt><trkpt lat="54.086641" lon="16.766049"></trkpt><trkpt lat="54.086997" lon="16.765791"></trkpt><trkpt lat="54.08737" lon="16.765465"></trkpt><trkpt lat="54.087659" lon="16.765293"></trkpt><trkpt lat="54.087934" lon="16.765219"></trkpt><trkpt lat="54.088743" lon="16.765125"></trkpt><trkpt lat="54.089006" lon="16.765218"></trkpt><trkpt lat="54.089403" lon="16.765443"></trkpt><trkpt lat="54.08961" lon="16.765449"></trkpt><trkpt lat="54.09003" lon="16.765192"></trkpt><trkpt lat="54.090396" lon="16.765209"></trkpt><trkpt lat="54.090742" lon="16.765315"></trkpt><trkpt lat="54.091193" lon="16.765316"></trkpt><trkpt lat="54.092316" lon="16.765522"></trkpt><trkpt lat="54.092662" lon="16.766488"></trkpt><trkpt lat="54.092864" lon="16.766928"></trkpt><trkpt lat="54.093262" lon="16.767557"></trkpt><trkpt lat="54.094214" lon="16.769457"></trkpt><trkpt lat="54.094399" lon="16.76971"></trkpt><trkpt lat="54.094603" lon="16.769905"></trkpt><trkpt lat="54.095305" lon="16.770467"></trkpt><trkpt lat="54.095934" lon="16.770867"></trkpt><trkpt lat="54.096605" lon="16.770934"></trkpt><trkpt lat="54.099384" lon="16.770316"></trkpt><trkpt lat="54.101793" lon="16.770562"></trkpt><trkpt lat="54.102025" lon="16.770372"></trkpt><trkpt lat="54.10228" lon="16.76979"></trkpt><trkpt lat="54.10233" lon="16.769452"></trkpt><trkpt lat="54.10228" lon="16.768696"></trkpt><trkpt lat="54.102397" lon="16.768039"></trkpt><trkpt lat="54.102592" lon="16.767421"></trkpt><trkpt lat="54.102787" lon="16.767131"></trkpt><trkpt lat="54.103459" lon="16.766381"></trkpt><trkpt lat="54.103964" lon="16.765525"></trkpt><trkpt lat="54.104796" lon="16.763882"></trkpt><trkpt lat="54.105956" lon="16.761898"></trkpt><trkpt lat="54.105972" lon="16.761518"></trkpt><trkpt lat="54.106254" lon="16.761"></trkpt><trkpt lat="54.112655" lon="16.7513"></trkpt><trkpt lat="54.112848" lon="16.751515"></trkpt><trkpt lat="54.113004" lon="16.751812"></trkpt><trkpt lat="54.113209" lon="16.751894"></trkpt><trkpt lat="54.113626" lon="16.751786"></trkpt><trkpt lat="54.114007" lon="16.752061"></trkpt><trkpt lat="54.114239" lon="16.752546"></trkpt><trkpt lat="54.114378" lon="16.753192"></trkpt><trkpt lat="54.114434" lon="16.753581"></trkpt><trkpt lat="54.114505" lon="16.753221"></trkpt><trkpt lat="54.114994" lon="16.753165"></trkpt><trkpt lat="54.117959" lon="16.752345"></trkpt><trkpt lat="54.118077" lon="16.752017"></trkpt><trkpt lat="54.118305" lon="16.751714"></trkpt><trkpt lat="54.119149" lon="16.750209"></trkpt><trkpt lat="54.119301" lon="16.749692"></trkpt><trkpt lat="54.119572" lon="16.749072"></trkpt><trkpt lat="54.11977" lon="16.748697"></trkpt><trkpt lat="54.126056" lon="16.738357"></trkpt><trkpt lat="54.126356" lon="16.738065"></trkpt><trkpt lat="54.126597" lon="16.737783"></trkpt><trkpt lat="54.126967" lon="16.737281"></trkpt><trkpt lat="54.127228" lon="16.736842"></trkpt><trkpt lat="54.127484" lon="16.736475"></trkpt><trkpt lat="54.127658" lon="16.736175"></trkpt><trkpt lat="54.127881" lon="16.735559"></trkpt><trkpt lat="54.12805" lon="16.734878"></trkpt><trkpt lat="54.128089" lon="16.734504"></trkpt><trkpt lat="54.128097" lon="16.734141"></trkpt><trkpt lat="54.128072" lon="16.733742"></trkpt><trkpt lat="54.127979" lon="16.73321"></trkpt><trkpt lat="54.127826" lon="16.73293"></trkpt><trkpt lat="54.127681" lon="16.732591"></trkpt><trkpt lat="54.127399" lon="16.731694"></trkpt><trkpt lat="54.127387" lon="16.731311"></trkpt><trkpt lat="54.12752" lon="16.731045"></trkpt><trkpt lat="54.127613" lon="16.730714"></trkpt><trkpt lat="54.127789" lon="16.730296"></trkpt><trkpt lat="54.127933" lon="16.729858"></trkpt><trkpt lat="54.128123" lon="16.729568"></trkpt><trkpt lat="54.128378" lon="16.729111"></trkpt><trkpt lat="54.128553" lon="16.728526"></trkpt><trkpt lat="54.128764" lon="16.727939"></trkpt><trkpt lat="54.129113" lon="16.726775"></trkpt><trkpt lat="54.129644" lon="16.727184"></trkpt><trkpt lat="54.130433" lon="16.727628"></trkpt><trkpt lat="54.130607" lon="16.727123"></trkpt><trkpt lat="54.130742" lon="16.726838"></trkpt><trkpt lat="54.131185" lon="16.726598"></trkpt><trkpt lat="54.13209" lon="16.725968"></trkpt><trkpt lat="54.132536" lon="16.725922"></trkpt><trkpt lat="54.134262" lon="16.725492"></trkpt><trkpt lat="54.134515" lon="16.725336"></trkpt><trkpt lat="54.136388" lon="16.724439"></trkpt><trkpt lat="54.136874" lon="16.724801"></trkpt><trkpt lat="54.137074" lon="16.724848"></trkpt><trkpt lat="54.137846" lon="16.725153"></trkpt><trkpt lat="54.138436" lon="16.725298"></trkpt><trkpt lat="54.13866" lon="16.725385"></trkpt><trkpt lat="54.138899" lon="16.72542"></trkpt><trkpt lat="54.139323" lon="16.725427"></trkpt><trkpt lat="54.139766" lon="16.725795"></trkpt><trkpt lat="54.140445" lon="16.726205"></trkpt><trkpt lat="54.141278" lon="16.726557"></trkpt><trkpt lat="54.141904" lon="16.726914"></trkpt><trkpt lat="54.142484" lon="16.727336"></trkpt><trkpt lat="54.143261" lon="16.727775"></trkpt><trkpt lat="54.143713" lon="16.727895"></trkpt><trkpt lat="54.144382" lon="16.727567"></trkpt><trkpt lat="54.146429" lon="16.726063"></trkpt><trkpt lat="54.146577" lon="16.725604"></trkpt><trkpt lat="54.146891" lon="16.724952"></trkpt><trkpt lat="54.147857" lon="16.723228"></trkpt><trkpt lat="54.1483" lon="16.723648"></trkpt><trkpt lat="54.148463" lon="16.72388"></trkpt><trkpt lat="54.148641" lon="16.724074"></trkpt><trkpt lat="54.149211" lon="16.724055"></trkpt><trkpt lat="54.149711" lon="16.723805"></trkpt><trkpt lat="54.150044" lon="16.723909"></trkpt><trkpt lat="54.150268" lon="16.724094"></trkpt><trkpt lat="54.150543" lon="16.724495"></trkpt><trkpt lat="54.150629" lon="16.724147"></trkpt><trkpt lat="54.150853" lon="16.724806"></trkpt><trkpt lat="54.151147" lon="16.725213"></trkpt><trkpt lat="54.155037" lon="16.731494"></trkpt><trkpt lat="54.155363" lon="16.73173"></trkpt><trkpt lat="54.155708" lon="16.73182"></trkpt><trkpt lat="54.155944" lon="16.731679"></trkpt><trkpt lat="54.156034" lon="16.731288"></trkpt><trkpt lat="54.156306" lon="16.731368"></trkpt><trkpt lat="54.156759" lon="16.731932"></trkpt><trkpt lat="54.156982" lon="16.732294"></trkpt><trkpt lat="54.157127" lon="16.732589"></trkpt><trkpt lat="54.157325" lon="16.732904"></trkpt><trkpt lat="54.15751" lon="16.733108"></trkpt><trkpt lat="54.15768" lon="16.733326"></trkpt><trkpt lat="54.157931" lon="16.733466"></trkpt><trkpt lat="54.158134" lon="16.733392"></trkpt><trkpt lat="54.158296" lon="16.732981"></trkpt><trkpt lat="54.158442" lon="16.732683"></trkpt><trkpt lat="54.159431" lon="16.731011"></trkpt><trkpt lat="54.159574" lon="16.730716"></trkpt><trkpt lat="54.159425" lon="16.730193"></trkpt><trkpt lat="54.159209" lon="16.729643"></trkpt><trkpt lat="54.159032" lon="16.729263"></trkpt><trkpt lat="54.157377" lon="16.724966"></trkpt><trkpt lat="54.157416" lon="16.722979"></trkpt><trkpt lat="54.157163" lon="16.719052"></trkpt><trkpt lat="54.157" lon="16.718451"></trkpt><trkpt lat="54.156948" lon="16.718039"></trkpt><trkpt lat="54.15695" lon="16.717625"></trkpt><trkpt lat="54.156989" lon="16.717209"></trkpt><trkpt lat="54.157402" lon="16.714189"></trkpt><trkpt lat="54.15817" lon="16.709939"></trkpt><trkpt lat="54.158314" lon="16.708691"></trkpt><trkpt lat="54.158267" lon="16.707927"></trkpt><trkpt lat="54.158161" lon="16.707575"></trkpt><trkpt lat="54.157945" lon="16.707246"></trkpt><trkpt lat="54.157363" lon="16.706121"></trkpt><trkpt lat="54.157031" lon="16.70507"></trkpt><trkpt lat="54.156786" lon="16.704467"></trkpt><trkpt lat="54.156277" lon="16.703619"></trkpt><trkpt lat="54.155617" lon="16.702349"></trkpt><trkpt lat="54.155493" lon="16.701825"></trkpt><trkpt lat="54.155112" lon="16.700511"></trkpt><trkpt lat="54.154365" lon="16.69968"></trkpt><trkpt lat="54.152387" lon="16.696672"></trkpt><trkpt lat="54.151869" lon="16.694974"></trkpt><trkpt lat="54.151008" lon="16.691121"></trkpt><trkpt lat="54.151041" lon="16.689957"></trkpt><trkpt lat="54.151476" lon="16.685415"></trkpt><trkpt lat="54.151686" lon="16.685511"></trkpt><trkpt lat="54.151906" lon="16.685466"></trkpt><trkpt lat="54.152104" lon="16.685337"></trkpt><trkpt lat="54.152319" lon="16.685104"></trkpt><trkpt lat="54.152857" lon="16.684271"></trkpt><trkpt lat="54.153096" lon="16.684033"></trkpt><trkpt lat="54.153394" lon="16.68398"></trkpt><trkpt lat="54.15491" lon="16.684647"></trkpt><trkpt lat="54.15579" lon="16.685288"></trkpt><trkpt lat="54.158379" lon="16.68668"></trkpt><trkpt lat="54.158819" lon="16.686694"></trkpt><trkpt lat="54.15954" lon="16.686583"></trkpt><trkpt lat="54.160053" lon="16.68637"></trkpt><trkpt lat="54.162275" lon="16.685724"></trkpt><trkpt lat="54.163035" lon="16.685653"></trkpt><trkpt lat="54.186437" lon="16.691448"></trkpt><trkpt lat="54.186914" lon="16.692751"></trkpt><trkpt lat="54.1875" lon="16.693567"></trkpt><trkpt lat="54.188141" lon="16.694132"></trkpt><trkpt lat="54.190079" lon="16.69554"></trkpt><trkpt lat="54.190369" lon="16.695425"></trkpt><trkpt lat="54.19056" lon="16.695219"></trkpt><trkpt lat="54.190921" lon="16.694765"></trkpt><trkpt lat="54.191337" lon="16.694342"></trkpt><trkpt lat="54.191603" lon="16.694316"></trkpt><trkpt lat="54.191795" lon="16.694416"></trkpt><trkpt lat="54.191973" lon="16.694566"></trkpt><trkpt lat="54.192791" lon="16.695462"></trkpt><trkpt lat="54.193285" lon="16.695762"></trkpt><trkpt lat="54.194029" lon="16.695853"></trkpt><trkpt lat="54.194795" lon="16.695608"></trkpt><trkpt lat="54.195137" lon="16.695569"></trkpt><trkpt lat="54.195362" lon="16.695659"></trkpt><trkpt lat="54.195569" lon="16.695833"></trkpt><trkpt lat="54.195753" lon="16.696062"></trkpt><trkpt lat="54.196635" lon="16.69742"></trkpt><trkpt lat="54.1973" lon="16.698119"></trkpt><trkpt lat="54.197932" lon="16.698437"></trkpt><trkpt lat="54.198162" lon="16.698455"></trkpt><trkpt lat="54.19842" lon="16.698333"></trkpt><trkpt lat="54.203899" lon="16.696833"></trkpt><trkpt lat="54.204476" lon="16.697346"></trkpt><trkpt lat="54.211077" lon="16.702141"></trkpt><trkpt lat="54.210643" lon="16.702115"></trkpt><trkpt lat="54.210518" lon="16.701819"></trkpt><trkpt lat="54.210562" lon="16.700775"></trkpt><trkpt lat="54.210916" lon="16.699831"></trkpt><trkpt lat="54.212858" lon="16.693475"></trkpt><trkpt lat="54.212848" lon="16.692276"></trkpt><trkpt lat="54.21319" lon="16.687707"></trkpt><trkpt lat="54.213427" lon="16.686777"></trkpt><trkpt lat="54.214208" lon="16.682288"></trkpt><trkpt lat="54.214005" lon="16.681609"></trkpt><trkpt lat="54.213086" lon="16.679062"></trkpt><trkpt lat="54.21288" lon="16.678708"></trkpt><trkpt lat="54.212645" lon="16.678243"></trkpt><trkpt lat="54.212427" lon="16.677722"></trkpt><trkpt lat="54.209529" lon="16.669429"></trkpt><trkpt lat="54.209375" lon="16.669078"></trkpt><trkpt lat="54.209177" lon="16.668886"></trkpt><trkpt lat="54.208674" lon="16.668488"></trkpt><trkpt lat="54.207329" lon="16.66713"></trkpt><trkpt lat="54.207006" lon="16.66653"></trkpt><trkpt lat="54.204341" lon="16.660727"></trkpt><trkpt lat="54.203953" lon="16.659607"></trkpt><trkpt lat="54.201254" lon="16.649623"></trkpt><trkpt lat="54.201119" lon="16.648423"></trkpt><trkpt lat="54.200086" lon="16.632214"></trkpt><trkpt lat="54.20031" lon="16.630493"></trkpt><trkpt lat="54.202125" lon="16.606451"></trkpt><trkpt lat="54.202042" lon="16.604699"></trkpt><trkpt lat="54.19985" lon="16.582318"></trkpt><trkpt lat="54.199458" lon="16.581349"></trkpt><trkpt lat="54.198879" lon="16.57965"></trkpt><trkpt lat="54.199139" lon="16.579451"></trkpt><trkpt lat="54.199339" lon="16.579242"></trkpt><trkpt lat="54.200049" lon="16.578296"></trkpt><trkpt lat="54.200195" lon="16.578034"></trkpt><trkpt lat="54.200141" lon="16.577493"></trkpt><trkpt lat="54.19996" lon="16.576988"></trkpt><trkpt lat="54.195053" lon="16.560588"></trkpt><trkpt lat="54.194973" lon="16.560223"></trkpt><trkpt lat="54.187703" lon="16.51658"></trkpt><trkpt lat="54.188487" lon="16.516058"></trkpt><trkpt lat="54.195827" lon="16.509563"></trkpt><trkpt lat="54.196004" lon="16.509312"></trkpt><trkpt lat="54.196201" lon="16.509152"></trkpt><trkpt lat="54.196416" lon="16.509084"></trkpt><trkpt lat="54.197078" lon="16.509053"></trkpt><trkpt lat="54.197276" lon="16.508948"></trkpt><trkpt lat="54.197439" lon="16.508718"></trkpt><trkpt lat="54.197554" lon="16.508421"></trkpt><trkpt lat="54.197654" lon="16.508096"></trkpt><trkpt lat="54.198154" lon="16.506839"></trkpt><trkpt lat="54.198974" lon="16.50431"></trkpt><trkpt lat="54.199331" lon="16.502935"></trkpt><trkpt lat="54.201039" lon="16.497757"></trkpt><trkpt lat="54.201527" lon="16.496559"></trkpt><trkpt lat="54.203451" lon="16.490423"></trkpt><trkpt lat="54.203637" lon="16.488935"></trkpt><trkpt lat="54.207655" lon="16.467738"></trkpt><trkpt lat="54.208213" lon="16.466263"></trkpt><trkpt lat="54.20845" lon="16.464636"></trkpt><trkpt lat="54.208738" lon="16.46103"></trkpt><trkpt lat="54.208576" lon="16.459454"></trkpt><trkpt lat="54.207882" lon="16.446325"></trkpt><trkpt lat="54.208101" lon="16.445112"></trkpt><trkpt lat="54.208155" lon="16.44438"></trkpt><trkpt lat="54.208327" lon="16.443078"></trkpt><trkpt lat="54.208451" lon="16.442757"></trkpt><trkpt lat="54.216045" lon="16.41948"></trkpt><trkpt lat="54.216366" lon="16.417618"></trkpt><trkpt lat="54.216814" lon="16.414005"></trkpt><trkpt lat="54.216724" lon="16.413652"></trkpt><trkpt lat="54.216194" lon="16.412334"></trkpt><trkpt lat="54.215735" lon="16.410913"></trkpt><trkpt lat="54.215809" lon="16.410587"></trkpt><trkpt lat="54.216108" lon="16.410013"></trkpt><trkpt lat="54.216683" lon="16.40912"></trkpt><trkpt lat="54.218347" lon="16.406937"></trkpt><trkpt lat="54.219145" lon="16.406064"></trkpt><trkpt lat="54.220066" lon="16.404737"></trkpt><trkpt lat="54.220182" lon="16.404454"></trkpt><trkpt lat="54.222458" lon="16.397668"></trkpt><trkpt lat="54.222427" lon="16.396788"></trkpt><trkpt lat="54.222632" lon="16.393017"></trkpt><trkpt lat="54.222908" lon="16.392406"></trkpt><trkpt lat="54.224783" lon="16.387523"></trkpt><trkpt lat="54.224738" lon="16.385879"></trkpt><trkpt lat="54.224904" lon="16.375816"></trkpt><trkpt lat="54.22464" lon="16.366805"></trkpt><trkpt lat="54.224578" lon="16.366045"></trkpt><trkpt lat="54.22464" lon="16.359162"></trkpt><trkpt lat="54.224913" lon="16.358011"></trkpt><trkpt lat="54.229527" lon="16.34205"></trkpt><trkpt lat="54.229699" lon="16.341626"></trkpt><trkpt lat="54.229758" lon="16.341236"></trkpt><trkpt lat="54.229765" lon="16.340402"></trkpt><trkpt lat="54.229815" lon="16.340019"></trkpt><trkpt lat="54.230356" lon="16.337102"></trkpt><trkpt lat="54.2307" lon="16.334619"></trkpt><trkpt lat="54.230785" lon="16.333609"></trkpt><trkpt lat="54.230893" lon="16.332926"></trkpt><trkpt lat="54.231151" lon="16.3306"></trkpt><trkpt lat="54.231286" lon="16.328153"></trkpt><trkpt lat="54.231281" lon="16.327374"></trkpt><trkpt lat="54.23124" lon="16.326895"></trkpt><trkpt lat="54.230728" lon="16.323055"></trkpt><trkpt lat="54.230318" lon="16.322316"></trkpt><trkpt lat="54.229855" lon="16.321119"></trkpt><trkpt lat="54.229766" lon="16.32078"></trkpt><trkpt lat="54.229708" lon="16.320389"></trkpt><trkpt lat="54.229684" lon="16.31997"></trkpt><trkpt lat="54.229847" lon="16.317665"></trkpt><trkpt lat="54.231127" lon="16.306302"></trkpt><trkpt lat="54.231181" lon="16.306628"></trkpt><trkpt lat="54.231176" lon="16.306233"></trkpt><trkpt lat="54.23161" lon="16.306566"></trkpt><trkpt lat="54.232081" lon="16.307017"></trkpt><trkpt lat="54.233928" lon="16.308495"></trkpt><trkpt lat="54.234216" lon="16.307036"></trkpt><trkpt lat="54.234411" lon="16.305662"></trkpt><trkpt lat="54.234638" lon="16.304613"></trkpt><trkpt lat="54.234825" lon="16.302425"></trkpt><trkpt lat="54.234624" lon="16.30094"></trkpt><trkpt lat="54.234581" lon="16.30035"></trkpt><trkpt lat="54.234789" lon="16.299279"></trkpt><trkpt lat="54.23492" lon="16.298899"></trkpt><trkpt lat="54.235234" lon="16.299045"></trkpt><trkpt lat="54.235844" lon="16.29906"></trkpt><trkpt lat="54.236537" lon="16.298757"></trkpt><trkpt lat="54.24153" lon="16.295728"></trkpt><trkpt lat="54.241693" lon="16.295388"></trkpt><trkpt lat="54.242238" lon="16.294001"></trkpt><trkpt lat="54.242252" lon="16.293609"></trkpt><trkpt lat="54.242201" lon="16.292852"></trkpt><trkpt lat="54.242261" lon="16.29242"></trkpt><trkpt lat="54.242646" lon="16.292095"></trkpt><trkpt lat="54.242975" lon="16.291656"></trkpt><trkpt lat="54.243306" lon="16.291314"></trkpt><trkpt lat="54.243883" lon="16.290823"></trkpt><trkpt lat="54.244073" lon="16.290627"></trkpt><trkpt lat="54.244292" lon="16.290491"></trkpt><trkpt lat="54.244757" lon="16.289807"></trkpt><trkpt lat="54.244772" lon="16.289436"></trkpt><trkpt lat="54.244591" lon="16.288718"></trkpt><trkpt lat="54.244549" lon="16.288047"></trkpt><trkpt lat="54.244701" lon="16.287327"></trkpt><trkpt lat="54.244953" lon="16.28708"></trkpt><trkpt lat="54.24551" lon="16.286664"></trkpt><trkpt lat="54.245972" lon="16.286079"></trkpt><trkpt lat="54.246244" lon="16.284787"></trkpt><trkpt lat="54.246773" lon="16.28284"></trkpt><trkpt lat="54.247199" lon="16.28291"></trkpt><trkpt lat="54.247672" lon="16.282682"></trkpt><trkpt lat="54.249028" lon="16.281806"></trkpt><trkpt lat="54.249562" lon="16.280934"></trkpt><trkpt lat="54.250254" lon="16.280166"></trkpt><trkpt lat="54.258993" lon="16.268037"></trkpt><trkpt lat="54.259094" lon="16.267573"></trkpt><trkpt lat="54.259316" lon="16.267244"></trkpt><trkpt lat="54.259561" lon="16.26702"></trkpt><trkpt lat="54.259779" lon="16.266983"></trkpt><trkpt lat="54.259994" lon="16.266976"></trkpt><trkpt lat="54.260198" lon="16.266871"></trkpt><trkpt lat="54.260283" lon="16.266562"></trkpt><trkpt lat="54.260542" lon="16.266367"></trkpt><trkpt lat="54.260656" lon="16.265938"></trkpt><trkpt lat="54.260758" lon="16.264997"></trkpt><trkpt lat="54.260868" lon="16.263046"></trkpt><trkpt lat="54.260838" lon="16.262024"></trkpt><trkpt lat="54.261082" lon="16.258179"></trkpt><trkpt lat="54.261532" lon="16.255966"></trkpt><trkpt lat="54.262854" lon="16.250956"></trkpt><trkpt lat="54.263479" lon="16.249756"></trkpt><trkpt lat="54.265605" lon="16.24496"></trkpt><trkpt lat="54.265701" lon="16.244506"></trkpt><trkpt lat="54.266012" lon="16.24332"></trkpt><trkpt lat="54.266589" lon="16.242313"></trkpt><trkpt lat="54.266906" lon="16.240661"></trkpt><trkpt lat="54.267157" lon="16.239625"></trkpt><trkpt lat="54.267656" lon="16.238999"></trkpt><trkpt lat="54.268596" lon="16.238504"></trkpt><trkpt lat="54.269346" lon="16.238335"></trkpt><trkpt lat="54.269647" lon="16.238324"></trkpt><trkpt lat="54.270921" lon="16.237742"></trkpt><trkpt lat="54.271582" lon="16.236855"></trkpt><trkpt lat="54.272131" lon="16.235555"></trkpt><trkpt lat="54.272443" lon="16.234007"></trkpt><trkpt lat="54.273033" lon="16.23177"></trkpt><trkpt lat="54.273304" lon="16.231181"></trkpt><trkpt lat="54.27369" lon="16.230161"></trkpt><trkpt lat="54.277138" lon="16.222422"></trkpt><trkpt lat="54.278065" lon="16.22171"></trkpt><trkpt lat="54.284984" lon="16.217372"></trkpt><trkpt lat="54.285241" lon="16.217148"></trkpt><trkpt lat="54.285261" lon="16.21675"></trkpt><trkpt lat="54.284675" lon="16.214979"></trkpt><trkpt lat="54.284157" lon="16.212696"></trkpt><trkpt lat="54.283669" lon="16.209923"></trkpt><trkpt lat="54.283819" lon="16.209683"></trkpt><trkpt lat="54.284009" lon="16.209584"></trkpt><trkpt lat="54.284215" lon="16.209601"></trkpt><trkpt lat="54.298486" lon="16.206285"></trkpt><trkpt lat="54.299309" lon="16.205313"></trkpt><trkpt lat="54.29964" lon="16.204779"></trkpt><trkpt lat="54.302101" lon="16.20163"></trkpt><trkpt lat="54.303169" lon="16.200631"></trkpt><trkpt lat="54.305673" lon="16.19782"></trkpt><trkpt lat="54.307214" lon="16.196345"></trkpt><trkpt lat="54.307385" lon="16.196094"></trkpt><trkpt lat="54.307016" lon="16.195334"></trkpt><trkpt lat="54.296798" lon="16.17102"></trkpt><trkpt lat="54.296972" lon="16.170738"></trkpt><trkpt lat="54.297229" lon="16.170441"></trkpt><trkpt lat="54.297393" lon="16.170168"></trkpt><trkpt lat="54.297629" lon="16.169859"></trkpt><trkpt lat="54.297799" lon="16.16959"></trkpt><trkpt lat="54.29809" lon="16.1692"></trkpt><trkpt lat="54.298294" lon="16.168849"></trkpt><trkpt lat="54.298465" lon="16.168449"></trkpt><trkpt lat="54.298299" lon="16.168036"></trkpt><trkpt lat="54.298195" lon="16.167675"></trkpt><trkpt lat="54.297629" lon="16.166026"></trkpt><trkpt lat="54.297482" lon="16.16568"></trkpt><trkpt lat="54.296775" lon="16.164283"></trkpt><trkpt lat="54.296594" lon="16.164048"></trkpt><trkpt lat="54.296291" lon="16.163993"></trkpt><trkpt lat="54.296076" lon="16.163695"></trkpt><trkpt lat="54.295937" lon="16.163382"></trkpt><trkpt lat="54.29572" lon="16.163081"></trkpt><trkpt lat="54.295581" lon="16.163341"></trkpt><trkpt lat="54.295482" lon="16.163714"></trkpt><trkpt lat="54.295499" lon="16.164063"></trkpt><trkpt lat="54.295465" lon="16.164411"></trkpt><trkpt lat="54.295289" lon="16.164973"></trkpt><trkpt lat="54.295131" lon="16.165199"></trkpt><trkpt lat="54.294975" lon="16.165617"></trkpt><trkpt lat="54.294807" lon="16.165993"></trkpt><trkpt lat="54.294218" lon="16.166906"></trkpt><trkpt lat="54.293959" lon="16.167009"></trkpt><trkpt lat="54.293719" lon="16.167041"></trkpt><trkpt lat="54.293504" lon="16.166967"></trkpt><trkpt lat="54.293373" lon="16.16668"></trkpt><trkpt lat="54.29112" lon="16.160945"></trkpt><trkpt lat="54.285806" lon="16.145115"></trkpt><trkpt lat="54.281826" lon="16.130599"></trkpt><trkpt lat="54.281743" lon="16.130226"></trkpt><trkpt lat="54.281741" lon="16.129874"></trkpt><trkpt lat="54.281394" lon="16.127532"></trkpt><trkpt lat="54.280947" lon="16.126245"></trkpt><trkpt lat="54.264919" lon="16.078835"></trkpt><trkpt lat="54.263803" lon="16.076023"></trkpt><trkpt lat="54.263566" lon="16.075791"></trkpt><trkpt lat="54.263374" lon="16.075535"></trkpt><trkpt lat="54.263202" lon="16.075148"></trkpt><trkpt lat="54.262963" lon="16.073946"></trkpt><trkpt lat="54.262558" lon="16.072311"></trkpt><trkpt lat="54.262242" lon="16.071276"></trkpt><trkpt lat="54.259988" lon="16.062063"></trkpt><trkpt lat="54.259906" lon="16.061593"></trkpt><trkpt lat="54.259773" lon="16.06101"></trkpt><trkpt lat="54.259595" lon="16.060501"></trkpt><trkpt lat="54.259464" lon="16.059939"></trkpt><trkpt lat="54.25937" lon="16.059327"></trkpt><trkpt lat="54.259458" lon="16.05902"></trkpt><trkpt lat="54.25937" lon="16.05832"></trkpt><trkpt lat="54.259186" lon="16.057239"></trkpt><trkpt lat="54.258178" lon="16.052675"></trkpt><trkpt lat="54.257951" lon="16.052363"></trkpt><trkpt lat="54.257627" lon="16.052411"></trkpt><trkpt lat="54.256573" lon="16.05243"></trkpt><trkpt lat="54.256299" lon="16.052191"></trkpt><trkpt lat="54.256054" lon="16.052013"></trkpt><trkpt lat="54.255789" lon="16.052355"></trkpt><trkpt lat="54.255341" lon="16.053258"></trkpt><trkpt lat="54.254918" lon="16.053802"></trkpt><trkpt lat="54.254335" lon="16.054162"></trkpt></trkseg></trk></gpx>