<?xml version="1.0" encoding="UTF-8" standalone="no" ?><gpx xmlns="http://www.topografix.com/GPX/1/1" xmlns:gpxx="http://www.garmin.com/xmlschemas/GpxExtensions/v3" ><trk><trkseg><trkpt lat="50.9017024655" lon="15.7580191176"></trkpt><trkpt lat="50.9012563806" lon="15.7601582631"></trkpt><trkpt lat="50.9009526204" lon="15.760694202"></trkpt><trkpt lat="50.9008258022" lon="15.7612556219"></trkpt><trkpt lat="50.9007255547" lon="15.7618693449"></trkpt><trkpt lat="50.8999745362" lon="15.7647615205"></trkpt><trkpt lat="50.8997284435" lon="15.7650639396"></trkpt><trkpt lat="50.899447063" lon="15.765216155"></trkpt><trkpt lat="50.8989620022" lon="15.7655620761"></trkpt><trkpt lat="50.8987766784" lon="15.7659490686"></trkpt><trkpt lat="50.8987167478" lon="15.7664763741"></trkpt><trkpt lat="50.898547098" lon="15.7721871324"></trkpt><trkpt lat="50.8987522032" lon="15.7725362387"></trkpt><trkpt lat="50.8987656143" lon="15.7729814015"></trkpt><trkpt lat="50.8987284824" lon="15.7735904306"></trkpt><trkpt lat="50.8986115549" lon="15.7741658483"></trkpt><trkpt lat="50.8981231414" lon="15.7759883255"></trkpt><trkpt lat="50.8947771695" lon="15.7859059609"></trkpt><trkpt lat="50.8945362736" lon="15.7861263212"></trkpt><trkpt lat="50.8933224063" lon="15.7874953374"></trkpt><trkpt lat="50.888152197" lon="15.7945473678"></trkpt><trkpt lat="50.88829997" lon="15.7951359451"></trkpt><trkpt lat="50.8887368347" lon="15.7965109963"></trkpt><trkpt lat="50.8890342247" lon="15.7964966632"></trkpt><trkpt lat="50.8891896252" lon="15.7968822308"></trkpt><trkpt lat="50.8892641403" lon="15.7973377034"></trkpt><trkpt lat="50.8893140964" lon="15.7978838682"></trkpt><trkpt lat="50.8892145194" lon="15.7983441185"></trkpt><trkpt lat="50.8889619727" lon="15.7987272553"></trkpt><trkpt lat="50.8885671012" lon="15.7994410582"></trkpt><trkpt lat="50.8882251196" lon="15.7996971253"></trkpt><trkpt lat="50.8883086033" lon="15.8001107723"></trkpt><trkpt lat="50.888374066" lon="15.8008114994"></trkpt><trkpt lat="50.8883011434" lon="15.8012980688"></trkpt><trkpt lat="50.8881317452" lon="15.8020966966"></trkpt><trkpt lat="50.888102157" lon="15.8027141914"></trkpt><trkpt lat="50.8880273066" lon="15.8031503856"></trkpt><trkpt lat="50.8879071102" lon="15.8036053553"></trkpt><trkpt lat="50.8876449242" lon="15.8039206825"></trkpt><trkpt lat="50.8865706157" lon="15.804978814"></trkpt><trkpt lat="50.8862747345" lon="15.8050922211"></trkpt><trkpt lat="50.8853208739" lon="15.8048905525"></trkpt><trkpt lat="50.8849690855" lon="15.8050384931"></trkpt><trkpt lat="50.8846881241" lon="15.8050623816"></trkpt><trkpt lat="50.8841927536" lon="15.8051802311"></trkpt><trkpt lat="50.8832652122" lon="15.8055811375"></trkpt><trkpt lat="50.8830201253" lon="15.8059053496"></trkpt><trkpt lat="50.8821200766" lon="15.8068323042"></trkpt><trkpt lat="50.8818542864" lon="15.8066592179"></trkpt><trkpt lat="50.8817764185" lon="15.8062443137"></trkpt><trkpt lat="50.8818439767" lon="15.8066677675"></trkpt><trkpt lat="50.8817630913" lon="15.8070908859"></trkpt><trkpt lat="50.8815439045" lon="15.8074737713"></trkpt><trkpt lat="50.8813128993" lon="15.8077284973"></trkpt><trkpt lat="50.8809411619" lon="15.8079656214"></trkpt><trkpt lat="50.8802351542" lon="15.8085543662"></trkpt><trkpt lat="50.8799852058" lon="15.8088209108"></trkpt><trkpt lat="50.878806375" lon="15.8098470233"></trkpt><trkpt lat="50.8785996772" lon="15.8102939464"></trkpt><trkpt lat="50.8783648163" lon="15.8105816133"></trkpt><trkpt lat="50.8780662529" lon="15.8107963577"></trkpt><trkpt lat="50.8777234331" lon="15.8109743055"></trkpt><trkpt lat="50.8774825372" lon="15.8112363238"></trkpt><trkpt lat="50.8772996441" lon="15.8116161916"></trkpt><trkpt lat="50.8768806327" lon="15.81270542"></trkpt><trkpt lat="50.8767905273" lon="15.8131456375"></trkpt><trkpt lat="50.8763390779" lon="15.8145909291"></trkpt><trkpt lat="50.8761200588" lon="15.8149434719"></trkpt><trkpt lat="50.8757819328" lon="15.815368183"></trkpt><trkpt lat="50.8756389376" lon="15.8157622162"></trkpt><trkpt lat="50.8751974627" lon="15.8166910987"></trkpt><trkpt lat="50.8749165013" lon="15.8169843815"></trkpt><trkpt lat="50.874522971" lon="15.8172983676"></trkpt><trkpt lat="50.8728315867" lon="15.8189684618"></trkpt><trkpt lat="50.8725367952" lon="15.8193211723"></trkpt><trkpt lat="50.8721001819" lon="15.8197357412"></trkpt><trkpt lat="50.8717946615" lon="15.819912767"></trkpt><trkpt lat="50.870621698" lon="15.8209027536"></trkpt><trkpt lat="50.8705232944" lon="15.8214702923"></trkpt><trkpt lat="50.8703890163" lon="15.8226450998"></trkpt><trkpt lat="50.8703829814" lon="15.8232687972"></trkpt><trkpt lat="50.8704388887" lon="15.824041022"></trkpt><trkpt lat="50.8705370408" lon="15.8245062176"></trkpt><trkpt lat="50.8706812095" lon="15.8249497879"></trkpt><trkpt lat="50.8708704729" lon="15.82574456"></trkpt><trkpt lat="50.8709042519" lon="15.8261934109"></trkpt><trkpt lat="50.870831497" lon="15.8267923817"></trkpt><trkpt lat="50.8705849014" lon="15.8269755263"></trkpt><trkpt lat="50.8703219611" lon="15.8268674836"></trkpt><trkpt lat="50.8695203997" lon="15.8266982529"></trkpt><trkpt lat="50.8691864647" lon="15.8271202818"></trkpt><trkpt lat="50.8690854628" lon="15.827529151"></trkpt><trkpt lat="50.8693406079" lon="15.8279435523"></trkpt><trkpt lat="50.8691014722" lon="15.8281617332"></trkpt><trkpt lat="50.8693671785" lon="15.82800759"></trkpt><trkpt lat="50.8691249415" lon="15.8276056778"></trkpt><trkpt lat="50.8686906751" lon="15.8270305954"></trkpt><trkpt lat="50.8689681161" lon="15.8273693081"></trkpt><trkpt lat="50.869379919" lon="15.8280666824"></trkpt><trkpt lat="50.8695582859" lon="15.8285480551"></trkpt><trkpt lat="50.8697535843" lon="15.8293445036"></trkpt><trkpt lat="50.8695090003" lon="15.8295900933"></trkpt><trkpt lat="50.8692044858" lon="15.8297822066"></trkpt><trkpt lat="50.8687565569" lon="15.8301893994"></trkpt><trkpt lat="50.8687686268" lon="15.8307150286"></trkpt><trkpt lat="50.8687425591" lon="15.8314235508"></trkpt><trkpt lat="50.868535107" lon="15.8316994831"></trkpt><trkpt lat="50.8684655372" lon="15.8323318977"></trkpt><trkpt lat="50.8684463426" lon="15.832766667"></trkpt><trkpt lat="50.8685286529" lon="15.8342910837"></trkpt><trkpt lat="50.8685252164" lon="15.8349957503"></trkpt><trkpt lat="50.8683631103" lon="15.8354430925"></trkpt><trkpt lat="50.868298905" lon="15.8359273151"></trkpt><trkpt lat="50.868140487" lon="15.8364190813"></trkpt><trkpt lat="50.8679706696" lon="15.8367778268"></trkpt><trkpt lat="50.8678966574" lon="15.8371949941"></trkpt><trkpt lat="50.8677693363" lon="15.8376829047"></trkpt><trkpt lat="50.867737066" lon="15.8382261358"></trkpt><trkpt lat="50.8678415045" lon="15.8386379387"></trkpt><trkpt lat="50.867737988" lon="15.8390446287"></trkpt><trkpt lat="50.867651403" lon="15.8395629656"></trkpt><trkpt lat="50.8675097488" lon="15.8399723377"></trkpt><trkpt lat="50.8674048074" lon="15.8405118808"></trkpt><trkpt lat="50.8673309628" lon="15.8414307889"></trkpt><trkpt lat="50.867414698" lon="15.8419544064"></trkpt><trkpt lat="50.8676410094" lon="15.8428645972"></trkpt><trkpt lat="50.8678696677" lon="15.8432841115"></trkpt><trkpt lat="50.8684998192" lon="15.8446982224"></trkpt><trkpt lat="50.8686423115" lon="15.8451344166"></trkpt><trkpt lat="50.8686884958" lon="15.8455703594"></trkpt><trkpt lat="50.8688308205" lon="15.8462016005"></trkpt><trkpt lat="50.8690474927" lon="15.8465683926"></trkpt><trkpt lat="50.8693111874" lon="15.8471525274"></trkpt><trkpt lat="50.8693886362" lon="15.8476471435"></trkpt><trkpt lat="50.8692936692" lon="15.8482558373"></trkpt><trkpt lat="50.8692246862" lon="15.8494807687"></trkpt><trkpt lat="50.8693358302" lon="15.8501249179"></trkpt><trkpt lat="50.8694510814" lon="15.8505798038"></trkpt><trkpt lat="50.8696581982" lon="15.8517096005"></trkpt><trkpt lat="50.8695525862" lon="15.8521462977"></trkpt><trkpt lat="50.8696872834" lon="15.8525736071"></trkpt><trkpt lat="50.8697919734" lon="15.8530446701"></trkpt><trkpt lat="50.8697784785" lon="15.8536734805"></trkpt><trkpt lat="50.8697265945" lon="15.8541074954"></trkpt><trkpt lat="50.8695898019" lon="15.8545053005"></trkpt><trkpt lat="50.8692780789" lon="15.8546476252"></trkpt><trkpt lat="50.8690606523" lon="15.8549017645"></trkpt><trkpt lat="50.8689210936" lon="15.8552952949"></trkpt><trkpt lat="50.8690847922" lon="15.8557923418"></trkpt><trkpt lat="50.8692448866" lon="15.8561434597"></trkpt><trkpt lat="50.8696665801" lon="15.8568855096"></trkpt><trkpt lat="50.8697888721" lon="15.8573473524"></trkpt><trkpt lat="50.8696544264" lon="15.8578825369"></trkpt><trkpt lat="50.8695214894" lon="15.8582667634"></trkpt><trkpt lat="50.8694214094" lon="15.8590951469"></trkpt><trkpt lat="50.8695147" lon="15.8595933672"></trkpt><trkpt lat="50.8695690986" lon="15.8601137996"></trkpt><trkpt lat="50.8695036359" lon="15.860591149"></trkpt><trkpt lat="50.8692831919" lon="15.8609537501"></trkpt><trkpt lat="50.8686734922" lon="15.8617837261"></trkpt><trkpt lat="50.8683337737" lon="15.8620021585"></trkpt><trkpt lat="50.868063122" lon="15.8623271249"></trkpt><trkpt lat="50.8679037821" lon="15.8626815118"></trkpt><trkpt lat="50.8677529916" lon="15.8631722722"></trkpt><trkpt lat="50.8675524965" lon="15.8635148406"></trkpt><trkpt lat="50.8674537577" lon="15.8639767673"></trkpt><trkpt lat="50.8675400913" lon="15.8644624148"></trkpt><trkpt lat="50.8677083999" lon="15.8648955077"></trkpt><trkpt lat="50.8677192125" lon="15.865395572"></trkpt><trkpt lat="50.8676438592" lon="15.8658199478"></trkpt><trkpt lat="50.8675013669" lon="15.8662203513"></trkpt><trkpt lat="50.867595328" lon="15.8666350041"></trkpt><trkpt lat="50.8675775584" lon="15.8674024511"></trkpt><trkpt lat="50.8678233158" lon="15.8671665844"></trkpt><trkpt lat="50.8680782933" lon="15.8668235131"></trkpt><trkpt lat="50.8682825603" lon="15.8664602414"></trkpt><trkpt lat="50.8686223626" lon="15.8659591712"></trkpt><trkpt lat="50.8687990531" lon="15.8655465301"></trkpt><trkpt lat="50.8691141289" lon="15.8653237391"></trkpt><trkpt lat="50.8690083493" lon="15.8658352867"></trkpt><trkpt lat="50.8689565491" lon="15.8665452339"></trkpt><trkpt lat="50.8689566329" lon="15.8670478966"></trkpt><trkpt lat="50.8689064253" lon="15.8676260803"></trkpt><trkpt lat="50.8686974645" lon="15.8679818083"></trkpt><trkpt lat="50.8690508455" lon="15.8678361308"></trkpt><trkpt lat="50.8690205868" lon="15.8683668729"></trkpt><trkpt lat="50.8693142049" lon="15.8682392165"></trkpt><trkpt lat="50.8692909032" lon="15.8687264565"></trkpt><trkpt lat="50.8695546817" lon="15.8688197471"></trkpt><trkpt lat="50.8696013689" lon="15.8693136927"></trkpt><trkpt lat="50.8695955854" lon="15.8688516822"></trkpt><trkpt lat="50.8693090919" lon="15.8686971199"></trkpt><trkpt lat="50.8693988621" lon="15.8682812098"></trkpt><trkpt lat="50.8690581378" lon="15.8684833813"></trkpt><trkpt lat="50.8692102693" lon="15.8679716662"></trkpt><trkpt lat="50.8689082693" lon="15.8679689839"></trkpt><trkpt lat="50.8689727262" lon="15.8674194664"></trkpt><trkpt lat="50.8689731453" lon="15.866730893"></trkpt><trkpt lat="50.8688951936" lon="15.8662830479"></trkpt><trkpt lat="50.8689966984" lon="15.8658049442"></trkpt><trkpt lat="50.8691475727" lon="15.8653307799"></trkpt><trkpt lat="50.8688076027" lon="15.865523899"></trkpt><trkpt lat="50.8686035033" lon="15.8659141604"></trkpt><trkpt lat="50.8673303761" lon="15.8678945526"></trkpt><trkpt lat="50.8670693636" lon="15.8681185171"></trkpt><trkpt lat="50.8669578843" lon="15.8685097005"></trkpt><trkpt lat="50.8666641824" lon="15.8686123788"></trkpt><trkpt lat="50.8664000686" lon="15.8689335734"></trkpt><trkpt lat="50.8661823068" lon="15.8693642356"></trkpt><trkpt lat="50.8661412355" lon="15.869836472"></trkpt><trkpt lat="50.8660428319" lon="15.8703337703"></trkpt><trkpt lat="50.865797326" lon="15.8706413861"></trkpt><trkpt lat="50.8654975053" lon="15.8708394505"></trkpt><trkpt lat="50.8652999438" lon="15.8711642493"></trkpt><trkpt lat="50.8651364967" lon="15.8715827577"></trkpt><trkpt lat="50.8648738917" lon="15.8721378073"></trkpt><trkpt lat="50.8646006417" lon="15.8724903502"></trkpt><trkpt lat="50.8642738312" lon="15.8727055136"></trkpt><trkpt lat="50.8639014233" lon="15.872680787"></trkpt><trkpt lat="50.8631628938" lon="15.8725250512"></trkpt><trkpt lat="50.8632744569" lon="15.872923024"></trkpt><trkpt lat="50.8631659951" lon="15.8733347431"></trkpt><trkpt lat="50.8629070781" lon="15.8731930051"></trkpt><trkpt lat="50.8626094367" lon="15.8732387703"></trkpt><trkpt lat="50.8621022478" lon="15.8732456435"></trkpt><trkpt lat="50.8617943805" lon="15.8730677795"></trkpt><trkpt lat="50.8615584299" lon="15.8727796096"></trkpt><trkpt lat="50.8612688351" lon="15.8726475947"></trkpt><trkpt lat="50.8609334752" lon="15.8725677151"></trkpt><trkpt lat="50.858645048" lon="15.8727541286"></trkpt><trkpt lat="50.8583110292" lon="15.8725716546"></trkpt><trkpt lat="50.8580209315" lon="15.8723608498"></trkpt><trkpt lat="50.8577858191" lon="15.8721185289"></trkpt><trkpt lat="50.8574155904" lon="15.8718628809"></trkpt><trkpt lat="50.8568924759" lon="15.8714060672"></trkpt><trkpt lat="50.856406996" lon="15.871083783"></trkpt><trkpt lat="50.8560737316" lon="15.8709759079"></trkpt><trkpt lat="50.854075402" lon="15.8700274117"></trkpt><trkpt lat="50.8536681253" lon="15.869905958"></trkpt><trkpt lat="50.8526940644" lon="15.8699320257"></trkpt><trkpt lat="50.8524007816" lon="15.86962617"></trkpt><trkpt lat="50.8521644957" lon="15.8693247568"></trkpt><trkpt lat="50.8521692734" lon="15.8688960224"></trkpt><trkpt lat="50.8520803414" lon="15.8683165815"></trkpt><trkpt lat="50.8519282937" lon="15.8679450117"></trkpt><trkpt lat="50.8519044891" lon="15.867512254"></trkpt><trkpt lat="50.8519815188" lon="15.867100535"></trkpt><trkpt lat="50.8519804291" lon="15.8666271251"></trkpt><trkpt lat="50.8520233445" lon="15.8660609275"></trkpt><trkpt lat="50.8521090075" lon="15.8656333666"></trkpt><trkpt lat="50.852204226" lon="15.8646893129"></trkpt><trkpt lat="50.8521608915" lon="15.8642309066"></trkpt><trkpt lat="50.852069445" lon="15.8637908567"></trkpt><trkpt lat="50.8519076742" lon="15.8633504715"></trkpt><trkpt lat="50.8515286446" lon="15.8619572315"></trkpt><trkpt lat="50.8515226096" lon="15.8614726737"></trkpt><trkpt lat="50.8514470048" lon="15.8603902347"></trkpt><trkpt lat="50.8514454961" lon="15.8594217896"></trkpt><trkpt lat="50.8513752557" lon="15.8582784142"></trkpt><trkpt lat="50.8511868306" lon="15.8578226902"></trkpt><trkpt lat="50.8510691486" lon="15.8573458437"></trkpt><trkpt lat="50.8510722499" lon="15.8568534907"></trkpt><trkpt lat="50.8511186857" lon="15.8562769834"></trkpt><trkpt lat="50.8510575816" lon="15.8556415513"></trkpt><trkpt lat="50.8510415722" lon="15.8551943768"></trkpt><trkpt lat="50.8509873413" lon="15.8546147682"></trkpt><trkpt lat="50.8508611936" lon="15.8542082459"></trkpt><trkpt lat="50.850634044" lon="15.853838101"></trkpt><trkpt lat="50.8502550982" lon="15.8533334266"></trkpt><trkpt lat="50.8499687724" lon="15.8531909343"></trkpt><trkpt lat="50.8502363227" lon="15.8532729931"></trkpt><trkpt lat="50.8503065631" lon="15.8526620362"></trkpt><trkpt lat="50.8505265042" lon="15.8516485803"></trkpt><trkpt lat="50.8507407457" lon="15.8512260485"></trkpt><trkpt lat="50.8509581722" lon="15.8509434108"></trkpt><trkpt lat="50.8513893373" lon="15.8504934702"></trkpt><trkpt lat="50.8511289116" lon="15.8507383894"></trkpt><trkpt lat="50.8513372857" lon="15.8504297677"></trkpt><trkpt lat="50.8515183348" lon="15.8499966748"></trkpt><trkpt lat="50.851726206" lon="15.8493903279"></trkpt><trkpt lat="50.8519580495" lon="15.8490639366"></trkpt><trkpt lat="50.8522711974" lon="15.8487276547"></trkpt><trkpt lat="50.8524506539" lon="15.8483674843"></trkpt><trkpt lat="50.8527378179" lon="15.8481317852"></trkpt><trkpt lat="50.8532224596" lon="15.8478320483"></trkpt><trkpt lat="50.8535185922" lon="15.847755773"></trkpt><trkpt lat="50.8538612444" lon="15.8476164658"></trkpt><trkpt lat="50.854077246" lon="15.8473184891"></trkpt><trkpt lat="50.854259301" lon="15.8468781039"></trkpt><trkpt lat="50.8546058927" lon="15.8466761"></trkpt><trkpt lat="50.856978558" lon="15.8448736556"></trkpt><trkpt lat="50.8571830764" lon="15.8445329312"></trkpt><trkpt lat="50.859412998" lon="15.8414352313"></trkpt><trkpt lat="50.8596766926" lon="15.8412608877"></trkpt><trkpt lat="50.8598861564" lon="15.840676669"></trkpt><trkpt lat="50.8602718916" lon="15.8397952281"></trkpt><trkpt lat="50.8618324343" lon="15.8368526772"></trkpt><trkpt lat="50.8621479291" lon="15.8366728853"></trkpt><trkpt lat="50.8624720573" lon="15.8366215881"></trkpt><trkpt lat="50.8628038969" lon="15.8365013916"></trkpt><trkpt lat="50.8630726207" lon="15.836269632"></trkpt><trkpt lat="50.8687609155" lon="15.8301453944"></trkpt><trkpt lat="50.8692830242" lon="15.8296972141"></trkpt><trkpt lat="50.8703021798" lon="15.8285480551"></trkpt><trkpt lat="50.8702388126" lon="15.8279900718"></trkpt><trkpt lat="50.8702436741" lon="15.82745363"></trkpt><trkpt lat="50.8703899384" lon="15.8269989956"></trkpt><trkpt lat="50.870687915" lon="15.8269466087"></trkpt><trkpt lat="50.8708904218" lon="15.8266362268"></trkpt><trkpt lat="50.8709002286" lon="15.8262040559"></trkpt><trkpt lat="50.8708613366" lon="15.8257712144"></trkpt><trkpt lat="50.8709237818" lon="15.8261939976"></trkpt><trkpt lat="50.8708382025" lon="15.826741755"></trkpt><trkpt lat="50.8705602586" lon="15.8269346226"></trkpt><trkpt lat="50.8702357952" lon="15.8268104028"></trkpt><trkpt lat="50.8699255809" lon="15.8266310301"></trkpt><trkpt lat="50.869633304" lon="15.8266040403"></trkpt><trkpt lat="50.8694110159" lon="15.8268718421"></trkpt><trkpt lat="50.869100634" lon="15.8274668735"></trkpt><trkpt lat="50.8691962715" lon="15.8279639203"></trkpt></trkseg></trk></gpx>