<?xml version="1.0" encoding="UTF-8" standalone="no" ?><gpx xmlns="http://www.topografix.com/GPX/1/1" xmlns:gpxx="http://www.garmin.com/xmlschemas/GpxExtensions/v3" ><trk><trkseg><trkpt lat="52.741047" lon="16.278432"></trkpt><trkpt lat="52.741295" lon="16.277686"></trkpt><trkpt lat="52.74165" lon="16.27635"></trkpt><trkpt lat="52.741373" lon="16.276299"></trkpt><trkpt lat="52.741157" lon="16.276677"></trkpt><trkpt lat="52.740943" lon="16.277192"></trkpt><trkpt lat="52.740572" lon="16.277529"></trkpt><trkpt lat="52.740291" lon="16.277719"></trkpt><trkpt lat="52.727448" lon="16.284687"></trkpt><trkpt lat="52.727139" lon="16.284658"></trkpt><trkpt lat="52.721682" lon="16.282831"></trkpt><trkpt lat="52.721611" lon="16.2816"></trkpt><trkpt lat="52.721403" lon="16.280407"></trkpt><trkpt lat="52.72055" lon="16.273518"></trkpt><trkpt lat="52.72023" lon="16.271946"></trkpt><trkpt lat="52.719852" lon="16.270664"></trkpt><trkpt lat="52.71894" lon="16.266794"></trkpt><trkpt lat="52.718685" lon="16.265906"></trkpt><trkpt lat="52.718284" lon="16.264887"></trkpt><trkpt lat="52.71764" lon="16.263493"></trkpt><trkpt lat="52.717467" lon="16.26296"></trkpt><trkpt lat="52.717339" lon="16.262386"></trkpt><trkpt lat="52.717207" lon="16.261437"></trkpt><trkpt lat="52.716207" lon="16.256189"></trkpt><trkpt lat="52.715733" lon="16.255563"></trkpt><trkpt lat="52.715374" lon="16.255277"></trkpt><trkpt lat="52.715199" lon="16.255086"></trkpt><trkpt lat="52.714291" lon="16.253937"></trkpt><trkpt lat="52.713145" lon="16.252188"></trkpt><trkpt lat="52.71254" lon="16.250385"></trkpt><trkpt lat="52.712261" lon="16.249146"></trkpt><trkpt lat="52.712131" lon="16.248158"></trkpt><trkpt lat="52.71169" lon="16.242966"></trkpt><trkpt lat="52.711644" lon="16.241869"></trkpt><trkpt lat="52.71144" lon="16.240599"></trkpt><trkpt lat="52.711349" lon="16.240204"></trkpt><trkpt lat="52.710984" lon="16.237469"></trkpt><trkpt lat="52.710744" lon="16.236172"></trkpt><trkpt lat="52.710413" lon="16.235494"></trkpt><trkpt lat="52.710237" lon="16.235263"></trkpt><trkpt lat="52.709137" lon="16.233518"></trkpt><trkpt lat="52.708573" lon="16.232124"></trkpt><trkpt lat="52.70459" lon="16.224285"></trkpt><trkpt lat="52.704142" lon="16.223727"></trkpt><trkpt lat="52.701299" lon="16.219161"></trkpt><trkpt lat="52.700923" lon="16.218118"></trkpt><trkpt lat="52.700091" lon="16.216318"></trkpt><trkpt lat="52.699492" lon="16.214751"></trkpt><trkpt lat="52.699392" lon="16.21441"></trkpt><trkpt lat="52.698944" lon="16.212216"></trkpt><trkpt lat="52.699006" lon="16.211765"></trkpt><trkpt lat="52.698846" lon="16.211559"></trkpt><trkpt lat="52.698018" lon="16.210909"></trkpt><trkpt lat="52.697347" lon="16.210693"></trkpt><trkpt lat="52.696879" lon="16.210011"></trkpt><trkpt lat="52.6965" lon="16.209335"></trkpt><trkpt lat="52.689978" lon="16.195628"></trkpt><trkpt lat="52.68991" lon="16.195087"></trkpt><trkpt lat="52.686985" lon="16.165752"></trkpt><trkpt lat="52.687309" lon="16.164315"></trkpt><trkpt lat="52.687234" lon="16.163997"></trkpt><trkpt lat="52.687021" lon="16.163517"></trkpt><trkpt lat="52.687024" lon="16.163156"></trkpt><trkpt lat="52.687144" lon="16.162875"></trkpt><trkpt lat="52.687435" lon="16.162012"></trkpt><trkpt lat="52.687221" lon="16.160851"></trkpt><trkpt lat="52.686868" lon="16.157738"></trkpt><trkpt lat="52.686862" lon="16.156677"></trkpt><trkpt lat="52.686622" lon="16.152435"></trkpt><trkpt lat="52.686433" lon="16.150899"></trkpt><trkpt lat="52.683451" lon="16.121992"></trkpt><trkpt lat="52.68337" lon="16.121514"></trkpt><trkpt lat="52.683295" lon="16.121203"></trkpt><trkpt lat="52.679539" lon="16.108527"></trkpt><trkpt lat="52.679264" lon="16.107865"></trkpt><trkpt lat="52.677683" lon="16.104592"></trkpt><trkpt lat="52.677337" lon="16.104135"></trkpt><trkpt lat="52.675571" lon="16.10227"></trkpt><trkpt lat="52.674917" lon="16.101847"></trkpt><trkpt lat="52.668982" lon="16.098906"></trkpt><trkpt lat="52.668096" lon="16.098638"></trkpt><trkpt lat="52.665623" lon="16.098266"></trkpt><trkpt lat="52.66513" lon="16.09826"></trkpt><trkpt lat="52.6646" lon="16.097773"></trkpt><trkpt lat="52.664226" lon="16.096762"></trkpt><trkpt lat="52.664025" lon="16.09579"></trkpt><trkpt lat="52.66384" lon="16.095338"></trkpt><trkpt lat="52.663671" lon="16.095081"></trkpt><trkpt lat="52.662944" lon="16.094402"></trkpt><trkpt lat="52.66256" lon="16.093867"></trkpt><trkpt lat="52.662284" lon="16.093224"></trkpt><trkpt lat="52.661006" lon="16.090912"></trkpt><trkpt lat="52.660508" lon="16.090338"></trkpt><trkpt lat="52.65876" lon="16.087513"></trkpt><trkpt lat="52.658525" lon="16.086439"></trkpt><trkpt lat="52.658211" lon="16.083654"></trkpt><trkpt lat="52.658222" lon="16.082813"></trkpt><trkpt lat="52.658191" lon="16.081915"></trkpt><trkpt lat="52.657691" lon="16.081862"></trkpt><trkpt lat="52.657105" lon="16.081709"></trkpt><trkpt lat="52.657028" lon="16.081395"></trkpt><trkpt lat="52.656825" lon="16.081293"></trkpt><trkpt lat="52.656239" lon="16.081238"></trkpt><trkpt lat="52.651657" lon="16.079843"></trkpt><trkpt lat="52.651479" lon="16.0797"></trkpt><trkpt lat="52.651171" lon="16.079713"></trkpt><trkpt lat="52.650923" lon="16.079817"></trkpt><trkpt lat="52.650967" lon="16.080741"></trkpt><trkpt lat="52.650968" lon="16.081369"></trkpt><trkpt lat="52.650746" lon="16.081411"></trkpt><trkpt lat="52.65034" lon="16.081563"></trkpt><trkpt lat="52.649821" lon="16.082621"></trkpt><trkpt lat="52.649645" lon="16.082851"></trkpt><trkpt lat="52.649444" lon="16.08298"></trkpt><trkpt lat="52.648864" lon="16.083477"></trkpt><trkpt lat="52.647119" lon="16.086059"></trkpt><trkpt lat="52.647228" lon="16.08649"></trkpt><trkpt lat="52.648956" lon="16.092057"></trkpt><trkpt lat="52.650702" lon="16.096821"></trkpt><trkpt lat="52.655298" lon="16.111671"></trkpt><trkpt lat="52.655098" lon="16.111794"></trkpt><trkpt lat="52.654864" lon="16.111895"></trkpt><trkpt lat="52.654519" lon="16.11227"></trkpt><trkpt lat="52.653966" lon="16.112992"></trkpt><trkpt lat="52.653962" lon="16.113346"></trkpt><trkpt lat="52.654098" lon="16.114257"></trkpt><trkpt lat="52.65404" lon="16.115525"></trkpt><trkpt lat="52.653555" lon="16.120233"></trkpt><trkpt lat="52.653142" lon="16.121326"></trkpt><trkpt lat="52.650196" lon="16.131017"></trkpt><trkpt lat="52.649236" lon="16.135215"></trkpt><trkpt lat="52.642643" lon="16.162762"></trkpt><trkpt lat="52.639536" lon="16.173462"></trkpt><trkpt lat="52.639219" lon="16.174818"></trkpt><trkpt lat="52.639345" lon="16.175561"></trkpt><trkpt lat="52.63967" lon="16.178889"></trkpt><trkpt lat="52.639564" lon="16.179269"></trkpt><trkpt lat="52.639423" lon="16.180057"></trkpt><trkpt lat="52.6334" lon="16.207401"></trkpt><trkpt lat="52.630729" lon="16.217192"></trkpt><trkpt lat="52.629812" lon="16.217634"></trkpt><trkpt lat="52.629301" lon="16.217634"></trkpt><trkpt lat="52.628173" lon="16.217791"></trkpt><trkpt lat="52.627804" lon="16.218172"></trkpt><trkpt lat="52.627155" lon="16.218964"></trkpt><trkpt lat="52.627045" lon="16.219309"></trkpt><trkpt lat="52.62696" lon="16.219695"></trkpt><trkpt lat="52.626946" lon="16.220124"></trkpt><trkpt lat="52.626974" lon="16.220699"></trkpt><trkpt lat="52.627236" lon="16.223496"></trkpt><trkpt lat="52.631237" lon="16.252785"></trkpt><trkpt lat="52.63141" lon="16.254798"></trkpt><trkpt lat="52.63125" lon="16.255041"></trkpt><trkpt lat="52.631042" lon="16.255175"></trkpt><trkpt lat="52.629042" lon="16.256178"></trkpt><trkpt lat="52.62577" lon="16.258246"></trkpt><trkpt lat="52.625633" lon="16.258546"></trkpt><trkpt lat="52.625644" lon="16.258926"></trkpt><trkpt lat="52.625752" lon="16.259233"></trkpt><trkpt lat="52.625946" lon="16.259516"></trkpt><trkpt lat="52.62633" lon="16.259997"></trkpt><trkpt lat="52.634944" lon="16.272649"></trkpt><trkpt lat="52.635357" lon="16.273605"></trkpt><trkpt lat="52.640731" lon="16.283706"></trkpt><trkpt lat="52.641104" lon="16.284032"></trkpt><trkpt lat="52.641244" lon="16.284277"></trkpt><trkpt lat="52.641334" lon="16.284631"></trkpt><trkpt lat="52.643787" lon="16.29245"></trkpt><trkpt lat="52.644489" lon="16.293092"></trkpt><trkpt lat="52.660307" lon="16.306373"></trkpt><trkpt lat="52.662083" lon="16.307542"></trkpt><trkpt lat="52.663013" lon="16.30795"></trkpt><trkpt lat="52.665955" lon="16.30884"></trkpt><trkpt lat="52.666795" lon="16.30874"></trkpt><trkpt lat="52.667588" lon="16.308742"></trkpt><trkpt lat="52.667736" lon="16.308461"></trkpt><trkpt lat="52.667895" lon="16.308023"></trkpt><trkpt lat="52.668285" lon="16.307237"></trkpt><trkpt lat="52.668456" lon="16.306966"></trkpt><trkpt lat="52.671848" lon="16.302314"></trkpt><trkpt lat="52.672401" lon="16.303202"></trkpt><trkpt lat="52.685329" lon="16.323861"></trkpt><trkpt lat="52.692429" lon="16.337214"></trkpt><trkpt lat="52.692734" lon="16.338472"></trkpt><trkpt lat="52.698944" lon="16.359337"></trkpt><trkpt lat="52.699742" lon="16.360333"></trkpt><trkpt lat="52.702565" lon="16.364623"></trkpt><trkpt lat="52.704144" lon="16.366703"></trkpt><trkpt lat="52.705075" lon="16.367373"></trkpt><trkpt lat="52.707078" lon="16.369361"></trkpt><trkpt lat="52.707634" lon="16.370292"></trkpt><trkpt lat="52.708741" lon="16.371758"></trkpt><trkpt lat="52.709018" lon="16.37202"></trkpt><trkpt lat="52.708932" lon="16.372368"></trkpt><trkpt lat="52.708497" lon="16.373119"></trkpt><trkpt lat="52.708418" lon="16.373429"></trkpt><trkpt lat="52.708431" lon="16.37395"></trkpt><trkpt lat="52.70852" lon="16.374821"></trkpt><trkpt lat="52.708265" lon="16.375676"></trkpt><trkpt lat="52.708224" lon="16.376037"></trkpt><trkpt lat="52.708058" lon="16.376265"></trkpt><trkpt lat="52.707849" lon="16.37642"></trkpt><trkpt lat="52.707722" lon="16.376676"></trkpt><trkpt lat="52.707391" lon="16.377491"></trkpt><trkpt lat="52.707623" lon="16.37792"></trkpt><trkpt lat="52.707968" lon="16.378664"></trkpt><trkpt lat="52.707663" lon="16.37913"></trkpt><trkpt lat="52.706823" lon="16.380178"></trkpt><trkpt lat="52.706359" lon="16.380435"></trkpt><trkpt lat="52.706046" lon="16.380555"></trkpt><trkpt lat="52.705913" lon="16.380824"></trkpt><trkpt lat="52.70576" lon="16.382089"></trkpt><trkpt lat="52.705113" lon="16.385684"></trkpt></trkseg></trk></gpx>