<?xml version="1.0" encoding="UTF-8" standalone="no" ?><gpx xmlns="http://www.topografix.com/GPX/1/1" xmlns:gpxx="http://www.garmin.com/xmlschemas/GpxExtensions/v3" ><trk><trkseg><trkpt lat="52.674416" lon="17.162008"></trkpt><trkpt lat="52.674388" lon="17.161598"></trkpt><trkpt lat="52.67412" lon="17.161455"></trkpt><trkpt lat="52.673696" lon="17.161287"></trkpt><trkpt lat="52.671958" lon="17.161292"></trkpt><trkpt lat="52.672105" lon="17.161586"></trkpt><trkpt lat="52.672335" lon="17.161761"></trkpt><trkpt lat="52.672943" lon="17.162671"></trkpt><trkpt lat="52.673278" lon="17.163555"></trkpt><trkpt lat="52.673621" lon="17.164703"></trkpt><trkpt lat="52.676607" lon="17.17725"></trkpt><trkpt lat="52.676593" lon="17.177655"></trkpt><trkpt lat="52.676684" lon="17.184681"></trkpt><trkpt lat="52.676884" lon="17.184999"></trkpt><trkpt lat="52.677221" lon="17.185456"></trkpt><trkpt lat="52.677407" lon="17.185817"></trkpt><trkpt lat="52.677695" lon="17.186221"></trkpt><trkpt lat="52.6806" lon="17.191146"></trkpt><trkpt lat="52.681" lon="17.192367"></trkpt><trkpt lat="52.684626" lon="17.205775"></trkpt><trkpt lat="52.684754" lon="17.207033"></trkpt><trkpt lat="52.685327" lon="17.22026"></trkpt><trkpt lat="52.68521" lon="17.221931"></trkpt><trkpt lat="52.684204" lon="17.229456"></trkpt><trkpt lat="52.684074" lon="17.229804"></trkpt><trkpt lat="52.682207" lon="17.235704"></trkpt><trkpt lat="52.681977" lon="17.237111"></trkpt><trkpt lat="52.680182" lon="17.245587"></trkpt><trkpt lat="52.679827" lon="17.249115"></trkpt><trkpt lat="52.679932" lon="17.250314"></trkpt><trkpt lat="52.68015" lon="17.251406"></trkpt><trkpt lat="52.683682" lon="17.276774"></trkpt><trkpt lat="52.683524" lon="17.276971"></trkpt><trkpt lat="52.683797" lon="17.276663"></trkpt><trkpt lat="52.684148" lon="17.275979"></trkpt><trkpt lat="52.684598" lon="17.275241"></trkpt><trkpt lat="52.685129" lon="17.275872"></trkpt><trkpt lat="52.685274" lon="17.27611"></trkpt><trkpt lat="52.685443" lon="17.276596"></trkpt><trkpt lat="52.68549" lon="17.276927"></trkpt><trkpt lat="52.685489" lon="17.277259"></trkpt><trkpt lat="52.685196" lon="17.278888"></trkpt><trkpt lat="52.685059" lon="17.280372"></trkpt><trkpt lat="52.685152" lon="17.280752"></trkpt><trkpt lat="52.68596" lon="17.285419"></trkpt><trkpt lat="52.685717" lon="17.286736"></trkpt><trkpt lat="52.685179" lon="17.292035"></trkpt><trkpt lat="52.68521" lon="17.292528"></trkpt><trkpt lat="52.685741" lon="17.318805"></trkpt><trkpt lat="52.68564" lon="17.319967"></trkpt><trkpt lat="52.685828" lon="17.324507"></trkpt><trkpt lat="52.686141" lon="17.326132"></trkpt><trkpt lat="52.690301" lon="17.343391"></trkpt><trkpt lat="52.690616" lon="17.344204"></trkpt><trkpt lat="52.69489" lon="17.358078"></trkpt><trkpt lat="52.694829" lon="17.359003"></trkpt><trkpt lat="52.693537" lon="17.370524"></trkpt><trkpt lat="52.693259" lon="17.371683"></trkpt><trkpt lat="52.6929" lon="17.375171"></trkpt><trkpt lat="52.693007" lon="17.37626"></trkpt><trkpt lat="52.694576" lon="17.386874"></trkpt><trkpt lat="52.694764" lon="17.387031"></trkpt><trkpt lat="52.69555" lon="17.387816"></trkpt><trkpt lat="52.695594" lon="17.38818"></trkpt><trkpt lat="52.695561" lon="17.388674"></trkpt><trkpt lat="52.695694" lon="17.38897"></trkpt><trkpt lat="52.695878" lon="17.389095"></trkpt><trkpt lat="52.696187" lon="17.389387"></trkpt><trkpt lat="52.696342" lon="17.389603"></trkpt><trkpt lat="52.696643" lon="17.390371"></trkpt><trkpt lat="52.699242" lon="17.399753"></trkpt><trkpt lat="52.698848" lon="17.400994"></trkpt><trkpt lat="52.698322" lon="17.403237"></trkpt><trkpt lat="52.698122" lon="17.40478"></trkpt><trkpt lat="52.698097" lon="17.40565"></trkpt><trkpt lat="52.698118" lon="17.406644"></trkpt><trkpt lat="52.698627" lon="17.414416"></trkpt><trkpt lat="52.69882" lon="17.415496"></trkpt><trkpt lat="52.698831" lon="17.415875"></trkpt><trkpt lat="52.698792" lon="17.417055"></trkpt><trkpt lat="52.698866" lon="17.41865"></trkpt><trkpt lat="52.698756" lon="17.420418"></trkpt><trkpt lat="52.698489" lon="17.435848"></trkpt><trkpt lat="52.69855" lon="17.437124"></trkpt><trkpt lat="52.698975" lon="17.441595"></trkpt><trkpt lat="52.703283" lon="17.471371"></trkpt><trkpt lat="52.703855" lon="17.471941"></trkpt><trkpt lat="52.703988" lon="17.472255"></trkpt><trkpt lat="52.704236" lon="17.472748"></trkpt><trkpt lat="52.705241" lon="17.473534"></trkpt><trkpt lat="52.707729" lon="17.475112"></trkpt><trkpt lat="52.708678" lon="17.47548"></trkpt><trkpt lat="52.710446" lon="17.476548"></trkpt><trkpt lat="52.710805" lon="17.476887"></trkpt><trkpt lat="52.711162" lon="17.477161"></trkpt><trkpt lat="52.711555" lon="17.477243"></trkpt><trkpt lat="52.712106" lon="17.476956"></trkpt><trkpt lat="52.713098" lon="17.476799"></trkpt><trkpt lat="52.71416" lon="17.477144"></trkpt><trkpt lat="52.714735" lon="17.47829"></trkpt><trkpt lat="52.714965" lon="17.479329"></trkpt><trkpt lat="52.715147" lon="17.480521"></trkpt><trkpt lat="52.715131" lon="17.482427"></trkpt><trkpt lat="52.71498" lon="17.483406"></trkpt><trkpt lat="52.713782" lon="17.494309"></trkpt><trkpt lat="52.713993" lon="17.495155"></trkpt><trkpt lat="52.714334" lon="17.497458"></trkpt><trkpt lat="52.714423" lon="17.498587"></trkpt><trkpt lat="52.714397" lon="17.49948"></trkpt><trkpt lat="52.714283" lon="17.499775"></trkpt><trkpt lat="52.713885" lon="17.500051"></trkpt><trkpt lat="52.713765" lon="17.500331"></trkpt><trkpt lat="52.713585" lon="17.500935"></trkpt><trkpt lat="52.712371" lon="17.505873"></trkpt><trkpt lat="52.712709" lon="17.507387"></trkpt><trkpt lat="52.714371" lon="17.513327"></trkpt><trkpt lat="52.714928" lon="17.514309"></trkpt><trkpt lat="52.717657" lon="17.52015"></trkpt><trkpt lat="52.717762" lon="17.520972"></trkpt><trkpt lat="52.717894" lon="17.521395"></trkpt><trkpt lat="52.718062" lon="17.522041"></trkpt><trkpt lat="52.717999" lon="17.523075"></trkpt><trkpt lat="52.717919" lon="17.523813"></trkpt><trkpt lat="52.717599" lon="17.524736"></trkpt><trkpt lat="52.716992" lon="17.526096"></trkpt><trkpt lat="52.713193" lon="17.536606"></trkpt><trkpt lat="52.713005" lon="17.537823"></trkpt><trkpt lat="52.710068" lon="17.567879"></trkpt><trkpt lat="52.71046" lon="17.568863"></trkpt><trkpt lat="52.712183" lon="17.574286"></trkpt><trkpt lat="52.712538" lon="17.574026"></trkpt><trkpt lat="52.712978" lon="17.575169"></trkpt><trkpt lat="52.713149" lon="17.576177"></trkpt><trkpt lat="52.713225" lon="17.577762"></trkpt><trkpt lat="52.713115" lon="17.578756"></trkpt><trkpt lat="52.712582" lon="17.586713"></trkpt><trkpt lat="52.712553" lon="17.588276"></trkpt><trkpt lat="52.713418" lon="17.613013"></trkpt><trkpt lat="52.713825" lon="17.613858"></trkpt><trkpt lat="52.721501" lon="17.62709"></trkpt><trkpt lat="52.722285" lon="17.627324"></trkpt><trkpt lat="52.722961" lon="17.627654"></trkpt><trkpt lat="52.72289" lon="17.628122"></trkpt><trkpt lat="52.722471" lon="17.62925"></trkpt><trkpt lat="52.720553" lon="17.633447"></trkpt><trkpt lat="52.71795" lon="17.641353"></trkpt><trkpt lat="52.717995" lon="17.64247"></trkpt><trkpt lat="52.718125" lon="17.642802"></trkpt><trkpt lat="52.718637" lon="17.643081"></trkpt><trkpt lat="52.719062" lon="17.642941"></trkpt><trkpt lat="52.719432" lon="17.643001"></trkpt><trkpt lat="52.720181" lon="17.642711"></trkpt><trkpt lat="52.720392" lon="17.642752"></trkpt><trkpt lat="52.720547" lon="17.643025"></trkpt><trkpt lat="52.720887" lon="17.644695"></trkpt><trkpt lat="52.721525" lon="17.646681"></trkpt><trkpt lat="52.723637" lon="17.651238"></trkpt><trkpt lat="52.724146" lon="17.651048"></trkpt><trkpt lat="52.724779" lon="17.65068"></trkpt><trkpt lat="52.725019" lon="17.650597"></trkpt><trkpt lat="52.725586" lon="17.652015"></trkpt><trkpt lat="52.726253" lon="17.653973"></trkpt><trkpt lat="52.726049" lon="17.6532"></trkpt><trkpt lat="52.726344" lon="17.654149"></trkpt><trkpt lat="52.736179" lon="17.692551"></trkpt><trkpt lat="52.736233" lon="17.693707"></trkpt><trkpt lat="52.736274" lon="17.694079"></trkpt><trkpt lat="52.736148" lon="17.694471"></trkpt><trkpt lat="52.736221" lon="17.694787"></trkpt><trkpt lat="52.736422" lon="17.694899"></trkpt><trkpt lat="52.736848" lon="17.695461"></trkpt><trkpt lat="52.737006" lon="17.695728"></trkpt><trkpt lat="52.737074" lon="17.697228"></trkpt><trkpt lat="52.737008" lon="17.698365"></trkpt><trkpt lat="52.736976" lon="17.701272"></trkpt><trkpt lat="52.736593" lon="17.707998"></trkpt><trkpt lat="52.736422" lon="17.708971"></trkpt><trkpt lat="52.735234" lon="17.714226"></trkpt><trkpt lat="52.733178" lon="17.725953"></trkpt><trkpt lat="52.733065" lon="17.7274"></trkpt><trkpt lat="52.732919" lon="17.731806"></trkpt><trkpt lat="52.732956" lon="17.733745"></trkpt><trkpt lat="52.733111" lon="17.734969"></trkpt><trkpt lat="52.733647" lon="17.746109"></trkpt><trkpt lat="52.733348" lon="17.747116"></trkpt><trkpt lat="52.733254" lon="17.747564"></trkpt><trkpt lat="52.733186" lon="17.749191"></trkpt><trkpt lat="52.733012" lon="17.750388"></trkpt><trkpt lat="52.732785" lon="17.751017"></trkpt><trkpt lat="52.733293" lon="17.750843"></trkpt><trkpt lat="52.734143" lon="17.751872"></trkpt><trkpt lat="52.734314" lon="17.752362"></trkpt><trkpt lat="52.741502" lon="17.769902"></trkpt><trkpt lat="52.742013" lon="17.770158"></trkpt><trkpt lat="52.742847" lon="17.770737"></trkpt><trkpt lat="52.742661" lon="17.771853"></trkpt><trkpt lat="52.74062" lon="17.789143"></trkpt><trkpt lat="52.740344" lon="17.790241"></trkpt><trkpt lat="52.740238" lon="17.79105"></trkpt><trkpt lat="52.740384" lon="17.792267"></trkpt><trkpt lat="52.74029" lon="17.793037"></trkpt><trkpt lat="52.740181" lon="17.793561"></trkpt><trkpt lat="52.738274" lon="17.805839"></trkpt><trkpt lat="52.73828" lon="17.806493"></trkpt><trkpt lat="52.738133" lon="17.809628"></trkpt><trkpt lat="52.737849" lon="17.81032"></trkpt><trkpt lat="52.737519" lon="17.810971"></trkpt><trkpt lat="52.737372" lon="17.811343"></trkpt><trkpt lat="52.737308" lon="17.81174"></trkpt><trkpt lat="52.737329" lon="17.812932"></trkpt><trkpt lat="52.737287" lon="17.814144"></trkpt><trkpt lat="52.737369" lon="17.815183"></trkpt><trkpt lat="52.737845" lon="17.818832"></trkpt><trkpt lat="52.73815" lon="17.81946"></trkpt><trkpt lat="52.73847" lon="17.819963"></trkpt><trkpt lat="52.738582" lon="17.820345"></trkpt><trkpt lat="52.738832" lon="17.820713"></trkpt><trkpt lat="52.73965" lon="17.822116"></trkpt><trkpt lat="52.739893" lon="17.822666"></trkpt><trkpt lat="52.740082" lon="17.822993"></trkpt><trkpt lat="52.740387" lon="17.823338"></trkpt><trkpt lat="52.740553" lon="17.823661"></trkpt><trkpt lat="52.740717" lon="17.824183"></trkpt><trkpt lat="52.743608" lon="17.830829"></trkpt><trkpt lat="52.743913" lon="17.831111"></trkpt><trkpt lat="52.744255" lon="17.831496"></trkpt><trkpt lat="52.744593" lon="17.83208"></trkpt><trkpt lat="52.744983" lon="17.83263"></trkpt><trkpt lat="52.745227" lon="17.832837"></trkpt><trkpt lat="52.745603" lon="17.833438"></trkpt><trkpt lat="52.745694" lon="17.833822"></trkpt><trkpt lat="52.745718" lon="17.83421"></trkpt><trkpt lat="52.745693" lon="17.83461"></trkpt><trkpt lat="52.745623" lon="17.83514"></trkpt><trkpt lat="52.745746" lon="17.836153"></trkpt><trkpt lat="52.746129" lon="17.837422"></trkpt><trkpt lat="52.746316" lon="17.838284"></trkpt><trkpt lat="52.746163" lon="17.839025"></trkpt><trkpt lat="52.746056" lon="17.839954"></trkpt><trkpt lat="52.746119" lon="17.84036"></trkpt><trkpt lat="52.74627" lon="17.840672"></trkpt><trkpt lat="52.746503" lon="17.840803"></trkpt><trkpt lat="52.747394" lon="17.840798"></trkpt><trkpt lat="52.747632" lon="17.840833"></trkpt><trkpt lat="52.747951" lon="17.840954"></trkpt><trkpt lat="52.748581" lon="17.841275"></trkpt><trkpt lat="52.748817" lon="17.841453"></trkpt><trkpt lat="52.748995" lon="17.841672"></trkpt><trkpt lat="52.749681" lon="17.842171"></trkpt><trkpt lat="52.750081" lon="17.842329"></trkpt><trkpt lat="52.750443" lon="17.842599"></trkpt><trkpt lat="52.750954" lon="17.84285"></trkpt><trkpt lat="52.751373" lon="17.842885"></trkpt><trkpt lat="52.751317" lon="17.843494"></trkpt><trkpt lat="52.75114" lon="17.844023"></trkpt><trkpt lat="52.750569" lon="17.846305"></trkpt><trkpt lat="52.750351" lon="17.846535"></trkpt><trkpt lat="52.749445" lon="17.847719"></trkpt><trkpt lat="52.749161" lon="17.848337"></trkpt><trkpt lat="52.748238" lon="17.85003"></trkpt><trkpt lat="52.747645" lon="17.851338"></trkpt><trkpt lat="52.74734" lon="17.852158"></trkpt><trkpt lat="52.747055" lon="17.853207"></trkpt><trkpt lat="52.74636" lon="17.858693"></trkpt><trkpt lat="52.746908" lon="17.86004"></trkpt><trkpt lat="52.748148" lon="17.863704"></trkpt><trkpt lat="52.748368" lon="17.864734"></trkpt><trkpt lat="52.748479" lon="17.865133"></trkpt><trkpt lat="52.748984" lon="17.866119"></trkpt><trkpt lat="52.749345" lon="17.866951"></trkpt><trkpt lat="52.749508" lon="17.867761"></trkpt><trkpt lat="52.750319" lon="17.87063"></trkpt><trkpt lat="52.750752" lon="17.87176"></trkpt><trkpt lat="52.750983" lon="17.872822"></trkpt><trkpt lat="52.751091" lon="17.873821"></trkpt><trkpt lat="52.751551" lon="17.876458"></trkpt><trkpt lat="52.751815" lon="17.87862"></trkpt><trkpt lat="52.751853" lon="17.879751"></trkpt><trkpt lat="52.752245" lon="17.884514"></trkpt><trkpt lat="52.752599" lon="17.885642"></trkpt><trkpt lat="52.752959" lon="17.888003"></trkpt><trkpt lat="52.752948" lon="17.889121"></trkpt><trkpt lat="52.751733" lon="17.911719"></trkpt><trkpt lat="52.751453" lon="17.913416"></trkpt><trkpt lat="52.748812" lon="17.935989"></trkpt><trkpt lat="52.748766" lon="17.937243"></trkpt><trkpt lat="52.747934" lon="17.944019"></trkpt><trkpt lat="52.747199" lon="17.944301"></trkpt><trkpt lat="52.746581" lon="17.944318"></trkpt><trkpt lat="52.74556" lon="17.944498"></trkpt><trkpt lat="52.7456" lon="17.945371"></trkpt><trkpt lat="52.745465" lon="17.94668"></trkpt><trkpt lat="52.745142" lon="17.952418"></trkpt><trkpt lat="52.745277" lon="17.953659"></trkpt><trkpt lat="52.751613" lon="17.994174"></trkpt><trkpt lat="52.752022" lon="17.994915"></trkpt><trkpt lat="52.7525" lon="17.99566"></trkpt><trkpt lat="52.752896" lon="17.99642"></trkpt><trkpt lat="52.752429" lon="17.997593"></trkpt><trkpt lat="52.752104" lon="17.998587"></trkpt><trkpt lat="52.751931" lon="17.999252"></trkpt><trkpt lat="52.750896" lon="18.002494"></trkpt><trkpt lat="52.750409" lon="18.00322"></trkpt><trkpt lat="52.749508" lon="18.004825"></trkpt><trkpt lat="52.748942" lon="18.005989"></trkpt><trkpt lat="52.747506" lon="18.009473"></trkpt><trkpt lat="52.747435" lon="18.009909"></trkpt><trkpt lat="52.747208" lon="18.010628"></trkpt><trkpt lat="52.746978" lon="18.011"></trkpt><trkpt lat="52.746363" lon="18.01171"></trkpt><trkpt lat="52.744754" lon="18.01394"></trkpt><trkpt lat="52.744418" lon="18.014879"></trkpt><trkpt lat="52.743976" lon="18.015858"></trkpt><trkpt lat="52.742559" lon="18.019507"></trkpt><trkpt lat="52.742282" lon="18.020076"></trkpt><trkpt lat="52.741724" lon="18.020626"></trkpt><trkpt lat="52.740832" lon="18.02217"></trkpt><trkpt lat="52.74051" lon="18.023105"></trkpt><trkpt lat="52.739873" lon="18.025325"></trkpt><trkpt lat="52.739643" lon="18.026712"></trkpt><trkpt lat="52.739343" lon="18.027865"></trkpt><trkpt lat="52.739" lon="18.028802"></trkpt><trkpt lat="52.738646" lon="18.029566"></trkpt><trkpt lat="52.738442" lon="18.029925"></trkpt><trkpt lat="52.738206" lon="18.030253"></trkpt><trkpt lat="52.738293" lon="18.030912"></trkpt><trkpt lat="52.745478" lon="18.07507"></trkpt><trkpt lat="52.745543" lon="18.076457"></trkpt><trkpt lat="52.745405" lon="18.079037"></trkpt><trkpt lat="52.745064" lon="18.080525"></trkpt><trkpt lat="52.74387" lon="18.084762"></trkpt><trkpt lat="52.743185" lon="18.084793"></trkpt><trkpt lat="52.741719" lon="18.085288"></trkpt><trkpt lat="52.740934" lon="18.085799"></trkpt><trkpt lat="52.740287" lon="18.086521"></trkpt><trkpt lat="52.739327" lon="18.087861"></trkpt><trkpt lat="52.73753" lon="18.08935"></trkpt><trkpt lat="52.736725" lon="18.08952"></trkpt><trkpt lat="52.734869" lon="18.090134"></trkpt><trkpt lat="52.735011" lon="18.090481"></trkpt><trkpt lat="52.735837" lon="18.092885"></trkpt><trkpt lat="52.741729" lon="18.105866"></trkpt><trkpt lat="52.74238" lon="18.105527"></trkpt><trkpt lat="52.749317" lon="18.10284"></trkpt><trkpt lat="52.749303" lon="18.10361"></trkpt><trkpt lat="52.749138" lon="18.103394"></trkpt><trkpt lat="52.749477" lon="18.103431"></trkpt><trkpt lat="52.749116" lon="18.10354"></trkpt><trkpt lat="52.749282" lon="18.103732"></trkpt><trkpt lat="52.749315" lon="18.104343"></trkpt><trkpt lat="52.749296" lon="18.105284"></trkpt><trkpt lat="52.749639" lon="18.110307"></trkpt><trkpt lat="52.749951" lon="18.111242"></trkpt><trkpt lat="52.749524" lon="18.111676"></trkpt><trkpt lat="52.7474" lon="18.114489"></trkpt><trkpt lat="52.747642" lon="18.114943"></trkpt><trkpt lat="52.749252" lon="18.116393"></trkpt></trkseg></trk></gpx>