<?xml version="1.0" encoding="UTF-8" standalone="no" ?><gpx xmlns="http://www.topografix.com/GPX/1/1" xmlns:gpxx="http://www.garmin.com/xmlschemas/GpxExtensions/v3" ><trk><trkseg><trkpt lat="50.446405448" lon="16.5818813257"></trkpt><trkpt lat="50.4460787214" lon="16.5818804037"></trkpt><trkpt lat="50.4456768092" lon="16.5816618875"></trkpt><trkpt lat="50.4453559499" lon="16.5818985086"></trkpt><trkpt lat="50.4452043213" lon="16.5823141672"></trkpt><trkpt lat="50.4448931012" lon="16.5826515388"></trkpt><trkpt lat="50.4444071185" lon="16.5832967777"></trkpt><trkpt lat="50.4414732847" lon="16.5863509756"></trkpt><trkpt lat="50.4411380924" lon="16.586490199"></trkpt><trkpt lat="50.4395295214" lon="16.5874031559"></trkpt><trkpt lat="50.4389538523" lon="16.5878454689"></trkpt><trkpt lat="50.4358950444" lon="16.5893264674"></trkpt><trkpt lat="50.4357389733" lon="16.588839395"></trkpt><trkpt lat="50.4347107653" lon="16.5885311086"></trkpt><trkpt lat="50.4270352051" lon="16.5874437243"></trkpt><trkpt lat="50.4267729353" lon="16.5878376737"></trkpt><trkpt lat="50.4265375715" lon="16.588342851"></trkpt><trkpt lat="50.426244121" lon="16.5887513012"></trkpt><trkpt lat="50.4260230903" lon="16.589246504"></trkpt><trkpt lat="50.4259386845" lon="16.5896815248"></trkpt><trkpt lat="50.4258888122" lon="16.5907625388"></trkpt><trkpt lat="50.4257722199" lon="16.5913820453"></trkpt><trkpt lat="50.425029248" lon="16.5939864703"></trkpt><trkpt lat="50.4248165991" lon="16.5944663342"></trkpt><trkpt lat="50.4241805803" lon="16.5965230856"></trkpt><trkpt lat="50.424151076" lon="16.5974798799"></trkpt><trkpt lat="50.4244280141" lon="16.6031546798"></trkpt><trkpt lat="50.4246236477" lon="16.6036817338"></trkpt><trkpt lat="50.4245984182" lon="16.6045350954"></trkpt><trkpt lat="50.4242013674" lon="16.6087428108"></trkpt><trkpt lat="50.4238154646" lon="16.608625045"></trkpt><trkpt lat="50.4230953753" lon="16.6077162791"></trkpt><trkpt lat="50.4225316923" lon="16.6068597324"></trkpt><trkpt lat="50.421236353" lon="16.605514437"></trkpt><trkpt lat="50.420442922" lon="16.6051639896"></trkpt><trkpt lat="50.4191443138" lon="16.6050302144"></trkpt><trkpt lat="50.4184747674" lon="16.6055725235"></trkpt><trkpt lat="50.4181369767" lon="16.6056599468"></trkpt><trkpt lat="50.4177563544" lon="16.605637148"></trkpt><trkpt lat="50.4169559665" lon="16.6067036614"></trkpt><trkpt lat="50.4164505377" lon="16.6076577734"></trkpt><trkpt lat="50.4160718434" lon="16.6086779349"></trkpt><trkpt lat="50.4158014432" lon="16.6099194624"></trkpt><trkpt lat="50.4150108621" lon="16.6126749292"></trkpt></trkseg><trkseg><trkpt lat="50.4297867324" lon="16.2440444436"></trkpt><trkpt lat="50.4296258837" lon="16.2444350403"></trkpt><trkpt lat="50.4293208662" lon="16.2454201654"></trkpt><trkpt lat="50.4295267258" lon="16.2449053489"></trkpt><trkpt lat="50.4300671071" lon="16.2440493051"></trkpt><trkpt lat="50.4302187357" lon="16.2445583381"></trkpt><trkpt lat="50.4304635711" lon="16.2443720922"></trkpt><trkpt lat="50.4308706801" lon="16.244211914"></trkpt><trkpt lat="50.4313174356" lon="16.2437867839"></trkpt><trkpt lat="50.431551626" lon="16.243471792"></trkpt><trkpt lat="50.4318031669" lon="16.243295772"></trkpt><trkpt lat="50.4323815182" lon="16.2426863238"></trkpt><trkpt lat="50.4329491407" lon="16.2423078809"></trkpt><trkpt lat="50.4347439576" lon="16.2406134792"></trkpt><trkpt lat="50.43501243" lon="16.2401801348"></trkpt><trkpt lat="50.435581645" lon="16.2396389153"></trkpt><trkpt lat="50.4359661229" lon="16.2391655892"></trkpt><trkpt lat="50.4363817815" lon="16.2387435604"></trkpt><trkpt lat="50.436913697" lon="16.2390197441"></trkpt><trkpt lat="50.4426526185" lon="16.243197117"></trkpt><trkpt lat="50.4425128084" lon="16.2436097581"></trkpt><trkpt lat="50.4424442444" lon="16.2440279312"></trkpt><trkpt lat="50.4423947074" lon="16.2445118185"></trkpt><trkpt lat="50.4424615949" lon="16.2450765073"></trkpt><trkpt lat="50.4427382816" lon="16.245173905"></trkpt><trkpt lat="50.4428942688" lon="16.2446279079"></trkpt><trkpt lat="50.4431101866" lon="16.2450960372"></trkpt><trkpt lat="50.4430899024" lon="16.2455729675"></trkpt><trkpt lat="50.4426804464" lon="16.2453514338"></trkpt><trkpt lat="50.4422814678" lon="16.2450662814"></trkpt><trkpt lat="50.4420533963" lon="16.2457480654"></trkpt><trkpt lat="50.4423072841" lon="16.2465466093"></trkpt><trkpt lat="50.4424518719" lon="16.2471496873"></trkpt><trkpt lat="50.4425403848" lon="16.2480016239"></trkpt><trkpt lat="50.4429966118" lon="16.2503054738"></trkpt><trkpt lat="50.4431761522" lon="16.2508511357"></trkpt><trkpt lat="50.4432914034" lon="16.2515912578"></trkpt><trkpt lat="50.4433868732" lon="16.2519972771"></trkpt><trkpt lat="50.4436602909" lon="16.2528415862"></trkpt><trkpt lat="50.444023395" lon="16.2534910999"></trkpt><trkpt lat="50.4443997424" lon="16.2539832015"></trkpt><trkpt lat="50.4448925145" lon="16.2543157954"></trkpt><trkpt lat="50.4451619927" lon="16.2544504926"></trkpt><trkpt lat="50.4455636535" lon="16.2547811586"></trkpt><trkpt lat="50.4457918089" lon="16.2551438436"></trkpt><trkpt lat="50.4459707625" lon="16.2564228382"></trkpt><trkpt lat="50.4459914658" lon="16.2575819716"></trkpt><trkpt lat="50.4458885361" lon="16.2587104272"></trkpt><trkpt lat="50.4458928946" lon="16.2593155168"></trkpt><trkpt lat="50.4459458683" lon="16.2600465026"></trkpt><trkpt lat="50.4464279115" lon="16.2631060649"></trkpt><trkpt lat="50.4465637822" lon="16.2636663951"></trkpt><trkpt lat="50.4466441646" lon="16.2642494403"></trkpt><trkpt lat="50.4466262273" lon="16.264850758"></trkpt><trkpt lat="50.4467524588" lon="16.2676338013"></trkpt><trkpt lat="50.446864776300004" lon="16.2684167549"></trkpt><trkpt lat="50.4473016411" lon="16.2705126498"></trkpt><trkpt lat="50.447506411" lon="16.2709557172"></trkpt><trkpt lat="50.4476012103" lon="16.2715073302"></trkpt><trkpt lat="50.4475974385" lon="16.2721067201"></trkpt><trkpt lat="50.4475520924" lon="16.2725492008"></trkpt><trkpt lat="50.4474650044" lon="16.2729560584"></trkpt><trkpt lat="50.4472111166" lon="16.2736092601"></trkpt><trkpt lat="50.4469475057" lon="16.2739310414"></trkpt><trkpt lat="50.4465761874" lon="16.2741037086"></trkpt><trkpt lat="50.445600953" lon="16.2743584346"></trkpt><trkpt lat="50.445911251" lon="16.274667643"></trkpt><trkpt lat="50.4463486187" lon="16.2746479455"></trkpt><trkpt lat="50.4466315918" lon="16.2745469436"></trkpt><trkpt lat="50.4470402934" lon="16.2742626294"></trkpt><trkpt lat="50.4473146331" lon="16.2740105018"></trkpt><trkpt lat="50.447801454" lon="16.2740069814"></trkpt><trkpt lat="50.4481368139" lon="16.2745427527"></trkpt><trkpt lat="50.4483938031" lon="16.2751761731"></trkpt><trkpt lat="50.4487186857" lon="16.2754505128"></trkpt><trkpt lat="50.4491881561" lon="16.2759591267"></trkpt><trkpt lat="50.4494189937" lon="16.2767159287"></trkpt><trkpt lat="50.4496490769" lon="16.277261842"></trkpt><trkpt lat="50.4498921521" lon="16.2776882295"></trkpt><trkpt lat="50.4502844252" lon="16.2781116832"></trkpt><trkpt lat="50.4509294964" lon="16.2792705651"></trkpt><trkpt lat="50.4509351123" lon="16.2796977907"></trkpt><trkpt lat="50.4511752538" lon="16.2821778283"></trkpt><trkpt lat="50.4511283152" lon="16.2828166969"></trkpt><trkpt lat="50.4509913549" lon="16.2836144026"></trkpt><trkpt lat="50.4508371279" lon="16.284211278"></trkpt><trkpt lat="50.4507445078" lon="16.2849112507"></trkpt><trkpt lat="50.450742579999996" lon="16.2856152467"></trkpt><trkpt lat="50.4507009219" lon="16.2860877346"></trkpt><trkpt lat="50.450592124800004" lon="16.2868286949"></trkpt><trkpt lat="50.4505825695" lon="16.287414087"></trkpt><trkpt lat="50.4506144207" lon="16.2880557217"></trkpt><trkpt lat="50.4510409757" lon="16.2918190286"></trkpt><trkpt lat="50.4514278844" lon="16.291992534"></trkpt><trkpt lat="50.451617064" lon="16.2927807681"></trkpt><trkpt lat="50.4517334886" lon="16.2934944872"></trkpt><trkpt lat="50.4520846065" lon="16.2947711349"></trkpt><trkpt lat="50.452404627600004" lon="16.2950142939"></trkpt><trkpt lat="50.4530132376" lon="16.2953308783"></trkpt><trkpt lat="50.4534652736" lon="16.2954762205"></trkpt><trkpt lat="50.4539079219" lon="16.295405142"></trkpt><trkpt lat="50.4541985225" lon="16.2958767079"></trkpt><trkpt lat="50.4545431864" lon="16.296266634"></trkpt><trkpt lat="50.4549102299" lon="16.2965697236"></trkpt><trkpt lat="50.4553370364" lon="16.2967445701"></trkpt><trkpt lat="50.455693854" lon="16.2971097697"></trkpt><trkpt lat="50.4560060799" lon="16.2975077424"></trkpt><trkpt lat="50.4562670086" lon="16.297716368"></trkpt><trkpt lat="50.45653129" lon="16.2979755364"></trkpt><trkpt lat="50.4569693282" lon="16.2981755286"></trkpt><trkpt lat="50.4573680554" lon="16.298194807"></trkpt><trkpt lat="50.4579708818" lon="16.2984407321"></trkpt><trkpt lat="50.4583601374" lon="16.2987403013"></trkpt><trkpt lat="50.4588874429" lon="16.2993128691"></trkpt><trkpt lat="50.459076874" lon="16.2996160425"></trkpt><trkpt lat="50.4593434185" lon="16.3001450244"></trkpt><trkpt lat="50.4594377149" lon="16.3005522173"></trkpt><trkpt lat="50.4594897665" lon="16.3010185026"></trkpt><trkpt lat="50.4595647845" lon="16.3014470693"></trkpt><trkpt lat="50.4596695583" lon="16.3024625368"></trkpt><trkpt lat="50.460540941" lon="16.3076909166"></trkpt><trkpt lat="50.460727606" lon="16.3082639035"></trkpt><trkpt lat="50.4606913961" lon="16.3087434322"></trkpt><trkpt lat="50.4608735349" lon="16.3091323525"></trkpt><trkpt lat="50.4611877725" lon="16.3094454166"></trkpt><trkpt lat="50.4611518141" lon="16.3101343252"></trkpt><trkpt lat="50.4609995149" lon="16.3115356956"></trkpt><trkpt lat="50.4609069787" lon="16.3119535334"></trkpt><trkpt lat="50.4609501455" lon="16.3124266919"></trkpt><trkpt lat="50.4612407461" lon="16.3129637204"></trkpt><trkpt lat="50.4622692894" lon="16.3152855076"></trkpt><trkpt lat="50.4625188187" lon="16.3156949636"></trkpt><trkpt lat="50.4626898933" lon="16.3161725644"></trkpt><trkpt lat="50.4627515003" lon="16.3169172965"></trkpt><trkpt lat="50.4627722874" lon="16.3176984899"></trkpt><trkpt lat="50.462938752" lon="16.3181024976"></trkpt><trkpt lat="50.4631638061" lon="16.3184794318"></trkpt><trkpt lat="50.4634118266" lon="16.3186698686"></trkpt><trkpt lat="50.4637772776" lon="16.319040684"></trkpt><trkpt lat="50.4639432393" lon="16.3193895388"></trkpt><trkpt lat="50.4640489351" lon="16.3200021721"></trkpt><trkpt lat="50.4641623423" lon="16.3217980787"></trkpt><trkpt lat="50.4641204327" lon="16.3222318422"></trkpt><trkpt lat="50.4640304111" lon="16.3227487542"></trkpt><trkpt lat="50.4639411438" lon="16.3236675784"></trkpt><trkpt lat="50.4639830533" lon="16.3244439103"></trkpt><trkpt lat="50.4637786187" lon="16.3250293862"></trkpt><trkpt lat="50.463448707" lon="16.3263454288"></trkpt><trkpt lat="50.4632051289" lon="16.3277736213"></trkpt><trkpt lat="50.4631591123" lon="16.3283392321"></trkpt><trkpt lat="50.4630903807" lon="16.3287942857"></trkpt><trkpt lat="50.463119382" lon="16.329539353"></trkpt><trkpt lat="50.4630655702" lon="16.3321200572"></trkpt><trkpt lat="50.4628970101" lon="16.3327077124"></trkpt><trkpt lat="50.4625792522" lon="16.3341401797"></trkpt><trkpt lat="50.4626191501" lon="16.3347752765"></trkpt><trkpt lat="50.4625857901" lon="16.3358127046"></trkpt><trkpt lat="50.4624080937" lon="16.3365764637"></trkpt><trkpt lat="50.4620251246" lon="16.3378499262"></trkpt><trkpt lat="50.4618196003" lon="16.3388909586"></trkpt><trkpt lat="50.4617498629" lon="16.3397010695"></trkpt><trkpt lat="50.4616885073" lon="16.3451434392"></trkpt><trkpt lat="50.4618009087" lon="16.3459728286"></trkpt><trkpt lat="50.4625348281" lon="16.3486186601"></trkpt><trkpt lat="50.4629617184" lon="16.3490854483"></trkpt><trkpt lat="50.463298168" lon="16.3492302876"></trkpt><trkpt lat="50.4642873164" lon="16.3485965319"></trkpt><trkpt lat="50.4647471476" lon="16.3480238803"></trkpt><trkpt lat="50.4654120002" lon="16.3467518426"></trkpt><trkpt lat="50.4656909499" lon="16.346097216"></trkpt><trkpt lat="50.4659304209" lon="16.3456908613"></trkpt><trkpt lat="50.4663780145" lon="16.3451752067"></trkpt><trkpt lat="50.4746067803" lon="16.3376621716"></trkpt><trkpt lat="50.4750839621" lon="16.3376775105"></trkpt><trkpt lat="50.475323014" lon="16.337955622"></trkpt><trkpt lat="50.4757010378" lon="16.3371845707"></trkpt><trkpt lat="50.4758934025" lon="16.3366924692"></trkpt><trkpt lat="50.4777005408" lon="16.3328668009"></trkpt><trkpt lat="50.4795079306" lon="16.3297776505"></trkpt><trkpt lat="50.4797443002" lon="16.3295707013"></trkpt><trkpt lat="50.4809301719" lon="16.3279888686"></trkpt><trkpt lat="50.481403498" lon="16.3271484151"></trkpt><trkpt lat="50.481541128800004" lon="16.3267631829"></trkpt><trkpt lat="50.4818064161" lon="16.326500494"></trkpt><trkpt lat="50.4822959192" lon="16.326331934"></trkpt><trkpt lat="50.4827543255" lon="16.3263122365"></trkpt><trkpt lat="50.4830668867" lon="16.3264423236"></trkpt><trkpt lat="50.4841893073" lon="16.3267263025"></trkpt><trkpt lat="50.4848213028" lon="16.3270509336"></trkpt><trkpt lat="50.4850849137" lon="16.3272418734"></trkpt><trkpt lat="50.4852749314" lon="16.3276041392"></trkpt><trkpt lat="50.4853898473" lon="16.3280021958"></trkpt><trkpt lat="50.4856427293" lon="16.3282710034"></trkpt><trkpt lat="50.4859193321" lon="16.3282037806"></trkpt><trkpt lat="50.4890834168" lon="16.3279442769"></trkpt><trkpt lat="50.4894207045" lon="16.3285519648"></trkpt><trkpt lat="50.4899012391" lon="16.3285048585"></trkpt><trkpt lat="50.49055201" lon="16.3280911278"></trkpt><trkpt lat="50.4948921595" lon="16.3262251485"></trkpt><trkpt lat="50.4949960951" lon="16.3266361132"></trkpt><trkpt lat="50.4950774834" lon="16.3270656019"></trkpt><trkpt lat="50.4950129427" lon="16.3266439922"></trkpt><trkpt lat="50.4948926624" lon="16.3261220511"></trkpt><trkpt lat="50.4946467374" lon="16.3254627306"></trkpt><trkpt lat="50.4943040013" lon="16.3257198036"></trkpt><trkpt lat="50.488948971" lon="16.3288000692"></trkpt><trkpt lat="50.4886781517" lon="16.3288289029"></trkpt><trkpt lat="50.4883818515" lon="16.3286973909"></trkpt><trkpt lat="50.4878498521" lon="16.3285396434"></trkpt><trkpt lat="50.4869761225" lon="16.328991428"></trkpt><trkpt lat="50.4868798982" lon="16.3293946814"></trkpt><trkpt lat="50.4868826643" lon="16.3299559336"></trkpt><trkpt lat="50.4869347159" lon="16.3306241389"></trkpt><trkpt lat="50.4870609473" lon="16.3312953617"></trkpt><trkpt lat="50.486974027" lon="16.3319479767"></trkpt><trkpt lat="50.4867120087" lon="16.3317881338"></trkpt><trkpt lat="50.4863913171" lon="16.3312900811"></trkpt><trkpt lat="50.485648429" lon="16.3303228095"></trkpt><trkpt lat="50.4854974709" lon="16.3309665397"></trkpt><trkpt lat="50.4856519494" lon="16.3315978646"></trkpt><trkpt lat="50.4858703818" lon="16.3322276808"></trkpt><trkpt lat="50.4859790951" lon="16.332964031"></trkpt><trkpt lat="50.4867323767" lon="16.3361500762"></trkpt><trkpt lat="50.4872390628" lon="16.336959349"></trkpt><trkpt lat="50.4877473414" lon="16.3380815182"></trkpt><trkpt lat="50.4883339908" lon="16.3397656102"></trkpt><trkpt lat="50.4883759841" lon="16.3413144182"></trkpt><trkpt lat="50.4883038159" lon="16.3423111942"></trkpt><trkpt lat="50.4878876545" lon="16.3453101553"></trkpt><trkpt lat="50.4876671266" lon="16.345695639"></trkpt><trkpt lat="50.4875417333" lon="16.3460765127"></trkpt><trkpt lat="50.4874745104" lon="16.3465059176"></trkpt><trkpt lat="50.4874115624" lon="16.3473884482"></trkpt><trkpt lat="50.4873479437" lon="16.3478604332"></trkpt><trkpt lat="50.4872179404" lon="16.3482527062"></trkpt><trkpt lat="50.4868979193" lon="16.3489100151"></trkpt><trkpt lat="50.486179674" lon="16.3501066156"></trkpt><trkpt lat="50.4852727521" lon="16.3513060659"></trkpt><trkpt lat="50.4847051296" lon="16.3513651583"></trkpt><trkpt lat="50.4843535088" lon="16.3514768891"></trkpt><trkpt lat="50.4837896582" lon="16.351789115"></trkpt><trkpt lat="50.4830600135" lon="16.3519772049"></trkpt><trkpt lat="50.4822893813" lon="16.3523718249"></trkpt><trkpt lat="50.4820024688" lon="16.3525859825"></trkpt><trkpt lat="50.4813447408" lon="16.3529409561"></trkpt><trkpt lat="50.4782602843" lon="16.355157299"></trkpt><trkpt lat="50.4779437836" lon="16.3557798229"></trkpt><trkpt lat="50.4776854534" lon="16.355911335"></trkpt><trkpt lat="50.4773697071" lon="16.3558669947"></trkpt><trkpt lat="50.4766266514" lon="16.3560773805"></trkpt><trkpt lat="50.4763610289" lon="16.3562912028"></trkpt><trkpt lat="50.4760212265" lon="16.3564279117"></trkpt><trkpt lat="50.4735623114" lon="16.3569429796"></trkpt><trkpt lat="50.4730869737" lon="16.3567081187"></trkpt><trkpt lat="50.4728039168" lon="16.3565128203"></trkpt><trkpt lat="50.4722898547" lon="16.3562922925"></trkpt><trkpt lat="50.471571777" lon="16.3563197851"></trkpt><trkpt lat="50.4702686425" lon="16.3560778834"></trkpt><trkpt lat="50.4700164311" lon="16.355910413"></trkpt><trkpt lat="50.4696272593" lon="16.355904378"></trkpt><trkpt lat="50.469027115" lon="16.3561765384"></trkpt><trkpt lat="50.4686164018" lon="16.3562544901"></trkpt><trkpt lat="50.4681169242" lon="16.3560808171"></trkpt><trkpt lat="50.4675125889" lon="16.355595924"></trkpt><trkpt lat="50.4669207428" lon="16.3554877974"></trkpt><trkpt lat="50.4666509293" lon="16.3561529014"></trkpt><trkpt lat="50.4665608238" lon="16.3567937817"></trkpt><trkpt lat="50.4665456526" lon="16.3576627336"></trkpt><trkpt lat="50.4666268732" lon="16.3586474396"></trkpt><trkpt lat="50.4666381888" lon="16.3593324088"></trkpt><trkpt lat="50.4663433973" lon="16.3598522544"></trkpt><trkpt lat="50.4659372941" lon="16.3603944797"></trkpt><trkpt lat="50.4651958309" lon="16.3616540283"></trkpt><trkpt lat="50.4649263527" lon="16.3619398512"></trkpt><trkpt lat="50.4649147019" lon="16.3626783807"></trkpt><trkpt lat="50.4647818487" lon="16.3632527925"></trkpt><trkpt lat="50.4643876478" lon="16.366045475"></trkpt><trkpt lat="50.4642548785" lon="16.3664812502"></trkpt><trkpt lat="50.4640002362" lon="16.3667524885"></trkpt><trkpt lat="50.4635266587" lon="16.3675418124"></trkpt><trkpt lat="50.4633264989" lon="16.368541941"></trkpt><trkpt lat="50.4622984584" lon="16.3723123726"></trkpt><trkpt lat="50.4620672017" lon="16.3739003241"></trkpt><trkpt lat="50.46205597" lon="16.3746692799"></trkpt><trkpt lat="50.4621257074" lon="16.3753752038"></trkpt><trkpt lat="50.462153703" lon="16.3776888605"></trkpt><trkpt lat="50.4620137252" lon="16.3782415632"></trkpt><trkpt lat="50.458833212" lon="16.3873498421"></trkpt><trkpt lat="50.458479831" lon="16.3876795862"></trkpt><trkpt lat="50.458269529" lon="16.3879915606"></trkpt><trkpt lat="50.4581056628" lon="16.3883873541"></trkpt><trkpt lat="50.458008768" lon="16.3887887634"></trkpt><trkpt lat="50.4578381125" lon="16.3891633507"></trkpt><trkpt lat="50.4573056102" lon="16.3901033811"></trkpt><trkpt lat="50.455278866" lon="16.3944276888"></trkpt><trkpt lat="50.4547686595" lon="16.3951044437"></trkpt><trkpt lat="50.4543949943" lon="16.3952528033"></trkpt><trkpt lat="50.4538567085" lon="16.3955527078"></trkpt><trkpt lat="50.4533280618" lon="16.3963111863"></trkpt><trkpt lat="50.4529583361" lon="16.3970867638"></trkpt><trkpt lat="50.4444562364" lon="16.4177242666"></trkpt><trkpt lat="50.4444625229" lon="16.418170603"></trkpt><trkpt lat="50.4443365429" lon="16.4201165456"></trkpt><trkpt lat="50.444506444" lon="16.4206074737"></trkpt><trkpt lat="50.4449260421" lon="16.4206218906"></trkpt><trkpt lat="50.4452204145" lon="16.4205286838"></trkpt><trkpt lat="50.4458136018" lon="16.4204319566"></trkpt><trkpt lat="50.4462687392" lon="16.4206915442"></trkpt><trkpt lat="50.4476832692" lon="16.421264112"></trkpt><trkpt lat="50.4479985964" lon="16.421294203"></trkpt><trkpt lat="50.4481512308" lon="16.4216716401"></trkpt><trkpt lat="50.4481468722" lon="16.422147816"></trkpt><trkpt lat="50.4482925497" lon="16.4225599542"></trkpt><trkpt lat="50.4485646263" lon="16.4229378104"></trkpt><trkpt lat="50.4486829787" lon="16.4235789422"></trkpt><trkpt lat="50.4486457631" lon="16.4241559524"></trkpt><trkpt lat="50.4482532386" lon="16.4266812522"></trkpt><trkpt lat="50.4479762167" lon="16.427147286"></trkpt><trkpt lat="50.4474355001" lon="16.427740138"></trkpt><trkpt lat="50.4466356989" lon="16.4283754025"></trkpt><trkpt lat="50.4454934131" lon="16.4297160041"></trkpt><trkpt lat="50.4451460671" lon="16.4306835271"></trkpt><trkpt lat="50.4449445661" lon="16.4320072811"></trkpt><trkpt lat="50.4446164984" lon="16.4362291619"></trkpt><trkpt lat="50.4447220266" lon="16.4375470486"></trkpt><trkpt lat="50.4447614215" lon="16.4407350216"></trkpt><trkpt lat="50.444691265" lon="16.4416297898"></trkpt><trkpt lat="50.4447388742" lon="16.4425968099"></trkpt><trkpt lat="50.444839457" lon="16.4432413783"></trkpt><trkpt lat="50.4459793121" lon="16.4483706001"></trkpt><trkpt lat="50.4461932182" lon="16.4487476181"></trkpt><trkpt lat="50.4467185121" lon="16.4494499378"></trkpt><trkpt lat="50.4470063467" lon="16.4497618284"></trkpt><trkpt lat="50.4472574685" lon="16.450144127"></trkpt><trkpt lat="50.4474776611" lon="16.4505449496"></trkpt><trkpt lat="50.4481704254" lon="16.4521289617"></trkpt><trkpt lat="50.4483508039" lon="16.4526686724"></trkpt><trkpt lat="50.448583737" lon="16.4536402188"></trkpt><trkpt lat="50.4519773182" lon="16.4727689791"></trkpt><trkpt lat="50.4518691078" lon="16.473497618"></trkpt><trkpt lat="50.4503975809" lon="16.4801101852"></trkpt><trkpt lat="50.4501508176" lon="16.4808863495"></trkpt><trkpt lat="50.4492558818" lon="16.4844776597"></trkpt><trkpt lat="50.4468701407" lon="16.4973132033"></trkpt><trkpt lat="50.4471469112" lon="16.4970558789"></trkpt><trkpt lat="50.4479637276" lon="16.4960457757"></trkpt><trkpt lat="50.448708795" lon="16.4948809426"></trkpt><trkpt lat="50.4492858052" lon="16.4941510465"></trkpt><trkpt lat="50.4501776397" lon="16.4932216611"></trkpt><trkpt lat="50.4529297538" lon="16.4909383468"></trkpt><trkpt lat="50.4530739225" lon="16.4915385749"></trkpt><trkpt lat="50.4532455839" lon="16.4918829873"></trkpt><trkpt lat="50.4532032553" lon="16.492327312"></trkpt><trkpt lat="50.4529689811" lon="16.4929505903"></trkpt><trkpt lat="50.452795811" lon="16.4936485514"></trkpt><trkpt lat="50.4513251223" lon="16.498159105"></trkpt><trkpt lat="50.4512829613" lon="16.4997354057"></trkpt><trkpt lat="50.451423442" lon="16.5009004064"></trkpt><trkpt lat="50.4515042435" lon="16.502377633"></trkpt><trkpt lat="50.451688394" lon="16.5040235035"></trkpt><trkpt lat="50.4518577922" lon="16.5047496278"></trkpt><trkpt lat="50.4520826787" lon="16.5061652474"></trkpt><trkpt lat="50.4522403423" lon="16.5065929759"></trkpt><trkpt lat="50.4523330461" lon="16.507094549"></trkpt><trkpt lat="50.4522299487" lon="16.5084259305"></trkpt><trkpt lat="50.4522228241" lon="16.5092007536"></trkpt><trkpt lat="50.4523099959" lon="16.5097120497"></trkpt><trkpt lat="50.4527781252" lon="16.5140713099"></trkpt><trkpt lat="50.4527792986" lon="16.5147416107"></trkpt><trkpt lat="50.4529599287" lon="16.5161387064"></trkpt><trkpt lat="50.4532190133" lon="16.5173050482"></trkpt><trkpt lat="50.4532488529" lon="16.5187959373"></trkpt><trkpt lat="50.4531906825" lon="16.5201913565"></trkpt><trkpt lat="50.453003766" lon="16.5216242429"></trkpt><trkpt lat="50.4530740902" lon="16.5233457182"></trkpt><trkpt lat="50.4531899281" lon="16.5243386384"></trkpt><trkpt lat="50.4535153974" lon="16.5258511528"></trkpt><trkpt lat="50.4535765853" lon="16.5262837429"></trkpt><trkpt lat="50.4535286408" lon="16.5271402057"></trkpt><trkpt lat="50.4535394534" lon="16.5276017133"></trkpt><trkpt lat="50.4534787685" lon="16.5291778464"></trkpt><trkpt lat="50.4530719947" lon="16.5298323054"></trkpt><trkpt lat="50.4520508274" lon="16.530963527"></trkpt><trkpt lat="50.4515039921" lon="16.5313011501"></trkpt><trkpt lat="50.4510652833" lon="16.5319079161"></trkpt><trkpt lat="50.4507813044" lon="16.5325339604"></trkpt><trkpt lat="50.4507219605" lon="16.5330724977"></trkpt><trkpt lat="50.4506282508" lon="16.5348825697"></trkpt><trkpt lat="50.4508578312" lon="16.5351129044"></trkpt><trkpt lat="50.4512625933" lon="16.5352623537"></trkpt><trkpt lat="50.4514040798" lon="16.5357941855"></trkpt><trkpt lat="50.4514934309" lon="16.5364873689"></trkpt><trkpt lat="50.4520616401" lon="16.5394104738"></trkpt><trkpt lat="50.4520675074" lon="16.5398511104"></trkpt><trkpt lat="50.4516758211" lon="16.5402291343"></trkpt><trkpt lat="50.4515408725" lon="16.5408303682"></trkpt><trkpt lat="50.4509118944" lon="16.5425741393"></trkpt><trkpt lat="50.4506544024" lon="16.5429882891"></trkpt><trkpt lat="50.4507334437" lon="16.5435043629"></trkpt><trkpt lat="50.4508553166" lon="16.5439028386"></trkpt><trkpt lat="50.4509325139" lon="16.544363508"></trkpt><trkpt lat="50.450967215" lon="16.5447907336"></trkpt><trkpt lat="50.4509354476" lon="16.5454661474"></trkpt><trkpt lat="50.450863447" lon="16.5459647868"></trkpt><trkpt lat="50.450846348" lon="16.5467415377"></trkpt><trkpt lat="50.4506861698" lon="16.5484253783"></trkpt><trkpt lat="50.4504180327" lon="16.5495879482"></trkpt><trkpt lat="50.4499784857" lon="16.5510536078"></trkpt><trkpt lat="50.4496453051" lon="16.5518256649"></trkpt><trkpt lat="50.4448879045" lon="16.565590091"></trkpt><trkpt lat="50.4454940837" lon="16.5654122271"></trkpt><trkpt lat="50.447619902" lon="16.5652373806"></trkpt><trkpt lat="50.447708331" lon="16.5661597252"></trkpt><trkpt lat="50.4481182899" lon="16.5799371433"></trkpt><trkpt lat="50.4477111809" lon="16.5802374668"></trkpt><trkpt lat="50.4474178143" lon="16.5808393713"></trkpt><trkpt lat="50.4471490066" lon="16.5806369483"></trkpt><trkpt lat="50.4468739964" lon="16.5806943644"></trkpt><trkpt lat="50.4466251377" lon="16.5810427163"></trkpt><trkpt lat="50.446502259" lon="16.5818861872"></trkpt></trkseg></trk></gpx>