<?xml version="1.0" encoding="UTF-8" standalone="no" ?><gpx xmlns="http://www.topografix.com/GPX/1/1" xmlns:gpxx="http://www.garmin.com/xmlschemas/GpxExtensions/v3" ><trk><trkseg><trkpt lat="50.8695187233" lon="15.8282874618"></trkpt><trkpt lat="50.8696836792" lon="15.8287086524"></trkpt><trkpt lat="50.8700044546" lon="15.8292833995"></trkpt><trkpt lat="50.8702658024" lon="15.8289564215"></trkpt><trkpt lat="50.870283572" lon="15.8284876216"></trkpt><trkpt lat="50.8702171035" lon="15.8280134574"></trkpt><trkpt lat="50.870199753" lon="15.8275197633"></trkpt><trkpt lat="50.8702597674" lon="15.8270479459"></trkpt><trkpt lat="50.8706865739" lon="15.826958511"></trkpt><trkpt lat="50.8709011506" lon="15.8275646903"></trkpt><trkpt lat="50.8709705528" lon="15.8281771559"></trkpt><trkpt lat="50.8710983768" lon="15.8287377376"></trkpt><trkpt lat="50.8712934237" lon="15.8292424958"></trkpt><trkpt lat="50.8715856168" lon="15.8296102099"></trkpt><trkpt lat="50.8719649818" lon="15.8302014694"></trkpt><trkpt lat="50.8721541613" lon="15.830564741"></trkpt><trkpt lat="50.8738671709" lon="15.8345296327"></trkpt><trkpt lat="50.8742240723" lon="15.8358761854"></trkpt><trkpt lat="50.874165399" lon="15.8366940077"></trkpt><trkpt lat="50.8741573524" lon="15.8406972885"></trkpt><trkpt lat="50.8744038641" lon="15.8411731292"></trkpt><trkpt lat="50.874569742" lon="15.8416485507"></trkpt><trkpt lat="50.8746861666" lon="15.8421688154"></trkpt><trkpt lat="50.8751184214" lon="15.8436084073"></trkpt><trkpt lat="50.8753913362" lon="15.8448149823"></trkpt><trkpt lat="50.8754936792" lon="15.8454345725"></trkpt><trkpt lat="50.875652181" lon="15.8460043743"></trkpt><trkpt lat="50.8757819328" lon="15.8467175905"></trkpt><trkpt lat="50.87561002" lon="15.8470990509"></trkpt><trkpt lat="50.8753360994" lon="15.847430639"></trkpt><trkpt lat="50.8753906656" lon="15.8479346428"></trkpt><trkpt lat="50.8755723014" lon="15.8482777979"></trkpt><trkpt lat="50.8758391812" lon="15.8489035908"></trkpt><trkpt lat="50.8762566838" lon="15.8492339216"></trkpt><trkpt lat="50.8765482903" lon="15.8495534398"></trkpt><trkpt lat="50.8768586721" lon="15.8498183917"></trkpt><trkpt lat="50.8771828003" lon="15.8502919693"></trkpt><trkpt lat="50.8775588125" lon="15.8506661374"></trkpt><trkpt lat="50.877824435" lon="15.8510089573"></trkpt><trkpt lat="50.8783995174" lon="15.8519551065"></trkpt><trkpt lat="50.8784392476" lon="15.8524213079"></trkpt><trkpt lat="50.8786114119" lon="15.8528036904"></trkpt><trkpt lat="50.8788482845" lon="15.8530858252"></trkpt><trkpt lat="50.8791408129" lon="15.8532711491"></trkpt><trkpt lat="50.8793803677" lon="15.8534762543"></trkpt><trkpt lat="50.8796050027" lon="15.8538611513"></trkpt><trkpt lat="50.8797272947" lon="15.8544755448"></trkpt><trkpt lat="50.8799164742" lon="15.8548275009"></trkpt><trkpt lat="50.8805175405" lon="15.855749175"></trkpt><trkpt lat="50.8807692491" lon="15.8559293021"></trkpt><trkpt lat="50.8812956326" lon="15.856211856"></trkpt><trkpt lat="50.8815944474" lon="15.8564640675"></trkpt><trkpt lat="50.8820427116" lon="15.8567570988"></trkpt><trkpt lat="50.8823540993" lon="15.8568159398"></trkpt><trkpt lat="50.8826037124" lon="15.8571134135"></trkpt><trkpt lat="50.882765986" lon="15.8574698959"></trkpt><trkpt lat="50.8831243962" lon="15.8578694612"></trkpt><trkpt lat="50.8833403978" lon="15.8581856266"></trkpt><trkpt lat="50.8834072016" lon="15.8586191386"></trkpt><trkpt lat="50.8833084628" lon="15.8591376431"></trkpt><trkpt lat="50.8832457662" lon="15.8596149087"></trkpt><trkpt lat="50.8829570096" lon="15.8610455319"></trkpt><trkpt lat="50.8827753738" lon="15.8614306804"></trkpt><trkpt lat="50.8824594598" lon="15.862333579"></trkpt><trkpt lat="50.8823777363" lon="15.8628155384"></trkpt><trkpt lat="50.8823126089" lon="15.8634199575"></trkpt><trkpt lat="50.8820899017" lon="15.8643493429"></trkpt><trkpt lat="50.8818117063" lon="15.8645018097"></trkpt><trkpt lat="50.88145338" lon="15.8647782449"></trkpt><trkpt lat="50.8811890148" lon="15.8649312146"></trkpt><trkpt lat="50.8809528127" lon="15.8651580289"></trkpt><trkpt lat="50.880515445" lon="15.865669325"></trkpt><trkpt lat="50.880227359" lon="15.8661080338"></trkpt><trkpt lat="50.8797488362" lon="15.8670121897"></trkpt><trkpt lat="50.8794912603" lon="15.8673821669"></trkpt><trkpt lat="50.8791349456" lon="15.867673438"></trkpt><trkpt lat="50.8789119869" lon="15.8679253981"></trkpt><trkpt lat="50.8787598554" lon="15.8683067746"></trkpt><trkpt lat="50.8786332048" lon="15.8687501773"></trkpt><trkpt lat="50.8783499803" lon="15.8700799663"></trkpt><trkpt lat="50.8782392554" lon="15.8716645651"></trkpt><trkpt lat="50.8785355557" lon="15.8716578595"></trkpt><trkpt lat="50.8788543195" lon="15.8714338951"></trkpt><trkpt lat="50.8792020846" lon="15.870978171"></trkpt><trkpt lat="50.8793146536" lon="15.8705719002"></trkpt><trkpt lat="50.8795457426" lon="15.8700237237"></trkpt><trkpt lat="50.879779933" lon="15.8703248017"></trkpt><trkpt lat="50.8800111059" lon="15.8707178291"></trkpt><trkpt lat="50.8813599218" lon="15.8734734636"></trkpt><trkpt lat="50.8817001432" lon="15.8737193048"></trkpt><trkpt lat="50.8821712062" lon="15.8732883912"></trkpt><trkpt lat="50.8828129247" lon="15.8725517895"></trkpt><trkpt lat="50.8829944767" lon="15.8721896075"></trkpt><trkpt lat="50.8833739255" lon="15.8712190669"></trkpt><trkpt lat="50.8835854847" lon="15.8707741555"></trkpt><trkpt lat="50.8834737539" lon="15.8711898979"></trkpt><trkpt lat="50.8828501403" lon="15.8728863113"></trkpt><trkpt lat="50.8822518401" lon="15.8742033597"></trkpt><trkpt lat="50.8816527855" lon="15.8758404292"></trkpt><trkpt lat="50.8804449532" lon="15.8804508112"></trkpt><trkpt lat="50.8778567053" lon="15.894172322"></trkpt><trkpt lat="50.8782172948" lon="15.8967387769"></trkpt><trkpt lat="50.8784954064" lon="15.9006434027"></trkpt><trkpt lat="50.8770718239" lon="15.9115906712"></trkpt></trkseg></trk></gpx>