<?xml version="1.0" encoding="UTF-8" standalone="no" ?><gpx xmlns="http://www.topografix.com/GPX/1/1" xmlns:gpxx="http://www.garmin.com/xmlschemas/GpxExtensions/v3" ><trk><trkseg><trkpt lat="53.070642" lon="16.815387"></trkpt><trkpt lat="53.07086" lon="16.815172"></trkpt><trkpt lat="53.071175" lon="16.814773"></trkpt><trkpt lat="53.071481" lon="16.814461"></trkpt><trkpt lat="53.072189" lon="16.813619"></trkpt><trkpt lat="53.072472" lon="16.813202"></trkpt><trkpt lat="53.072978" lon="16.812715"></trkpt><trkpt lat="53.073173" lon="16.812613"></trkpt><trkpt lat="53.073045" lon="16.81336"></trkpt><trkpt lat="53.072851" lon="16.814101"></trkpt><trkpt lat="53.070676" lon="16.824379"></trkpt><trkpt lat="53.070684" lon="16.824794"></trkpt><trkpt lat="53.070828" lon="16.826954"></trkpt><trkpt lat="53.071" lon="16.827921"></trkpt><trkpt lat="53.071156" lon="16.8295"></trkpt><trkpt lat="53.07116" lon="16.830371"></trkpt><trkpt lat="53.071234" lon="16.831199"></trkpt><trkpt lat="53.071419" lon="16.832212"></trkpt><trkpt lat="53.071837" lon="16.833798"></trkpt><trkpt lat="53.072223" lon="16.834737"></trkpt><trkpt lat="53.072856" lon="16.83713"></trkpt><trkpt lat="53.073182" lon="16.838128"></trkpt><trkpt lat="53.079571" lon="16.86197"></trkpt><trkpt lat="53.079715" lon="16.86339"></trkpt><trkpt lat="53.08387" lon="16.891952"></trkpt><trkpt lat="53.084332" lon="16.893907"></trkpt><trkpt lat="53.085256" lon="16.899046"></trkpt><trkpt lat="53.085358" lon="16.900371"></trkpt><trkpt lat="53.085462" lon="16.903911"></trkpt><trkpt lat="53.085755" lon="16.907363"></trkpt><trkpt lat="53.086003" lon="16.908668"></trkpt><trkpt lat="53.086608" lon="16.911161"></trkpt><trkpt lat="53.086723" lon="16.911509"></trkpt><trkpt lat="53.087682" lon="16.913673"></trkpt><trkpt lat="53.08816" lon="16.914604"></trkpt><trkpt lat="53.088653" lon="16.915425"></trkpt><trkpt lat="53.089401" lon="16.916469"></trkpt><trkpt lat="53.089901" lon="16.917328"></trkpt><trkpt lat="53.090328" lon="16.918858"></trkpt><trkpt lat="53.092436" lon="16.928065"></trkpt><trkpt lat="53.092408" lon="16.929291"></trkpt><trkpt lat="53.092105" lon="16.933597"></trkpt><trkpt lat="53.09159" lon="16.93488"></trkpt><trkpt lat="53.0835" lon="16.958844"></trkpt><trkpt lat="53.08353" lon="16.960514"></trkpt><trkpt lat="53.083832" lon="16.965535"></trkpt><trkpt lat="53.084073" lon="16.966529"></trkpt><trkpt lat="53.084299" lon="16.967932"></trkpt><trkpt lat="53.084348" lon="16.969058"></trkpt><trkpt lat="53.084597" lon="16.970775"></trkpt><trkpt lat="53.084619" lon="16.971997"></trkpt><trkpt lat="53.084681" lon="16.972624"></trkpt><trkpt lat="53.084848" lon="16.973483"></trkpt><trkpt lat="53.085052" lon="16.974958"></trkpt><trkpt lat="53.08537" lon="16.97602"></trkpt><trkpt lat="53.085631" lon="16.977461"></trkpt><trkpt lat="53.085672" lon="16.977797"></trkpt><trkpt lat="53.08548" lon="16.979722"></trkpt><trkpt lat="53.085455" lon="16.980805"></trkpt><trkpt lat="53.085747" lon="16.981982"></trkpt><trkpt lat="53.086341" lon="16.985033"></trkpt><trkpt lat="53.086439" lon="16.986481"></trkpt><trkpt lat="53.086428" lon="16.986846"></trkpt><trkpt lat="53.086476" lon="16.988393"></trkpt><trkpt lat="53.086578" lon="16.989526"></trkpt><trkpt lat="53.087096" lon="16.990618"></trkpt><trkpt lat="53.088459" lon="16.994176"></trkpt><trkpt lat="53.089836" lon="16.997135"></trkpt><trkpt lat="53.090122" lon="16.997572"></trkpt><trkpt lat="53.09042" lon="16.998475"></trkpt><trkpt lat="53.090723" lon="16.999744"></trkpt><trkpt lat="53.093377" lon="17.008925"></trkpt><trkpt lat="53.093584" lon="17.009095"></trkpt><trkpt lat="53.093804" lon="17.009097"></trkpt><trkpt lat="53.09414" lon="17.009173"></trkpt><trkpt lat="53.095346" lon="17.009715"></trkpt><trkpt lat="53.095036" lon="17.009453"></trkpt><trkpt lat="53.095393" lon="17.009759"></trkpt><trkpt lat="53.095552" lon="17.009485"></trkpt><trkpt lat="53.095844" lon="17.008876"></trkpt><trkpt lat="53.097593" lon="17.003889"></trkpt><trkpt lat="53.097774" lon="17.00372"></trkpt><trkpt lat="53.098431" lon="17.003876"></trkpt><trkpt lat="53.099143" lon="17.004223"></trkpt><trkpt lat="53.100711" lon="17.005216"></trkpt><trkpt lat="53.101069" lon="17.006343"></trkpt><trkpt lat="53.101421" lon="17.007274"></trkpt><trkpt lat="53.101696" lon="17.007461"></trkpt><trkpt lat="53.102101" lon="17.007569"></trkpt><trkpt lat="53.102522" lon="17.007628"></trkpt><trkpt lat="53.110483" lon="17.010497"></trkpt><trkpt lat="53.110171" lon="17.011791"></trkpt><trkpt lat="53.107941" lon="17.018401"></trkpt><trkpt lat="53.107642" lon="17.018681"></trkpt><trkpt lat="53.104941" lon="17.022319"></trkpt><trkpt lat="53.104881" lon="17.022933"></trkpt><trkpt lat="53.104615" lon="17.024778"></trkpt><trkpt lat="53.104405" lon="17.024874"></trkpt><trkpt lat="53.103715" lon="17.024705"></trkpt><trkpt lat="53.102838" lon="17.0246"></trkpt><trkpt lat="53.102777" lon="17.025156"></trkpt><trkpt lat="53.102539" lon="17.029221"></trkpt><trkpt lat="53.103249" lon="17.029467"></trkpt><trkpt lat="53.103438" lon="17.029622"></trkpt><trkpt lat="53.103713" lon="17.030014"></trkpt><trkpt lat="53.10384" lon="17.030298"></trkpt><trkpt lat="53.104163" lon="17.031309"></trkpt><trkpt lat="53.106701" lon="17.037872"></trkpt><trkpt lat="53.107254" lon="17.038983"></trkpt><trkpt lat="53.109003" lon="17.041821"></trkpt><trkpt lat="53.109167" lon="17.042133"></trkpt><trkpt lat="53.109734" lon="17.043566"></trkpt><trkpt lat="53.110418" lon="17.045741"></trkpt><trkpt lat="53.111053" lon="17.047096"></trkpt><trkpt lat="53.1152" lon="17.054747"></trkpt><trkpt lat="53.115404" lon="17.05463"></trkpt><trkpt lat="53.116016" lon="17.054387"></trkpt><trkpt lat="53.116505" lon="17.054649"></trkpt><trkpt lat="53.117241" lon="17.055304"></trkpt><trkpt lat="53.118636" lon="17.056778"></trkpt><trkpt lat="53.118247" lon="17.057907"></trkpt><trkpt lat="53.11755" lon="17.060352"></trkpt><trkpt lat="53.117593" lon="17.060784"></trkpt><trkpt lat="53.117762" lon="17.061397"></trkpt><trkpt lat="53.118618" lon="17.063808"></trkpt><trkpt lat="53.119311" lon="17.067707"></trkpt><trkpt lat="53.119139" lon="17.068921"></trkpt><trkpt lat="53.115998" lon="17.101162"></trkpt><trkpt lat="53.116405" lon="17.102218"></trkpt><trkpt lat="53.11652" lon="17.102979"></trkpt><trkpt lat="53.116479" lon="17.103485"></trkpt><trkpt lat="53.116169" lon="17.104641"></trkpt><trkpt lat="53.11232" lon="17.115405"></trkpt><trkpt lat="53.111714" lon="17.116298"></trkpt><trkpt lat="53.110775" lon="17.117898"></trkpt><trkpt lat="53.110521" lon="17.118924"></trkpt><trkpt lat="53.109973" lon="17.119873"></trkpt><trkpt lat="53.109305" lon="17.120869"></trkpt><trkpt lat="53.108876" lon="17.121082"></trkpt><trkpt lat="53.108386" lon="17.121418"></trkpt><trkpt lat="53.107926" lon="17.122136"></trkpt><trkpt lat="53.10777" lon="17.122439"></trkpt><trkpt lat="53.107722" lon="17.123703"></trkpt><trkpt lat="53.107732" lon="17.125893"></trkpt><trkpt lat="53.108274" lon="17.125955"></trkpt><trkpt lat="53.108343" lon="17.126278"></trkpt><trkpt lat="53.108363" lon="17.127423"></trkpt><trkpt lat="53.108496" lon="17.129462"></trkpt><trkpt lat="53.109037" lon="17.130632"></trkpt><trkpt lat="53.109656" lon="17.132202"></trkpt><trkpt lat="53.109982" lon="17.133204"></trkpt><trkpt lat="53.109997" lon="17.134541"></trkpt><trkpt lat="53.110147" lon="17.200893"></trkpt><trkpt lat="53.109985" lon="17.201174"></trkpt><trkpt lat="53.109586" lon="17.202661"></trkpt><trkpt lat="53.109584" lon="17.203138"></trkpt><trkpt lat="53.109674" lon="17.203774"></trkpt><trkpt lat="53.10972" lon="17.204444"></trkpt><trkpt lat="53.109679" lon="17.205159"></trkpt><trkpt lat="53.109722" lon="17.205525"></trkpt><trkpt lat="53.10984" lon="17.20584"></trkpt><trkpt lat="53.110009" lon="17.206041"></trkpt><trkpt lat="53.110303" lon="17.20647"></trkpt><trkpt lat="53.110327" lon="17.20694"></trkpt><trkpt lat="53.110245" lon="17.207427"></trkpt><trkpt lat="53.110049" lon="17.207784"></trkpt><trkpt lat="53.109783" lon="17.207985"></trkpt><trkpt lat="53.109501" lon="17.208159"></trkpt><trkpt lat="53.109324" lon="17.208338"></trkpt><trkpt lat="53.109185" lon="17.208589"></trkpt><trkpt lat="53.109074" lon="17.208868"></trkpt><trkpt lat="53.108981" lon="17.209163"></trkpt><trkpt lat="53.108761" lon="17.210164"></trkpt><trkpt lat="53.108679" lon="17.211116"></trkpt><trkpt lat="53.108787" lon="17.212227"></trkpt><trkpt lat="53.116817" lon="17.269016"></trkpt><trkpt lat="53.117138" lon="17.270323"></trkpt><trkpt lat="53.117653" lon="17.273801"></trkpt><trkpt lat="53.117729" lon="17.274821"></trkpt><trkpt lat="53.118523" lon="17.281153"></trkpt><trkpt lat="53.118684" lon="17.281841"></trkpt><trkpt lat="53.119178" lon="17.28281"></trkpt><trkpt lat="53.119269" lon="17.283225"></trkpt><trkpt lat="53.119513" lon="17.284863"></trkpt><trkpt lat="53.119693" lon="17.285155"></trkpt><trkpt lat="53.119934" lon="17.285257"></trkpt><trkpt lat="53.120754" lon="17.285012"></trkpt><trkpt lat="53.120976" lon="17.28642"></trkpt><trkpt lat="53.121147" lon="17.288077"></trkpt><trkpt lat="53.120514" lon="17.288389"></trkpt><trkpt lat="53.119018" lon="17.289323"></trkpt><trkpt lat="53.119092" lon="17.290401"></trkpt><trkpt lat="53.12018" lon="17.299089"></trkpt><trkpt lat="53.120536" lon="17.300349"></trkpt><trkpt lat="53.12243" lon="17.305937"></trkpt><trkpt lat="53.123307" lon="17.307084"></trkpt><trkpt lat="53.123521" lon="17.307271"></trkpt><trkpt lat="53.123756" lon="17.307357"></trkpt><trkpt lat="53.124783" lon="17.307453"></trkpt><trkpt lat="53.129389" lon="17.308894"></trkpt><trkpt lat="53.129709" lon="17.309633"></trkpt><trkpt lat="53.130993" lon="17.31313"></trkpt><trkpt lat="53.131113" lon="17.313588"></trkpt><trkpt lat="53.131422" lon="17.314519"></trkpt><trkpt lat="53.131651" lon="17.3149"></trkpt><trkpt lat="53.131851" lon="17.315118"></trkpt><trkpt lat="53.132089" lon="17.315599"></trkpt><trkpt lat="53.132523" lon="17.316255"></trkpt><trkpt lat="53.138487" lon="17.327629"></trkpt><trkpt lat="53.138529" lon="17.328917"></trkpt><trkpt lat="53.138746" lon="17.331755"></trkpt><trkpt lat="53.138952" lon="17.33175"></trkpt><trkpt lat="53.139963" lon="17.331949"></trkpt><trkpt lat="53.140089" lon="17.33246"></trkpt><trkpt lat="53.14029" lon="17.332634"></trkpt><trkpt lat="53.141142" lon="17.332447"></trkpt><trkpt lat="53.142416" lon="17.332005"></trkpt><trkpt lat="53.14292" lon="17.330707"></trkpt><trkpt lat="53.143953" lon="17.328447"></trkpt><trkpt lat="53.144713" lon="17.327977"></trkpt><trkpt lat="53.146302" lon="17.327331"></trkpt><trkpt lat="53.146995" lon="17.326898"></trkpt><trkpt lat="53.147455" lon="17.326526"></trkpt><trkpt lat="53.150953" lon="17.324209"></trkpt><trkpt lat="53.151756" lon="17.324613"></trkpt><trkpt lat="53.152015" lon="17.324519"></trkpt><trkpt lat="53.152595" lon="17.324112"></trkpt><trkpt lat="53.156274" lon="17.322122"></trkpt><trkpt lat="53.156973" lon="17.322004"></trkpt><trkpt lat="53.162662" lon="17.320051"></trkpt><trkpt lat="53.162867" lon="17.319576"></trkpt><trkpt lat="53.163454" lon="17.31852"></trkpt><trkpt lat="53.163645" lon="17.318251"></trkpt><trkpt lat="53.167884" lon="17.313093"></trkpt><trkpt lat="53.168319" lon="17.312906"></trkpt><trkpt lat="53.177827" lon="17.307237"></trkpt><trkpt lat="53.178471" lon="17.306231"></trkpt><trkpt lat="53.179616" lon="17.304724"></trkpt><trkpt lat="53.179795" lon="17.304877"></trkpt><trkpt lat="53.180329" lon="17.305256"></trkpt><trkpt lat="53.180512" lon="17.305006"></trkpt><trkpt lat="53.180788" lon="17.30408"></trkpt><trkpt lat="53.18099" lon="17.303868"></trkpt><trkpt lat="53.181574" lon="17.303655"></trkpt><trkpt lat="53.184096" lon="17.303278"></trkpt><trkpt lat="53.184589" lon="17.303533"></trkpt><trkpt lat="53.207012" lon="17.31218"></trkpt><trkpt lat="53.207525" lon="17.312257"></trkpt><trkpt lat="53.209487" lon="17.312979"></trkpt><trkpt lat="53.210283" lon="17.313534"></trkpt><trkpt lat="53.220785" lon="17.319413"></trkpt><trkpt lat="53.22117" lon="17.319144"></trkpt><trkpt lat="53.229705" lon="17.314874"></trkpt><trkpt lat="53.229968" lon="17.315086"></trkpt><trkpt lat="53.229963" lon="17.316141"></trkpt><trkpt lat="53.229719" lon="17.320277"></trkpt><trkpt lat="53.229607" lon="17.321272"></trkpt><trkpt lat="53.229583" lon="17.324276"></trkpt><trkpt lat="53.229758" lon="17.325112"></trkpt><trkpt lat="53.231046" lon="17.333393"></trkpt><trkpt lat="53.231188" lon="17.33517"></trkpt><trkpt lat="53.231591" lon="17.346086"></trkpt><trkpt lat="53.23148" lon="17.347593"></trkpt><trkpt lat="53.231386" lon="17.35118"></trkpt><trkpt lat="53.231508" lon="17.354011"></trkpt><trkpt lat="53.231755" lon="17.355559"></trkpt><trkpt lat="53.233377" lon="17.370131"></trkpt><trkpt lat="53.23342" lon="17.371113"></trkpt><trkpt lat="53.233795" lon="17.374251"></trkpt><trkpt lat="53.234093" lon="17.375531"></trkpt><trkpt lat="53.234429" lon="17.376661"></trkpt><trkpt lat="53.234881" lon="17.378496"></trkpt><trkpt lat="53.234968" lon="17.379837"></trkpt><trkpt lat="53.235635" lon="17.385723"></trkpt><trkpt lat="53.235866" lon="17.385646"></trkpt><trkpt lat="53.236183" lon="17.385606"></trkpt><trkpt lat="53.236257" lon="17.385988"></trkpt><trkpt lat="53.236038" lon="17.387436"></trkpt><trkpt lat="53.23428" lon="17.404908"></trkpt><trkpt lat="53.234329" lon="17.406263"></trkpt><trkpt lat="53.235921" lon="17.426556"></trkpt><trkpt lat="53.236184" lon="17.427796"></trkpt><trkpt lat="53.23957" lon="17.448453"></trkpt><trkpt lat="53.239689" lon="17.449776"></trkpt><trkpt lat="53.239915" lon="17.450909"></trkpt><trkpt lat="53.240482" lon="17.452585"></trkpt><trkpt lat="53.241485" lon="17.456199"></trkpt><trkpt lat="53.24154" lon="17.456533"></trkpt><trkpt lat="53.24228" lon="17.463479"></trkpt><trkpt lat="53.242241" lon="17.465059"></trkpt><trkpt lat="53.242311" lon="17.468079"></trkpt><trkpt lat="53.242393" lon="17.468432"></trkpt><trkpt lat="53.242135" lon="17.469389"></trkpt><trkpt lat="53.242059" lon="17.46982"></trkpt><trkpt lat="53.242061" lon="17.471201"></trkpt><trkpt lat="53.241559" lon="17.479011"></trkpt><trkpt lat="53.241275" lon="17.47947"></trkpt><trkpt lat="53.239588" lon="17.482812"></trkpt><trkpt lat="53.239209" lon="17.483833"></trkpt><trkpt lat="53.238764" lon="17.485317"></trkpt><trkpt lat="53.238788" lon="17.485768"></trkpt><trkpt lat="53.239299" lon="17.491071"></trkpt><trkpt lat="53.239588" lon="17.492732"></trkpt><trkpt lat="53.247168" lon="17.553031"></trkpt><trkpt lat="53.247065" lon="17.554773"></trkpt><trkpt lat="53.24702" lon="17.561185"></trkpt><trkpt lat="53.24709" lon="17.562755"></trkpt><trkpt lat="53.247104" lon="17.587456"></trkpt><trkpt lat="53.246906" lon="17.588928"></trkpt><trkpt lat="53.246562" lon="17.590075"></trkpt><trkpt lat="53.24531" lon="17.595399"></trkpt><trkpt lat="53.245164" lon="17.596659"></trkpt><trkpt lat="53.244427" lon="17.600353"></trkpt><trkpt lat="53.243778" lon="17.601796"></trkpt><trkpt lat="53.243385" lon="17.602896"></trkpt><trkpt lat="53.24331" lon="17.60339"></trkpt><trkpt lat="53.243205" lon="17.603748"></trkpt><trkpt lat="53.243026" lon="17.603951"></trkpt><trkpt lat="53.242661" lon="17.604128"></trkpt><trkpt lat="53.242967" lon="17.604373"></trkpt><trkpt lat="53.243249" lon="17.605052"></trkpt><trkpt lat="53.243415" lon="17.60589"></trkpt><trkpt lat="53.243823" lon="17.607415"></trkpt><trkpt lat="53.244039" lon="17.607558"></trkpt><trkpt lat="53.244274" lon="17.607546"></trkpt><trkpt lat="53.247426" lon="17.608151"></trkpt><trkpt lat="53.250822" lon="17.609223"></trkpt><trkpt lat="53.250583" lon="17.610816"></trkpt><trkpt lat="53.250016" lon="17.616599"></trkpt><trkpt lat="53.250155" lon="17.618422"></trkpt><trkpt lat="53.250232" lon="17.621467"></trkpt><trkpt lat="53.25026" lon="17.621842"></trkpt><trkpt lat="53.25037" lon="17.622144"></trkpt><trkpt lat="53.250422" lon="17.622528"></trkpt><trkpt lat="53.250448" lon="17.623394"></trkpt><trkpt lat="53.250686" lon="17.626005"></trkpt><trkpt lat="53.251106" lon="17.627446"></trkpt><trkpt lat="53.25151" lon="17.628336"></trkpt><trkpt lat="53.253475" lon="17.633505"></trkpt><trkpt lat="53.253813" lon="17.634809"></trkpt><trkpt lat="53.254104" lon="17.635676"></trkpt><trkpt lat="53.254591" lon="17.636447"></trkpt><trkpt lat="53.262266" lon="17.646744"></trkpt><trkpt lat="53.262725" lon="17.647038"></trkpt><trkpt lat="53.262882" lon="17.647323"></trkpt><trkpt lat="53.262935" lon="17.647956"></trkpt><trkpt lat="53.262948" lon="17.648937"></trkpt><trkpt lat="53.262592" lon="17.657417"></trkpt><trkpt lat="53.262224" lon="17.659448"></trkpt><trkpt lat="53.258857" lon="17.684649"></trkpt><trkpt lat="53.25892" lon="17.68497"></trkpt><trkpt lat="53.258911" lon="17.685959"></trkpt><trkpt lat="53.258954" lon="17.687043"></trkpt><trkpt lat="53.258932" lon="17.695805"></trkpt><trkpt lat="53.258569" lon="17.696678"></trkpt><trkpt lat="53.254558" lon="17.708709"></trkpt><trkpt lat="53.254595" lon="17.710307"></trkpt><trkpt lat="53.25431" lon="17.718505"></trkpt><trkpt lat="53.254035" lon="17.71994"></trkpt><trkpt lat="53.253987" lon="17.721278"></trkpt><trkpt lat="53.254136" lon="17.722509"></trkpt><trkpt lat="53.255564" lon="17.730318"></trkpt><trkpt lat="53.255823" lon="17.731008"></trkpt><trkpt lat="53.256097" lon="17.732041"></trkpt><trkpt lat="53.256435" lon="17.732899"></trkpt><trkpt lat="53.256804" lon="17.73403"></trkpt><trkpt lat="53.25696" lon="17.734763"></trkpt><trkpt lat="53.256972" lon="17.735174"></trkpt><trkpt lat="53.256828" lon="17.736208"></trkpt><trkpt lat="53.255404" lon="17.742277"></trkpt><trkpt lat="53.255103" lon="17.742868"></trkpt><trkpt lat="53.254672" lon="17.743987"></trkpt><trkpt lat="53.25456" lon="17.745052"></trkpt><trkpt lat="53.254828" lon="17.74701"></trkpt><trkpt lat="53.254887" lon="17.747331"></trkpt><trkpt lat="53.255334" lon="17.750805"></trkpt><trkpt lat="53.254869" lon="17.750771"></trkpt><trkpt lat="53.254519" lon="17.751063"></trkpt><trkpt lat="53.254233" lon="17.751655"></trkpt><trkpt lat="53.253879" lon="17.752527"></trkpt><trkpt lat="53.249943" lon="17.760691"></trkpt><trkpt lat="53.249566" lon="17.761089"></trkpt><trkpt lat="53.249373" lon="17.761447"></trkpt><trkpt lat="53.224027" lon="17.812945"></trkpt><trkpt lat="53.223345" lon="17.813847"></trkpt><trkpt lat="53.222758" lon="17.814454"></trkpt><trkpt lat="53.213611" lon="17.825932"></trkpt><trkpt lat="53.21318" lon="17.827943"></trkpt><trkpt lat="53.212777" lon="17.829269"></trkpt><trkpt lat="53.212086" lon="17.830673"></trkpt><trkpt lat="53.210034" lon="17.836078"></trkpt><trkpt lat="53.209918" lon="17.836624"></trkpt><trkpt lat="53.209855" lon="17.837878"></trkpt><trkpt lat="53.209909" lon="17.83821"></trkpt><trkpt lat="53.209841" lon="17.838809"></trkpt><trkpt lat="53.209686" lon="17.839692"></trkpt><trkpt lat="53.209534" lon="17.840349"></trkpt><trkpt lat="53.209437" lon="17.840648"></trkpt><trkpt lat="53.209069" lon="17.841523"></trkpt><trkpt lat="53.208969" lon="17.841925"></trkpt><trkpt lat="53.208799" lon="17.843213"></trkpt><trkpt lat="53.208464" lon="17.845003"></trkpt><trkpt lat="53.208081" lon="17.845412"></trkpt><trkpt lat="53.207312" lon="17.845746"></trkpt><trkpt lat="53.197795" lon="17.851334"></trkpt><trkpt lat="53.197552" lon="17.851565"></trkpt><trkpt lat="53.176082" lon="17.875499"></trkpt><trkpt lat="53.175391" lon="17.876423"></trkpt><trkpt lat="53.175141" lon="17.876886"></trkpt><trkpt lat="53.174582" lon="17.878187"></trkpt><trkpt lat="53.163317" lon="17.900686"></trkpt><trkpt lat="53.16315" lon="17.900949"></trkpt><trkpt lat="53.160589" lon="17.90602"></trkpt><trkpt lat="53.160465" lon="17.906469"></trkpt><trkpt lat="53.160014" lon="17.907818"></trkpt><trkpt lat="53.159878" lon="17.908115"></trkpt><trkpt lat="53.159585" lon="17.909184"></trkpt><trkpt lat="53.157943" lon="17.913334"></trkpt><trkpt lat="53.157681" lon="17.91384"></trkpt><trkpt lat="53.156516" lon="17.91575"></trkpt><trkpt lat="53.156087" lon="17.916071"></trkpt><trkpt lat="53.155399" lon="17.916471"></trkpt><trkpt lat="53.154976" lon="17.916806"></trkpt><trkpt lat="53.154181" lon="17.917227"></trkpt><trkpt lat="53.147806" lon="17.919742"></trkpt><trkpt lat="53.147829" lon="17.919163"></trkpt><trkpt lat="53.147941" lon="17.918741"></trkpt><trkpt lat="53.148136" lon="17.917659"></trkpt><trkpt lat="53.147822" lon="17.917565"></trkpt><trkpt lat="53.147535" lon="17.917524"></trkpt><trkpt lat="53.145987" lon="17.917558"></trkpt><trkpt lat="53.145866" lon="17.917223"></trkpt><trkpt lat="53.145478" lon="17.916487"></trkpt><trkpt lat="53.145299" lon="17.91602"></trkpt><trkpt lat="53.144725" lon="17.914733"></trkpt><trkpt lat="53.144223" lon="17.914412"></trkpt><trkpt lat="53.143917" lon="17.91426"></trkpt><trkpt lat="53.14437" lon="17.914542"></trkpt><trkpt lat="53.144655" lon="17.914789"></trkpt><trkpt lat="53.144615" lon="17.915113"></trkpt><trkpt lat="53.1445" lon="17.915444"></trkpt><trkpt lat="53.142561" lon="17.920107"></trkpt><trkpt lat="53.14229" lon="17.921286"></trkpt><trkpt lat="53.141611" lon="17.925416"></trkpt><trkpt lat="53.141536" lon="17.926274"></trkpt><trkpt lat="53.141436" lon="17.926569"></trkpt><trkpt lat="53.14127" lon="17.926831"></trkpt><trkpt lat="53.140424" lon="17.926892"></trkpt><trkpt lat="53.137824" lon="17.927431"></trkpt><trkpt lat="53.137655" lon="17.928599"></trkpt><trkpt lat="53.137372" lon="17.930075"></trkpt><trkpt lat="53.136805" lon="17.932357"></trkpt><trkpt lat="53.133537" lon="17.948808"></trkpt><trkpt lat="53.133553" lon="17.949401"></trkpt><trkpt lat="53.133906" lon="17.949174"></trkpt><trkpt lat="53.133955" lon="17.948781"></trkpt><trkpt lat="53.134111" lon="17.948533"></trkpt><trkpt lat="53.134267" lon="17.948745"></trkpt><trkpt lat="53.134741" lon="17.949514"></trkpt><trkpt lat="53.13488" lon="17.949835"></trkpt><trkpt lat="53.134905" lon="17.950216"></trkpt><trkpt lat="53.135043" lon="17.950502"></trkpt><trkpt lat="53.135157" lon="17.95084"></trkpt><trkpt lat="53.134995" lon="17.951344"></trkpt><trkpt lat="53.133546" lon="17.955118"></trkpt><trkpt lat="53.133567" lon="17.955452"></trkpt><trkpt lat="53.133788" lon="17.955944"></trkpt><trkpt lat="53.134266" lon="17.957478"></trkpt><trkpt lat="53.134511" lon="17.958877"></trkpt><trkpt lat="53.134577" lon="17.959727"></trkpt><trkpt lat="53.134397" lon="17.960485"></trkpt><trkpt lat="53.134367" lon="17.960951"></trkpt><trkpt lat="53.134404" lon="17.961318"></trkpt><trkpt lat="53.134651" lon="17.962292"></trkpt><trkpt lat="53.135231" lon="17.964182"></trkpt><trkpt lat="53.13511" lon="17.96467"></trkpt><trkpt lat="53.135021" lon="17.964966"></trkpt><trkpt lat="53.135046" lon="17.96533"></trkpt><trkpt lat="53.134793" lon="17.966251"></trkpt><trkpt lat="53.134538" lon="17.966566"></trkpt><trkpt lat="53.134189" lon="17.967107"></trkpt><trkpt lat="53.133693" lon="17.968061"></trkpt><trkpt lat="53.133539" lon="17.968438"></trkpt><trkpt lat="53.133416" lon="17.968865"></trkpt><trkpt lat="53.133167" lon="17.969463"></trkpt><trkpt lat="53.128783" lon="17.981759"></trkpt><trkpt lat="53.129335" lon="17.98223"></trkpt><trkpt lat="53.132075" lon="17.984086"></trkpt><trkpt lat="53.132267" lon="17.984175"></trkpt><trkpt lat="53.132478" lon="17.984611"></trkpt><trkpt lat="53.132689" lon="17.985192"></trkpt><trkpt lat="53.132816" lon="17.985684"></trkpt><trkpt lat="53.132922" lon="17.985974"></trkpt><trkpt lat="53.133078" lon="17.986569"></trkpt><trkpt lat="53.133179" lon="17.987888"></trkpt><trkpt lat="53.133312" lon="17.988634"></trkpt><trkpt lat="53.133607" lon="17.989217"></trkpt><trkpt lat="53.133921" lon="17.990057"></trkpt><trkpt lat="53.134156" lon="17.99081"></trkpt><trkpt lat="53.134359" lon="17.991627"></trkpt><trkpt lat="53.134518" lon="17.992096"></trkpt><trkpt lat="53.134746" lon="17.992238"></trkpt></trkseg></trk></gpx>