<?xml version="1.0" encoding="UTF-8" standalone="no" ?><gpx xmlns="http://www.topografix.com/GPX/1/1" xmlns:gpxx="http://www.garmin.com/xmlschemas/GpxExtensions/v3" ><trk><trkseg><trkpt lat="50.7628118992" lon="15.8671729546"></trkpt><trkpt lat="50.7627972309" lon="15.8666818589"></trkpt><trkpt lat="50.7626811415" lon="15.8661593311"></trkpt><trkpt lat="50.7625146769" lon="15.8656856697"></trkpt><trkpt lat="50.7624184527" lon="15.8651963342"></trkpt><trkpt lat="50.762215443" lon="15.864532236"></trkpt><trkpt lat="50.7620099187" lon="15.8640891686"></trkpt><trkpt lat="50.761874048" lon="15.863599414"></trkpt><trkpt lat="50.7616793364" lon="15.8632269222"></trkpt><trkpt lat="50.7610032521" lon="15.8621651866"></trkpt><trkpt lat="50.7607535552" lon="15.8619201835"></trkpt><trkpt lat="50.7605508808" lon="15.8615492005"></trkpt><trkpt lat="50.7581222244" lon="15.8578963671"></trkpt><trkpt lat="50.7578286901" lon="15.8577812836"></trkpt><trkpt lat="50.756845912" lon="15.8572336938"></trkpt><trkpt lat="50.7549922541" lon="15.8565399237"></trkpt><trkpt lat="50.7547252066" lon="15.8563910611"></trkpt><trkpt lat="50.7544294931" lon="15.8560727164"></trkpt><trkpt lat="50.7540827338" lon="15.8557850495"></trkpt><trkpt lat="50.7537812367" lon="15.8553930279"></trkpt><trkpt lat="50.7536135148" lon="15.8549299277"></trkpt><trkpt lat="50.7533846051" lon="15.8544990979"></trkpt><trkpt lat="50.7532172184" lon="15.8541158773"></trkpt><trkpt lat="50.7522660401" lon="15.8523177076"></trkpt><trkpt lat="50.7520588394" lon="15.8520426974"></trkpt><trkpt lat="50.7518170215" lon="15.8518096805"></trkpt><trkpt lat="50.7515012752" lon="15.8515630011"></trkpt><trkpt lat="50.7512405142" lon="15.8512054291"></trkpt><trkpt lat="50.7490369957" lon="15.8475722093"></trkpt><trkpt lat="50.7488822658" lon="15.8472046629"></trkpt><trkpt lat="50.748649165" lon="15.8468029182"></trkpt><trkpt lat="50.7482019067" lon="15.8462293446"></trkpt><trkpt lat="50.7479667943" lon="15.8459920529"></trkpt><trkpt lat="50.7479629386" lon="15.8453969378"></trkpt><trkpt lat="50.7480948698" lon="15.843543699"></trkpt><trkpt lat="50.7483273838" lon="15.8431082591"></trkpt><trkpt lat="50.7484793477" lon="15.8427366056"></trkpt><trkpt lat="50.748473648" lon="15.8422627766"></trkpt><trkpt lat="50.748351356" lon="15.8418299351"></trkpt><trkpt lat="50.7482305728" lon="15.8411991969"></trkpt><trkpt lat="50.7483310718" lon="15.8407731447"></trkpt><trkpt lat="50.7485267892" lon="15.840335777"></trkpt><trkpt lat="50.748662157" lon="15.8398852497"></trkpt><trkpt lat="50.7487484068" lon="15.8393891249"></trkpt><trkpt lat="50.7487647515" lon="15.8389111888"></trkpt><trkpt lat="50.7487128675" lon="15.8373791445"></trkpt><trkpt lat="50.7487428747" lon="15.8360637724"></trkpt><trkpt lat="50.7489836868" lon="15.8357201144"></trkpt><trkpt lat="50.7491513249" lon="15.8353751153"></trkpt><trkpt lat="50.7491027936" lon="15.8348886296"></trkpt><trkpt lat="50.7490135264" lon="15.8344455622"></trkpt><trkpt lat="50.7488591317" lon="15.8340775128"></trkpt><trkpt lat="50.7486413699" lon="15.8337248862"></trkpt><trkpt lat="50.7484153938" lon="15.8332460281"></trkpt><trkpt lat="50.7483220194" lon="15.83284311"></trkpt><trkpt lat="50.7482778467" lon="15.8323840331"></trkpt><trkpt lat="50.748292096" lon="15.8318698872"></trkpt><trkpt lat="50.7482742425" lon="15.8313117363"></trkpt><trkpt lat="50.7483480871" lon="15.8308726083"></trkpt><trkpt lat="50.7483911701" lon="15.830381345"></trkpt><trkpt lat="50.748412963" lon="15.8296911791"></trkpt><trkpt lat="50.7483664434" lon="15.8288205508"></trkpt><trkpt lat="50.7482215203" lon="15.8275764249"></trkpt><trkpt lat="50.7480651978" lon="15.8271189407"></trkpt><trkpt lat="50.7475946378" lon="15.8260214981"></trkpt><trkpt lat="50.7473931368" lon="15.8256525267"></trkpt><trkpt lat="50.7470729481" lon="15.8249484468"></trkpt><trkpt lat="50.7471356448" lon="15.8245284297"></trkpt><trkpt lat="50.746881254" lon="15.8237858769"></trkpt><trkpt lat="50.7471573539" lon="15.8234262932"></trkpt><trkpt lat="50.7468560245" lon="15.823123455"></trkpt><trkpt lat="50.7466356643" lon="15.8228160907"></trkpt><trkpt lat="50.746366689" lon="15.8226022683"></trkpt><trkpt lat="50.7459465042" lon="15.8221804909"></trkpt><trkpt lat="50.7457158342" lon="15.8218494058"></trkpt><trkpt lat="50.7458089571" lon="15.8214330766"></trkpt><trkpt lat="50.7455925364" lon="15.8217350766"></trkpt><trkpt lat="50.7440966181" lon="15.8201927226"></trkpt><trkpt lat="50.7442189939" lon="15.8197670057"></trkpt><trkpt lat="50.7439209335" lon="15.8192599844"></trkpt><trkpt lat="50.7436490245" lon="15.8185879234"></trkpt><trkpt lat="50.743674757" lon="15.8181365579"></trkpt><trkpt lat="50.7436744217" lon="15.8186206967"></trkpt><trkpt lat="50.7438040897" lon="15.8192483336"></trkpt><trkpt lat="50.7439839654" lon="15.8195990324"></trkpt><trkpt lat="50.744213881" lon="15.8198365755"></trkpt><trkpt lat="50.7444057427" lon="15.8201478794"></trkpt><trkpt lat="50.7447024621" lon="15.8205002546"></trkpt><trkpt lat="50.7454756927" lon="15.8218444604"></trkpt><trkpt lat="50.7457836438" lon="15.8217245154"></trkpt><trkpt lat="50.7459642738" lon="15.8221203089"></trkpt><trkpt lat="50.7462210953" lon="15.8224061318"></trkpt><trkpt lat="50.7465101033" lon="15.8226669766"></trkpt><trkpt lat="50.7469455432" lon="15.8231602516"></trkpt><trkpt lat="50.7469385862" lon="15.8236730564"></trkpt><trkpt lat="50.7469651569" lon="15.8242545929"></trkpt><trkpt lat="50.7467540167" lon="15.824669078"></trkpt><trkpt lat="50.7470307034" lon="15.8241577819"></trkpt></trkseg></trk></gpx>