<?xml version="1.0" encoding="UTF-8" standalone="no" ?><gpx xmlns="http://www.topografix.com/GPX/1/1" xmlns:gpxx="http://www.garmin.com/xmlschemas/GpxExtensions/v3" ><trk><trkseg><trkpt lat="51.872358" lon="15.318646"></trkpt><trkpt lat="51.872473" lon="15.318383"></trkpt><trkpt lat="51.87293" lon="15.318262"></trkpt><trkpt lat="51.875171" lon="15.317391"></trkpt><trkpt lat="51.875241" lon="15.316262"></trkpt><trkpt lat="51.875541" lon="15.313435"></trkpt><trkpt lat="51.875776" lon="15.312241"></trkpt><trkpt lat="51.876151" lon="15.311232"></trkpt><trkpt lat="51.876466" lon="15.310534"></trkpt><trkpt lat="51.876664" lon="15.310566"></trkpt><trkpt lat="51.876782" lon="15.311239"></trkpt><trkpt lat="51.87663" lon="15.311689"></trkpt><trkpt lat="51.876694" lon="15.312066"></trkpt><trkpt lat="51.87752" lon="15.312612"></trkpt><trkpt lat="51.878302" lon="15.31299"></trkpt><trkpt lat="51.885157" lon="15.316084"></trkpt><trkpt lat="51.887375" lon="15.31801"></trkpt><trkpt lat="51.887702" lon="15.318592"></trkpt><trkpt lat="51.888262" lon="15.319435"></trkpt><trkpt lat="51.888918" lon="15.320089"></trkpt><trkpt lat="51.891671" lon="15.32329"></trkpt><trkpt lat="51.895195" lon="15.328031"></trkpt><trkpt lat="51.895312" lon="15.329023"></trkpt><trkpt lat="51.895714" lon="15.329961"></trkpt><trkpt lat="51.896256" lon="15.330602"></trkpt><trkpt lat="51.898883" lon="15.33442"></trkpt><trkpt lat="51.899255" lon="15.335215"></trkpt><trkpt lat="51.89949" lon="15.335936"></trkpt><trkpt lat="51.900782" lon="15.339065"></trkpt><trkpt lat="51.901084" lon="15.339536"></trkpt><trkpt lat="51.901378" lon="15.340133"></trkpt><trkpt lat="51.905103" lon="15.349113"></trkpt><trkpt lat="51.905234" lon="15.349855"></trkpt><trkpt lat="51.906301" lon="15.354203"></trkpt><trkpt lat="51.906725" lon="15.354645"></trkpt><trkpt lat="51.910319" lon="15.359554"></trkpt><trkpt lat="51.910287" lon="15.360029"></trkpt><trkpt lat="51.910275" lon="15.360641"></trkpt><trkpt lat="51.910417" lon="15.362143"></trkpt><trkpt lat="51.910537" lon="15.362506"></trkpt><trkpt lat="51.91069" lon="15.362809"></trkpt><trkpt lat="51.910894" lon="15.363399"></trkpt><trkpt lat="51.911148" lon="15.364444"></trkpt><trkpt lat="51.911553" lon="15.366692"></trkpt><trkpt lat="51.91167" lon="15.367868"></trkpt><trkpt lat="51.911926" lon="15.369298"></trkpt><trkpt lat="51.912332" lon="15.370452"></trkpt><trkpt lat="51.913765" lon="15.373882"></trkpt><trkpt lat="51.914502" lon="15.375238"></trkpt><trkpt lat="51.916984" lon="15.380631"></trkpt><trkpt lat="51.917251" lon="15.381563"></trkpt><trkpt lat="51.92007" lon="15.393376"></trkpt><trkpt lat="51.920295" lon="15.39505"></trkpt><trkpt lat="51.920248" lon="15.396513"></trkpt><trkpt lat="51.920074" lon="15.398361"></trkpt><trkpt lat="51.920088" lon="15.399121"></trkpt><trkpt lat="51.920198" lon="15.400454"></trkpt><trkpt lat="51.921312" lon="15.411983"></trkpt><trkpt lat="51.922588" lon="15.423256"></trkpt><trkpt lat="51.922836" lon="15.428507"></trkpt><trkpt lat="51.922742" lon="15.429496"></trkpt><trkpt lat="51.922572" lon="15.430561"></trkpt><trkpt lat="51.922319" lon="15.433749"></trkpt><trkpt lat="51.922128" lon="15.435277"></trkpt><trkpt lat="51.921898" lon="15.435438"></trkpt><trkpt lat="51.921681" lon="15.435461"></trkpt><trkpt lat="51.919601" lon="15.436027"></trkpt><trkpt lat="51.919169" lon="15.436334"></trkpt><trkpt lat="51.918754" lon="15.436748"></trkpt><trkpt lat="51.91855" lon="15.437081"></trkpt><trkpt lat="51.919044" lon="15.437865"></trkpt><trkpt lat="51.919432" lon="15.438345"></trkpt><trkpt lat="51.91974" lon="15.438846"></trkpt><trkpt lat="51.920019" lon="15.439503"></trkpt><trkpt lat="51.920234" lon="15.440378"></trkpt><trkpt lat="51.920444" lon="15.441507"></trkpt><trkpt lat="51.920746" lon="15.442664"></trkpt><trkpt lat="51.920989" lon="15.443406"></trkpt><trkpt lat="51.922335" lon="15.44688"></trkpt><trkpt lat="51.925974" lon="15.456555"></trkpt><trkpt lat="51.926504" lon="15.458582"></trkpt><trkpt lat="51.929641" lon="15.470424"></trkpt><trkpt lat="51.929696" lon="15.472004"></trkpt><trkpt lat="51.929994" lon="15.475755"></trkpt><trkpt lat="51.930148" lon="15.476451"></trkpt><trkpt lat="51.931084" lon="15.479894"></trkpt><trkpt lat="51.931376" lon="15.480557"></trkpt><trkpt lat="51.934308" lon="15.488311"></trkpt><trkpt lat="51.934628" lon="15.489565"></trkpt><trkpt lat="51.934843" lon="15.490259"></trkpt><trkpt lat="51.935068" lon="15.491139"></trkpt><trkpt lat="51.936258" lon="15.494529"></trkpt><trkpt lat="51.936542" lon="15.494237"></trkpt><trkpt lat="51.93698" lon="15.494112"></trkpt><trkpt lat="51.937235" lon="15.494074"></trkpt><trkpt lat="51.937799" lon="15.493905"></trkpt><trkpt lat="51.938112" lon="15.493857"></trkpt><trkpt lat="51.939446" lon="15.493463"></trkpt><trkpt lat="51.939606" lon="15.493677"></trkpt><trkpt lat="51.939629" lon="15.49405"></trkpt><trkpt lat="51.939694" lon="15.494382"></trkpt><trkpt lat="51.940116" lon="15.494365"></trkpt><trkpt lat="51.940329" lon="15.494543"></trkpt><trkpt lat="51.940318" lon="15.495739"></trkpt><trkpt lat="51.940189" lon="15.498177"></trkpt><trkpt lat="51.940103" lon="15.498934"></trkpt><trkpt lat="51.939883" lon="15.50213"></trkpt><trkpt lat="51.940174" lon="15.502837"></trkpt><trkpt lat="51.940698" lon="15.503829"></trkpt><trkpt lat="51.940967" lon="15.504193"></trkpt><trkpt lat="51.941167" lon="15.504286"></trkpt><trkpt lat="51.941331" lon="15.504631"></trkpt><trkpt lat="51.941596" lon="15.505055"></trkpt><trkpt lat="51.943138" lon="15.507918"></trkpt><trkpt lat="51.943463" lon="15.508665"></trkpt><trkpt lat="51.944583" lon="15.51088"></trkpt><trkpt lat="51.944834" lon="15.51064"></trkpt><trkpt lat="51.945052" lon="15.5105"></trkpt><trkpt lat="51.945275" lon="15.510302"></trkpt><trkpt lat="51.94599" lon="15.50998"></trkpt><trkpt lat="51.946613" lon="15.509813"></trkpt><trkpt lat="51.94673" lon="15.510134"></trkpt><trkpt lat="51.947076" lon="15.514573"></trkpt></trkseg></trk></gpx>