<?xml version="1.0" encoding="UTF-8" standalone="no" ?><gpx xmlns="http://www.topografix.com/GPX/1/1" xmlns:gpxx="http://www.garmin.com/xmlschemas/GpxExtensions/v3" ><trk><trkseg><trkpt lat="52.836845" lon="15.584041"></trkpt><trkpt lat="52.836913" lon="15.583726"></trkpt><trkpt lat="52.836997" lon="15.583148"></trkpt><trkpt lat="52.839259" lon="15.571364"></trkpt><trkpt lat="52.83936" lon="15.571056"></trkpt><trkpt lat="52.839561" lon="15.570101"></trkpt><trkpt lat="52.841456" lon="15.56309"></trkpt><trkpt lat="52.841939" lon="15.562035"></trkpt><trkpt lat="52.848075" lon="15.550665"></trkpt><trkpt lat="52.848718" lon="15.549828"></trkpt><trkpt lat="52.854725" lon="15.5434"></trkpt><trkpt lat="52.855601" lon="15.54299"></trkpt><trkpt lat="52.862153" lon="15.538679"></trkpt><trkpt lat="52.862814" lon="15.538013"></trkpt><trkpt lat="52.863571" lon="15.537492"></trkpt><trkpt lat="52.864715" lon="15.536889"></trkpt><trkpt lat="52.865229" lon="15.536713"></trkpt><trkpt lat="52.87556" lon="15.531603"></trkpt><trkpt lat="52.876233" lon="15.530844"></trkpt><trkpt lat="52.877879" lon="15.528689"></trkpt><trkpt lat="52.878379" lon="15.527748"></trkpt><trkpt lat="52.879445" lon="15.525263"></trkpt><trkpt lat="52.87969" lon="15.525188"></trkpt><trkpt lat="52.879887" lon="15.525087"></trkpt><trkpt lat="52.880198" lon="15.524495"></trkpt><trkpt lat="52.882656" lon="15.520757"></trkpt><trkpt lat="52.883234" lon="15.520263"></trkpt><trkpt lat="52.909906" lon="15.501316"></trkpt><trkpt lat="52.910546" lon="15.500956"></trkpt><trkpt lat="52.91257" lon="15.499503"></trkpt><trkpt lat="52.912787" lon="15.499178"></trkpt><trkpt lat="52.913083" lon="15.498431"></trkpt><trkpt lat="52.914474" lon="15.495576"></trkpt><trkpt lat="52.914617" lon="15.495343"></trkpt><trkpt lat="52.925541" lon="15.480316"></trkpt><trkpt lat="52.926177" lon="15.479895"></trkpt><trkpt lat="52.928689" lon="15.477503"></trkpt><trkpt lat="52.929409" lon="15.476607"></trkpt><trkpt lat="52.951512" lon="15.453348"></trkpt><trkpt lat="52.951923" lon="15.453216"></trkpt><trkpt lat="52.953351" lon="15.452553"></trkpt><trkpt lat="52.953985" lon="15.452369"></trkpt><trkpt lat="52.954444" lon="15.452558"></trkpt><trkpt lat="52.954638" lon="15.452162"></trkpt><trkpt lat="52.954861" lon="15.45204"></trkpt><trkpt lat="52.955587" lon="15.451848"></trkpt><trkpt lat="52.961431" lon="15.449454"></trkpt><trkpt lat="52.96212" lon="15.44885"></trkpt><trkpt lat="52.966832" lon="15.443423"></trkpt><trkpt lat="52.966948" lon="15.443147"></trkpt><trkpt lat="52.967083" lon="15.442898"></trkpt><trkpt lat="52.97129" lon="15.436181"></trkpt><trkpt lat="52.972517" lon="15.43391"></trkpt><trkpt lat="52.972809" lon="15.433488"></trkpt><trkpt lat="52.97354" lon="15.433013"></trkpt><trkpt lat="52.986631" lon="15.426215"></trkpt><trkpt lat="52.986988" lon="15.426245"></trkpt><trkpt lat="53.000732" lon="15.423424"></trkpt><trkpt lat="53.00155" lon="15.423396"></trkpt><trkpt lat="53.003085" lon="15.423062"></trkpt><trkpt lat="53.0036" lon="15.422733"></trkpt><trkpt lat="53.004229" lon="15.421907"></trkpt><trkpt lat="53.004385" lon="15.42164"></trkpt><trkpt lat="53.004477" lon="15.421309"></trkpt><trkpt lat="53.004413" lon="15.420973"></trkpt><trkpt lat="53.004108" lon="15.420198"></trkpt><trkpt lat="53.003615" lon="15.419231"></trkpt><trkpt lat="53.003563" lon="15.418826"></trkpt><trkpt lat="53.003663" lon="15.41768"></trkpt><trkpt lat="53.006029" lon="15.400415"></trkpt><trkpt lat="53.006468" lon="15.399023"></trkpt><trkpt lat="53.014987" lon="15.376086"></trkpt><trkpt lat="53.015257" lon="15.375476"></trkpt><trkpt lat="53.018529" lon="15.369782"></trkpt><trkpt lat="53.019097" lon="15.369473"></trkpt><trkpt lat="53.025478" lon="15.365124"></trkpt><trkpt lat="53.025981" lon="15.36463"></trkpt><trkpt lat="53.026184" lon="15.364326"></trkpt><trkpt lat="53.026319" lon="15.363745"></trkpt><trkpt lat="53.026379" lon="15.363321"></trkpt><trkpt lat="53.026886" lon="15.361376"></trkpt><trkpt lat="53.027245" lon="15.36081"></trkpt><trkpt lat="53.027426" lon="15.360577"></trkpt><trkpt lat="53.027816" lon="15.359931"></trkpt><trkpt lat="53.029566" lon="15.35653"></trkpt><trkpt lat="53.029709" lon="15.355257"></trkpt><trkpt lat="53.030481" lon="15.350927"></trkpt><trkpt lat="53.030649" lon="15.350689"></trkpt><trkpt lat="53.031353" lon="15.349994"></trkpt><trkpt lat="53.031717" lon="15.34946"></trkpt><trkpt lat="53.033917" lon="15.345331"></trkpt><trkpt lat="53.034058" lon="15.34383"></trkpt><trkpt lat="53.034244" lon="15.340183"></trkpt><trkpt lat="53.034623" lon="15.339335"></trkpt><trkpt lat="53.034703" lon="15.338966"></trkpt><trkpt lat="53.034681" lon="15.337521"></trkpt><trkpt lat="53.034646" lon="15.337027"></trkpt><trkpt lat="53.034663" lon="15.336663"></trkpt><trkpt lat="53.034648" lon="15.335704"></trkpt><trkpt lat="53.034893" lon="15.330068"></trkpt><trkpt lat="53.035061" lon="15.328881"></trkpt><trkpt lat="53.035619" lon="15.326027"></trkpt><trkpt lat="53.036196" lon="15.324945"></trkpt><trkpt lat="53.040928" lon="15.314706"></trkpt><trkpt lat="53.041122" lon="15.314023"></trkpt><trkpt lat="53.042995" lon="15.305838"></trkpt><trkpt lat="53.042635" lon="15.305931"></trkpt><trkpt lat="53.043012" lon="15.305864"></trkpt><trkpt lat="53.04318" lon="15.30523"></trkpt><trkpt lat="53.043176" lon="15.304815"></trkpt><trkpt lat="53.042873" lon="15.304812"></trkpt><trkpt lat="53.043169" lon="15.304832"></trkpt><trkpt lat="53.043585" lon="15.30401"></trkpt><trkpt lat="53.04351" lon="15.303617"></trkpt><trkpt lat="53.043408" lon="15.303311"></trkpt><trkpt lat="53.043251" lon="15.302672"></trkpt><trkpt lat="53.043366" lon="15.302403"></trkpt><trkpt lat="53.043636" lon="15.302188"></trkpt><trkpt lat="53.043935" lon="15.302526"></trkpt><trkpt lat="53.044291" lon="15.302796"></trkpt><trkpt lat="53.047117" lon="15.299927"></trkpt><trkpt lat="53.047627" lon="15.299125"></trkpt><trkpt lat="53.047806" lon="15.29898"></trkpt><trkpt lat="53.048137" lon="15.298767"></trkpt><trkpt lat="53.048452" lon="15.298671"></trkpt><trkpt lat="53.048646" lon="15.298562"></trkpt><trkpt lat="53.048656" lon="15.298206"></trkpt><trkpt lat="53.048533" lon="15.29791"></trkpt><trkpt lat="53.048385" lon="15.297612"></trkpt><trkpt lat="53.047985" lon="15.296929"></trkpt><trkpt lat="53.047813" lon="15.296741"></trkpt><trkpt lat="53.047619" lon="15.296567"></trkpt><trkpt lat="53.047319" lon="15.296228"></trkpt><trkpt lat="53.047321" lon="15.295877"></trkpt><trkpt lat="53.047502" lon="15.295404"></trkpt><trkpt lat="53.047739" lon="15.294463"></trkpt><trkpt lat="53.04787" lon="15.29372"></trkpt><trkpt lat="53.051351" lon="15.278284"></trkpt><trkpt lat="53.051657" lon="15.277596"></trkpt><trkpt lat="53.054461" lon="15.272174"></trkpt><trkpt lat="53.055978" lon="15.268698"></trkpt><trkpt lat="53.056293" lon="15.267568"></trkpt><trkpt lat="53.060794" lon="15.247747"></trkpt><trkpt lat="53.06137" lon="15.246037"></trkpt><trkpt lat="53.061617" lon="15.245691"></trkpt><trkpt lat="53.062108" lon="15.245148"></trkpt><trkpt lat="53.064804" lon="15.242636"></trkpt><trkpt lat="53.065182" lon="15.242369"></trkpt><trkpt lat="53.065559" lon="15.242242"></trkpt><trkpt lat="53.065756" lon="15.242208"></trkpt><trkpt lat="53.066116" lon="15.2421"></trkpt><trkpt lat="53.066043" lon="15.241677"></trkpt><trkpt lat="53.066024" lon="15.241069"></trkpt><trkpt lat="53.066357" lon="15.237064"></trkpt><trkpt lat="53.06656" lon="15.236302"></trkpt><trkpt lat="53.067481" lon="15.231068"></trkpt><trkpt lat="53.067498" lon="15.23041"></trkpt><trkpt lat="53.068061" lon="15.22235"></trkpt><trkpt lat="53.068235" lon="15.221754"></trkpt><trkpt lat="53.068289" lon="15.221417"></trkpt><trkpt lat="53.068299" lon="15.220735"></trkpt><trkpt lat="53.068155" lon="15.219661"></trkpt><trkpt lat="53.06806" lon="15.219313"></trkpt><trkpt lat="53.06788" lon="15.219002"></trkpt><trkpt lat="53.067524" lon="15.218287"></trkpt><trkpt lat="53.067455" lon="15.217303"></trkpt><trkpt lat="53.067436" lon="15.216013"></trkpt><trkpt lat="53.067451" lon="15.215589"></trkpt><trkpt lat="53.067725" lon="15.212332"></trkpt><trkpt lat="53.067964" lon="15.211897"></trkpt><trkpt lat="53.068153" lon="15.211698"></trkpt><trkpt lat="53.068536" lon="15.21147"></trkpt><trkpt lat="53.069102" lon="15.211337"></trkpt><trkpt lat="53.069715" lon="15.211048"></trkpt><trkpt lat="53.070285" lon="15.210521"></trkpt><trkpt lat="53.070676" lon="15.20989"></trkpt><trkpt lat="53.070756" lon="15.209083"></trkpt><trkpt lat="53.070611" lon="15.208458"></trkpt><trkpt lat="53.070374" lon="15.207825"></trkpt><trkpt lat="53.070088" lon="15.206726"></trkpt><trkpt lat="53.070163" lon="15.20642"></trkpt><trkpt lat="53.070411" lon="15.205714"></trkpt><trkpt lat="53.070648" lon="15.205174"></trkpt><trkpt lat="53.070911" lon="15.204999"></trkpt><trkpt lat="53.071165" lon="15.205038"></trkpt><trkpt lat="53.07139" lon="15.205119"></trkpt><trkpt lat="53.072016" lon="15.205222"></trkpt><trkpt lat="53.072331" lon="15.205072"></trkpt><trkpt lat="53.072556" lon="15.20487"></trkpt><trkpt lat="53.073184" lon="15.204643"></trkpt><trkpt lat="53.078839" lon="15.203301"></trkpt><trkpt lat="53.079027" lon="15.203582"></trkpt><trkpt lat="53.079304" lon="15.203912"></trkpt><trkpt lat="53.079513" lon="15.203972"></trkpt><trkpt lat="53.080009" lon="15.203651"></trkpt><trkpt lat="53.080475" lon="15.203045"></trkpt><trkpt lat="53.081788" lon="15.201736"></trkpt><trkpt lat="53.082329" lon="15.20107"></trkpt><trkpt lat="53.082739" lon="15.200346"></trkpt><trkpt lat="53.083304" lon="15.199642"></trkpt><trkpt lat="53.084221" lon="15.198304"></trkpt><trkpt lat="53.085193" lon="15.196672"></trkpt><trkpt lat="53.085894" lon="15.195243"></trkpt><trkpt lat="53.086027" lon="15.194892"></trkpt><trkpt lat="53.086185" lon="15.194603"></trkpt><trkpt lat="53.087175" lon="15.193071"></trkpt><trkpt lat="53.087467" lon="15.192799"></trkpt><trkpt lat="53.087627" lon="15.192504"></trkpt><trkpt lat="53.090776" lon="15.185689"></trkpt><trkpt lat="53.09088" lon="15.185263"></trkpt><trkpt lat="53.091775" lon="15.180557"></trkpt><trkpt lat="53.091992" lon="15.180488"></trkpt><trkpt lat="53.092485" lon="15.18096"></trkpt><trkpt lat="53.092836" lon="15.18124"></trkpt><trkpt lat="53.096679" lon="15.183697"></trkpt><trkpt lat="53.097052" lon="15.183543"></trkpt><trkpt lat="53.098975" lon="15.182417"></trkpt><trkpt lat="53.099293" lon="15.182083"></trkpt><trkpt lat="53.100774" lon="15.180242"></trkpt><trkpt lat="53.101224" lon="15.17956"></trkpt><trkpt lat="53.112571" lon="15.159259"></trkpt><trkpt lat="53.112573" lon="15.158634"></trkpt><trkpt lat="53.112679" lon="15.157338"></trkpt><trkpt lat="53.113279" lon="15.154152"></trkpt><trkpt lat="53.113863" lon="15.15467"></trkpt><trkpt lat="53.121037" lon="15.159635"></trkpt><trkpt lat="53.121826" lon="15.15988"></trkpt><trkpt lat="53.12343" lon="15.160798"></trkpt><trkpt lat="53.123628" lon="15.161035"></trkpt><trkpt lat="53.12765" lon="15.164563"></trkpt><trkpt lat="53.127985" lon="15.163833"></trkpt><trkpt lat="53.130412" lon="15.160262"></trkpt><trkpt lat="53.130725" lon="15.160828"></trkpt><trkpt lat="53.132433" lon="15.163504"></trkpt><trkpt lat="53.1344" lon="15.166114"></trkpt><trkpt lat="53.134623" lon="15.165628"></trkpt><trkpt lat="53.134784" lon="15.165144"></trkpt><trkpt lat="53.135437" lon="15.162744"></trkpt><trkpt lat="53.135663" lon="15.162125"></trkpt><trkpt lat="53.135885" lon="15.161376"></trkpt><trkpt lat="53.136352" lon="15.161594"></trkpt><trkpt lat="53.149344" lon="15.169433"></trkpt><trkpt lat="53.149847" lon="15.17001"></trkpt><trkpt lat="53.161063" lon="15.18099"></trkpt><trkpt lat="53.16148" lon="15.180899"></trkpt><trkpt lat="53.161717" lon="15.180879"></trkpt><trkpt lat="53.161866" lon="15.180428"></trkpt><trkpt lat="53.162059" lon="15.179637"></trkpt><trkpt lat="53.162216" lon="15.178734"></trkpt><trkpt lat="53.162145" lon="15.1777"></trkpt><trkpt lat="53.162159" lon="15.177319"></trkpt><trkpt lat="53.162343" lon="15.17648"></trkpt><trkpt lat="53.163372" lon="15.172667"></trkpt><trkpt lat="53.164069" lon="15.173037"></trkpt><trkpt lat="53.16801" lon="15.174617"></trkpt><trkpt lat="53.168865" lon="15.175075"></trkpt><trkpt lat="53.169849" lon="15.175743"></trkpt><trkpt lat="53.170544" lon="15.176417"></trkpt><trkpt lat="53.172226" lon="15.17766"></trkpt><trkpt lat="53.172712" lon="15.177944"></trkpt><trkpt lat="53.175816" lon="15.179359"></trkpt><trkpt lat="53.176433" lon="15.179507"></trkpt><trkpt lat="53.177642" lon="15.179979"></trkpt><trkpt lat="53.177868" lon="15.180317"></trkpt><trkpt lat="53.178252" lon="15.181413"></trkpt><trkpt lat="53.1785" lon="15.182333"></trkpt><trkpt lat="53.179072" lon="15.184025"></trkpt><trkpt lat="53.179673" lon="15.185364"></trkpt><trkpt lat="53.180104" lon="15.186108"></trkpt><trkpt lat="53.19077" lon="15.201826"></trkpt><trkpt lat="53.19097" lon="15.20101"></trkpt><trkpt lat="53.191027" lon="15.200676"></trkpt><trkpt lat="53.191438" lon="15.199039"></trkpt><trkpt lat="53.193852" lon="15.191479"></trkpt><trkpt lat="53.194278" lon="15.190597"></trkpt><trkpt lat="53.195667" lon="15.187109"></trkpt><trkpt lat="53.19607" lon="15.185922"></trkpt><trkpt lat="53.19664" lon="15.183907"></trkpt><trkpt lat="53.1972" lon="15.181399"></trkpt><trkpt lat="53.197367" lon="15.180386"></trkpt><trkpt lat="53.200833" lon="15.164061"></trkpt><trkpt lat="53.205353" lon="15.147145"></trkpt><trkpt lat="53.205553" lon="15.146956"></trkpt><trkpt lat="53.206199" lon="15.146776"></trkpt><trkpt lat="53.206983" lon="15.146676"></trkpt><trkpt lat="53.210576" lon="15.147562"></trkpt><trkpt lat="53.210742" lon="15.147786"></trkpt><trkpt lat="53.210803" lon="15.148149"></trkpt><trkpt lat="53.210985" lon="15.148607"></trkpt><trkpt lat="53.211189" lon="15.148815"></trkpt><trkpt lat="53.212026" lon="15.148909"></trkpt><trkpt lat="53.216104" lon="15.147784"></trkpt><trkpt lat="53.216693" lon="15.146972"></trkpt><trkpt lat="53.219575" lon="15.14232"></trkpt><trkpt lat="53.220153" lon="15.141225"></trkpt><trkpt lat="53.22057" lon="15.140253"></trkpt><trkpt lat="53.220965" lon="15.139019"></trkpt><trkpt lat="53.224051" lon="15.130815"></trkpt><trkpt lat="53.224276" lon="15.130379"></trkpt><trkpt lat="53.224705" lon="15.129187"></trkpt><trkpt lat="53.225117" lon="15.128599"></trkpt><trkpt lat="53.225659" lon="15.128022"></trkpt><trkpt lat="53.226995" lon="15.126282"></trkpt><trkpt lat="53.22792" lon="15.125352"></trkpt><trkpt lat="53.228528" lon="15.124853"></trkpt><trkpt lat="53.230266" lon="15.123844"></trkpt><trkpt lat="53.230581" lon="15.123707"></trkpt><trkpt lat="53.230798" lon="15.123522"></trkpt><trkpt lat="53.230987" lon="15.12328"></trkpt><trkpt lat="53.231333" lon="15.122447"></trkpt><trkpt lat="53.231439" lon="15.12172"></trkpt><trkpt lat="53.23152" lon="15.120284"></trkpt><trkpt lat="53.231924" lon="15.116527"></trkpt><trkpt lat="53.232777" lon="15.115949"></trkpt><trkpt lat="53.235094" lon="15.114692"></trkpt><trkpt lat="53.235917" lon="15.114522"></trkpt><trkpt lat="53.23659" lon="15.114261"></trkpt><trkpt lat="53.237133" lon="15.11354"></trkpt><trkpt lat="53.240469" lon="15.109721"></trkpt><trkpt lat="53.244355" lon="15.10591"></trkpt><trkpt lat="53.24513" lon="15.105367"></trkpt><trkpt lat="53.249339" lon="15.103045"></trkpt><trkpt lat="53.249903" lon="15.10281"></trkpt><trkpt lat="53.262349" lon="15.096007"></trkpt><trkpt lat="53.262899" lon="15.095442"></trkpt><trkpt lat="53.263392" lon="15.094737"></trkpt><trkpt lat="53.267656" lon="15.089751"></trkpt><trkpt lat="53.26789" lon="15.089594"></trkpt><trkpt lat="53.27218" lon="15.086058"></trkpt><trkpt lat="53.27266" lon="15.085541"></trkpt><trkpt lat="53.292641" lon="15.060122"></trkpt><trkpt lat="53.29313" lon="15.058424"></trkpt><trkpt lat="53.294835" lon="15.05344"></trkpt><trkpt lat="53.29553" lon="15.051753"></trkpt><trkpt lat="53.296485" lon="15.049793"></trkpt><trkpt lat="53.296935" lon="15.049741"></trkpt><trkpt lat="53.305176" lon="15.047792"></trkpt><trkpt lat="53.305625" lon="15.047595"></trkpt><trkpt lat="53.311143" lon="15.044439"></trkpt><trkpt lat="53.311884" lon="15.043803"></trkpt><trkpt lat="53.316753" lon="15.040605"></trkpt><trkpt lat="53.317619" lon="15.040617"></trkpt><trkpt lat="53.327191" lon="15.03898"></trkpt><trkpt lat="53.327366" lon="15.038804"></trkpt><trkpt lat="53.327578" lon="15.038637"></trkpt><trkpt lat="53.327808" lon="15.038739"></trkpt><trkpt lat="53.328075" lon="15.038989"></trkpt><trkpt lat="53.328778" lon="15.039536"></trkpt><trkpt lat="53.328988" lon="15.039554"></trkpt><trkpt lat="53.329254" lon="15.039716"></trkpt><trkpt lat="53.329723" lon="15.039638"></trkpt><trkpt lat="53.330469" lon="15.039641"></trkpt><trkpt lat="53.331685" lon="15.039823"></trkpt><trkpt lat="53.331786" lon="15.039499"></trkpt><trkpt lat="53.332271" lon="15.039423"></trkpt><trkpt lat="53.334116" lon="15.038914"></trkpt><trkpt lat="53.333979" lon="15.03827"></trkpt><trkpt lat="53.333667" lon="15.03634"></trkpt><trkpt lat="53.33439" lon="15.035931"></trkpt><trkpt lat="53.338644" lon="15.032898"></trkpt></trkseg></trk></gpx>