<?xml version="1.0" encoding="UTF-8" standalone="no" ?><gpx xmlns="http://www.topografix.com/GPX/1/1" xmlns:gpxx="http://www.garmin.com/xmlschemas/GpxExtensions/v3" ><trk><trkseg><trkpt lat="50.4463607725" lon="16.5819359757"></trkpt><trkpt lat="50.4464726709" lon="16.5815360751"></trkpt><trkpt lat="50.4466714058" lon="16.5810471587"></trkpt><trkpt lat="50.4469044227" lon="16.5807245392"></trkpt><trkpt lat="50.4474597238" lon="16.5809114557"></trkpt><trkpt lat="50.4487712402" lon="16.5811464842"></trkpt><trkpt lat="50.4492139723" lon="16.5813256893"></trkpt><trkpt lat="50.4502598662" lon="16.5815631486"></trkpt><trkpt lat="50.4506616946" lon="16.5815452952"></trkpt><trkpt lat="50.4509272333" lon="16.5816842671"></trkpt><trkpt lat="50.451163603" lon="16.5820002649"></trkpt><trkpt lat="50.451489659" lon="16.5828606673"></trkpt><trkpt lat="50.4517757334" lon="16.5833324008"></trkpt><trkpt lat="50.4520432837" lon="16.5835890546"></trkpt><trkpt lat="50.4523999337" lon="16.5837531723"></trkpt><trkpt lat="50.4530538898" lon="16.5838666633"></trkpt><trkpt lat="50.4538137093" lon="16.5841213055"></trkpt><trkpt lat="50.4557481688" lon="16.5851026587"></trkpt><trkpt lat="50.4561002925" lon="16.5853764117"></trkpt><trkpt lat="50.4569158517" lon="16.5858291183"></trkpt><trkpt lat="50.45730846" lon="16.5856871288"></trkpt><trkpt lat="50.4576527048" lon="16.5854800958"></trkpt><trkpt lat="50.457938863" lon="16.5851058438"></trkpt><trkpt lat="50.4583662562" lon="16.5842349641"></trkpt><trkpt lat="50.4591380619" lon="16.5818301123"></trkpt><trkpt lat="50.4600323271" lon="16.5779352095"></trkpt><trkpt lat="50.460009696" lon="16.5769096836"></trkpt><trkpt lat="50.4601603188" lon="16.5761822183"></trkpt><trkpt lat="50.4603637476" lon="16.5757991653"></trkpt><trkpt lat="50.4606507439" lon="16.5755093191"></trkpt><trkpt lat="50.4640037566" lon="16.5709376615"></trkpt><trkpt lat="50.4640126415" lon="16.5702469926"></trkpt><trkpt lat="50.4639715701" lon="16.5697330981"></trkpt><trkpt lat="50.4638282396" lon="16.5693135839"></trkpt><trkpt lat="50.4623260349" lon="16.563667953"></trkpt><trkpt lat="50.4622764979" lon="16.5624585282"></trkpt><trkpt lat="50.4623670224" lon="16.560219638"></trkpt><trkpt lat="50.4619963747" lon="16.5579027962"></trkpt><trkpt lat="50.4618073627" lon="16.5571711399"></trkpt><trkpt lat="50.4619050119" lon="16.5567618515"></trkpt><trkpt lat="50.4622263741" lon="16.5566598438"></trkpt><trkpt lat="50.4631835036" lon="16.5566382185"></trkpt><trkpt lat="50.4635783751" lon="16.5568847302"></trkpt><trkpt lat="50.4640594125" lon="16.5572782606"></trkpt><trkpt lat="50.4652964976" lon="16.5585653856"></trkpt><trkpt lat="50.4658063687" lon="16.5589584131"></trkpt><trkpt lat="50.4662187584" lon="16.5590275638"></trkpt><trkpt lat="50.4666594788" lon="16.5590376221"></trkpt><trkpt lat="50.4660521261" lon="16.5589867439"></trkpt><trkpt lat="50.4654798936" lon="16.5587580856"></trkpt><trkpt lat="50.4651302006" lon="16.5583063848"></trkpt><trkpt lat="50.4655045364" lon="16.5587709099"></trkpt><trkpt lat="50.4657675605" lon="16.5589217842"></trkpt><trkpt lat="50.4663408827" lon="16.5590093751"></trkpt><trkpt lat="50.4678308498" lon="16.5594580583"></trkpt><trkpt lat="50.4683122225" lon="16.5598865412"></trkpt><trkpt lat="50.4751977045" lon="16.5648146812"></trkpt><trkpt lat="50.4760384932" lon="16.5644462127"></trkpt><trkpt lat="50.4764418304" lon="16.564191822"></trkpt><trkpt lat="50.4808524717" lon="16.5629896894"></trkpt><trkpt lat="50.4811547231" lon="16.5632119775"></trkpt><trkpt lat="50.4817895684" lon="16.563576255"></trkpt><trkpt lat="50.4818598926" lon="16.5628590994"></trkpt><trkpt lat="50.4821644071" lon="16.5611532982"></trkpt><trkpt lat="50.4823280219" lon="16.5607751068"></trkpt><trkpt lat="50.4825887829" lon="16.5599960089"></trkpt><trkpt lat="50.4832828883" lon="16.55842348"></trkpt><trkpt lat="50.4836337548" lon="16.5579030477"></trkpt><trkpt lat="50.4840607289" lon="16.5570319165"></trkpt><trkpt lat="50.4841925763" lon="16.5566335246"></trkpt><trkpt lat="50.4844290297" lon="16.555596767"></trkpt><trkpt lat="50.4844385851" lon="16.5551451501"></trkpt><trkpt lat="50.4842325579" lon="16.5539315343"></trkpt><trkpt lat="50.4839363415" lon="16.552951606"></trkpt><trkpt lat="50.4838517681" lon="16.5524279885"></trkpt><trkpt lat="50.4838553723" lon="16.5513843577"></trkpt><trkpt lat="50.4839332402" lon="16.5507466625"></trkpt><trkpt lat="50.4840740561" lon="16.5502474364"></trkpt><trkpt lat="50.4842685163" lon="16.5499405749"></trkpt><trkpt lat="50.485376101" lon="16.5485424735"></trkpt><trkpt lat="50.4857977107" lon="16.5484133083"></trkpt><trkpt lat="50.486099124" lon="16.5481163375"></trkpt><trkpt lat="50.4866876174" lon="16.5472576953"></trkpt><trkpt lat="50.4886565264" lon="16.5454176161"></trkpt><trkpt lat="50.4892012663" lon="16.5453503933"></trkpt><trkpt lat="50.4895115644" lon="16.5451721102"></trkpt><trkpt lat="50.489904508" lon="16.5443594009"></trkpt><trkpt lat="50.4902521055" lon="16.5438012499"></trkpt><trkpt lat="50.4905202426" lon="16.543567311"></trkpt><trkpt lat="50.4906984419" lon="16.5432110801"></trkpt><trkpt lat="50.4907202348" lon="16.5427575354"></trkpt><trkpt lat="50.4906487372" lon="16.5421407111"></trkpt><trkpt lat="50.4908027966" lon="16.5417522937"></trkpt><trkpt lat="50.4910460394" lon="16.5414915327"></trkpt><trkpt lat="50.493224496" lon="16.5396981407"></trkpt><trkpt lat="50.493448209" lon="16.5393795446"></trkpt><trkpt lat="50.4938821401" lon="16.5381662641"></trkpt><trkpt lat="50.4943780135" lon="16.5372970607"></trkpt><trkpt lat="50.4946706258" lon="16.5371263213"></trkpt><trkpt lat="50.4950330593" lon="16.5371211246"></trkpt><trkpt lat="50.4952473007" lon="16.536828177"></trkpt><trkpt lat="50.4953248333" lon="16.536347894"></trkpt><trkpt lat="50.4956097342" lon="16.5359655116"></trkpt><trkpt lat="50.4957941361" lon="16.5356296487"></trkpt><trkpt lat="50.4959674738" lon="16.5348394029"></trkpt><trkpt lat="50.4959580861" lon="16.5343915578"></trkpt><trkpt lat="50.4958290048" lon="16.5337081812"></trkpt><trkpt lat="50.4959504586" lon="16.533313226"></trkpt><trkpt lat="50.4961573239" lon="16.5324401669"></trkpt><trkpt lat="50.4960157536" lon="16.5320064873"></trkpt><trkpt lat="50.4959395621" lon="16.5314353444"></trkpt><trkpt lat="50.4956779629" lon="16.5303703398"></trkpt><trkpt lat="50.4955508094" lon="16.5296043176"></trkpt><trkpt lat="50.4953654017" lon="16.5278556012"></trkpt><trkpt lat="50.4954992607" lon="16.5273868851"></trkpt><trkpt lat="50.4961444996" lon="16.5256809164"></trkpt><trkpt lat="50.4967602342" lon="16.5246603359"></trkpt><trkpt lat="50.4972146172" lon="16.5242824797"></trkpt><trkpt lat="50.4990316462" lon="16.5233349055"></trkpt><trkpt lat="50.49935963" lon="16.523422664"></trkpt><trkpt lat="50.4998230655" lon="16.5223455895"></trkpt><trkpt lat="50.5008175783" lon="16.5205109585"></trkpt><trkpt lat="50.5013261084" lon="16.5201229602"></trkpt><trkpt lat="50.5016927328" lon="16.5202832222"></trkpt><trkpt lat="50.5019768793" lon="16.5202715714"></trkpt><trkpt lat="50.5023268238" lon="16.5198372211"></trkpt><trkpt lat="50.5026941188" lon="16.5195347182"></trkpt><trkpt lat="50.5028540455" lon="16.5191706084"></trkpt><trkpt lat="50.503056217" lon="16.51852604"></trkpt><trkpt lat="50.5042605288" lon="16.5157128219"></trkpt><trkpt lat="50.5049656983" lon="16.5136260632"></trkpt><trkpt lat="50.5053233542" lon="16.5135500394"></trkpt><trkpt lat="50.5056647491" lon="16.5133180283"></trkpt><trkpt lat="50.5060783122" lon="16.5133627038"></trkpt><trkpt lat="50.505621247" lon="16.5133514721"></trkpt><trkpt lat="50.5053268746" lon="16.5135445911"></trkpt><trkpt lat="50.5051155668" lon="16.5138204396"></trkpt><trkpt lat="50.5044997483" lon="16.5128504019"></trkpt><trkpt lat="50.5044285022" lon="16.5119511914"></trkpt><trkpt lat="50.5046911072" lon="16.5114440024"></trkpt><trkpt lat="50.5049603339" lon="16.5112638753"></trkpt><trkpt lat="50.50731875" lon="16.5100754052"></trkpt><trkpt lat="50.5082094949" lon="16.5094852354"></trkpt><trkpt lat="50.5084275082" lon="16.5083186422"></trkpt><trkpt lat="50.5086102337" lon="16.507990323"></trkpt><trkpt lat="50.5093159899" lon="16.5075068548"></trkpt><trkpt lat="50.5124289449" lon="16.5047610272"></trkpt><trkpt lat="50.512557188" lon="16.5043384954"></trkpt><trkpt lat="50.5124482233" lon="16.5036173165"></trkpt><trkpt lat="50.5124219041" lon="16.502794046000002"></trkpt><trkpt lat="50.512500694" lon="16.5023831651"></trkpt><trkpt lat="50.512665147" lon="16.5020328853"></trkpt><trkpt lat="50.5127638858" lon="16.5013645124"></trkpt><trkpt lat="50.5127575155" lon="16.5006999113"></trkpt><trkpt lat="50.5126793962" lon="16.5001821611"></trkpt><trkpt lat="50.512832785" lon="16.4997085836"></trkpt><trkpt lat="50.5129325297" lon="16.4988088701"></trkpt><trkpt lat="50.5131160095" lon="16.4977276046"></trkpt><trkpt lat="50.5138008948" lon="16.4947715588"></trkpt><trkpt lat="50.5141793378" lon="16.4938941412"></trkpt><trkpt lat="50.5144314654" lon="16.4930671826"></trkpt><trkpt lat="50.5145447049" lon="16.4923885837"></trkpt><trkpt lat="50.5145287793" lon="16.4915435202"></trkpt><trkpt lat="50.5146434437" lon="16.4909223374"></trkpt><trkpt lat="50.5149209686" lon="16.4903321676"></trkpt><trkpt lat="50.5152293388" lon="16.490062857"></trkpt><trkpt lat="50.5154315941" lon="16.4895948954"></trkpt><trkpt lat="50.5153761059" lon="16.4890468027"></trkpt><trkpt lat="50.5155821331" lon="16.4886335749"></trkpt><trkpt lat="50.5171345454" lon="16.4861013182"></trkpt><trkpt lat="50.5174736772" lon="16.4857575763"></trkpt><trkpt lat="50.5178791098" lon="16.4855597634"></trkpt><trkpt lat="50.5183514301" lon="16.4852106571"></trkpt><trkpt lat="50.5185833573" lon="16.484930953"></trkpt><trkpt lat="50.5193516426" lon="16.483748769399998"></trkpt><trkpt lat="50.5223603267" lon="16.480250163"></trkpt><trkpt lat="50.5232097488" lon="16.4794698916"></trkpt><trkpt lat="50.52410217" lon="16.4788413327"></trkpt><trkpt lat="50.5244396254" lon="16.4787222259"></trkpt><trkpt lat="50.5247662682" lon="16.4785403386"></trkpt><trkpt lat="50.5252255127" lon="16.47846465"></trkpt><trkpt lat="50.5254697613" lon="16.4786938112"></trkpt><trkpt lat="50.5261414032" lon="16.479511885"></trkpt><trkpt lat="50.5263517052" lon="16.4803646598"></trkpt><trkpt lat="50.52664591" lon="16.4802753087"></trkpt><trkpt lat="50.527180424" lon="16.4796817023"></trkpt><trkpt lat="50.5273942463" lon="16.4788658079"></trkpt><trkpt lat="50.5277346354" lon="16.4781306311"></trkpt><trkpt lat="50.5279995035" lon="16.4778977819"></trkpt><trkpt lat="50.5283305049" lon="16.4777394477"></trkpt><trkpt lat="50.5286024977" lon="16.4779843669"></trkpt><trkpt lat="50.5289291404" lon="16.4792019222"></trkpt><trkpt lat="50.5291695334" lon="16.4798448142"></trkpt><trkpt lat="50.5298562627" lon="16.4800021425"></trkpt><trkpt lat="50.5305144098" lon="16.4800573792"></trkpt><trkpt lat="50.53076813" lon="16.4798631705"></trkpt><trkpt lat="50.5310448166" lon="16.4797336701"></trkpt><trkpt lat="50.531825088" lon="16.4789118245"></trkpt><trkpt lat="50.5320659" lon="16.4785353094"></trkpt><trkpt lat="50.5325993244" lon="16.4774940256"></trkpt><trkpt lat="50.5329836346" lon="16.476953309"></trkpt><trkpt lat="50.5334931705" lon="16.4765062183"></trkpt><trkpt lat="50.535787968" lon="16.4740138594"></trkpt><trkpt lat="50.5361374933" lon="16.4733184967"></trkpt><trkpt lat="50.5362791475" lon="16.4728099667"></trkpt><trkpt lat="50.5361335538" lon="16.4723250736"></trkpt><trkpt lat="50.5361796543" lon="16.4716764819"></trkpt><trkpt lat="50.5364450254" lon="16.4712274633"></trkpt><trkpt lat="50.5366710015" lon="16.4706568234"></trkpt><trkpt lat="50.5366826523" lon="16.4702250715"></trkpt><trkpt lat="50.5366493762" lon="16.4697486442"></trkpt><trkpt lat="50.5366981588" lon="16.4690190833"></trkpt><trkpt lat="50.5370073672" lon="16.4675223269"></trkpt><trkpt lat="50.5372695532" lon="16.4670781698"></trkpt><trkpt lat="50.5375053361" lon="16.466554217"></trkpt><trkpt lat="50.5374993011" lon="16.4658818208"></trkpt><trkpt lat="50.537308529" lon="16.4655710198"></trkpt><trkpt lat="50.5370779429" lon="16.4653017092"></trkpt><trkpt lat="50.5367951375" lon="16.4646753296"></trkpt><trkpt lat="50.5364494678" lon="16.4636616223"></trkpt><trkpt lat="50.5367019307" lon="16.4631310478"></trkpt><trkpt lat="50.5370136537" lon="16.4628146309"></trkpt><trkpt lat="50.537653612" lon="16.4619958028"></trkpt><trkpt lat="50.537982434" lon="16.4618513826"></trkpt><trkpt lat="50.5387194548" lon="16.4613255858"></trkpt><trkpt lat="50.5397829507" lon="16.460780343"></trkpt><trkpt lat="50.5403675884" lon="16.4606925845"></trkpt><trkpt lat="50.5409005098" lon="16.4605374355"></trkpt><trkpt lat="50.5413170066" lon="16.4604951069"></trkpt><trkpt lat="50.5415744986" lon="16.4607439656"></trkpt><trkpt lat="50.5425684247" lon="16.4610675909"></trkpt><trkpt lat="50.544536747" lon="16.4611934032"></trkpt><trkpt lat="50.5448742025" lon="16.4610492345"></trkpt><trkpt lat="50.5453948025" lon="16.4609856158"></trkpt><trkpt lat="50.545621952" lon="16.461225003"></trkpt><trkpt lat="50.5462302268" lon="16.4609293733"></trkpt><trkpt lat="50.5476746801" lon="16.460502483"></trkpt><trkpt lat="50.5475952197" lon="16.4610318001"></trkpt><trkpt lat="50.5474622827" lon="16.4614403341"></trkpt><trkpt lat="50.5475069582" lon="16.4619230479"></trkpt><trkpt lat="50.5477895122" lon="16.4624604117"></trkpt><trkpt lat="50.548083717" lon="16.463135574"></trkpt><trkpt lat="50.5488485657" lon="16.4645721484"></trkpt><trkpt lat="50.549428761" lon="16.465126276"></trkpt><trkpt lat="50.5505314842" lon="16.465900261"></trkpt><trkpt lat="50.5512317922" lon="16.4661982376"></trkpt><trkpt lat="50.5517588463" lon="16.4662502892"></trkpt><trkpt lat="50.5625870917" lon="16.4694411959"></trkpt><trkpt lat="50.5631873198" lon="16.4704427496"></trkpt><trkpt lat="50.5638815928" lon="16.4711155649"></trkpt><trkpt lat="50.5662619695" lon="16.4729454182"></trkpt><trkpt lat="50.5671289098" lon="16.4724742714"></trkpt><trkpt lat="50.5690371338" lon="16.4723290969"></trkpt><trkpt lat="50.5695162434" lon="16.4725192823"></trkpt><trkpt lat="50.571408039" lon="16.4735603984"></trkpt><trkpt lat="50.5718580633" lon="16.4740078244"></trkpt><trkpt lat="50.5735085439" lon="16.4752695523"></trkpt><trkpt lat="50.5737807043" lon="16.4754224382"></trkpt><trkpt lat="50.5746256001" lon="16.4757422078"></trkpt><trkpt lat="50.5750028696" lon="16.4758052398"></trkpt><trkpt lat="50.5752966553" lon="16.4761877898"></trkpt><trkpt lat="50.5754746031" lon="16.4765503909"></trkpt><trkpt lat="50.576524185" lon="16.4791310113"></trkpt><trkpt lat="50.5770903826" lon="16.4802289568"></trkpt><trkpt lat="50.5783614144" lon="16.4822814334"></trkpt><trkpt lat="50.5799315125" lon="16.4854879305"></trkpt><trkpt lat="50.5801343545" lon="16.4871492237"></trkpt><trkpt lat="50.5802537128" lon="16.4893993456"></trkpt><trkpt lat="50.580166541" lon="16.489889184"></trkpt><trkpt lat="50.5798611883" lon="16.4911007043"></trkpt><trkpt lat="50.5796091445" lon="16.4927331638"></trkpt><trkpt lat="50.5796843302" lon="16.4939149283"></trkpt><trkpt lat="50.5797093082" lon="16.4971345849"></trkpt><trkpt lat="50.5794633832" lon="16.4977238327"></trkpt><trkpt lat="50.5795054603" lon="16.4981811494"></trkpt><trkpt lat="50.5796430912" lon="16.4986741729"></trkpt><trkpt lat="50.5799517129" lon="16.4995595533"></trkpt><trkpt lat="50.5804031622" lon="16.5001363121"></trkpt><trkpt lat="50.5807637516" lon="16.5007895138"></trkpt><trkpt lat="50.5805661064" lon="16.501376247"></trkpt><trkpt lat="50.5803316645" lon="16.5016197413"></trkpt><trkpt lat="50.5799388885" lon="16.5015881415"></trkpt><trkpt lat="50.5794177856" lon="16.5014732257"></trkpt><trkpt lat="50.5797234736" lon="16.501516141"></trkpt><trkpt lat="50.5799775291" lon="16.5017251857"></trkpt><trkpt lat="50.5802621786" lon="16.5015909076"></trkpt><trkpt lat="50.5805274658" lon="16.5013070963"></trkpt><trkpt lat="50.5806766637" lon="16.5008838102"></trkpt><trkpt lat="50.5804867297" lon="16.5004878491"></trkpt><trkpt lat="50.5799481086" lon="16.4996122755"></trkpt><trkpt lat="50.5795553327" lon="16.4982685726"></trkpt><trkpt lat="50.5794701725" lon="16.4977924805"></trkpt><trkpt lat="50.5796992499" lon="16.4972666837"></trkpt><trkpt lat="50.5799695663" lon="16.496460177"></trkpt><trkpt lat="50.579808047" lon="16.4955761377"></trkpt><trkpt lat="50.5798178539" lon="16.4944582433"></trkpt><trkpt lat="50.5796754453" lon="16.4931432065"></trkpt><trkpt lat="50.5797207076" lon="16.4916535746"></trkpt><trkpt lat="50.579668656" lon="16.4906261209"></trkpt><trkpt lat="50.5794142652" lon="16.4883295633"></trkpt><trkpt lat="50.5795139261" lon="16.4877250604"></trkpt><trkpt lat="50.5794140138" lon="16.4872912131"></trkpt><trkpt lat="50.5794065539" lon="16.4859664533"></trkpt><trkpt lat="50.5789152067" lon="16.4847182203"></trkpt><trkpt lat="50.5781201832" lon="16.4837078657"></trkpt><trkpt lat="50.5779170059" lon="16.4832768682"></trkpt><trkpt lat="50.5779179279" lon="16.4828113373"></trkpt><trkpt lat="50.5777904391" lon="16.4824095927"></trkpt><trkpt lat="50.5773710925" lon="16.4820587263"></trkpt><trkpt lat="50.5769092496" lon="16.4815296605"></trkpt><trkpt lat="50.5767336488" lon="16.4811658859"></trkpt><trkpt lat="50.5766579602" lon="16.4807280153"></trkpt><trkpt lat="50.575902164" lon="16.4786947332"></trkpt><trkpt lat="50.5756327696" lon="16.4777450636"></trkpt><trkpt lat="50.5751438532" lon="16.4754773397"></trkpt><trkpt lat="50.5752153508" lon="16.4749393053"></trkpt><trkpt lat="50.5753554963" lon="16.4745475352"></trkpt><trkpt lat="50.5756010022" lon="16.474037664"></trkpt><trkpt lat="50.5761255417" lon="16.4732138906"></trkpt><trkpt lat="50.5765224248" lon="16.4729804546"></trkpt><trkpt lat="50.5775533989" lon="16.4725435898"></trkpt><trkpt lat="50.5802106299" lon="16.4719087444"></trkpt><trkpt lat="50.5825335067" lon="16.4709831309"></trkpt><trkpt lat="50.5836684164" lon="16.4707970526"></trkpt><trkpt lat="50.5845952872" lon="16.470791772"></trkpt><trkpt lat="50.5848805234" lon="16.4706025925"></trkpt><trkpt lat="50.5871966947" lon="16.4694426209"></trkpt><trkpt lat="50.5875481479" lon="16.4693651721"></trkpt><trkpt lat="50.5879031215" lon="16.469363831"></trkpt><trkpt lat="50.5884972308" lon="16.4692016412"></trkpt><trkpt lat="50.5887761805" lon="16.4688466676"></trkpt><trkpt lat="50.5894676875" lon="16.4682438411"></trkpt><trkpt lat="50.5897118524" lon="16.4679706749"></trkpt><trkpt lat="50.5894057453" lon="16.467729276"></trkpt><trkpt lat="50.5890287273" lon="16.4677887876"></trkpt><trkpt lat="50.5887486041" lon="16.4676041342"></trkpt><trkpt lat="50.5890490953" lon="16.4672776591"></trkpt><trkpt lat="50.5894820206" lon="16.4669811074"></trkpt><trkpt lat="50.5918179732" lon="16.4658580162"></trkpt><trkpt lat="50.5922554247" lon="16.465825662"></trkpt><trkpt lat="50.5927876756" lon="16.4656893723"></trkpt><trkpt lat="50.5932537932" lon="16.4654702693"></trkpt><trkpt lat="50.5935642589" lon="16.4652530104"></trkpt><trkpt lat="50.5939316377" lon="16.4649103582"></trkpt><trkpt lat="50.5949169304" lon="16.4642703161"></trkpt><trkpt lat="50.5953174178" lon="16.4637551643"></trkpt><trkpt lat="50.595123712" lon="16.4631776512"></trkpt><trkpt lat="50.5950906035" lon="16.4627419598"></trkpt><trkpt lat="50.5954197608" lon="16.462561246"></trkpt><trkpt lat="50.5958826095" lon="16.4626226015"></trkpt><trkpt lat="50.5961536802" lon="16.4624993876"></trkpt><trkpt lat="50.5961938296" lon="16.4620636124"></trkpt><trkpt lat="50.5960713699" lon="16.4616570901"></trkpt><trkpt lat="50.5958454777" lon="16.461136993"></trkpt><trkpt lat="50.5954592396" lon="16.4605944324"></trkpt><trkpt lat="50.5952465069" lon="16.4602044225"></trkpt><trkpt lat="50.5949818064" lon="16.4598221239"></trkpt><trkpt lat="50.5953509454" lon="16.4604205918"></trkpt><trkpt lat="50.5950821377" lon="16.4599631913"></trkpt><trkpt lat="50.5932817888" lon="16.4561124612"></trkpt><trkpt lat="50.5935053341" lon="16.4557102975"></trkpt><trkpt lat="50.5938633252" lon="16.4552793"></trkpt><trkpt lat="50.5941039696" lon="16.4548884518"></trkpt><trkpt lat="50.5951630231" lon="16.4525954984"></trkpt><trkpt lat="50.5953147355" lon="16.4521327335"></trkpt><trkpt lat="50.5971917789" lon="16.4447888453"></trkpt><trkpt lat="50.5974119715" lon="16.4444450196"></trkpt><trkpt lat="50.5978728924" lon="16.4440789819"></trkpt><trkpt lat="50.5982884672" lon="16.443666257"></trkpt><trkpt lat="50.5985750444" lon="16.4434505906"></trkpt><trkpt lat="50.5992538109" lon="16.4426972251"></trkpt><trkpt lat="50.5994125642" lon="16.4422747772"></trkpt><trkpt lat="50.5997473374" lon="16.441703802"></trkpt><trkpt lat="50.600139359" lon="16.4412701223"></trkpt><trkpt lat="50.6039448269" lon="16.4360696543"></trkpt><trkpt lat="50.6041545421" lon="16.4356917981"></trkpt><trkpt lat="50.6042961124" lon="16.4361306746"></trkpt><trkpt lat="50.6041143928" lon="16.4367531985"></trkpt><trkpt lat="50.6042544544" lon="16.4374215715"></trkpt><trkpt lat="50.6046277843" lon="16.4374414366"></trkpt><trkpt lat="50.6048097555" lon="16.4369524363"></trkpt><trkpt lat="50.6051244959" lon="16.4364646096"></trkpt><trkpt lat="50.605336139" lon="16.4361938741"></trkpt><trkpt lat="50.6055290066" lon="16.4358950593"></trkpt><trkpt lat="50.605819691" lon="16.4352049772"></trkpt><trkpt lat="50.6060066074" lon="16.4345396217"></trkpt><trkpt lat="50.6062245369" lon="16.4342550561"></trkpt><trkpt lat="50.6069138646" lon="16.4331071544"></trkpt><trkpt lat="50.6072660722" lon="16.4326260332"></trkpt><trkpt lat="50.6073316187" lon="16.4330442902"></trkpt><trkpt lat="50.6071973406" lon="16.4334327914"></trkpt><trkpt lat="50.6073908787" lon="16.4337468613"></trkpt><trkpt lat="50.6076384801" lon="16.4334486332"></trkpt><trkpt lat="50.6078035198" lon="16.4330615569"></trkpt><trkpt lat="50.6083903369" lon="16.4312229026"></trkpt><trkpt lat="50.6084300671" lon="16.4307976887"></trkpt><trkpt lat="50.6085946038" lon="16.429949021"></trkpt><trkpt lat="50.6087120343" lon="16.4295268245"></trkpt><trkpt lat="50.6089497451" lon="16.4290492237"></trkpt><trkpt lat="50.609910395" lon="16.4274621941"></trkpt><trkpt lat="50.6116457842" lon="16.4251001738"></trkpt><trkpt lat="50.6147977989" lon="16.4215609152"></trkpt><trkpt lat="50.615067109500004" lon="16.421336364"></trkpt><trkpt lat="50.615294762" lon="16.421093205"></trkpt><trkpt lat="50.615545297" lon="16.4208885189"></trkpt><trkpt lat="50.6185074616" lon="16.4227819908"></trkpt><trkpt lat="50.619285889" lon="16.422521146"></trkpt><trkpt lat="50.6196080055" lon="16.422255272"></trkpt><trkpt lat="50.6199918129" lon="16.4217747375"></trkpt><trkpt lat="50.6207543984" lon="16.4203042164"></trkpt><trkpt lat="50.6209919415" lon="16.4196535293"></trkpt><trkpt lat="50.6212330051" lon="16.4191815443"></trkpt><trkpt lat="50.6219906453" lon="16.4181296155"></trkpt><trkpt lat="50.62206164" lon="16.4176070038"></trkpt><trkpt lat="50.6219822634" lon="16.4171235356"></trkpt><trkpt lat="50.6220716145" lon="16.4167103078"></trkpt><trkpt lat="50.6224399153" lon="16.4163882751"></trkpt><trkpt lat="50.6232144032" lon="16.4155355003"></trkpt><trkpt lat="50.625181552" lon="16.4137748815"></trkpt><trkpt lat="50.6256809458" lon="16.4134220872"></trkpt><trkpt lat="50.6260172278" lon="16.4134074189"></trkpt><trkpt lat="50.6263069063" lon="16.4134882204"></trkpt><trkpt lat="50.6266417634" lon="16.413444886"></trkpt><trkpt lat="50.6268933881" lon="16.4132376853"></trkpt><trkpt lat="50.6271815579" lon="16.4130938519"></trkpt><trkpt lat="50.6279847957" lon="16.4137892984"></trkpt><trkpt lat="50.6291813962" lon="16.4146025945"></trkpt><trkpt lat="50.6296931952" lon="16.4151823707"></trkpt><trkpt lat="50.6300159823" lon="16.4149934426"></trkpt><trkpt lat="50.6304133683" lon="16.41458055"></trkpt><trkpt lat="50.6307356525" lon="16.414467562"></trkpt><trkpt lat="50.6309592817" lon="16.4139343891"></trkpt><trkpt lat="50.6310857646" lon="16.413553264"></trkpt><trkpt lat="50.6315326039" lon="16.4124769438"></trkpt><trkpt lat="50.6318184268" lon="16.4119190443"></trkpt><trkpt lat="50.6322609074" lon="16.4113790821"></trkpt><trkpt lat="50.6326310523" lon="16.4111260325"></trkpt><trkpt lat="50.6363910902" lon="16.4097880293"></trkpt><trkpt lat="50.6384646054" lon="16.41088631"></trkpt><trkpt lat="50.639569927" lon="16.4112027269"></trkpt><trkpt lat="50.6401271559" lon="16.410260601"></trkpt><trkpt lat="50.6402722467" lon="16.4098507259"></trkpt><trkpt lat="50.6405350193" lon="16.4099791367"></trkpt><trkpt lat="50.6408065092" lon="16.4103874192"></trkpt><trkpt lat="50.6411204953" lon="16.4106587414"></trkpt><trkpt lat="50.6415326335" lon="16.410568133"></trkpt><trkpt lat="50.6422316004" lon="16.410513483"></trkpt><trkpt lat="50.6425802037" lon="16.4109746553"></trkpt><trkpt lat="50.6427697185" lon="16.4113429561"></trkpt><trkpt lat="50.6432802603" lon="16.4118693396"></trkpt><trkpt lat="50.6436161231" lon="16.411628779"></trkpt><trkpt lat="50.6439514831" lon="16.4113132842"></trkpt><trkpt lat="50.6441079732" lon="16.4109201729"></trkpt><trkpt lat="50.6444299221" lon="16.4098922163"></trkpt><trkpt lat="50.644420702" lon="16.4094618894"></trkpt><trkpt lat="50.644379044" lon="16.4090338256"></trkpt><trkpt lat="50.6442461908" lon="16.4085615054"></trkpt><trkpt lat="50.6442324445" lon="16.4080391452"></trkpt><trkpt lat="50.6443593465" lon="16.4075610414"></trkpt><trkpt lat="50.6444756873" lon="16.4067944326"></trkpt><trkpt lat="50.6444659643" lon="16.4062096272"></trkpt><trkpt lat="50.6445305049" lon="16.4057101496"></trkpt><trkpt lat="50.6446517073" lon="16.405096259"></trkpt><trkpt lat="50.6448694691" lon="16.4048028085"></trkpt><trkpt lat="50.6453062501" lon="16.4048295468"></trkpt><trkpt lat="50.6466523837" lon="16.4052414335"></trkpt><trkpt lat="50.6480167899" lon="16.405992033"></trkpt><trkpt lat="50.6486098934" lon="16.4067045785"></trkpt><trkpt lat="50.6494142208" lon="16.4078730159"></trkpt><trkpt lat="50.6497168913" lon="16.4080156758"></trkpt><trkpt lat="50.6509866659" lon="16.4071847778"></trkpt><trkpt lat="50.6516231038" lon="16.4065875672"></trkpt><trkpt lat="50.6530300062" lon="16.4049269445"></trkpt><trkpt lat="50.6532860734" lon="16.4042974636"></trkpt><trkpt lat="50.6534751691" lon="16.4036637079"></trkpt><trkpt lat="50.65401203" lon="16.4022521954"></trkpt><trkpt lat="50.6543093361" lon="16.4020569809"></trkpt><trkpt lat="50.654642852" lon="16.4019831363"></trkpt><trkpt lat="50.6548743602" lon="16.4016659651"></trkpt><trkpt lat="50.6551543996" lon="16.4014492091"></trkpt><trkpt lat="50.6558288075" lon="16.4012666512"></trkpt><trkpt lat="50.6563963462" lon="16.4012224786"></trkpt><trkpt lat="50.6573618576" lon="16.4014873467"></trkpt><trkpt lat="50.6579977926" lon="16.401523808"></trkpt><trkpt lat="50.6590192951" lon="16.4011766296"></trkpt><trkpt lat="50.6597334333" lon="16.4003587235"></trkpt><trkpt lat="50.6601693761" lon="16.3996938709"></trkpt><trkpt lat="50.6615527254" lon="16.3979253732"></trkpt><trkpt lat="50.6622194219" lon="16.3980252855"></trkpt><trkpt lat="50.6646951847" lon="16.3971853349"></trkpt><trkpt lat="50.6649432052" lon="16.3969011046"></trkpt><trkpt lat="50.6654661521" lon="16.3959071785"></trkpt><trkpt lat="50.6663036719" lon="16.3936126325"></trkpt><trkpt lat="50.6665710546" lon="16.3931084611"></trkpt><trkpt lat="50.6677319482" lon="16.3926467858"></trkpt><trkpt lat="50.668009473" lon="16.3924592827"></trkpt><trkpt lat="50.6682221219" lon="16.3920711167"></trkpt><trkpt lat="50.6684941147" lon="16.3912316691"></trkpt><trkpt lat="50.6686883233" lon="16.3903542515"></trkpt><trkpt lat="50.6688992959" lon="16.3898958452"></trkpt><trkpt lat="50.6692979392" lon="16.3891806174"></trkpt><trkpt lat="50.6695773918" lon="16.3889925275"></trkpt><trkpt lat="50.6701149233" lon="16.3888599258"></trkpt><trkpt lat="50.6724205334" lon="16.3878084999"></trkpt><trkpt lat="50.6730294786" lon="16.3870537933"></trkpt><trkpt lat="50.6764660589" lon="16.3819681574"></trkpt><trkpt lat="50.6765839923" lon="16.3815807458"></trkpt><trkpt lat="50.6764857564" lon="16.3810325693"></trkpt><trkpt lat="50.6764383148" lon="16.380560752"></trkpt><trkpt lat="50.6766704936" lon="16.3802724145"></trkpt><trkpt lat="50.6775895692" lon="16.379739074"></trkpt><trkpt lat="50.678285351" lon="16.3796463702"></trkpt><trkpt lat="50.6788599305" lon="16.3793773111"></trkpt><trkpt lat="50.6807032786" lon="16.3788056653"></trkpt><trkpt lat="50.6816159841" lon="16.3783460017"></trkpt><trkpt lat="50.6819011364" lon="16.3780504558"></trkpt><trkpt lat="50.6821371708" lon="16.3774463721"></trkpt><trkpt lat="50.6827478763" lon="16.3764627557"></trkpt><trkpt lat="50.6835637707" lon="16.3755495474"></trkpt><trkpt lat="50.6841500849" lon="16.3747582119"></trkpt><trkpt lat="50.6836626772" lon="16.3745448925"></trkpt><trkpt lat="50.6833446678" lon="16.3743096963"></trkpt><trkpt lat="50.6831074599" lon="16.3739610091"></trkpt><trkpt lat="50.6829898618" lon="16.3728992734"></trkpt><trkpt lat="50.6829115748" lon="16.3724530209"></trkpt><trkpt lat="50.6830823142" lon="16.372005092"></trkpt><trkpt lat="50.6833388004" lon="16.3716508728"></trkpt><trkpt lat="50.683764182" lon="16.3713294268"></trkpt><trkpt lat="50.6839779206" lon="16.3709837571"></trkpt><trkpt lat="50.6840790901" lon="16.3705219142"></trkpt><trkpt lat="50.6841966882" lon="16.3696698938"></trkpt><trkpt lat="50.6843631528" lon="16.3688262552"></trkpt><trkpt lat="50.6843884662" lon="16.3683626521"></trkpt><trkpt lat="50.6846151128" lon="16.3677315786"></trkpt><trkpt lat="50.6846171245" lon="16.3670177758"></trkpt><trkpt lat="50.684486283" lon="16.3666301128"></trkpt><trkpt lat="50.6844660826" lon="16.3660799246"></trkpt><trkpt lat="50.6845278572" lon="16.3651777804"></trkpt><trkpt lat="50.6845512427" lon="16.362014953"></trkpt><trkpt lat="50.6847138517" lon="16.3616735581"></trkpt><trkpt lat="50.684769759" lon="16.3611837197"></trkpt><trkpt lat="50.6849530712" lon="16.3604820706"></trkpt><trkpt lat="50.685298657" lon="16.3594570477"></trkpt><trkpt lat="50.6861356739" lon="16.3576266915"></trkpt><trkpt lat="50.686429292" lon="16.357170213"></trkpt><trkpt lat="50.6868358143" lon="16.3562060427"></trkpt><trkpt lat="50.6871028617" lon="16.3553808443"></trkpt><trkpt lat="50.687458422" lon="16.3547473401"></trkpt><trkpt lat="50.6877975538" lon="16.3545300812"></trkpt><trkpt lat="50.6880992185" lon="16.3542805519"></trkpt><trkpt lat="50.6883654278" lon="16.3543725852"></trkpt><trkpt lat="50.6937004253" lon="16.3516391627"></trkpt><trkpt lat="50.6943225302" lon="16.3514680881"></trkpt><trkpt lat="50.6946913339" lon="16.3514448702"></trkpt><trkpt lat="50.6955751218" lon="16.3512632344"></trkpt><trkpt lat="50.6961452588" lon="16.3508361764"></trkpt><trkpt lat="50.6982194446" lon="16.3488818519"></trkpt><trkpt lat="50.6986962073" lon="16.3481461722"></trkpt><trkpt lat="50.6998598669" lon="16.3469691854"></trkpt><trkpt lat="50.7001404092" lon="16.3469525054"></trkpt><trkpt lat="50.6998391636" lon="16.3469490688"></trkpt><trkpt lat="50.6994058192" lon="16.3471916411"></trkpt><trkpt lat="50.6991184875" lon="16.3475262467"></trkpt><trkpt lat="50.698630996" lon="16.3482203521"></trkpt><trkpt lat="50.6967249513" lon="16.3503231201"></trkpt><trkpt lat="50.6963125616" lon="16.3506601565"></trkpt><trkpt lat="50.6948847882" lon="16.3514371589"></trkpt><trkpt lat="50.6943089515" lon="16.3514416851"></trkpt><trkpt lat="50.6937500462" lon="16.3515975885"></trkpt><trkpt lat="50.6934210565" lon="16.3518676534"></trkpt><trkpt lat="50.690098051" lon="16.3538078126"></trkpt><trkpt lat="50.6889628898" lon="16.3542224653"></trkpt><trkpt lat="50.6881630048" lon="16.3543776982"></trkpt><trkpt lat="50.687809037" lon="16.3545114733"></trkpt><trkpt lat="50.688093435" lon="16.3542675599"></trkpt><trkpt lat="50.6879117154" lon="16.3539740257"></trkpt></trkseg><trkseg><trkpt lat="50.4755272809" lon="16.6050831042"></trkpt><trkpt lat="50.4757841863" lon="16.6043055989"></trkpt><trkpt lat="50.4758674186" lon="16.60346305"></trkpt><trkpt lat="50.475541614" lon="16.6032810789"></trkpt><trkpt lat="50.4740989208" lon="16.6018594243"></trkpt><trkpt lat="50.4742545728" lon="16.6012070607"></trkpt><trkpt lat="50.4741605278" lon="16.6007120255"></trkpt><trkpt lat="50.4741392378" lon="16.6001588199"></trkpt><trkpt lat="50.4736641515" lon="16.5973401535"></trkpt><trkpt lat="50.473380005" lon="16.5970958211"></trkpt><trkpt lat="50.4730611574" lon="16.5969684999"></trkpt><trkpt lat="50.4726515338" lon="16.5969164483"></trkpt><trkpt lat="50.472408291" lon="16.5966475569"></trkpt><trkpt lat="50.47190018" lon="16.595955966"></trkpt><trkpt lat="50.4714455456" lon="16.5956569836"></trkpt><trkpt lat="50.470939111" lon="16.5952157602"></trkpt><trkpt lat="50.4703551438" lon="16.5945904702"></trkpt><trkpt lat="50.4701393098" lon="16.5942069981"></trkpt><trkpt lat="50.469743181" lon="16.5936201811"></trkpt><trkpt lat="50.4693675879" lon="16.5928040352"></trkpt><trkpt lat="50.4692894686" lon="16.5920152981"></trkpt><trkpt lat="50.4693436157" lon="16.5915237833"></trkpt><trkpt lat="50.4695006087" lon="16.5911255591"></trkpt><trkpt lat="50.4701353703" lon="16.590005653"></trkpt><trkpt lat="50.4702807125" lon="16.5896251984"></trkpt><trkpt lat="50.4703926947" lon="16.5892351884"></trkpt><trkpt lat="50.470386073" lon="16.5881241672"></trkpt><trkpt lat="50.470425887" lon="16.5876541939"></trkpt><trkpt lat="50.4704448301" lon="16.5863236506"></trkpt><trkpt lat="50.4704116378" lon="16.5858340636"></trkpt><trkpt lat="50.4700602684" lon="16.5840288531"></trkpt><trkpt lat="50.4698462784" lon="16.5837457962"></trkpt><trkpt lat="50.4685693793" lon="16.5816404298"></trkpt><trkpt lat="50.4684153199" lon="16.5811481606"></trkpt><trkpt lat="50.4674076475" lon="16.5785366949"></trkpt><trkpt lat="50.4671242554" lon="16.578104021"></trkpt><trkpt lat="50.4645812698" lon="16.5733954031"></trkpt><trkpt lat="50.4641701374" lon="16.572462162"></trkpt><trkpt lat="50.4639339354" lon="16.5722459089"></trkpt><trkpt lat="50.4636212066" lon="16.5726339072"></trkpt><trkpt lat="50.461636791" lon="16.5746399481"></trkpt><trkpt lat="50.4599681217" lon="16.5769137908"></trkpt><trkpt lat="50.4599674512" lon="16.5773415193"></trkpt><trkpt lat="50.4600419663" lon="16.5781065356"></trkpt><trkpt lat="50.4599789344" lon="16.5796573553"></trkpt><trkpt lat="50.4597951192" lon="16.580027584"></trkpt><trkpt lat="50.4590128362" lon="16.5822839923"></trkpt><trkpt lat="50.4574648663" lon="16.5855421219"></trkpt><trkpt lat="50.4570465256" lon="16.5857553575"></trkpt><trkpt lat="50.4567084834" lon="16.5857293736"></trkpt><trkpt lat="50.4560067505" lon="16.5852127131"></trkpt><trkpt lat="50.4541804176" lon="16.5841927193"></trkpt><trkpt lat="50.4530762695" lon="16.5838115104"></trkpt><trkpt lat="50.4525763728" lon="16.5837362409"></trkpt><trkpt lat="50.452271523" lon="16.5836452972"></trkpt><trkpt lat="50.4517955147" lon="16.583278086"></trkpt><trkpt lat="50.4515612405" lon="16.5829116292"></trkpt><trkpt lat="50.451386394" lon="16.5824677236"></trkpt><trkpt lat="50.4509958811" lon="16.5816576127"></trkpt><trkpt lat="50.4506740998" lon="16.5814825147"></trkpt><trkpt lat="50.4503509775" lon="16.5815033857"></trkpt><trkpt lat="50.4489402194" lon="16.5811469033"></trkpt><trkpt lat="50.4466461763" lon="16.5809946042"></trkpt><trkpt lat="50.4463638738" lon="16.5818536654"></trkpt></trkseg></trk></gpx>