<?xml version="1.0" encoding="UTF-8" standalone="no" ?><gpx xmlns="http://www.topografix.com/GPX/1/1" xmlns:gpxx="http://www.garmin.com/xmlschemas/GpxExtensions/v3" ><trk><trkseg><trkpt lat="49.513928" lon="21.496929"></trkpt><trkpt lat="49.514" lon="21.496626"></trkpt><trkpt lat="49.513824" lon="21.496315"></trkpt><trkpt lat="49.513594" lon="21.496322"></trkpt><trkpt lat="49.512339" lon="21.496524"></trkpt><trkpt lat="49.512024" lon="21.49743"></trkpt><trkpt lat="49.511965" lon="21.497723"></trkpt><trkpt lat="49.51189" lon="21.49822"></trkpt><trkpt lat="49.511743" lon="21.498888"></trkpt><trkpt lat="49.511629" lon="21.499207"></trkpt><trkpt lat="49.511027" lon="21.501298"></trkpt><trkpt lat="49.510841" lon="21.50179"></trkpt><trkpt lat="49.510614" lon="21.502042"></trkpt><trkpt lat="49.510422" lon="21.502347"></trkpt><trkpt lat="49.510165" lon="21.50306"></trkpt><trkpt lat="49.509981" lon="21.504213"></trkpt><trkpt lat="49.510001" lon="21.504599"></trkpt><trkpt lat="49.510237" lon="21.505588"></trkpt><trkpt lat="49.510224" lon="21.507142"></trkpt><trkpt lat="49.510036" lon="21.508189"></trkpt><trkpt lat="49.509893" lon="21.508436"></trkpt><trkpt lat="49.50906" lon="21.5094"></trkpt><trkpt lat="49.50846" lon="21.510488"></trkpt><trkpt lat="49.507856" lon="21.511831"></trkpt><trkpt lat="49.507399" lon="21.512578"></trkpt><trkpt lat="49.506871" lon="21.512758"></trkpt><trkpt lat="49.505774" lon="21.513544"></trkpt><trkpt lat="49.50561" lon="21.514143"></trkpt><trkpt lat="49.504735" lon="21.516739"></trkpt><trkpt lat="49.504544" lon="21.516859"></trkpt><trkpt lat="49.504392" lon="21.517055"></trkpt><trkpt lat="49.504232" lon="21.517428"></trkpt><trkpt lat="49.503876" lon="21.518002"></trkpt><trkpt lat="49.503628" lon="21.517904"></trkpt><trkpt lat="49.503367" lon="21.517637"></trkpt><trkpt lat="49.502942" lon="21.517509"></trkpt><trkpt lat="49.502351" lon="21.516876"></trkpt><trkpt lat="49.502064" lon="21.516311"></trkpt><trkpt lat="49.501762" lon="21.515989"></trkpt><trkpt lat="49.501329" lon="21.515132"></trkpt><trkpt lat="49.501099" lon="21.514461"></trkpt><trkpt lat="49.501043" lon="21.514147"></trkpt><trkpt lat="49.501031" lon="21.513441"></trkpt><trkpt lat="49.500861" lon="21.512747"></trkpt><trkpt lat="49.50032" lon="21.511136"></trkpt><trkpt lat="49.500063" lon="21.51081"></trkpt><trkpt lat="49.499755" lon="21.510631"></trkpt><trkpt lat="49.499043" lon="21.50991"></trkpt><trkpt lat="49.498829" lon="21.509423"></trkpt><trkpt lat="49.498305" lon="21.508668"></trkpt><trkpt lat="49.497996" lon="21.508725"></trkpt><trkpt lat="49.497657" lon="21.508918"></trkpt><trkpt lat="49.497381" lon="21.508857"></trkpt><trkpt lat="49.497196" lon="21.508601"></trkpt><trkpt lat="49.496939" lon="21.508508"></trkpt><trkpt lat="49.496618" lon="21.508548"></trkpt><trkpt lat="49.496256" lon="21.508385"></trkpt><trkpt lat="49.495961" lon="21.508309"></trkpt><trkpt lat="49.495581" lon="21.508103"></trkpt><trkpt lat="49.495141" lon="21.50803"></trkpt><trkpt lat="49.494641" lon="21.508016"></trkpt><trkpt lat="49.494233" lon="21.507919"></trkpt><trkpt lat="49.492844" lon="21.50802"></trkpt><trkpt lat="49.492665" lon="21.507828"></trkpt><trkpt lat="49.492441" lon="21.507794"></trkpt><trkpt lat="49.492184" lon="21.507875"></trkpt><trkpt lat="49.490867" lon="21.508091"></trkpt><trkpt lat="49.490642" lon="21.508246"></trkpt><trkpt lat="49.490366" lon="21.508542"></trkpt><trkpt lat="49.489792" lon="21.509068"></trkpt><trkpt lat="49.484406" lon="21.513237"></trkpt><trkpt lat="49.48414" lon="21.51329"></trkpt><trkpt lat="49.483905" lon="21.513273"></trkpt><trkpt lat="49.483666" lon="21.51332"></trkpt><trkpt lat="49.482419" lon="21.513349"></trkpt><trkpt lat="49.481984" lon="21.513262"></trkpt><trkpt lat="49.481734" lon="21.513252"></trkpt><trkpt lat="49.481424" lon="21.513138"></trkpt><trkpt lat="49.481153" lon="21.513001"></trkpt><trkpt lat="49.480543" lon="21.512811"></trkpt><trkpt lat="49.479555" lon="21.512643"></trkpt><trkpt lat="49.479293" lon="21.512719"></trkpt><trkpt lat="49.479124" lon="21.51255"></trkpt><trkpt lat="49.479081" lon="21.512229"></trkpt><trkpt lat="49.479151" lon="21.511925"></trkpt><trkpt lat="49.47936" lon="21.511581"></trkpt><trkpt lat="49.479771" lon="21.5112"></trkpt><trkpt lat="49.481032" lon="21.509777"></trkpt><trkpt lat="49.481001" lon="21.50933"></trkpt><trkpt lat="49.48096" lon="21.50686"></trkpt><trkpt lat="49.481064" lon="21.506577"></trkpt><trkpt lat="49.48126" lon="21.50634"></trkpt><trkpt lat="49.481531" lon="21.50618"></trkpt><trkpt lat="49.485382" lon="21.50335"></trkpt><trkpt lat="49.485591" lon="21.503069"></trkpt><trkpt lat="49.486193" lon="21.50242"></trkpt><trkpt lat="49.486451" lon="21.502276"></trkpt><trkpt lat="49.487042" lon="21.50211"></trkpt><trkpt lat="49.488769" lon="21.501248"></trkpt><trkpt lat="49.489193" lon="21.500934"></trkpt><trkpt lat="49.489879" lon="21.500282"></trkpt><trkpt lat="49.49019" lon="21.499723"></trkpt><trkpt lat="49.495521" lon="21.491581"></trkpt><trkpt lat="49.496116" lon="21.491045"></trkpt><trkpt lat="49.49746" lon="21.490144"></trkpt><trkpt lat="49.497672" lon="21.490095"></trkpt><trkpt lat="49.497852" lon="21.489946"></trkpt><trkpt lat="49.49856" lon="21.489201"></trkpt><trkpt lat="49.498806" lon="21.489137"></trkpt><trkpt lat="49.499573" lon="21.489944"></trkpt><trkpt lat="49.501205" lon="21.491271"></trkpt><trkpt lat="49.501914" lon="21.491519"></trkpt><trkpt lat="49.502348" lon="21.491747"></trkpt><trkpt lat="49.503404" lon="21.492515"></trkpt><trkpt lat="49.504206" lon="21.492875"></trkpt><trkpt lat="49.506695" lon="21.494304"></trkpt><trkpt lat="49.507273" lon="21.495619"></trkpt><trkpt lat="49.508999" lon="21.498565"></trkpt><trkpt lat="49.509222" lon="21.498771"></trkpt><trkpt lat="49.511292" lon="21.500387"></trkpt><trkpt lat="49.511477" lon="21.499737"></trkpt><trkpt lat="49.512868" lon="21.496304"></trkpt><trkpt lat="49.513083" lon="21.496313"></trkpt><trkpt lat="49.514004" lon="21.496634"></trkpt><trkpt lat="49.513955" lon="21.496937"></trkpt><trkpt lat="49.514003" lon="21.496597"></trkpt><trkpt lat="49.513664" lon="21.49634"></trkpt><trkpt lat="49.512824" lon="21.496246"></trkpt><trkpt lat="49.512438" lon="21.49637"></trkpt><trkpt lat="49.512268" lon="21.496683"></trkpt><trkpt lat="49.51218" lon="21.496964"></trkpt><trkpt lat="49.511928" lon="21.497972"></trkpt><trkpt lat="49.511869" lon="21.498377"></trkpt><trkpt lat="49.51177" lon="21.498801"></trkpt><trkpt lat="49.511571" lon="21.499384"></trkpt><trkpt lat="49.511036" lon="21.501309"></trkpt><trkpt lat="49.510923" lon="21.501645"></trkpt><trkpt lat="49.510752" lon="21.501901"></trkpt><trkpt lat="49.510483" lon="21.50224"></trkpt><trkpt lat="49.510245" lon="21.502788"></trkpt><trkpt lat="49.510146" lon="21.503193"></trkpt><trkpt lat="49.510076" lon="21.503605"></trkpt><trkpt lat="49.509984" lon="21.504388"></trkpt><trkpt lat="49.510025" lon="21.504776"></trkpt><trkpt lat="49.510212" lon="21.505513"></trkpt><trkpt lat="49.510246" lon="21.506377"></trkpt><trkpt lat="49.510188" lon="21.507452"></trkpt><trkpt lat="49.510109" lon="21.507966"></trkpt><trkpt lat="49.51001" lon="21.50825"></trkpt><trkpt lat="49.509446" lon="21.508898"></trkpt><trkpt lat="49.508647" lon="21.510088"></trkpt><trkpt lat="49.508413" lon="21.510683"></trkpt><trkpt lat="49.508218" lon="21.511028"></trkpt><trkpt lat="49.508053" lon="21.511384"></trkpt><trkpt lat="49.50716" lon="21.512979"></trkpt><trkpt lat="49.507358" lon="21.512719"></trkpt><trkpt lat="49.507152" lon="21.512671"></trkpt><trkpt lat="49.506624" lon="21.512867"></trkpt><trkpt lat="49.506839" lon="21.512757"></trkpt><trkpt lat="49.507042" lon="21.512687"></trkpt><trkpt lat="49.507343" lon="21.512651"></trkpt><trkpt lat="49.507009" lon="21.513172"></trkpt><trkpt lat="49.506779" lon="21.513722"></trkpt><trkpt lat="49.506596" lon="21.514458"></trkpt><trkpt lat="49.506496" lon="21.515016"></trkpt><trkpt lat="49.50649" lon="21.516088"></trkpt><trkpt lat="49.506594" lon="21.517033"></trkpt><trkpt lat="49.506698" lon="21.520375"></trkpt><trkpt lat="49.50648" lon="21.520831"></trkpt><trkpt lat="49.506293" lon="21.52102"></trkpt><trkpt lat="49.505677" lon="21.521342"></trkpt><trkpt lat="49.503657" lon="21.522981"></trkpt><trkpt lat="49.503498" lon="21.523248"></trkpt><trkpt lat="49.503387" lon="21.523568"></trkpt><trkpt lat="49.503114" lon="21.524856"></trkpt><trkpt lat="49.50315" lon="21.525227"></trkpt><trkpt lat="49.503562" lon="21.526712"></trkpt><trkpt lat="49.50362" lon="21.527036"></trkpt><trkpt lat="49.503646" lon="21.528141"></trkpt><trkpt lat="49.504355" lon="21.536071"></trkpt><trkpt lat="49.50494" lon="21.536925"></trkpt><trkpt lat="49.505062" lon="21.537582"></trkpt><trkpt lat="49.505094" lon="21.538383"></trkpt><trkpt lat="49.505001" lon="21.538742"></trkpt><trkpt lat="49.50434" lon="21.539604"></trkpt><trkpt lat="49.503547" lon="21.540474"></trkpt><trkpt lat="49.502772" lon="21.540905"></trkpt><trkpt lat="49.502172" lon="21.541633"></trkpt><trkpt lat="49.501893" lon="21.5423"></trkpt><trkpt lat="49.501825" lon="21.542619"></trkpt><trkpt lat="49.501728" lon="21.542939"></trkpt><trkpt lat="49.501582" lon="21.543223"></trkpt><trkpt lat="49.500802" lon="21.544242"></trkpt><trkpt lat="49.500447" lon="21.54503"></trkpt><trkpt lat="49.500057" lon="21.546178"></trkpt><trkpt lat="49.499088" lon="21.550055"></trkpt><trkpt lat="49.497272" lon="21.554494"></trkpt><trkpt lat="49.496967" lon="21.554815"></trkpt><trkpt lat="49.496443" lon="21.555984"></trkpt><trkpt lat="49.495957" lon="21.557785"></trkpt><trkpt lat="49.495966" lon="21.55871"></trkpt><trkpt lat="49.495914" lon="21.559699"></trkpt><trkpt lat="49.495865" lon="21.560015"></trkpt><trkpt lat="49.495479" lon="21.560989"></trkpt><trkpt lat="49.495121" lon="21.561485"></trkpt><trkpt lat="49.494925" lon="21.561661"></trkpt><trkpt lat="49.494782" lon="21.561885"></trkpt><trkpt lat="49.494785" lon="21.562209"></trkpt><trkpt lat="49.49462" lon="21.566236"></trkpt><trkpt lat="49.494126" lon="21.566823"></trkpt><trkpt lat="49.493525" lon="21.567404"></trkpt><trkpt lat="49.492801" lon="21.567534"></trkpt><trkpt lat="49.492054" lon="21.567762"></trkpt><trkpt lat="49.491898" lon="21.567994"></trkpt><trkpt lat="49.491787" lon="21.568288"></trkpt><trkpt lat="49.49113" lon="21.569738"></trkpt><trkpt lat="49.49093" lon="21.569823"></trkpt><trkpt lat="49.490729" lon="21.569869"></trkpt><trkpt lat="49.487471" lon="21.570195"></trkpt><trkpt lat="49.487216" lon="21.570048"></trkpt><trkpt lat="49.487126" lon="21.569681"></trkpt><trkpt lat="49.486846" lon="21.569246"></trkpt><trkpt lat="49.486401" lon="21.568842"></trkpt><trkpt lat="49.48579" lon="21.568158"></trkpt><trkpt lat="49.483549" lon="21.564961"></trkpt><trkpt lat="49.483434" lon="21.564527"></trkpt><trkpt lat="49.483269" lon="21.564096"></trkpt><trkpt lat="49.482739" lon="21.563451"></trkpt><trkpt lat="49.48247" lon="21.563219"></trkpt><trkpt lat="49.482292" lon="21.562935"></trkpt><trkpt lat="49.481011" lon="21.561624"></trkpt><trkpt lat="49.480199" lon="21.560652"></trkpt><trkpt lat="49.479949" lon="21.559702"></trkpt><trkpt lat="49.479654" lon="21.559029"></trkpt><trkpt lat="49.47951" lon="21.558812"></trkpt><trkpt lat="49.479317" lon="21.558672"></trkpt><trkpt lat="49.478505" lon="21.558473"></trkpt><trkpt lat="49.477154" lon="21.55794"></trkpt><trkpt lat="49.477056" lon="21.557657"></trkpt><trkpt lat="49.47687" lon="21.556977"></trkpt><trkpt lat="49.47674" lon="21.5567"></trkpt><trkpt lat="49.476581" lon="21.556448"></trkpt><trkpt lat="49.476061" lon="21.555776"></trkpt><trkpt lat="49.475413" lon="21.554769"></trkpt><trkpt lat="49.473722" lon="21.552607"></trkpt><trkpt lat="49.473284" lon="21.552281"></trkpt><trkpt lat="49.464441" lon="21.544342"></trkpt><trkpt lat="49.463916" lon="21.543461"></trkpt><trkpt lat="49.462179" lon="21.541165"></trkpt><trkpt lat="49.461693" lon="21.540114"></trkpt><trkpt lat="49.461585" lon="21.539821"></trkpt><trkpt lat="49.461433" lon="21.539598"></trkpt><trkpt lat="49.461253" lon="21.539429"></trkpt><trkpt lat="49.460622" lon="21.539082"></trkpt><trkpt lat="49.460141" lon="21.538465"></trkpt><trkpt lat="49.459933" lon="21.538271"></trkpt><trkpt lat="49.459582" lon="21.538176"></trkpt><trkpt lat="49.458625" lon="21.538072"></trkpt><trkpt lat="49.453023" lon="21.538078"></trkpt><trkpt lat="49.452666" lon="21.537953"></trkpt><trkpt lat="49.452252" lon="21.537873"></trkpt><trkpt lat="49.451919" lon="21.537867"></trkpt><trkpt lat="49.45215" lon="21.537876"></trkpt><trkpt lat="49.452857" lon="21.538105"></trkpt><trkpt lat="49.453098" lon="21.538145"></trkpt><trkpt lat="49.454858" lon="21.538143"></trkpt><trkpt lat="49.455145" lon="21.538203"></trkpt><trkpt lat="49.455025" lon="21.537945"></trkpt><trkpt lat="49.454858" lon="21.537655"></trkpt><trkpt lat="49.454992" lon="21.537936"></trkpt><trkpt lat="49.455089" lon="21.53821"></trkpt><trkpt lat="49.454857" lon="21.53817"></trkpt><trkpt lat="49.453496" lon="21.538106"></trkpt><trkpt lat="49.453137" lon="21.538174"></trkpt><trkpt lat="49.452614" lon="21.53798"></trkpt><trkpt lat="49.452218" lon="21.537897"></trkpt><trkpt lat="49.451483" lon="21.537949"></trkpt><trkpt lat="49.449733" lon="21.537633"></trkpt><trkpt lat="49.449481" lon="21.537463"></trkpt><trkpt lat="49.449043" lon="21.53731"></trkpt><trkpt lat="49.448773" lon="21.537127"></trkpt><trkpt lat="49.448532" lon="21.536863"></trkpt><trkpt lat="49.448375" lon="21.53661"></trkpt><trkpt lat="49.448099" lon="21.536338"></trkpt><trkpt lat="49.447916" lon="21.53609"></trkpt><trkpt lat="49.447421" lon="21.535302"></trkpt><trkpt lat="49.447375" lon="21.534977"></trkpt><trkpt lat="49.447228" lon="21.534515"></trkpt><trkpt lat="49.447069" lon="21.534137"></trkpt><trkpt lat="49.446581" lon="21.533351"></trkpt><trkpt lat="49.446316" lon="21.532698"></trkpt><trkpt lat="49.446176" lon="21.532442"></trkpt><trkpt lat="49.445624" lon="21.531615"></trkpt><trkpt lat="49.445481" lon="21.531354"></trkpt><trkpt lat="49.445441" lon="21.530942"></trkpt><trkpt lat="49.445454" lon="21.530574"></trkpt><trkpt lat="49.445429" lon="21.530245"></trkpt><trkpt lat="49.445341" lon="21.529838"></trkpt><trkpt lat="49.445281" lon="21.529475"></trkpt><trkpt lat="49.444856" lon="21.527856"></trkpt><trkpt lat="49.444726" lon="21.52758"></trkpt><trkpt lat="49.444675" lon="21.527223"></trkpt><trkpt lat="49.4446" lon="21.526937"></trkpt><trkpt lat="49.444451" lon="21.526474"></trkpt><trkpt lat="49.444415" lon="21.526156"></trkpt><trkpt lat="49.444316" lon="21.525846"></trkpt><trkpt lat="49.444002" lon="21.524442"></trkpt><trkpt lat="49.443983" lon="21.523888"></trkpt><trkpt lat="49.443889" lon="21.52359"></trkpt><trkpt lat="49.443803" lon="21.523192"></trkpt><trkpt lat="49.443653" lon="21.522767"></trkpt><trkpt lat="49.443449" lon="21.522429"></trkpt><trkpt lat="49.443137" lon="21.521814"></trkpt><trkpt lat="49.44294" lon="21.521504"></trkpt><trkpt lat="49.442017" lon="21.520267"></trkpt><trkpt lat="49.441835" lon="21.520082"></trkpt><trkpt lat="49.441672" lon="21.519828"></trkpt><trkpt lat="49.441334" lon="21.519476"></trkpt><trkpt lat="49.441119" lon="21.519292"></trkpt><trkpt lat="49.440858" lon="21.51912"></trkpt><trkpt lat="49.440654" lon="21.518897"></trkpt><trkpt lat="49.440389" lon="21.518672"></trkpt><trkpt lat="49.439977" lon="21.518421"></trkpt><trkpt lat="49.439783" lon="21.51833"></trkpt><trkpt lat="49.438829" lon="21.517711"></trkpt><trkpt lat="49.438625" lon="21.517242"></trkpt><trkpt lat="49.438586" lon="21.5169"></trkpt><trkpt lat="49.438482" lon="21.516555"></trkpt><trkpt lat="49.438562" lon="21.516187"></trkpt><trkpt lat="49.43872" lon="21.515796"></trkpt><trkpt lat="49.440146" lon="21.512802"></trkpt><trkpt lat="49.440446" lon="21.512476"></trkpt><trkpt lat="49.440771" lon="21.512019"></trkpt><trkpt lat="49.440902" lon="21.511723"></trkpt><trkpt lat="49.441254" lon="21.511037"></trkpt><trkpt lat="49.441406" lon="21.51066"></trkpt><trkpt lat="49.441813" lon="21.509823"></trkpt><trkpt lat="49.442027" lon="21.509449"></trkpt><trkpt lat="49.44346" lon="21.506551"></trkpt><trkpt lat="49.443578" lon="21.506271"></trkpt><trkpt lat="49.445971" lon="21.501611"></trkpt><trkpt lat="49.446234" lon="21.501722"></trkpt><trkpt lat="49.446427" lon="21.501903"></trkpt><trkpt lat="49.446789" lon="21.502438"></trkpt><trkpt lat="49.446929" lon="21.502687"></trkpt><trkpt lat="49.447171" lon="21.502751"></trkpt><trkpt lat="49.447526" lon="21.502907"></trkpt><trkpt lat="49.447763" lon="21.503256"></trkpt><trkpt lat="49.448129" lon="21.503698"></trkpt><trkpt lat="49.448501" lon="21.503919"></trkpt><trkpt lat="49.448864" lon="21.503889"></trkpt><trkpt lat="49.449126" lon="21.503729"></trkpt><trkpt lat="49.449333" lon="21.503568"></trkpt><trkpt lat="49.449731" lon="21.503367"></trkpt><trkpt lat="49.450033" lon="21.503339"></trkpt><trkpt lat="49.452093" lon="21.502911"></trkpt><trkpt lat="49.452307" lon="21.502704"></trkpt><trkpt lat="49.45247" lon="21.50249"></trkpt><trkpt lat="49.452628" lon="21.50221"></trkpt><trkpt lat="49.452668" lon="21.501839"></trkpt><trkpt lat="49.452269" lon="21.502141"></trkpt><trkpt lat="49.451928" lon="21.502193"></trkpt><trkpt lat="49.451565" lon="21.5022"></trkpt><trkpt lat="49.450844" lon="21.502078"></trkpt><trkpt lat="49.450085" lon="21.501843"></trkpt><trkpt lat="49.449179" lon="21.501348"></trkpt><trkpt lat="49.449196" lon="21.500828"></trkpt><trkpt lat="49.449434" lon="21.500228"></trkpt><trkpt lat="49.449653" lon="21.499569"></trkpt><trkpt lat="49.450377" lon="21.496888"></trkpt><trkpt lat="49.450297" lon="21.49656"></trkpt><trkpt lat="49.450129" lon="21.496067"></trkpt><trkpt lat="49.44994" lon="21.495603"></trkpt><trkpt lat="49.449708" lon="21.494772"></trkpt><trkpt lat="49.449365" lon="21.493767"></trkpt><trkpt lat="49.44914" lon="21.493492"></trkpt><trkpt lat="49.448813" lon="21.493285"></trkpt><trkpt lat="49.448291" lon="21.493019"></trkpt><trkpt lat="49.447716" lon="21.492794"></trkpt><trkpt lat="49.445322" lon="21.491506"></trkpt><trkpt lat="49.44519" lon="21.49079"></trkpt><trkpt lat="49.44517" lon="21.490302"></trkpt><trkpt lat="49.444771" lon="21.485923"></trkpt><trkpt lat="49.444643" lon="21.485557"></trkpt><trkpt lat="49.444502" lon="21.485236"></trkpt><trkpt lat="49.444273" lon="21.484939"></trkpt><trkpt lat="49.443998" lon="21.484658"></trkpt><trkpt lat="49.442738" lon="21.483135"></trkpt><trkpt lat="49.441671" lon="21.481647"></trkpt><trkpt lat="49.441638" lon="21.481337"></trkpt><trkpt lat="49.441694" lon="21.480908"></trkpt><trkpt lat="49.44187" lon="21.480199"></trkpt><trkpt lat="49.443241" lon="21.472798"></trkpt><trkpt lat="49.443111" lon="21.472559"></trkpt><trkpt lat="49.442745" lon="21.472079"></trkpt><trkpt lat="49.442126" lon="21.471441"></trkpt><trkpt lat="49.433577" lon="21.461129"></trkpt><trkpt lat="49.433434" lon="21.460727"></trkpt><trkpt lat="49.430836" lon="21.451815"></trkpt><trkpt lat="49.431215" lon="21.451163"></trkpt><trkpt lat="49.432125" lon="21.449029"></trkpt><trkpt lat="49.432503" lon="21.447693"></trkpt><trkpt lat="49.432707" lon="21.447108"></trkpt><trkpt lat="49.433027" lon="21.446358"></trkpt><trkpt lat="49.433898" lon="21.445387"></trkpt><trkpt lat="49.438272" lon="21.441218"></trkpt><trkpt lat="49.4385" lon="21.441042"></trkpt><trkpt lat="49.439108" lon="21.440485"></trkpt><trkpt lat="49.440497" lon="21.43945"></trkpt><trkpt lat="49.441979" lon="21.437781"></trkpt><trkpt lat="49.442153" lon="21.43746"></trkpt><trkpt lat="49.443499" lon="21.435315"></trkpt><trkpt lat="49.443759" lon="21.435151"></trkpt><trkpt lat="49.443967" lon="21.435092"></trkpt><trkpt lat="49.44707" lon="21.433617"></trkpt><trkpt lat="49.447261" lon="21.43345"></trkpt><trkpt lat="49.447633" lon="21.433019"></trkpt><trkpt lat="49.447869" lon="21.432966"></trkpt><trkpt lat="49.448934" lon="21.433564"></trkpt><trkpt lat="49.44975" lon="21.433722"></trkpt><trkpt lat="49.45067" lon="21.433381"></trkpt><trkpt lat="49.451285" lon="21.43293"></trkpt><trkpt lat="49.453976" lon="21.431762"></trkpt><trkpt lat="49.454822" lon="21.431819"></trkpt><trkpt lat="49.457426" lon="21.431057"></trkpt><trkpt lat="49.458038" lon="21.430484"></trkpt><trkpt lat="49.464613" lon="21.422817"></trkpt><trkpt lat="49.465165" lon="21.421983"></trkpt><trkpt lat="49.465558" lon="21.421748"></trkpt><trkpt lat="49.466166" lon="21.421785"></trkpt><trkpt lat="49.466838" lon="21.422244"></trkpt><trkpt lat="49.467402" lon="21.422953"></trkpt><trkpt lat="49.468232" lon="21.424836"></trkpt><trkpt lat="49.469702" lon="21.426985"></trkpt><trkpt lat="49.470943" lon="21.427637"></trkpt><trkpt lat="49.471936" lon="21.427834"></trkpt><trkpt lat="49.473217" lon="21.427772"></trkpt><trkpt lat="49.475678" lon="21.42819"></trkpt><trkpt lat="49.476197" lon="21.428344"></trkpt><trkpt lat="49.477054" lon="21.428483"></trkpt><trkpt lat="49.484038" lon="21.426436"></trkpt><trkpt lat="49.484883" lon="21.425183"></trkpt><trkpt lat="49.486235" lon="21.423539"></trkpt><trkpt lat="49.487104" lon="21.423006"></trkpt><trkpt lat="49.487328" lon="21.42291"></trkpt><trkpt lat="49.488083" lon="21.422724"></trkpt><trkpt lat="49.493332" lon="21.422232"></trkpt><trkpt lat="49.493717" lon="21.422518"></trkpt><trkpt lat="49.496612" lon="21.423603"></trkpt><trkpt lat="49.497947" lon="21.422568"></trkpt><trkpt lat="49.498679" lon="21.421569"></trkpt><trkpt lat="49.499057" lon="21.421167"></trkpt><trkpt lat="49.499512" lon="21.420925"></trkpt><trkpt lat="49.500056" lon="21.421052"></trkpt><trkpt lat="49.502249" lon="21.421832"></trkpt><trkpt lat="49.505062" lon="21.423199"></trkpt><trkpt lat="49.505777" lon="21.423679"></trkpt><trkpt lat="49.506544" lon="21.424587"></trkpt><trkpt lat="49.507618" lon="21.425649"></trkpt><trkpt lat="49.508472" lon="21.425834"></trkpt><trkpt lat="49.509659" lon="21.426452"></trkpt><trkpt lat="49.510227" lon="21.427017"></trkpt><trkpt lat="49.511922" lon="21.429264"></trkpt><trkpt lat="49.512102" lon="21.429611"></trkpt><trkpt lat="49.515245" lon="21.434575"></trkpt><trkpt lat="49.515815" lon="21.435252"></trkpt><trkpt lat="49.516988" lon="21.437357"></trkpt><trkpt lat="49.517581" lon="21.438941"></trkpt><trkpt lat="49.5178" lon="21.439988"></trkpt><trkpt lat="49.517741" lon="21.440651"></trkpt><trkpt lat="49.517291" lon="21.442176"></trkpt><trkpt lat="49.516758" lon="21.445278"></trkpt><trkpt lat="49.516899" lon="21.446711"></trkpt><trkpt lat="49.517695" lon="21.450603"></trkpt><trkpt lat="49.51793" lon="21.451217"></trkpt><trkpt lat="49.518006" lon="21.451519"></trkpt><trkpt lat="49.518138" lon="21.452797"></trkpt><trkpt lat="49.518586" lon="21.455743"></trkpt><trkpt lat="49.518976" lon="21.457317"></trkpt><trkpt lat="49.519099" lon="21.458003"></trkpt><trkpt lat="49.519324" lon="21.459955"></trkpt><trkpt lat="49.5192" lon="21.46139"></trkpt><trkpt lat="49.519108" lon="21.463988"></trkpt><trkpt lat="49.519226" lon="21.464284"></trkpt><trkpt lat="49.519951" lon="21.465246"></trkpt><trkpt lat="49.520105" lon="21.465514"></trkpt><trkpt lat="49.520219" lon="21.465848"></trkpt><trkpt lat="49.520277" lon="21.46622"></trkpt><trkpt lat="49.521751" lon="21.472665"></trkpt><trkpt lat="49.521914" lon="21.473066"></trkpt><trkpt lat="49.521975" lon="21.473704"></trkpt><trkpt lat="49.521853" lon="21.474429"></trkpt><trkpt lat="49.521705" lon="21.474961"></trkpt><trkpt lat="49.521563" lon="21.475248"></trkpt><trkpt lat="49.521108" lon="21.475854"></trkpt><trkpt lat="49.520836" lon="21.476273"></trkpt><trkpt lat="49.520705" lon="21.476602"></trkpt><trkpt lat="49.520527" lon="21.478185"></trkpt><trkpt lat="49.520142" lon="21.480358"></trkpt><trkpt lat="49.519971" lon="21.480796"></trkpt><trkpt lat="49.519004" lon="21.484164"></trkpt><trkpt lat="49.517633" lon="21.488136"></trkpt><trkpt lat="49.516886" lon="21.488838"></trkpt><trkpt lat="49.516144" lon="21.489944"></trkpt><trkpt lat="49.515616" lon="21.491106"></trkpt><trkpt lat="49.515371" lon="21.491762"></trkpt><trkpt lat="49.51525" lon="21.492401"></trkpt><trkpt lat="49.514722" lon="21.494591"></trkpt><trkpt lat="49.514525" lon="21.495135"></trkpt><trkpt lat="49.513978" lon="21.496169"></trkpt><trkpt lat="49.514012" lon="21.49658"></trkpt><trkpt lat="49.513954" lon="21.496928"></trkpt></trkseg></trk></gpx>