<?xml version="1.0" encoding="UTF-8" standalone="no" ?><gpx xmlns="http://www.topografix.com/GPX/1/1" xmlns:gpxx="http://www.garmin.com/xmlschemas/GpxExtensions/v3" ><trk><trkseg><trkpt lat="52.4566133134" lon="16.9531458244"></trkpt><trkpt lat="52.4568609986" lon="16.9528581575"></trkpt><trkpt lat="52.4568518624" lon="16.9533718005"></trkpt><trkpt lat="52.4570339173" lon="16.9537537638"></trkpt><trkpt lat="52.4572816864" lon="16.9544496294"></trkpt><trkpt lat="52.457353184" lon="16.9550332613"></trkpt><trkpt lat="52.457452761" lon="16.9554649293"></trkpt><trkpt lat="52.4574943352" lon="16.9560767245"></trkpt><trkpt lat="52.4575997796" lon="16.9567480311"></trkpt><trkpt lat="52.4580790568" lon="16.9570372906"></trkpt><trkpt lat="52.4580777157" lon="16.9575324096"></trkpt><trkpt lat="52.4579744507" lon="16.9581773132"></trkpt><trkpt lat="52.4579308648" lon="16.9588218816"></trkpt><trkpt lat="52.4579881132" lon="16.9593190961"></trkpt><trkpt lat="52.458080817" lon="16.9598112814"></trkpt><trkpt lat="52.4581460282" lon="16.9605213124"></trkpt><trkpt lat="52.4583114032" lon="16.9667776488"></trkpt><trkpt lat="52.4580640532" lon="16.967004044"></trkpt><trkpt lat="52.4577921443" lon="16.9669268467"></trkpt><trkpt lat="52.4568585679" lon="16.9674394"></trkpt><trkpt lat="52.4566030037" lon="16.9676410686"></trkpt><trkpt lat="52.4564058613" lon="16.9679478463"></trkpt><trkpt lat="52.4561311863" lon="16.9677882548"></trkpt><trkpt lat="52.4558163621" lon="16.9677926134"></trkpt><trkpt lat="52.4553681817" lon="16.9677183498"></trkpt><trkpt lat="52.4549224321" lon="16.9677090459"></trkpt><trkpt lat="52.4545288179" lon="16.9675318524"></trkpt><trkpt lat="52.4545506947" lon="16.9669556804"></trkpt><trkpt lat="52.4545358587" lon="16.9665067457"></trkpt><trkpt lat="52.4545738287" lon="16.9659840502"></trkpt><trkpt lat="52.4545777682" lon="16.9654773641"></trkpt><trkpt lat="52.4547892436" lon="16.9620426279"></trkpt><trkpt lat="52.4550500885" lon="16.9616759196"></trkpt><trkpt lat="52.4557343032" lon="16.9604512397"></trkpt><trkpt lat="52.4559176993" lon="16.9597608224"></trkpt><trkpt lat="52.4560259935" lon="16.9591457583"></trkpt><trkpt lat="52.4564384669" lon="16.9577069208"></trkpt><trkpt lat="52.4565020017" lon="16.9570135698"></trkpt><trkpt lat="52.4565183464" lon="16.9565550797"></trkpt><trkpt lat="52.4566522893" lon="16.9551206846"></trkpt><trkpt lat="52.4567590747" lon="16.9544907007"></trkpt><trkpt lat="52.4567846395" lon="16.953985272"></trkpt><trkpt lat="52.456777012" lon="16.9527615141"></trkpt><trkpt lat="52.4566727411" lon="16.9522834942"></trkpt></trkseg></trk></gpx>