<?xml version="1.0" encoding="UTF-8" standalone="no" ?><gpx xmlns="http://www.topografix.com/GPX/1/1" xmlns:gpxx="http://www.garmin.com/xmlschemas/GpxExtensions/v3" ><trk><trkseg><trkpt lat="50.784623" lon="17.0604"></trkpt><trkpt lat="50.784962" lon="17.060566"></trkpt><trkpt lat="50.785019" lon="17.060958"></trkpt><trkpt lat="50.785046" lon="17.061583"></trkpt><trkpt lat="50.784718" lon="17.061826"></trkpt><trkpt lat="50.784259" lon="17.062086"></trkpt><trkpt lat="50.780159" lon="17.063654"></trkpt><trkpt lat="50.779874" lon="17.063424"></trkpt><trkpt lat="50.780345" lon="17.063944"></trkpt><trkpt lat="50.780468" lon="17.064609"></trkpt><trkpt lat="50.780343" lon="17.06503"></trkpt><trkpt lat="50.778861" lon="17.069203"></trkpt><trkpt lat="50.778377" lon="17.069817"></trkpt><trkpt lat="50.777532" lon="17.071052"></trkpt><trkpt lat="50.777289" lon="17.071999"></trkpt><trkpt lat="50.777152" lon="17.072297"></trkpt><trkpt lat="50.776679" lon="17.071897"></trkpt><trkpt lat="50.776446" lon="17.071876"></trkpt><trkpt lat="50.775905" lon="17.072084"></trkpt><trkpt lat="50.775627" lon="17.07226"></trkpt><trkpt lat="50.775086" lon="17.07253"></trkpt><trkpt lat="50.772848" lon="17.07338"></trkpt><trkpt lat="50.768953" lon="17.075417"></trkpt><trkpt lat="50.76849" lon="17.075724"></trkpt><trkpt lat="50.740494" lon="17.090739"></trkpt><trkpt lat="50.740085" lon="17.090771"></trkpt><trkpt lat="50.738712" lon="17.091046"></trkpt><trkpt lat="50.738255" lon="17.091213"></trkpt><trkpt lat="50.737973" lon="17.091283"></trkpt><trkpt lat="50.73762" lon="17.091287"></trkpt><trkpt lat="50.73496" lon="17.091708"></trkpt><trkpt lat="50.734717" lon="17.091777"></trkpt><trkpt lat="50.734126" lon="17.091684"></trkpt><trkpt lat="50.733902" lon="17.091589"></trkpt><trkpt lat="50.732992" lon="17.091321"></trkpt><trkpt lat="50.732728" lon="17.091338"></trkpt><trkpt lat="50.731262" lon="17.090815"></trkpt><trkpt lat="50.731617" lon="17.090535"></trkpt><trkpt lat="50.732099" lon="17.090085"></trkpt><trkpt lat="50.732182" lon="17.089731"></trkpt><trkpt lat="50.732185" lon="17.089044"></trkpt><trkpt lat="50.732157" lon="17.088356"></trkpt><trkpt lat="50.732092" lon="17.087655"></trkpt><trkpt lat="50.732051" lon="17.086557"></trkpt><trkpt lat="50.732165" lon="17.086108"></trkpt><trkpt lat="50.732374" lon="17.085711"></trkpt><trkpt lat="50.732554" lon="17.08543"></trkpt><trkpt lat="50.73341" lon="17.08428"></trkpt><trkpt lat="50.733633" lon="17.084094"></trkpt><trkpt lat="50.733905" lon="17.083801"></trkpt><trkpt lat="50.734153" lon="17.08358"></trkpt><trkpt lat="50.734424" lon="17.083443"></trkpt><trkpt lat="50.734793" lon="17.083468"></trkpt><trkpt lat="50.73512" lon="17.083577"></trkpt><trkpt lat="50.735335" lon="17.083604"></trkpt><trkpt lat="50.735314" lon="17.083105"></trkpt><trkpt lat="50.734967" lon="17.082353"></trkpt><trkpt lat="50.734851" lon="17.081994"></trkpt><trkpt lat="50.734719" lon="17.081653"></trkpt><trkpt lat="50.734527" lon="17.081028"></trkpt><trkpt lat="50.734412" lon="17.080502"></trkpt><trkpt lat="50.734419" lon="17.079415"></trkpt><trkpt lat="50.734272" lon="17.07602"></trkpt><trkpt lat="50.733907" lon="17.072175"></trkpt><trkpt lat="50.733655" lon="17.070634"></trkpt><trkpt lat="50.733495" lon="17.070047"></trkpt><trkpt lat="50.733127" lon="17.069393"></trkpt><trkpt lat="50.732774" lon="17.068885"></trkpt><trkpt lat="50.732457" lon="17.06852"></trkpt><trkpt lat="50.732315" lon="17.068297"></trkpt><trkpt lat="50.732215" lon="17.067988"></trkpt><trkpt lat="50.731652" lon="17.065444"></trkpt><trkpt lat="50.731588" lon="17.064793"></trkpt><trkpt lat="50.731423" lon="17.061203"></trkpt><trkpt lat="50.731471" lon="17.060679"></trkpt><trkpt lat="50.731571" lon="17.058426"></trkpt><trkpt lat="50.731502" lon="17.058028"></trkpt><trkpt lat="50.731308" lon="17.057393"></trkpt><trkpt lat="50.731159" lon="17.057115"></trkpt><trkpt lat="50.73076" lon="17.056754"></trkpt><trkpt lat="50.730435" lon="17.056101"></trkpt><trkpt lat="50.730276" lon="17.055584"></trkpt><trkpt lat="50.730179" lon="17.054988"></trkpt><trkpt lat="50.730158" lon="17.05429"></trkpt><trkpt lat="50.730198" lon="17.053752"></trkpt><trkpt lat="50.730198" lon="17.053406"></trkpt><trkpt lat="50.730137" lon="17.052127"></trkpt><trkpt lat="50.730041" lon="17.051448"></trkpt><trkpt lat="50.730033" lon="17.051092"></trkpt><trkpt lat="50.730072" lon="17.05064"></trkpt><trkpt lat="50.730089" lon="17.050161"></trkpt><trkpt lat="50.730148" lon="17.049664"></trkpt><trkpt lat="50.73026" lon="17.04921"></trkpt><trkpt lat="50.730358" lon="17.048141"></trkpt><trkpt lat="50.73034" lon="17.047674"></trkpt><trkpt lat="50.730426" lon="17.036214"></trkpt><trkpt lat="50.730667" lon="17.035098"></trkpt><trkpt lat="50.730828" lon="17.03375"></trkpt><trkpt lat="50.730793" lon="17.033317"></trkpt><trkpt lat="50.730683" lon="17.03289"></trkpt><trkpt lat="50.730468" lon="17.031712"></trkpt><trkpt lat="50.730482" lon="17.031272"></trkpt><trkpt lat="50.730759" lon="17.029812"></trkpt><trkpt lat="50.731287" lon="17.026024"></trkpt><trkpt lat="50.731064" lon="17.025929"></trkpt><trkpt lat="50.730452" lon="17.025951"></trkpt><trkpt lat="50.728858" lon="17.025688"></trkpt><trkpt lat="50.728762" lon="17.025411"></trkpt><trkpt lat="50.728657" lon="17.024449"></trkpt><trkpt lat="50.728414" lon="17.023057"></trkpt><trkpt lat="50.728088" lon="17.022086"></trkpt><trkpt lat="50.727463" lon="17.019653"></trkpt><trkpt lat="50.727483" lon="17.019334"></trkpt><trkpt lat="50.727388" lon="17.017393"></trkpt><trkpt lat="50.727276" lon="17.017082"></trkpt><trkpt lat="50.726544" lon="17.016295"></trkpt><trkpt lat="50.726158" lon="17.015989"></trkpt><trkpt lat="50.725451" lon="17.015803"></trkpt><trkpt lat="50.720866" lon="17.013638"></trkpt><trkpt lat="50.720871" lon="17.012758"></trkpt><trkpt lat="50.720781" lon="17.011987"></trkpt><trkpt lat="50.720775" lon="17.011376"></trkpt><trkpt lat="50.720803" lon="17.010846"></trkpt><trkpt lat="50.720864" lon="17.010376"></trkpt><trkpt lat="50.721006" lon="17.009857"></trkpt><trkpt lat="50.721159" lon="17.009498"></trkpt><trkpt lat="50.722069" lon="17.006926"></trkpt><trkpt lat="50.722244" lon="17.005701"></trkpt><trkpt lat="50.723977" lon="16.996756"></trkpt><trkpt lat="50.724378" lon="16.99574"></trkpt><trkpt lat="50.724639" lon="16.9948"></trkpt><trkpt lat="50.72487" lon="16.993624"></trkpt><trkpt lat="50.724924" lon="16.993096"></trkpt><trkpt lat="50.725566" lon="16.981213"></trkpt><trkpt lat="50.725543" lon="16.980317"></trkpt><trkpt lat="50.724747" lon="16.972767"></trkpt><trkpt lat="50.724431" lon="16.972093"></trkpt><trkpt lat="50.724415" lon="16.971258"></trkpt><trkpt lat="50.724577" lon="16.970828"></trkpt><trkpt lat="50.724584" lon="16.970385"></trkpt><trkpt lat="50.724507" lon="16.969849"></trkpt><trkpt lat="50.724152" lon="16.965326"></trkpt><trkpt lat="50.724255" lon="16.964878"></trkpt><trkpt lat="50.724639" lon="16.962354"></trkpt><trkpt lat="50.724588" lon="16.960996"></trkpt><trkpt lat="50.72447" lon="16.960221"></trkpt><trkpt lat="50.724125" lon="16.956551"></trkpt><trkpt lat="50.724103" lon="16.955407"></trkpt><trkpt lat="50.723628" lon="16.951493"></trkpt><trkpt lat="50.723202" lon="16.950596"></trkpt><trkpt lat="50.723025" lon="16.950388"></trkpt><trkpt lat="50.72289" lon="16.950083"></trkpt><trkpt lat="50.722847" lon="16.9497"></trkpt><trkpt lat="50.72313" lon="16.948163"></trkpt><trkpt lat="50.723221" lon="16.947879"></trkpt><trkpt lat="50.723485" lon="16.946822"></trkpt><trkpt lat="50.723672" lon="16.945624"></trkpt><trkpt lat="50.723595" lon="16.944204"></trkpt><trkpt lat="50.723606" lon="16.943539"></trkpt><trkpt lat="50.723802" lon="16.942681"></trkpt><trkpt lat="50.723896" lon="16.942355"></trkpt><trkpt lat="50.724772" lon="16.940102"></trkpt><trkpt lat="50.725235" lon="16.939493"></trkpt><trkpt lat="50.72539" lon="16.939103"></trkpt><trkpt lat="50.725451" lon="16.938801"></trkpt><trkpt lat="50.725528" lon="16.938141"></trkpt><trkpt lat="50.725616" lon="16.93669"></trkpt><trkpt lat="50.725456" lon="16.936314"></trkpt><trkpt lat="50.72521" lon="16.935609"></trkpt><trkpt lat="50.725295" lon="16.935268"></trkpt><trkpt lat="50.725511" lon="16.935041"></trkpt><trkpt lat="50.726639" lon="16.934575"></trkpt><trkpt lat="50.728488" lon="16.9335"></trkpt><trkpt lat="50.728694" lon="16.93292"></trkpt><trkpt lat="50.72898" lon="16.932241"></trkpt><trkpt lat="50.72918" lon="16.931976"></trkpt><trkpt lat="50.729299" lon="16.931622"></trkpt><trkpt lat="50.729289" lon="16.930324"></trkpt><trkpt lat="50.72937" lon="16.929926"></trkpt><trkpt lat="50.729522" lon="16.929597"></trkpt><trkpt lat="50.729723" lon="16.929254"></trkpt><trkpt lat="50.730852" lon="16.926896"></trkpt><trkpt lat="50.730884" lon="16.92652"></trkpt><trkpt lat="50.730934" lon="16.926155"></trkpt><trkpt lat="50.730959" lon="16.925782"></trkpt><trkpt lat="50.730963" lon="16.925351"></trkpt><trkpt lat="50.730781" lon="16.920511"></trkpt><trkpt lat="50.730035" lon="16.912077"></trkpt><trkpt lat="50.729475" lon="16.911202"></trkpt><trkpt lat="50.729388" lon="16.910864"></trkpt><trkpt lat="50.729474" lon="16.910543"></trkpt><trkpt lat="50.729726" lon="16.909853"></trkpt><trkpt lat="50.729973" lon="16.909547"></trkpt><trkpt lat="50.730269" lon="16.909246"></trkpt><trkpt lat="50.730935" lon="16.908433"></trkpt><trkpt lat="50.730908" lon="16.908115"></trkpt><trkpt lat="50.730679" lon="16.907485"></trkpt><trkpt lat="50.730069" lon="16.90549"></trkpt><trkpt lat="50.73029" lon="16.905325"></trkpt><trkpt lat="50.730511" lon="16.905315"></trkpt><trkpt lat="50.730699" lon="16.905137"></trkpt><trkpt lat="50.730792" lon="16.904827"></trkpt><trkpt lat="50.73077" lon="16.903453"></trkpt><trkpt lat="50.730579" lon="16.900414"></trkpt><trkpt lat="50.730512" lon="16.899999"></trkpt><trkpt lat="50.728993" lon="16.892789"></trkpt><trkpt lat="50.728729" lon="16.891981"></trkpt><trkpt lat="50.72758" lon="16.889293"></trkpt><trkpt lat="50.727185" lon="16.888768"></trkpt><trkpt lat="50.726758" lon="16.888285"></trkpt><trkpt lat="50.725972" lon="16.887148"></trkpt><trkpt lat="50.72574" lon="16.886867"></trkpt><trkpt lat="50.725237" lon="16.886604"></trkpt><trkpt lat="50.72289" lon="16.885076"></trkpt><trkpt lat="50.722528" lon="16.884755"></trkpt><trkpt lat="50.722164" lon="16.884333"></trkpt><trkpt lat="50.720638" lon="16.882126"></trkpt><trkpt lat="50.720331" lon="16.881788"></trkpt><trkpt lat="50.720022" lon="16.881588"></trkpt><trkpt lat="50.719675" lon="16.881189"></trkpt><trkpt lat="50.719351" lon="16.88063"></trkpt><trkpt lat="50.718969" lon="16.879769"></trkpt><trkpt lat="50.718895" lon="16.879305"></trkpt><trkpt lat="50.71884" lon="16.87879"></trkpt><trkpt lat="50.717148" lon="16.870451"></trkpt><trkpt lat="50.716729" lon="16.869615"></trkpt><trkpt lat="50.716615" lon="16.869301"></trkpt><trkpt lat="50.715856" lon="16.866804"></trkpt><trkpt lat="50.71588" lon="16.866242"></trkpt><trkpt lat="50.715873" lon="16.865113"></trkpt><trkpt lat="50.715706" lon="16.864106"></trkpt><trkpt lat="50.715515" lon="16.863509"></trkpt><trkpt lat="50.715186" lon="16.862681"></trkpt><trkpt lat="50.714685" lon="16.8617"></trkpt><trkpt lat="50.714401" lon="16.861015"></trkpt><trkpt lat="50.714349" lon="16.860704"></trkpt><trkpt lat="50.714331" lon="16.860385"></trkpt><trkpt lat="50.714133" lon="16.859094"></trkpt><trkpt lat="50.713958" lon="16.858437"></trkpt><trkpt lat="50.713797" lon="16.85796"></trkpt><trkpt lat="50.713548" lon="16.8574"></trkpt><trkpt lat="50.71322" lon="16.856448"></trkpt><trkpt lat="50.713084" lon="16.85528"></trkpt><trkpt lat="50.713075" lon="16.854406"></trkpt><trkpt lat="50.713132" lon="16.854075"></trkpt><trkpt lat="50.713254" lon="16.853811"></trkpt><trkpt lat="50.713508" lon="16.853686"></trkpt><trkpt lat="50.713742" lon="16.853852"></trkpt><trkpt lat="50.713917" lon="16.854164"></trkpt><trkpt lat="50.71414" lon="16.854347"></trkpt><trkpt lat="50.714336" lon="16.854227"></trkpt><trkpt lat="50.714377" lon="16.853889"></trkpt><trkpt lat="50.714338" lon="16.853492"></trkpt><trkpt lat="50.714188" lon="16.852477"></trkpt><trkpt lat="50.714085" lon="16.850887"></trkpt><trkpt lat="50.714132" lon="16.850285"></trkpt><trkpt lat="50.714149" lon="16.849563"></trkpt><trkpt lat="50.714011" lon="16.848639"></trkpt><trkpt lat="50.713872" lon="16.846684"></trkpt><trkpt lat="50.713885" lon="16.846252"></trkpt><trkpt lat="50.713807" lon="16.843086"></trkpt><trkpt lat="50.713635" lon="16.842643"></trkpt><trkpt lat="50.71351" lon="16.842178"></trkpt><trkpt lat="50.713524" lon="16.841827"></trkpt><trkpt lat="50.713645" lon="16.841124"></trkpt><trkpt lat="50.713903" lon="16.840054"></trkpt><trkpt lat="50.714122" lon="16.839626"></trkpt><trkpt lat="50.714234" lon="16.839121"></trkpt><trkpt lat="50.714267" lon="16.83872"></trkpt><trkpt lat="50.714345" lon="16.838277"></trkpt><trkpt lat="50.714885" lon="16.835875"></trkpt><trkpt lat="50.714952" lon="16.835273"></trkpt><trkpt lat="50.715057" lon="16.834729"></trkpt><trkpt lat="50.715401" lon="16.835031"></trkpt><trkpt lat="50.715844" lon="16.83519"></trkpt><trkpt lat="50.716141" lon="16.835148"></trkpt><trkpt lat="50.716451" lon="16.835026"></trkpt><trkpt lat="50.716659" lon="16.834823"></trkpt><trkpt lat="50.716033" lon="16.834712"></trkpt><trkpt lat="50.715791" lon="16.834957"></trkpt><trkpt lat="50.715978" lon="16.835097"></trkpt><trkpt lat="50.716182" lon="16.835153"></trkpt><trkpt lat="50.716278" lon="16.834877"></trkpt><trkpt lat="50.716522" lon="16.835044"></trkpt><trkpt lat="50.716818" lon="16.835008"></trkpt><trkpt lat="50.71719" lon="16.835004"></trkpt><trkpt lat="50.717657" lon="16.834932"></trkpt><trkpt lat="50.718168" lon="16.835156"></trkpt><trkpt lat="50.718232" lon="16.835573"></trkpt><trkpt lat="50.71842" lon="16.835754"></trkpt><trkpt lat="50.718642" lon="16.835821"></trkpt><trkpt lat="50.719237" lon="16.835882"></trkpt><trkpt lat="50.719594" lon="16.835756"></trkpt><trkpt lat="50.719811" lon="16.835536"></trkpt><trkpt lat="50.719937" lon="16.835249"></trkpt><trkpt lat="50.719978" lon="16.834836"></trkpt><trkpt lat="50.719895" lon="16.834408"></trkpt><trkpt lat="50.719732" lon="16.834172"></trkpt><trkpt lat="50.719904" lon="16.834442"></trkpt><trkpt lat="50.720001" lon="16.834722"></trkpt><trkpt lat="50.719983" lon="16.835054"></trkpt><trkpt lat="50.720379" lon="16.834724"></trkpt><trkpt lat="50.720598" lon="16.834504"></trkpt><trkpt lat="50.72121" lon="16.833779"></trkpt><trkpt lat="50.721475" lon="16.833538"></trkpt><trkpt lat="50.72167" lon="16.833451"></trkpt><trkpt lat="50.721979" lon="16.833483"></trkpt><trkpt lat="50.722187" lon="16.833569"></trkpt><trkpt lat="50.722533" lon="16.833829"></trkpt><trkpt lat="50.728954" lon="16.837665"></trkpt><trkpt lat="50.731866" lon="16.836311"></trkpt><trkpt lat="50.732109" lon="16.836393"></trkpt><trkpt lat="50.732439" lon="16.836458"></trkpt><trkpt lat="50.73272" lon="16.836441"></trkpt><trkpt lat="50.733413" lon="16.836569"></trkpt><trkpt lat="50.734054" lon="16.836775"></trkpt><trkpt lat="50.735938" lon="16.837618"></trkpt><trkpt lat="50.738632" lon="16.839334"></trkpt><trkpt lat="50.739883" lon="16.839822"></trkpt><trkpt lat="50.740066" lon="16.839702"></trkpt><trkpt lat="50.740156" lon="16.839018"></trkpt><trkpt lat="50.740264" lon="16.838568"></trkpt><trkpt lat="50.740494" lon="16.838033"></trkpt><trkpt lat="50.740758" lon="16.837604"></trkpt><trkpt lat="50.744619" lon="16.829456"></trkpt><trkpt lat="50.744302" lon="16.828823"></trkpt><trkpt lat="50.743367" lon="16.826647"></trkpt><trkpt lat="50.743205" lon="16.826049"></trkpt><trkpt lat="50.740399" lon="16.817469"></trkpt><trkpt lat="50.738643" lon="16.81293"></trkpt><trkpt lat="50.73705" lon="16.807956"></trkpt><trkpt lat="50.737089" lon="16.807547"></trkpt><trkpt lat="50.737354" lon="16.805956"></trkpt><trkpt lat="50.737497" lon="16.805614"></trkpt><trkpt lat="50.737623" lon="16.805227"></trkpt><trkpt lat="50.737858" lon="16.804933"></trkpt><trkpt lat="50.738059" lon="16.804722"></trkpt><trkpt lat="50.739788" lon="16.803443"></trkpt><trkpt lat="50.740146" lon="16.803411"></trkpt><trkpt lat="50.74042" lon="16.803291"></trkpt><trkpt lat="50.740757" lon="16.803211"></trkpt><trkpt lat="50.741575" lon="16.802892"></trkpt><trkpt lat="50.741923" lon="16.802688"></trkpt><trkpt lat="50.744293" lon="16.800888"></trkpt><trkpt lat="50.744503" lon="16.800623"></trkpt><trkpt lat="50.744658" lon="16.800393"></trkpt><trkpt lat="50.745117" lon="16.799819"></trkpt><trkpt lat="50.74549" lon="16.800053"></trkpt><trkpt lat="50.745885" lon="16.800251"></trkpt><trkpt lat="50.747193" lon="16.800732"></trkpt><trkpt lat="50.747432" lon="16.8007"></trkpt><trkpt lat="50.759366" lon="16.79697"></trkpt><trkpt lat="50.759342" lon="16.796046"></trkpt><trkpt lat="50.758768" lon="16.78982"></trkpt><trkpt lat="50.758692" lon="16.789314"></trkpt><trkpt lat="50.758487" lon="16.788376"></trkpt><trkpt lat="50.758426" lon="16.787459"></trkpt><trkpt lat="50.758431" lon="16.787058"></trkpt><trkpt lat="50.758538" lon="16.786522"></trkpt><trkpt lat="50.758702" lon="16.786291"></trkpt><trkpt lat="50.75913" lon="16.786114"></trkpt><trkpt lat="50.7593" lon="16.785864"></trkpt><trkpt lat="50.759367" lon="16.785567"></trkpt><trkpt lat="50.759412" lon="16.784373"></trkpt><trkpt lat="50.759822" lon="16.779741"></trkpt><trkpt lat="50.760176" lon="16.778757"></trkpt><trkpt lat="50.760658" lon="16.777018"></trkpt><trkpt lat="50.760943" lon="16.776235"></trkpt><trkpt lat="50.761163" lon="16.775379"></trkpt><trkpt lat="50.761326" lon="16.774874"></trkpt><trkpt lat="50.761802" lon="16.774319"></trkpt><trkpt lat="50.762061" lon="16.773791"></trkpt><trkpt lat="50.762318" lon="16.773137"></trkpt><trkpt lat="50.764144" lon="16.767573"></trkpt><trkpt lat="50.764235" lon="16.766878"></trkpt><trkpt lat="50.764346" lon="16.766287"></trkpt><trkpt lat="50.764503" lon="16.765761"></trkpt><trkpt lat="50.765151" lon="16.762979"></trkpt><trkpt lat="50.765073" lon="16.761548"></trkpt><trkpt lat="50.76469" lon="16.758315"></trkpt><trkpt lat="50.764602" lon="16.757859"></trkpt><trkpt lat="50.764543" lon="16.757308"></trkpt><trkpt lat="50.764592" lon="16.756321"></trkpt><trkpt lat="50.764743" lon="16.754915"></trkpt><trkpt lat="50.764982" lon="16.750886"></trkpt><trkpt lat="50.765077" lon="16.750261"></trkpt><trkpt lat="50.765247" lon="16.749445"></trkpt><trkpt lat="50.765485" lon="16.748566"></trkpt><trkpt lat="50.766984" lon="16.741184"></trkpt><trkpt lat="50.764824" lon="16.72668"></trkpt><trkpt lat="50.764576" lon="16.726228"></trkpt><trkpt lat="50.764088" lon="16.725098"></trkpt><trkpt lat="50.76395" lon="16.724446"></trkpt><trkpt lat="50.763788" lon="16.723351"></trkpt><trkpt lat="50.763566" lon="16.7223"></trkpt><trkpt lat="50.763428" lon="16.722016"></trkpt><trkpt lat="50.763584" lon="16.722303"></trkpt><trkpt lat="50.763831" lon="16.722438"></trkpt><trkpt lat="50.764083" lon="16.722499"></trkpt><trkpt lat="50.766432" lon="16.72247"></trkpt><trkpt lat="50.767157" lon="16.721992"></trkpt><trkpt lat="50.768335" lon="16.721033"></trkpt><trkpt lat="50.770614" lon="16.719778"></trkpt><trkpt lat="50.77132" lon="16.719742"></trkpt><trkpt lat="50.772192" lon="16.720043"></trkpt><trkpt lat="50.773637" lon="16.720984"></trkpt><trkpt lat="50.774607" lon="16.721815"></trkpt><trkpt lat="50.775883" lon="16.722698"></trkpt><trkpt lat="50.776613" lon="16.722746"></trkpt><trkpt lat="50.778359" lon="16.723088"></trkpt><trkpt lat="50.779122" lon="16.723636"></trkpt><trkpt lat="50.780062" lon="16.724156"></trkpt><trkpt lat="50.780816" lon="16.724151"></trkpt><trkpt lat="50.781328" lon="16.723985"></trkpt><trkpt lat="50.781726" lon="16.723999"></trkpt><trkpt lat="50.78192" lon="16.724251"></trkpt><trkpt lat="50.782114" lon="16.725823"></trkpt><trkpt lat="50.782178" lon="16.726145"></trkpt><trkpt lat="50.782299" lon="16.72645"></trkpt><trkpt lat="50.782566" lon="16.726939"></trkpt><trkpt lat="50.782883" lon="16.727821"></trkpt><trkpt lat="50.783015" lon="16.72813"></trkpt><trkpt lat="50.783194" lon="16.728358"></trkpt><trkpt lat="50.783387" lon="16.728518"></trkpt><trkpt lat="50.783805" lon="16.728648"></trkpt><trkpt lat="50.785732" lon="16.729533"></trkpt><trkpt lat="50.785941" lon="16.72993"></trkpt><trkpt lat="50.786888" lon="16.731207"></trkpt><trkpt lat="50.787687" lon="16.731833"></trkpt><trkpt lat="50.791289" lon="16.734093"></trkpt><trkpt lat="50.791542" lon="16.733059"></trkpt><trkpt lat="50.791735" lon="16.732068"></trkpt><trkpt lat="50.796001" lon="16.703048"></trkpt><trkpt lat="50.795777" lon="16.701988"></trkpt><trkpt lat="50.795775" lon="16.701633"></trkpt><trkpt lat="50.795948" lon="16.700996"></trkpt><trkpt lat="50.796103" lon="16.700776"></trkpt><trkpt lat="50.796302" lon="16.700668"></trkpt><trkpt lat="50.796931" lon="16.700239"></trkpt><trkpt lat="50.797079" lon="16.699797"></trkpt><trkpt lat="50.797178" lon="16.698724"></trkpt><trkpt lat="50.797872" lon="16.694015"></trkpt><trkpt lat="50.798196" lon="16.693049"></trkpt><trkpt lat="50.798432" lon="16.692049"></trkpt><trkpt lat="50.799194" lon="16.687964"></trkpt><trkpt lat="50.799231" lon="16.687634"></trkpt><trkpt lat="50.799603" lon="16.686259"></trkpt><trkpt lat="50.799643" lon="16.685856"></trkpt><trkpt lat="50.799521" lon="16.684874"></trkpt><trkpt lat="50.799454" lon="16.682953"></trkpt><trkpt lat="50.79957" lon="16.681984"></trkpt><trkpt lat="50.799672" lon="16.679297"></trkpt><trkpt lat="50.799789" lon="16.678037"></trkpt><trkpt lat="50.800168" lon="16.677063"></trkpt><trkpt lat="50.800524" lon="16.675894"></trkpt><trkpt lat="50.800785" lon="16.674648"></trkpt><trkpt lat="50.801321" lon="16.672708"></trkpt><trkpt lat="50.801788" lon="16.672108"></trkpt><trkpt lat="50.802303" lon="16.671727"></trkpt><trkpt lat="50.809382" lon="16.665452"></trkpt><trkpt lat="50.809974" lon="16.664796"></trkpt><trkpt lat="50.810437" lon="16.664161"></trkpt><trkpt lat="50.810873" lon="16.663316"></trkpt><trkpt lat="50.811276" lon="16.662393"></trkpt><trkpt lat="50.812766" lon="16.658384"></trkpt><trkpt lat="50.812857" lon="16.658039"></trkpt><trkpt lat="50.81305" lon="16.657846"></trkpt><trkpt lat="50.81331" lon="16.658387"></trkpt><trkpt lat="50.813393" lon="16.658691"></trkpt><trkpt lat="50.814006" lon="16.660528"></trkpt><trkpt lat="50.814414" lon="16.661306"></trkpt><trkpt lat="50.815393" lon="16.662916"></trkpt><trkpt lat="50.815622" lon="16.662915"></trkpt><trkpt lat="50.816482" lon="16.662733"></trkpt><trkpt lat="50.817375" lon="16.662644"></trkpt><trkpt lat="50.817594" lon="16.662933"></trkpt><trkpt lat="50.817819" lon="16.663323"></trkpt><trkpt lat="50.818065" lon="16.663417"></trkpt><trkpt lat="50.818755" lon="16.662998"></trkpt><trkpt lat="50.81928" lon="16.662356"></trkpt><trkpt lat="50.819463" lon="16.662202"></trkpt><trkpt lat="50.819664" lon="16.662107"></trkpt><trkpt lat="50.819958" lon="16.661928"></trkpt><trkpt lat="50.820106" lon="16.661706"></trkpt><trkpt lat="50.820352" lon="16.661226"></trkpt><trkpt lat="50.820632" lon="16.660135"></trkpt><trkpt lat="50.821311" lon="16.658926"></trkpt><trkpt lat="50.822473" lon="16.657657"></trkpt><trkpt lat="50.827894" lon="16.652686"></trkpt><trkpt lat="50.828371" lon="16.65238"></trkpt><trkpt lat="50.82911" lon="16.652009"></trkpt><trkpt lat="50.834382" lon="16.648676"></trkpt><trkpt lat="50.834539" lon="16.648429"></trkpt><trkpt lat="50.834651" lon="16.648142"></trkpt><trkpt lat="50.834896" lon="16.64698"></trkpt><trkpt lat="50.834857" lon="16.646076"></trkpt><trkpt lat="50.834934" lon="16.645712"></trkpt><trkpt lat="50.835177" lon="16.645553"></trkpt><trkpt lat="50.835415" lon="16.645428"></trkpt><trkpt lat="50.835611" lon="16.645506"></trkpt><trkpt lat="50.835796" lon="16.64562"></trkpt><trkpt lat="50.83593" lon="16.645856"></trkpt><trkpt lat="50.836128" lon="16.646061"></trkpt><trkpt lat="50.836374" lon="16.646245"></trkpt><trkpt lat="50.837102" lon="16.64585"></trkpt><trkpt lat="50.8388" lon="16.645164"></trkpt><trkpt lat="50.839687" lon="16.645161"></trkpt><trkpt lat="50.841494" lon="16.645599"></trkpt><trkpt lat="50.841681" lon="16.646159"></trkpt><trkpt lat="50.844172" lon="16.651179"></trkpt><trkpt lat="50.8451" lon="16.65135"></trkpt><trkpt lat="50.847641" lon="16.651527"></trkpt><trkpt lat="50.848051" lon="16.651274"></trkpt><trkpt lat="50.850608" lon="16.649234"></trkpt><trkpt lat="50.851239" lon="16.648934"></trkpt><trkpt lat="50.851477" lon="16.649011"></trkpt><trkpt lat="50.852079" lon="16.649942"></trkpt><trkpt lat="50.853166" lon="16.652125"></trkpt><trkpt lat="50.853358" lon="16.652308"></trkpt><trkpt lat="50.853974" lon="16.652378"></trkpt><trkpt lat="50.85439" lon="16.652271"></trkpt><trkpt lat="50.854804" lon="16.652105"></trkpt><trkpt lat="50.855777" lon="16.651899"></trkpt><trkpt lat="50.856203" lon="16.651914"></trkpt><trkpt lat="50.86172" lon="16.651018"></trkpt><trkpt lat="50.861791" lon="16.650633"></trkpt><trkpt lat="50.861802" lon="16.650219"></trkpt><trkpt lat="50.861733" lon="16.648583"></trkpt><trkpt lat="50.861693" lon="16.648169"></trkpt><trkpt lat="50.86157" lon="16.645694"></trkpt><trkpt lat="50.861691" lon="16.645332"></trkpt><trkpt lat="50.861894" lon="16.645069"></trkpt><trkpt lat="50.863536" lon="16.642591"></trkpt><trkpt lat="50.863778" lon="16.640861"></trkpt><trkpt lat="50.864226" lon="16.639764"></trkpt><trkpt lat="50.86538" lon="16.635842"></trkpt><trkpt lat="50.865478" lon="16.634247"></trkpt><trkpt lat="50.865515" lon="16.631988"></trkpt><trkpt lat="50.86559" lon="16.631521"></trkpt><trkpt lat="50.86563" lon="16.6306"></trkpt><trkpt lat="50.866117" lon="16.627257"></trkpt><trkpt lat="50.866403" lon="16.626246"></trkpt><trkpt lat="50.867371" lon="16.623466"></trkpt><trkpt lat="50.867732" lon="16.622674"></trkpt><trkpt lat="50.868069" lon="16.621534"></trkpt><trkpt lat="50.869018" lon="16.61763"></trkpt><trkpt lat="50.868906" lon="16.618378"></trkpt><trkpt lat="50.869339" lon="16.61806"></trkpt><trkpt lat="50.869613" lon="16.617809"></trkpt><trkpt lat="50.872524" lon="16.614653"></trkpt><trkpt lat="50.873508" lon="16.613378"></trkpt><trkpt lat="50.87347" lon="16.613019"></trkpt><trkpt lat="50.873526" lon="16.612481"></trkpt><trkpt lat="50.873587" lon="16.612079"></trkpt><trkpt lat="50.873663" lon="16.611171"></trkpt><trkpt lat="50.873759" lon="16.608124"></trkpt><trkpt lat="50.873635" lon="16.606906"></trkpt><trkpt lat="50.873457" lon="16.605906"></trkpt><trkpt lat="50.873313" lon="16.605303"></trkpt><trkpt lat="50.873019" lon="16.603741"></trkpt><trkpt lat="50.873076" lon="16.603371"></trkpt><trkpt lat="50.873331" lon="16.602576"></trkpt><trkpt lat="50.873581" lon="16.601455"></trkpt><trkpt lat="50.879519" lon="16.580196"></trkpt><trkpt lat="50.879656" lon="16.579889"></trkpt><trkpt lat="50.879764" lon="16.579496"></trkpt><trkpt lat="50.879898" lon="16.579244"></trkpt><trkpt lat="50.880154" lon="16.578882"></trkpt><trkpt lat="50.880363" lon="16.578938"></trkpt><trkpt lat="50.880587" lon="16.579032"></trkpt><trkpt lat="50.880738" lon="16.578772"></trkpt><trkpt lat="50.881278" lon="16.578265"></trkpt><trkpt lat="50.881647" lon="16.577993"></trkpt><trkpt lat="50.882113" lon="16.57751"></trkpt><trkpt lat="50.882449" lon="16.577035"></trkpt><trkpt lat="50.88316" lon="16.575694"></trkpt><trkpt lat="50.884292" lon="16.573986"></trkpt><trkpt lat="50.884997" lon="16.573361"></trkpt><trkpt lat="50.886331" lon="16.571702"></trkpt><trkpt lat="50.887011" lon="16.570656"></trkpt><trkpt lat="50.887894" lon="16.569635"></trkpt><trkpt lat="50.888585" lon="16.568953"></trkpt><trkpt lat="50.88979" lon="16.568806"></trkpt><trkpt lat="50.890769" lon="16.569066"></trkpt><trkpt lat="50.8926" lon="16.569234"></trkpt><trkpt lat="50.900326" lon="16.567466"></trkpt><trkpt lat="50.900484" lon="16.567103"></trkpt><trkpt lat="50.900996" lon="16.565107"></trkpt><trkpt lat="50.901493" lon="16.562554"></trkpt><trkpt lat="50.902751" lon="16.553996"></trkpt><trkpt lat="50.902714" lon="16.553466"></trkpt><trkpt lat="50.90242" lon="16.552373"></trkpt><trkpt lat="50.901996" lon="16.551114"></trkpt><trkpt lat="50.90178" lon="16.551127"></trkpt><trkpt lat="50.901526" lon="16.55056"></trkpt><trkpt lat="50.901449" lon="16.549942"></trkpt><trkpt lat="50.90139" lon="16.549184"></trkpt><trkpt lat="50.901178" lon="16.538897"></trkpt><trkpt lat="50.901275" lon="16.538603"></trkpt><trkpt lat="50.901314" lon="16.538272"></trkpt><trkpt lat="50.901291" lon="16.537932"></trkpt><trkpt lat="50.901207" lon="16.537632"></trkpt><trkpt lat="50.901061" lon="16.537418"></trkpt><trkpt lat="50.900891" lon="16.537234"></trkpt><trkpt lat="50.900747" lon="16.537018"></trkpt><trkpt lat="50.90009" lon="16.535308"></trkpt><trkpt lat="50.899948" lon="16.534548"></trkpt><trkpt lat="50.89987" lon="16.534247"></trkpt><trkpt lat="50.899753" lon="16.533991"></trkpt><trkpt lat="50.899236" lon="16.531978"></trkpt><trkpt lat="50.899145" lon="16.530687"></trkpt><trkpt lat="50.898951" lon="16.529727"></trkpt><trkpt lat="50.898865" lon="16.52867"></trkpt><trkpt lat="50.898788" lon="16.528212"></trkpt><trkpt lat="50.898672" lon="16.527952"></trkpt><trkpt lat="50.898483" lon="16.527398"></trkpt><trkpt lat="50.898409" lon="16.526896"></trkpt><trkpt lat="50.898565" lon="16.526463"></trkpt><trkpt lat="50.898685" lon="16.526036"></trkpt><trkpt lat="50.898516" lon="16.524948"></trkpt><trkpt lat="50.898168" lon="16.521501"></trkpt><trkpt lat="50.898332" lon="16.521214"></trkpt><trkpt lat="50.898602" lon="16.520973"></trkpt><trkpt lat="50.898754" lon="16.520704"></trkpt><trkpt lat="50.899004" lon="16.519463"></trkpt><trkpt lat="50.899074" lon="16.518401"></trkpt><trkpt lat="50.899002" lon="16.517208"></trkpt><trkpt lat="50.899059" lon="16.515824"></trkpt><trkpt lat="50.899032" lon="16.515464"></trkpt><trkpt lat="50.898893" lon="16.514847"></trkpt><trkpt lat="50.898864" lon="16.513739"></trkpt><trkpt lat="50.899006" lon="16.512469"></trkpt><trkpt lat="50.899059" lon="16.511327"></trkpt><trkpt lat="50.899139" lon="16.510985"></trkpt><trkpt lat="50.899174" lon="16.510674"></trkpt><trkpt lat="50.898696" lon="16.509978"></trkpt><trkpt lat="50.89865" lon="16.509597"></trkpt><trkpt lat="50.89895" lon="16.508605"></trkpt><trkpt lat="50.899196" lon="16.508125"></trkpt><trkpt lat="50.89948" lon="16.507696"></trkpt><trkpt lat="50.899584" lon="16.507398"></trkpt><trkpt lat="50.899708" lon="16.506353"></trkpt><trkpt lat="50.899861" lon="16.505522"></trkpt><trkpt lat="50.900317" lon="16.504259"></trkpt><trkpt lat="50.900721" lon="16.504091"></trkpt><trkpt lat="50.901045" lon="16.504067"></trkpt><trkpt lat="50.90136" lon="16.504185"></trkpt><trkpt lat="50.901658" lon="16.504235"></trkpt><trkpt lat="50.902441" lon="16.504204"></trkpt><trkpt lat="50.902647" lon="16.504268"></trkpt><trkpt lat="50.903251" lon="16.504286"></trkpt><trkpt lat="50.903816" lon="16.50391"></trkpt><trkpt lat="50.904176" lon="16.503801"></trkpt><trkpt lat="50.903889" lon="16.503688"></trkpt><trkpt lat="50.903751" lon="16.50314"></trkpt><trkpt lat="50.903074" lon="16.502271"></trkpt><trkpt lat="50.902937" lon="16.502524"></trkpt><trkpt lat="50.902529" lon="16.502671"></trkpt><trkpt lat="50.902373" lon="16.502907"></trkpt><trkpt lat="50.902555" lon="16.50264"></trkpt><trkpt lat="50.902814" lon="16.502577"></trkpt><trkpt lat="50.903047" lon="16.502289"></trkpt><trkpt lat="50.903484" lon="16.50211"></trkpt><trkpt lat="50.903484" lon="16.501439"></trkpt><trkpt lat="50.903611" lon="16.502682"></trkpt><trkpt lat="50.903712" lon="16.503124"></trkpt><trkpt lat="50.903923" lon="16.503847"></trkpt><trkpt lat="50.904211" lon="16.503759"></trkpt><trkpt lat="50.904886" lon="16.503209"></trkpt><trkpt lat="50.905181" lon="16.503098"></trkpt><trkpt lat="50.90555" lon="16.50312"></trkpt><trkpt lat="50.906321" lon="16.503327"></trkpt><trkpt lat="50.907136" lon="16.503743"></trkpt><trkpt lat="50.907839" lon="16.504256"></trkpt><trkpt lat="50.915185" lon="16.508416"></trkpt><trkpt lat="50.915776" lon="16.508393"></trkpt><trkpt lat="50.920884" lon="16.507233"></trkpt><trkpt lat="50.921657" lon="16.505966"></trkpt><trkpt lat="50.922412" lon="16.504514"></trkpt><trkpt lat="50.92243" lon="16.50419"></trkpt><trkpt lat="50.922648" lon="16.502714"></trkpt><trkpt lat="50.922838" lon="16.50252"></trkpt><trkpt lat="50.92303" lon="16.502413"></trkpt><trkpt lat="50.937327" lon="16.496929"></trkpt><trkpt lat="50.937331" lon="16.497843"></trkpt><trkpt lat="50.937646" lon="16.501054"></trkpt><trkpt lat="50.938037" lon="16.50146"></trkpt><trkpt lat="50.938379" lon="16.501659"></trkpt><trkpt lat="50.93879" lon="16.501689"></trkpt><trkpt lat="50.940669" lon="16.502453"></trkpt><trkpt lat="50.940599" lon="16.503304"></trkpt><trkpt lat="50.940602" lon="16.503731"></trkpt><trkpt lat="50.940765" lon="16.504724"></trkpt><trkpt lat="50.941062" lon="16.506005"></trkpt><trkpt lat="50.941263" lon="16.506262"></trkpt><trkpt lat="50.941776" lon="16.506697"></trkpt><trkpt lat="50.942181" lon="16.507162"></trkpt><trkpt lat="50.942296" lon="16.507434"></trkpt><trkpt lat="50.942355" lon="16.507738"></trkpt><trkpt lat="50.942342" lon="16.50806"></trkpt><trkpt lat="50.942289" lon="16.508515"></trkpt><trkpt lat="50.942507" lon="16.508327"></trkpt><trkpt lat="50.942372" lon="16.50857"></trkpt><trkpt lat="50.942414" lon="16.507834"></trkpt><trkpt lat="50.942276" lon="16.507218"></trkpt><trkpt lat="50.94189" lon="16.506715"></trkpt><trkpt lat="50.94134" lon="16.506262"></trkpt><trkpt lat="50.941114" lon="16.506021"></trkpt><trkpt lat="50.940897" lon="16.505156"></trkpt><trkpt lat="50.940716" lon="16.504104"></trkpt><trkpt lat="50.94064" lon="16.503453"></trkpt><trkpt lat="50.940742" lon="16.502271"></trkpt><trkpt lat="50.940938" lon="16.495519"></trkpt><trkpt lat="50.940902" lon="16.49521"></trkpt><trkpt lat="50.940907" lon="16.49489"></trkpt><trkpt lat="50.940944" lon="16.494532"></trkpt><trkpt lat="50.94132" lon="16.494121"></trkpt><trkpt lat="50.941571" lon="16.493933"></trkpt><trkpt lat="50.941814" lon="16.493786"></trkpt><trkpt lat="50.942036" lon="16.493828"></trkpt><trkpt lat="50.942313" lon="16.493444"></trkpt><trkpt lat="50.942858" lon="16.493191"></trkpt><trkpt lat="50.943375" lon="16.493228"></trkpt><trkpt lat="50.943256" lon="16.492753"></trkpt><trkpt lat="50.943097" lon="16.492449"></trkpt><trkpt lat="50.942768" lon="16.492966"></trkpt></trkseg></trk></gpx>