<?xml version="1.0" encoding="UTF-8" standalone="no" ?><gpx xmlns="http://www.topografix.com/GPX/1/1" xmlns:gpxx="http://www.garmin.com/xmlschemas/GpxExtensions/v3" ><trk><trkseg><trkpt lat="52.477563" lon="16.783809"></trkpt><trkpt lat="52.477554" lon="16.783261"></trkpt><trkpt lat="52.477275" lon="16.782871"></trkpt><trkpt lat="52.476565" lon="16.782054"></trkpt><trkpt lat="52.476128" lon="16.782019"></trkpt><trkpt lat="52.474086" lon="16.782482"></trkpt><trkpt lat="52.474311" lon="16.782187"></trkpt><trkpt lat="52.474599" lon="16.78194"></trkpt><trkpt lat="52.474922" lon="16.78195"></trkpt><trkpt lat="52.475305" lon="16.78204"></trkpt><trkpt lat="52.475679" lon="16.782046"></trkpt><trkpt lat="52.477025" lon="16.782453"></trkpt><trkpt lat="52.477272" lon="16.782776"></trkpt><trkpt lat="52.477643" lon="16.783148"></trkpt><trkpt lat="52.477637" lon="16.78368"></trkpt><trkpt lat="52.477556" lon="16.784158"></trkpt><trkpt lat="52.477543" lon="16.785366"></trkpt><trkpt lat="52.477762" lon="16.785802"></trkpt><trkpt lat="52.47808" lon="16.786198"></trkpt><trkpt lat="52.478935" lon="16.78708"></trkpt><trkpt lat="52.479397" lon="16.786878"></trkpt><trkpt lat="52.479695" lon="16.786691"></trkpt><trkpt lat="52.48" lon="16.786411"></trkpt><trkpt lat="52.480325" lon="16.786184"></trkpt><trkpt lat="52.480624" lon="16.785819"></trkpt><trkpt lat="52.480956" lon="16.78564"></trkpt><trkpt lat="52.481377" lon="16.785754"></trkpt><trkpt lat="52.481663" lon="16.78589"></trkpt><trkpt lat="52.482329" lon="16.786324"></trkpt><trkpt lat="52.482623" lon="16.786617"></trkpt><trkpt lat="52.482884" lon="16.786768"></trkpt><trkpt lat="52.483203" lon="16.786792"></trkpt><trkpt lat="52.483488" lon="16.786721"></trkpt><trkpt lat="52.483752" lon="16.786573"></trkpt><trkpt lat="52.484148" lon="16.786619"></trkpt><trkpt lat="52.484443" lon="16.786337"></trkpt><trkpt lat="52.484705" lon="16.785954"></trkpt><trkpt lat="52.485058" lon="16.785597"></trkpt><trkpt lat="52.487376" lon="16.783709"></trkpt><trkpt lat="52.487649" lon="16.783586"></trkpt><trkpt lat="52.488027" lon="16.783542"></trkpt><trkpt lat="52.488301" lon="16.783406"></trkpt><trkpt lat="52.488026" lon="16.783577"></trkpt><trkpt lat="52.487719" lon="16.78361"></trkpt><trkpt lat="52.487323" lon="16.783767"></trkpt><trkpt lat="52.487066" lon="16.783946"></trkpt><trkpt lat="52.486735" lon="16.784244"></trkpt><trkpt lat="52.483505" lon="16.787899"></trkpt><trkpt lat="52.48346" lon="16.788396"></trkpt><trkpt lat="52.483339" lon="16.788864"></trkpt><trkpt lat="52.48305" lon="16.788796"></trkpt><trkpt lat="52.482973" lon="16.789496"></trkpt><trkpt lat="52.482947" lon="16.79"></trkpt><trkpt lat="52.482713" lon="16.790444"></trkpt><trkpt lat="52.482325" lon="16.791039"></trkpt><trkpt lat="52.482357" lon="16.791489"></trkpt><trkpt lat="52.482597" lon="16.791889"></trkpt><trkpt lat="52.486257" lon="16.799288"></trkpt><trkpt lat="52.485931" lon="16.799401"></trkpt><trkpt lat="52.485646" lon="16.799547"></trkpt><trkpt lat="52.485334" lon="16.799863"></trkpt><trkpt lat="52.485021" lon="16.800053"></trkpt><trkpt lat="52.484653" lon="16.800165"></trkpt><trkpt lat="52.484264" lon="16.800214"></trkpt><trkpt lat="52.483914" lon="16.800034"></trkpt><trkpt lat="52.483611" lon="16.799944"></trkpt><trkpt lat="52.48328" lon="16.799623"></trkpt><trkpt lat="52.483537" lon="16.79998"></trkpt><trkpt lat="52.48351" lon="16.800441"></trkpt><trkpt lat="52.483573" lon="16.800971"></trkpt><trkpt lat="52.483597" lon="16.80143"></trkpt><trkpt lat="52.483667" lon="16.802028"></trkpt><trkpt lat="52.483694" lon="16.80278"></trkpt><trkpt lat="52.483652" lon="16.803342"></trkpt><trkpt lat="52.483678" lon="16.803856"></trkpt><trkpt lat="52.483759" lon="16.804541"></trkpt><trkpt lat="52.483923" lon="16.80715"></trkpt><trkpt lat="52.483846" lon="16.80775"></trkpt><trkpt lat="52.483824" lon="16.808208"></trkpt><trkpt lat="52.483774" lon="16.80865"></trkpt><trkpt lat="52.483673" lon="16.809073"></trkpt><trkpt lat="52.48364" lon="16.809553"></trkpt><trkpt lat="52.483536" lon="16.810318"></trkpt><trkpt lat="52.483183" lon="16.814781"></trkpt><trkpt lat="52.483184" lon="16.815384"></trkpt><trkpt lat="52.482416" lon="16.829768"></trkpt><trkpt lat="52.482151" lon="16.829903"></trkpt><trkpt lat="52.480068" lon="16.830641"></trkpt><trkpt lat="52.479518" lon="16.830707"></trkpt><trkpt lat="52.478807" lon="16.83051"></trkpt><trkpt lat="52.469834" lon="16.827735"></trkpt><trkpt lat="52.466952" lon="16.826216"></trkpt><trkpt lat="52.46684" lon="16.825673"></trkpt><trkpt lat="52.466778" lon="16.825238"></trkpt><trkpt lat="52.466514" lon="16.825333"></trkpt><trkpt lat="52.466287" lon="16.825666"></trkpt><trkpt lat="52.465933" lon="16.826071"></trkpt><trkpt lat="52.465528" lon="16.826639"></trkpt><trkpt lat="52.464288" lon="16.82802"></trkpt><trkpt lat="52.464104" lon="16.828352"></trkpt><trkpt lat="52.463754" lon="16.828181"></trkpt><trkpt lat="52.463515" lon="16.827776"></trkpt><trkpt lat="52.463251" lon="16.827227"></trkpt><trkpt lat="52.462783" lon="16.826469"></trkpt><trkpt lat="52.462535" lon="16.826271"></trkpt><trkpt lat="52.462256" lon="16.826255"></trkpt><trkpt lat="52.462154" lon="16.82682"></trkpt><trkpt lat="52.462566" lon="16.826592"></trkpt><trkpt lat="52.462844" lon="16.826545"></trkpt><trkpt lat="52.463062" lon="16.826878"></trkpt><trkpt lat="52.463622" lon="16.827981"></trkpt><trkpt lat="52.463929" lon="16.828202"></trkpt><trkpt lat="52.46421" lon="16.828337"></trkpt></trkseg></trk></gpx>