<?xml version="1.0" encoding="UTF-8" standalone="no" ?><gpx xmlns="http://www.topografix.com/GPX/1/1" xmlns:gpxx="http://www.garmin.com/xmlschemas/GpxExtensions/v3" ><trk><trkseg><trkpt lat="52.1179213934" lon="16.1099546961"></trkpt><trkpt lat="52.1182028577" lon="16.1099645868"></trkpt><trkpt lat="52.1186351124" lon="16.1100551952"></trkpt><trkpt lat="52.1196249314" lon="16.1104120966"></trkpt><trkpt lat="52.1200140193" lon="16.1109330319"></trkpt><trkpt lat="52.1204345394" lon="16.1111491174"></trkpt><trkpt lat="52.1207321808" lon="16.1110472772"></trkpt><trkpt lat="52.1208067797" lon="16.1115005706"></trkpt><trkpt lat="52.1211183351" lon="16.1120974459"></trkpt><trkpt lat="52.1212609112" lon="16.112602707"></trkpt><trkpt lat="52.1211719792" lon="16.1132602673"></trkpt><trkpt lat="52.1209090389" lon="16.1135016661"></trkpt><trkpt lat="52.1206822246" lon="16.1141176522"></trkpt><trkpt lat="52.1204237267" lon="16.1150368117"></trkpt><trkpt lat="52.1203461941" lon="16.1157590803"></trkpt><trkpt lat="52.1199602075" lon="16.1167486478"></trkpt><trkpt lat="52.1196472272" lon="16.1168325506"></trkpt><trkpt lat="52.1199021209" lon="16.117617432"></trkpt><trkpt lat="52.1203477029" lon="16.1182402074"></trkpt><trkpt lat="52.120642243" lon="16.1184853781"></trkpt><trkpt lat="52.1221246663" lon="16.1194580141"></trkpt><trkpt lat="52.1226351243" lon="16.1196463555"></trkpt><trkpt lat="52.1230253018" lon="16.1200302467"></trkpt><trkpt lat="52.1236566268" lon="16.1203841306"></trkpt><trkpt lat="52.1245275065" lon="16.1210731231"></trkpt><trkpt lat="52.1247036103" lon="16.1214444414"></trkpt><trkpt lat="52.1249466855" lon="16.1221004929"></trkpt><trkpt lat="52.1251875814" lon="16.122626625"></trkpt><trkpt lat="52.1256193332" lon="16.1229813471"></trkpt><trkpt lat="52.1260170545" lon="16.123149069"></trkpt><trkpt lat="52.1263902169" lon="16.1231953371"></trkpt><trkpt lat="52.1280412842" lon="16.1226997152"></trkpt><trkpt lat="52.1287099086" lon="16.1220026761"></trkpt><trkpt lat="52.1288024448" lon="16.1215887778"></trkpt><trkpt lat="52.1290722582" lon="16.1214894522"></trkpt><trkpt lat="52.1292968094" lon="16.1210586224"></trkpt><trkpt lat="52.1293797903" lon="16.1202773452"></trkpt><trkpt lat="52.1292473562" lon="16.1198787019"></trkpt><trkpt lat="52.1294924431" lon="16.1191338021"></trkpt><trkpt lat="52.1298198402" lon="16.1188665032"></trkpt><trkpt lat="52.1301481593" lon="16.1184598971"></trkpt><trkpt lat="52.1304657497" lon="16.1181402951"></trkpt><trkpt lat="52.1307816636" lon="16.1182234436"></trkpt><trkpt lat="52.130966736" lon="16.1185620725"></trkpt><trkpt lat="52.1313687321" lon="16.11916163"></trkpt><trkpt lat="52.1317795292" lon="16.1194910388"></trkpt><trkpt lat="52.1320775896" lon="16.1196133308"></trkpt><trkpt lat="52.1349208988" lon="16.1202934384"></trkpt><trkpt lat="52.1363276336" lon="16.119671585"></trkpt><trkpt lat="52.1366148815" lon="16.1194267496"></trkpt><trkpt lat="52.1368786599" lon="16.1190945748"></trkpt><trkpt lat="52.1375016868" lon="16.1184444744"></trkpt><trkpt lat="52.1378825605" lon="16.1184588075"></trkpt><trkpt lat="52.1381600853" lon="16.1183244456"></trkpt><trkpt lat="52.1384352632" lon="16.1181460787"></trkpt><trkpt lat="52.1393540036" lon="16.1177022569"></trkpt><trkpt lat="52.1395751182" lon="16.1181220226"></trkpt><trkpt lat="52.1400588378" lon="16.1182546243"></trkpt><trkpt lat="52.1415232401" lon="16.118426118"></trkpt><trkpt lat="52.1418318618" lon="16.1182184145"></trkpt><trkpt lat="52.1431122813" lon="16.117097754"></trkpt><trkpt lat="52.1438161936" lon="16.1166527588"></trkpt><trkpt lat="52.1442171838" lon="16.1164858751"></trkpt><trkpt lat="52.1445968002" lon="16.116390489"></trkpt><trkpt lat="52.1454514191" lon="16.1164292134"></trkpt><trkpt lat="52.1457149461" lon="16.1166088376"></trkpt><trkpt lat="52.1459778864" lon="16.1171394959"></trkpt><trkpt lat="52.1462486219" lon="16.117559094"></trkpt><trkpt lat="52.1466073673" lon="16.1178391334"></trkpt><trkpt lat="52.1470184159" lon="16.1180344317"></trkpt><trkpt lat="52.1473182365" lon="16.118117664"></trkpt><trkpt lat="52.1476072446" lon="16.1184438039"></trkpt><trkpt lat="52.1481632162" lon="16.1176589224"></trkpt><trkpt lat="52.1486942936" lon="16.1171532422"></trkpt><trkpt lat="52.1493098605" lon="16.1164152157"></trkpt><trkpt lat="52.1497501619" lon="16.1157301627"></trkpt><trkpt lat="52.1533649415" lon="16.1088108178"></trkpt><trkpt lat="52.1535761654" lon="16.1082944926"></trkpt><trkpt lat="52.1541575342" lon="16.1077102739"></trkpt><trkpt lat="52.1544873621" lon="16.1074660253"></trkpt><trkpt lat="52.1577604953" lon="16.1056511756"></trkpt><trkpt lat="52.1581888106" lon="16.1056302208"></trkpt><trkpt lat="52.1589693334" lon="16.1058333144"></trkpt><trkpt lat="52.1617734991" lon="16.1060694326"></trkpt><trkpt lat="52.1621975396" lon="16.1058302969"></trkpt><trkpt lat="52.1732261125" lon="16.0994128603"></trkpt><trkpt lat="52.1737866104" lon="16.0989475809"></trkpt><trkpt lat="52.1809329372" lon="16.0913641378"></trkpt><trkpt lat="52.1813407168" lon="16.0904702917"></trkpt><trkpt lat="52.1817961056" lon="16.089206636"></trkpt><trkpt lat="52.1816074289" lon="16.0886531789"></trkpt><trkpt lat="52.1762583498" lon="16.0716536734"></trkpt><trkpt lat="52.1763293445" lon="16.0707639344"></trkpt><trkpt lat="52.1762332879" lon="16.0702263191"></trkpt><trkpt lat="52.1756549366" lon="16.0691754799"></trkpt><trkpt lat="52.1754165553" lon="16.0683701467"></trkpt><trkpt lat="52.1699106507" lon="16.0513579845"></trkpt><trkpt lat="52.1697648056" lon="16.0505388211"></trkpt><trkpt lat="52.1692749672" lon="16.0491263866"></trkpt><trkpt lat="52.1680927835" lon="16.0463207122"></trkpt><trkpt lat="52.1677898616" lon="16.0464246478"></trkpt><trkpt lat="52.1561755612" lon="16.0506516416"></trkpt><trkpt lat="52.1487601753" lon="16.0522186384"></trkpt><trkpt lat="52.1484257374" lon="16.0522064008"></trkpt><trkpt lat="52.1481509786" lon="16.0522625595"></trkpt><trkpt lat="52.1478436142" lon="16.0522568598"></trkpt><trkpt lat="52.1356157586" lon="16.0521938279"></trkpt><trkpt lat="52.1345773246" lon="16.0524884518"></trkpt><trkpt lat="52.128431797" lon="16.0532028414"></trkpt><trkpt lat="52.1208096296" lon="16.0560187418"></trkpt><trkpt lat="52.1206486132" lon="16.0566696804"></trkpt><trkpt lat="52.1162352059" lon="16.0751517769"></trkpt><trkpt lat="52.1161191165" lon="16.0761476308"></trkpt><trkpt lat="52.1133039705" lon="16.0952694342"></trkpt><trkpt lat="52.1131273638" lon="16.0959162656"></trkpt><trkpt lat="52.1110517532" lon="16.1017188057"></trkpt><trkpt lat="52.11068362" lon="16.1019492242"></trkpt><trkpt lat="52.1100219525" lon="16.1024766974"></trkpt><trkpt lat="52.1099310089" lon="16.1013911571"></trkpt><trkpt lat="52.1099224593" lon="16.0996324662"></trkpt><trkpt lat="52.1099989861" lon="16.0988449026"></trkpt><trkpt lat="52.1102442406" lon="16.0973654129"></trkpt><trkpt lat="52.1103532892" lon="16.0969194118"></trkpt><trkpt lat="52.1107296366" lon="16.0948215052"></trkpt><trkpt lat="52.1106783394" lon="16.0939784534"></trkpt><trkpt lat="52.1104548778" lon="16.0932219028"></trkpt><trkpt lat="52.1100989822" lon="16.0922984686"></trkpt><trkpt lat="52.1098004188" lon="16.091855485"></trkpt><trkpt lat="52.1094055474" lon="16.0914563388"></trkpt><trkpt lat="52.1070603747" lon="16.0898222867"></trkpt><trkpt lat="52.1069276053" lon="16.0902890749"></trkpt><trkpt lat="52.1066520084" lon="16.0907928273"></trkpt><trkpt lat="52.1062531136" lon="16.0903816111"></trkpt><trkpt lat="52.105804598" lon="16.0900150705"></trkpt><trkpt lat="52.1055376343" lon="16.0898496956"></trkpt><trkpt lat="52.1052627079" lon="16.089847181"></trkpt><trkpt lat="52.1047771443" lon="16.0894194525"></trkpt><trkpt lat="52.1037522051" lon="16.0886968486"></trkpt><trkpt lat="52.1033977345" lon="16.0885917395"></trkpt><trkpt lat="52.1031005122" lon="16.0885880515"></trkpt><trkpt lat="52.10102465" lon="16.0889238305"></trkpt><trkpt lat="52.0994812902" lon="16.0879822914"></trkpt><trkpt lat="52.099165041" lon="16.0871758685"></trkpt><trkpt lat="52.0985844266" lon="16.0859772563"></trkpt><trkpt lat="52.0965127554" lon="16.0825799871"></trkpt><trkpt lat="52.0960427821" lon="16.0820680205"></trkpt><trkpt lat="52.0922548324" lon="16.0787100624"></trkpt><trkpt lat="52.0918385033" lon="16.0786052886"></trkpt><trkpt lat="52.0898353122" lon="16.0784997605"></trkpt><trkpt lat="52.089543622" lon="16.0786371399"></trkpt><trkpt lat="52.0882739313" lon="16.0788124893"></trkpt><trkpt lat="52.088267561" lon="16.0781413503"></trkpt><trkpt lat="52.0883200318" lon="16.0774255358"></trkpt><trkpt lat="52.0883533079" lon="16.0750152357"></trkpt><trkpt lat="52.0877116732" lon="16.0749978852"></trkpt><trkpt lat="52.0868694596" lon="16.0751551297"></trkpt><trkpt lat="52.0854586177" lon="16.0757748038"></trkpt><trkpt lat="52.0853795763" lon="16.0765272472"></trkpt><trkpt lat="52.0849011373" lon="16.0792836361"></trkpt><trkpt lat="52.0847707149" lon="16.0797189921"></trkpt><trkpt lat="52.0844699722" lon="16.0803538375"></trkpt><trkpt lat="52.0846901648" lon="16.080033984"></trkpt><trkpt lat="52.0848566294" lon="16.080837138"></trkpt><trkpt lat="52.0848703757" lon="16.081541637"></trkpt><trkpt lat="52.0847707987" lon="16.0821950901"></trkpt><trkpt lat="52.0846028253" lon="16.0828582663"></trkpt><trkpt lat="52.0833477192" lon="16.0899393819"></trkpt><trkpt lat="52.0834752079" lon="16.090551177"></trkpt><trkpt lat="52.0836539939" lon="16.0910052247"></trkpt><trkpt lat="52.0839031041" lon="16.0913822427"></trkpt><trkpt lat="52.0874307957" lon="16.0957175307"></trkpt><trkpt lat="52.0880255755" lon="16.0960732587"></trkpt><trkpt lat="52.0968696568" lon="16.1029373668"></trkpt><trkpt lat="52.0971177612" lon="16.1034179851"></trkpt><trkpt lat="52.0977039076" lon="16.1043176148"></trkpt><trkpt lat="52.0979950111" lon="16.1045838241"></trkpt><trkpt lat="52.1010442637" lon="16.1066746898"></trkpt><trkpt lat="52.1013620216" lon="16.1067177728"></trkpt><trkpt lat="52.103406284" lon="16.1072990578"></trkpt><trkpt lat="52.1036111377" lon="16.1079453863"></trkpt><trkpt lat="52.1040300652" lon="16.1088316888"></trkpt><trkpt lat="52.1042899042" lon="16.1090305075"></trkpt><trkpt lat="52.1048410982" lon="16.1093352735"></trkpt><trkpt lat="52.1061468311" lon="16.1102810875"></trkpt><trkpt lat="52.1061799396" lon="16.1109208781"></trkpt><trkpt lat="52.1061275527" lon="16.1121205799"></trkpt><trkpt lat="52.1057056077" lon="16.1120014731"></trkpt><trkpt lat="52.1052786335" lon="16.1117427237"></trkpt><trkpt lat="52.1043857094" lon="16.1113752611"></trkpt><trkpt lat="52.1042171493" lon="16.1121985316"></trkpt><trkpt lat="52.1043239348" lon="16.1126773898"></trkpt><trkpt lat="52.1047328878" lon="16.1128749512"></trkpt><trkpt lat="52.107368242" lon="16.1133615207"></trkpt><trkpt lat="52.1076164301" lon="16.1130730994"></trkpt><trkpt lat="52.1078824718" lon="16.1126794852"></trkpt><trkpt lat="52.1082029119" lon="16.1123801675"></trkpt><trkpt lat="52.1140071284" lon="16.108369343"></trkpt><trkpt lat="52.1144356951" lon="16.1087452713"></trkpt><trkpt lat="52.1164809633" lon="16.1112146638"></trkpt><trkpt lat="52.1176746301" lon="16.1123281159"></trkpt><trkpt lat="52.1178787295" lon="16.1113106366"></trkpt><trkpt lat="52.1180057991" lon="16.1104151979"></trkpt><trkpt lat="52.1183789615" lon="16.1100369226"></trkpt><trkpt lat="52.1186322626" lon="16.1103346478"></trkpt></trkseg></trk></gpx>