<?xml version="1.0" encoding="UTF-8" standalone="no" ?><gpx xmlns="http://www.topografix.com/GPX/1/1" xmlns:gpxx="http://www.garmin.com/xmlschemas/GpxExtensions/v3" ><trk><trkseg><trkpt lat="53.143116" lon="16.74177"></trkpt><trkpt lat="53.14311" lon="16.741105"></trkpt><trkpt lat="53.143381" lon="16.740749"></trkpt><trkpt lat="53.143622" lon="16.740706"></trkpt><trkpt lat="53.143636" lon="16.740282"></trkpt><trkpt lat="53.143608" lon="16.739915"></trkpt><trkpt lat="53.143569" lon="16.736895"></trkpt><trkpt lat="53.14369" lon="16.736575"></trkpt><trkpt lat="53.14382" lon="16.736318"></trkpt><trkpt lat="53.144511" lon="16.734728"></trkpt><trkpt lat="53.144855" lon="16.733741"></trkpt><trkpt lat="53.144998" lon="16.733234"></trkpt><trkpt lat="53.144944" lon="16.732524"></trkpt><trkpt lat="53.144972" lon="16.732059"></trkpt><trkpt lat="53.144794" lon="16.730882"></trkpt><trkpt lat="53.144508" lon="16.728193"></trkpt><trkpt lat="53.144515" lon="16.727814"></trkpt><trkpt lat="53.144462" lon="16.727348"></trkpt><trkpt lat="53.144332" lon="16.727055"></trkpt><trkpt lat="53.144209" lon="16.726456"></trkpt><trkpt lat="53.14446" lon="16.726252"></trkpt><trkpt lat="53.144123" lon="16.725435"></trkpt><trkpt lat="53.143782" lon="16.724837"></trkpt><trkpt lat="53.143246" lon="16.72432"></trkpt><trkpt lat="53.142986" lon="16.724111"></trkpt><trkpt lat="53.142646" lon="16.723438"></trkpt><trkpt lat="53.142149" lon="16.721973"></trkpt><trkpt lat="53.142358" lon="16.721859"></trkpt><trkpt lat="53.142406" lon="16.721497"></trkpt><trkpt lat="53.142709" lon="16.718086"></trkpt><trkpt lat="53.143066" lon="16.715613"></trkpt><trkpt lat="53.143327" lon="16.714833"></trkpt><trkpt lat="53.143418" lon="16.714488"></trkpt><trkpt lat="53.143605" lon="16.713924"></trkpt><trkpt lat="53.143385" lon="16.713569"></trkpt><trkpt lat="53.143341" lon="16.713131"></trkpt><trkpt lat="53.142937" lon="16.712643"></trkpt><trkpt lat="53.135264" lon="16.701463"></trkpt><trkpt lat="53.135126" lon="16.700932"></trkpt><trkpt lat="53.134796" lon="16.698719"></trkpt><trkpt lat="53.134795" lon="16.697295"></trkpt><trkpt lat="53.13438" lon="16.691668"></trkpt><trkpt lat="53.133946" lon="16.690433"></trkpt><trkpt lat="53.131272" lon="16.681193"></trkpt><trkpt lat="53.130978" lon="16.679833"></trkpt><trkpt lat="53.128496" lon="16.664033"></trkpt><trkpt lat="53.128468" lon="16.662442"></trkpt><trkpt lat="53.127538" lon="16.647522"></trkpt><trkpt lat="53.127086" lon="16.646037"></trkpt><trkpt lat="53.125948" lon="16.641254"></trkpt><trkpt lat="53.125921" lon="16.640259"></trkpt><trkpt lat="53.126012" lon="16.639361"></trkpt><trkpt lat="53.1262" lon="16.635808"></trkpt><trkpt lat="53.126013" lon="16.635584"></trkpt><trkpt lat="53.124953" lon="16.635307"></trkpt><trkpt lat="53.121852" lon="16.636499"></trkpt><trkpt lat="53.120466" lon="16.636738"></trkpt><trkpt lat="53.119602" lon="16.636432"></trkpt><trkpt lat="53.116496" lon="16.634681"></trkpt><trkpt lat="53.115546" lon="16.633696"></trkpt><trkpt lat="53.114722" lon="16.633251"></trkpt><trkpt lat="53.113585" lon="16.633058"></trkpt><trkpt lat="53.111914" lon="16.632093"></trkpt><trkpt lat="53.111345" lon="16.63115"></trkpt><trkpt lat="53.110744" lon="16.630348"></trkpt><trkpt lat="53.110703" lon="16.630005"></trkpt><trkpt lat="53.111018" lon="16.628943"></trkpt><trkpt lat="53.114038" lon="16.620849"></trkpt><trkpt lat="53.118143" lon="16.607806"></trkpt><trkpt lat="53.118219" lon="16.606705"></trkpt><trkpt lat="53.118394" lon="16.605511"></trkpt><trkpt lat="53.11856" lon="16.60382"></trkpt><trkpt lat="53.119669" lon="16.597243"></trkpt><trkpt lat="53.119966" lon="16.596237"></trkpt><trkpt lat="53.121413" lon="16.592128"></trkpt><trkpt lat="53.121874" lon="16.590502"></trkpt><trkpt lat="53.121695" lon="16.588812"></trkpt><trkpt lat="53.121589" lon="16.585824"></trkpt><trkpt lat="53.121655" lon="16.584642"></trkpt><trkpt lat="53.12194" lon="16.583427"></trkpt><trkpt lat="53.122369" lon="16.580984"></trkpt><trkpt lat="53.122353" lon="16.579317"></trkpt><trkpt lat="53.122557" lon="16.574603"></trkpt><trkpt lat="53.122691" lon="16.573727"></trkpt><trkpt lat="53.123927" lon="16.559949"></trkpt><trkpt lat="53.123413" lon="16.559016"></trkpt><trkpt lat="53.122736" lon="16.55841"></trkpt><trkpt lat="53.118932" lon="16.555601"></trkpt><trkpt lat="53.118763" lon="16.555346"></trkpt><trkpt lat="53.118407" lon="16.555139"></trkpt><trkpt lat="53.117869" lon="16.554929"></trkpt><trkpt lat="53.116585" lon="16.554115"></trkpt><trkpt lat="53.115868" lon="16.553144"></trkpt><trkpt lat="53.11497" lon="16.551525"></trkpt><trkpt lat="53.114716" lon="16.550417"></trkpt><trkpt lat="53.114477" lon="16.549058"></trkpt><trkpt lat="53.114501" lon="16.548719"></trkpt><trkpt lat="53.114638" lon="16.547957"></trkpt><trkpt lat="53.114805" lon="16.547246"></trkpt><trkpt lat="53.115392" lon="16.544062"></trkpt><trkpt lat="53.116116" lon="16.538822"></trkpt><trkpt lat="53.11543" lon="16.538992"></trkpt><trkpt lat="53.114518" lon="16.53906"></trkpt><trkpt lat="53.113321" lon="16.539367"></trkpt><trkpt lat="53.112632" lon="16.540182"></trkpt><trkpt lat="53.112367" lon="16.540268"></trkpt><trkpt lat="53.112007" lon="16.54009"></trkpt><trkpt lat="53.111632" lon="16.539779"></trkpt><trkpt lat="53.109806" lon="16.538601"></trkpt><trkpt lat="53.109323" lon="16.539025"></trkpt><trkpt lat="53.109171" lon="16.539283"></trkpt><trkpt lat="53.10878" lon="16.539857"></trkpt><trkpt lat="53.108513" lon="16.540055"></trkpt><trkpt lat="53.108227" lon="16.540124"></trkpt><trkpt lat="53.107227" lon="16.540003"></trkpt><trkpt lat="53.106959" lon="16.54008"></trkpt><trkpt lat="53.106696" lon="16.540302"></trkpt><trkpt lat="53.106224" lon="16.540905"></trkpt><trkpt lat="53.105977" lon="16.541106"></trkpt><trkpt lat="53.105586" lon="16.541049"></trkpt><trkpt lat="53.105415" lon="16.540611"></trkpt><trkpt lat="53.105259" lon="16.539479"></trkpt><trkpt lat="53.104836" lon="16.537676"></trkpt><trkpt lat="53.104571" lon="16.536836"></trkpt><trkpt lat="53.104044" lon="16.53549"></trkpt><trkpt lat="53.103557" lon="16.535107"></trkpt><trkpt lat="53.10286" lon="16.534758"></trkpt><trkpt lat="53.100176" lon="16.533807"></trkpt><trkpt lat="53.099962" lon="16.534058"></trkpt><trkpt lat="53.099104" lon="16.535226"></trkpt><trkpt lat="53.098895" lon="16.535248"></trkpt><trkpt lat="53.09856" lon="16.533526"></trkpt><trkpt lat="53.098457" lon="16.532265"></trkpt><trkpt lat="53.097964" lon="16.528334"></trkpt><trkpt lat="53.097834" lon="16.52568"></trkpt><trkpt lat="53.097833" lon="16.524293"></trkpt><trkpt lat="53.097703" lon="16.521512"></trkpt><trkpt lat="53.097564" lon="16.520113"></trkpt><trkpt lat="53.096264" lon="16.511264"></trkpt><trkpt lat="53.095904" lon="16.509945"></trkpt><trkpt lat="53.094341" lon="16.502885"></trkpt><trkpt lat="53.094275" lon="16.501185"></trkpt><trkpt lat="53.093494" lon="16.493951"></trkpt><trkpt lat="53.092934" lon="16.492925"></trkpt><trkpt lat="53.09221" lon="16.492158"></trkpt><trkpt lat="53.091448" lon="16.491756"></trkpt><trkpt lat="53.090719" lon="16.491495"></trkpt><trkpt lat="53.085518" lon="16.48878"></trkpt><trkpt lat="53.084534" lon="16.48787"></trkpt><trkpt lat="53.072634" lon="16.479128"></trkpt><trkpt lat="53.071709" lon="16.479303"></trkpt><trkpt lat="53.059628" lon="16.479774"></trkpt><trkpt lat="53.059026" lon="16.478922"></trkpt><trkpt lat="53.054038" lon="16.470501"></trkpt><trkpt lat="53.054048" lon="16.47004"></trkpt><trkpt lat="53.053989" lon="16.468456"></trkpt><trkpt lat="53.053426" lon="16.468408"></trkpt><trkpt lat="53.052592" lon="16.468214"></trkpt><trkpt lat="53.052396" lon="16.468105"></trkpt><trkpt lat="53.052079" lon="16.467983"></trkpt><trkpt lat="53.042105" lon="16.462868"></trkpt><trkpt lat="53.04194" lon="16.461796"></trkpt><trkpt lat="53.041818" lon="16.461321"></trkpt><trkpt lat="53.041589" lon="16.461349"></trkpt><trkpt lat="53.041137" lon="16.461575"></trkpt><trkpt lat="53.040855" lon="16.461659"></trkpt><trkpt lat="53.040655" lon="16.461501"></trkpt><trkpt lat="53.04035" lon="16.461606"></trkpt><trkpt lat="53.040096" lon="16.461323"></trkpt><trkpt lat="53.040023" lon="16.46096"></trkpt><trkpt lat="53.039945" lon="16.460323"></trkpt><trkpt lat="53.03988" lon="16.459995"></trkpt><trkpt lat="53.03975" lon="16.459083"></trkpt><trkpt lat="53.039646" lon="16.457072"></trkpt><trkpt lat="53.039637" lon="16.456122"></trkpt><trkpt lat="53.039664" lon="16.455389"></trkpt><trkpt lat="53.039952" lon="16.454288"></trkpt><trkpt lat="53.040541" lon="16.452411"></trkpt><trkpt lat="53.040737" lon="16.451551"></trkpt><trkpt lat="53.040138" lon="16.451077"></trkpt><trkpt lat="53.039938" lon="16.450795"></trkpt><trkpt lat="53.036465" lon="16.44505"></trkpt><trkpt lat="53.036069" lon="16.443857"></trkpt><trkpt lat="53.033983" lon="16.436332"></trkpt><trkpt lat="53.034039" lon="16.436012"></trkpt><trkpt lat="53.03403" lon="16.435591"></trkpt><trkpt lat="53.033932" lon="16.435243"></trkpt><trkpt lat="53.033897" lon="16.434543"></trkpt><trkpt lat="53.033621" lon="16.43356"></trkpt><trkpt lat="53.033211" lon="16.43271"></trkpt><trkpt lat="53.026781" lon="16.421255"></trkpt><trkpt lat="53.026117" lon="16.42029"></trkpt><trkpt lat="53.02452" lon="16.418321"></trkpt><trkpt lat="53.023826" lon="16.41761"></trkpt><trkpt lat="53.02328" lon="16.416742"></trkpt><trkpt lat="53.022949" lon="16.415655"></trkpt><trkpt lat="53.021299" lon="16.411186"></trkpt><trkpt lat="53.020697" lon="16.410082"></trkpt><trkpt lat="53.019921" lon="16.409081"></trkpt><trkpt lat="53.009026" lon="16.397574"></trkpt><trkpt lat="53.008457" lon="16.397654"></trkpt><trkpt lat="53.003965" lon="16.397623"></trkpt><trkpt lat="53.003059" lon="16.397195"></trkpt><trkpt lat="53.001077" lon="16.395981"></trkpt><trkpt lat="53.000212" lon="16.394878"></trkpt><trkpt lat="52.996854" lon="16.391548"></trkpt><trkpt lat="52.996188" lon="16.39176"></trkpt><trkpt lat="52.995931" lon="16.391874"></trkpt><trkpt lat="52.995637" lon="16.391964"></trkpt><trkpt lat="52.988534" lon="16.39274"></trkpt><trkpt lat="52.988198" lon="16.391813"></trkpt><trkpt lat="52.988" lon="16.39179"></trkpt><trkpt lat="52.987329" lon="16.392875"></trkpt><trkpt lat="52.967811" lon="16.419837"></trkpt><trkpt lat="52.96664" lon="16.420105"></trkpt><trkpt lat="52.966445" lon="16.42022"></trkpt><trkpt lat="52.96627" lon="16.42039"></trkpt><trkpt lat="52.966014" lon="16.420467"></trkpt><trkpt lat="52.964056" lon="16.420168"></trkpt><trkpt lat="52.963167" lon="16.420424"></trkpt><trkpt lat="52.961258" lon="16.420449"></trkpt><trkpt lat="52.9603" lon="16.419658"></trkpt><trkpt lat="52.954008" lon="16.416213"></trkpt><trkpt lat="52.953398" lon="16.416912"></trkpt><trkpt lat="52.952741" lon="16.417549"></trkpt><trkpt lat="52.938972" lon="16.433251"></trkpt><trkpt lat="52.938716" lon="16.433687"></trkpt><trkpt lat="52.936316" lon="16.437084"></trkpt><trkpt lat="52.930484" lon="16.446584"></trkpt><trkpt lat="52.928621" lon="16.448295"></trkpt><trkpt lat="52.927708" lon="16.448659"></trkpt><trkpt lat="52.922022" lon="16.452161"></trkpt><trkpt lat="52.921373" lon="16.45314"></trkpt><trkpt lat="52.919325" lon="16.455768"></trkpt><trkpt lat="52.919205" lon="16.455489"></trkpt><trkpt lat="52.918901" lon="16.454241"></trkpt><trkpt lat="52.918243" lon="16.450527"></trkpt><trkpt lat="52.918116" lon="16.449559"></trkpt><trkpt lat="52.918009" lon="16.449273"></trkpt><trkpt lat="52.917942" lon="16.447789"></trkpt><trkpt lat="52.917318" lon="16.441034"></trkpt><trkpt lat="52.917022" lon="16.439368"></trkpt><trkpt lat="52.916528" lon="16.437486"></trkpt><trkpt lat="52.916131" lon="16.436352"></trkpt><trkpt lat="52.915319" lon="16.433489"></trkpt><trkpt lat="52.914839" lon="16.431229"></trkpt><trkpt lat="52.904649" lon="16.392793"></trkpt><trkpt lat="52.904137" lon="16.391638"></trkpt><trkpt lat="52.903643" lon="16.390335"></trkpt><trkpt lat="52.902242" lon="16.385933"></trkpt><trkpt lat="52.902054" lon="16.384781"></trkpt><trkpt lat="52.901924" lon="16.38357"></trkpt><trkpt lat="52.901265" lon="16.372646"></trkpt><trkpt lat="52.901378" lon="16.371913"></trkpt><trkpt lat="52.901405" lon="16.370973"></trkpt><trkpt lat="52.901349" lon="16.369068"></trkpt><trkpt lat="52.901217" lon="16.367799"></trkpt><trkpt lat="52.900714" lon="16.359459"></trkpt><trkpt lat="52.90074" lon="16.357209"></trkpt><trkpt lat="52.900949" lon="16.353578"></trkpt><trkpt lat="52.901088" lon="16.336474"></trkpt><trkpt lat="52.900729" lon="16.335274"></trkpt><trkpt lat="52.900546" lon="16.334178"></trkpt><trkpt lat="52.899239" lon="16.321434"></trkpt><trkpt lat="52.899323" lon="16.319971"></trkpt><trkpt lat="52.899508" lon="16.318699"></trkpt><trkpt lat="52.902051" lon="16.292852"></trkpt><trkpt lat="52.902078" lon="16.291102"></trkpt><trkpt lat="52.902615" lon="16.281977"></trkpt><trkpt lat="52.90718" lon="16.237317"></trkpt><trkpt lat="52.907446" lon="16.236373"></trkpt><trkpt lat="52.90898" lon="16.229224"></trkpt><trkpt lat="52.908928" lon="16.227862"></trkpt><trkpt lat="52.90899" lon="16.226442"></trkpt><trkpt lat="52.908984" lon="16.218712"></trkpt><trkpt lat="52.909117" lon="16.216632"></trkpt><trkpt lat="52.909268" lon="16.215236"></trkpt><trkpt lat="52.910325" lon="16.19547"></trkpt><trkpt lat="52.910134" lon="16.194258"></trkpt><trkpt lat="52.907886" lon="16.183444"></trkpt><trkpt lat="52.907211" lon="16.182342"></trkpt><trkpt lat="52.905813" lon="16.18041"></trkpt><trkpt lat="52.905582" lon="16.180363"></trkpt><trkpt lat="52.905786" lon="16.180488"></trkpt><trkpt lat="52.906044" lon="16.180702"></trkpt><trkpt lat="52.906052" lon="16.180359"></trkpt><trkpt lat="52.905783" lon="16.179843"></trkpt><trkpt lat="52.905636" lon="16.179422"></trkpt><trkpt lat="52.905563" lon="16.179055"></trkpt><trkpt lat="52.905615" lon="16.178661"></trkpt><trkpt lat="52.905715" lon="16.178339"></trkpt><trkpt lat="52.905745" lon="16.177194"></trkpt><trkpt lat="52.905541" lon="16.173821"></trkpt><trkpt lat="52.905305" lon="16.17251"></trkpt><trkpt lat="52.90474" lon="16.167603"></trkpt><trkpt lat="52.904731" lon="16.166205"></trkpt><trkpt lat="52.904401" lon="16.159876"></trkpt><trkpt lat="52.904295" lon="16.15878"></trkpt><trkpt lat="52.903643" lon="16.145947"></trkpt><trkpt lat="52.90345" lon="16.099332"></trkpt><trkpt lat="52.903718" lon="16.098325"></trkpt><trkpt lat="52.90517" lon="16.094492"></trkpt><trkpt lat="52.905669" lon="16.09355"></trkpt><trkpt lat="52.905917" lon="16.093007"></trkpt><trkpt lat="52.906206" lon="16.092018"></trkpt><trkpt lat="52.906404" lon="16.091181"></trkpt><trkpt lat="52.912428" lon="16.055695"></trkpt><trkpt lat="52.911788" lon="16.055007"></trkpt><trkpt lat="52.89256" lon="16.030862"></trkpt><trkpt lat="52.89204" lon="16.029719"></trkpt><trkpt lat="52.890854" lon="16.027621"></trkpt><trkpt lat="52.883982" lon="16.017403"></trkpt><trkpt lat="52.883152" lon="16.016736"></trkpt><trkpt lat="52.882343" lon="16.016207"></trkpt><trkpt lat="52.880165" lon="16.014471"></trkpt><trkpt lat="52.879759" lon="16.01399"></trkpt><trkpt lat="52.87884" lon="16.013202"></trkpt><trkpt lat="52.87864" lon="16.013185"></trkpt><trkpt lat="52.878527" lon="16.013791"></trkpt><trkpt lat="52.87851" lon="16.014389"></trkpt><trkpt lat="52.878459" lon="16.015075"></trkpt><trkpt lat="52.878257" lon="16.014998"></trkpt><trkpt lat="52.87806" lon="16.014818"></trkpt><trkpt lat="52.876767" lon="16.013852"></trkpt><trkpt lat="52.876427" lon="16.014223"></trkpt><trkpt lat="52.87645" lon="16.015099"></trkpt><trkpt lat="52.876683" lon="16.016182"></trkpt><trkpt lat="52.877178" lon="16.018013"></trkpt><trkpt lat="52.877276" lon="16.018497"></trkpt></trkseg></trk></gpx>