<?xml version="1.0" encoding="UTF-8" standalone="no" ?><gpx xmlns="http://www.topografix.com/GPX/1/1" xmlns:gpxx="http://www.garmin.com/xmlschemas/GpxExtensions/v3" ><trk><trkseg><trkpt lat="52.8959889058" lon="16.54979188"></trkpt><trkpt lat="52.8957760893" lon="16.5494656563"></trkpt><trkpt lat="52.8955781925" lon="16.5490193199"></trkpt><trkpt lat="52.8912289068" lon="16.537153814"></trkpt><trkpt lat="52.8880966734" lon="16.5265756007"></trkpt><trkpt lat="52.8878090903" lon="16.5253293794"></trkpt><trkpt lat="52.8864685725" lon="16.5173788089"></trkpt><trkpt lat="52.8860055562" lon="16.5130771324"></trkpt><trkpt lat="52.8845893499" lon="16.5061073285"></trkpt><trkpt lat="52.8841393255" lon="16.5049678925"></trkpt><trkpt lat="52.8836271912" lon="16.503894506"></trkpt><trkpt lat="52.8821187839" lon="16.5022244118"></trkpt><trkpt lat="52.8796379082" lon="16.4987767674"></trkpt><trkpt lat="52.879284611" lon="16.4972682763"></trkpt><trkpt lat="52.8788114525" lon="16.4944966324"></trkpt><trkpt lat="52.875648709" lon="16.4884821139"></trkpt><trkpt lat="52.8747433797" lon="16.4874856733"></trkpt><trkpt lat="52.8729086649" lon="16.4861290623"></trkpt><trkpt lat="52.8721964546" lon="16.4862354286"></trkpt><trkpt lat="52.870561732" lon="16.4873219747"></trkpt><trkpt lat="52.8695053607" lon="16.4884079341"></trkpt><trkpt lat="52.8678323328" lon="16.4897907805"></trkpt><trkpt lat="52.8670577612" lon="16.4899761882"></trkpt><trkpt lat="52.8660552856" lon="16.4899431635"></trkpt><trkpt lat="52.8651654627" lon="16.4895206317"></trkpt><trkpt lat="52.8645176254" lon="16.4887927473"></trkpt><trkpt lat="52.8639488295" lon="16.4877475239"></trkpt><trkpt lat="52.8636772558" lon="16.4868266042"></trkpt><trkpt lat="52.8632722422" lon="16.4859986398"></trkpt><trkpt lat="52.8620315529" lon="16.4828419313"></trkpt><trkpt lat="52.8618915752" lon="16.4823248517"></trkpt><trkpt lat="52.8617687803" lon="16.4817185886"></trkpt><trkpt lat="52.8619313054" lon="16.4825184736"></trkpt><trkpt lat="52.8622224089" lon="16.4835220389"></trkpt><trkpt lat="52.8627418354" lon="16.4848442003"></trkpt><trkpt lat="52.8644305374" lon="16.4902871568"></trkpt><trkpt lat="52.8644273523" lon="16.4913644828"></trkpt><trkpt lat="52.8643039707" lon="16.4924957044"></trkpt><trkpt lat="52.864032397" lon="16.4935751259"></trkpt><trkpt lat="52.8638186585" lon="16.4940850809"></trkpt><trkpt lat="52.8635756671" lon="16.4945491031"></trkpt><trkpt lat="52.8625674918" lon="16.495945612"></trkpt><trkpt lat="52.8616457339" lon="16.496984968"></trkpt><trkpt lat="52.8543888498" lon="16.5068104863"></trkpt><trkpt lat="52.8452119231" lon="16.5221523866"></trkpt><trkpt lat="52.8450227436" lon="16.5237326268"></trkpt><trkpt lat="52.8450374119" lon="16.525444882"></trkpt><trkpt lat="52.8476974089" lon="16.5967082419"></trkpt><trkpt lat="52.8489674348" lon="16.6688846424"></trkpt><trkpt lat="52.8479582537" lon="16.6709945351"></trkpt><trkpt lat="52.8224975523" lon="16.7299568653"></trkpt><trkpt lat="52.8223789483" lon="16.7331728339"></trkpt><trkpt lat="52.8202190995" lon="16.7565817293"></trkpt><trkpt lat="52.8196576796" lon="16.7587052844"></trkpt><trkpt lat="52.8167467285" lon="16.7738901917"></trkpt><trkpt lat="52.8166462295" lon="16.7763417307"></trkpt><trkpt lat="52.8079992067" lon="16.8336651474"></trkpt><trkpt lat="52.8072994016" lon="16.8363194447"></trkpt><trkpt lat="52.8065790609" lon="16.8383228034"></trkpt><trkpt lat="52.8028958011" lon="16.8459746428"></trkpt><trkpt lat="52.8018212412" lon="16.8475118838"></trkpt><trkpt lat="52.7689237799" lon="16.8959303666"></trkpt><trkpt lat="52.7498466522" lon="16.9295131322"></trkpt><trkpt lat="52.7492903452" lon="16.9308376405"></trkpt><trkpt lat="52.7484272607" lon="16.9322343171"></trkpt><trkpt lat="52.7477046568" lon="16.9342485722"></trkpt><trkpt lat="52.7446039394" lon="16.9453514926"></trkpt><trkpt lat="52.7442846727" lon="16.9475566875"></trkpt><trkpt lat="52.7435590513" lon="16.9606457837"></trkpt><trkpt lat="52.7439960837" lon="16.9623025507"></trkpt><trkpt lat="52.744548535" lon="16.9638036657"></trkpt><trkpt lat="52.7466423344" lon="16.9677652046"></trkpt><trkpt lat="52.747768024" lon="16.9689198956"></trkpt><trkpt lat="52.7489242237" lon="16.9696554914"></trkpt><trkpt lat="52.7501308825" lon="16.9701803662"></trkpt><trkpt lat="52.7690432221" lon="16.975357281"></trkpt><trkpt lat="52.7695478126" lon="16.975340182"></trkpt><trkpt lat="52.7799497545" lon="16.9773106836"></trkpt><trkpt lat="52.7802430373" lon="16.977715781"></trkpt><trkpt lat="52.780786017" lon="16.9788478408"></trkpt><trkpt lat="52.7811937965" lon="16.9802049547"></trkpt><trkpt lat="52.7813605964" lon="16.9810744096"></trkpt><trkpt lat="52.7815588284" lon="16.9829001557"></trkpt><trkpt lat="52.7836420666" lon="16.9953155983"></trkpt><trkpt lat="52.7840400394" lon="16.996361576"></trkpt><trkpt lat="52.7874752786" lon="17.0084728394"></trkpt><trkpt lat="52.7875160147" lon="17.0103900321"></trkpt><trkpt lat="52.7873753663" lon="17.0119678415"></trkpt><trkpt lat="52.7870970033" lon="17.0137637481"></trkpt><trkpt lat="52.7859076951" lon="17.019191701"></trkpt><trkpt lat="52.7849776391" lon="17.0255808067"></trkpt><trkpt lat="52.7850120887" lon="17.0273559261"></trkpt><trkpt lat="52.7853851672" lon="17.0301666297"></trkpt><trkpt lat="52.7955835965" lon="17.1010545641"></trkpt><trkpt lat="52.7961424179" lon="17.1078859828"></trkpt><trkpt lat="52.8015458956" lon="17.1474944148"></trkpt><trkpt lat="52.803656375" lon="17.1581979375"></trkpt><trkpt lat="52.804151997" lon="17.1597910859"></trkpt><trkpt lat="52.8045797255" lon="17.1616464201"></trkpt><trkpt lat="52.8048225492" lon="17.1635466814"></trkpt><trkpt lat="52.8059351631" lon="17.1693167835"></trkpt><trkpt lat="52.8095827159" lon="17.2037872765"></trkpt><trkpt lat="52.8099225182" lon="17.2106300946"></trkpt><trkpt lat="52.809765609" lon="17.212423319"></trkpt><trkpt lat="52.8093402274" lon="17.2138807643"></trkpt><trkpt lat="52.8087001015" lon="17.2151037678"></trkpt><trkpt lat="52.807619758" lon="17.2160581313"></trkpt><trkpt lat="52.8066811524" lon="17.2162298765"></trkpt><trkpt lat="52.8057389427" lon="17.2158816084"></trkpt><trkpt lat="52.8042772226" lon="17.2149385605"></trkpt><trkpt lat="52.7933537588" lon="17.2056390904"></trkpt><trkpt lat="52.7916156035" lon="17.2034216579"></trkpt><trkpt lat="52.7832616959" lon="17.1948113479"></trkpt><trkpt lat="52.7810633741" lon="17.1930782218"></trkpt><trkpt lat="52.7794025" lon="17.1920845471"></trkpt><trkpt lat="52.7623233665" lon="17.1850284096"></trkpt><trkpt lat="52.7603653539" lon="17.1847761143"></trkpt><trkpt lat="52.7166692354" lon="17.177187223"></trkpt><trkpt lat="52.6806806121" lon="17.1648570243"></trkpt><trkpt lat="52.6571837906" lon="17.1518415213"></trkpt><trkpt lat="52.655879315" lon="17.1508148219"></trkpt><trkpt lat="52.6539114118" lon="17.1498917229"></trkpt><trkpt lat="52.6358557027" lon="17.1442978084"></trkpt><trkpt lat="52.6281379815" lon="17.1400602534"></trkpt><trkpt lat="52.6276823413" lon="17.1382123791"></trkpt><trkpt lat="52.616062006" lon="17.1014843043"></trkpt><trkpt lat="52.6140034106" lon="17.0961985085"></trkpt><trkpt lat="52.606053343" lon="17.079300927"></trkpt><trkpt lat="52.6050185971" lon="17.0775180962"></trkpt><trkpt lat="52.603075169" lon="17.073514061"></trkpt><trkpt lat="52.6023084763" lon="17.0711211115"></trkpt><trkpt lat="52.6019981783" lon="17.0693138056"></trkpt><trkpt lat="52.5975186378" lon="17.0522201713"></trkpt><trkpt lat="52.5962387212" lon="17.0495445002"></trkpt><trkpt lat="52.5776903238" lon="17.017716486"></trkpt><trkpt lat="52.576673599" lon="17.0168570057"></trkpt><trkpt lat="52.555197319" lon="16.9930667337"></trkpt><trkpt lat="52.5543136988" lon="16.99155665"></trkpt><trkpt lat="52.5524543412" lon="16.9891517982"></trkpt><trkpt lat="52.5423420779" lon="16.9783032686"></trkpt><trkpt lat="52.5410871394" lon="16.9786486868"></trkpt><trkpt lat="52.5401010085" lon="16.9791258685"></trkpt><trkpt lat="52.5396799017" lon="16.9792433828"></trkpt><trkpt lat="52.5391283724" lon="16.9795275293"></trkpt><trkpt lat="52.5384972151" lon="16.9797470514"></trkpt><trkpt lat="52.5002623256" lon="16.9849985652"></trkpt><trkpt lat="52.4979855493" lon="16.9826031011"></trkpt><trkpt lat="52.4911215249" lon="16.9770522695"></trkpt><trkpt lat="52.4893754069" lon="16.9771904033"></trkpt><trkpt lat="52.4456149153" lon="16.9832858909"></trkpt><trkpt lat="52.4192159437" lon="16.9743428193"></trkpt><trkpt lat="52.4184548669" lon="16.9718963932"></trkpt><trkpt lat="52.4138774257" lon="16.9525439199"></trkpt><trkpt lat="52.4145937432" lon="16.9487427268"></trkpt><trkpt lat="52.4169845134" lon="16.9395171013"></trkpt><trkpt lat="52.4172647204" lon="16.9396804646"></trkpt></trkseg></trk></gpx>