<?xml version="1.0" encoding="UTF-8" standalone="no" ?><gpx xmlns="http://www.topografix.com/GPX/1/1" xmlns:gpxx="http://www.garmin.com/xmlschemas/GpxExtensions/v3" ><trk><trkseg><trkpt lat="50.536089" lon="16.898149"></trkpt><trkpt lat="50.536022" lon="16.897724"></trkpt><trkpt lat="50.535913" lon="16.897292"></trkpt><trkpt lat="50.535611" lon="16.897521"></trkpt><trkpt lat="50.535548" lon="16.897077"></trkpt><trkpt lat="50.535502" lon="16.896492"></trkpt><trkpt lat="50.535405" lon="16.895877"></trkpt><trkpt lat="50.535249" lon="16.89519"></trkpt><trkpt lat="50.534672" lon="16.89328"></trkpt><trkpt lat="50.534441" lon="16.892911"></trkpt><trkpt lat="50.533463" lon="16.891639"></trkpt><trkpt lat="50.533094" lon="16.891418"></trkpt><trkpt lat="50.532652" lon="16.891079"></trkpt><trkpt lat="50.53238" lon="16.890757"></trkpt><trkpt lat="50.532139" lon="16.890381"></trkpt><trkpt lat="50.531952" lon="16.889958"></trkpt><trkpt lat="50.530878" lon="16.887949"></trkpt><trkpt lat="50.52981" lon="16.886353"></trkpt><trkpt lat="50.52947" lon="16.886383"></trkpt><trkpt lat="50.528056" lon="16.885928"></trkpt><trkpt lat="50.52788" lon="16.885546"></trkpt><trkpt lat="50.527735" lon="16.885097"></trkpt><trkpt lat="50.524859" lon="16.877947"></trkpt><trkpt lat="50.524629" lon="16.87766"></trkpt><trkpt lat="50.524947" lon="16.87794"></trkpt><trkpt lat="50.525284" lon="16.877977"></trkpt><trkpt lat="50.525607" lon="16.877844"></trkpt><trkpt lat="50.525881" lon="16.877843"></trkpt><trkpt lat="50.525957" lon="16.87827"></trkpt><trkpt lat="50.526117" lon="16.877781"></trkpt><trkpt lat="50.526353" lon="16.878028"></trkpt><trkpt lat="50.526039" lon="16.87797"></trkpt><trkpt lat="50.524917" lon="16.877935"></trkpt><trkpt lat="50.524539" lon="16.877753"></trkpt><trkpt lat="50.524157" lon="16.878024"></trkpt><trkpt lat="50.523857" lon="16.878393"></trkpt><trkpt lat="50.523497" lon="16.878664"></trkpt><trkpt lat="50.522695" lon="16.879108"></trkpt><trkpt lat="50.522327" lon="16.879166"></trkpt><trkpt lat="50.521929" lon="16.878985"></trkpt><trkpt lat="50.521586" lon="16.878905"></trkpt><trkpt lat="50.52108" lon="16.87865"></trkpt><trkpt lat="50.520804" lon="16.87843"></trkpt><trkpt lat="50.520442" lon="16.878468"></trkpt><trkpt lat="50.520382" lon="16.878924"></trkpt><trkpt lat="50.520154" lon="16.879203"></trkpt><trkpt lat="50.520136" lon="16.879669"></trkpt><trkpt lat="50.520176" lon="16.880137"></trkpt><trkpt lat="50.52026" lon="16.880682"></trkpt><trkpt lat="50.520225" lon="16.881154"></trkpt><trkpt lat="50.520367" lon="16.881577"></trkpt><trkpt lat="50.520449" lon="16.882125"></trkpt><trkpt lat="50.520515" lon="16.882915"></trkpt><trkpt lat="50.520523" lon="16.882453"></trkpt><trkpt lat="50.52059" lon="16.882921"></trkpt><trkpt lat="50.520314" lon="16.882619"></trkpt><trkpt lat="50.520265" lon="16.882044"></trkpt><trkpt lat="50.520195" lon="16.88163"></trkpt><trkpt lat="50.520162" lon="16.881185"></trkpt><trkpt lat="50.520484" lon="16.881305"></trkpt><trkpt lat="50.520572" lon="16.880844"></trkpt><trkpt lat="50.5212" lon="16.880923"></trkpt><trkpt lat="50.521315" lon="16.88156"></trkpt><trkpt lat="50.521181" lon="16.881002"></trkpt><trkpt lat="50.520939" lon="16.880758"></trkpt><trkpt lat="50.521214" lon="16.880661"></trkpt><trkpt lat="50.521506" lon="16.880709"></trkpt><trkpt lat="50.521245" lon="16.880909"></trkpt><trkpt lat="50.521619" lon="16.881559"></trkpt><trkpt lat="50.521864" lon="16.881826"></trkpt><trkpt lat="50.521322" lon="16.878585"></trkpt><trkpt lat="50.521265" lon="16.880412"></trkpt><trkpt lat="50.521512" lon="16.880642"></trkpt><trkpt lat="50.521347" lon="16.879989"></trkpt><trkpt lat="50.5205" lon="16.88022"></trkpt><trkpt lat="50.5208" lon="16.880324"></trkpt><trkpt lat="50.521063" lon="16.880121"></trkpt><trkpt lat="50.520834" lon="16.87972"></trkpt><trkpt lat="50.520551" lon="16.879624"></trkpt><trkpt lat="50.520298" lon="16.879319"></trkpt><trkpt lat="50.520223" lon="16.878902"></trkpt><trkpt lat="50.520471" lon="16.878267"></trkpt><trkpt lat="50.520793" lon="16.878336"></trkpt><trkpt lat="50.521107" lon="16.878543"></trkpt><trkpt lat="50.521578" lon="16.878756"></trkpt><trkpt lat="50.522083" lon="16.878895"></trkpt><trkpt lat="50.522488" lon="16.878904"></trkpt><trkpt lat="50.523396" lon="16.878746"></trkpt><trkpt lat="50.523849" lon="16.878428"></trkpt><trkpt lat="50.524073" lon="16.87817"></trkpt><trkpt lat="50.524592" lon="16.877733"></trkpt><trkpt lat="50.525166" lon="16.878396"></trkpt><trkpt lat="50.525407" lon="16.878994"></trkpt><trkpt lat="50.52566" lon="16.87943"></trkpt><trkpt lat="50.525819" lon="16.879777"></trkpt><trkpt lat="50.527757" lon="16.884962"></trkpt><trkpt lat="50.528203" lon="16.885918"></trkpt><trkpt lat="50.528564" lon="16.886104"></trkpt><trkpt lat="50.529" lon="16.886081"></trkpt><trkpt lat="50.53019" lon="16.886431"></trkpt><trkpt lat="50.530394" lon="16.886911"></trkpt><trkpt lat="50.530725" lon="16.887456"></trkpt><trkpt lat="50.533959" lon="16.891867"></trkpt><trkpt lat="50.534557" lon="16.892895"></trkpt><trkpt lat="50.535154" lon="16.894167"></trkpt><trkpt lat="50.535301" lon="16.894792"></trkpt><trkpt lat="50.535606" lon="16.896619"></trkpt><trkpt lat="50.535608" lon="16.897122"></trkpt><trkpt lat="50.53588" lon="16.897329"></trkpt><trkpt lat="50.536178" lon="16.897644"></trkpt></trkseg></trk></gpx>