<?xml version="1.0" encoding="UTF-8" standalone="no" ?><gpx xmlns="http://www.topografix.com/GPX/1/1" xmlns:gpxx="http://www.garmin.com/xmlschemas/GpxExtensions/v3" ><trk><trkseg><trkpt lat="52.529435" lon="17.603317"></trkpt><trkpt lat="52.529498" lon="17.603633"></trkpt><trkpt lat="52.529677" lon="17.603971"></trkpt><trkpt lat="52.529837" lon="17.603716"></trkpt><trkpt lat="52.529858" lon="17.604075"></trkpt><trkpt lat="52.530126" lon="17.604338"></trkpt><trkpt lat="52.530354" lon="17.604381"></trkpt><trkpt lat="52.530412" lon="17.604708"></trkpt><trkpt lat="52.530468" lon="17.605181"></trkpt><trkpt lat="52.530831" lon="17.606755"></trkpt><trkpt lat="52.531038" lon="17.60701"></trkpt><trkpt lat="52.532108" lon="17.608586"></trkpt><trkpt lat="52.532086" lon="17.609098"></trkpt><trkpt lat="52.532087" lon="17.613408"></trkpt><trkpt lat="52.532524" lon="17.622858"></trkpt><trkpt lat="52.532653" lon="17.623398"></trkpt><trkpt lat="52.532895" lon="17.624193"></trkpt><trkpt lat="52.533127" lon="17.624577"></trkpt><trkpt lat="52.533291" lon="17.624764"></trkpt><trkpt lat="52.533863" lon="17.625304"></trkpt><trkpt lat="52.534986" lon="17.626573"></trkpt><trkpt lat="52.534889" lon="17.626898"></trkpt><trkpt lat="52.534245" lon="17.629507"></trkpt><trkpt lat="52.534156" lon="17.630357"></trkpt><trkpt lat="52.533819" lon="17.637809"></trkpt><trkpt lat="52.533895" lon="17.638634"></trkpt><trkpt lat="52.534216" lon="17.645596"></trkpt><trkpt lat="52.534181" lon="17.645933"></trkpt><trkpt lat="52.534068" lon="17.647812"></trkpt><trkpt lat="52.532403" lon="17.663112"></trkpt><trkpt lat="52.532192" lon="17.663249"></trkpt><trkpt lat="52.531722" lon="17.663625"></trkpt><trkpt lat="52.531561" lon="17.66382"></trkpt><trkpt lat="52.531433" lon="17.664079"></trkpt><trkpt lat="52.530908" lon="17.664778"></trkpt><trkpt lat="52.53035" lon="17.665052"></trkpt><trkpt lat="52.523267" lon="17.66758"></trkpt><trkpt lat="52.522608" lon="17.667723"></trkpt><trkpt lat="52.521078" lon="17.668357"></trkpt><trkpt lat="52.520498" lon="17.668698"></trkpt><trkpt lat="52.51877" lon="17.670031"></trkpt><trkpt lat="52.518724" lon="17.67063"></trkpt><trkpt lat="52.518359" lon="17.673415"></trkpt><trkpt lat="52.518134" lon="17.673656"></trkpt><trkpt lat="52.518005" lon="17.674012"></trkpt><trkpt lat="52.517913" lon="17.674739"></trkpt><trkpt lat="52.517731" lon="17.675755"></trkpt><trkpt lat="52.517627" lon="17.676047"></trkpt><trkpt lat="52.517762" lon="17.6757"></trkpt><trkpt lat="52.517728" lon="17.675221"></trkpt><trkpt lat="52.51753" lon="17.675228"></trkpt><trkpt lat="52.517325" lon="17.675261"></trkpt><trkpt lat="52.517118" lon="17.675325"></trkpt><trkpt lat="52.516649" lon="17.67541"></trkpt><trkpt lat="52.488318" lon="17.679366"></trkpt><trkpt lat="52.484545" lon="17.680683"></trkpt><trkpt lat="52.484125" lon="17.681189"></trkpt><trkpt lat="52.483391" lon="17.681933"></trkpt><trkpt lat="52.482991" lon="17.682061"></trkpt><trkpt lat="52.469909" lon="17.684542"></trkpt><trkpt lat="52.469592" lon="17.684123"></trkpt><trkpt lat="52.463943" lon="17.677847"></trkpt><trkpt lat="52.463685" lon="17.678084"></trkpt><trkpt lat="52.463033" lon="17.678813"></trkpt><trkpt lat="52.462861" lon="17.6793"></trkpt><trkpt lat="52.462643" lon="17.679741"></trkpt><trkpt lat="52.462369" lon="17.680166"></trkpt><trkpt lat="52.461311" lon="17.68159"></trkpt><trkpt lat="52.461041" lon="17.681762"></trkpt><trkpt lat="52.43624" lon="17.69425"></trkpt><trkpt lat="52.435801" lon="17.694118"></trkpt><trkpt lat="52.423879" lon="17.688774"></trkpt><trkpt lat="52.423819" lon="17.688382"></trkpt><trkpt lat="52.423554" lon="17.688215"></trkpt><trkpt lat="52.423312" lon="17.687952"></trkpt><trkpt lat="52.412407" lon="17.674136"></trkpt><trkpt lat="52.412055" lon="17.673387"></trkpt><trkpt lat="52.405916" lon="17.662875"></trkpt><trkpt lat="52.405382" lon="17.662672"></trkpt><trkpt lat="52.404873" lon="17.662299"></trkpt><trkpt lat="52.379296" lon="17.643373"></trkpt><trkpt lat="52.378989" lon="17.643249"></trkpt><trkpt lat="52.378064" lon="17.643036"></trkpt><trkpt lat="52.377599" lon="17.643256"></trkpt><trkpt lat="52.377382" lon="17.643292"></trkpt><trkpt lat="52.376616" lon="17.643319"></trkpt><trkpt lat="52.362434" lon="17.645778"></trkpt><trkpt lat="52.362365" lon="17.646201"></trkpt><trkpt lat="52.362414" lon="17.645774"></trkpt><trkpt lat="52.3625" lon="17.645305"></trkpt><trkpt lat="52.362673" lon="17.642863"></trkpt><trkpt lat="52.362365" lon="17.642706"></trkpt><trkpt lat="52.358652" lon="17.64028"></trkpt><trkpt lat="52.358243" lon="17.639678"></trkpt><trkpt lat="52.357984" lon="17.639041"></trkpt><trkpt lat="52.353567" lon="17.629706"></trkpt><trkpt lat="52.353419" lon="17.629454"></trkpt><trkpt lat="52.353083" lon="17.629"></trkpt><trkpt lat="52.353259" lon="17.629295"></trkpt><trkpt lat="52.353535" lon="17.629929"></trkpt><trkpt lat="52.353213" lon="17.630587"></trkpt><trkpt lat="52.352241" lon="17.632935"></trkpt><trkpt lat="52.35217" lon="17.633241"></trkpt><trkpt lat="52.349761" lon="17.640516"></trkpt><trkpt lat="52.349345" lon="17.640317"></trkpt><trkpt lat="52.339849" lon="17.636983"></trkpt><trkpt lat="52.339457" lon="17.637451"></trkpt><trkpt lat="52.33724" lon="17.640667"></trkpt><trkpt lat="52.33691" lon="17.641414"></trkpt><trkpt lat="52.334074" lon="17.64646"></trkpt><trkpt lat="52.331167" lon="17.640194"></trkpt><trkpt lat="52.331309" lon="17.639801"></trkpt><trkpt lat="52.331362" lon="17.639394"></trkpt><trkpt lat="52.331327" lon="17.638672"></trkpt><trkpt lat="52.331219" lon="17.638014"></trkpt><trkpt lat="52.331094" lon="17.637515"></trkpt><trkpt lat="52.330956" lon="17.63711"></trkpt><trkpt lat="52.330856" lon="17.636682"></trkpt><trkpt lat="52.330989" lon="17.636297"></trkpt><trkpt lat="52.331166" lon="17.635937"></trkpt><trkpt lat="52.331598" lon="17.635178"></trkpt><trkpt lat="52.332062" lon="17.63419"></trkpt><trkpt lat="52.332026" lon="17.633841"></trkpt><trkpt lat="52.33181" lon="17.632942"></trkpt><trkpt lat="52.331287" lon="17.631269"></trkpt><trkpt lat="52.331146" lon="17.631532"></trkpt><trkpt lat="52.330902" lon="17.631711"></trkpt><trkpt lat="52.330745" lon="17.631962"></trkpt><trkpt lat="52.330037" lon="17.633297"></trkpt><trkpt lat="52.329038" lon="17.634842"></trkpt><trkpt lat="52.328369" lon="17.6355"></trkpt><trkpt lat="52.327525" lon="17.636008"></trkpt><trkpt lat="52.327196" lon="17.635965"></trkpt><trkpt lat="52.32657" lon="17.635644"></trkpt><trkpt lat="52.326281" lon="17.635535"></trkpt><trkpt lat="52.325987" lon="17.63555"></trkpt><trkpt lat="52.324057" lon="17.635206"></trkpt><trkpt lat="52.323577" lon="17.635044"></trkpt><trkpt lat="52.319871" lon="17.634541"></trkpt><trkpt lat="52.319285" lon="17.634817"></trkpt><trkpt lat="52.316998" lon="17.636413"></trkpt><trkpt lat="52.316638" lon="17.636724"></trkpt><trkpt lat="52.316065" lon="17.637036"></trkpt><trkpt lat="52.31376" lon="17.639106"></trkpt><trkpt lat="52.313479" lon="17.639839"></trkpt><trkpt lat="52.312205" lon="17.642541"></trkpt><trkpt lat="52.31187" lon="17.64309"></trkpt><trkpt lat="52.311628" lon="17.64379"></trkpt><trkpt lat="52.309013" lon="17.649667"></trkpt><trkpt lat="52.308807" lon="17.649791"></trkpt><trkpt lat="52.308701" lon="17.650111"></trkpt><trkpt lat="52.308532" lon="17.650753"></trkpt><trkpt lat="52.305998" lon="17.65856"></trkpt><trkpt lat="52.305744" lon="17.658106"></trkpt><trkpt lat="52.303963" lon="17.655343"></trkpt><trkpt lat="52.302324" lon="17.653198"></trkpt><trkpt lat="52.30178" lon="17.652961"></trkpt><trkpt lat="52.292398" lon="17.647554"></trkpt><trkpt lat="52.292322" lon="17.647228"></trkpt><trkpt lat="52.291565" lon="17.644691"></trkpt><trkpt lat="52.29127" lon="17.644846"></trkpt><trkpt lat="52.29092" lon="17.645078"></trkpt><trkpt lat="52.290733" lon="17.645339"></trkpt><trkpt lat="52.290463" lon="17.645816"></trkpt><trkpt lat="52.2901" lon="17.646281"></trkpt><trkpt lat="52.288993" lon="17.647309"></trkpt><trkpt lat="52.288802" lon="17.647196"></trkpt><trkpt lat="52.288589" lon="17.646898"></trkpt><trkpt lat="52.286391" lon="17.644242"></trkpt><trkpt lat="52.28607" lon="17.644044"></trkpt><trkpt lat="52.285786" lon="17.643944"></trkpt><trkpt lat="52.271372" lon="17.64072"></trkpt><trkpt lat="52.246192" lon="17.649523"></trkpt><trkpt lat="52.24572" lon="17.649916"></trkpt><trkpt lat="52.238719" lon="17.654377"></trkpt><trkpt lat="52.238271" lon="17.654294"></trkpt><trkpt lat="52.236431" lon="17.653716"></trkpt><trkpt lat="52.227553" lon="17.649747"></trkpt><trkpt lat="52.227207" lon="17.649136"></trkpt><trkpt lat="52.216525" lon="17.62726"></trkpt><trkpt lat="52.216784" lon="17.626564"></trkpt><trkpt lat="52.217021" lon="17.625793"></trkpt><trkpt lat="52.217197" lon="17.62495"></trkpt><trkpt lat="52.21846" lon="17.616883"></trkpt><trkpt lat="52.217983" lon="17.61672"></trkpt><trkpt lat="52.216833" lon="17.616179"></trkpt><trkpt lat="52.216741" lon="17.615813"></trkpt><trkpt lat="52.216624" lon="17.615205"></trkpt><trkpt lat="52.213478" lon="17.60219"></trkpt><trkpt lat="52.213173" lon="17.601272"></trkpt><trkpt lat="52.210415" lon="17.591227"></trkpt><trkpt lat="52.210352" lon="17.590469"></trkpt><trkpt lat="52.210114" lon="17.590119"></trkpt><trkpt lat="52.209873" lon="17.589877"></trkpt><trkpt lat="52.2097" lon="17.589522"></trkpt><trkpt lat="52.209508" lon="17.588812"></trkpt><trkpt lat="52.209499" lon="17.588185"></trkpt><trkpt lat="52.209538" lon="17.587461"></trkpt><trkpt lat="52.210529" lon="17.577778"></trkpt><trkpt lat="52.210768" lon="17.577357"></trkpt><trkpt lat="52.21105" lon="17.576717"></trkpt><trkpt lat="52.211258" lon="17.575967"></trkpt><trkpt lat="52.211591" lon="17.574464"></trkpt><trkpt lat="52.211723" lon="17.573665"></trkpt><trkpt lat="52.212294" lon="17.568609"></trkpt><trkpt lat="52.211906" lon="17.568395"></trkpt><trkpt lat="52.207197" lon="17.566439"></trkpt><trkpt lat="52.206563" lon="17.566419"></trkpt><trkpt lat="52.194208" lon="17.563986"></trkpt><trkpt lat="52.194194" lon="17.563392"></trkpt><trkpt lat="52.194295" lon="17.558783"></trkpt><trkpt lat="52.194843" lon="17.550509"></trkpt><trkpt lat="52.195004" lon="17.550213"></trkpt><trkpt lat="52.198227" lon="17.542791"></trkpt><trkpt lat="52.198238" lon="17.541586"></trkpt><trkpt lat="52.197942" lon="17.5371"></trkpt><trkpt lat="52.197724" lon="17.536248"></trkpt><trkpt lat="52.197677" lon="17.53591"></trkpt><trkpt lat="52.197647" lon="17.535563"></trkpt><trkpt lat="52.196777" lon="17.528991"></trkpt><trkpt lat="52.196588" lon="17.528028"></trkpt><trkpt lat="52.194456" lon="17.519316"></trkpt><trkpt lat="52.194253" lon="17.518175"></trkpt><trkpt lat="52.194253" lon="17.517549"></trkpt><trkpt lat="52.194331" lon="17.516502"></trkpt><trkpt lat="52.194482" lon="17.515724"></trkpt><trkpt lat="52.194693" lon="17.513353"></trkpt><trkpt lat="52.19456" lon="17.5126"></trkpt><trkpt lat="52.19445" lon="17.511589"></trkpt><trkpt lat="52.194427" lon="17.511201"></trkpt><trkpt lat="52.194201" lon="17.49703"></trkpt><trkpt lat="52.194349" lon="17.496628"></trkpt><trkpt lat="52.194496" lon="17.496011"></trkpt><trkpt lat="52.194581" lon="17.495229"></trkpt><trkpt lat="52.194998" lon="17.493313"></trkpt><trkpt lat="52.195352" lon="17.492896"></trkpt><trkpt lat="52.197665" lon="17.489727"></trkpt><trkpt lat="52.197912" lon="17.489318"></trkpt><trkpt lat="52.198098" lon="17.489127"></trkpt><trkpt lat="52.198301" lon="17.489002"></trkpt><trkpt lat="52.200155" lon="17.488199"></trkpt><trkpt lat="52.200765" lon="17.488371"></trkpt><trkpt lat="52.201027" lon="17.488477"></trkpt><trkpt lat="52.202568" lon="17.4893"></trkpt><trkpt lat="52.203056" lon="17.489487"></trkpt><trkpt lat="52.203239" lon="17.489304"></trkpt><trkpt lat="52.203586" lon="17.488817"></trkpt><trkpt lat="52.204371" lon="17.487922"></trkpt><trkpt lat="52.204662" lon="17.48785"></trkpt><trkpt lat="52.20492" lon="17.487843"></trkpt><trkpt lat="52.205605" lon="17.487685"></trkpt><trkpt lat="52.205898" lon="17.487318"></trkpt><trkpt lat="52.206228" lon="17.486976"></trkpt><trkpt lat="52.206615" lon="17.486461"></trkpt><trkpt lat="52.206679" lon="17.485863"></trkpt><trkpt lat="52.206643" lon="17.485049"></trkpt><trkpt lat="52.205208" lon="17.439171"></trkpt><trkpt lat="52.205134" lon="17.438276"></trkpt><trkpt lat="52.204841" lon="17.430085"></trkpt><trkpt lat="52.205029" lon="17.429669"></trkpt><trkpt lat="52.210407" lon="17.415579"></trkpt><trkpt lat="52.210481" lon="17.415204"></trkpt><trkpt lat="52.213744" lon="17.392427"></trkpt><trkpt lat="52.213635" lon="17.391513"></trkpt><trkpt lat="52.213199" lon="17.38296"></trkpt><trkpt lat="52.213426" lon="17.382678"></trkpt><trkpt lat="52.213609" lon="17.382545"></trkpt><trkpt lat="52.213896" lon="17.382377"></trkpt><trkpt lat="52.214615" lon="17.381674"></trkpt><trkpt lat="52.214686" lon="17.381283"></trkpt><trkpt lat="52.214674" lon="17.380797"></trkpt><trkpt lat="52.214648" lon="17.380469"></trkpt><trkpt lat="52.214144" lon="17.376534"></trkpt><trkpt lat="52.213957" lon="17.375511"></trkpt><trkpt lat="52.211142" lon="17.35496"></trkpt><trkpt lat="52.211085" lon="17.354158"></trkpt><trkpt lat="52.210918" lon="17.346605"></trkpt><trkpt lat="52.21131" lon="17.345915"></trkpt><trkpt lat="52.214266" lon="17.33979"></trkpt><trkpt lat="52.214485" lon="17.338622"></trkpt><trkpt lat="52.218783" lon="17.307281"></trkpt><trkpt lat="52.218319" lon="17.30665"></trkpt><trkpt lat="52.217692" lon="17.305434"></trkpt><trkpt lat="52.217747" lon="17.305019"></trkpt><trkpt lat="52.217986" lon="17.304367"></trkpt><trkpt lat="52.222665" lon="17.287745"></trkpt><trkpt lat="52.222301" lon="17.287276"></trkpt><trkpt lat="52.222078" lon="17.28694"></trkpt><trkpt lat="52.221859" lon="17.286654"></trkpt><trkpt lat="52.221759" lon="17.286187"></trkpt><trkpt lat="52.221724" lon="17.28575"></trkpt><trkpt lat="52.221586" lon="17.281069"></trkpt><trkpt lat="52.221853" lon="17.281235"></trkpt><trkpt lat="52.221582" lon="17.280953"></trkpt><trkpt lat="52.221344" lon="17.280817"></trkpt><trkpt lat="52.21699" lon="17.277611"></trkpt><trkpt lat="52.217251" lon="17.277051"></trkpt><trkpt lat="52.218059" lon="17.275093"></trkpt></trkseg></trk></gpx>