<?xml version="1.0" encoding="UTF-8" standalone="no" ?><gpx xmlns="http://www.topografix.com/GPX/1/1" xmlns:gpxx="http://www.garmin.com/xmlschemas/GpxExtensions/v3" ><trk><trkseg><trkpt lat="51.511811" lon="17.110014"></trkpt><trkpt lat="51.5122" lon="17.110325"></trkpt><trkpt lat="51.512484" lon="17.109482"></trkpt><trkpt lat="51.512583" lon="17.109124"></trkpt><trkpt lat="51.513524" lon="17.106283"></trkpt><trkpt lat="51.51383" lon="17.105531"></trkpt><trkpt lat="51.514583" lon="17.103315"></trkpt><trkpt lat="51.514675" lon="17.102509"></trkpt><trkpt lat="51.514836" lon="17.101834"></trkpt><trkpt lat="51.516862" lon="17.095566"></trkpt><trkpt lat="51.517241" lon="17.095072"></trkpt><trkpt lat="51.518095" lon="17.093788"></trkpt><trkpt lat="51.518456" lon="17.092774"></trkpt><trkpt lat="51.521678" lon="17.082035"></trkpt><trkpt lat="51.52171" lon="17.08131"></trkpt><trkpt lat="51.521697" lon="17.079313"></trkpt><trkpt lat="51.521642" lon="17.078641"></trkpt><trkpt lat="51.52177" lon="17.078077"></trkpt><trkpt lat="51.52202" lon="17.077825"></trkpt><trkpt lat="51.522373" lon="17.077777"></trkpt><trkpt lat="51.522677" lon="17.077974"></trkpt><trkpt lat="51.523743" lon="17.07846"></trkpt><trkpt lat="51.52418" lon="17.078474"></trkpt><trkpt lat="51.525879" lon="17.078196"></trkpt><trkpt lat="51.525947" lon="17.077505"></trkpt><trkpt lat="51.525974" lon="17.076965"></trkpt><trkpt lat="51.525888" lon="17.076378"></trkpt><trkpt lat="51.525853" lon="17.075804"></trkpt><trkpt lat="51.526036" lon="17.075117"></trkpt><trkpt lat="51.526272" lon="17.074873"></trkpt><trkpt lat="51.52667" lon="17.074623"></trkpt><trkpt lat="51.526448" lon="17.07471"></trkpt><trkpt lat="51.526143" lon="17.074921"></trkpt><trkpt lat="51.525992" lon="17.075165"></trkpt><trkpt lat="51.525809" lon="17.076054"></trkpt><trkpt lat="51.525943" lon="17.077093"></trkpt><trkpt lat="51.525915" lon="17.077643"></trkpt><trkpt lat="51.525855" lon="17.078241"></trkpt><trkpt lat="51.525694" lon="17.078483"></trkpt><trkpt lat="51.524929" lon="17.078484"></trkpt><trkpt lat="51.523132" lon="17.078215"></trkpt><trkpt lat="51.522426" lon="17.077768"></trkpt><trkpt lat="51.522213" lon="17.077715"></trkpt><trkpt lat="51.521756" lon="17.077977"></trkpt><trkpt lat="51.521618" lon="17.077722"></trkpt><trkpt lat="51.52157" lon="17.07698"></trkpt><trkpt lat="51.520883" lon="17.071229"></trkpt><trkpt lat="51.52056" lon="17.070708"></trkpt><trkpt lat="51.519782" lon="17.069725"></trkpt><trkpt lat="51.519399" lon="17.069524"></trkpt><trkpt lat="51.518579" lon="17.069771"></trkpt><trkpt lat="51.518244" lon="17.069532"></trkpt><trkpt lat="51.517944" lon="17.069089"></trkpt><trkpt lat="51.517742" lon="17.06851"></trkpt><trkpt lat="51.517548" lon="17.067732"></trkpt><trkpt lat="51.516599" lon="17.06459"></trkpt><trkpt lat="51.51653" lon="17.063825"></trkpt><trkpt lat="51.516605" lon="17.063252"></trkpt><trkpt lat="51.516821" lon="17.062461"></trkpt><trkpt lat="51.517146" lon="17.061831"></trkpt><trkpt lat="51.518018" lon="17.060374"></trkpt><trkpt lat="51.518583" lon="17.059152"></trkpt><trkpt lat="51.518977" lon="17.060255"></trkpt><trkpt lat="51.519059" lon="17.060673"></trkpt><trkpt lat="51.519135" lon="17.061221"></trkpt><trkpt lat="51.519279" lon="17.06278"></trkpt><trkpt lat="51.519405" lon="17.06342"></trkpt><trkpt lat="51.51956" lon="17.063955"></trkpt><trkpt lat="51.519807" lon="17.064256"></trkpt><trkpt lat="51.519469" lon="17.063735"></trkpt><trkpt lat="51.519365" lon="17.063099"></trkpt><trkpt lat="51.518652" lon="17.056479"></trkpt><trkpt lat="51.518643" lon="17.056127"></trkpt><trkpt lat="51.518518" lon="17.055298"></trkpt><trkpt lat="51.518473" lon="17.054575"></trkpt><trkpt lat="51.518518" lon="17.053699"></trkpt><trkpt lat="51.518487" lon="17.052932"></trkpt><trkpt lat="51.518261" lon="17.052523"></trkpt><trkpt lat="51.51773" lon="17.051302"></trkpt><trkpt lat="51.517594" lon="17.050811"></trkpt><trkpt lat="51.517359" lon="17.050232"></trkpt><trkpt lat="51.517006" lon="17.050022"></trkpt><trkpt lat="51.516647" lon="17.050074"></trkpt><trkpt lat="51.516414" lon="17.050069"></trkpt><trkpt lat="51.516196" lon="17.049954"></trkpt><trkpt lat="51.515769" lon="17.049559"></trkpt><trkpt lat="51.515227" lon="17.049323"></trkpt><trkpt lat="51.514804" lon="17.049228"></trkpt><trkpt lat="51.51457" lon="17.048915"></trkpt><trkpt lat="51.514714" lon="17.048661"></trkpt><trkpt lat="51.514817" lon="17.047845"></trkpt><trkpt lat="51.514897" lon="17.046262"></trkpt><trkpt lat="51.515243" lon="17.044066"></trkpt><trkpt lat="51.515626" lon="17.043401"></trkpt><trkpt lat="51.516011" lon="17.042908"></trkpt><trkpt lat="51.516452" lon="17.042459"></trkpt><trkpt lat="51.516909" lon="17.042115"></trkpt><trkpt lat="51.517422" lon="17.041801"></trkpt><trkpt lat="51.517689" lon="17.041257"></trkpt><trkpt lat="51.518197" lon="17.041317"></trkpt><trkpt lat="51.518474" lon="17.04144"></trkpt><trkpt lat="51.518599" lon="17.041706"></trkpt><trkpt lat="51.518809" lon="17.042082"></trkpt><trkpt lat="51.519019" lon="17.042228"></trkpt><trkpt lat="51.518732" lon="17.042061"></trkpt><trkpt lat="51.518632" lon="17.041577"></trkpt><trkpt lat="51.51826" lon="17.041346"></trkpt><trkpt lat="51.517723" lon="17.040894"></trkpt><trkpt lat="51.517683" lon="17.040341"></trkpt><trkpt lat="51.517475" lon="17.039933"></trkpt><trkpt lat="51.517166" lon="17.039438"></trkpt><trkpt lat="51.516876" lon="17.03863"></trkpt><trkpt lat="51.515406" lon="17.033753"></trkpt><trkpt lat="51.515282" lon="17.033191"></trkpt><trkpt lat="51.515091" lon="17.032555"></trkpt><trkpt lat="51.515012" lon="17.032199"></trkpt><trkpt lat="51.515198" lon="17.03209"></trkpt><trkpt lat="51.515629" lon="17.032145"></trkpt><trkpt lat="51.515898" lon="17.032144"></trkpt><trkpt lat="51.519544" lon="17.032677"></trkpt><trkpt lat="51.519768" lon="17.032833"></trkpt><trkpt lat="51.520089" lon="17.032843"></trkpt><trkpt lat="51.520309" lon="17.032733"></trkpt><trkpt lat="51.520597" lon="17.032266"></trkpt><trkpt lat="51.5207" lon="17.031933"></trkpt><trkpt lat="51.520768" lon="17.030912"></trkpt><trkpt lat="51.52077" lon="17.030493"></trkpt><trkpt lat="51.521088" lon="17.024005"></trkpt><trkpt lat="51.52164" lon="17.018601"></trkpt><trkpt lat="51.521786" lon="17.01801"></trkpt><trkpt lat="51.521988" lon="17.016574"></trkpt><trkpt lat="51.521963" lon="17.015634"></trkpt><trkpt lat="51.521999" lon="17.013984"></trkpt><trkpt lat="51.522061" lon="17.013503"></trkpt><trkpt lat="51.522208" lon="17.012902"></trkpt><trkpt lat="51.52261" lon="17.011584"></trkpt><trkpt lat="51.522754" lon="17.010955"></trkpt><trkpt lat="51.522707" lon="17.010525"></trkpt><trkpt lat="51.52258" lon="17.010261"></trkpt><trkpt lat="51.522743" lon="17.010908"></trkpt><trkpt lat="51.522661" lon="17.011456"></trkpt><trkpt lat="51.522501" lon="17.011864"></trkpt><trkpt lat="51.52236" lon="17.012357"></trkpt><trkpt lat="51.522283" lon="17.012689"></trkpt><trkpt lat="51.522119" lon="17.013154"></trkpt><trkpt lat="51.522009" lon="17.013719"></trkpt><trkpt lat="51.521945" lon="17.014607"></trkpt><trkpt lat="51.521947" lon="17.01499"></trkpt><trkpt lat="51.521736" lon="17.018272"></trkpt><trkpt lat="51.521591" lon="17.019042"></trkpt><trkpt lat="51.521225" lon="17.022113"></trkpt><trkpt lat="51.52121" lon="17.022434"></trkpt><trkpt lat="51.521218" lon="17.030271"></trkpt><trkpt lat="51.521411" lon="17.03012"></trkpt><trkpt lat="51.52881" lon="17.02543"></trkpt><trkpt lat="51.529118" lon="17.025522"></trkpt><trkpt lat="51.531106" lon="17.025761"></trkpt><trkpt lat="51.533231" lon="17.026391"></trkpt><trkpt lat="51.533429" lon="17.02693"></trkpt><trkpt lat="51.536801" lon="17.034736"></trkpt><trkpt lat="51.537157" lon="17.035329"></trkpt><trkpt lat="51.539295" lon="17.039516"></trkpt><trkpt lat="51.539726" lon="17.040545"></trkpt><trkpt lat="51.540269" lon="17.0428"></trkpt><trkpt lat="51.54018" lon="17.043801"></trkpt><trkpt lat="51.540183" lon="17.044926"></trkpt><trkpt lat="51.540161" lon="17.045344"></trkpt><trkpt lat="51.540078" lon="17.046186"></trkpt><trkpt lat="51.539965" lon="17.046969"></trkpt><trkpt lat="51.539552" lon="17.051604"></trkpt><trkpt lat="51.539383" lon="17.055748"></trkpt><trkpt lat="51.539467" lon="17.056253"></trkpt><trkpt lat="51.541302" lon="17.063512"></trkpt><trkpt lat="51.541625" lon="17.063402"></trkpt><trkpt lat="51.540928" lon="17.063525"></trkpt><trkpt lat="51.540341" lon="17.063759"></trkpt><trkpt lat="51.540031" lon="17.064041"></trkpt><trkpt lat="51.539241" lon="17.064634"></trkpt><trkpt lat="51.535615" lon="17.067885"></trkpt><trkpt lat="51.535244" lon="17.068338"></trkpt><trkpt lat="51.534907" lon="17.069168"></trkpt><trkpt lat="51.53446" lon="17.069611"></trkpt><trkpt lat="51.53398" lon="17.069919"></trkpt><trkpt lat="51.52582" lon="17.076254"></trkpt><trkpt lat="51.525941" lon="17.076964"></trkpt><trkpt lat="51.52592" lon="17.077345"></trkpt><trkpt lat="51.525829" lon="17.078229"></trkpt><trkpt lat="51.525647" lon="17.078479"></trkpt><trkpt lat="51.525427" lon="17.078502"></trkpt><trkpt lat="51.522387" lon="17.077738"></trkpt><trkpt lat="51.522162" lon="17.077735"></trkpt><trkpt lat="51.521746" lon="17.078015"></trkpt><trkpt lat="51.521635" lon="17.078301"></trkpt><trkpt lat="51.521589" lon="17.078627"></trkpt><trkpt lat="51.521648" lon="17.079355"></trkpt><trkpt lat="51.521646" lon="17.081497"></trkpt><trkpt lat="51.521586" lon="17.082831"></trkpt><trkpt lat="51.521411" lon="17.083892"></trkpt><trkpt lat="51.52163" lon="17.083325"></trkpt><trkpt lat="51.521924" lon="17.082847"></trkpt><trkpt lat="51.523476" lon="17.081196"></trkpt><trkpt lat="51.525043" lon="17.082596"></trkpt><trkpt lat="51.525253" lon="17.082662"></trkpt><trkpt lat="51.525535" lon="17.082889"></trkpt><trkpt lat="51.525822" lon="17.083051"></trkpt><trkpt lat="51.526135" lon="17.083143"></trkpt><trkpt lat="51.526852" lon="17.083467"></trkpt><trkpt lat="51.527093" lon="17.08386"></trkpt><trkpt lat="51.527623" lon="17.084866"></trkpt><trkpt lat="51.530782" lon="17.090043"></trkpt><trkpt lat="51.531012" lon="17.090265"></trkpt><trkpt lat="51.531806" lon="17.091196"></trkpt><trkpt lat="51.531972" lon="17.09165"></trkpt><trkpt lat="51.532035" lon="17.091998"></trkpt><trkpt lat="51.532333" lon="17.094246"></trkpt><trkpt lat="51.532349" lon="17.09461"></trkpt><trkpt lat="51.532349" lon="17.096806"></trkpt><trkpt lat="51.532293" lon="17.097256"></trkpt><trkpt lat="51.532027" lon="17.096983"></trkpt><trkpt lat="51.531882" lon="17.096731"></trkpt><trkpt lat="51.532078" lon="17.096921"></trkpt><trkpt lat="51.532323" lon="17.09749"></trkpt><trkpt lat="51.53237" lon="17.097858"></trkpt><trkpt lat="51.532396" lon="17.098329"></trkpt><trkpt lat="51.532382" lon="17.098656"></trkpt><trkpt lat="51.532476" lon="17.099126"></trkpt><trkpt lat="51.53287" lon="17.099243"></trkpt><trkpt lat="51.533048" lon="17.099098"></trkpt><trkpt lat="51.533159" lon="17.098822"></trkpt><trkpt lat="51.533491" lon="17.098263"></trkpt><trkpt lat="51.533862" lon="17.098351"></trkpt><trkpt lat="51.534419" lon="17.098589"></trkpt><trkpt lat="51.53444" lon="17.099176"></trkpt><trkpt lat="51.534355" lon="17.099521"></trkpt><trkpt lat="51.534253" lon="17.099827"></trkpt><trkpt lat="51.533755" lon="17.101721"></trkpt><trkpt lat="51.533959" lon="17.101716"></trkpt><trkpt lat="51.534276" lon="17.102004"></trkpt><trkpt lat="51.534463" lon="17.101891"></trkpt><trkpt lat="51.534856" lon="17.101781"></trkpt><trkpt lat="51.53509" lon="17.101687"></trkpt><trkpt lat="51.535213" lon="17.101224"></trkpt><trkpt lat="51.535281" lon="17.100642"></trkpt><trkpt lat="51.535534" lon="17.100372"></trkpt><trkpt lat="51.535597" lon="17.10005"></trkpt><trkpt lat="51.535709" lon="17.099733"></trkpt><trkpt lat="51.535777" lon="17.099412"></trkpt><trkpt lat="51.536137" lon="17.098243"></trkpt><trkpt lat="51.536291" lon="17.09793"></trkpt><trkpt lat="51.536481" lon="17.097357"></trkpt><trkpt lat="51.536637" lon="17.096964"></trkpt><trkpt lat="51.536815" lon="17.096661"></trkpt><trkpt lat="51.536941" lon="17.09639"></trkpt><trkpt lat="51.538298" lon="17.094147"></trkpt><trkpt lat="51.53832" lon="17.094543"></trkpt><trkpt lat="51.538458" lon="17.095685"></trkpt><trkpt lat="51.538613" lon="17.095979"></trkpt><trkpt lat="51.538843" lon="17.096084"></trkpt><trkpt lat="51.539068" lon="17.096237"></trkpt><trkpt lat="51.539196" lon="17.096583"></trkpt><trkpt lat="51.539248" lon="17.096929"></trkpt><trkpt lat="51.539394" lon="17.097169"></trkpt><trkpt lat="51.5396" lon="17.097344"></trkpt><trkpt lat="51.539904" lon="17.097656"></trkpt><trkpt lat="51.540072" lon="17.097904"></trkpt><trkpt lat="51.540069" lon="17.09826"></trkpt><trkpt lat="51.54017" lon="17.099581"></trkpt><trkpt lat="51.54029" lon="17.099861"></trkpt><trkpt lat="51.542151" lon="17.103531"></trkpt><trkpt lat="51.542524" lon="17.104166"></trkpt><trkpt lat="51.54275" lon="17.10442"></trkpt><trkpt lat="51.542896" lon="17.104734"></trkpt><trkpt lat="51.542968" lon="17.10513"></trkpt><trkpt lat="51.543191" lon="17.106"></trkpt><trkpt lat="51.543325" lon="17.106282"></trkpt><trkpt lat="51.543514" lon="17.106513"></trkpt><trkpt lat="51.543739" lon="17.106664"></trkpt><trkpt lat="51.544024" lon="17.106766"></trkpt><trkpt lat="51.544856" lon="17.106672"></trkpt><trkpt lat="51.545071" lon="17.106859"></trkpt><trkpt lat="51.54524" lon="17.10706"></trkpt><trkpt lat="51.547207" lon="17.109042"></trkpt><trkpt lat="51.547485" lon="17.109101"></trkpt><trkpt lat="51.548778" lon="17.109561"></trkpt><trkpt lat="51.548874" lon="17.109976"></trkpt><trkpt lat="51.549131" lon="17.110728"></trkpt><trkpt lat="51.549174" lon="17.111278"></trkpt><trkpt lat="51.549397" lon="17.112996"></trkpt><trkpt lat="51.549578" lon="17.113842"></trkpt><trkpt lat="51.549663" lon="17.114452"></trkpt><trkpt lat="51.549674" lon="17.114941"></trkpt><trkpt lat="51.549743" lon="17.115916"></trkpt><trkpt lat="51.54986" lon="17.116431"></trkpt><trkpt lat="51.551732" lon="17.12715"></trkpt><trkpt lat="51.551752" lon="17.127592"></trkpt><trkpt lat="51.551926" lon="17.128004"></trkpt><trkpt lat="51.552104" lon="17.128364"></trkpt><trkpt lat="51.552295" lon="17.128675"></trkpt><trkpt lat="51.552162" lon="17.128932"></trkpt><trkpt lat="51.552027" lon="17.129333"></trkpt><trkpt lat="51.551886" lon="17.129888"></trkpt><trkpt lat="51.551819" lon="17.130255"></trkpt><trkpt lat="51.551675" lon="17.13073"></trkpt><trkpt lat="51.550342" lon="17.134066"></trkpt><trkpt lat="51.54998" lon="17.134182"></trkpt><trkpt lat="51.54727" lon="17.135424"></trkpt><trkpt lat="51.547124" lon="17.135758"></trkpt><trkpt lat="51.542938" lon="17.146959"></trkpt><trkpt lat="51.542813" lon="17.147384"></trkpt><trkpt lat="51.542687" lon="17.147693"></trkpt><trkpt lat="51.542285" lon="17.148235"></trkpt><trkpt lat="51.541807" lon="17.148512"></trkpt><trkpt lat="51.54134" lon="17.148597"></trkpt><trkpt lat="51.540535" lon="17.148651"></trkpt><trkpt lat="51.540828" lon="17.148673"></trkpt><trkpt lat="51.540497" lon="17.148641"></trkpt><trkpt lat="51.532569" lon="17.146602"></trkpt><trkpt lat="51.532503" lon="17.14555"></trkpt><trkpt lat="51.532531" lon="17.144751"></trkpt><trkpt lat="51.532679" lon="17.14291"></trkpt><trkpt lat="51.532579" lon="17.142543"></trkpt><trkpt lat="51.532254" lon="17.142421"></trkpt><trkpt lat="51.531808" lon="17.142397"></trkpt><trkpt lat="51.531543" lon="17.142548"></trkpt><trkpt lat="51.531227" lon="17.142249"></trkpt><trkpt lat="51.531098" lon="17.141852"></trkpt><trkpt lat="51.530255" lon="17.139816"></trkpt><trkpt lat="51.529858" lon="17.139421"></trkpt><trkpt lat="51.517787" lon="17.12752"></trkpt><trkpt lat="51.516357" lon="17.1264"></trkpt><trkpt lat="51.515957" lon="17.126213"></trkpt><trkpt lat="51.514861" lon="17.125423"></trkpt><trkpt lat="51.514915" lon="17.124936"></trkpt><trkpt lat="51.515059" lon="17.124381"></trkpt><trkpt lat="51.515091" lon="17.124056"></trkpt><trkpt lat="51.515033" lon="17.123624"></trkpt><trkpt lat="51.51494" lon="17.123111"></trkpt><trkpt lat="51.514815" lon="17.122628"></trkpt><trkpt lat="51.51477" lon="17.122286"></trkpt><trkpt lat="51.514685" lon="17.121832"></trkpt><trkpt lat="51.514642" lon="17.121258"></trkpt><trkpt lat="51.51479" lon="17.12091"></trkpt><trkpt lat="51.515119" lon="17.11994"></trkpt><trkpt lat="51.515433" lon="17.119199"></trkpt><trkpt lat="51.515509" lon="17.118691"></trkpt><trkpt lat="51.515662" lon="17.118165"></trkpt><trkpt lat="51.515945" lon="17.116949"></trkpt><trkpt lat="51.515967" lon="17.116409"></trkpt><trkpt lat="51.516111" lon="17.115834"></trkpt><trkpt lat="51.516283" lon="17.115648"></trkpt><trkpt lat="51.516507" lon="17.115466"></trkpt><trkpt lat="51.516235" lon="17.115744"></trkpt><trkpt lat="51.516039" lon="17.116032"></trkpt><trkpt lat="51.516006" lon="17.116467"></trkpt><trkpt lat="51.51589" lon="17.117369"></trkpt><trkpt lat="51.515795" lon="17.117808"></trkpt><trkpt lat="51.515318" lon="17.119482"></trkpt><trkpt lat="51.514859" lon="17.120818"></trkpt><trkpt lat="51.514646" lon="17.121345"></trkpt><trkpt lat="51.514659" lon="17.121714"></trkpt><trkpt lat="51.514784" lon="17.122059"></trkpt><trkpt lat="51.514823" lon="17.122652"></trkpt><trkpt lat="51.514934" lon="17.12307"></trkpt><trkpt lat="51.515012" lon="17.123531"></trkpt><trkpt lat="51.515069" lon="17.124226"></trkpt><trkpt lat="51.51496" lon="17.124742"></trkpt><trkpt lat="51.514874" lon="17.125527"></trkpt><trkpt lat="51.515369" lon="17.125867"></trkpt><trkpt lat="51.515707" lon="17.126048"></trkpt><trkpt lat="51.517507" lon="17.127251"></trkpt><trkpt lat="51.517706" lon="17.127416"></trkpt><trkpt lat="51.518035" lon="17.127862"></trkpt><trkpt lat="51.517872" lon="17.128096"></trkpt><trkpt lat="51.51773" lon="17.128333"></trkpt><trkpt lat="51.517559" lon="17.128573"></trkpt><trkpt lat="51.517316" lon="17.128844"></trkpt><trkpt lat="51.515814" lon="17.130844"></trkpt><trkpt lat="51.51533" lon="17.131689"></trkpt><trkpt lat="51.515201" lon="17.131961"></trkpt><trkpt lat="51.514741" lon="17.132794"></trkpt><trkpt lat="51.513966" lon="17.133707"></trkpt><trkpt lat="51.513933" lon="17.133253"></trkpt><trkpt lat="51.513586" lon="17.130958"></trkpt><trkpt lat="51.513283" lon="17.130709"></trkpt><trkpt lat="51.512671" lon="17.12968"></trkpt><trkpt lat="51.512714" lon="17.129172"></trkpt><trkpt lat="51.512565" lon="17.127998"></trkpt><trkpt lat="51.512692" lon="17.127499"></trkpt><trkpt lat="51.512882" lon="17.127073"></trkpt><trkpt lat="51.513075" lon="17.126483"></trkpt><trkpt lat="51.513179" lon="17.125998"></trkpt><trkpt lat="51.513762" lon="17.121449"></trkpt><trkpt lat="51.513677" lon="17.120721"></trkpt><trkpt lat="51.512269" lon="17.113879"></trkpt><trkpt lat="51.511969" lon="17.113509"></trkpt><trkpt lat="51.511704" lon="17.113011"></trkpt><trkpt lat="51.511434" lon="17.112334"></trkpt><trkpt lat="51.511624" lon="17.111921"></trkpt><trkpt lat="51.512174" lon="17.110419"></trkpt><trkpt lat="51.511877" lon="17.110121"></trkpt><trkpt lat="51.511579" lon="17.110092"></trkpt></trkseg></trk></gpx>