<?xml version="1.0" encoding="UTF-8" standalone="no" ?><gpx xmlns="http://www.topografix.com/GPX/1/1" xmlns:gpxx="http://www.garmin.com/xmlschemas/GpxExtensions/v3" ><trk><trkseg><trkpt lat="50.954877" lon="15.8123"></trkpt><trkpt lat="50.955069" lon="15.812387"></trkpt><trkpt lat="50.954908" lon="15.812614"></trkpt><trkpt lat="50.954843" lon="15.813057"></trkpt><trkpt lat="50.954629" lon="15.813921"></trkpt><trkpt lat="50.954451" lon="15.814158"></trkpt><trkpt lat="50.954399" lon="15.814478"></trkpt><trkpt lat="50.954417" lon="15.814958"></trkpt><trkpt lat="50.954483" lon="15.815435"></trkpt><trkpt lat="50.954543" lon="15.816385"></trkpt><trkpt lat="50.954438" lon="15.816878"></trkpt><trkpt lat="50.954329" lon="15.81715"></trkpt><trkpt lat="50.954227" lon="15.817643"></trkpt><trkpt lat="50.954188" lon="15.817964"></trkpt><trkpt lat="50.954389" lon="15.818235"></trkpt><trkpt lat="50.955372" lon="15.819813"></trkpt><trkpt lat="50.955375" lon="15.820262"></trkpt><trkpt lat="50.955355" lon="15.820638"></trkpt><trkpt lat="50.955362" lon="15.821539"></trkpt><trkpt lat="50.955446" lon="15.821972"></trkpt><trkpt lat="50.95556" lon="15.822385"></trkpt><trkpt lat="50.955698" lon="15.822656"></trkpt><trkpt lat="50.955978" lon="15.822913"></trkpt><trkpt lat="50.956264" lon="15.822914"></trkpt><trkpt lat="50.956471" lon="15.82278"></trkpt><trkpt lat="50.957078" lon="15.82248"></trkpt><trkpt lat="50.957571" lon="15.822316"></trkpt><trkpt lat="50.959601" lon="15.821876"></trkpt><trkpt lat="50.959837" lon="15.822059"></trkpt><trkpt lat="50.960037" lon="15.822392"></trkpt><trkpt lat="50.960255" lon="15.822965"></trkpt><trkpt lat="50.963134" lon="15.829291"></trkpt><trkpt lat="50.96336" lon="15.829309"></trkpt><trkpt lat="50.963586" lon="15.82925"></trkpt><trkpt lat="50.96778" lon="15.827658"></trkpt><trkpt lat="50.968024" lon="15.826953"></trkpt><trkpt lat="50.968106" lon="15.826592"></trkpt><trkpt lat="50.968274" lon="15.826093"></trkpt><trkpt lat="50.969059" lon="15.824247"></trkpt><trkpt lat="50.969249" lon="15.824023"></trkpt><trkpt lat="50.969754" lon="15.822976"></trkpt><trkpt lat="50.969876" lon="15.821959"></trkpt><trkpt lat="50.96976" lon="15.82059"></trkpt><trkpt lat="50.969722" lon="15.819486"></trkpt><trkpt lat="50.969837" lon="15.819045"></trkpt><trkpt lat="50.969986" lon="15.818609"></trkpt><trkpt lat="50.970034" lon="15.818302"></trkpt><trkpt lat="50.969979" lon="15.817851"></trkpt><trkpt lat="50.96987" lon="15.817313"></trkpt><trkpt lat="50.969905" lon="15.816879"></trkpt><trkpt lat="50.970011" lon="15.816262"></trkpt><trkpt lat="50.970065" lon="15.815547"></trkpt><trkpt lat="50.970283" lon="15.813996"></trkpt><trkpt lat="50.970496" lon="15.813736"></trkpt><trkpt lat="50.971089" lon="15.813298"></trkpt><trkpt lat="50.971244" lon="15.813053"></trkpt><trkpt lat="50.971228" lon="15.812694"></trkpt><trkpt lat="50.971086" lon="15.812357"></trkpt><trkpt lat="50.970801" lon="15.811543"></trkpt><trkpt lat="50.970809" lon="15.811215"></trkpt><trkpt lat="50.970911" lon="15.810906"></trkpt><trkpt lat="50.971254" lon="15.810157"></trkpt><trkpt lat="50.972422" lon="15.80717"></trkpt><trkpt lat="50.972407" lon="15.806803"></trkpt><trkpt lat="50.972434" lon="15.805985"></trkpt><trkpt lat="50.97242" lon="15.805422"></trkpt><trkpt lat="50.972454" lon="15.804766"></trkpt><trkpt lat="50.972564" lon="15.804415"></trkpt><trkpt lat="50.97301" lon="15.803478"></trkpt><trkpt lat="50.973257" lon="15.802406"></trkpt><trkpt lat="50.973325" lon="15.801704"></trkpt><trkpt lat="50.973521" lon="15.801138"></trkpt><trkpt lat="50.973804" lon="15.800756"></trkpt><trkpt lat="50.974047" lon="15.800472"></trkpt><trkpt lat="50.974335" lon="15.799788"></trkpt><trkpt lat="50.974608" lon="15.798809"></trkpt><trkpt lat="50.974765" lon="15.798542"></trkpt><trkpt lat="50.974933" lon="15.798305"></trkpt><trkpt lat="50.97503" lon="15.798004"></trkpt><trkpt lat="50.975116" lon="15.797483"></trkpt><trkpt lat="50.975342" lon="15.796543"></trkpt><trkpt lat="50.976256" lon="15.794187"></trkpt><trkpt lat="50.976412" lon="15.793688"></trkpt><trkpt lat="50.976552" lon="15.792156"></trkpt><trkpt lat="50.977004" lon="15.790749"></trkpt><trkpt lat="50.977169" lon="15.790338"></trkpt><trkpt lat="50.977658" lon="15.789416"></trkpt><trkpt lat="50.97778" lon="15.789122"></trkpt><trkpt lat="50.977947" lon="15.788853"></trkpt><trkpt lat="50.978157" lon="15.788633"></trkpt><trkpt lat="50.979174" lon="15.788021"></trkpt><trkpt lat="50.979677" lon="15.787646"></trkpt><trkpt lat="50.980275" lon="15.78661"></trkpt><trkpt lat="50.981029" lon="15.78483"></trkpt><trkpt lat="50.981238" lon="15.784442"></trkpt><trkpt lat="50.981399" lon="15.784244"></trkpt><trkpt lat="50.981905" lon="15.783454"></trkpt><trkpt lat="50.982386" lon="15.78206"></trkpt><trkpt lat="50.983108" lon="15.779365"></trkpt><trkpt lat="50.98331" lon="15.777999"></trkpt><trkpt lat="50.983677" lon="15.777164"></trkpt><trkpt lat="50.984284" lon="15.776163"></trkpt><trkpt lat="50.98491" lon="15.774932"></trkpt><trkpt lat="50.985737" lon="15.773694"></trkpt><trkpt lat="50.988232" lon="15.770525"></trkpt><trkpt lat="50.988556" lon="15.770545"></trkpt><trkpt lat="50.988783" lon="15.770456"></trkpt><trkpt lat="50.988959" lon="15.770288"></trkpt><trkpt lat="50.989106" lon="15.770046"></trkpt><trkpt lat="50.989224" lon="15.769755"></trkpt><trkpt lat="50.989408" lon="15.76949"></trkpt><trkpt lat="50.989606" lon="15.769336"></trkpt><trkpt lat="50.989859" lon="15.769296"></trkpt><trkpt lat="50.992848" lon="15.769349"></trkpt><trkpt lat="50.992954" lon="15.768971"></trkpt><trkpt lat="50.993247" lon="15.768205"></trkpt><trkpt lat="50.993675" lon="15.767298"></trkpt><trkpt lat="50.99559" lon="15.762582"></trkpt><trkpt lat="50.995686" lon="15.762267"></trkpt><trkpt lat="50.995802" lon="15.761966"></trkpt><trkpt lat="50.99606" lon="15.761051"></trkpt><trkpt lat="50.996216" lon="15.760713"></trkpt><trkpt lat="50.996627" lon="15.759596"></trkpt><trkpt lat="50.997039" lon="15.759107"></trkpt><trkpt lat="50.997318" lon="15.758712"></trkpt><trkpt lat="50.99739" lon="15.758367"></trkpt><trkpt lat="50.998004" lon="15.756093"></trkpt><trkpt lat="50.99841" lon="15.753694"></trkpt><trkpt lat="50.9985" lon="15.752093"></trkpt><trkpt lat="50.998501" lon="15.749598"></trkpt><trkpt lat="50.998005" lon="15.748391"></trkpt><trkpt lat="50.997746" lon="15.746302"></trkpt><trkpt lat="50.996564" lon="15.742154"></trkpt><trkpt lat="50.996319" lon="15.741781"></trkpt><trkpt lat="50.996091" lon="15.741613"></trkpt><trkpt lat="50.995765" lon="15.741484"></trkpt><trkpt lat="50.995552" lon="15.741258"></trkpt><trkpt lat="50.995439" lon="15.740881"></trkpt><trkpt lat="50.995348" lon="15.740357"></trkpt><trkpt lat="50.994796" lon="15.73908"></trkpt><trkpt lat="50.99325" lon="15.736087"></trkpt><trkpt lat="50.993048" lon="15.736002"></trkpt><trkpt lat="50.992862" lon="15.735869"></trkpt><trkpt lat="50.992702" lon="15.735674"></trkpt><trkpt lat="50.992377" lon="15.735336"></trkpt><trkpt lat="50.992104" lon="15.735203"></trkpt><trkpt lat="50.990686" lon="15.734166"></trkpt><trkpt lat="50.990452" lon="15.734032"></trkpt><trkpt lat="50.990226" lon="15.734023"></trkpt><trkpt lat="50.990024" lon="15.733907"></trkpt><trkpt lat="50.984606" lon="15.72985"></trkpt><trkpt lat="50.984284" lon="15.729225"></trkpt><trkpt lat="50.983523" lon="15.728539"></trkpt><trkpt lat="50.983221" lon="15.728382"></trkpt><trkpt lat="50.982463" lon="15.727849"></trkpt><trkpt lat="50.981812" lon="15.727183"></trkpt><trkpt lat="50.981173" lon="15.72621"></trkpt><trkpt lat="50.979943" lon="15.724008"></trkpt><trkpt lat="50.979067" lon="15.722074"></trkpt><trkpt lat="50.978974" lon="15.721362"></trkpt><trkpt lat="50.978875" lon="15.72108"></trkpt><trkpt lat="50.978691" lon="15.720638"></trkpt><trkpt lat="50.978823" lon="15.721021"></trkpt><trkpt lat="50.978962" lon="15.721531"></trkpt><trkpt lat="50.979143" lon="15.72255"></trkpt><trkpt lat="50.978739" lon="15.722958"></trkpt><trkpt lat="50.97835" lon="15.723207"></trkpt><trkpt lat="50.977672" lon="15.723306"></trkpt><trkpt lat="50.977221" lon="15.723446"></trkpt><trkpt lat="50.976987" lon="15.723601"></trkpt><trkpt lat="50.976573" lon="15.723931"></trkpt><trkpt lat="50.976373" lon="15.724042"></trkpt><trkpt lat="50.976035" lon="15.724162"></trkpt><trkpt lat="50.975568" lon="15.724194"></trkpt><trkpt lat="50.975356" lon="15.72412"></trkpt><trkpt lat="50.975048" lon="15.724316"></trkpt><trkpt lat="50.974466" lon="15.724535"></trkpt><trkpt lat="50.96947" lon="15.727133"></trkpt><trkpt lat="50.96891" lon="15.727767"></trkpt><trkpt lat="50.967848" lon="15.729345"></trkpt><trkpt lat="50.967704" lon="15.729894"></trkpt><trkpt lat="50.967407" lon="15.730342"></trkpt><trkpt lat="50.967119" lon="15.730435"></trkpt><trkpt lat="50.966652" lon="15.730973"></trkpt><trkpt lat="50.966486" lon="15.731643"></trkpt><trkpt lat="50.966043" lon="15.733114"></trkpt><trkpt lat="50.965871" lon="15.733567"></trkpt><trkpt lat="50.965415" lon="15.73507"></trkpt><trkpt lat="50.96522" lon="15.735905"></trkpt><trkpt lat="50.964899" lon="15.736799"></trkpt><trkpt lat="50.964726" lon="15.737505"></trkpt><trkpt lat="50.964699" lon="15.737948"></trkpt><trkpt lat="50.964633" lon="15.738466"></trkpt><trkpt lat="50.964641" lon="15.739429"></trkpt><trkpt lat="50.964587" lon="15.739882"></trkpt><trkpt lat="50.964425" lon="15.740297"></trkpt><trkpt lat="50.964102" lon="15.741325"></trkpt><trkpt lat="50.963858" lon="15.74195"></trkpt><trkpt lat="50.963735" lon="15.74277"></trkpt><trkpt lat="50.963489" lon="15.743343"></trkpt><trkpt lat="50.962529" lon="15.746091"></trkpt><trkpt lat="50.962493" lon="15.746625"></trkpt><trkpt lat="50.962371" lon="15.746964"></trkpt><trkpt lat="50.961947" lon="15.748383"></trkpt><trkpt lat="50.961715" lon="15.748966"></trkpt><trkpt lat="50.96129" lon="15.749612"></trkpt><trkpt lat="50.961022" lon="15.750141"></trkpt><trkpt lat="50.960567" lon="15.751311"></trkpt><trkpt lat="50.960483" lon="15.751877"></trkpt><trkpt lat="50.960375" lon="15.75228"></trkpt><trkpt lat="50.960254" lon="15.752571"></trkpt><trkpt lat="50.960002" lon="15.7528"></trkpt><trkpt lat="50.959427" lon="15.753156"></trkpt><trkpt lat="50.95879" lon="15.753884"></trkpt><trkpt lat="50.958624" lon="15.754221"></trkpt><trkpt lat="50.958533" lon="15.754528"></trkpt><trkpt lat="50.957786" lon="15.756199"></trkpt><trkpt lat="50.957153" lon="15.758014"></trkpt><trkpt lat="50.957185" lon="15.758555"></trkpt><trkpt lat="50.957205" lon="15.760386"></trkpt><trkpt lat="50.957174" lon="15.760749"></trkpt><trkpt lat="50.956952" lon="15.761385"></trkpt><trkpt lat="50.956797" lon="15.761608"></trkpt><trkpt lat="50.956553" lon="15.762012"></trkpt><trkpt lat="50.956444" lon="15.762396"></trkpt><trkpt lat="50.955953" lon="15.764612"></trkpt><trkpt lat="50.955919" lon="15.765033"></trkpt><trkpt lat="50.955776" lon="15.766089"></trkpt><trkpt lat="50.955635" lon="15.766429"></trkpt><trkpt lat="50.95409" lon="15.76963"></trkpt><trkpt lat="50.953881" lon="15.769896"></trkpt><trkpt lat="50.953399" lon="15.770687"></trkpt><trkpt lat="50.953241" lon="15.771067"></trkpt><trkpt lat="50.951642" lon="15.77417"></trkpt><trkpt lat="50.951361" lon="15.774365"></trkpt><trkpt lat="50.949511" lon="15.775307"></trkpt><trkpt lat="50.948762" lon="15.775903"></trkpt><trkpt lat="50.948395" lon="15.776537"></trkpt><trkpt lat="50.948172" lon="15.777215"></trkpt><trkpt lat="50.948044" lon="15.777751"></trkpt><trkpt lat="50.947887" lon="15.77804"></trkpt><trkpt lat="50.947677" lon="15.778243"></trkpt><trkpt lat="50.947302" lon="15.778481"></trkpt><trkpt lat="50.946746" lon="15.77893"></trkpt><trkpt lat="50.946607" lon="15.779191"></trkpt><trkpt lat="50.946428" lon="15.779611"></trkpt><trkpt lat="50.945548" lon="15.780752"></trkpt><trkpt lat="50.945166" lon="15.781716"></trkpt><trkpt lat="50.944724" lon="15.782664"></trkpt><trkpt lat="50.944551" lon="15.783116"></trkpt><trkpt lat="50.943025" lon="15.788099"></trkpt><trkpt lat="50.943014" lon="15.788531"></trkpt><trkpt lat="50.942665" lon="15.792366"></trkpt><trkpt lat="50.942256" lon="15.793213"></trkpt><trkpt lat="50.941975" lon="15.793512"></trkpt><trkpt lat="50.941646" lon="15.79425"></trkpt><trkpt lat="50.941607" lon="15.79463"></trkpt><trkpt lat="50.941769" lon="15.795555"></trkpt><trkpt lat="50.941939" lon="15.796984"></trkpt><trkpt lat="50.942063" lon="15.797491"></trkpt><trkpt lat="50.942411" lon="15.798135"></trkpt><trkpt lat="50.942585" lon="15.798671"></trkpt><trkpt lat="50.942682" lon="15.799188"></trkpt><trkpt lat="50.942796" lon="15.799632"></trkpt><trkpt lat="50.943053" lon="15.799936"></trkpt><trkpt lat="50.943486" lon="15.80019"></trkpt><trkpt lat="50.94375" lon="15.800287"></trkpt><trkpt lat="50.944043" lon="15.800517"></trkpt><trkpt lat="50.945541" lon="15.801925"></trkpt><trkpt lat="50.947083" lon="15.803141"></trkpt><trkpt lat="50.947722" lon="15.803818"></trkpt><trkpt lat="50.947918" lon="15.804071"></trkpt><trkpt lat="50.948512" lon="15.805025"></trkpt><trkpt lat="50.948664" lon="15.805343"></trkpt><trkpt lat="50.948809" lon="15.805786"></trkpt><trkpt lat="50.949148" lon="15.806477"></trkpt><trkpt lat="50.949357" lon="15.80667"></trkpt><trkpt lat="50.95125" lon="15.808036"></trkpt><trkpt lat="50.951711" lon="15.808115"></trkpt><trkpt lat="50.952044" lon="15.808115"></trkpt><trkpt lat="50.952396" lon="15.808193"></trkpt><trkpt lat="50.952748" lon="15.808354"></trkpt><trkpt lat="50.953312" lon="15.808523"></trkpt><trkpt lat="50.953605" lon="15.80879"></trkpt><trkpt lat="50.953798" lon="15.809083"></trkpt><trkpt lat="50.953915" lon="15.809591"></trkpt><trkpt lat="50.954008" lon="15.809869"></trkpt><trkpt lat="50.954403" lon="15.811417"></trkpt><trkpt lat="50.954842" lon="15.81275"></trkpt><trkpt lat="50.95489" lon="15.812296"></trkpt><trkpt lat="50.955048" lon="15.812089"></trkpt></trkseg></trk></gpx>