<?xml version="1.0" encoding="UTF-8" standalone="no" ?><gpx xmlns="http://www.topografix.com/GPX/1/1" xmlns:gpxx="http://www.garmin.com/xmlschemas/GpxExtensions/v3" ><trk><trkseg><trkpt lat="52.584401" lon="16.822752"></trkpt><trkpt lat="52.584546" lon="16.823007"></trkpt><trkpt lat="52.584314" lon="16.823145"></trkpt><trkpt lat="52.584097" lon="16.823109"></trkpt><trkpt lat="52.583846" lon="16.823097"></trkpt><trkpt lat="52.580463" lon="16.823923"></trkpt><trkpt lat="52.580515" lon="16.824362"></trkpt><trkpt lat="52.580428" lon="16.823365"></trkpt><trkpt lat="52.580327" lon="16.822635"></trkpt><trkpt lat="52.577724" lon="16.794701"></trkpt><trkpt lat="52.578143" lon="16.794188"></trkpt><trkpt lat="52.591839" lon="16.775124"></trkpt><trkpt lat="52.591983" lon="16.77453"></trkpt><trkpt lat="52.592252" lon="16.773687"></trkpt><trkpt lat="52.592408" lon="16.773426"></trkpt><trkpt lat="52.598206" lon="16.76534"></trkpt><trkpt lat="52.598589" lon="16.765244"></trkpt><trkpt lat="52.598825" lon="16.765148"></trkpt><trkpt lat="52.599012" lon="16.764984"></trkpt><trkpt lat="52.599424" lon="16.764473"></trkpt><trkpt lat="52.599754" lon="16.764158"></trkpt><trkpt lat="52.600339" lon="16.763688"></trkpt><trkpt lat="52.600693" lon="16.763486"></trkpt><trkpt lat="52.601056" lon="16.763358"></trkpt><trkpt lat="52.603974" lon="16.761966"></trkpt><trkpt lat="52.603948" lon="16.761634"></trkpt><trkpt lat="52.603751" lon="16.760125"></trkpt><trkpt lat="52.603615" lon="16.759778"></trkpt><trkpt lat="52.60275" lon="16.757881"></trkpt><trkpt lat="52.602874" lon="16.758176"></trkpt><trkpt lat="52.603841" lon="16.760901"></trkpt><trkpt lat="52.603892" lon="16.76144"></trkpt><trkpt lat="52.604113" lon="16.763002"></trkpt><trkpt lat="52.604291" lon="16.763362"></trkpt><trkpt lat="52.604418" lon="16.763788"></trkpt><trkpt lat="52.604535" lon="16.764293"></trkpt><trkpt lat="52.604719" lon="16.764874"></trkpt><trkpt lat="52.605051" lon="16.765298"></trkpt><trkpt lat="52.619483" lon="16.783044"></trkpt><trkpt lat="52.633412" lon="16.801075"></trkpt><trkpt lat="52.635352" lon="16.80319"></trkpt><trkpt lat="52.635654" lon="16.803222"></trkpt><trkpt lat="52.635848" lon="16.803296"></trkpt><trkpt lat="52.635977" lon="16.803646"></trkpt><trkpt lat="52.636101" lon="16.80409"></trkpt><trkpt lat="52.636239" lon="16.804356"></trkpt><trkpt lat="52.636404" lon="16.804616"></trkpt><trkpt lat="52.637543" lon="16.806145"></trkpt><trkpt lat="52.637933" lon="16.806516"></trkpt><trkpt lat="52.64065" lon="16.808664"></trkpt><trkpt lat="52.640851" lon="16.808631"></trkpt><trkpt lat="52.641052" lon="16.808516"></trkpt><trkpt lat="52.641263" lon="16.808475"></trkpt><trkpt lat="52.642629" lon="16.808402"></trkpt><trkpt lat="52.642922" lon="16.808657"></trkpt><trkpt lat="52.643296" lon="16.808851"></trkpt><trkpt lat="52.644934" lon="16.810294"></trkpt><trkpt lat="52.644953" lon="16.810636"></trkpt><trkpt lat="52.645397" lon="16.810849"></trkpt><trkpt lat="52.645598" lon="16.81064"></trkpt><trkpt lat="52.645665" lon="16.810155"></trkpt><trkpt lat="52.645765" lon="16.809655"></trkpt><trkpt lat="52.645802" lon="16.809198"></trkpt><trkpt lat="52.646126" lon="16.806644"></trkpt><trkpt lat="52.646242" lon="16.806004"></trkpt><trkpt lat="52.646535" lon="16.804738"></trkpt><trkpt lat="52.646675" lon="16.804438"></trkpt><trkpt lat="52.646844" lon="16.804264"></trkpt><trkpt lat="52.647071" lon="16.804147"></trkpt><trkpt lat="52.647321" lon="16.804135"></trkpt><trkpt lat="52.64945" lon="16.80449"></trkpt><trkpt lat="52.667129" lon="16.807953"></trkpt><trkpt lat="52.676226" lon="16.808636"></trkpt><trkpt lat="52.676539" lon="16.808575"></trkpt><trkpt lat="52.681578" lon="16.808193"></trkpt><trkpt lat="52.681783" lon="16.808266"></trkpt><trkpt lat="52.68343" lon="16.809089"></trkpt><trkpt lat="52.683615" lon="16.809273"></trkpt><trkpt lat="52.684065" lon="16.809801"></trkpt><trkpt lat="52.68429" lon="16.810131"></trkpt><trkpt lat="52.685514" lon="16.811683"></trkpt><trkpt lat="52.698607" lon="16.825853"></trkpt><trkpt lat="52.699262" lon="16.826014"></trkpt><trkpt lat="52.716963" lon="16.829956"></trkpt><trkpt lat="52.734596" lon="16.833378"></trkpt><trkpt lat="52.739352" lon="16.833546"></trkpt><trkpt lat="52.739912" lon="16.833337"></trkpt><trkpt lat="52.749901" lon="16.828163"></trkpt><trkpt lat="52.750276" lon="16.82745"></trkpt><trkpt lat="52.755209" lon="16.819437"></trkpt><trkpt lat="52.755648" lon="16.819508"></trkpt><trkpt lat="52.757967" lon="16.820157"></trkpt><trkpt lat="52.75833" lon="16.820356"></trkpt><trkpt lat="52.760766" lon="16.821372"></trkpt><trkpt lat="52.778181" lon="16.827752"></trkpt><trkpt lat="52.788337" lon="16.829969"></trkpt><trkpt lat="52.789565" lon="16.829543"></trkpt><trkpt lat="52.790074" lon="16.82909"></trkpt><trkpt lat="52.790484" lon="16.828884"></trkpt><trkpt lat="52.790766" lon="16.82889"></trkpt><trkpt lat="52.791158" lon="16.829131"></trkpt><trkpt lat="52.791584" lon="16.829495"></trkpt><trkpt lat="52.799485" lon="16.834875"></trkpt><trkpt lat="52.800092" lon="16.834692"></trkpt><trkpt lat="52.808519" lon="16.833439"></trkpt><trkpt lat="52.808881" lon="16.833816"></trkpt><trkpt lat="52.812373" lon="16.836898"></trkpt><trkpt lat="52.81269" lon="16.836457"></trkpt><trkpt lat="52.81332" lon="16.835937"></trkpt><trkpt lat="52.813622" lon="16.836482"></trkpt><trkpt lat="52.815783" lon="16.839854"></trkpt><trkpt lat="52.815948" lon="16.840043"></trkpt><trkpt lat="52.816171" lon="16.840748"></trkpt><trkpt lat="52.821264" lon="16.861249"></trkpt><trkpt lat="52.82119" lon="16.861572"></trkpt><trkpt lat="52.820951" lon="16.861957"></trkpt><trkpt lat="52.820722" lon="16.862211"></trkpt><trkpt lat="52.820496" lon="16.862392"></trkpt><trkpt lat="52.820733" lon="16.862353"></trkpt><trkpt lat="52.820909" lon="16.862782"></trkpt><trkpt lat="52.821518" lon="16.864783"></trkpt><trkpt lat="52.821653" lon="16.865423"></trkpt><trkpt lat="52.827882" lon="16.893203"></trkpt><trkpt lat="52.828093" lon="16.893828"></trkpt><trkpt lat="52.829969" lon="16.898361"></trkpt><trkpt lat="52.830303" lon="16.898635"></trkpt><trkpt lat="52.831219" lon="16.899245"></trkpt><trkpt lat="52.831462" lon="16.899349"></trkpt><trkpt lat="52.831712" lon="16.899488"></trkpt><trkpt lat="52.832454" lon="16.900037"></trkpt><trkpt lat="52.832591" lon="16.900341"></trkpt><trkpt lat="52.832743" lon="16.900754"></trkpt><trkpt lat="52.842184" lon="16.925771"></trkpt><trkpt lat="52.842642" lon="16.927268"></trkpt><trkpt lat="52.842698" lon="16.927713"></trkpt><trkpt lat="52.844928" lon="16.940598"></trkpt><trkpt lat="52.84518" lon="16.940524"></trkpt><trkpt lat="52.845287" lon="16.940849"></trkpt><trkpt lat="52.845273" lon="16.941258"></trkpt><trkpt lat="52.845287" lon="16.942304"></trkpt><trkpt lat="52.84542" lon="16.942967"></trkpt><trkpt lat="52.845475" lon="16.943446"></trkpt><trkpt lat="52.845363" lon="16.943791"></trkpt><trkpt lat="52.845126" lon="16.944005"></trkpt><trkpt lat="52.842167" lon="16.94735"></trkpt><trkpt lat="52.841885" lon="16.948159"></trkpt><trkpt lat="52.837964" lon="16.962099"></trkpt><trkpt lat="52.837904" lon="16.962866"></trkpt><trkpt lat="52.837678" lon="16.969422"></trkpt><trkpt lat="52.837399" lon="16.969513"></trkpt><trkpt lat="52.837335" lon="16.969846"></trkpt><trkpt lat="52.837276" lon="16.970749"></trkpt><trkpt lat="52.836832" lon="16.992238"></trkpt><trkpt lat="52.836865" lon="16.99264"></trkpt><trkpt lat="52.837028" lon="16.993646"></trkpt><trkpt lat="52.837146" lon="16.994013"></trkpt><trkpt lat="52.837275" lon="16.99435"></trkpt><trkpt lat="52.837168" lon="16.993937"></trkpt><trkpt lat="52.837006" lon="16.993454"></trkpt><trkpt lat="52.83692" lon="16.992825"></trkpt><trkpt lat="52.836862" lon="16.992126"></trkpt><trkpt lat="52.836678" lon="16.987282"></trkpt><trkpt lat="52.836755" lon="16.977008"></trkpt><trkpt lat="52.836785" lon="16.976666"></trkpt><trkpt lat="52.837764" lon="16.969465"></trkpt></trkseg></trk></gpx>