<?xml version="1.0" encoding="UTF-8" standalone="no" ?><gpx xmlns="http://www.topografix.com/GPX/1/1" xmlns:gpxx="http://www.garmin.com/xmlschemas/GpxExtensions/v3" ><trk><trkseg><trkpt lat="50.7396288961" lon="15.7281601802"></trkpt><trkpt lat="50.7395924348" lon="15.7286789361"></trkpt><trkpt lat="50.7393098809" lon="15.728723947"></trkpt><trkpt lat="50.7391523011" lon="15.729110688"></trkpt><trkpt lat="50.7390348706" lon="15.7296010293"></trkpt><trkpt lat="50.7388942223" lon="15.7299893629"></trkpt><trkpt lat="50.7385096606" lon="15.7307849731"></trkpt><trkpt lat="50.7382365782" lon="15.731043471"></trkpt><trkpt lat="50.7379743923" lon="15.7314101793"></trkpt><trkpt lat="50.7368232217" lon="15.7333972771"></trkpt><trkpt lat="50.736713754" lon="15.7338282745"></trkpt><trkpt lat="50.7367424201" lon="15.7342773769"></trkpt><trkpt lat="50.7367148437" lon="15.7347472664"></trkpt><trkpt lat="50.7364629675" lon="15.734555237"></trkpt><trkpt lat="50.7361884601" lon="15.7344401535"></trkpt><trkpt lat="50.7362818345" lon="15.7348614279"></trkpt><trkpt lat="50.7363582775" lon="15.7353607379"></trkpt><trkpt lat="50.7362462953" lon="15.7357699424"></trkpt><trkpt lat="50.7363291923" lon="15.7362280972"></trkpt><trkpt lat="50.7364662364" lon="15.7366732601"></trkpt><trkpt lat="50.7365013566" lon="15.7371159084"></trkpt><trkpt lat="50.7364728581" lon="15.7375612389"></trkpt><trkpt lat="50.7362197246" lon="15.7396586426"></trkpt><trkpt lat="50.7360314671" lon="15.7399779931"></trkpt><trkpt lat="50.7358753122" lon="15.7396057528"></trkpt><trkpt lat="50.7361391746" lon="15.7397101913"></trkpt><trkpt lat="50.7363141049" lon="15.7393815368"></trkpt><trkpt lat="50.7363683358" lon="15.7389514614"></trkpt><trkpt lat="50.7364280149" lon="15.7380369958"></trkpt><trkpt lat="50.7364289369" lon="15.7369874138"></trkpt><trkpt lat="50.7363538351" lon="15.7365647983"></trkpt><trkpt lat="50.7362638135" lon="15.7357904781"></trkpt><trkpt lat="50.7363401726" lon="15.7352928445"></trkpt><trkpt lat="50.736268675" lon="15.7348686364"></trkpt><trkpt lat="50.7361289486" lon="15.7344720885"></trkpt><trkpt lat="50.7364048809" lon="15.7345118187"></trkpt><trkpt lat="50.7366971578" lon="15.7347754296"></trkpt><trkpt lat="50.7367275003" lon="15.7343510538"></trkpt><trkpt lat="50.736709144" lon="15.733871609"></trkpt><trkpt lat="50.736814253" lon="15.7334246021"></trkpt><trkpt lat="50.7368350402" lon="15.7329745777"></trkpt><trkpt lat="50.7370300032" lon="15.7326026727"></trkpt><trkpt lat="50.7372637745" lon="15.7323209569"></trkpt><trkpt lat="50.7389404066" lon="15.7298874389"></trkpt><trkpt lat="50.7390698232" lon="15.7295070682"></trkpt><trkpt lat="50.7392926142" lon="15.7292161323"></trkpt><trkpt lat="50.7394326758" lon="15.7288484182"></trkpt><trkpt lat="50.7396811992" lon="15.7284611743"></trkpt><trkpt lat="50.7395303249" lon="15.728903152"></trkpt><trkpt lat="50.7398322411" lon="15.7286951132"></trkpt><trkpt lat="50.7395666186" lon="15.7287893258"></trkpt><trkpt lat="50.7395049278" lon="15.7283664588"></trkpt><trkpt lat="50.7396226935" lon="15.7279795501"></trkpt><trkpt lat="50.739766527" lon="15.7273775619"></trkpt><trkpt lat="50.7397977915" lon="15.7268700376"></trkpt><trkpt lat="50.7399251964" lon="15.7258005906"></trkpt><trkpt lat="50.7400480751" lon="15.7253599539"></trkpt><trkpt lat="50.740251001" lon="15.7248243503"></trkpt><trkpt lat="50.7404991891" lon="15.7240121439"></trkpt><trkpt lat="50.7405725308" lon="15.7235697471"></trkpt><trkpt lat="50.7418477535" lon="15.7116987929"></trkpt><trkpt lat="50.7417427283" lon="15.7112950366"></trkpt><trkpt lat="50.7415602542" lon="15.7103643939"></trkpt><trkpt lat="50.7413302548" lon="15.7086697407"></trkpt><trkpt lat="50.7413078751" lon="15.7082396653"></trkpt><trkpt lat="50.7412510458" lon="15.7078189775"></trkpt><trkpt lat="50.7411639579" lon="15.706630256"></trkpt><trkpt lat="50.7413009182" lon="15.7062394079"></trkpt><trkpt lat="50.7415361982" lon="15.7058763038"></trkpt><trkpt lat="50.741746584" lon="15.7056058198"></trkpt><trkpt lat="50.7420593128" lon="15.7053893153"></trkpt><trkpt lat="50.7424687687" lon="15.7051982079"></trkpt><trkpt lat="50.7428249996" lon="15.7051785942"></trkpt><trkpt lat="50.7434494514" lon="15.7053015567"></trkpt><trkpt lat="50.7438424788" lon="15.7054468151"></trkpt><trkpt lat="50.744401468" lon="15.7057406008"></trkpt><trkpt lat="50.7449124288" lon="15.706118457"></trkpt><trkpt lat="50.7452973258" lon="15.7062420901"></trkpt><trkpt lat="50.745628411" lon="15.7064160984"></trkpt><trkpt lat="50.7466409449" lon="15.7071245369"></trkpt><trkpt lat="50.746878488" lon="15.7073456515"></trkpt><trkpt lat="50.7483284734" lon="15.7089941204"></trkpt><trkpt lat="50.7485059183" lon="15.7093252894"></trkpt><trkpt lat="50.7486411184" lon="15.7097470667"></trkpt><trkpt lat="50.7489530928" lon="15.7105282601"></trkpt><trkpt lat="50.7491619699" lon="15.710917348"></trkpt><trkpt lat="50.7494477089" lon="15.711148018"></trkpt><trkpt lat="50.7497180253" lon="15.7112487685"></trkpt><trkpt lat="50.7499933708" lon="15.7112241257"></trkpt><trkpt lat="50.7503018249" lon="15.7110149134"></trkpt><trkpt lat="50.7505242806" lon="15.71071635"></trkpt><trkpt lat="50.7506956905" lon="15.7102213148"></trkpt><trkpt lat="50.7507680263" lon="15.7097849529"></trkpt><trkpt lat="50.7508134563" lon="15.7092766743"></trkpt><trkpt lat="50.7509690244" lon="15.7085963991"></trkpt><trkpt lat="50.7509291265" lon="15.708060544"></trkpt><trkpt lat="50.7506309822" lon="15.7078713644"></trkpt><trkpt lat="50.7503737416" lon="15.7075154688"></trkpt><trkpt lat="50.7501211111" lon="15.7070660312"></trkpt><trkpt lat="50.74952038" lon="15.7061768789"></trkpt><trkpt lat="50.7492906321" lon="15.7059427723"></trkpt><trkpt lat="50.7487066649" lon="15.7051934302"></trkpt><trkpt lat="50.7485329919" lon="15.7047587447"></trkpt><trkpt lat="50.7483318262" lon="15.7043998316"></trkpt><trkpt lat="50.7485913299" lon="15.7047805376"></trkpt><trkpt lat="50.7487156335" lon="15.7051803544"></trkpt><trkpt lat="50.7488881331" lon="15.7055187318"></trkpt><trkpt lat="50.7491678372" lon="15.7057722844"></trkpt><trkpt lat="50.7498424128" lon="15.7065322716"></trkpt><trkpt lat="50.7500191871" lon="15.7069040928"></trkpt><trkpt lat="50.7502559759" lon="15.7072906662"></trkpt><trkpt lat="50.7507831138" lon="15.7079350669"></trkpt><trkpt lat="50.7510224171" lon="15.7083420083"></trkpt><trkpt lat="50.7508857921" lon="15.7087306771"></trkpt><trkpt lat="50.7508676033" lon="15.7092002314"></trkpt><trkpt lat="50.7508134563" lon="15.7096804306"></trkpt><trkpt lat="50.7507010549" lon="15.7103276812"></trkpt><trkpt lat="50.7505487558" lon="15.710687181"></trkpt><trkpt lat="50.7503193431" lon="15.7110087108"></trkpt><trkpt lat="50.7499794569" lon="15.7111805398"></trkpt><trkpt lat="50.7497052848" lon="15.7112151571"></trkpt><trkpt lat="50.749393478" lon="15.7110548951"></trkpt><trkpt lat="50.7491584495" lon="15.7108010072"></trkpt><trkpt lat="50.7489431184" lon="15.7104793936"></trkpt><trkpt lat="50.7487895619" lon="15.710075302"></trkpt><trkpt lat="50.7480283175" lon="15.7084399089"></trkpt><trkpt lat="50.7477517985" lon="15.7081442792"></trkpt><trkpt lat="50.7459552214" lon="15.7065699901"></trkpt><trkpt lat="50.7456959691" lon="15.7064346224"></trkpt><trkpt lat="50.7423076686" lon="15.705173146"></trkpt><trkpt lat="50.7420262042" lon="15.7053215895"></trkpt><trkpt lat="50.7417739928" lon="15.7055321429"></trkpt><trkpt lat="50.7415237091" lon="15.7058436144"></trkpt><trkpt lat="50.7413400616" lon="15.7061767112"></trkpt><trkpt lat="50.7412230503" lon="15.7066136599"></trkpt><trkpt lat="50.7412084658" lon="15.7070656959"></trkpt><trkpt lat="50.7412470225" lon="15.7075764053"></trkpt><trkpt lat="50.7416954543" lon="15.7109455951"></trkpt><trkpt lat="50.7417857274" lon="15.7113684621"></trkpt><trkpt lat="50.7420206722" lon="15.7129343692"></trkpt><trkpt lat="50.7420050818" lon="15.7133826334"></trkpt><trkpt lat="50.7419307344" lon="15.7139168959"></trkpt><trkpt lat="50.7397024892" lon="15.7277147658"></trkpt><trkpt lat="50.7395195961" lon="15.7282423228"></trkpt><trkpt lat="50.739567792" lon="15.728685474"></trkpt><trkpt lat="50.7394610066" lon="15.7290649228"></trkpt></trkseg></trk></gpx>