<?xml version="1.0" encoding="UTF-8" standalone="no" ?><gpx xmlns="http://www.topografix.com/GPX/1/1" xmlns:gpxx="http://www.garmin.com/xmlschemas/GpxExtensions/v3" ><trk><trkseg><trkpt lat="51.845227" lon="16.565671"></trkpt><trkpt lat="51.844876" lon="16.565693"></trkpt><trkpt lat="51.844792" lon="16.565355"></trkpt><trkpt lat="51.844315" lon="16.565294"></trkpt><trkpt lat="51.843865" lon="16.565296"></trkpt><trkpt lat="51.842956" lon="16.565183"></trkpt><trkpt lat="51.843041" lon="16.564211"></trkpt><trkpt lat="51.843257" lon="16.562756"></trkpt><trkpt lat="51.843667" lon="16.561414"></trkpt><trkpt lat="51.846691" lon="16.549024"></trkpt><trkpt lat="51.846844" lon="16.547872"></trkpt><trkpt lat="51.855046" lon="16.502588"></trkpt><trkpt lat="51.855432" lon="16.502068"></trkpt><trkpt lat="51.855373" lon="16.501644"></trkpt><trkpt lat="51.855187" lon="16.499528"></trkpt><trkpt lat="51.855188" lon="16.497587"></trkpt><trkpt lat="51.855235" lon="16.497254"></trkpt><trkpt lat="51.855258" lon="16.496123"></trkpt><trkpt lat="51.855187" lon="16.494154"></trkpt><trkpt lat="51.855222" lon="16.493608"></trkpt><trkpt lat="51.855736" lon="16.493557"></trkpt><trkpt lat="51.856187" lon="16.493344"></trkpt><trkpt lat="51.85672" lon="16.492541"></trkpt><trkpt lat="51.882356" lon="16.449765"></trkpt><trkpt lat="51.882752" lon="16.449328"></trkpt><trkpt lat="51.882993" lon="16.449464"></trkpt><trkpt lat="51.883276" lon="16.448825"></trkpt><trkpt lat="51.883633" lon="16.448317"></trkpt><trkpt lat="51.883977" lon="16.447406"></trkpt><trkpt lat="51.885126" lon="16.44358"></trkpt><trkpt lat="51.88527" lon="16.442418"></trkpt><trkpt lat="51.885325" lon="16.44149"></trkpt><trkpt lat="51.88531" lon="16.440312"></trkpt><trkpt lat="51.885186" lon="16.439005"></trkpt><trkpt lat="51.885107" lon="16.438463"></trkpt><trkpt lat="51.884473" lon="16.437959"></trkpt><trkpt lat="51.883944" lon="16.437906"></trkpt><trkpt lat="51.883772" lon="16.437722"></trkpt><trkpt lat="51.8833" lon="16.436865"></trkpt><trkpt lat="51.882632" lon="16.435465"></trkpt><trkpt lat="51.882652" lon="16.434156"></trkpt><trkpt lat="51.883129" lon="16.428461"></trkpt><trkpt lat="51.883633" lon="16.427267"></trkpt><trkpt lat="51.887463" lon="16.416663"></trkpt><trkpt lat="51.887937" lon="16.414961"></trkpt><trkpt lat="51.888722" lon="16.412611"></trkpt><trkpt lat="51.889136" lon="16.411824"></trkpt><trkpt lat="51.889238" lon="16.411471"></trkpt><trkpt lat="51.889349" lon="16.410858"></trkpt><trkpt lat="51.88957" lon="16.409932"></trkpt><trkpt lat="51.891474" lon="16.403824"></trkpt><trkpt lat="51.892052" lon="16.402644"></trkpt><trkpt lat="51.892369" lon="16.401838"></trkpt><trkpt lat="51.89231" lon="16.401482"></trkpt><trkpt lat="51.891831" lon="16.40031"></trkpt><trkpt lat="51.891538" lon="16.399432"></trkpt><trkpt lat="51.891518" lon="16.3991"></trkpt><trkpt lat="51.891703" lon="16.398192"></trkpt><trkpt lat="51.892007" lon="16.39706"></trkpt><trkpt lat="51.892882" lon="16.393054"></trkpt><trkpt lat="51.893003" lon="16.391805"></trkpt><trkpt lat="51.894989" lon="16.379284"></trkpt><trkpt lat="51.895261" lon="16.378041"></trkpt><trkpt lat="51.895357" lon="16.376903"></trkpt><trkpt lat="51.895457" lon="16.374449"></trkpt><trkpt lat="51.896458" lon="16.363234"></trkpt><trkpt lat="51.896742" lon="16.362162"></trkpt><trkpt lat="51.89936" lon="16.341755"></trkpt><trkpt lat="51.899378" lon="16.341428"></trkpt><trkpt lat="51.899512" lon="16.340562"></trkpt><trkpt lat="51.899595" lon="16.339714"></trkpt><trkpt lat="51.899753" lon="16.338622"></trkpt><trkpt lat="51.908763" lon="16.292986"></trkpt><trkpt lat="51.909429" lon="16.292779"></trkpt><trkpt lat="51.909826" lon="16.292519"></trkpt><trkpt lat="51.910143" lon="16.292246"></trkpt><trkpt lat="51.910702" lon="16.291901"></trkpt><trkpt lat="51.911041" lon="16.291882"></trkpt><trkpt lat="51.911257" lon="16.292027"></trkpt><trkpt lat="51.911697" lon="16.292433"></trkpt><trkpt lat="51.911923" lon="16.292574"></trkpt><trkpt lat="51.912367" lon="16.29256"></trkpt><trkpt lat="51.912613" lon="16.292616"></trkpt><trkpt lat="51.913028" lon="16.292927"></trkpt><trkpt lat="51.913319" lon="16.293244"></trkpt><trkpt lat="51.91399" lon="16.293581"></trkpt><trkpt lat="51.914552" lon="16.293518"></trkpt><trkpt lat="51.915753" lon="16.293791"></trkpt><trkpt lat="51.916269" lon="16.293841"></trkpt><trkpt lat="51.91682" lon="16.293404"></trkpt><trkpt lat="51.917175" lon="16.292952"></trkpt><trkpt lat="51.919597" lon="16.290324"></trkpt><trkpt lat="51.919931" lon="16.289899"></trkpt><trkpt lat="51.920141" lon="16.289717"></trkpt><trkpt lat="51.920289" lon="16.28933"></trkpt><trkpt lat="51.920265" lon="16.288852"></trkpt><trkpt lat="51.920172" lon="16.288556"></trkpt><trkpt lat="51.919997" lon="16.287885"></trkpt><trkpt lat="51.920006" lon="16.287515"></trkpt><trkpt lat="51.92032" lon="16.286647"></trkpt><trkpt lat="51.921438" lon="16.282989"></trkpt><trkpt lat="51.922252" lon="16.279772"></trkpt><trkpt lat="51.922671" lon="16.277208"></trkpt><trkpt lat="51.922963" lon="16.276803"></trkpt><trkpt lat="51.923111" lon="16.276231"></trkpt><trkpt lat="51.92718" lon="16.263373"></trkpt><trkpt lat="51.927638" lon="16.262556"></trkpt><trkpt lat="51.931775" lon="16.256285"></trkpt><trkpt lat="51.932153" lon="16.256545"></trkpt><trkpt lat="51.932543" lon="16.257148"></trkpt><trkpt lat="51.934757" lon="16.260104"></trkpt><trkpt lat="51.935373" lon="16.260487"></trkpt><trkpt lat="51.936105" lon="16.260549"></trkpt><trkpt lat="51.936822" lon="16.260214"></trkpt><trkpt lat="51.937665" lon="16.259703"></trkpt><trkpt lat="51.939155" lon="16.259316"></trkpt><trkpt lat="51.940827" lon="16.25919"></trkpt><trkpt lat="51.941415" lon="16.259306"></trkpt><trkpt lat="51.944492" lon="16.25956"></trkpt><trkpt lat="51.945103" lon="16.25927"></trkpt><trkpt lat="51.961194" lon="16.249064"></trkpt><trkpt lat="51.961207" lon="16.248667"></trkpt><trkpt lat="51.961143" lon="16.248975"></trkpt><trkpt lat="51.961178" lon="16.248522"></trkpt><trkpt lat="51.961183" lon="16.247974"></trkpt><trkpt lat="51.961231" lon="16.247235"></trkpt><trkpt lat="51.961464" lon="16.246404"></trkpt><trkpt lat="51.961773" lon="16.246233"></trkpt><trkpt lat="51.964847" lon="16.24497"></trkpt><trkpt lat="51.965057" lon="16.244951"></trkpt><trkpt lat="51.965261" lon="16.244902"></trkpt><trkpt lat="51.965845" lon="16.244675"></trkpt><trkpt lat="51.967582" lon="16.243778"></trkpt><trkpt lat="51.967984" lon="16.24331"></trkpt><trkpt lat="51.97222" lon="16.239175"></trkpt><trkpt lat="51.972345" lon="16.240161"></trkpt><trkpt lat="51.972489" lon="16.240993"></trkpt><trkpt lat="51.973079" lon="16.24363"></trkpt><trkpt lat="51.973366" lon="16.243876"></trkpt><trkpt lat="51.973524" lon="16.244169"></trkpt><trkpt lat="51.973678" lon="16.244517"></trkpt><trkpt lat="51.973788" lon="16.244962"></trkpt><trkpt lat="51.97415" lon="16.245949"></trkpt><trkpt lat="51.974314" lon="16.246299"></trkpt><trkpt lat="51.974471" lon="16.246762"></trkpt><trkpt lat="51.9747" lon="16.246915"></trkpt><trkpt lat="51.975342" lon="16.247261"></trkpt><trkpt lat="51.975574" lon="16.247341"></trkpt><trkpt lat="51.975784" lon="16.247377"></trkpt><trkpt lat="51.976141" lon="16.247375"></trkpt><trkpt lat="51.976521" lon="16.247265"></trkpt><trkpt lat="51.976714" lon="16.24706"></trkpt><trkpt lat="51.976859" lon="16.246811"></trkpt><trkpt lat="51.977449" lon="16.245571"></trkpt><trkpt lat="51.977543" lon="16.245243"></trkpt><trkpt lat="51.977767" lon="16.244854"></trkpt><trkpt lat="51.977907" lon="16.244567"></trkpt><trkpt lat="51.978077" lon="16.244366"></trkpt><trkpt lat="51.97839" lon="16.243875"></trkpt><trkpt lat="51.978569" lon="16.243416"></trkpt><trkpt lat="51.978769" lon="16.242986"></trkpt><trkpt lat="51.978926" lon="16.242783"></trkpt><trkpt lat="51.979254" lon="16.242562"></trkpt><trkpt lat="51.979617" lon="16.242129"></trkpt><trkpt lat="51.980076" lon="16.241753"></trkpt><trkpt lat="51.980421" lon="16.241569"></trkpt><trkpt lat="51.980655" lon="16.241318"></trkpt><trkpt lat="51.980969" lon="16.241371"></trkpt><trkpt lat="51.981253" lon="16.241453"></trkpt><trkpt lat="51.981592" lon="16.241846"></trkpt><trkpt lat="51.981849" lon="16.242202"></trkpt><trkpt lat="51.982077" lon="16.242616"></trkpt><trkpt lat="51.982477" lon="16.243495"></trkpt><trkpt lat="51.98265" lon="16.243773"></trkpt><trkpt lat="51.982829" lon="16.244171"></trkpt><trkpt lat="51.983004" lon="16.244501"></trkpt><trkpt lat="51.983628" lon="16.245904"></trkpt><trkpt lat="51.983844" lon="16.24627"></trkpt><trkpt lat="51.984046" lon="16.246719"></trkpt><trkpt lat="51.98428" lon="16.247099"></trkpt><trkpt lat="51.984486" lon="16.247341"></trkpt><trkpt lat="51.984765" lon="16.247593"></trkpt><trkpt lat="51.984972" lon="16.247849"></trkpt><trkpt lat="51.985189" lon="16.247948"></trkpt><trkpt lat="51.985503" lon="16.247921"></trkpt><trkpt lat="51.985746" lon="16.247817"></trkpt><trkpt lat="51.986188" lon="16.24757"></trkpt><trkpt lat="51.986423" lon="16.247497"></trkpt><trkpt lat="51.98717" lon="16.247383"></trkpt><trkpt lat="51.987639" lon="16.247386"></trkpt><trkpt lat="51.987858" lon="16.24744"></trkpt><trkpt lat="51.988076" lon="16.247444"></trkpt><trkpt lat="51.988298" lon="16.247507"></trkpt><trkpt lat="51.988639" lon="16.247738"></trkpt><trkpt lat="51.988861" lon="16.248049"></trkpt><trkpt lat="51.989224" lon="16.248453"></trkpt><trkpt lat="52.000203" lon="16.258498"></trkpt><trkpt lat="52.000486" lon="16.258496"></trkpt><trkpt lat="52.0012" lon="16.258278"></trkpt><trkpt lat="52.001491" lon="16.258526"></trkpt><trkpt lat="52.00197" lon="16.259101"></trkpt><trkpt lat="52.002762" lon="16.260242"></trkpt><trkpt lat="52.002894" lon="16.261202"></trkpt><trkpt lat="52.002983" lon="16.261646"></trkpt><trkpt lat="52.003424" lon="16.260961"></trkpt><trkpt lat="52.003888" lon="16.260092"></trkpt><trkpt lat="52.009001" lon="16.248793"></trkpt><trkpt lat="52.009202" lon="16.247216"></trkpt><trkpt lat="52.015602" lon="16.212707"></trkpt><trkpt lat="52.015803" lon="16.212755"></trkpt><trkpt lat="52.020212" lon="16.212377"></trkpt><trkpt lat="52.020889" lon="16.21322"></trkpt><trkpt lat="52.026531" lon="16.218847"></trkpt><trkpt lat="52.026817" lon="16.218761"></trkpt><trkpt lat="52.027054" lon="16.218639"></trkpt><trkpt lat="52.027457" lon="16.218575"></trkpt><trkpt lat="52.029106" lon="16.21857"></trkpt><trkpt lat="52.029278" lon="16.218405"></trkpt><trkpt lat="52.029361" lon="16.218106"></trkpt><trkpt lat="52.029448" lon="16.217495"></trkpt><trkpt lat="52.029723" lon="16.216097"></trkpt><trkpt lat="52.029959" lon="16.215979"></trkpt><trkpt lat="52.030168" lon="16.215938"></trkpt><trkpt lat="52.032763" lon="16.215089"></trkpt><trkpt lat="52.03281" lon="16.214359"></trkpt><trkpt lat="52.032757" lon="16.213213"></trkpt><trkpt lat="52.030975" lon="16.193739"></trkpt><trkpt lat="52.030957" lon="16.192971"></trkpt><trkpt lat="52.028799" lon="16.160668"></trkpt><trkpt lat="52.028436" lon="16.160138"></trkpt><trkpt lat="52.028382" lon="16.159691"></trkpt><trkpt lat="52.028633" lon="16.159361"></trkpt><trkpt lat="52.028921" lon="16.159061"></trkpt><trkpt lat="52.029434" lon="16.158436"></trkpt><trkpt lat="52.043624" lon="16.143824"></trkpt><trkpt lat="52.044551" lon="16.143751"></trkpt><trkpt lat="52.050753" lon="16.145106"></trkpt><trkpt lat="52.051729" lon="16.145766"></trkpt><trkpt lat="52.053228" lon="16.146994"></trkpt><trkpt lat="52.05535" lon="16.149048"></trkpt><trkpt lat="52.056244" lon="16.150129"></trkpt><trkpt lat="52.056408" lon="16.150704"></trkpt><trkpt lat="52.056782" lon="16.151781"></trkpt><trkpt lat="52.0617" lon="16.163213"></trkpt><trkpt lat="52.06215" lon="16.162719"></trkpt><trkpt lat="52.063334" lon="16.161612"></trkpt><trkpt lat="52.063655" lon="16.161466"></trkpt><trkpt lat="52.063858" lon="16.161487"></trkpt><trkpt lat="52.064542" lon="16.162866"></trkpt><trkpt lat="52.069414" lon="16.171297"></trkpt><trkpt lat="52.069858" lon="16.170978"></trkpt><trkpt lat="52.072193" lon="16.169686"></trkpt><trkpt lat="52.073039" lon="16.169453"></trkpt><trkpt lat="52.07552" lon="16.169073"></trkpt><trkpt lat="52.076026" lon="16.169717"></trkpt><trkpt lat="52.082682" lon="16.176325"></trkpt><trkpt lat="52.083277" lon="16.176602"></trkpt><trkpt lat="52.084088" lon="16.176797"></trkpt><trkpt lat="52.084963" lon="16.176785"></trkpt><trkpt lat="52.092225" lon="16.177814"></trkpt><trkpt lat="52.092269" lon="16.178573"></trkpt><trkpt lat="52.092487" lon="16.197413"></trkpt><trkpt lat="52.092298" lon="16.19804"></trkpt><trkpt lat="52.091646" lon="16.201405"></trkpt><trkpt lat="52.091655" lon="16.201729"></trkpt><trkpt lat="52.091546" lon="16.202005"></trkpt><trkpt lat="52.091299" lon="16.202413"></trkpt><trkpt lat="52.091253" lon="16.202734"></trkpt><trkpt lat="52.091325" lon="16.203286"></trkpt><trkpt lat="52.091556" lon="16.203158"></trkpt><trkpt lat="52.091342" lon="16.203406"></trkpt><trkpt lat="52.09139" lon="16.204088"></trkpt><trkpt lat="52.0915" lon="16.20498"></trkpt><trkpt lat="52.091734" lon="16.20503"></trkpt><trkpt lat="52.096771" lon="16.206998"></trkpt><trkpt lat="52.097076" lon="16.207767"></trkpt><trkpt lat="52.103873" lon="16.228211"></trkpt><trkpt lat="52.103445" lon="16.228504"></trkpt><trkpt lat="52.102937" lon="16.228622"></trkpt><trkpt lat="52.097469" lon="16.231047"></trkpt><trkpt lat="52.097626" lon="16.232445"></trkpt><trkpt lat="52.099501" lon="16.244191"></trkpt><trkpt lat="52.100142" lon="16.244705"></trkpt><trkpt lat="52.103357" lon="16.248729"></trkpt><trkpt lat="52.103194" lon="16.25001"></trkpt><trkpt lat="52.102403" lon="16.253902"></trkpt><trkpt lat="52.102028" lon="16.254857"></trkpt><trkpt lat="52.089335" lon="16.282101"></trkpt><trkpt lat="52.088567" lon="16.282436"></trkpt><trkpt lat="52.084352" lon="16.283438"></trkpt><trkpt lat="52.083419" lon="16.283327"></trkpt><trkpt lat="52.082489" lon="16.283628"></trkpt><trkpt lat="52.08199" lon="16.284337"></trkpt><trkpt lat="52.080859" lon="16.286337"></trkpt><trkpt lat="52.080586" lon="16.286751"></trkpt><trkpt lat="52.080356" lon="16.286903"></trkpt><trkpt lat="52.08014" lon="16.287"></trkpt><trkpt lat="52.080475" lon="16.286866"></trkpt><trkpt lat="52.080775" lon="16.286503"></trkpt><trkpt lat="52.08114" lon="16.28565"></trkpt><trkpt lat="52.081516" lon="16.285011"></trkpt><trkpt lat="52.082144" lon="16.284124"></trkpt><trkpt lat="52.082653" lon="16.283504"></trkpt><trkpt lat="52.082909" lon="16.283392"></trkpt><trkpt lat="52.083769" lon="16.283397"></trkpt><trkpt lat="52.084787" lon="16.283559"></trkpt><trkpt lat="52.08881" lon="16.282371"></trkpt><trkpt lat="52.089665" lon="16.281989"></trkpt><trkpt lat="52.090321" lon="16.281611"></trkpt><trkpt lat="52.0908" lon="16.280831"></trkpt><trkpt lat="52.092751" lon="16.278076"></trkpt><trkpt lat="52.093574" lon="16.276647"></trkpt><trkpt lat="52.093729" lon="16.276964"></trkpt><trkpt lat="52.094163" lon="16.278251"></trkpt><trkpt lat="52.094347" lon="16.278704"></trkpt><trkpt lat="52.110353" lon="16.325159"></trkpt><trkpt lat="52.110764" lon="16.327275"></trkpt><trkpt lat="52.116906" lon="16.352335"></trkpt><trkpt lat="52.117403" lon="16.352454"></trkpt><trkpt lat="52.117764" lon="16.352475"></trkpt><trkpt lat="52.118092" lon="16.352092"></trkpt><trkpt lat="52.118231" lon="16.351787"></trkpt><trkpt lat="52.118561" lon="16.351817"></trkpt><trkpt lat="52.134496" lon="16.348376"></trkpt><trkpt lat="52.134998" lon="16.347862"></trkpt><trkpt lat="52.149511" lon="16.329945"></trkpt><trkpt lat="52.149962" lon="16.329007"></trkpt><trkpt lat="52.150226" lon="16.328365"></trkpt><trkpt lat="52.150418" lon="16.328172"></trkpt><trkpt lat="52.151006" lon="16.327997"></trkpt><trkpt lat="52.151224" lon="16.327807"></trkpt><trkpt lat="52.151514" lon="16.327762"></trkpt><trkpt lat="52.151682" lon="16.32759"></trkpt><trkpt lat="52.151911" lon="16.326978"></trkpt><trkpt lat="52.160845" lon="16.306977"></trkpt><trkpt lat="52.161506" lon="16.307986"></trkpt><trkpt lat="52.162051" lon="16.309072"></trkpt><trkpt lat="52.162756" lon="16.310767"></trkpt><trkpt lat="52.167001" lon="16.319494"></trkpt><trkpt lat="52.167845" lon="16.320419"></trkpt><trkpt lat="52.176022" lon="16.328009"></trkpt><trkpt lat="52.177007" lon="16.328658"></trkpt><trkpt lat="52.177721" lon="16.329232"></trkpt><trkpt lat="52.178315" lon="16.329846"></trkpt><trkpt lat="52.18115" lon="16.333286"></trkpt><trkpt lat="52.182284" lon="16.334446"></trkpt><trkpt lat="52.18458" lon="16.337807"></trkpt><trkpt lat="52.184816" lon="16.338684"></trkpt><trkpt lat="52.185198" lon="16.339478"></trkpt><trkpt lat="52.185686" lon="16.340098"></trkpt><trkpt lat="52.186384" lon="16.340709"></trkpt><trkpt lat="52.218214" lon="16.364051"></trkpt><trkpt lat="52.218486" lon="16.364091"></trkpt><trkpt lat="52.21911" lon="16.364077"></trkpt><trkpt lat="52.219966" lon="16.364378"></trkpt><trkpt lat="52.221618" lon="16.364712"></trkpt><trkpt lat="52.223323" lon="16.365357"></trkpt><trkpt lat="52.223278" lon="16.36597"></trkpt><trkpt lat="52.223481" lon="16.366083"></trkpt><trkpt lat="52.223803" lon="16.366018"></trkpt><trkpt lat="52.223926" lon="16.365288"></trkpt><trkpt lat="52.224128" lon="16.365212"></trkpt><trkpt lat="52.224576" lon="16.365253"></trkpt><trkpt lat="52.224691" lon="16.364556"></trkpt><trkpt lat="52.225014" lon="16.364304"></trkpt><trkpt lat="52.225211" lon="16.364183"></trkpt><trkpt lat="52.225707" lon="16.364334"></trkpt><trkpt lat="52.228517" lon="16.364841"></trkpt><trkpt lat="52.229014" lon="16.364814"></trkpt><trkpt lat="52.229259" lon="16.364742"></trkpt><trkpt lat="52.229365" lon="16.364459"></trkpt><trkpt lat="52.229717" lon="16.364055"></trkpt><trkpt lat="52.230195" lon="16.363613"></trkpt><trkpt lat="52.230432" lon="16.363349"></trkpt><trkpt lat="52.230877" lon="16.362927"></trkpt><trkpt lat="52.231271" lon="16.362454"></trkpt><trkpt lat="52.231817" lon="16.361908"></trkpt><trkpt lat="52.233338" lon="16.360728"></trkpt><trkpt lat="52.233533" lon="16.360533"></trkpt><trkpt lat="52.233673" lon="16.360174"></trkpt><trkpt lat="52.234477" lon="16.360425"></trkpt><trkpt lat="52.235599" lon="16.360635"></trkpt><trkpt lat="52.23585" lon="16.360458"></trkpt><trkpt lat="52.236081" lon="16.360468"></trkpt><trkpt lat="52.236501" lon="16.360877"></trkpt><trkpt lat="52.237517" lon="16.361362"></trkpt><trkpt lat="52.241936" lon="16.364177"></trkpt><trkpt lat="52.242485" lon="16.364366"></trkpt><trkpt lat="52.242773" lon="16.36452"></trkpt><trkpt lat="52.242979" lon="16.364572"></trkpt><trkpt lat="52.243182" lon="16.36471"></trkpt><trkpt lat="52.24326" lon="16.36508"></trkpt><trkpt lat="52.243873" lon="16.365603"></trkpt><trkpt lat="52.276951" lon="16.392476"></trkpt><trkpt lat="52.290644" lon="16.40168"></trkpt><trkpt lat="52.290842" lon="16.401694"></trkpt><trkpt lat="52.291063" lon="16.402084"></trkpt><trkpt lat="52.291186" lon="16.402368"></trkpt><trkpt lat="52.291827" lon="16.402775"></trkpt><trkpt lat="52.308234" lon="16.41106"></trkpt><trkpt lat="52.308751" lon="16.41025"></trkpt><trkpt lat="52.309207" lon="16.40937"></trkpt><trkpt lat="52.309308" lon="16.40815"></trkpt><trkpt lat="52.309418" lon="16.407786"></trkpt><trkpt lat="52.310088" lon="16.406933"></trkpt><trkpt lat="52.310464" lon="16.406369"></trkpt><trkpt lat="52.310434" lon="16.406022"></trkpt><trkpt lat="52.31028" lon="16.405102"></trkpt><trkpt lat="52.309858" lon="16.403251"></trkpt><trkpt lat="52.309654" lon="16.40318"></trkpt><trkpt lat="52.309629" lon="16.403523"></trkpt><trkpt lat="52.309556" lon="16.403841"></trkpt><trkpt lat="52.309136" lon="16.404561"></trkpt><trkpt lat="52.309051" lon="16.405041"></trkpt><trkpt lat="52.309038" lon="16.40568"></trkpt><trkpt lat="52.309066" lon="16.406027"></trkpt><trkpt lat="52.309213" lon="16.407155"></trkpt><trkpt lat="52.309227" lon="16.4094"></trkpt><trkpt lat="52.309135" lon="16.409743"></trkpt><trkpt lat="52.308627" lon="16.410395"></trkpt><trkpt lat="52.307957" lon="16.410953"></trkpt><trkpt lat="52.307658" lon="16.410862"></trkpt><trkpt lat="52.307667" lon="16.410495"></trkpt><trkpt lat="52.30763" lon="16.410059"></trkpt><trkpt lat="52.307613" lon="16.410568"></trkpt><trkpt lat="52.307632" lon="16.410909"></trkpt><trkpt lat="52.308112" lon="16.411079"></trkpt><trkpt lat="52.308298" lon="16.410895"></trkpt><trkpt lat="52.308849" lon="16.410132"></trkpt><trkpt lat="52.309208" lon="16.409545"></trkpt><trkpt lat="52.309319" lon="16.408094"></trkpt><trkpt lat="52.309417" lon="16.407785"></trkpt><trkpt lat="52.310136" lon="16.406864"></trkpt><trkpt lat="52.310469" lon="16.406357"></trkpt><trkpt lat="52.310312" lon="16.405237"></trkpt><trkpt lat="52.309938" lon="16.403308"></trkpt><trkpt lat="52.30991" lon="16.402869"></trkpt><trkpt lat="52.309799" lon="16.402586"></trkpt><trkpt lat="52.309794" lon="16.402005"></trkpt><trkpt lat="52.309875" lon="16.401528"></trkpt><trkpt lat="52.309777" lon="16.401062"></trkpt><trkpt lat="52.309725" lon="16.400648"></trkpt></trkseg></trk></gpx>