<?xml version="1.0" encoding="UTF-8" standalone="no" ?><gpx xmlns="http://www.topografix.com/GPX/1/1" xmlns:gpxx="http://www.garmin.com/xmlschemas/GpxExtensions/v3" ><trk><trkseg><trkpt lat="54.605662" lon="18.229491"></trkpt><trkpt lat="54.605451" lon="18.229332"></trkpt><trkpt lat="54.605431" lon="18.228742"></trkpt><trkpt lat="54.605112" lon="18.228863"></trkpt><trkpt lat="54.603039" lon="18.227792"></trkpt><trkpt lat="54.602985" lon="18.227055"></trkpt><trkpt lat="54.603064" lon="18.22601"></trkpt><trkpt lat="54.603558" lon="18.207727"></trkpt><trkpt lat="54.603532" lon="18.206513"></trkpt><trkpt lat="54.603568" lon="18.204703"></trkpt><trkpt lat="54.603438" lon="18.200774"></trkpt><trkpt lat="54.60349" lon="18.19678"></trkpt><trkpt lat="54.603638" lon="18.19649"></trkpt><trkpt lat="54.604135" lon="18.195873"></trkpt><trkpt lat="54.607521" lon="18.190807"></trkpt><trkpt lat="54.60797" lon="18.189963"></trkpt><trkpt lat="54.608585" lon="18.188622"></trkpt><trkpt lat="54.608113" lon="18.189546"></trkpt><trkpt lat="54.605406" lon="18.19413"></trkpt><trkpt lat="54.605206" lon="18.194394"></trkpt><trkpt lat="54.603373" lon="18.196015"></trkpt><trkpt lat="54.603211" lon="18.195622"></trkpt><trkpt lat="54.602705" lon="18.194595"></trkpt><trkpt lat="54.602436" lon="18.194815"></trkpt><trkpt lat="54.602264" lon="18.195001"></trkpt><trkpt lat="54.601988" lon="18.195254"></trkpt><trkpt lat="54.601752" lon="18.195392"></trkpt><trkpt lat="54.601535" lon="18.195474"></trkpt><trkpt lat="54.601303" lon="18.19553"></trkpt><trkpt lat="54.6011" lon="18.195541"></trkpt><trkpt lat="54.600635" lon="18.195414"></trkpt><trkpt lat="54.600392" lon="18.195263"></trkpt><trkpt lat="54.600179" lon="18.195089"></trkpt><trkpt lat="54.600012" lon="18.194896"></trkpt><trkpt lat="54.599843" lon="18.194664"></trkpt><trkpt lat="54.599651" lon="18.194334"></trkpt><trkpt lat="54.599393" lon="18.193667"></trkpt><trkpt lat="54.5992" lon="18.192941"></trkpt><trkpt lat="54.598171" lon="18.190461"></trkpt><trkpt lat="54.597731" lon="18.189108"></trkpt><trkpt lat="54.597567" lon="18.188147"></trkpt><trkpt lat="54.596083" lon="18.176009"></trkpt><trkpt lat="54.59581" lon="18.176316"></trkpt><trkpt lat="54.595607" lon="18.176355"></trkpt><trkpt lat="54.595506" lon="18.175656"></trkpt><trkpt lat="54.595284" lon="18.174495"></trkpt><trkpt lat="54.594754" lon="18.174699"></trkpt><trkpt lat="54.594217" lon="18.175091"></trkpt><trkpt lat="54.593428" lon="18.175866"></trkpt><trkpt lat="54.593183" lon="18.176249"></trkpt><trkpt lat="54.593013" lon="18.176559"></trkpt><trkpt lat="54.592799" lon="18.176828"></trkpt><trkpt lat="54.5926" lon="18.177017"></trkpt><trkpt lat="54.592431" lon="18.177238"></trkpt><trkpt lat="54.59228" lon="18.177479"></trkpt><trkpt lat="54.592136" lon="18.177856"></trkpt><trkpt lat="54.592114" lon="18.178298"></trkpt><trkpt lat="54.59219" lon="18.179281"></trkpt><trkpt lat="54.592044" lon="18.179685"></trkpt><trkpt lat="54.591797" lon="18.179833"></trkpt><trkpt lat="54.591543" lon="18.179874"></trkpt><trkpt lat="54.591332" lon="18.180038"></trkpt><trkpt lat="54.59118" lon="18.180297"></trkpt><trkpt lat="54.591062" lon="18.1806"></trkpt><trkpt lat="54.589481" lon="18.184074"></trkpt><trkpt lat="54.589324" lon="18.184299"></trkpt><trkpt lat="54.589053" lon="18.184869"></trkpt><trkpt lat="54.588288" lon="18.186763"></trkpt><trkpt lat="54.58821" lon="18.187168"></trkpt><trkpt lat="54.588159" lon="18.187515"></trkpt><trkpt lat="54.588073" lon="18.187876"></trkpt><trkpt lat="54.587893" lon="18.188125"></trkpt><trkpt lat="54.587655" lon="18.188249"></trkpt><trkpt lat="54.587124" lon="18.188734"></trkpt><trkpt lat="54.586754" lon="18.189247"></trkpt><trkpt lat="54.581434" lon="18.195305"></trkpt><trkpt lat="54.581025" lon="18.195289"></trkpt><trkpt lat="54.580092" lon="18.195488"></trkpt><trkpt lat="54.580026" lon="18.196745"></trkpt><trkpt lat="54.57981" lon="18.198801"></trkpt><trkpt lat="54.579641" lon="18.199717"></trkpt><trkpt lat="54.579346" lon="18.200395"></trkpt><trkpt lat="54.578917" lon="18.200665"></trkpt><trkpt lat="54.578319" lon="18.200636"></trkpt><trkpt lat="54.577875" lon="18.200528"></trkpt><trkpt lat="54.576665" lon="18.200395"></trkpt><trkpt lat="54.575145" lon="18.200893"></trkpt><trkpt lat="54.575031" lon="18.201575"></trkpt><trkpt lat="54.574766" lon="18.202015"></trkpt><trkpt lat="54.574504" lon="18.202301"></trkpt><trkpt lat="54.573722" lon="18.203003"></trkpt><trkpt lat="54.573378" lon="18.203164"></trkpt><trkpt lat="54.572855" lon="18.203522"></trkpt><trkpt lat="54.571853" lon="18.204354"></trkpt><trkpt lat="54.571339" lon="18.205081"></trkpt><trkpt lat="54.569122" lon="18.208796"></trkpt><trkpt lat="54.56898" lon="18.209256"></trkpt><trkpt lat="54.568817" lon="18.209678"></trkpt><trkpt lat="54.568615" lon="18.210101"></trkpt><trkpt lat="54.568059" lon="18.211071"></trkpt><trkpt lat="54.567748" lon="18.211505"></trkpt><trkpt lat="54.56696" lon="18.212783"></trkpt><trkpt lat="54.566549" lon="18.21399"></trkpt><trkpt lat="54.565734" lon="18.215777"></trkpt><trkpt lat="54.565455" lon="18.216086"></trkpt><trkpt lat="54.564633" lon="18.217214"></trkpt><trkpt lat="54.564223" lon="18.217991"></trkpt><trkpt lat="54.56346" lon="18.219242"></trkpt><trkpt lat="54.563126" lon="18.219664"></trkpt><trkpt lat="54.562947" lon="18.219929"></trkpt><trkpt lat="54.562757" lon="18.220165"></trkpt><trkpt lat="54.562493" lon="18.220579"></trkpt><trkpt lat="54.56233" lon="18.220789"></trkpt><trkpt lat="54.560841" lon="18.222419"></trkpt><trkpt lat="54.560632" lon="18.222718"></trkpt><trkpt lat="54.560351" lon="18.222899"></trkpt><trkpt lat="54.559884" lon="18.223066"></trkpt><trkpt lat="54.559495" lon="18.223266"></trkpt><trkpt lat="54.559081" lon="18.223641"></trkpt><trkpt lat="54.556039" lon="18.225909"></trkpt><trkpt lat="54.555657" lon="18.225951"></trkpt><trkpt lat="54.555236" lon="18.226052"></trkpt><trkpt lat="54.554907" lon="18.226195"></trkpt><trkpt lat="54.554596" lon="18.226286"></trkpt><trkpt lat="54.554294" lon="18.22643"></trkpt><trkpt lat="54.554095" lon="18.226467"></trkpt><trkpt lat="54.553305" lon="18.226493"></trkpt><trkpt lat="54.552763" lon="18.226339"></trkpt><trkpt lat="54.552527" lon="18.226179"></trkpt><trkpt lat="54.551136" lon="18.224994"></trkpt><trkpt lat="54.550833" lon="18.224668"></trkpt><trkpt lat="54.548881" lon="18.222983"></trkpt><trkpt lat="54.548557" lon="18.223524"></trkpt><trkpt lat="54.548411" lon="18.223924"></trkpt><trkpt lat="54.547274" lon="18.226595"></trkpt><trkpt lat="54.547049" lon="18.226252"></trkpt><trkpt lat="54.546845" lon="18.226063"></trkpt><trkpt lat="54.546554" lon="18.225729"></trkpt><trkpt lat="54.54323" lon="18.222633"></trkpt><trkpt lat="54.542809" lon="18.222433"></trkpt><trkpt lat="54.539005" lon="18.219955"></trkpt><trkpt lat="54.53873" lon="18.219589"></trkpt><trkpt lat="54.537048" lon="18.217709"></trkpt><trkpt lat="54.536607" lon="18.217343"></trkpt><trkpt lat="54.533325" lon="18.2153"></trkpt><trkpt lat="54.532706" lon="18.215077"></trkpt><trkpt lat="54.531474" lon="18.214838"></trkpt><trkpt lat="54.52894" lon="18.214997"></trkpt><trkpt lat="54.52872" lon="18.214895"></trkpt><trkpt lat="54.528" lon="18.214325"></trkpt><trkpt lat="54.522571" lon="18.209198"></trkpt><trkpt lat="54.522299" lon="18.20868"></trkpt><trkpt lat="54.521619" lon="18.207117"></trkpt><trkpt lat="54.521567" lon="18.205743"></trkpt><trkpt lat="54.521578" lon="18.205035"></trkpt><trkpt lat="54.521508" lon="18.204636"></trkpt><trkpt lat="54.521341" lon="18.204346"></trkpt><trkpt lat="54.521123" lon="18.204211"></trkpt><trkpt lat="54.520328" lon="18.203476"></trkpt><trkpt lat="54.520076" lon="18.203162"></trkpt><trkpt lat="54.519041" lon="18.202207"></trkpt><trkpt lat="54.518691" lon="18.20232"></trkpt><trkpt lat="54.518365" lon="18.2025"></trkpt><trkpt lat="54.515355" lon="18.203524"></trkpt><trkpt lat="54.515143" lon="18.20333"></trkpt><trkpt lat="54.514388" lon="18.202514"></trkpt><trkpt lat="54.514056" lon="18.202237"></trkpt><trkpt lat="54.5135" lon="18.202069"></trkpt><trkpt lat="54.513268" lon="18.201937"></trkpt><trkpt lat="54.512763" lon="18.201554"></trkpt><trkpt lat="54.512406" lon="18.201462"></trkpt><trkpt lat="54.512178" lon="18.201306"></trkpt><trkpt lat="54.512029" lon="18.201039"></trkpt><trkpt lat="54.511865" lon="18.200491"></trkpt><trkpt lat="54.511861" lon="18.20014"></trkpt><trkpt lat="54.511825" lon="18.199506"></trkpt><trkpt lat="54.511713" lon="18.199126"></trkpt><trkpt lat="54.511554" lon="18.198884"></trkpt><trkpt lat="54.511181" lon="18.198467"></trkpt><trkpt lat="54.510835" lon="18.198137"></trkpt><trkpt lat="54.510275" lon="18.197699"></trkpt><trkpt lat="54.509921" lon="18.197605"></trkpt><trkpt lat="54.509008" lon="18.197486"></trkpt><trkpt lat="54.506887" lon="18.196711"></trkpt><trkpt lat="54.506613" lon="18.1964"></trkpt><trkpt lat="54.506338" lon="18.196232"></trkpt><trkpt lat="54.506113" lon="18.19619"></trkpt><trkpt lat="54.505375" lon="18.195773"></trkpt><trkpt lat="54.505225" lon="18.195319"></trkpt><trkpt lat="54.505098" lon="18.194819"></trkpt><trkpt lat="54.50481" lon="18.194174"></trkpt><trkpt lat="54.504387" lon="18.193603"></trkpt><trkpt lat="54.503749" lon="18.193054"></trkpt><trkpt lat="54.503323" lon="18.192754"></trkpt><trkpt lat="54.502845" lon="18.192576"></trkpt><trkpt lat="54.500813" lon="18.192113"></trkpt><trkpt lat="54.500606" lon="18.192124"></trkpt><trkpt lat="54.495488" lon="18.193316"></trkpt><trkpt lat="54.49525" lon="18.193866"></trkpt><trkpt lat="54.494279" lon="18.197075"></trkpt><trkpt lat="54.494357" lon="18.198662"></trkpt><trkpt lat="54.494158" lon="18.201897"></trkpt><trkpt lat="54.493878" lon="18.202799"></trkpt><trkpt lat="54.492898" lon="18.207121"></trkpt><trkpt lat="54.492981" lon="18.208275"></trkpt><trkpt lat="54.492969" lon="18.20882"></trkpt><trkpt lat="54.492727" lon="18.208925"></trkpt><trkpt lat="54.492229" lon="18.209273"></trkpt><trkpt lat="54.491786" lon="18.209783"></trkpt><trkpt lat="54.491325" lon="18.21047"></trkpt><trkpt lat="54.491009" lon="18.211033"></trkpt><trkpt lat="54.486694" lon="18.219938"></trkpt><trkpt lat="54.486668" lon="18.221034"></trkpt><trkpt lat="54.486021" lon="18.227768"></trkpt><trkpt lat="54.48579" lon="18.22775"></trkpt><trkpt lat="54.485553" lon="18.227655"></trkpt><trkpt lat="54.476755" lon="18.225393"></trkpt><trkpt lat="54.476528" lon="18.225547"></trkpt><trkpt lat="54.475894" lon="18.225845"></trkpt><trkpt lat="54.47562" lon="18.225876"></trkpt><trkpt lat="54.448918" lon="18.232274"></trkpt><trkpt lat="54.448515" lon="18.232603"></trkpt><trkpt lat="54.443661" lon="18.237774"></trkpt><trkpt lat="54.443498" lon="18.238755"></trkpt><trkpt lat="54.443598" lon="18.238297"></trkpt><trkpt lat="54.443803" lon="18.236982"></trkpt><trkpt lat="54.443382" lon="18.237284"></trkpt><trkpt lat="54.44318" lon="18.237518"></trkpt><trkpt lat="54.442989" lon="18.2377"></trkpt><trkpt lat="54.442795" lon="18.237848"></trkpt><trkpt lat="54.442465" lon="18.238014"></trkpt><trkpt lat="54.442006" lon="18.237988"></trkpt><trkpt lat="54.439644" lon="18.238706"></trkpt><trkpt lat="54.439071" lon="18.23915"></trkpt><trkpt lat="54.438757" lon="18.239498"></trkpt><trkpt lat="54.436756" lon="18.241262"></trkpt><trkpt lat="54.436348" lon="18.241281"></trkpt><trkpt lat="54.436013" lon="18.24121"></trkpt><trkpt lat="54.435232" lon="18.240916"></trkpt><trkpt lat="54.434933" lon="18.240342"></trkpt><trkpt lat="54.434779" lon="18.239995"></trkpt><trkpt lat="54.434301" lon="18.239075"></trkpt><trkpt lat="54.432783" lon="18.236666"></trkpt><trkpt lat="54.432512" lon="18.236339"></trkpt><trkpt lat="54.429762" lon="18.233809"></trkpt><trkpt lat="54.428851" lon="18.234396"></trkpt><trkpt lat="54.428179" lon="18.234608"></trkpt><trkpt lat="54.427974" lon="18.234719"></trkpt><trkpt lat="54.427525" lon="18.235157"></trkpt><trkpt lat="54.427287" lon="18.235206"></trkpt><trkpt lat="54.426705" lon="18.235174"></trkpt><trkpt lat="54.426482" lon="18.235268"></trkpt><trkpt lat="54.425569" lon="18.235534"></trkpt><trkpt lat="54.425374" lon="18.235418"></trkpt><trkpt lat="54.424658" lon="18.235142"></trkpt><trkpt lat="54.423997" lon="18.234796"></trkpt><trkpt lat="54.4212" lon="18.233704"></trkpt><trkpt lat="54.42" lon="18.234678"></trkpt><trkpt lat="54.41976" lon="18.235301"></trkpt><trkpt lat="54.419561" lon="18.236438"></trkpt><trkpt lat="54.417781" lon="18.243131"></trkpt><trkpt lat="54.417257" lon="18.244089"></trkpt><trkpt lat="54.416579" lon="18.245157"></trkpt><trkpt lat="54.41615" lon="18.245687"></trkpt><trkpt lat="54.415595" lon="18.246244"></trkpt><trkpt lat="54.41528" lon="18.246478"></trkpt><trkpt lat="54.414863" lon="18.246715"></trkpt><trkpt lat="54.414636" lon="18.247028"></trkpt><trkpt lat="54.414407" lon="18.247656"></trkpt><trkpt lat="54.41461" lon="18.247092"></trkpt><trkpt lat="54.414796" lon="18.246772"></trkpt><trkpt lat="54.415004" lon="18.246573"></trkpt><trkpt lat="54.415004" lon="18.245791"></trkpt><trkpt lat="54.414645" lon="18.241822"></trkpt><trkpt lat="54.414369" lon="18.239741"></trkpt><trkpt lat="54.414247" lon="18.239438"></trkpt><trkpt lat="54.414115" lon="18.239162"></trkpt><trkpt lat="54.413968" lon="18.238901"></trkpt><trkpt lat="54.413601" lon="18.238342"></trkpt><trkpt lat="54.412697" lon="18.236739"></trkpt><trkpt lat="54.412568" lon="18.235447"></trkpt><trkpt lat="54.412543" lon="18.234534"></trkpt><trkpt lat="54.412386" lon="18.2341"></trkpt><trkpt lat="54.412122" lon="18.233856"></trkpt><trkpt lat="54.411911" lon="18.233695"></trkpt><trkpt lat="54.410199" lon="18.232705"></trkpt><trkpt lat="54.40974" lon="18.232723"></trkpt><trkpt lat="54.409386" lon="18.232811"></trkpt><trkpt lat="54.408756" lon="18.233255"></trkpt><trkpt lat="54.407645" lon="18.233865"></trkpt><trkpt lat="54.407446" lon="18.233858"></trkpt><trkpt lat="54.407098" lon="18.233769"></trkpt><trkpt lat="54.406482" lon="18.233039"></trkpt><trkpt lat="54.405033" lon="18.231031"></trkpt><trkpt lat="54.404591" lon="18.230183"></trkpt><trkpt lat="54.404346" lon="18.22961"></trkpt><trkpt lat="54.404163" lon="18.228674"></trkpt><trkpt lat="54.403924" lon="18.228099"></trkpt><trkpt lat="54.403708" lon="18.227867"></trkpt><trkpt lat="54.403008" lon="18.226987"></trkpt><trkpt lat="54.402598" lon="18.226257"></trkpt><trkpt lat="54.401898" lon="18.22519"></trkpt><trkpt lat="54.401646" lon="18.225103"></trkpt><trkpt lat="54.400743" lon="18.224642"></trkpt><trkpt lat="54.400502" lon="18.223865"></trkpt><trkpt lat="54.400341" lon="18.223619"></trkpt><trkpt lat="54.399859" lon="18.223389"></trkpt><trkpt lat="54.399661" lon="18.223213"></trkpt><trkpt lat="54.399472" lon="18.222934"></trkpt><trkpt lat="54.399071" lon="18.222512"></trkpt><trkpt lat="54.398846" lon="18.222463"></trkpt><trkpt lat="54.398653" lon="18.222727"></trkpt><trkpt lat="54.398337" lon="18.223344"></trkpt><trkpt lat="54.397952" lon="18.224218"></trkpt><trkpt lat="54.397675" lon="18.224759"></trkpt><trkpt lat="54.397292" lon="18.225153"></trkpt><trkpt lat="54.397125" lon="18.225356"></trkpt><trkpt lat="54.396779" lon="18.225688"></trkpt><trkpt lat="54.396165" lon="18.22582"></trkpt><trkpt lat="54.395731" lon="18.225854"></trkpt><trkpt lat="54.395185" lon="18.225134"></trkpt><trkpt lat="54.394782" lon="18.224333"></trkpt><trkpt lat="54.393886" lon="18.222856"></trkpt><trkpt lat="54.393465" lon="18.222438"></trkpt><trkpt lat="54.392794" lon="18.222236"></trkpt><trkpt lat="54.386269" lon="18.221127"></trkpt><trkpt lat="54.385512" lon="18.220742"></trkpt><trkpt lat="54.385049" lon="18.220588"></trkpt><trkpt lat="54.383338" lon="18.220606"></trkpt><trkpt lat="54.382563" lon="18.219955"></trkpt><trkpt lat="54.375799" lon="18.215267"></trkpt><trkpt lat="54.374318" lon="18.216061"></trkpt><trkpt lat="54.373368" lon="18.21569"></trkpt><trkpt lat="54.372914" lon="18.215774"></trkpt><trkpt lat="54.372412" lon="18.215591"></trkpt><trkpt lat="54.371474" lon="18.214919"></trkpt><trkpt lat="54.370883" lon="18.214587"></trkpt><trkpt lat="54.370536" lon="18.214632"></trkpt><trkpt lat="54.370269" lon="18.214806"></trkpt><trkpt lat="54.369966" lon="18.215252"></trkpt><trkpt lat="54.36985" lon="18.215578"></trkpt><trkpt lat="54.369711" lon="18.21605"></trkpt><trkpt lat="54.369685" lon="18.216651"></trkpt><trkpt lat="54.369688" lon="18.217805"></trkpt><trkpt lat="54.369546" lon="18.219825"></trkpt><trkpt lat="54.369251" lon="18.22038"></trkpt><trkpt lat="54.36898" lon="18.220639"></trkpt><trkpt lat="54.36875" lon="18.220707"></trkpt><trkpt lat="54.367513" lon="18.219899"></trkpt><trkpt lat="54.367251" lon="18.219388"></trkpt><trkpt lat="54.367094" lon="18.218714"></trkpt><trkpt lat="54.366991" lon="18.218132"></trkpt><trkpt lat="54.366713" lon="18.217369"></trkpt><trkpt lat="54.366552" lon="18.217149"></trkpt><trkpt lat="54.365961" lon="18.21685"></trkpt><trkpt lat="54.36521" lon="18.216997"></trkpt><trkpt lat="54.362601" lon="18.216888"></trkpt><trkpt lat="54.361893" lon="18.217517"></trkpt><trkpt lat="54.360754" lon="18.218094"></trkpt><trkpt lat="54.360121" lon="18.217945"></trkpt><trkpt lat="54.359842" lon="18.21776"></trkpt><trkpt lat="54.359512" lon="18.217376"></trkpt><trkpt lat="54.359241" lon="18.217208"></trkpt><trkpt lat="54.358948" lon="18.21721"></trkpt><trkpt lat="54.358694" lon="18.217343"></trkpt><trkpt lat="54.358058" lon="18.218003"></trkpt><trkpt lat="54.357801" lon="18.218087"></trkpt><trkpt lat="54.357573" lon="18.218062"></trkpt><trkpt lat="54.357332" lon="18.21794"></trkpt><trkpt lat="54.357111" lon="18.217712"></trkpt><trkpt lat="54.35695" lon="18.21748"></trkpt><trkpt lat="54.356733" lon="18.217291"></trkpt><trkpt lat="54.356498" lon="18.217196"></trkpt><trkpt lat="54.356228" lon="18.217228"></trkpt><trkpt lat="54.354919" lon="18.217998"></trkpt><trkpt lat="54.354661" lon="18.218228"></trkpt><trkpt lat="54.354454" lon="18.218272"></trkpt><trkpt lat="54.35354" lon="18.217844"></trkpt><trkpt lat="54.353049" lon="18.217876"></trkpt><trkpt lat="54.352643" lon="18.217969"></trkpt><trkpt lat="54.352452" lon="18.218065"></trkpt><trkpt lat="54.351776" lon="18.217905"></trkpt><trkpt lat="54.351133" lon="18.217381"></trkpt><trkpt lat="54.350741" lon="18.216814"></trkpt><trkpt lat="54.350324" lon="18.216569"></trkpt><trkpt lat="54.349949" lon="18.216417"></trkpt><trkpt lat="54.349489" lon="18.216135"></trkpt><trkpt lat="54.348915" lon="18.21587"></trkpt><trkpt lat="54.347856" lon="18.215208"></trkpt><trkpt lat="54.347622" lon="18.215001"></trkpt><trkpt lat="54.347052" lon="18.214599"></trkpt><trkpt lat="54.346744" lon="18.214495"></trkpt><trkpt lat="54.346424" lon="18.214473"></trkpt><trkpt lat="54.343305" lon="18.213855"></trkpt><trkpt lat="54.340603" lon="18.212654"></trkpt><trkpt lat="54.340194" lon="18.211905"></trkpt><trkpt lat="54.339939" lon="18.211327"></trkpt><trkpt lat="54.339731" lon="18.210934"></trkpt><trkpt lat="54.339476" lon="18.210303"></trkpt><trkpt lat="54.339426" lon="18.209897"></trkpt><trkpt lat="54.339292" lon="18.209235"></trkpt><trkpt lat="54.339168" lon="18.208409"></trkpt><trkpt lat="54.338906" lon="18.207834"></trkpt><trkpt lat="54.33861" lon="18.20707"></trkpt><trkpt lat="54.338514" lon="18.206732"></trkpt><trkpt lat="54.338453" lon="18.206396"></trkpt><trkpt lat="54.338323" lon="18.206115"></trkpt><trkpt lat="54.338205" lon="18.205597"></trkpt><trkpt lat="54.338032" lon="18.205118"></trkpt><trkpt lat="54.337728" lon="18.204121"></trkpt><trkpt lat="54.337413" lon="18.203895"></trkpt><trkpt lat="54.337225" lon="18.203657"></trkpt><trkpt lat="54.337016" lon="18.203454"></trkpt><trkpt lat="54.336679" lon="18.203227"></trkpt><trkpt lat="54.336149" lon="18.203006"></trkpt><trkpt lat="54.335484" lon="18.202585"></trkpt><trkpt lat="54.335224" lon="18.201953"></trkpt><trkpt lat="54.335015" lon="18.20154"></trkpt><trkpt lat="54.334798" lon="18.201628"></trkpt><trkpt lat="54.333995" lon="18.202137"></trkpt><trkpt lat="54.33405" lon="18.202841"></trkpt><trkpt lat="54.334121" lon="18.204956"></trkpt><trkpt lat="54.3341" lon="18.204249"></trkpt><trkpt lat="54.333761" lon="18.204078"></trkpt><trkpt lat="54.333543" lon="18.20405"></trkpt><trkpt lat="54.333279" lon="18.203968"></trkpt><trkpt lat="54.332997" lon="18.204013"></trkpt><trkpt lat="54.333491" lon="18.204025"></trkpt><trkpt lat="54.333586" lon="18.204557"></trkpt><trkpt lat="54.333916" lon="18.20463"></trkpt><trkpt lat="54.334164" lon="18.204633"></trkpt><trkpt lat="54.334224" lon="18.203807"></trkpt><trkpt lat="54.334212" lon="18.203432"></trkpt><trkpt lat="54.334175" lon="18.203035"></trkpt><trkpt lat="54.334105" lon="18.202599"></trkpt><trkpt lat="54.333961" lon="18.201924"></trkpt><trkpt lat="54.333728" lon="18.201745"></trkpt><trkpt lat="54.333407" lon="18.202099"></trkpt><trkpt lat="54.333181" lon="18.202201"></trkpt><trkpt lat="54.332058" lon="18.202858"></trkpt><trkpt lat="54.331796" lon="18.202315"></trkpt><trkpt lat="54.331619" lon="18.202162"></trkpt><trkpt lat="54.33157" lon="18.201807"></trkpt><trkpt lat="54.331384" lon="18.201658"></trkpt><trkpt lat="54.33127" lon="18.201981"></trkpt><trkpt lat="54.331125" lon="18.202302"></trkpt><trkpt lat="54.330793" lon="18.203179"></trkpt><trkpt lat="54.330297" lon="18.205183"></trkpt><trkpt lat="54.330233" lon="18.205811"></trkpt><trkpt lat="54.330248" lon="18.206747"></trkpt><trkpt lat="54.330361" lon="18.207798"></trkpt><trkpt lat="54.330523" lon="18.210912"></trkpt><trkpt lat="54.330407" lon="18.211455"></trkpt><trkpt lat="54.330353" lon="18.211865"></trkpt><trkpt lat="54.330412" lon="18.2125"></trkpt><trkpt lat="54.330385" lon="18.213312"></trkpt><trkpt lat="54.330314" lon="18.213936"></trkpt><trkpt lat="54.33015" lon="18.214651"></trkpt><trkpt lat="54.317981" lon="18.259563"></trkpt><trkpt lat="54.317841" lon="18.26021"></trkpt><trkpt lat="54.316953" lon="18.263495"></trkpt><trkpt lat="54.3162" lon="18.266887"></trkpt><trkpt lat="54.316044" lon="18.267432"></trkpt><trkpt lat="54.315785" lon="18.268759"></trkpt><trkpt lat="54.315776" lon="18.269564"></trkpt><trkpt lat="54.315826" lon="18.270455"></trkpt><trkpt lat="54.315761" lon="18.271017"></trkpt><trkpt lat="54.315594" lon="18.271615"></trkpt><trkpt lat="54.315456" lon="18.272"></trkpt><trkpt lat="54.314938" lon="18.273824"></trkpt><trkpt lat="54.314915" lon="18.274422"></trkpt><trkpt lat="54.31493" lon="18.274987"></trkpt><trkpt lat="54.315074" lon="18.27669"></trkpt><trkpt lat="54.315198" lon="18.277307"></trkpt><trkpt lat="54.315406" lon="18.279026"></trkpt><trkpt lat="54.315332" lon="18.280167"></trkpt><trkpt lat="54.315363" lon="18.281639"></trkpt><trkpt lat="54.315648" lon="18.282685"></trkpt><trkpt lat="54.316242" lon="18.283774"></trkpt><trkpt lat="54.316735" lon="18.2845"></trkpt><trkpt lat="54.317098" lon="18.284959"></trkpt><trkpt lat="54.317923" lon="18.28619"></trkpt><trkpt lat="54.318358" lon="18.287054"></trkpt><trkpt lat="54.319879" lon="18.290844"></trkpt><trkpt lat="54.319955" lon="18.291466"></trkpt><trkpt lat="54.320454" lon="18.298187"></trkpt><trkpt lat="54.320056" lon="18.298072"></trkpt><trkpt lat="54.319751" lon="18.297759"></trkpt><trkpt lat="54.31952" lon="18.297568"></trkpt><trkpt lat="54.319285" lon="18.297313"></trkpt><trkpt lat="54.31892" lon="18.296981"></trkpt><trkpt lat="54.31839" lon="18.296331"></trkpt><trkpt lat="54.31859" lon="18.296653"></trkpt><trkpt lat="54.31883" lon="18.296863"></trkpt><trkpt lat="54.319747" lon="18.297818"></trkpt><trkpt lat="54.320068" lon="18.298067"></trkpt><trkpt lat="54.320441" lon="18.298114"></trkpt><trkpt lat="54.320646" lon="18.29821"></trkpt><trkpt lat="54.320891" lon="18.298718"></trkpt><trkpt lat="54.321073" lon="18.299304"></trkpt><trkpt lat="54.321293" lon="18.299886"></trkpt><trkpt lat="54.321847" lon="18.301639"></trkpt><trkpt lat="54.321686" lon="18.301872"></trkpt><trkpt lat="54.321434" lon="18.302995"></trkpt><trkpt lat="54.321129" lon="18.304073"></trkpt><trkpt lat="54.321057" lon="18.304585"></trkpt><trkpt lat="54.321046" lon="18.305765"></trkpt><trkpt lat="54.321101" lon="18.306794"></trkpt><trkpt lat="54.321183" lon="18.307334"></trkpt><trkpt lat="54.321379" lon="18.308168"></trkpt><trkpt lat="54.321632" lon="18.308932"></trkpt><trkpt lat="54.326974" lon="18.322208"></trkpt><trkpt lat="54.327548" lon="18.322914"></trkpt><trkpt lat="54.327941" lon="18.323708"></trkpt><trkpt lat="54.328529" lon="18.325116"></trkpt><trkpt lat="54.329309" lon="18.326662"></trkpt><trkpt lat="54.330707" lon="18.329069"></trkpt><trkpt lat="54.3325" lon="18.332714"></trkpt><trkpt lat="54.332495" lon="18.333066"></trkpt><trkpt lat="54.332535" lon="18.334251"></trkpt><trkpt lat="54.332673" lon="18.334672"></trkpt><trkpt lat="54.333295" lon="18.335949"></trkpt><trkpt lat="54.334619" lon="18.338296"></trkpt><trkpt lat="54.335168" lon="18.338699"></trkpt><trkpt lat="54.336688" lon="18.3405"></trkpt><trkpt lat="54.337061" lon="18.341718"></trkpt><trkpt lat="54.338019" lon="18.343602"></trkpt><trkpt lat="54.338789" lon="18.344507"></trkpt><trkpt lat="54.340043" lon="18.346243"></trkpt><trkpt lat="54.340202" lon="18.347202"></trkpt><trkpt lat="54.340128" lon="18.348667"></trkpt><trkpt lat="54.340116" lon="18.351786"></trkpt><trkpt lat="54.340487" lon="18.35297"></trkpt><trkpt lat="54.341671" lon="18.356123"></trkpt><trkpt lat="54.342187" lon="18.357889"></trkpt><trkpt lat="54.342422" lon="18.358878"></trkpt><trkpt lat="54.342527" lon="18.359961"></trkpt><trkpt lat="54.342389" lon="18.360437"></trkpt><trkpt lat="54.342263" lon="18.360775"></trkpt><trkpt lat="54.341765" lon="18.36036"></trkpt><trkpt lat="54.341144" lon="18.360154"></trkpt><trkpt lat="54.340869" lon="18.360772"></trkpt><trkpt lat="54.340793" lon="18.36115"></trkpt><trkpt lat="54.340747" lon="18.361693"></trkpt><trkpt lat="54.340737" lon="18.362039"></trkpt><trkpt lat="54.340686" lon="18.362761"></trkpt><trkpt lat="54.340864" lon="18.362915"></trkpt><trkpt lat="54.340733" lon="18.36342"></trkpt><trkpt lat="54.340251" lon="18.363156"></trkpt><trkpt lat="54.340065" lon="18.362987"></trkpt><trkpt lat="54.339916" lon="18.362695"></trkpt><trkpt lat="54.339696" lon="18.361709"></trkpt><trkpt lat="54.339534" lon="18.361432"></trkpt><trkpt lat="54.339336" lon="18.361205"></trkpt><trkpt lat="54.338939" lon="18.361037"></trkpt><trkpt lat="54.338559" lon="18.36077"></trkpt><trkpt lat="54.338149" lon="18.360417"></trkpt><trkpt lat="54.337601" lon="18.360163"></trkpt><trkpt lat="54.33659" lon="18.359433"></trkpt><trkpt lat="54.33615" lon="18.358907"></trkpt><trkpt lat="54.335691" lon="18.357806"></trkpt><trkpt lat="54.335257" lon="18.357048"></trkpt><trkpt lat="54.335053" lon="18.35686"></trkpt><trkpt lat="54.334777" lon="18.356822"></trkpt><trkpt lat="54.334072" lon="18.357422"></trkpt><trkpt lat="54.333722" lon="18.357792"></trkpt><trkpt lat="54.331537" lon="18.360756"></trkpt><trkpt lat="54.331409" lon="18.361449"></trkpt><trkpt lat="54.331358" lon="18.362376"></trkpt><trkpt lat="54.33133" lon="18.364433"></trkpt><trkpt lat="54.331215" lon="18.366364"></trkpt><trkpt lat="54.331217" lon="18.366893"></trkpt><trkpt lat="54.331257" lon="18.367665"></trkpt><trkpt lat="54.331154" lon="18.368337"></trkpt><trkpt lat="54.330906" lon="18.369021"></trkpt><trkpt lat="54.330468" lon="18.369628"></trkpt><trkpt lat="54.330197" lon="18.370176"></trkpt><trkpt lat="54.329918" lon="18.370855"></trkpt><trkpt lat="54.32951" lon="18.372017"></trkpt><trkpt lat="54.329221" lon="18.372556"></trkpt><trkpt lat="54.328998" lon="18.373051"></trkpt><trkpt lat="54.318337" lon="18.393141"></trkpt><trkpt lat="54.31767" lon="18.39366"></trkpt><trkpt lat="54.316925" lon="18.39413"></trkpt><trkpt lat="54.313852" lon="18.39564"></trkpt><trkpt lat="54.312587" lon="18.394739"></trkpt><trkpt lat="54.312079" lon="18.394124"></trkpt><trkpt lat="54.309981" lon="18.392279"></trkpt><trkpt lat="54.309809" lon="18.392786"></trkpt><trkpt lat="54.309565" lon="18.393645"></trkpt><trkpt lat="54.309294" lon="18.394412"></trkpt><trkpt lat="54.308917" lon="18.394935"></trkpt><trkpt lat="54.308431" lon="18.395287"></trkpt><trkpt lat="54.306954" lon="18.396847"></trkpt><trkpt lat="54.306729" lon="18.397624"></trkpt><trkpt lat="54.306569" lon="18.398354"></trkpt><trkpt lat="54.30511" lon="18.403777"></trkpt><trkpt lat="54.304707" lon="18.405834"></trkpt><trkpt lat="54.301956" lon="18.417059"></trkpt><trkpt lat="54.301459" lon="18.417677"></trkpt><trkpt lat="54.300928" lon="18.417945"></trkpt><trkpt lat="54.300241" lon="18.417821"></trkpt><trkpt lat="54.298829" lon="18.417799"></trkpt><trkpt lat="54.298145" lon="18.418327"></trkpt><trkpt lat="54.297348" lon="18.419364"></trkpt><trkpt lat="54.296731" lon="18.419921"></trkpt><trkpt lat="54.294807" lon="18.422016"></trkpt><trkpt lat="54.294608" lon="18.422513"></trkpt><trkpt lat="54.294438" lon="18.423131"></trkpt><trkpt lat="54.291908" lon="18.430685"></trkpt><trkpt lat="54.291584" lon="18.430741"></trkpt><trkpt lat="54.2901" lon="18.430778"></trkpt><trkpt lat="54.289897" lon="18.430575"></trkpt><trkpt lat="54.289301" lon="18.429662"></trkpt><trkpt lat="54.28874" lon="18.429097"></trkpt><trkpt lat="54.288415" lon="18.428927"></trkpt><trkpt lat="54.288036" lon="18.428838"></trkpt><trkpt lat="54.286605" lon="18.429404"></trkpt><trkpt lat="54.283459" lon="18.429611"></trkpt><trkpt lat="54.283255" lon="18.429054"></trkpt><trkpt lat="54.283365" lon="18.429381"></trkpt><trkpt lat="54.283778" lon="18.430874"></trkpt><trkpt lat="54.283386" lon="18.431096"></trkpt><trkpt lat="54.277901" lon="18.433183"></trkpt><trkpt lat="54.277616" lon="18.432557"></trkpt><trkpt lat="54.277376" lon="18.432124"></trkpt><trkpt lat="54.277153" lon="18.43152"></trkpt><trkpt lat="54.275359" lon="18.425768"></trkpt><trkpt lat="54.274951" lon="18.424842"></trkpt><trkpt lat="54.274721" lon="18.424177"></trkpt><trkpt lat="54.274691" lon="18.423805"></trkpt><trkpt lat="54.27459" lon="18.4233"></trkpt><trkpt lat="54.274399" lon="18.422056"></trkpt><trkpt lat="54.274178" lon="18.420979"></trkpt><trkpt lat="54.274093" lon="18.420356"></trkpt><trkpt lat="54.274173" lon="18.419744"></trkpt><trkpt lat="54.274197" lon="18.419337"></trkpt><trkpt lat="54.274247" lon="18.418906"></trkpt><trkpt lat="54.274994" lon="18.414649"></trkpt><trkpt lat="54.275364" lon="18.414082"></trkpt><trkpt lat="54.275109" lon="18.413993"></trkpt><trkpt lat="54.275355" lon="18.414071"></trkpt><trkpt lat="54.275208" lon="18.414352"></trkpt><trkpt lat="54.274745" lon="18.414891"></trkpt><trkpt lat="54.274608" lon="18.415656"></trkpt><trkpt lat="54.274331" lon="18.417703"></trkpt><trkpt lat="54.274117" lon="18.420784"></trkpt><trkpt lat="54.274209" lon="18.421288"></trkpt><trkpt lat="54.275103" lon="18.425149"></trkpt><trkpt lat="54.276441" lon="18.429843"></trkpt><trkpt lat="54.276786" lon="18.430766"></trkpt><trkpt lat="54.277624" lon="18.432687"></trkpt><trkpt lat="54.278228" lon="18.433867"></trkpt><trkpt lat="54.278375" lon="18.434216"></trkpt><trkpt lat="54.27859" lon="18.435265"></trkpt><trkpt lat="54.278688" lon="18.43603"></trkpt><trkpt lat="54.278727" lon="18.436694"></trkpt><trkpt lat="54.278671" lon="18.439834"></trkpt><trkpt lat="54.278587" lon="18.44043"></trkpt><trkpt lat="54.278353" lon="18.444466"></trkpt><trkpt lat="54.278569" lon="18.446015"></trkpt><trkpt lat="54.278874" lon="18.447382"></trkpt><trkpt lat="54.279114" lon="18.448814"></trkpt><trkpt lat="54.27906" lon="18.449287"></trkpt><trkpt lat="54.278728" lon="18.450299"></trkpt><trkpt lat="54.278299" lon="18.451414"></trkpt><trkpt lat="54.277847" lon="18.452382"></trkpt><trkpt lat="54.277486" lon="18.452908"></trkpt><trkpt lat="54.277193" lon="18.45354"></trkpt><trkpt lat="54.27243" lon="18.466173"></trkpt><trkpt lat="54.272381" lon="18.466509"></trkpt><trkpt lat="54.272242" lon="18.466772"></trkpt><trkpt lat="54.271835" lon="18.46715"></trkpt><trkpt lat="54.271656" lon="18.467361"></trkpt><trkpt lat="54.271364" lon="18.467984"></trkpt><trkpt lat="54.271174" lon="18.468247"></trkpt><trkpt lat="54.270576" lon="18.468605"></trkpt><trkpt lat="54.270366" lon="18.468601"></trkpt><trkpt lat="54.2702" lon="18.46879"></trkpt><trkpt lat="54.269742" lon="18.469098"></trkpt><trkpt lat="54.26956" lon="18.468706"></trkpt><trkpt lat="54.269733" lon="18.468897"></trkpt><trkpt lat="54.270082" lon="18.468691"></trkpt><trkpt lat="54.270232" lon="18.468465"></trkpt><trkpt lat="54.270453" lon="18.468438"></trkpt><trkpt lat="54.27065" lon="18.468516"></trkpt><trkpt lat="54.27126" lon="18.468128"></trkpt><trkpt lat="54.271507" lon="18.467707"></trkpt><trkpt lat="54.272378" lon="18.466719"></trkpt><trkpt lat="54.272536" lon="18.466231"></trkpt><trkpt lat="54.272548" lon="18.465156"></trkpt><trkpt lat="54.272602" lon="18.464696"></trkpt><trkpt lat="54.272777" lon="18.46429"></trkpt><trkpt lat="54.278993" lon="18.447425"></trkpt><trkpt lat="54.278807" lon="18.446772"></trkpt><trkpt lat="54.278716" lon="18.446049"></trkpt><trkpt lat="54.278565" lon="18.445392"></trkpt><trkpt lat="54.278451" lon="18.444635"></trkpt><trkpt lat="54.27839" lon="18.443822"></trkpt><trkpt lat="54.278385" lon="18.443097"></trkpt><trkpt lat="54.278421" lon="18.442434"></trkpt><trkpt lat="54.278706" lon="18.439678"></trkpt><trkpt lat="54.278799" lon="18.438125"></trkpt><trkpt lat="54.278798" lon="18.437676"></trkpt><trkpt lat="54.278672" lon="18.43537"></trkpt><trkpt lat="54.27858" lon="18.434944"></trkpt><trkpt lat="54.278095" lon="18.433575"></trkpt><trkpt lat="54.277881" lon="18.433092"></trkpt><trkpt lat="54.275646" lon="18.427025"></trkpt><trkpt lat="54.275567" lon="18.426606"></trkpt><trkpt lat="54.275355" lon="18.425772"></trkpt><trkpt lat="54.275115" lon="18.425036"></trkpt><trkpt lat="54.274846" lon="18.424611"></trkpt><trkpt lat="54.274734" lon="18.424282"></trkpt><trkpt lat="54.274664" lon="18.423746"></trkpt><trkpt lat="54.274505" lon="18.422965"></trkpt><trkpt lat="54.274124" lon="18.419712"></trkpt><trkpt lat="54.27421" lon="18.419052"></trkpt><trkpt lat="54.274965" lon="18.414734"></trkpt><trkpt lat="54.275168" lon="18.414513"></trkpt><trkpt lat="54.275424" lon="18.414006"></trkpt><trkpt lat="54.275603" lon="18.413412"></trkpt><trkpt lat="54.275685" lon="18.413005"></trkpt><trkpt lat="54.275836" lon="18.412347"></trkpt></trkseg></trk></gpx>