<?xml version="1.0" encoding="UTF-8" standalone="no" ?><gpx xmlns="http://www.topografix.com/GPX/1/1" xmlns:gpxx="http://www.garmin.com/xmlschemas/GpxExtensions/v3" ><trk><trkseg><trkpt lat="54.356209226" lon="18.644535346"></trkpt><trkpt lat="54.3565170094" lon="18.644526545"></trkpt><trkpt lat="54.3568009883" lon="18.6446341686"></trkpt><trkpt lat="54.3584820628" lon="18.6448491644"></trkpt><trkpt lat="54.3636115361" lon="18.6430210713"></trkpt><trkpt lat="54.3641375005" lon="18.6424699612"></trkpt><trkpt lat="54.3643334694" lon="18.6420285702"></trkpt><trkpt lat="54.3648581766" lon="18.6412152741"></trkpt><trkpt lat="54.3667837512" lon="18.6387706082"></trkpt><trkpt lat="54.374473393" lon="18.6267305911"></trkpt><trkpt lat="54.3741958681" lon="18.6271186732"></trkpt><trkpt lat="54.3745239358" lon="18.6261473782"></trkpt><trkpt lat="54.3884484563" lon="18.5931454785"></trkpt><trkpt lat="54.3897785805" lon="18.590854872"></trkpt><trkpt lat="54.3925602827" lon="18.5845271219"></trkpt><trkpt lat="54.3927317765" lon="18.58242888"></trkpt><trkpt lat="54.3924705125" lon="18.5806669202"></trkpt><trkpt lat="54.3920559436" lon="18.5793628637"></trkpt><trkpt lat="54.3915969506" lon="18.57834002"></trkpt><trkpt lat="54.3912758399" lon="18.5778003093"></trkpt><trkpt lat="54.3902105" lon="18.576553585"></trkpt><trkpt lat="54.3892191723" lon="18.5760931671"></trkpt><trkpt lat="54.3880900461" lon="18.5760616511"></trkpt><trkpt lat="54.3795105815" lon="18.5731048509"></trkpt><trkpt lat="54.3782147393" lon="18.5720898863"></trkpt><trkpt lat="54.3769737147" lon="18.5715757404"></trkpt><trkpt lat="54.3755323626" lon="18.5714830365"></trkpt><trkpt lat="54.37427097" lon="18.5717874672"></trkpt><trkpt lat="54.3729390018" lon="18.5725677386"></trkpt><trkpt lat="54.3679128774" lon="18.5743918084"></trkpt><trkpt lat="54.3663777318" lon="18.574072374"></trkpt><trkpt lat="54.364856584" lon="18.5733231157"></trkpt><trkpt lat="54.3621246703" lon="18.5712962877"></trkpt><trkpt lat="54.3593829498" lon="18.5682226438"></trkpt><trkpt lat="54.3586346135" lon="18.5664652102"></trkpt><trkpt lat="54.3579710182" lon="18.5642282479"></trkpt><trkpt lat="54.3528360128" lon="18.5409116372"></trkpt><trkpt lat="54.3531227577" lon="18.5382279195"></trkpt><trkpt lat="54.3536155298" lon="18.5357544199"></trkpt><trkpt lat="54.3543899339" lon="18.532910943"></trkpt><trkpt lat="54.3626134191" lon="18.5095279478"></trkpt><trkpt lat="54.3629430793" lon="18.5095158778"></trkpt><trkpt lat="54.3726180587" lon="18.5076814145"></trkpt><trkpt lat="54.3737743422" lon="18.5061964765"></trkpt><trkpt lat="54.3771569431" lon="18.5007690266"></trkpt><trkpt lat="54.3774591945" lon="18.4995409939"></trkpt><trkpt lat="54.37774661" lon="18.4973505512"></trkpt><trkpt lat="54.377956409" lon="18.4938170761"></trkpt><trkpt lat="54.3801853247" lon="18.4809016529"></trkpt><trkpt lat="54.3812190648" lon="18.4790316503"></trkpt><trkpt lat="54.3817271758" lon="18.4772621468"></trkpt><trkpt lat="54.3819040339" lon="18.4752421919"></trkpt><trkpt lat="54.3820145912" lon="18.4714508895"></trkpt><trkpt lat="54.3824121449" lon="18.4680655226"></trkpt><trkpt lat="54.3826956209" lon="18.4669457003"></trkpt><trkpt lat="54.3828309886" lon="18.466170961"></trkpt><trkpt lat="54.3830206711" lon="18.4655044321"></trkpt><trkpt lat="54.3914694618" lon="18.427136438"></trkpt><trkpt lat="54.3909820542" lon="18.4255782422"></trkpt><trkpt lat="54.3902352266" lon="18.4240160231"></trkpt><trkpt lat="54.3891357724" lon="18.4222476091"></trkpt><trkpt lat="54.384823367" lon="18.4164740704"></trkpt><trkpt lat="54.3832216691" lon="18.415528927"></trkpt><trkpt lat="54.3665136024" lon="18.4011439048"></trkpt><trkpt lat="54.3639752269" lon="18.3974617347"></trkpt><trkpt lat="54.3447413575" lon="18.3639857545"></trkpt><trkpt lat="54.3445686065" lon="18.3630130347"></trkpt><trkpt lat="54.3445603922" lon="18.3625421394"></trkpt><trkpt lat="54.3444002979" lon="18.3615525719"></trkpt><trkpt lat="54.3387721851" lon="18.3374762256"></trkpt><trkpt lat="54.3377429713" lon="18.335918868"></trkpt><trkpt lat="54.3365979195" lon="18.3347682003"></trkpt><trkpt lat="54.3354330864" lon="18.3340133261"></trkpt><trkpt lat="54.3344509788" lon="18.3336597774"></trkpt><trkpt lat="54.3291612435" lon="18.3326251153"></trkpt><trkpt lat="54.3252712861" lon="18.3310292847"></trkpt><trkpt lat="54.323680317" lon="18.3290479705"></trkpt><trkpt lat="54.322816059" lon="18.3274189476"></trkpt><trkpt lat="54.321889272" lon="18.3248929773"></trkpt><trkpt lat="54.3194974959" lon="18.3196568862"></trkpt><trkpt lat="54.318764247" lon="18.317472646"></trkpt><trkpt lat="54.3155730888" lon="18.3109889086"></trkpt><trkpt lat="54.313514661" lon="18.309361646"></trkpt><trkpt lat="54.3115221988" lon="18.3081390616"></trkpt><trkpt lat="54.3085871916" lon="18.3053716086"></trkpt><trkpt lat="54.3074025773" lon="18.3032299485"></trkpt><trkpt lat="54.3053849693" lon="18.2988441177"></trkpt><trkpt lat="54.303822834" lon="18.294608742"></trkpt><trkpt lat="54.2978845071" lon="18.2744526118"></trkpt><trkpt lat="54.2973530106" lon="18.2721557189"></trkpt><trkpt lat="54.2958126683" lon="18.2671325281"></trkpt><trkpt lat="54.2947042454" lon="18.2655019965"></trkpt><trkpt lat="54.2933645658" lon="18.2642226666"></trkpt><trkpt lat="54.2908893898" lon="18.2609195262"></trkpt><trkpt lat="54.2884527706" lon="18.2562845852"></trkpt><trkpt lat="54.2867126875" lon="18.251326438"></trkpt><trkpt lat="54.2864778265" lon="18.2492784876"></trkpt><trkpt lat="54.286518814" lon="18.2468564529"></trkpt><trkpt lat="54.2870877776" lon="18.2412513066"></trkpt><trkpt lat="54.2872966547" lon="18.2318175584"></trkpt><trkpt lat="54.2872078903" lon="18.2310714852"></trkpt><trkpt lat="54.2871972453" lon="18.2302284334"></trkpt><trkpt lat="54.2870907113" lon="18.2290749997"></trkpt><trkpt lat="54.2829728499" lon="18.2035382744"></trkpt><trkpt lat="54.2820370104" lon="18.2018504944"></trkpt><trkpt lat="54.2783248331" lon="18.1967893336"></trkpt><trkpt lat="54.2762740329" lon="18.1953287032"></trkpt><trkpt lat="54.2747448385" lon="18.1946580671"></trkpt><trkpt lat="54.2612717673" lon="18.184838919"></trkpt><trkpt lat="54.2602533661" lon="18.1823254377"></trkpt><trkpt lat="54.2570814863" lon="18.1759326439"></trkpt><trkpt lat="54.2566466331" lon="18.1753760856"></trkpt><trkpt lat="54.2550069652" lon="18.1737564504"></trkpt><trkpt lat="54.2536709737" lon="18.1729098782"></trkpt><trkpt lat="54.2522620596" lon="18.1724275835"></trkpt><trkpt lat="54.2490087915" lon="18.1707418989"></trkpt><trkpt lat="54.247998856" lon="18.1694487389"></trkpt><trkpt lat="54.2471857276" lon="18.1677941512"></trkpt><trkpt lat="54.2449190095" lon="18.1639611907"></trkpt><trkpt lat="54.2430590652" lon="18.1625433918"></trkpt><trkpt lat="54.2384596635" lon="18.1581258774"></trkpt><trkpt lat="54.2363408022" lon="18.1552864239"></trkpt><trkpt lat="54.2353177071" lon="18.1535844784"></trkpt><trkpt lat="54.234443726" lon="18.1513533834"></trkpt><trkpt lat="54.2325003818" lon="18.1449295767"></trkpt><trkpt lat="54.232639689" lon="18.1427616812"></trkpt><trkpt lat="54.2331913859" lon="18.1403378863"></trkpt><trkpt lat="54.2342556361" lon="18.1322425604"></trkpt><trkpt lat="54.2343066819" lon="18.1298136525"></trkpt><trkpt lat="54.234510446" lon="18.1285297964"></trkpt><trkpt lat="54.2345780879" lon="18.1277077831"></trkpt><trkpt lat="54.2348846141" lon="18.1143290922"></trkpt><trkpt lat="54.2346432991" lon="18.1107796077"></trkpt><trkpt lat="54.2347977776" lon="18.108330667"></trkpt><trkpt lat="54.2354415078" lon="18.103770325"></trkpt><trkpt lat="54.2363532074" lon="18.0934060179"></trkpt><trkpt lat="54.2361148261" lon="18.0916288029"></trkpt><trkpt lat="54.2342941929" lon="18.0842037778"></trkpt><trkpt lat="54.233511826" lon="18.0822531413"></trkpt><trkpt lat="54.2281758226" lon="18.0725254398"></trkpt><trkpt lat="54.2269670684" lon="18.0710948166"></trkpt><trkpt lat="54.2261355836" lon="18.0693919491"></trkpt><trkpt lat="54.2254266422" lon="18.0670495424"></trkpt><trkpt lat="54.2214759998" lon="18.0579232424"></trkpt><trkpt lat="54.1888372879" lon="17.9957505595"></trkpt><trkpt lat="54.1860445216" lon="17.9919330217"></trkpt><trkpt lat="54.1848996375" lon="17.9900500271"></trkpt><trkpt lat="54.1820144188" lon="17.9866821785"></trkpt><trkpt lat="54.1796106566" lon="17.9848979227"></trkpt><trkpt lat="54.1702636611" lon="17.9807900358"></trkpt><trkpt lat="54.1679135431" lon="17.9808386508"></trkpt><trkpt lat="54.1564996541" lon="17.9831192829"></trkpt><trkpt lat="54.1544993967" lon="17.9840651806"></trkpt><trkpt lat="54.1516191233" lon="17.9860452376"></trkpt><trkpt lat="54.1475634556" lon="17.9874441773"></trkpt><trkpt lat="54.1436454188" lon="17.9850894492"></trkpt><trkpt lat="54.1368958913" lon="17.9821685236"></trkpt><trkpt lat="54.134245785" lon="17.9840691201"></trkpt><trkpt lat="54.1333109513" lon="17.9853626154"></trkpt><trkpt lat="54.1307859868" lon="17.9880000651"></trkpt><trkpt lat="54.1294631548" lon="17.9883171525"></trkpt><trkpt lat="54.1258088965" lon="17.9883686174"></trkpt><trkpt lat="54.1250891425" lon="17.9890901316"></trkpt><trkpt lat="54.1239196993" lon="17.9905592278"></trkpt><trkpt lat="54.1245130543" lon="17.9899955448"></trkpt><trkpt lat="54.1253806651" lon="17.989593884"></trkpt><trkpt lat="54.1266542114" lon="17.9893694166"></trkpt><trkpt lat="54.1337981075" lon="17.9862338305"></trkpt><trkpt lat="54.1343674902" lon="17.9850291833"></trkpt><trkpt lat="54.1347178537" lon="17.9839121271"></trkpt><trkpt lat="54.1349482723" lon="17.9828567617"></trkpt><trkpt lat="54.1350807901" lon="17.9818724748"></trkpt><trkpt lat="54.1351449955" lon="17.9807684105"></trkpt><trkpt lat="54.1350840591" lon="17.9789719172"></trkpt><trkpt lat="54.1335791722" lon="17.9639052786"></trkpt><trkpt lat="54.1325988248" lon="17.9618564062"></trkpt><trkpt lat="54.1319029592" lon="17.9594913684"></trkpt><trkpt lat="54.1311264597" lon="17.9560104478"></trkpt><trkpt lat="54.1303514689" lon="17.9505916312"></trkpt><trkpt lat="54.1303113196" lon="17.9478879645"></trkpt><trkpt lat="54.1300069727" lon="17.9446117301"></trkpt><trkpt lat="54.1280404106" lon="17.9320115503"></trkpt><trkpt lat="54.1276338045" lon="17.9306137003"></trkpt><trkpt lat="54.1272756457" lon="17.9282316472"></trkpt><trkpt lat="54.1260585096" lon="17.9224871099"></trkpt><trkpt lat="54.1196518019" lon="17.8995448351"></trkpt><trkpt lat="54.1192879435" lon="17.89764449"></trkpt><trkpt lat="54.1186607257" lon="17.8921979293"></trkpt><trkpt lat="54.1178970505" lon="17.8890933562"></trkpt><trkpt lat="54.1175743472" lon="17.8871619981"></trkpt><trkpt lat="54.117336804" lon="17.8835310414"></trkpt><trkpt lat="54.1163708735" lon="17.8753896989"></trkpt><trkpt lat="54.1152282525" lon="17.8717658669"></trkpt><trkpt lat="54.1148573533" lon="17.8701385204"></trkpt><trkpt lat="54.1148240771" lon="17.8679425456"></trkpt><trkpt lat="54.1145949997" lon="17.8647578415"></trkpt><trkpt lat="54.1101959255" lon="17.8327487782"></trkpt><trkpt lat="54.1090218723" lon="17.8296527546"></trkpt><trkpt lat="54.108546786" lon="17.8277700115"></trkpt><trkpt lat="54.1081821732" lon="17.8250077553"></trkpt><trkpt lat="54.1071994789" lon="17.8084256686"></trkpt><trkpt lat="54.1074813623" lon="17.8063961584"></trkpt><trkpt lat="54.1073233634" lon="17.8039890435"></trkpt><trkpt lat="54.1069700662" lon="17.801341787"></trkpt><trkpt lat="54.106418537" lon="17.7995079104"></trkpt><trkpt lat="54.1053941846" lon="17.7969335765"></trkpt><trkpt lat="54.1049051005" lon="17.7946073469"></trkpt><trkpt lat="54.1048091277" lon="17.7935542446"></trkpt><trkpt lat="54.1049237922" lon="17.7922221087"></trkpt><trkpt lat="54.1055828612" lon="17.7896269038"></trkpt><trkpt lat="54.1058923211" lon="17.7875104733"></trkpt><trkpt lat="54.1057860386" lon="17.7859379444"></trkpt><trkpt lat="54.1053663567" lon="17.7840070892"></trkpt><trkpt lat="54.1046713293" lon="17.7821148746"></trkpt><trkpt lat="54.1024650447" lon="17.7777036466"></trkpt><trkpt lat="54.1017402615" lon="17.7772091981"></trkpt><trkpt lat="54.1008903366" lon="17.7770923544"></trkpt><trkpt lat="54.1000349633" lon="17.7773630898"></trkpt><trkpt lat="54.0992815141" lon="17.7780120168"></trkpt><trkpt lat="54.0902402904" lon="17.783743646"></trkpt><trkpt lat="54.0891680773" lon="17.7828578465"></trkpt><trkpt lat="54.0870773792" lon="17.7806494664"></trkpt><trkpt lat="54.080066001" lon="17.7715225797"></trkpt><trkpt lat="54.077921994" lon="17.7671894711"></trkpt><trkpt lat="54.0765785426" lon="17.7652231604"></trkpt><trkpt lat="54.0752755757" lon="17.7662368678"></trkpt><trkpt lat="54.0737509914" lon="17.7661463432"></trkpt><trkpt lat="54.0723339468" lon="17.7666772529"></trkpt><trkpt lat="54.0693767276" lon="17.7672867011"></trkpt><trkpt lat="54.0683051012" lon="17.7677506395"></trkpt><trkpt lat="54.0668469016" lon="17.7681199461"></trkpt><trkpt lat="54.0572640393" lon="17.7729148138"></trkpt><trkpt lat="54.0556195937" lon="17.7754250262"></trkpt><trkpt lat="54.0528683178" lon="17.78063857"></trkpt><trkpt lat="54.0486124065" lon="17.7863325644"></trkpt><trkpt lat="54.0474791732" lon="17.7863479033"></trkpt><trkpt lat="54.0460975841" lon="17.7861120366"></trkpt><trkpt lat="54.0403162502" lon="17.7841769066"></trkpt><trkpt lat="54.0387911629" lon="17.7827477083"></trkpt><trkpt lat="54.0361144021" lon="17.7812230401"></trkpt><trkpt lat="54.0343824495" lon="17.7813366149"></trkpt><trkpt lat="54.0329654049" lon="17.7816633414"></trkpt><trkpt lat="54.0243114252" lon="17.7821595501"></trkpt><trkpt lat="54.0230046026" lon="17.7817040775"></trkpt><trkpt lat="54.0198820923" lon="17.7812418155"></trkpt><trkpt lat="54.0172241069" lon="17.7803998534"></trkpt><trkpt lat="54.0168736596" lon="17.7800875437"></trkpt><trkpt lat="54.0072860196" lon="17.773349667"></trkpt><trkpt lat="54.0058759321" lon="17.7739503141"></trkpt><trkpt lat="54.004355371" lon="17.7749038395"></trkpt><trkpt lat="53.9948059525" lon="17.7785959002"></trkpt><trkpt lat="53.9931605849" lon="17.7788147517"></trkpt><trkpt lat="53.9854870364" lon="17.7812695596"></trkpt><trkpt lat="53.9779675473" lon="17.7824561018"></trkpt><trkpt lat="53.9764514286" lon="17.7818629984"></trkpt><trkpt lat="53.9646166842" lon="17.7747016679"></trkpt><trkpt lat="53.9638024662" lon="17.7732593101"></trkpt><trkpt lat="53.9631746616" lon="17.7716550976"></trkpt><trkpt lat="53.9624482859" lon="17.7693352383"></trkpt><trkpt lat="53.9576829225" lon="17.7577014081"></trkpt><trkpt lat="53.9565793611" lon="17.7566675842"></trkpt><trkpt lat="53.9550650865" lon="17.7556698862"></trkpt><trkpt lat="53.9126716834" lon="17.7349548507"></trkpt><trkpt lat="53.9108339511" lon="17.7345302235"></trkpt><trkpt lat="53.8642465789" lon="17.7162803058"></trkpt><trkpt lat="53.86178758" lon="17.7144083753"></trkpt><trkpt lat="53.854829846" lon="17.7077761106"></trkpt><trkpt lat="53.854564894" lon="17.7074037865"></trkpt><trkpt lat="53.8303265255" lon="17.6666434295"></trkpt><trkpt lat="53.8294103835" lon="17.6646994147"></trkpt><trkpt lat="53.8037734106" lon="17.6220632717"></trkpt><trkpt lat="53.8016986381" lon="17.6205071714"></trkpt><trkpt lat="53.7563022505" lon="17.5944138039"></trkpt><trkpt lat="53.7430055346" lon="17.5998820737"></trkpt><trkpt lat="53.7154294923" lon="17.6160024013"></trkpt><trkpt lat="53.7125488836" lon="17.617150303"></trkpt><trkpt lat="53.7107567489" lon="17.6171051245"></trkpt><trkpt lat="53.7061221432" lon="17.6162620727"></trkpt><trkpt lat="53.7051060051" lon="17.6151363831"></trkpt><trkpt lat="53.7043332774" lon="17.613621857"></trkpt><trkpt lat="53.7037252542" lon="17.6117428858"></trkpt><trkpt lat="53.7033156306" lon="17.6096294727"></trkpt><trkpt lat="53.6984823737" lon="17.5910686702"></trkpt><trkpt lat="53.6977811437" lon="17.5896459259"></trkpt><trkpt lat="53.6968048196" lon="17.5881178211"></trkpt><trkpt lat="53.695644848" lon="17.5866851863"></trkpt><trkpt lat="53.6893659644" lon="17.5773589779"></trkpt><trkpt lat="53.6895242985" lon="17.577746138"></trkpt><trkpt lat="53.6899221875" lon="17.5784230605"></trkpt><trkpt lat="53.6904654186" lon="17.5791660324"></trkpt><trkpt lat="53.699678136" lon="17.5942480937"></trkpt><trkpt lat="53.7000342831" lon="17.5952967536"></trkpt><trkpt lat="53.7105420884" lon="17.619034471"></trkpt><trkpt lat="53.7125693355" lon="17.6220011618"></trkpt><trkpt lat="53.7136635929" lon="17.6242755074"></trkpt><trkpt lat="53.7146553397" lon="17.6272039767"></trkpt><trkpt lat="53.7208911404" lon="17.6420349162"></trkpt><trkpt lat="53.7235436775" lon="17.6459134743"></trkpt><trkpt lat="53.732772572" lon="17.6620399207"></trkpt><trkpt lat="53.7337281089" lon="17.6654614974"></trkpt><trkpt lat="53.7693255488" lon="17.8232856933"></trkpt><trkpt lat="53.8033283316" lon="17.9838632606"></trkpt><trkpt lat="53.8198987674" lon="18.0416900944"></trkpt><trkpt lat="53.8216709532" lon="18.0452405848"></trkpt><trkpt lat="53.8845406752" lon="18.1793532986"></trkpt><trkpt lat="53.9252664987" lon="18.2521098107"></trkpt><trkpt lat="53.9316032175" lon="18.2663738821"></trkpt><trkpt lat="53.9317894634" lon="18.267560089"></trkpt><trkpt lat="53.9318667445" lon="18.268316891"></trkpt><trkpt lat="53.932080064" lon="18.2696597558"></trkpt><trkpt lat="53.9379657526" lon="18.2950094808"></trkpt><trkpt lat="53.9403279405" lon="18.3001681231"></trkpt><trkpt lat="53.9640705194" lon="18.3656690922"></trkpt><trkpt lat="53.9642521553" lon="18.3714107797"></trkpt><trkpt lat="53.9771956578" lon="18.5262900777"></trkpt><trkpt lat="53.9774893597" lon="18.5269200616"></trkpt><trkpt lat="53.9849396981" lon="18.5400320403"></trkpt><trkpt lat="53.9879867714" lon="18.5445034504"></trkpt><trkpt lat="53.989412114" lon="18.5471916106"></trkpt><trkpt lat="53.99061081" lon="18.5501316469"></trkpt><trkpt lat="53.9918523375" lon="18.5539423116"></trkpt><trkpt lat="54.0010093991" lon="18.590598302"></trkpt><trkpt lat="54.0018402133" lon="18.5949440673"></trkpt><trkpt lat="54.0033047833" lon="18.6003420129"></trkpt><trkpt lat="54.0071472153" lon="18.6115741823"></trkpt><trkpt lat="54.0069906414" lon="18.6101550423"></trkpt><trkpt lat="54.0072540008" lon="18.6104156356"></trkpt><trkpt lat="54.0078097209" lon="18.6111984216"></trkpt><trkpt lat="54.0097922087" lon="18.6132972501"></trkpt><trkpt lat="54.0112128574" lon="18.6144692916"></trkpt><trkpt lat="54.0158421826" lon="18.6194529198"></trkpt><trkpt lat="54.0168611705" lon="18.6216879543"></trkpt><trkpt lat="54.0319505241" lon="18.6487467494"></trkpt><trkpt lat="54.0332591906" lon="18.6503738444"></trkpt><trkpt lat="54.051586641" lon="18.6800832488"></trkpt><trkpt lat="54.0520891361" lon="18.6848546471"></trkpt><trkpt lat="54.0528865904" lon="18.6878789216"></trkpt><trkpt lat="54.0541537665" lon="18.6915413104"></trkpt><trkpt lat="54.0596776083" lon="18.7041006703"></trkpt><trkpt lat="54.0613842476" lon="18.7063517142"></trkpt><trkpt lat="54.0638587531" lon="18.7087279838"></trkpt><trkpt lat="54.0760754608" lon="18.7231503893"></trkpt><trkpt lat="54.0769884177" lon="18.7255192827"></trkpt><trkpt lat="54.0870761219" lon="18.7443256751"></trkpt><trkpt lat="54.0897492785" lon="18.7468430959"></trkpt><trkpt lat="54.097345043" lon="18.7556873448"></trkpt><trkpt lat="54.0976310335" lon="18.7562417239"></trkpt><trkpt lat="54.1073830426" lon="18.7789164484"></trkpt><trkpt lat="54.1068619397" lon="18.7807159591"></trkpt><trkpt lat="54.1061492264" lon="18.7822680362"></trkpt><trkpt lat="54.1052070167" lon="18.7835578434"></trkpt><trkpt lat="54.1042000148" lon="18.7844663579"></trkpt><trkpt lat="54.1029297374" lon="18.785181921"></trkpt><trkpt lat="54.0992036462" lon="18.7882100511"></trkpt><trkpt lat="54.0980892722" lon="18.789579235"></trkpt><trkpt lat="54.0973956697" lon="18.7902770285"></trkpt><trkpt lat="54.0971912351" lon="18.7897666544"></trkpt><trkpt lat="54.0971724596" lon="18.7889780011"></trkpt><trkpt lat="54.0969971102" lon="18.7896054704"></trkpt><trkpt lat="54.0972802509" lon="18.7895819172"></trkpt><trkpt lat="54.0972829331" lon="18.7900560815"></trkpt><trkpt lat="54.0975738689" lon="18.7900621165"></trkpt><trkpt lat="54.0978466161" lon="18.7898382358"></trkpt><trkpt lat="54.0980727598" lon="18.7894586194"></trkpt><trkpt lat="54.0985563956" lon="18.7892477307"></trkpt><trkpt lat="54.0993052348" lon="18.7887625862"></trkpt><trkpt lat="54.1098623257" lon="18.7791945599"></trkpt><trkpt lat="54.1169687547" lon="18.7709595077"></trkpt><trkpt lat="54.1470125131" lon="18.744183518"></trkpt><trkpt lat="54.2413248494" lon="18.5772494506"></trkpt><trkpt lat="54.2420563381" lon="18.5774370376"></trkpt><trkpt lat="54.2463394068" lon="18.577837944"></trkpt><trkpt lat="54.3014470674" lon="18.561713174"></trkpt><trkpt lat="54.3066200428" lon="18.5668945312"></trkpt><trkpt lat="54.3097800203" lon="18.5668783542"></trkpt><trkpt lat="54.3092244677" lon="18.5669467505"></trkpt><trkpt lat="54.3109962344" lon="18.5667979717"></trkpt><trkpt lat="54.3111554906" lon="18.5661244858"></trkpt><trkpt lat="54.3107934762" lon="18.5661948938"></trkpt><trkpt lat="54.310915852" lon="18.5656617209"></trkpt><trkpt lat="54.3104427774" lon="18.5649995506"></trkpt><trkpt lat="54.3562639598" lon="18.6439723335"></trkpt></trkseg></trk></gpx>