<?xml version="1.0" encoding="UTF-8" standalone="no" ?><gpx xmlns="http://www.topografix.com/GPX/1/1" xmlns:gpxx="http://www.garmin.com/xmlschemas/GpxExtensions/v3" ><trk><trkseg><trkpt lat="49.457096" lon="21.162542"></trkpt><trkpt lat="49.457127" lon="21.162217"></trkpt><trkpt lat="49.457307" lon="21.161904"></trkpt><trkpt lat="49.457579" lon="21.161701"></trkpt><trkpt lat="49.458111" lon="21.161536"></trkpt><trkpt lat="49.46499" lon="21.160501"></trkpt><trkpt lat="49.465516" lon="21.160924"></trkpt><trkpt lat="49.466317" lon="21.161237"></trkpt><trkpt lat="49.467433" lon="21.161438"></trkpt><trkpt lat="49.468282" lon="21.16149"></trkpt><trkpt lat="49.468955" lon="21.161234"></trkpt><trkpt lat="49.474719" lon="21.159809"></trkpt><trkpt lat="49.474721" lon="21.160117"></trkpt><trkpt lat="49.474667" lon="21.160481"></trkpt><trkpt lat="49.474807" lon="21.161029"></trkpt><trkpt lat="49.474925" lon="21.161635"></trkpt><trkpt lat="49.474919" lon="21.162596"></trkpt><trkpt lat="49.475492" lon="21.162678"></trkpt><trkpt lat="49.476096" lon="21.162404"></trkpt><trkpt lat="49.476481" lon="21.162358"></trkpt><trkpt lat="49.477124" lon="21.162118"></trkpt><trkpt lat="49.47736" lon="21.162067"></trkpt><trkpt lat="49.477862" lon="21.16229"></trkpt><trkpt lat="49.478276" lon="21.162525"></trkpt><trkpt lat="49.478767" lon="21.162662"></trkpt><trkpt lat="49.479238" lon="21.162728"></trkpt><trkpt lat="49.479852" lon="21.162916"></trkpt><trkpt lat="49.48012" lon="21.163169"></trkpt><trkpt lat="49.480323" lon="21.163434"></trkpt><trkpt lat="49.480528" lon="21.163622"></trkpt><trkpt lat="49.480731" lon="21.163749"></trkpt><trkpt lat="49.481641" lon="21.164205"></trkpt><trkpt lat="49.4826" lon="21.164569"></trkpt><trkpt lat="49.484802" lon="21.165751"></trkpt><trkpt lat="49.485003" lon="21.165993"></trkpt><trkpt lat="49.488313" lon="21.17089"></trkpt><trkpt lat="49.48813" lon="21.17142"></trkpt><trkpt lat="49.4881" lon="21.171729"></trkpt><trkpt lat="49.48815" lon="21.17246"></trkpt><trkpt lat="49.488243" lon="21.173148"></trkpt><trkpt lat="49.488601" lon="21.174749"></trkpt><trkpt lat="49.488813" lon="21.175182"></trkpt><trkpt lat="49.490277" lon="21.177338"></trkpt><trkpt lat="49.490738" lon="21.177582"></trkpt><trkpt lat="49.491093" lon="21.177834"></trkpt><trkpt lat="49.491324" lon="21.178114"></trkpt><trkpt lat="49.491736" lon="21.178949"></trkpt><trkpt lat="49.492587" lon="21.180416"></trkpt><trkpt lat="49.492784" lon="21.180537"></trkpt><trkpt lat="49.493688" lon="21.180876"></trkpt><trkpt lat="49.495009" lon="21.181555"></trkpt><trkpt lat="49.495725" lon="21.182135"></trkpt><trkpt lat="49.496942" lon="21.183317"></trkpt><trkpt lat="49.497127" lon="21.183433"></trkpt><trkpt lat="49.497465" lon="21.183539"></trkpt><trkpt lat="49.497652" lon="21.183435"></trkpt><trkpt lat="49.498144" lon="21.183097"></trkpt><trkpt lat="49.499501" lon="21.181961"></trkpt><trkpt lat="49.499985" lon="21.181197"></trkpt><trkpt lat="49.500761" lon="21.180137"></trkpt><trkpt lat="49.500971" lon="21.179778"></trkpt><trkpt lat="49.501183" lon="21.17923"></trkpt><trkpt lat="49.501211" lon="21.178903"></trkpt><trkpt lat="49.501168" lon="21.178541"></trkpt><trkpt lat="49.501136" lon="21.177845"></trkpt><trkpt lat="49.501065" lon="21.17739"></trkpt><trkpt lat="49.501052" lon="21.177085"></trkpt><trkpt lat="49.501122" lon="21.176704"></trkpt><trkpt lat="49.501223" lon="21.17372"></trkpt><trkpt lat="49.500906" lon="21.1735"></trkpt><trkpt lat="49.501128" lon="21.173647"></trkpt><trkpt lat="49.501517" lon="21.173824"></trkpt><trkpt lat="49.501633" lon="21.174089"></trkpt><trkpt lat="49.501488" lon="21.174888"></trkpt><trkpt lat="49.50112" lon="21.178196"></trkpt><trkpt lat="49.50123" lon="21.179209"></trkpt><trkpt lat="49.501685" lon="21.180042"></trkpt><trkpt lat="49.50225" lon="21.180705"></trkpt><trkpt lat="49.502928" lon="21.181334"></trkpt><trkpt lat="49.507923" lon="21.186754"></trkpt><trkpt lat="49.508021" lon="21.187341"></trkpt><trkpt lat="49.508537" lon="21.189676"></trkpt><trkpt lat="49.508694" lon="21.190226"></trkpt><trkpt lat="49.51276" lon="21.20785"></trkpt><trkpt lat="49.51281" lon="21.208478"></trkpt><trkpt lat="49.512797" lon="21.210716"></trkpt><trkpt lat="49.512655" lon="21.211419"></trkpt><trkpt lat="49.511377" lon="21.216298"></trkpt><trkpt lat="49.511107" lon="21.216979"></trkpt><trkpt lat="49.510776" lon="21.217398"></trkpt><trkpt lat="49.510472" lon="21.21747"></trkpt><trkpt lat="49.510214" lon="21.217453"></trkpt><trkpt lat="49.509294" lon="21.217884"></trkpt><trkpt lat="49.50869" lon="21.218436"></trkpt><trkpt lat="49.507807" lon="21.21965"></trkpt><trkpt lat="49.507652" lon="21.220107"></trkpt><trkpt lat="49.505646" lon="21.227317"></trkpt><trkpt lat="49.505708" lon="21.227926"></trkpt><trkpt lat="49.505901" lon="21.233475"></trkpt><trkpt lat="49.505825" lon="21.234087"></trkpt><trkpt lat="49.50582" lon="21.235478"></trkpt><trkpt lat="49.505921" lon="21.236168"></trkpt><trkpt lat="49.505874" lon="21.236575"></trkpt><trkpt lat="49.505668" lon="21.236573"></trkpt><trkpt lat="49.505872" lon="21.236593"></trkpt><trkpt lat="49.506115" lon="21.236801"></trkpt><trkpt lat="49.506395" lon="21.237294"></trkpt><trkpt lat="49.511633" lon="21.248011"></trkpt><trkpt lat="49.511873" lon="21.24859"></trkpt><trkpt lat="49.515336" lon="21.254716"></trkpt><trkpt lat="49.51567" lon="21.254556"></trkpt><trkpt lat="49.515982" lon="21.254475"></trkpt><trkpt lat="49.516186" lon="21.254636"></trkpt><trkpt lat="49.516442" lon="21.255074"></trkpt><trkpt lat="49.516765" lon="21.255949"></trkpt><trkpt lat="49.516935" lon="21.25668"></trkpt><trkpt lat="49.517086" lon="21.257209"></trkpt><trkpt lat="49.517171" lon="21.25771"></trkpt><trkpt lat="49.517397" lon="21.258696"></trkpt><trkpt lat="49.517338" lon="21.258329"></trkpt><trkpt lat="49.517401" lon="21.258632"></trkpt><trkpt lat="49.517533" lon="21.258932"></trkpt><trkpt lat="49.517806" lon="21.25944"></trkpt><trkpt lat="49.518376" lon="21.260272"></trkpt><trkpt lat="49.518723" lon="21.260586"></trkpt><trkpt lat="49.51916" lon="21.26073"></trkpt><trkpt lat="49.519353" lon="21.26092"></trkpt><trkpt lat="49.519526" lon="21.261457"></trkpt><trkpt lat="49.519758" lon="21.262002"></trkpt><trkpt lat="49.519991" lon="21.262391"></trkpt><trkpt lat="49.5202" lon="21.262809"></trkpt><trkpt lat="49.520291" lon="21.263332"></trkpt><trkpt lat="49.520287" lon="21.263777"></trkpt><trkpt lat="49.520447" lon="21.264121"></trkpt><trkpt lat="49.520631" lon="21.264316"></trkpt><trkpt lat="49.521009" lon="21.264821"></trkpt><trkpt lat="49.521182" lon="21.265196"></trkpt><trkpt lat="49.521277" lon="21.265465"></trkpt><trkpt lat="49.5214" lon="21.265889"></trkpt><trkpt lat="49.521657" lon="21.266412"></trkpt><trkpt lat="49.522271" lon="21.267402"></trkpt><trkpt lat="49.522531" lon="21.267658"></trkpt><trkpt lat="49.524187" lon="21.270007"></trkpt><trkpt lat="49.52446" lon="21.270508"></trkpt><trkpt lat="49.524864" lon="21.270803"></trkpt><trkpt lat="49.525024" lon="21.271031"></trkpt><trkpt lat="49.525254" lon="21.271505"></trkpt><trkpt lat="49.525495" lon="21.272092"></trkpt><trkpt lat="49.525531" lon="21.272549"></trkpt><trkpt lat="49.525476" lon="21.272901"></trkpt><trkpt lat="49.52544" lon="21.273247"></trkpt><trkpt lat="49.525529" lon="21.273759"></trkpt><trkpt lat="49.525897" lon="21.274493"></trkpt><trkpt lat="49.527326" lon="21.277844"></trkpt><trkpt lat="49.527528" lon="21.278403"></trkpt><trkpt lat="49.527658" lon="21.278661"></trkpt><trkpt lat="49.527786" lon="21.278977"></trkpt><trkpt lat="49.527946" lon="21.279694"></trkpt><trkpt lat="49.528212" lon="21.281286"></trkpt><trkpt lat="49.528552" lon="21.282742"></trkpt><trkpt lat="49.528673" lon="21.283074"></trkpt><trkpt lat="49.528951" lon="21.2835"></trkpt><trkpt lat="49.529093" lon="21.28388"></trkpt><trkpt lat="49.529141" lon="21.284479"></trkpt><trkpt lat="49.529129" lon="21.284827"></trkpt><trkpt lat="49.529151" lon="21.285227"></trkpt><trkpt lat="49.529494" lon="21.288307"></trkpt><trkpt lat="49.529613" lon="21.288836"></trkpt><trkpt lat="49.52966" lon="21.289142"></trkpt><trkpt lat="49.529665" lon="21.289461"></trkpt><trkpt lat="49.529647" lon="21.28977"></trkpt><trkpt lat="49.529454" lon="21.290049"></trkpt><trkpt lat="49.529246" lon="21.290593"></trkpt><trkpt lat="49.529234" lon="21.290927"></trkpt><trkpt lat="49.529365" lon="21.291325"></trkpt><trkpt lat="49.529609" lon="21.292644"></trkpt><trkpt lat="49.529438" lon="21.29307"></trkpt><trkpt lat="49.52926" lon="21.293627"></trkpt><trkpt lat="49.529176" lon="21.294076"></trkpt><trkpt lat="49.52895" lon="21.295986"></trkpt><trkpt lat="49.528898" lon="21.296936"></trkpt><trkpt lat="49.528972" lon="21.297278"></trkpt><trkpt lat="49.529134" lon="21.297457"></trkpt><trkpt lat="49.529332" lon="21.297584"></trkpt><trkpt lat="49.529405" lon="21.297915"></trkpt><trkpt lat="49.529365" lon="21.298389"></trkpt><trkpt lat="49.529016" lon="21.300931"></trkpt><trkpt lat="49.528774" lon="21.301249"></trkpt><trkpt lat="49.528647" lon="21.301664"></trkpt><trkpt lat="49.528519" lon="21.302764"></trkpt><trkpt lat="49.528293" lon="21.303526"></trkpt><trkpt lat="49.528121" lon="21.303901"></trkpt><trkpt lat="49.52789" lon="21.304579"></trkpt><trkpt lat="49.527923" lon="21.304899"></trkpt><trkpt lat="49.527878" lon="21.305295"></trkpt><trkpt lat="49.527756" lon="21.305631"></trkpt><trkpt lat="49.527682" lon="21.305929"></trkpt><trkpt lat="49.527501" lon="21.306853"></trkpt><trkpt lat="49.527343" lon="21.307387"></trkpt><trkpt lat="49.527224" lon="21.307881"></trkpt><trkpt lat="49.527042" lon="21.308094"></trkpt><trkpt lat="49.526785" lon="21.308166"></trkpt><trkpt lat="49.526573" lon="21.308256"></trkpt><trkpt lat="49.525897" lon="21.308453"></trkpt><trkpt lat="49.525622" lon="21.308419"></trkpt><trkpt lat="49.523434" lon="21.308412"></trkpt><trkpt lat="49.523066" lon="21.308577"></trkpt><trkpt lat="49.522611" lon="21.308728"></trkpt><trkpt lat="49.522135" lon="21.308692"></trkpt><trkpt lat="49.521494" lon="21.308487"></trkpt><trkpt lat="49.521129" lon="21.308454"></trkpt><trkpt lat="49.52092" lon="21.308536"></trkpt><trkpt lat="49.520293" lon="21.308873"></trkpt><trkpt lat="49.517738" lon="21.30988"></trkpt><trkpt lat="49.517439" lon="21.309888"></trkpt><trkpt lat="49.516779" lon="21.310355"></trkpt><trkpt lat="49.516661" lon="21.310641"></trkpt><trkpt lat="49.516607" lon="21.311375"></trkpt><trkpt lat="49.516482" lon="21.31168"></trkpt><trkpt lat="49.51595" lon="21.312203"></trkpt><trkpt lat="49.514936" lon="21.313021"></trkpt><trkpt lat="49.514578" lon="21.313033"></trkpt><trkpt lat="49.513862" lon="21.313277"></trkpt><trkpt lat="49.51334" lon="21.313183"></trkpt><trkpt lat="49.509373" lon="21.31304"></trkpt><trkpt lat="49.509003" lon="21.313213"></trkpt><trkpt lat="49.508839" lon="21.313392"></trkpt><trkpt lat="49.508204" lon="21.313879"></trkpt><trkpt lat="49.507835" lon="21.313918"></trkpt><trkpt lat="49.503563" lon="21.314919"></trkpt><trkpt lat="49.503225" lon="21.3153"></trkpt><trkpt lat="49.503059" lon="21.31552"></trkpt><trkpt lat="49.499265" lon="21.321341"></trkpt><trkpt lat="49.499045" lon="21.321953"></trkpt><trkpt lat="49.499043" lon="21.322617"></trkpt><trkpt lat="49.499168" lon="21.323337"></trkpt><trkpt lat="49.499194" lon="21.323681"></trkpt><trkpt lat="49.49914" lon="21.324162"></trkpt><trkpt lat="49.498987" lon="21.324569"></trkpt><trkpt lat="49.498827" lon="21.325146"></trkpt><trkpt lat="49.49872" lon="21.325666"></trkpt><trkpt lat="49.498597" lon="21.325959"></trkpt><trkpt lat="49.498458" lon="21.326177"></trkpt><trkpt lat="49.498406" lon="21.326623"></trkpt><trkpt lat="49.49845" lon="21.326971"></trkpt><trkpt lat="49.498575" lon="21.328657"></trkpt><trkpt lat="49.498245" lon="21.32908"></trkpt><trkpt lat="49.49796" lon="21.329387"></trkpt><trkpt lat="49.49769" lon="21.329735"></trkpt><trkpt lat="49.497435" lon="21.330193"></trkpt><trkpt lat="49.496902" lon="21.330987"></trkpt><trkpt lat="49.49671" lon="21.331195"></trkpt><trkpt lat="49.49353" lon="21.335263"></trkpt><trkpt lat="49.493442" lon="21.335866"></trkpt><trkpt lat="49.491901" lon="21.343282"></trkpt><trkpt lat="49.491561" lon="21.343859"></trkpt><trkpt lat="49.491235" lon="21.344182"></trkpt><trkpt lat="49.49025" lon="21.344989"></trkpt><trkpt lat="49.489727" lon="21.345223"></trkpt><trkpt lat="49.489383" lon="21.345427"></trkpt><trkpt lat="49.489027" lon="21.345816"></trkpt><trkpt lat="49.488741" lon="21.346222"></trkpt><trkpt lat="49.487977" lon="21.3476"></trkpt><trkpt lat="49.487842" lon="21.347904"></trkpt><trkpt lat="49.486968" lon="21.350505"></trkpt><trkpt lat="49.486586" lon="21.351399"></trkpt><trkpt lat="49.485695" lon="21.353163"></trkpt><trkpt lat="49.485364" lon="21.353498"></trkpt><trkpt lat="49.48522" lon="21.353713"></trkpt><trkpt lat="49.484904" lon="21.354336"></trkpt><trkpt lat="49.484628" lon="21.354703"></trkpt><trkpt lat="49.483324" lon="21.356868"></trkpt><trkpt lat="49.483049" lon="21.357441"></trkpt><trkpt lat="49.48163" lon="21.360923"></trkpt><trkpt lat="49.481509" lon="21.361405"></trkpt><trkpt lat="49.48126" lon="21.361992"></trkpt><trkpt lat="49.481111" lon="21.362691"></trkpt><trkpt lat="49.481035" lon="21.363289"></trkpt><trkpt lat="49.480866" lon="21.364084"></trkpt><trkpt lat="49.480756" lon="21.364367"></trkpt><trkpt lat="49.480583" lon="21.364716"></trkpt><trkpt lat="49.479839" lon="21.3665"></trkpt><trkpt lat="49.47978" lon="21.366929"></trkpt><trkpt lat="49.479688" lon="21.367352"></trkpt><trkpt lat="49.478832" lon="21.370187"></trkpt><trkpt lat="49.478663" lon="21.370543"></trkpt><trkpt lat="49.478296" lon="21.371089"></trkpt><trkpt lat="49.478102" lon="21.371328"></trkpt><trkpt lat="49.47787" lon="21.371702"></trkpt><trkpt lat="49.477597" lon="21.372284"></trkpt><trkpt lat="49.477392" lon="21.372814"></trkpt><trkpt lat="49.477358" lon="21.373223"></trkpt><trkpt lat="49.477375" lon="21.373579"></trkpt><trkpt lat="49.4773" lon="21.374457"></trkpt><trkpt lat="49.477053" lon="21.375269"></trkpt><trkpt lat="49.477003" lon="21.375566"></trkpt><trkpt lat="49.476944" lon="21.376057"></trkpt><trkpt lat="49.476829" lon="21.376636"></trkpt><trkpt lat="49.476673" lon="21.376834"></trkpt><trkpt lat="49.476358" lon="21.376911"></trkpt><trkpt lat="49.473327" lon="21.376648"></trkpt><trkpt lat="49.472995" lon="21.376792"></trkpt><trkpt lat="49.472731" lon="21.376854"></trkpt><trkpt lat="49.4722" lon="21.377043"></trkpt><trkpt lat="49.471951" lon="21.377173"></trkpt><trkpt lat="49.472093" lon="21.377433"></trkpt><trkpt lat="49.471963" lon="21.377694"></trkpt><trkpt lat="49.471807" lon="21.377928"></trkpt><trkpt lat="49.47173" lon="21.378267"></trkpt><trkpt lat="49.47161" lon="21.378569"></trkpt><trkpt lat="49.471439" lon="21.379076"></trkpt><trkpt lat="49.470109" lon="21.382331"></trkpt><trkpt lat="49.469916" lon="21.38245"></trkpt><trkpt lat="49.469651" lon="21.382849"></trkpt><trkpt lat="49.469539" lon="21.383225"></trkpt><trkpt lat="49.468747" lon="21.385414"></trkpt><trkpt lat="49.468618" lon="21.385661"></trkpt><trkpt lat="49.467044" lon="21.388225"></trkpt><trkpt lat="49.466869" lon="21.388396"></trkpt><trkpt lat="49.466735" lon="21.388692"></trkpt><trkpt lat="49.466442" lon="21.389228"></trkpt><trkpt lat="49.466271" lon="21.38949"></trkpt><trkpt lat="49.466018" lon="21.389771"></trkpt><trkpt lat="49.465687" lon="21.389977"></trkpt><trkpt lat="49.465394" lon="21.3902"></trkpt><trkpt lat="49.465151" lon="21.390478"></trkpt><trkpt lat="49.464623" lon="21.391184"></trkpt><trkpt lat="49.463854" lon="21.392059"></trkpt><trkpt lat="49.463627" lon="21.392516"></trkpt><trkpt lat="49.463549" lon="21.392798"></trkpt><trkpt lat="49.463428" lon="21.393094"></trkpt><trkpt lat="49.463291" lon="21.393318"></trkpt><trkpt lat="49.462923" lon="21.393836"></trkpt><trkpt lat="49.461951" lon="21.39501"></trkpt><trkpt lat="49.461563" lon="21.395601"></trkpt><trkpt lat="49.461424" lon="21.395897"></trkpt><trkpt lat="49.460632" lon="21.397316"></trkpt><trkpt lat="49.460447" lon="21.397576"></trkpt><trkpt lat="49.460189" lon="21.398015"></trkpt><trkpt lat="49.460046" lon="21.398326"></trkpt><trkpt lat="49.459271" lon="21.400329"></trkpt><trkpt lat="49.459202" lon="21.400734"></trkpt><trkpt lat="49.459164" lon="21.401069"></trkpt><trkpt lat="49.45906" lon="21.401693"></trkpt><trkpt lat="49.458876" lon="21.402466"></trkpt><trkpt lat="49.45876" lon="21.402777"></trkpt><trkpt lat="49.458561" lon="21.403161"></trkpt><trkpt lat="49.455189" lon="21.411254"></trkpt><trkpt lat="49.454877" lon="21.41246"></trkpt><trkpt lat="49.45453" lon="21.413123"></trkpt><trkpt lat="49.454237" lon="21.41347"></trkpt><trkpt lat="49.453568" lon="21.414388"></trkpt><trkpt lat="49.45351" lon="21.414758"></trkpt><trkpt lat="49.453506" lon="21.415204"></trkpt><trkpt lat="49.453595" lon="21.416089"></trkpt><trkpt lat="49.453677" lon="21.416553"></trkpt><trkpt lat="49.453695" lon="21.417075"></trkpt><trkpt lat="49.453667" lon="21.418718"></trkpt><trkpt lat="49.453303" lon="21.419646"></trkpt><trkpt lat="49.453009" lon="21.420567"></trkpt><trkpt lat="49.451197" lon="21.42524"></trkpt><trkpt lat="49.450196" lon="21.428398"></trkpt><trkpt lat="49.449626" lon="21.429882"></trkpt><trkpt lat="49.449411" lon="21.430357"></trkpt><trkpt lat="49.44829" lon="21.431905"></trkpt><trkpt lat="49.44788" lon="21.432367"></trkpt><trkpt lat="49.447671" lon="21.432834"></trkpt><trkpt lat="49.448252" lon="21.433168"></trkpt><trkpt lat="49.449677" lon="21.433702"></trkpt><trkpt lat="49.450275" lon="21.433595"></trkpt><trkpt lat="49.450495" lon="21.433463"></trkpt><trkpt lat="49.454555" lon="21.431733"></trkpt><trkpt lat="49.455409" lon="21.431921"></trkpt><trkpt lat="49.456122" lon="21.431902"></trkpt><trkpt lat="49.456771" lon="21.431594"></trkpt><trkpt lat="49.457473" lon="21.430998"></trkpt><trkpt lat="49.457685" lon="21.43078"></trkpt><trkpt lat="49.458414" lon="21.43014"></trkpt><trkpt lat="49.463617" lon="21.424733"></trkpt><trkpt lat="49.464277" lon="21.423462"></trkpt><trkpt lat="49.465198" lon="21.421961"></trkpt><trkpt lat="49.465645" lon="21.421707"></trkpt><trkpt lat="49.46602" lon="21.4217"></trkpt><trkpt lat="49.466399" lon="21.42187"></trkpt><trkpt lat="49.46695" lon="21.422279"></trkpt><trkpt lat="49.467437" lon="21.422977"></trkpt><trkpt lat="49.467843" lon="21.423898"></trkpt><trkpt lat="49.469402" lon="21.426761"></trkpt><trkpt lat="49.470098" lon="21.427161"></trkpt><trkpt lat="49.471254" lon="21.427679"></trkpt><trkpt lat="49.471924" lon="21.427798"></trkpt><trkpt lat="49.472525" lon="21.427779"></trkpt><trkpt lat="49.475999" lon="21.428267"></trkpt><trkpt lat="49.477639" lon="21.428318"></trkpt><trkpt lat="49.47806" lon="21.428211"></trkpt><trkpt lat="49.481608" lon="21.427808"></trkpt><trkpt lat="49.483239" lon="21.427398"></trkpt><trkpt lat="49.483871" lon="21.426648"></trkpt><trkpt lat="49.484616" lon="21.425558"></trkpt><trkpt lat="49.486813" lon="21.423147"></trkpt><trkpt lat="49.48762" lon="21.422806"></trkpt><trkpt lat="49.488425" lon="21.422624"></trkpt><trkpt lat="49.493334" lon="21.422202"></trkpt><trkpt lat="49.493884" lon="21.422621"></trkpt><trkpt lat="49.495786" lon="21.423719"></trkpt><trkpt lat="49.496599" lon="21.423562"></trkpt><trkpt lat="49.497329" lon="21.423256"></trkpt><trkpt lat="49.497901" lon="21.422621"></trkpt><trkpt lat="49.498504" lon="21.421792"></trkpt><trkpt lat="49.49911" lon="21.421121"></trkpt><trkpt lat="49.499443" lon="21.420919"></trkpt><trkpt lat="49.499654" lon="21.420918"></trkpt><trkpt lat="49.499986" lon="21.420999"></trkpt><trkpt lat="49.50268" lon="21.421973"></trkpt><trkpt lat="49.504065" lon="21.422653"></trkpt><trkpt lat="49.504335" lon="21.422726"></trkpt><trkpt lat="49.504646" lon="21.422934"></trkpt><trkpt lat="49.506432" lon="21.42447"></trkpt><trkpt lat="49.507064" lon="21.425164"></trkpt><trkpt lat="49.507733" lon="21.425694"></trkpt><trkpt lat="49.508337" lon="21.425786"></trkpt><trkpt lat="49.509176" lon="21.426029"></trkpt><trkpt lat="49.509797" lon="21.4266"></trkpt><trkpt lat="49.511464" lon="21.428404"></trkpt><trkpt lat="49.51214" lon="21.429692"></trkpt><trkpt lat="49.514747" lon="21.433953"></trkpt><trkpt lat="49.515459" lon="21.434812"></trkpt><trkpt lat="49.516634" lon="21.436447"></trkpt><trkpt lat="49.516969" lon="21.437293"></trkpt><trkpt lat="49.517801" lon="21.439885"></trkpt><trkpt lat="49.517766" lon="21.440531"></trkpt><trkpt lat="49.51755" lon="21.441315"></trkpt><trkpt lat="49.516775" lon="21.4436"></trkpt><trkpt lat="49.516767" lon="21.444333"></trkpt><trkpt lat="49.516891" lon="21.446553"></trkpt><trkpt lat="49.517191" lon="21.44937"></trkpt><trkpt lat="49.517327" lon="21.449784"></trkpt><trkpt lat="49.517893" lon="21.451088"></trkpt><trkpt lat="49.518054" lon="21.451974"></trkpt><trkpt lat="49.518151" lon="21.452987"></trkpt><trkpt lat="49.518498" lon="21.455385"></trkpt><trkpt lat="49.518849" lon="21.456726"></trkpt><trkpt lat="49.519106" lon="21.457975"></trkpt><trkpt lat="49.519298" lon="21.460426"></trkpt><trkpt lat="49.519167" lon="21.461684"></trkpt><trkpt lat="49.519128" lon="21.46406"></trkpt><trkpt lat="49.519562" lon="21.464748"></trkpt><trkpt lat="49.520305" lon="21.466451"></trkpt><trkpt lat="49.520503" lon="21.467753"></trkpt><trkpt lat="49.521332" lon="21.471765"></trkpt><trkpt lat="49.521605" lon="21.472344"></trkpt><trkpt lat="49.52198" lon="21.473489"></trkpt><trkpt lat="49.521947" lon="21.473871"></trkpt><trkpt lat="49.521823" lon="21.474552"></trkpt><trkpt lat="49.521701" lon="21.474937"></trkpt><trkpt lat="49.521573" lon="21.475239"></trkpt><trkpt lat="49.521357" lon="21.475538"></trkpt><trkpt lat="49.520638" lon="21.476858"></trkpt><trkpt lat="49.520539" lon="21.477956"></trkpt><trkpt lat="49.520205" lon="21.480184"></trkpt><trkpt lat="49.519931" lon="21.480885"></trkpt><trkpt lat="49.519404" lon="21.482516"></trkpt><trkpt lat="49.519214" lon="21.483271"></trkpt><trkpt lat="49.517456" lon="21.488313"></trkpt><trkpt lat="49.516767" lon="21.488968"></trkpt><trkpt lat="49.516193" lon="21.489855"></trkpt><trkpt lat="49.515749" lon="21.490801"></trkpt><trkpt lat="49.515294" lon="21.492155"></trkpt><trkpt lat="49.515184" lon="21.492756"></trkpt><trkpt lat="49.514792" lon="21.494365"></trkpt><trkpt lat="49.514642" lon="21.494818"></trkpt><trkpt lat="49.514475" lon="21.495243"></trkpt><trkpt lat="49.513895" lon="21.496225"></trkpt><trkpt lat="49.51368" lon="21.496311"></trkpt><trkpt lat="49.513381" lon="21.496304"></trkpt><trkpt lat="49.512377" lon="21.496456"></trkpt><trkpt lat="49.512246" lon="21.496731"></trkpt><trkpt lat="49.512047" lon="21.497311"></trkpt><trkpt lat="49.511892" lon="21.498169"></trkpt><trkpt lat="49.511631" lon="21.499152"></trkpt><trkpt lat="49.511383" lon="21.499893"></trkpt><trkpt lat="49.511118" lon="21.500509"></trkpt><trkpt lat="49.510899" lon="21.500369"></trkpt><trkpt lat="49.510372" lon="21.499849"></trkpt><trkpt lat="49.50779" lon="21.496766"></trkpt><trkpt lat="49.50761" lon="21.496348"></trkpt><trkpt lat="49.506082" lon="21.493547"></trkpt><trkpt lat="49.505722" lon="21.493358"></trkpt><trkpt lat="49.50539" lon="21.493256"></trkpt><trkpt lat="49.503819" lon="21.492576"></trkpt><trkpt lat="49.503936" lon="21.492327"></trkpt><trkpt lat="49.504134" lon="21.492174"></trkpt><trkpt lat="49.504312" lon="21.492"></trkpt><trkpt lat="49.504602" lon="21.491657"></trkpt><trkpt lat="49.504785" lon="21.491343"></trkpt><trkpt lat="49.507004" lon="21.48816"></trkpt><trkpt lat="49.507245" lon="21.488152"></trkpt><trkpt lat="49.507434" lon="21.488316"></trkpt><trkpt lat="49.507645" lon="21.488206"></trkpt><trkpt lat="49.507833" lon="21.488059"></trkpt><trkpt lat="49.507652" lon="21.488214"></trkpt><trkpt lat="49.50773" lon="21.488634"></trkpt><trkpt lat="49.507475" lon="21.488528"></trkpt></trkseg></trk></gpx>