<?xml version="1.0" encoding="UTF-8" standalone="no" ?><gpx xmlns="http://www.topografix.com/GPX/1/1" xmlns:gpxx="http://www.garmin.com/xmlschemas/GpxExtensions/v3" ><trk><trkseg><trkpt lat="49.507825" lon="21.488238"></trkpt><trkpt lat="49.507545" lon="21.488303"></trkpt><trkpt lat="49.507235" lon="21.488132"></trkpt><trkpt lat="49.507032" lon="21.488116"></trkpt><trkpt lat="49.506828" lon="21.488265"></trkpt><trkpt lat="49.506437" lon="21.488618"></trkpt><trkpt lat="49.505918" lon="21.489364"></trkpt><trkpt lat="49.5056" lon="21.489948"></trkpt><trkpt lat="49.504115" lon="21.492208"></trkpt><trkpt lat="49.503905" lon="21.492368"></trkpt><trkpt lat="49.503786" lon="21.492647"></trkpt><trkpt lat="49.504563" lon="21.492984"></trkpt><trkpt lat="49.506792" lon="21.494591"></trkpt><trkpt lat="49.507259" lon="21.495645"></trkpt><trkpt lat="49.508836" lon="21.4984"></trkpt><trkpt lat="49.509353" lon="21.49891"></trkpt><trkpt lat="49.511317" lon="21.500079"></trkpt><trkpt lat="49.511425" lon="21.499729"></trkpt><trkpt lat="49.511697" lon="21.498989"></trkpt><trkpt lat="49.511859" lon="21.49844"></trkpt><trkpt lat="49.511922" lon="21.498077"></trkpt><trkpt lat="49.512167" lon="21.497022"></trkpt><trkpt lat="49.512298" lon="21.496696"></trkpt><trkpt lat="49.512467" lon="21.4964"></trkpt><trkpt lat="49.512869" lon="21.496315"></trkpt><trkpt lat="49.513094" lon="21.496317"></trkpt><trkpt lat="49.514238" lon="21.495927"></trkpt><trkpt lat="49.514381" lon="21.495652"></trkpt><trkpt lat="49.514765" lon="21.494576"></trkpt><trkpt lat="49.515276" lon="21.492439"></trkpt><trkpt lat="49.516385" lon="21.489558"></trkpt><trkpt lat="49.516884" lon="21.488886"></trkpt><trkpt lat="49.517302" lon="21.488506"></trkpt><trkpt lat="49.517863" lon="21.487899"></trkpt><trkpt lat="49.51805" lon="21.487496"></trkpt><trkpt lat="49.51829" lon="21.486773"></trkpt><trkpt lat="49.519388" lon="21.482787"></trkpt><trkpt lat="49.520757" lon="21.47657"></trkpt><trkpt lat="49.520983" lon="21.47609"></trkpt><trkpt lat="49.52124" lon="21.475748"></trkpt><trkpt lat="49.521881" lon="21.474453"></trkpt><trkpt lat="49.522007" lon="21.473628"></trkpt><trkpt lat="49.521988" lon="21.473245"></trkpt><trkpt lat="49.521948" lon="21.472866"></trkpt><trkpt lat="49.522058" lon="21.472597"></trkpt><trkpt lat="49.522664" lon="21.47203"></trkpt><trkpt lat="49.525082" lon="21.470205"></trkpt><trkpt lat="49.525411" lon="21.470115"></trkpt><trkpt lat="49.526206" lon="21.469992"></trkpt><trkpt lat="49.526289" lon="21.470436"></trkpt><trkpt lat="49.526398" lon="21.470795"></trkpt><trkpt lat="49.526548" lon="21.470997"></trkpt><trkpt lat="49.526749" lon="21.471366"></trkpt><trkpt lat="49.526468" lon="21.470979"></trkpt><trkpt lat="49.526331" lon="21.470668"></trkpt><trkpt lat="49.526226" lon="21.469987"></trkpt><trkpt lat="49.526423" lon="21.469906"></trkpt><trkpt lat="49.527919" lon="21.469107"></trkpt><trkpt lat="49.528188" lon="21.468858"></trkpt><trkpt lat="49.528394" lon="21.468634"></trkpt><trkpt lat="49.528646" lon="21.468281"></trkpt><trkpt lat="49.529671" lon="21.467081"></trkpt><trkpt lat="49.529951" lon="21.466847"></trkpt><trkpt lat="49.530694" lon="21.466362"></trkpt><trkpt lat="49.530937" lon="21.466273"></trkpt><trkpt lat="49.531845" lon="21.465832"></trkpt><trkpt lat="49.532058" lon="21.465674"></trkpt><trkpt lat="49.532355" lon="21.46538"></trkpt><trkpt lat="49.532944" lon="21.465244"></trkpt><trkpt lat="49.53351" lon="21.465272"></trkpt><trkpt lat="49.533917" lon="21.465002"></trkpt><trkpt lat="49.534247" lon="21.464931"></trkpt><trkpt lat="49.534839" lon="21.464951"></trkpt><trkpt lat="49.535031" lon="21.464858"></trkpt><trkpt lat="49.535387" lon="21.464794"></trkpt><trkpt lat="49.535623" lon="21.464797"></trkpt><trkpt lat="49.535911" lon="21.464735"></trkpt><trkpt lat="49.536178" lon="21.46453"></trkpt><trkpt lat="49.537088" lon="21.464197"></trkpt><trkpt lat="49.537314" lon="21.464402"></trkpt><trkpt lat="49.537521" lon="21.464662"></trkpt><trkpt lat="49.537744" lon="21.464882"></trkpt><trkpt lat="49.541118" lon="21.46771"></trkpt><trkpt lat="49.541403" lon="21.467681"></trkpt><trkpt lat="49.541597" lon="21.46801"></trkpt><trkpt lat="49.54172" lon="21.468436"></trkpt><trkpt lat="49.541716" lon="21.468774"></trkpt><trkpt lat="49.541757" lon="21.4693"></trkpt><trkpt lat="49.541933" lon="21.469528"></trkpt><trkpt lat="49.542166" lon="21.469662"></trkpt><trkpt lat="49.542353" lon="21.469794"></trkpt><trkpt lat="49.542837" lon="21.470246"></trkpt><trkpt lat="49.542979" lon="21.470508"></trkpt><trkpt lat="49.54349" lon="21.471321"></trkpt><trkpt lat="49.543884" lon="21.471516"></trkpt><trkpt lat="49.545428" lon="21.472774"></trkpt><trkpt lat="49.545644" lon="21.473053"></trkpt><trkpt lat="49.54587" lon="21.473245"></trkpt><trkpt lat="49.546076" lon="21.473474"></trkpt><trkpt lat="49.546563" lon="21.474344"></trkpt><trkpt lat="49.547122" lon="21.475164"></trkpt><trkpt lat="49.547573" lon="21.475309"></trkpt><trkpt lat="49.54777" lon="21.47553"></trkpt><trkpt lat="49.548016" lon="21.47607"></trkpt><trkpt lat="49.548222" lon="21.47643"></trkpt><trkpt lat="49.548958" lon="21.476883"></trkpt><trkpt lat="49.549561" lon="21.477179"></trkpt><trkpt lat="49.549872" lon="21.477189"></trkpt><trkpt lat="49.550798" lon="21.477325"></trkpt><trkpt lat="49.550932" lon="21.477551"></trkpt><trkpt lat="49.55099" lon="21.477927"></trkpt><trkpt lat="49.55089" lon="21.478908"></trkpt><trkpt lat="49.550788" lon="21.479559"></trkpt><trkpt lat="49.55062" lon="21.481098"></trkpt><trkpt lat="49.55067" lon="21.481411"></trkpt><trkpt lat="49.550819" lon="21.481928"></trkpt><trkpt lat="49.551433" lon="21.483684"></trkpt><trkpt lat="49.551645" lon="21.483858"></trkpt><trkpt lat="49.552267" lon="21.484174"></trkpt><trkpt lat="49.553475" lon="21.484076"></trkpt><trkpt lat="49.553547" lon="21.483559"></trkpt><trkpt lat="49.553888" lon="21.481947"></trkpt><trkpt lat="49.554043" lon="21.481391"></trkpt><trkpt lat="49.554415" lon="21.480502"></trkpt><trkpt lat="49.554669" lon="21.480218"></trkpt><trkpt lat="49.555749" lon="21.478514"></trkpt><trkpt lat="49.555911" lon="21.47771"></trkpt><trkpt lat="49.556052" lon="21.477364"></trkpt><trkpt lat="49.556215" lon="21.477169"></trkpt><trkpt lat="49.556493" lon="21.476741"></trkpt><trkpt lat="49.556806" lon="21.476028"></trkpt><trkpt lat="49.557586" lon="21.474799"></trkpt><trkpt lat="49.557953" lon="21.474508"></trkpt><trkpt lat="49.562075" lon="21.470562"></trkpt><trkpt lat="49.56228" lon="21.470106"></trkpt><trkpt lat="49.562772" lon="21.468699"></trkpt><trkpt lat="49.562846" lon="21.468252"></trkpt><trkpt lat="49.56307" lon="21.46635"></trkpt><trkpt lat="49.563076" lon="21.465753"></trkpt><trkpt lat="49.562995" lon="21.46427"></trkpt><trkpt lat="49.562941" lon="21.463884"></trkpt><trkpt lat="49.562739" lon="21.461606"></trkpt><trkpt lat="49.562955" lon="21.461714"></trkpt><trkpt lat="49.564499" lon="21.462302"></trkpt><trkpt lat="49.565505" lon="21.462824"></trkpt><trkpt lat="49.565418" lon="21.463493"></trkpt><trkpt lat="49.565345" lon="21.464491"></trkpt><trkpt lat="49.565397" lon="21.46481"></trkpt><trkpt lat="49.565412" lon="21.465292"></trkpt><trkpt lat="49.565396" lon="21.466157"></trkpt><trkpt lat="49.56542" lon="21.466698"></trkpt><trkpt lat="49.565454" lon="21.46702"></trkpt><trkpt lat="49.565695" lon="21.468405"></trkpt><trkpt lat="49.565808" lon="21.468823"></trkpt><trkpt lat="49.565854" lon="21.469263"></trkpt><trkpt lat="49.565856" lon="21.469623"></trkpt><trkpt lat="49.565933" lon="21.470997"></trkpt><trkpt lat="49.566203" lon="21.470979"></trkpt><trkpt lat="49.566525" lon="21.470919"></trkpt><trkpt lat="49.566716" lon="21.470824"></trkpt><trkpt lat="49.566657" lon="21.470333"></trkpt><trkpt lat="49.566653" lon="21.469807"></trkpt><trkpt lat="49.566684" lon="21.46947"></trkpt><trkpt lat="49.566875" lon="21.468159"></trkpt><trkpt lat="49.566949" lon="21.467787"></trkpt><trkpt lat="49.567488" lon="21.465849"></trkpt><trkpt lat="49.567662" lon="21.46569"></trkpt><trkpt lat="49.56782" lon="21.465502"></trkpt><trkpt lat="49.56816" lon="21.465522"></trkpt><trkpt lat="49.568365" lon="21.46548"></trkpt><trkpt lat="49.568636" lon="21.465493"></trkpt><trkpt lat="49.56889" lon="21.465533"></trkpt><trkpt lat="49.569475" lon="21.465728"></trkpt><trkpt lat="49.570225" lon="21.466168"></trkpt><trkpt lat="49.575177" lon="21.469812"></trkpt><trkpt lat="49.57534" lon="21.470145"></trkpt><trkpt lat="49.575497" lon="21.470367"></trkpt><trkpt lat="49.57574" lon="21.470486"></trkpt><trkpt lat="49.575933" lon="21.47062"></trkpt><trkpt lat="49.576169" lon="21.470754"></trkpt><trkpt lat="49.576382" lon="21.470809"></trkpt><trkpt lat="49.577209" lon="21.470697"></trkpt><trkpt lat="49.577538" lon="21.470781"></trkpt><trkpt lat="49.579716" lon="21.470525"></trkpt><trkpt lat="49.579777" lon="21.469951"></trkpt><trkpt lat="49.579816" lon="21.469273"></trkpt><trkpt lat="49.579939" lon="21.468916"></trkpt><trkpt lat="49.580159" lon="21.468126"></trkpt><trkpt lat="49.580155" lon="21.467664"></trkpt><trkpt lat="49.580245" lon="21.467298"></trkpt><trkpt lat="49.580611" lon="21.466486"></trkpt><trkpt lat="49.580727" lon="21.466162"></trkpt><trkpt lat="49.580857" lon="21.465908"></trkpt><trkpt lat="49.581338" lon="21.464808"></trkpt><trkpt lat="49.581944" lon="21.46363"></trkpt><trkpt lat="49.582034" lon="21.463954"></trkpt><trkpt lat="49.581952" lon="21.463663"></trkpt><trkpt lat="49.581693" lon="21.464002"></trkpt><trkpt lat="49.58138" lon="21.464678"></trkpt><trkpt lat="49.58016" lon="21.467769"></trkpt><trkpt lat="49.580161" lon="21.468197"></trkpt><trkpt lat="49.57991" lon="21.469034"></trkpt><trkpt lat="49.579811" lon="21.469479"></trkpt><trkpt lat="49.579722" lon="21.470397"></trkpt><trkpt lat="49.579641" lon="21.472358"></trkpt><trkpt lat="49.579785" lon="21.472646"></trkpt><trkpt lat="49.579864" lon="21.472965"></trkpt><trkpt lat="49.579819" lon="21.47327"></trkpt><trkpt lat="49.579835" lon="21.473729"></trkpt><trkpt lat="49.579937" lon="21.474711"></trkpt><trkpt lat="49.580019" lon="21.474995"></trkpt><trkpt lat="49.580099" lon="21.475418"></trkpt><trkpt lat="49.580344" lon="21.476399"></trkpt><trkpt lat="49.580503" lon="21.476643"></trkpt><trkpt lat="49.580594" lon="21.476959"></trkpt><trkpt lat="49.580543" lon="21.477266"></trkpt><trkpt lat="49.580371" lon="21.477678"></trkpt><trkpt lat="49.580273" lon="21.477971"></trkpt><trkpt lat="49.580197" lon="21.478317"></trkpt><trkpt lat="49.58013" lon="21.479611"></trkpt><trkpt lat="49.580047" lon="21.480295"></trkpt><trkpt lat="49.580082" lon="21.480905"></trkpt><trkpt lat="49.580262" lon="21.48144"></trkpt><trkpt lat="49.580483" lon="21.481913"></trkpt><trkpt lat="49.58074" lon="21.48273"></trkpt><trkpt lat="49.580948" lon="21.483826"></trkpt><trkpt lat="49.581013" lon="21.484475"></trkpt><trkpt lat="49.581206" lon="21.485627"></trkpt><trkpt lat="49.581259" lon="21.486288"></trkpt><trkpt lat="49.581205" lon="21.486633"></trkpt><trkpt lat="49.581073" lon="21.486916"></trkpt><trkpt lat="49.580857" lon="21.487246"></trkpt><trkpt lat="49.580715" lon="21.487592"></trkpt><trkpt lat="49.580558" lon="21.488218"></trkpt><trkpt lat="49.580471" lon="21.488774"></trkpt><trkpt lat="49.58042" lon="21.489394"></trkpt><trkpt lat="49.580415" lon="21.48982"></trkpt><trkpt lat="49.580465" lon="21.490238"></trkpt><trkpt lat="49.580559" lon="21.490648"></trkpt><trkpt lat="49.580659" lon="21.491211"></trkpt><trkpt lat="49.580635" lon="21.492023"></trkpt><trkpt lat="49.580568" lon="21.492423"></trkpt><trkpt lat="49.580534" lon="21.492811"></trkpt><trkpt lat="49.580415" lon="21.493137"></trkpt><trkpt lat="49.580037" lon="21.494753"></trkpt><trkpt lat="49.579895" lon="21.49564"></trkpt><trkpt lat="49.57961" lon="21.496636"></trkpt><trkpt lat="49.579045" lon="21.498175"></trkpt><trkpt lat="49.578903" lon="21.498488"></trkpt><trkpt lat="49.579094" lon="21.49865"></trkpt><trkpt lat="49.579474" lon="21.498855"></trkpt><trkpt lat="49.579686" lon="21.499037"></trkpt><trkpt lat="49.579899" lon="21.499273"></trkpt><trkpt lat="49.580129" lon="21.499485"></trkpt><trkpt lat="49.579803" lon="21.499925"></trkpt><trkpt lat="49.578587" lon="21.501866"></trkpt><trkpt lat="49.578402" lon="21.502221"></trkpt><trkpt lat="49.577986" lon="21.502671"></trkpt><trkpt lat="49.577462" lon="21.503337"></trkpt><trkpt lat="49.572302" lon="21.51101"></trkpt><trkpt lat="49.572032" lon="21.511773"></trkpt><trkpt lat="49.571898" lon="21.512301"></trkpt><trkpt lat="49.570344" lon="21.51715"></trkpt><trkpt lat="49.570083" lon="21.517715"></trkpt><trkpt lat="49.569816" lon="21.518402"></trkpt><trkpt lat="49.569424" lon="21.519251"></trkpt><trkpt lat="49.569091" lon="21.519581"></trkpt><trkpt lat="49.568622" lon="21.519697"></trkpt><trkpt lat="49.56789" lon="21.519974"></trkpt><trkpt lat="49.567517" lon="21.520185"></trkpt><trkpt lat="49.565927" lon="21.521394"></trkpt><trkpt lat="49.565201" lon="21.521771"></trkpt><trkpt lat="49.564688" lon="21.521944"></trkpt><trkpt lat="49.563578" lon="21.522053"></trkpt><trkpt lat="49.56336" lon="21.521837"></trkpt><trkpt lat="49.563137" lon="21.521456"></trkpt><trkpt lat="49.562927" lon="21.521302"></trkpt><trkpt lat="49.562063" lon="21.521093"></trkpt><trkpt lat="49.560989" lon="21.521537"></trkpt><trkpt lat="49.56071" lon="21.521718"></trkpt><trkpt lat="49.557578" lon="21.524249"></trkpt><trkpt lat="49.557235" lon="21.524664"></trkpt><trkpt lat="49.556824" lon="21.525545"></trkpt><trkpt lat="49.556932" lon="21.526034"></trkpt><trkpt lat="49.557076" lon="21.526474"></trkpt><trkpt lat="49.557402" lon="21.527019"></trkpt><trkpt lat="49.558124" lon="21.528788"></trkpt><trkpt lat="49.558066" lon="21.52933"></trkpt><trkpt lat="49.557837" lon="21.5297"></trkpt><trkpt lat="49.557633" lon="21.529984"></trkpt><trkpt lat="49.557526" lon="21.530252"></trkpt><trkpt lat="49.557586" lon="21.530549"></trkpt><trkpt lat="49.557804" lon="21.53103"></trkpt><trkpt lat="49.558194" lon="21.532035"></trkpt><trkpt lat="49.558328" lon="21.532631"></trkpt><trkpt lat="49.558383" lon="21.533152"></trkpt><trkpt lat="49.558373" lon="21.533749"></trkpt><trkpt lat="49.55824" lon="21.534312"></trkpt><trkpt lat="49.558085" lon="21.534694"></trkpt><trkpt lat="49.557927" lon="21.535192"></trkpt><trkpt lat="49.55764" lon="21.535795"></trkpt><trkpt lat="49.55731" lon="21.536195"></trkpt><trkpt lat="49.556562" lon="21.53682"></trkpt><trkpt lat="49.556179" lon="21.536913"></trkpt><trkpt lat="49.555568" lon="21.537157"></trkpt><trkpt lat="49.555155" lon="21.537236"></trkpt><trkpt lat="49.553794" lon="21.537694"></trkpt><trkpt lat="49.553694" lon="21.538058"></trkpt><trkpt lat="49.553767" lon="21.538548"></trkpt><trkpt lat="49.553797" lon="21.538964"></trkpt><trkpt lat="49.553662" lon="21.539313"></trkpt><trkpt lat="49.553427" lon="21.539561"></trkpt><trkpt lat="49.551115" lon="21.542447"></trkpt><trkpt lat="49.549505" lon="21.544176"></trkpt><trkpt lat="49.549342" lon="21.544402"></trkpt><trkpt lat="49.549234" lon="21.544665"></trkpt><trkpt lat="49.549166" lon="21.544958"></trkpt><trkpt lat="49.548996" lon="21.545555"></trkpt><trkpt lat="49.54868" lon="21.54629"></trkpt><trkpt lat="49.548025" lon="21.546945"></trkpt><trkpt lat="49.547798" lon="21.547213"></trkpt><trkpt lat="49.546888" lon="21.548595"></trkpt><trkpt lat="49.546799" lon="21.548997"></trkpt><trkpt lat="49.546749" lon="21.549294"></trkpt><trkpt lat="49.546634" lon="21.549726"></trkpt><trkpt lat="49.546556" lon="21.550165"></trkpt><trkpt lat="49.546457" lon="21.550581"></trkpt><trkpt lat="49.546279" lon="21.550915"></trkpt><trkpt lat="49.546087" lon="21.550994"></trkpt><trkpt lat="49.545664" lon="21.550925"></trkpt><trkpt lat="49.545464" lon="21.55098"></trkpt><trkpt lat="49.545264" lon="21.551209"></trkpt><trkpt lat="49.544472" lon="21.551949"></trkpt><trkpt lat="49.543931" lon="21.551982"></trkpt><trkpt lat="49.543401" lon="21.552192"></trkpt><trkpt lat="49.541766" lon="21.552596"></trkpt><trkpt lat="49.540942" lon="21.552702"></trkpt><trkpt lat="49.540731" lon="21.552546"></trkpt><trkpt lat="49.540564" lon="21.552318"></trkpt><trkpt lat="49.540063" lon="21.551508"></trkpt><trkpt lat="49.539519" lon="21.550168"></trkpt><trkpt lat="49.539053" lon="21.549517"></trkpt><trkpt lat="49.538498" lon="21.549001"></trkpt><trkpt lat="49.53801" lon="21.548768"></trkpt><trkpt lat="49.53777" lon="21.548832"></trkpt><trkpt lat="49.53618" lon="21.549505"></trkpt><trkpt lat="49.535602" lon="21.549959"></trkpt><trkpt lat="49.534982" lon="21.550331"></trkpt><trkpt lat="49.533447" lon="21.551033"></trkpt><trkpt lat="49.533252" lon="21.55109"></trkpt><trkpt lat="49.532833" lon="21.551107"></trkpt><trkpt lat="49.532434" lon="21.551259"></trkpt><trkpt lat="49.530743" lon="21.552224"></trkpt><trkpt lat="49.53056" lon="21.552369"></trkpt><trkpt lat="49.530073" lon="21.553089"></trkpt><trkpt lat="49.528567" lon="21.554951"></trkpt><trkpt lat="49.528242" lon="21.554946"></trkpt><trkpt lat="49.526656" lon="21.554649"></trkpt><trkpt lat="49.526494" lon="21.554408"></trkpt><trkpt lat="49.52594" lon="21.553828"></trkpt><trkpt lat="49.525647" lon="21.553663"></trkpt><trkpt lat="49.52472" lon="21.552982"></trkpt><trkpt lat="49.524465" lon="21.552531"></trkpt><trkpt lat="49.524145" lon="21.551431"></trkpt><trkpt lat="49.523436" lon="21.549835"></trkpt><trkpt lat="49.5229" lon="21.549259"></trkpt><trkpt lat="49.522161" lon="21.548303"></trkpt><trkpt lat="49.521919" lon="21.547808"></trkpt><trkpt lat="49.518844" lon="21.542819"></trkpt><trkpt lat="49.51831" lon="21.542779"></trkpt><trkpt lat="49.516772" lon="21.542446"></trkpt><trkpt lat="49.516587" lon="21.542179"></trkpt><trkpt lat="49.515566" lon="21.54147"></trkpt><trkpt lat="49.515223" lon="21.541619"></trkpt><trkpt lat="49.513047" lon="21.542192"></trkpt><trkpt lat="49.512731" lon="21.54205"></trkpt><trkpt lat="49.511948" lon="21.541597"></trkpt><trkpt lat="49.511034" lon="21.541263"></trkpt><trkpt lat="49.510633" lon="21.541266"></trkpt><trkpt lat="49.509585" lon="21.541109"></trkpt><trkpt lat="49.50897" lon="21.540753"></trkpt><trkpt lat="49.507027" lon="21.539294"></trkpt><trkpt lat="49.506892" lon="21.538841"></trkpt><trkpt lat="49.506896" lon="21.538424"></trkpt><trkpt lat="49.506867" lon="21.538034"></trkpt><trkpt lat="49.506692" lon="21.537551"></trkpt><trkpt lat="49.506118" lon="21.536916"></trkpt><trkpt lat="49.505478" lon="21.536345"></trkpt><trkpt lat="49.505184" lon="21.536312"></trkpt><trkpt lat="49.504724" lon="21.536311"></trkpt><trkpt lat="49.504385" lon="21.536045"></trkpt><trkpt lat="49.504153" lon="21.535754"></trkpt><trkpt lat="49.503855" lon="21.534887"></trkpt><trkpt lat="49.503718" lon="21.533959"></trkpt><trkpt lat="49.503675" lon="21.532966"></trkpt><trkpt lat="49.503635" lon="21.532656"></trkpt><trkpt lat="49.503712" lon="21.531962"></trkpt><trkpt lat="49.503752" lon="21.53045"></trkpt><trkpt lat="49.503664" lon="21.529661"></trkpt><trkpt lat="49.503645" lon="21.528577"></trkpt><trkpt lat="49.503673" lon="21.527593"></trkpt><trkpt lat="49.503616" lon="21.526973"></trkpt><trkpt lat="49.503551" lon="21.526683"></trkpt><trkpt lat="49.503361" lon="21.523784"></trkpt><trkpt lat="49.503712" lon="21.522971"></trkpt><trkpt lat="49.503923" lon="21.522742"></trkpt><trkpt lat="49.505147" lon="21.521675"></trkpt><trkpt lat="49.505433" lon="21.521512"></trkpt><trkpt lat="49.506573" lon="21.520695"></trkpt><trkpt lat="49.50669" lon="21.52043"></trkpt><trkpt lat="49.506867" lon="21.519716"></trkpt><trkpt lat="49.506885" lon="21.519242"></trkpt><trkpt lat="49.506754" lon="21.518179"></trkpt><trkpt lat="49.506514" lon="21.514915"></trkpt><trkpt lat="49.50672" lon="21.514057"></trkpt><trkpt lat="49.506815" lon="21.513526"></trkpt><trkpt lat="49.506995" lon="21.513144"></trkpt><trkpt lat="49.507153" lon="21.512925"></trkpt><trkpt lat="49.507265" lon="21.512612"></trkpt><trkpt lat="49.507603" lon="21.512295"></trkpt><trkpt lat="49.507903" lon="21.511698"></trkpt><trkpt lat="49.50991" lon="21.508383"></trkpt><trkpt lat="49.510126" lon="21.507913"></trkpt><trkpt lat="49.510211" lon="21.507327"></trkpt><trkpt lat="49.510241" lon="21.506724"></trkpt><trkpt lat="49.510196" lon="21.505383"></trkpt><trkpt lat="49.510038" lon="21.504839"></trkpt><trkpt lat="49.509993" lon="21.504065"></trkpt><trkpt lat="49.51007" lon="21.503643"></trkpt><trkpt lat="49.510341" lon="21.502588"></trkpt><trkpt lat="49.510651" lon="21.502021"></trkpt><trkpt lat="49.510946" lon="21.501619"></trkpt><trkpt lat="49.511095" lon="21.501121"></trkpt><trkpt lat="49.511411" lon="21.50029"></trkpt><trkpt lat="49.511602" lon="21.500381"></trkpt><trkpt lat="49.511396" lon="21.500355"></trkpt><trkpt lat="49.511064" lon="21.500505"></trkpt><trkpt lat="49.510529" lon="21.499994"></trkpt><trkpt lat="49.50769" lon="21.496634"></trkpt><trkpt lat="49.507473" lon="21.496148"></trkpt><trkpt lat="49.506123" lon="21.493578"></trkpt><trkpt lat="49.505695" lon="21.493344"></trkpt><trkpt lat="49.505332" lon="21.493235"></trkpt><trkpt lat="49.504416" lon="21.492694"></trkpt><trkpt lat="49.504592" lon="21.492349"></trkpt><trkpt lat="49.504857" lon="21.491941"></trkpt><trkpt lat="49.505306" lon="21.491379"></trkpt><trkpt lat="49.50562" lon="21.491083"></trkpt><trkpt lat="49.506237" lon="21.490598"></trkpt><trkpt lat="49.506622" lon="21.490385"></trkpt><trkpt lat="49.507035" lon="21.490273"></trkpt><trkpt lat="49.50725" lon="21.489997"></trkpt><trkpt lat="49.507443" lon="21.489848"></trkpt><trkpt lat="49.507706" lon="21.489586"></trkpt><trkpt lat="49.507825" lon="21.48932"></trkpt><trkpt lat="49.507901" lon="21.488838"></trkpt><trkpt lat="49.507674" lon="21.488497"></trkpt></trkseg></trk></gpx>