<?xml version="1.0" encoding="UTF-8" standalone="no" ?><gpx xmlns="http://www.topografix.com/GPX/1/1" xmlns:gpxx="http://www.garmin.com/xmlschemas/GpxExtensions/v3" ><trk><trkseg><trkpt lat="50.955042718" lon="15.8121525496"></trkpt><trkpt lat="50.9549047519" lon="15.8129255287"></trkpt><trkpt lat="50.9545848146" lon="15.8121831436"></trkpt><trkpt lat="50.954440143" lon="15.8116543293"></trkpt><trkpt lat="50.9542735107" lon="15.8107013069"></trkpt><trkpt lat="50.9541351255" lon="15.8102497738"></trkpt><trkpt lat="50.9534686804" lon="15.8086311445"></trkpt><trkpt lat="50.9531892277" lon="15.8085105289"></trkpt><trkpt lat="50.9528656863" lon="15.8084302302"></trkpt><trkpt lat="50.9524788614" lon="15.8082317468"></trkpt><trkpt lat="50.952149285" lon="15.808116328"></trkpt><trkpt lat="50.9517790563" lon="15.8080869075"></trkpt><trkpt lat="50.9503848106" lon="15.8076302614"></trkpt><trkpt lat="50.950011313" lon="15.8073897846"></trkpt><trkpt lat="50.9497888573" lon="15.8071001898"></trkpt><trkpt lat="50.9491658304" lon="15.8064381871"></trkpt><trkpt lat="50.9489398543" lon="15.8060189243"></trkpt><trkpt lat="50.9486591443" lon="15.8052291814"></trkpt><trkpt lat="50.9484166559" lon="15.8047240041"></trkpt><trkpt lat="50.9481235407" lon="15.80426367"></trkpt><trkpt lat="50.947367074" lon="15.8033049479"></trkpt><trkpt lat="50.9467146266" lon="15.8028520737"></trkpt><trkpt lat="50.9451752063" lon="15.8014811296"></trkpt><trkpt lat="50.9426060691" lon="15.7986572664"></trkpt><trkpt lat="50.9423115291" lon="15.7978943456"></trkpt><trkpt lat="50.942002153" lon="15.7972946204"></trkpt><trkpt lat="50.9419624228" lon="15.7968642935"></trkpt><trkpt lat="50.9415911883" lon="15.7944344636"></trkpt><trkpt lat="50.9413553216" lon="15.7941490598"></trkpt><trkpt lat="50.9405789059" lon="15.7936061639"></trkpt><trkpt lat="50.9403720405" lon="15.7932802755"></trkpt><trkpt lat="50.9402469825" lon="15.7928975578"></trkpt><trkpt lat="50.9398716409" lon="15.7926065382"></trkpt><trkpt lat="50.939365793" lon="15.7925780397"></trkpt><trkpt lat="50.9373734146" lon="15.7919966709"></trkpt><trkpt lat="50.936926743" lon="15.7917100098"></trkpt><trkpt lat="50.9362988546" lon="15.7911812793"></trkpt><trkpt lat="50.9360091761" lon="15.7907667942"></trkpt><trkpt lat="50.935710026" lon="15.7899090741"></trkpt><trkpt lat="50.9353948664" lon="15.7891936786"></trkpt><trkpt lat="50.9351274837" lon="15.7887719013"></trkpt><trkpt lat="50.9349421598" lon="15.7881767023"></trkpt><trkpt lat="50.9337904025" lon="15.7833833434"></trkpt><trkpt lat="50.9335419629" lon="15.7827666029"></trkpt><trkpt lat="50.9329954628" lon="15.7819141634"></trkpt><trkpt lat="50.9325508028" lon="15.7806005515"></trkpt><trkpt lat="50.9324195422" lon="15.7801136468"></trkpt><trkpt lat="50.9304274153" lon="15.7742173132"></trkpt><trkpt lat="50.9301061369" lon="15.7734564878"></trkpt><trkpt lat="50.9298650734" lon="15.7732179388"></trkpt><trkpt lat="50.9293440543" lon="15.7729354687"></trkpt><trkpt lat="50.926900059" lon="15.7708753645"></trkpt><trkpt lat="50.9258851781" lon="15.7702105958"></trkpt><trkpt lat="50.925428113" lon="15.7700072508"></trkpt><trkpt lat="50.92336189" lon="15.7684600353"></trkpt><trkpt lat="50.9230295476" lon="15.767937256"></trkpt><trkpt lat="50.9225540422" lon="15.7666870113"></trkpt><trkpt lat="50.9222920239" lon="15.7661173772"></trkpt><trkpt lat="50.9218121599" lon="15.7654785924"></trkpt><trkpt lat="50.9212250076" lon="15.7650931086"></trkpt><trkpt lat="50.9203564748" lon="15.7646786235"></trkpt><trkpt lat="50.9161791019" lon="15.7633109484"></trkpt><trkpt lat="50.915731173" lon="15.76304432"></trkpt><trkpt lat="50.9154580906" lon="15.763009619"></trkpt><trkpt lat="50.9147596266" lon="15.7625602651"></trkpt><trkpt lat="50.9144064132" lon="15.7622290961"></trkpt><trkpt lat="50.9141816944" lon="15.7618883718"></trkpt><trkpt lat="50.9135733359" lon="15.7612837013"></trkpt><trkpt lat="50.9118090291" lon="15.7598742004"></trkpt><trkpt lat="50.9113359544" lon="15.7593459729"></trkpt><trkpt lat="50.9109047055" lon="15.7584990654"></trkpt><trkpt lat="50.9105791524" lon="15.7576281019"></trkpt><trkpt lat="50.9103241749" lon="15.7562887575"></trkpt><trkpt lat="50.9084135201" lon="15.7501140609"></trkpt><trkpt lat="50.9075967036" lon="15.7503656857"></trkpt><trkpt lat="50.9068417456" lon="15.7503869757"></trkpt><trkpt lat="50.9055184107" lon="15.7506530173"></trkpt><trkpt lat="50.9050863236" lon="15.7514164411"></trkpt><trkpt lat="50.9044192079" lon="15.7514990866"></trkpt><trkpt lat="50.9032425564" lon="15.7518201973"></trkpt><trkpt lat="50.9029828012" lon="15.7516251504"></trkpt><trkpt lat="50.9030761756" lon="15.7509350684"></trkpt><trkpt lat="50.9031697176" lon="15.7495728415"></trkpt><trkpt lat="50.9030940291" lon="15.748670781"></trkpt><trkpt lat="50.9030771814" lon="15.7478703931"></trkpt><trkpt lat="50.9031835478" lon="15.7471237332"></trkpt><trkpt lat="50.9033646807" lon="15.7427168638"></trkpt><trkpt lat="50.9032127168" lon="15.7419144642"></trkpt><trkpt lat="50.9031192586" lon="15.7410331909"></trkpt><trkpt lat="50.9031116311" lon="15.7400116883"></trkpt><trkpt lat="50.9032361023" lon="15.739009548"></trkpt><trkpt lat="50.9031944443" lon="15.738542676"></trkpt><trkpt lat="50.9029994812" lon="15.7380195614"></trkpt><trkpt lat="50.9028971381" lon="15.7370835543"></trkpt><trkpt lat="50.9029755928" lon="15.7360015344"></trkpt><trkpt lat="50.9032039996" lon="15.7352371048"></trkpt><trkpt lat="50.9034641739" lon="15.7345918659"></trkpt><trkpt lat="50.903600296" lon="15.7341632992"></trkpt><trkpt lat="50.9032059275" lon="15.7339638937"></trkpt><trkpt lat="50.9029423166" lon="15.7344854157"></trkpt><trkpt lat="50.9027187712" lon="15.7348534651"></trkpt><trkpt lat="50.9025370516" lon="15.7352247834"></trkpt><trkpt lat="50.9023793042" lon="15.7356293779"></trkpt><trkpt lat="50.9021423478" lon="15.7361104153"></trkpt><trkpt lat="50.9017506614" lon="15.7363077253"></trkpt><trkpt lat="50.9013873059" lon="15.7357248478"></trkpt><trkpt lat="50.9010408819" lon="15.7359531708"></trkpt><trkpt lat="50.8991614077" lon="15.7389212865"></trkpt><trkpt lat="50.8993750624" lon="15.7394885737"></trkpt><trkpt lat="50.8994468115" lon="15.7399478182"></trkpt><trkpt lat="50.8989617508" lon="15.7406183705"></trkpt><trkpt lat="50.8962642867" lon="15.7437340077"></trkpt><trkpt lat="50.8958160225" lon="15.7441551145"></trkpt><trkpt lat="50.8911905531" lon="15.7494704984"></trkpt><trkpt lat="50.890102163" lon="15.7510122657"></trkpt><trkpt lat="50.88959774" lon="15.7519176789"></trkpt><trkpt lat="50.8867978491" lon="15.7560150046"></trkpt><trkpt lat="50.8864356671" lon="15.7563498616"></trkpt><trkpt lat="50.8861671947" lon="15.7565192599"></trkpt><trkpt lat="50.8857385442" lon="15.756879095"></trkpt><trkpt lat="50.8853128273" lon="15.7576225698"></trkpt><trkpt lat="50.8842209168" lon="15.7591583021"></trkpt><trkpt lat="50.8839119598" lon="15.759125948"></trkpt><trkpt lat="50.8835714031" lon="15.758751696"></trkpt><trkpt lat="50.8833106421" lon="15.7585929427"></trkpt><trkpt lat="50.8829560038" lon="15.7585280668"></trkpt><trkpt lat="50.8722678199" lon="15.7622846682"></trkpt><trkpt lat="50.8719418477" lon="15.7628055196"></trkpt><trkpt lat="50.86906543" lon="15.7665427588"></trkpt><trkpt lat="50.8686478436" lon="15.7667850796"></trkpt><trkpt lat="50.8667737339" lon="15.7682121824"></trkpt><trkpt lat="50.8665029984" lon="15.7691232953"></trkpt><trkpt lat="50.8663591649" lon="15.7700338215"></trkpt><trkpt lat="50.8661585022" lon="15.7708259113"></trkpt><trkpt lat="50.8664885815" lon="15.7715068571"></trkpt><trkpt lat="50.8661814686" lon="15.7720245235"></trkpt><trkpt lat="50.8653102536" lon="15.7732464373"></trkpt><trkpt lat="50.864835754" lon="15.773615744"></trkpt><trkpt lat="50.8634557575" lon="15.7750280946"></trkpt><trkpt lat="50.8632426057" lon="15.775347529"></trkpt><trkpt lat="50.8630290348" lon="15.7758458331"></trkpt><trkpt lat="50.8628481533" lon="15.7764961012"></trkpt><trkpt lat="50.8624605741" lon="15.7771192119"></trkpt><trkpt lat="50.8621471748" lon="15.7783523574"></trkpt><trkpt lat="50.8611062262" lon="15.7811274379"></trkpt><trkpt lat="50.8607775718" lon="15.7813662384"></trkpt><trkpt lat="50.8603460714" lon="15.7824660279"></trkpt><trkpt lat="50.8601650223" lon="15.7828324847"></trkpt><trkpt lat="50.8597650379" lon="15.7832721993"></trkpt><trkpt lat="50.8594675642" lon="15.7835097425"></trkpt><trkpt lat="50.8590983413" lon="15.7839785423"></trkpt><trkpt lat="50.8589882031" lon="15.7844558917"></trkpt><trkpt lat="50.8588403463" lon="15.784875825"></trkpt><trkpt lat="50.8588625584" lon="15.7853022125"></trkpt><trkpt lat="50.8592819888" lon="15.7856420148"></trkpt><trkpt lat="50.8595620282" lon="15.7858194597"></trkpt><trkpt lat="50.8603323251" lon="15.7865032554"></trkpt><trkpt lat="50.860704314" lon="15.7870332431"></trkpt><trkpt lat="50.8608701918" lon="15.7875804976"></trkpt><trkpt lat="50.8605170622" lon="15.7885375433"></trkpt><trkpt lat="50.8602883201" lon="15.7887670398"></trkpt><trkpt lat="50.8604579698" lon="15.7891261205"></trkpt><trkpt lat="50.860404158" lon="15.7898123469"></trkpt><trkpt lat="50.8600261342" lon="15.790224988"></trkpt><trkpt lat="50.8597044367" lon="15.7911846321"></trkpt><trkpt lat="50.8596542291" lon="15.7916261908"></trkpt><trkpt lat="50.8597754315" lon="15.7921014447"></trkpt><trkpt lat="50.8596623596" lon="15.7928012498"></trkpt><trkpt lat="50.8594575897" lon="15.793518573"></trkpt><trkpt lat="50.8592905384" lon="15.7938989438"></trkpt><trkpt lat="50.8590025362" lon="15.7943883631"></trkpt><trkpt lat="50.8591991756" lon="15.7940659951"></trkpt><trkpt lat="50.8594077174" lon="15.7936225086"></trkpt><trkpt lat="50.8596341126" lon="15.7929719891"></trkpt><trkpt lat="50.8597895969" lon="15.7922140975"></trkpt><trkpt lat="50.859702928" lon="15.7917551883"></trkpt><trkpt lat="50.8596915286" lon="15.7912548725"></trkpt><trkpt lat="50.8600294869" lon="15.7902362198"></trkpt><trkpt lat="50.8604001347" lon="15.7898275182"></trkpt><trkpt lat="50.8606120292" lon="15.7893038169"></trkpt><trkpt lat="50.8609610517" lon="15.7898814138"></trkpt><trkpt lat="50.8682025969" lon="15.7995620091"></trkpt><trkpt lat="50.8688807767" lon="15.8002833556"></trkpt><trkpt lat="50.869393833" lon="15.8005455416"></trkpt><trkpt lat="50.8698384929" lon="15.8004893828"></trkpt><trkpt lat="50.8701245673" lon="15.8005851042"></trkpt><trkpt lat="50.8706404734" lon="15.8013574965"></trkpt><trkpt lat="50.8710574731" lon="15.8023907337"></trkpt><trkpt lat="50.8715245128" lon="15.8031336218"></trkpt><trkpt lat="50.8721748646" lon="15.8038170822"></trkpt><trkpt lat="50.8727606758" lon="15.804027468"></trkpt><trkpt lat="50.8738636505" lon="15.8047687635"></trkpt><trkpt lat="50.8763223141" lon="15.8069131896"></trkpt><trkpt lat="50.8766364679" lon="15.8073594421"></trkpt><trkpt lat="50.8768951334" lon="15.8078892622"></trkpt><trkpt lat="50.8769485261" lon="15.8083100338"></trkpt><trkpt lat="50.8766136691" lon="15.8083669469"></trkpt><trkpt lat="50.8763763774" lon="15.8086966909"></trkpt><trkpt lat="50.8761166222" lon="15.8088743873"></trkpt><trkpt lat="50.8760058135" lon="15.8092711866"></trkpt><trkpt lat="50.8763246611" lon="15.80882309"></trkpt><trkpt lat="50.876485426" lon="15.8084780071"></trkpt><trkpt lat="50.876804525" lon="15.8083473332"></trkpt><trkpt lat="50.8773563895" lon="15.8084458206"></trkpt><trkpt lat="50.8776175696" lon="15.8094662335"></trkpt><trkpt lat="50.8776991256" lon="15.8104679547"></trkpt><trkpt lat="50.8775941841" lon="15.8109841123"></trkpt><trkpt lat="50.8772122208" lon="15.8116797265"></trkpt><trkpt lat="50.8768776152" lon="15.8125768416"></trkpt><trkpt lat="50.8766880166" lon="15.8133807499"></trkpt><trkpt lat="50.8762788121" lon="15.8144710679"></trkpt><trkpt lat="50.8760323841" lon="15.8142615203"></trkpt><trkpt lat="50.8756932523" lon="15.814252384"></trkpt><trkpt lat="50.8754095249" lon="15.8141474426"></trkpt><trkpt lat="50.8747942932" lon="15.8140520565"></trkpt><trkpt lat="50.8746051136" lon="15.8136690874"></trkpt><trkpt lat="50.8748523798" lon="15.8139927126"></trkpt><trkpt lat="50.8750457503" lon="15.8135059755"></trkpt><trkpt lat="50.87528212" lon="15.81318059"></trkpt><trkpt lat="50.8755671885" lon="15.8134900499"></trkpt><trkpt lat="50.8759535942" lon="15.8140428364"></trkpt><trkpt lat="50.8761682548" lon="15.8144438267"></trkpt><trkpt lat="50.8759115171" lon="15.815083785"></trkpt><trkpt lat="50.8755925857" lon="15.8157325443"></trkpt><trkpt lat="50.8754069265" lon="15.8162531443"></trkpt><trkpt lat="50.8748506196" lon="15.8169399574"></trkpt><trkpt lat="50.8741372358" lon="15.8175286185"></trkpt><trkpt lat="50.8729739953" lon="15.8187265601"></trkpt><trkpt lat="50.8711662702" lon="15.820175875"></trkpt><trkpt lat="50.8706465084" lon="15.8207041863"></trkpt><trkpt lat="50.8704864979" lon="15.8213851321"></trkpt><trkpt lat="50.8703761082" lon="15.8222508989"></trkpt><trkpt lat="50.8703444246" lon="15.8229833096"></trkpt><trkpt lat="50.8703897707" lon="15.8241295349"></trkpt><trkpt lat="50.8706030063" lon="15.8248159289"></trkpt><trkpt lat="50.8708963729" lon="15.8255516924"></trkpt><trkpt lat="50.8708626777" lon="15.8265336324"></trkpt><trkpt lat="50.8707398828" lon="15.8269512188"></trkpt><trkpt lat="50.8703251462" lon="15.8270065393"></trkpt><trkpt lat="50.870254403" lon="15.8274363633"></trkpt><trkpt lat="50.8702732623" lon="15.8281862922"></trkpt><trkpt lat="50.8703281637" lon="15.8287911303"></trkpt><trkpt lat="50.8704761881" lon="15.8296996448"></trkpt><trkpt lat="50.8703435864" lon="15.8289520629"></trkpt><trkpt lat="50.8699159417" lon="15.8292089682"></trkpt><trkpt lat="50.8695205674" lon="15.8295511175"></trkpt><trkpt lat="50.8690625802" lon="15.8297855593"></trkpt><trkpt lat="50.868727304" lon="15.830433229"></trkpt><trkpt lat="50.8688392863" lon="15.8310313616"></trkpt><trkpt lat="50.8686527051" lon="15.8314813022"></trkpt><trkpt lat="50.8681269083" lon="15.8321070112"></trkpt><trkpt lat="50.8670056611" lon="15.8331392426"></trkpt><trkpt lat="50.8665703889" lon="15.8333220519"></trkpt><trkpt lat="50.8661923651" lon="15.8335954696"></trkpt><trkpt lat="50.8607919887" lon="15.8385941014"></trkpt><trkpt lat="50.8606349118" lon="15.8389622346"></trkpt><trkpt lat="50.8590531629" lon="15.8416047134"></trkpt><trkpt lat="50.8586415276" lon="15.8419909514"></trkpt><trkpt lat="50.8583905734" lon="15.8424609248"></trkpt><trkpt lat="50.857900735" lon="15.8432225883"></trkpt><trkpt lat="50.8556380402" lon="15.8461310249"></trkpt><trkpt lat="50.8548488002" lon="15.8465315122"></trkpt><trkpt lat="50.8541004639" lon="15.8472198341"></trkpt><trkpt lat="50.8537267148" lon="15.8477022126"></trkpt><trkpt lat="50.8532662131" lon="15.8478436992"></trkpt><trkpt lat="50.852663219" lon="15.8481949009"></trkpt><trkpt lat="50.8523987699" lon="15.8484247327"></trkpt><trkpt lat="50.8521535154" lon="15.848994283"></trkpt><trkpt lat="50.8517450653" lon="15.8493553754"></trkpt><trkpt lat="50.8516207617" lon="15.8497556951"></trkpt><trkpt lat="50.8513850626" lon="15.8503394946"></trkpt><trkpt lat="50.8510304242" lon="15.8508584183"></trkpt><trkpt lat="50.8503763843" lon="15.8520013746"></trkpt><trkpt lat="50.8503159508" lon="15.8525576815"></trkpt><trkpt lat="50.8502992708" lon="15.8530968893"></trkpt><trkpt lat="50.8499445487" lon="15.8531837258"></trkpt><trkpt lat="50.8487642091" lon="15.8526174445"></trkpt><trkpt lat="50.8484109957" lon="15.8521903027"></trkpt><trkpt lat="50.8484860975" lon="15.8513283078"></trkpt><trkpt lat="50.8483959083" lon="15.8499315474"></trkpt><trkpt lat="50.8483224828" lon="15.8494970296"></trkpt><trkpt lat="50.8480542619" lon="15.8494038228"></trkpt><trkpt lat="50.8472989686" lon="15.8498464711"></trkpt><trkpt lat="50.846967129" lon="15.8497458044"></trkpt><trkpt lat="50.8466437552" lon="15.8494266216"></trkpt><trkpt lat="50.8463715948" lon="15.8493998833"></trkpt><trkpt lat="50.8461476304" lon="15.8496824373"></trkpt><trkpt lat="50.8460284397" lon="15.8502954897"></trkpt><trkpt lat="50.8463705052" lon="15.8504923806"></trkpt><trkpt lat="50.8466464374" lon="15.8503936417"></trkpt><trkpt lat="50.8470939472" lon="15.8500009496"></trkpt><trkpt lat="50.8482562657" lon="15.8493973687"></trkpt><trkpt lat="50.8481312916" lon="15.8489811234"></trkpt><trkpt lat="50.8477199078" lon="15.8486584201"></trkpt><trkpt lat="50.8472164907" lon="15.8479880355"></trkpt><trkpt lat="50.8468170092" lon="15.847814111"></trkpt><trkpt lat="50.8464636281" lon="15.847718725"></trkpt><trkpt lat="50.8456512541" lon="15.8476749714"></trkpt><trkpt lat="50.8452225197" lon="15.8474752307"></trkpt><trkpt lat="50.8401127439" lon="15.8442476951"></trkpt><trkpt lat="50.8396658208" lon="15.8436174598"></trkpt><trkpt lat="50.8393719513" lon="15.8433501609"></trkpt><trkpt lat="50.8391660918" lon="15.8430007193"></trkpt><trkpt lat="50.8388397843" lon="15.8422656264"></trkpt><trkpt lat="50.8384659514" lon="15.8412120212"></trkpt><trkpt lat="50.8384014945" lon="15.8407455683"></trkpt><trkpt lat="50.8383670449" lon="15.8402216155"></trkpt><trkpt lat="50.8382579125" lon="15.8397972398"></trkpt><trkpt lat="50.8378656395" lon="15.8397562522"></trkpt><trkpt lat="50.8374252543" lon="15.8396306075"></trkpt><trkpt lat="50.8369036485" lon="15.839615101"></trkpt><trkpt lat="50.8364305738" lon="15.8394265082"></trkpt><trkpt lat="50.8361037634" lon="15.8391095884"></trkpt><trkpt lat="50.8338940423" lon="15.8374032006"></trkpt><trkpt lat="50.8335016854" lon="15.8372060582"></trkpt><trkpt lat="50.8317562379" lon="15.8360374533"></trkpt><trkpt lat="50.8314287569" lon="15.835411828"></trkpt><trkpt lat="50.8311476279" lon="15.8350426052"></trkpt><trkpt lat="50.8308861125" lon="15.8347683493"></trkpt><trkpt lat="50.8304861281" lon="15.8344400302"></trkpt><trkpt lat="50.8300315775" lon="15.8342257049"></trkpt><trkpt lat="50.8287566062" lon="15.8334028535"></trkpt><trkpt lat="50.8285306301" lon="15.8327514119"></trkpt><trkpt lat="50.8285038918" lon="15.8317259699"></trkpt><trkpt lat="50.8284201566" lon="15.8311648015"></trkpt><trkpt lat="50.8281984553" lon="15.8301035687"></trkpt><trkpt lat="50.8281168155" lon="15.8292019274"></trkpt><trkpt lat="50.8281178214" lon="15.8287232369"></trkpt><trkpt lat="50.8279904164" lon="15.8272263967"></trkpt><trkpt lat="50.8279125486" lon="15.8232874051"></trkpt><trkpt lat="50.8279917575" lon="15.8227909449"></trkpt><trkpt lat="50.8278049249" lon="15.8224788029"></trkpt><trkpt lat="50.8275139891" lon="15.8221675828"></trkpt><trkpt lat="50.8267819136" lon="15.8217999525"></trkpt><trkpt lat="50.826528864" lon="15.8216280397"></trkpt><trkpt lat="50.8263535984" lon="15.8212452382"></trkpt><trkpt lat="50.8259028196" lon="15.8200105838"></trkpt><trkpt lat="50.82525976" lon="15.8187997341"></trkpt><trkpt lat="50.8250591811" lon="15.8177522477"></trkpt><trkpt lat="50.8251688164" lon="15.8173323981"></trkpt><trkpt lat="50.8251808863" lon="15.8168994728"></trkpt><trkpt lat="50.8252487797" lon="15.8164845686"></trkpt><trkpt lat="50.8252895158" lon="15.8159788884"></trkpt><trkpt lat="50.8250839077" lon="15.8155939914"></trkpt><trkpt lat="50.8250212949" lon="15.8151696995"></trkpt><trkpt lat="50.8251129929" lon="15.8156003617"></trkpt><trkpt lat="50.8252947126" lon="15.8160444349"></trkpt><trkpt lat="50.8251248114" lon="15.81658029"></trkpt><trkpt lat="50.8250882663" lon="15.8174647484"></trkpt><trkpt lat="50.8251283318" lon="15.8184284158"></trkpt><trkpt lat="50.8253074531" lon="15.8190865628"></trkpt><trkpt lat="50.8257325832" lon="15.8198970091"></trkpt><trkpt lat="50.826410763" lon="15.8216930833"></trkpt><trkpt lat="50.8261923306" lon="15.8224189561"></trkpt><trkpt lat="50.8260132931" lon="15.8228092175"></trkpt><trkpt lat="50.8257568907" lon="15.8231545519"></trkpt><trkpt lat="50.8254754264" lon="15.8234594855"></trkpt><trkpt lat="50.8246146049" lon="15.8246669825"></trkpt><trkpt lat="50.8244055603" lon="15.8251569886"></trkpt><trkpt lat="50.8241965156" lon="15.825795019"></trkpt><trkpt lat="50.8232555632" lon="15.8294944558"></trkpt><trkpt lat="50.823243577" lon="15.8303449675"></trkpt><trkpt lat="50.8229776192" lon="15.8306551818"></trkpt><trkpt lat="50.8225764614" lon="15.8308993466"></trkpt><trkpt lat="50.821935581" lon="15.8310194593"></trkpt><trkpt lat="50.8215523604" lon="15.8315932844"></trkpt><trkpt lat="50.8202600386" lon="15.8329742029"></trkpt><trkpt lat="50.819745725" lon="15.8338419814"></trkpt><trkpt lat="50.8195961919" lon="15.8343518525"></trkpt><trkpt lat="50.8193687908" lon="15.834620744"></trkpt><trkpt lat="50.8190132305" lon="15.8346538525"></trkpt><trkpt lat="50.818642918" lon="15.8349302877"></trkpt><trkpt lat="50.8183729369" lon="15.835058447"></trkpt><trkpt lat="50.8175749797" lon="15.8357765246"></trkpt><trkpt lat="50.8173642587" lon="15.8360735793"></trkpt><trkpt lat="50.817108443" lon="15.836254796"></trkpt><trkpt lat="50.8168428205" lon="15.8363794349"></trkpt><trkpt lat="50.8140057977" lon="15.8370881248"></trkpt><trkpt lat="50.8139492199" lon="15.8365986217"></trkpt><trkpt lat="50.8134941664" lon="15.8341170754"></trkpt><trkpt lat="50.8131861314" lon="15.8336443361"></trkpt><trkpt lat="50.8128856402" lon="15.8333095629"></trkpt><trkpt lat="50.8125548903" lon="15.8331065532"></trkpt><trkpt lat="50.8122786228" lon="15.832998259"></trkpt><trkpt lat="50.8116799872" lon="15.8329485543"></trkpt><trkpt lat="50.8067536913" lon="15.8314611018"></trkpt><trkpt lat="50.8064928465" lon="15.8308725245"></trkpt><trkpt lat="50.8060020022" lon="15.8294201083"></trkpt><trkpt lat="50.8058164269" lon="15.8287042938"></trkpt><trkpt lat="50.8056377247" lon="15.8277339209"></trkpt><trkpt lat="50.8055824041" lon="15.8272668812"></trkpt><trkpt lat="50.8054167777" lon="15.8267472871"></trkpt><trkpt lat="50.8051472157" lon="15.8266127575"></trkpt><trkpt lat="50.8045278769" lon="15.8261608053"></trkpt><trkpt lat="50.804290669" lon="15.8259325661"></trkpt><trkpt lat="50.8037064504" lon="15.8255860582"></trkpt><trkpt lat="50.8034648001" lon="15.8253687993"></trkpt><trkpt lat="50.8032316994" lon="15.8247261588"></trkpt><trkpt lat="50.8029097505" lon="15.8235417958"></trkpt><trkpt lat="50.8027468063" lon="15.8231742494"></trkpt><trkpt lat="50.803331444" lon="15.822262466"></trkpt><trkpt lat="50.8040948678" lon="15.821279604"></trkpt><trkpt lat="50.8067433815" lon="15.8168974612"></trkpt><trkpt lat="50.8066443074" lon="15.8163527213"></trkpt><trkpt lat="50.8060165029" lon="15.8138461132"></trkpt><trkpt lat="50.8056827355" lon="15.8132981881"></trkpt><trkpt lat="50.8053994272" lon="15.813055113"></trkpt><trkpt lat="50.8050378319" lon="15.8122058585"></trkpt><trkpt lat="50.804915037" lon="15.811468754"></trkpt><trkpt lat="50.8042894956" lon="15.8088470623"></trkpt><trkpt lat="50.8040463366" lon="15.8073560055"></trkpt><trkpt lat="50.8041076083" lon="15.8065966889"></trkpt><trkpt lat="50.8042464126" lon="15.8060935233"></trkpt><trkpt lat="50.8044045791" lon="15.8053396549"></trkpt><trkpt lat="50.8043854684" lon="15.8046464715"></trkpt><trkpt lat="50.804259656" lon="15.804064516"></trkpt><trkpt lat="50.8042553812" lon="15.8033253998"></trkpt><trkpt lat="50.8043197542" lon="15.8025396802"></trkpt><trkpt lat="50.8044150565" lon="15.8019224368"></trkpt><trkpt lat="50.8046437986" lon="15.8014828898"></trkpt><trkpt lat="50.804236019" lon="15.8015928604"></trkpt><trkpt lat="50.8032892831" lon="15.801688917"></trkpt><trkpt lat="50.8029988501" lon="15.8015377074"></trkpt><trkpt lat="50.802512113" lon="15.8007225674"></trkpt><trkpt lat="50.8015382197" lon="15.7997864764"></trkpt><trkpt lat="50.801144857" lon="15.7996770088"></trkpt><trkpt lat="50.8009411767" lon="15.7992284931"></trkpt><trkpt lat="50.8006723691" lon="15.7991477754"></trkpt><trkpt lat="50.8003847022" lon="15.7991216239"></trkpt><trkpt lat="50.8009654004" lon="15.7992033474"></trkpt><trkpt lat="50.8011387382" lon="15.7985692564"></trkpt><trkpt lat="50.8014766965" lon="15.7978192437"></trkpt><trkpt lat="50.8018719871" lon="15.7971868291"></trkpt><trkpt lat="50.8025503345" lon="15.7956766617"></trkpt><trkpt lat="50.8026607241" lon="15.7951564807"></trkpt><trkpt lat="50.8031249139" lon="15.7920676656"></trkpt><trkpt lat="50.8030101657" lon="15.7913666032"></trkpt><trkpt lat="50.8027965948" lon="15.7906155847"></trkpt><trkpt lat="50.802710345" lon="15.790076796"></trkpt><trkpt lat="50.8027424477" lon="15.7894805074"></trkpt><trkpt lat="50.8026351593" lon="15.7890829537"></trkpt><trkpt lat="50.8025420364" lon="15.7884626091"></trkpt><trkpt lat="50.8024496678" lon="15.7871719636"></trkpt><trkpt lat="50.8024314791" lon="15.7859284244"></trkpt><trkpt lat="50.8026032243" lon="15.7831622288"></trkpt><trkpt lat="50.8028307091" lon="15.7818678953"></trkpt><trkpt lat="50.802823836" lon="15.7811231632"></trkpt><trkpt lat="50.8027026337" lon="15.7807269506"></trkpt><trkpt lat="50.8021568041" lon="15.7807296328"></trkpt><trkpt lat="50.8017574064" lon="15.7806407847"></trkpt><trkpt lat="50.8005888015" lon="15.7801591605"></trkpt><trkpt lat="50.8000895754" lon="15.779605452"></trkpt><trkpt lat="50.7998433989" lon="15.7792685833"></trkpt><trkpt lat="50.7996459212" lon="15.7788639888"></trkpt><trkpt lat="50.7993284985" lon="15.7784420438"></trkpt><trkpt lat="50.7985393424" lon="15.777129354"></trkpt><trkpt lat="50.7983301301" lon="15.7766727917"></trkpt><trkpt lat="50.7985734567" lon="15.7763618231"></trkpt><trkpt lat="50.7992746867" lon="15.7756245509"></trkpt><trkpt lat="50.7998553012" lon="15.775285922"></trkpt><trkpt lat="50.800072141" lon="15.7749559265"></trkpt><trkpt lat="50.8013050351" lon="15.7736030035"></trkpt><trkpt lat="50.8026145399" lon="15.7717199251"></trkpt><trkpt lat="50.8028526697" lon="15.7713028416"></trkpt><trkpt lat="50.8040791098" lon="15.7687128335"></trkpt><trkpt lat="50.8042328339" lon="15.7679464761"></trkpt><trkpt lat="50.8045956027" lon="15.766632529"></trkpt><trkpt lat="50.8046490792" lon="15.7661585324"></trkpt><trkpt lat="50.8048633207" lon="15.7658638246"></trkpt><trkpt lat="50.8058108948" lon="15.7656220905"></trkpt><trkpt lat="50.8065051679" lon="15.7651905902"></trkpt><trkpt lat="50.8077437617" lon="15.7642123383"></trkpt><trkpt lat="50.807853397" lon="15.7637201529"></trkpt><trkpt lat="50.8079711627" lon="15.7628528774"></trkpt><trkpt lat="50.8080793731" lon="15.7624436729"></trkpt><trkpt lat="50.8083641902" lon="15.7622233965"></trkpt><trkpt lat="50.8087825309" lon="15.7620751206"></trkpt><trkpt lat="50.8095255028" lon="15.7616963424"></trkpt><trkpt lat="50.8096734434" lon="15.7612323202"></trkpt><trkpt lat="50.8100564126" lon="15.7610988803"></trkpt><trkpt lat="50.8097858448" lon="15.7611499261"></trkpt><trkpt lat="50.8095353097" lon="15.7615855336"></trkpt><trkpt lat="50.8098097332" lon="15.7618486416"></trkpt><trkpt lat="50.8101000823" lon="15.7619080693"></trkpt><trkpt lat="50.8107546251" lon="15.7621989213"></trkpt><trkpt lat="50.8130904101" lon="15.7625828125"></trkpt><trkpt lat="50.8144166786" lon="15.7621534914"></trkpt><trkpt lat="50.8146685548" lon="15.7619581092"></trkpt><trkpt lat="50.8148094546" lon="15.7613005489"></trkpt><trkpt lat="50.8149867319" lon="15.76090266"></trkpt><trkpt lat="50.8150476683" lon="15.7598907128"></trkpt><trkpt lat="50.8160627168" lon="15.7550593838"></trkpt><trkpt lat="50.8167796209" lon="15.7546500117"></trkpt><trkpt lat="50.8174596447" lon="15.7536487933"></trkpt><trkpt lat="50.8176527638" lon="15.7532925624"></trkpt><trkpt lat="50.8180036303" lon="15.7525111176"></trkpt><trkpt lat="50.818266822" lon="15.7521282323"></trkpt><trkpt lat="50.8183944784" lon="15.7517482806"></trkpt><trkpt lat="50.8190050162" lon="15.7492801454"></trkpt><trkpt lat="50.8191764262" lon="15.7488561887"></trkpt><trkpt lat="50.8194622491" lon="15.7485202421"></trkpt><trkpt lat="50.8200617228" lon="15.748012634"></trkpt><trkpt lat="50.8211011626" lon="15.7473805547"></trkpt><trkpt lat="50.8215205092" lon="15.7474213745"></trkpt><trkpt lat="50.8218839485" lon="15.7473243121"></trkpt><trkpt lat="50.8223378286" lon="15.7473239768"></trkpt><trkpt lat="50.8225728571" lon="15.7471050415"></trkpt><trkpt lat="50.8228958957" lon="15.7470000163"></trkpt><trkpt lat="50.8234034199" lon="15.7470430154"></trkpt><trkpt lat="50.8236615825" lon="15.7466740441"></trkpt><trkpt lat="50.8246674109" lon="15.744696334"></trkpt><trkpt lat="50.8242270257" lon="15.7442126982"></trkpt><trkpt lat="50.8235440683" lon="15.743611129"></trkpt><trkpt lat="50.8205482922" lon="15.7415618375"></trkpt><trkpt lat="50.8201538399" lon="15.7414711453"></trkpt><trkpt lat="50.8198491577" lon="15.7412524614"></trkpt><trkpt lat="50.8195038233" lon="15.7406222261"></trkpt><trkpt lat="50.8193499316" lon="15.739864083"></trkpt><trkpt lat="50.8193718921" lon="15.7391305827"></trkpt><trkpt lat="50.8194466587" lon="15.7384726871"></trkpt><trkpt lat="50.8190817107" lon="15.7379157096"></trkpt><trkpt lat="50.8185866755" lon="15.7369732484"></trkpt><trkpt lat="50.8185923751" lon="15.7365442626"></trkpt><trkpt lat="50.818556333" lon="15.7360761333"></trkpt><trkpt lat="50.8183723502" lon="15.7354198303"></trkpt><trkpt lat="50.8181112539" lon="15.7347372081"></trkpt><trkpt lat="50.8180246688" lon="15.7340084855"></trkpt><trkpt lat="50.8174563758" lon="15.730920257"></trkpt><trkpt lat="50.8171853889" lon="15.7307278924"></trkpt><trkpt lat="50.8169450797" lon="15.7304375432"></trkpt><trkpt lat="50.8168059401" lon="15.7298547495"></trkpt><trkpt lat="50.8170967083" lon="15.7288707979"></trkpt><trkpt lat="50.8176634088" lon="15.7279619481"></trkpt><trkpt lat="50.81795929" lon="15.727628516"></trkpt><trkpt lat="50.8181674965" lon="15.7273375802"></trkpt><trkpt lat="50.8184742741" lon="15.7264266349"></trkpt><trkpt lat="50.818577623" lon="15.7255916297"></trkpt><trkpt lat="50.8185874298" lon="15.7249675132"></trkpt><trkpt lat="50.818668399" lon="15.7241888344"></trkpt><trkpt lat="50.8194420487" lon="15.7238657121"></trkpt><trkpt lat="50.8221898042" lon="15.7222248707"></trkpt><trkpt lat="50.8219870459" lon="15.7214829884"></trkpt><trkpt lat="50.8222295344" lon="15.7212142646"></trkpt><trkpt lat="50.8225472923" lon="15.7213529013"></trkpt><trkpt lat="50.8228141721" lon="15.7212783862"></trkpt><trkpt lat="50.8230333589" lon="15.7209514081"></trkpt><trkpt lat="50.8233283181" lon="15.7209871151"></trkpt><trkpt lat="50.8235765062" lon="15.7211560942"></trkpt><trkpt lat="50.8240082581" lon="15.7211756241"></trkpt><trkpt lat="50.8245292772" lon="15.7216764428"></trkpt><trkpt lat="50.8247233182" lon="15.7220270578"></trkpt><trkpt lat="50.8250168525" lon="15.7227114402"></trkpt><trkpt lat="50.825319523" lon="15.7230731193"></trkpt><trkpt lat="50.8255897556" lon="15.7237289194"></trkpt><trkpt lat="50.8256784361" lon="15.7245779224"></trkpt><trkpt lat="50.8258369379" lon="15.7253314555"></trkpt><trkpt lat="50.8259801008" lon="15.7257363014"></trkpt><trkpt lat="50.8265166264" lon="15.7266730629"></trkpt><trkpt lat="50.8268742822" lon="15.7270640787"></trkpt><trkpt lat="50.8270933013" lon="15.7273614686"></trkpt><trkpt lat="50.8274056949" lon="15.7276981696"></trkpt><trkpt lat="50.8277529571" lon="15.7277473714"></trkpt><trkpt lat="50.8280182444" lon="15.7279070467"></trkpt><trkpt lat="50.828847466" lon="15.7285607513"></trkpt><trkpt lat="50.8291683253" lon="15.7290329039"></trkpt><trkpt lat="50.8295815531" lon="15.729528442"></trkpt><trkpt lat="50.8326074202" lon="15.7324820571"></trkpt><trkpt lat="50.8329520002" lon="15.732538132"></trkpt><trkpt lat="50.833942825" lon="15.7322355453"></trkpt><trkpt lat="50.8342392929" lon="15.7322414964"></trkpt><trkpt lat="50.8346557058" lon="15.7325299177"></trkpt><trkpt lat="50.8349693567" lon="15.7328719832"></trkpt><trkpt lat="50.8352031279" lon="15.7331949379"></trkpt><trkpt lat="50.8360331878" lon="15.7341482118"></trkpt><trkpt lat="50.8363203518" lon="15.734347282"></trkpt><trkpt lat="50.8366861381" lon="15.7347309217"></trkpt><trkpt lat="50.8369292971" lon="15.7351428922"></trkpt><trkpt lat="50.8370495774" lon="15.7355492469"></trkpt><trkpt lat="50.8386471681" lon="15.7398519292"></trkpt><trkpt lat="50.8389262855" lon="15.7397469878"></trkpt><trkpt lat="50.8396762144" lon="15.7390990667"></trkpt><trkpt lat="50.8405833878" lon="15.7385717612"></trkpt><trkpt lat="50.8411339112" lon="15.7385331206"></trkpt><trkpt lat="50.8419291023" lon="15.7387361303"></trkpt><trkpt lat="50.842048293" lon="15.7391767669"></trkpt><trkpt lat="50.8421409968" lon="15.7396652643"></trkpt><trkpt lat="50.8423606865" lon="15.7399982773"></trkpt><trkpt lat="50.8432639204" lon="15.7407066319"></trkpt><trkpt lat="50.843910668" lon="15.7409236394"></trkpt><trkpt lat="50.8448455017" lon="15.7404075656"></trkpt><trkpt lat="50.8453602344" lon="15.7393900864"></trkpt><trkpt lat="50.8458320517" lon="15.7386110723"></trkpt><trkpt lat="50.8460327983" lon="15.7381854393"></trkpt><trkpt lat="50.8465683181" lon="15.737750167"></trkpt><trkpt lat="50.8468519617" lon="15.7376426272"></trkpt><trkpt lat="50.8471824601" lon="15.7373798545"></trkpt><trkpt lat="50.8474883996" lon="15.7373938523"></trkpt><trkpt lat="50.8479212411" lon="15.7376356702"></trkpt><trkpt lat="50.8482022025" lon="15.7375583053"></trkpt><trkpt lat="50.8488626126" lon="15.7368843164"></trkpt><trkpt lat="50.8491423167" lon="15.7364419196"></trkpt><trkpt lat="50.8497750666" lon="15.7357026357"></trkpt><trkpt lat="50.8503281884" lon="15.7354850415"></trkpt><trkpt lat="50.8508711681" lon="15.7343758643"></trkpt><trkpt lat="50.8509645425" lon="15.7339634746"></trkpt><trkpt lat="50.8511631936" lon="15.7335017994"></trkpt><trkpt lat="50.8511915244" lon="15.732975835"></trkpt><trkpt lat="50.8511622716" lon="15.731817456"></trkpt><trkpt lat="50.850990694" lon="15.731305154"></trkpt><trkpt lat="50.8512661234" lon="15.7309875637"></trkpt><trkpt lat="50.8517148905" lon="15.7309093606"></trkpt><trkpt lat="50.8524566051" lon="15.7306463365"></trkpt><trkpt lat="50.8528288454" lon="15.7302929554"></trkpt><trkpt lat="50.853765104" lon="15.7289693691"></trkpt><trkpt lat="50.8540085144" lon="15.7284040935"></trkpt><trkpt lat="50.8543017134" lon="15.7279982418"></trkpt><trkpt lat="50.8544713631" lon="15.7275457866"></trkpt><trkpt lat="50.8547367342" lon="15.7266263757"></trkpt><trkpt lat="50.8553672209" lon="15.7236843277"></trkpt><trkpt lat="50.855467217" lon="15.7224476617"></trkpt><trkpt lat="50.8557097055" lon="15.7207125239"></trkpt><trkpt lat="50.8561673574" lon="15.7194013428"></trkpt><trkpt lat="50.8562918287" lon="15.7189280167"></trkpt><trkpt lat="50.8564140368" lon="15.7176454179"></trkpt><trkpt lat="50.8565192297" lon="15.7172388118"></trkpt><trkpt lat="50.856576981" lon="15.7161395252"></trkpt><trkpt lat="50.8565277793" lon="15.7151274942"></trkpt><trkpt lat="50.8566082455" lon="15.710260123"></trkpt><trkpt lat="50.8566716127" lon="15.7095378544"></trkpt><trkpt lat="50.8569583576" lon="15.7075588033"></trkpt><trkpt lat="50.8573457692" lon="15.7066958025"></trkpt><trkpt lat="50.8588601276" lon="15.7025689725"></trkpt><trkpt lat="50.8594300132" lon="15.7014555205"></trkpt><trkpt lat="50.8596914448" lon="15.7007156499"></trkpt><trkpt lat="50.8615497127" lon="15.6966044102"></trkpt><trkpt lat="50.862003006" lon="15.6960821338"></trkpt><trkpt lat="50.8621761762" lon="15.6957208738"></trkpt><trkpt lat="50.8622620907" lon="15.6945635006"></trkpt><trkpt lat="50.8624350093" lon="15.6941592414"></trkpt><trkpt lat="50.8626366779" lon="15.6938298326"></trkpt><trkpt lat="50.8627446368" lon="15.6933828257"></trkpt><trkpt lat="50.8627823554" lon="15.6928789895"></trkpt><trkpt lat="50.8629536815" lon="15.6925425399"></trkpt><trkpt lat="50.8633465413" lon="15.6921692938"></trkpt><trkpt lat="50.8634993434" lon="15.6918036751"></trkpt><trkpt lat="50.8636079729" lon="15.6914000865"></trkpt><trkpt lat="50.8638511319" lon="15.691040922"></trkpt><trkpt lat="50.8643099573" lon="15.6906290352"></trkpt><trkpt lat="50.8641927782" lon="15.6900916714"></trkpt><trkpt lat="50.8642367832" lon="15.6896570697"></trkpt><trkpt lat="50.8640360367" lon="15.68935683"></trkpt><trkpt lat="50.8637756109" lon="15.6890886091"></trkpt><trkpt lat="50.8635186218" lon="15.6887128484"></trkpt><trkpt lat="50.8636452723" lon="15.6882474851"></trkpt><trkpt lat="50.8639206178" lon="15.6874977238"></trkpt><trkpt lat="50.8644185867" lon="15.6868331227"></trkpt><trkpt lat="50.864801975" lon="15.6861890573"></trkpt><trkpt lat="50.8649083413" lon="15.6852388848"></trkpt><trkpt lat="50.8651952539" lon="15.679973457"></trkpt><trkpt lat="50.8652965911" lon="15.6804015208"></trkpt><trkpt lat="50.8653125167" lon="15.6808316801"></trkpt><trkpt lat="50.8649879694" lon="15.6810429879"></trkpt><trkpt lat="50.8647133783" lon="15.6810948718"></trkpt><trkpt lat="50.8646609914" lon="15.6816731393"></trkpt><trkpt lat="50.8645780943" lon="15.6821073219"></trkpt><trkpt lat="50.8643353544" lon="15.6823169533"></trkpt><trkpt lat="50.8645158168" lon="15.6819012947"></trkpt><trkpt lat="50.8645650186" lon="15.6814320758"></trkpt><trkpt lat="50.8644934371" lon="15.6809790339"></trkpt><trkpt lat="50.8640301693" lon="15.6808606815"></trkpt><trkpt lat="50.8594154287" lon="15.6789132301"></trkpt><trkpt lat="50.8590634726" lon="15.6785418279"></trkpt><trkpt lat="50.85875066" lon="15.6781160273"></trkpt><trkpt lat="50.8584707882" lon="15.6780407578"></trkpt><trkpt lat="50.8581463248" lon="15.6786846556"></trkpt><trkpt lat="50.8578817919" lon="15.678833602"></trkpt><trkpt lat="50.8576058596" lon="15.6787930336"></trkpt><trkpt lat="50.85714343" lon="15.6784803886"></trkpt><trkpt lat="50.8562062494" lon="15.6783993356"></trkpt><trkpt lat="50.8562052436" lon="15.678869728"></trkpt><trkpt lat="50.8565871231" lon="15.6791778468"></trkpt><trkpt lat="50.8571019396" lon="15.6797053199"></trkpt><trkpt lat="50.8571128361" lon="15.6803256646"></trkpt><trkpt lat="50.8571634628" lon="15.6809202768"></trkpt><trkpt lat="50.8568788972" lon="15.6807961408"></trkpt><trkpt lat="50.8570368122" lon="15.6804094836"></trkpt><trkpt lat="50.8574227151" lon="15.6800323818"></trkpt><trkpt lat="50.8579696342" lon="15.6793451495"></trkpt><trkpt lat="50.858105002" lon="15.6786887627"></trkpt><trkpt lat="50.8583190758" lon="15.6781279296"></trkpt><trkpt lat="50.8585804235" lon="15.6779979263"></trkpt><trkpt lat="50.8588878717" lon="15.6783538219"></trkpt><trkpt lat="50.860273065" lon="15.6796776596"></trkpt><trkpt lat="50.8604945149" lon="15.6799867004"></trkpt><trkpt lat="50.8608499076" lon="15.6803414226"></trkpt><trkpt lat="50.861342093" lon="15.6812542956"></trkpt><trkpt lat="50.8617088851" lon="15.6815837044"></trkpt><trkpt lat="50.862203585" lon="15.6817304716"></trkpt><trkpt lat="50.8629445452" lon="15.6816799287"></trkpt><trkpt lat="50.8631365746" lon="15.6819860358"></trkpt><trkpt lat="50.863445783" lon="15.6820598803"></trkpt><trkpt lat="50.8637881" lon="15.6816174835"></trkpt><trkpt lat="50.8641939517" lon="15.6814501807"></trkpt><trkpt lat="50.8646129631" lon="15.6811035052"></trkpt><trkpt lat="50.8650113549" lon="15.6810081191"></trkpt><trkpt lat="50.8652238362" lon="15.6807366293"></trkpt><trkpt lat="50.8651615586" lon="15.6811869889"></trkpt><trkpt lat="50.8651794959" lon="15.6820454635"></trkpt><trkpt lat="50.8651444595" lon="15.6826877687"></trkpt><trkpt lat="50.8649761509" lon="15.6840981077"></trkpt><trkpt lat="50.8651379216" lon="15.6844573561"></trkpt><trkpt lat="50.8657335397" lon="15.6846064702"></trkpt><trkpt lat="50.8666638471" lon="15.6845960766"></trkpt><trkpt lat="50.8668975346" lon="15.6842912268"></trkpt><trkpt lat="50.8671769872" lon="15.6842769776"></trkpt><trkpt lat="50.8673504088" lon="15.6848308537"></trkpt><trkpt lat="50.867172461" lon="15.685508782"></trkpt><trkpt lat="50.867177574" lon="15.6859847065"></trkpt><trkpt lat="50.8670616522" lon="15.6869973242"></trkpt><trkpt lat="50.8671010472" lon="15.6879995484"></trkpt><trkpt lat="50.8673525043" lon="15.6891333684"></trkpt><trkpt lat="50.8682323527" lon="15.6921192538"></trkpt><trkpt lat="50.8683241345" lon="15.6925535202"></trkpt><trkpt lat="50.8690395299" lon="15.695109833"></trkpt><trkpt lat="50.8692462277" lon="15.6955652218"></trkpt><trkpt lat="50.8694856986" lon="15.695841657"></trkpt><trkpt lat="50.869772695" lon="15.6960651185"></trkpt><trkpt lat="50.8705134038" lon="15.6961368676"></trkpt><trkpt lat="50.8710643463" lon="15.6963092834"></trkpt><trkpt lat="50.8715752233" lon="15.6967316475"></trkpt><trkpt lat="50.8718303684" lon="15.6970731262"></trkpt><trkpt lat="50.8760970086" lon="15.7015573606"></trkpt><trkpt lat="50.8764829114" lon="15.7017228194"></trkpt><trkpt lat="50.8769149985" lon="15.7013559435"></trkpt><trkpt lat="50.8775930107" lon="15.7017353084"></trkpt><trkpt lat="50.8779519238" lon="15.7020461094"></trkpt><trkpt lat="50.8784308657" lon="15.7029330824"></trkpt><trkpt lat="50.8786900342" lon="15.70331119"></trkpt><trkpt lat="50.8788526431" lon="15.7037069835"></trkpt><trkpt lat="50.8790632803" lon="15.7045465149"></trkpt><trkpt lat="50.8791821357" lon="15.7058927324"></trkpt><trkpt lat="50.8792552259" lon="15.7063875161"></trkpt><trkpt lat="50.8793842234" lon="15.706960503"></trkpt><trkpt lat="50.8791483566" lon="15.7072412129"></trkpt><trkpt lat="50.8786150161" lon="15.7076720428"></trkpt><trkpt lat="50.8783770539" lon="15.7079311274"></trkpt><trkpt lat="50.8788186125" lon="15.7091192622"></trkpt><trkpt lat="50.8792797849" lon="15.7098172233"></trkpt><trkpt lat="50.8816861454" lon="15.7127952296"></trkpt><trkpt lat="50.8820175659" lon="15.7127880212"></trkpt><trkpt lat="50.8823189791" lon="15.712720044"></trkpt><trkpt lat="50.8830174431" lon="15.712763546"></trkpt><trkpt lat="50.8833522163" lon="15.712952055"></trkpt><trkpt lat="50.8843795862" lon="15.7137019001"></trkpt><trkpt lat="50.8847259264" lon="15.7141113561"></trkpt><trkpt lat="50.8853217121" lon="15.7151324395"></trkpt><trkpt lat="50.8857130632" lon="15.7162788324"></trkpt><trkpt lat="50.8871311136" lon="15.7192938868"></trkpt><trkpt lat="50.8879563957" lon="15.7196834777"></trkpt><trkpt lat="50.8900645282" lon="15.7213493809"></trkpt><trkpt lat="50.8906166442" lon="15.7221030816"></trkpt><trkpt lat="50.8916932996" lon="15.7231990993"></trkpt><trkpt lat="50.8923354372" lon="15.7234093174"></trkpt><trkpt lat="50.8929083403" lon="15.7237538137"></trkpt><trkpt lat="50.893348055" lon="15.7244480029"></trkpt><trkpt lat="50.8936744463" lon="15.7253374904"></trkpt><trkpt lat="50.8950101025" lon="15.7280360442"></trkpt><trkpt lat="50.8955887053" lon="15.7285954524"></trkpt><trkpt lat="50.8959063794" lon="15.7289969455"></trkpt><trkpt lat="50.8961217944" lon="15.7293416932"></trkpt><trkpt lat="50.8985374589" lon="15.7322445139"></trkpt><trkpt lat="50.8990780916" lon="15.7324898522"></trkpt><trkpt lat="50.8997638151" lon="15.7326461747"></trkpt><trkpt lat="50.9010085277" lon="15.733147664"></trkpt><trkpt lat="50.9011175763" lon="15.7335697766"></trkpt><trkpt lat="50.9012787603" lon="15.7339213137"></trkpt><trkpt lat="50.9012873936" lon="15.7345429156"></trkpt><trkpt lat="50.9013629146" lon="15.7352417149"></trkpt><trkpt lat="50.9014579654" lon="15.7356581278"></trkpt><trkpt lat="50.9016344883" lon="15.7362042926"></trkpt><trkpt lat="50.9020288568" lon="15.736939637"></trkpt><trkpt lat="50.9025429189" lon="15.7375391945"></trkpt><trkpt lat="50.9027358703" lon="15.737844212"></trkpt><trkpt lat="50.9031346813" lon="15.7386892755"></trkpt></trkseg></trk></gpx>