<?xml version="1.0" encoding="UTF-8" standalone="no" ?><gpx xmlns="http://www.topografix.com/GPX/1/1" xmlns:gpxx="http://www.garmin.com/xmlschemas/GpxExtensions/v3" ><trk><trkseg><trkpt lat="52.2875766456" lon="17.8534006979"></trkpt><trkpt lat="52.2879115865" lon="17.8536830004"></trkpt><trkpt lat="52.2881646361" lon="17.8539741039"></trkpt><trkpt lat="52.2882557474" lon="17.855332559"></trkpt><trkpt lat="52.2892919183" lon="17.8629323468"></trkpt><trkpt lat="52.2896046471" lon="17.8642255906"></trkpt><trkpt lat="52.2896696068" lon="17.8648023494"></trkpt><trkpt lat="52.2896838561" lon="17.8655340057"></trkpt><trkpt lat="52.2896514181" lon="17.8664012812"></trkpt><trkpt lat="52.2893684451" lon="17.8669925407"></trkpt><trkpt lat="52.2894534376" lon="17.8674511984"></trkpt><trkpt lat="52.2894622386" lon="17.8680531029"></trkpt><trkpt lat="52.2893795092" lon="17.8690181952"></trkpt><trkpt lat="52.2889921814" lon="17.8716199379"></trkpt><trkpt lat="52.2888352722" lon="17.871985808"></trkpt><trkpt lat="52.2887492739" lon="17.8725789953"></trkpt><trkpt lat="52.2889667843" lon="17.8729244974"></trkpt><trkpt lat="52.289291583" lon="17.8730859328"></trkpt><trkpt lat="52.3057288304" lon="17.8839061316"></trkpt><trkpt lat="52.3054810613" lon="17.8850238584"></trkpt><trkpt lat="52.3052739445" lon="17.8873997927"></trkpt><trkpt lat="52.3056729231" lon="17.8880255017"></trkpt><trkpt lat="52.3060088698" lon="17.8887126502"></trkpt><trkpt lat="52.3067949247" lon="17.8900444508"></trkpt><trkpt lat="52.3073229007" lon="17.8903772961"></trkpt><trkpt lat="52.3231926933" lon="17.9047913197"></trkpt><trkpt lat="52.3224273417" lon="17.9065933451"></trkpt><trkpt lat="52.3222740367" lon="17.9072362371"></trkpt><trkpt lat="52.3222494777" lon="17.9076777957"></trkpt><trkpt lat="52.322350312" lon="17.9101751838"></trkpt><trkpt lat="52.32258467" lon="17.9117008578"></trkpt><trkpt lat="52.3238482419" lon="17.9176194873"></trkpt><trkpt lat="52.3241152894" lon="17.917688638"></trkpt><trkpt lat="52.3350220732" lon="17.9222880397"></trkpt><trkpt lat="52.3352881987" lon="17.9231666308"></trkpt><trkpt lat="52.336909594" lon="17.9272322729"></trkpt><trkpt lat="52.3376904521" lon="17.9279061779"></trkpt><trkpt lat="52.3385141417" lon="17.9283431266"></trkpt><trkpt lat="52.3391136155" lon="17.9285048973"></trkpt><trkpt lat="52.3405667022" lon="17.9283272848"></trkpt><trkpt lat="52.3412306327" lon="17.9281316511"></trkpt><trkpt lat="52.3452829476" lon="17.9282256961"></trkpt><trkpt lat="52.3457276914" lon="17.9289651476"></trkpt><trkpt lat="52.349384129" lon="17.9340141546"></trkpt><trkpt lat="52.3499950022" lon="17.9346953519"></trkpt><trkpt lat="52.3675622139" lon="17.9497699533"></trkpt><trkpt lat="52.3680835683" lon="17.9495070968"></trkpt><trkpt lat="52.3722124938" lon="17.9483557586"></trkpt><trkpt lat="52.3727227002" lon="17.9486818146"></trkpt><trkpt lat="52.3769522924" lon="17.9506961536"></trkpt><trkpt lat="52.3824436963" lon="17.9492092878"></trkpt><trkpt lat="52.3832170106" lon="17.949206857"></trkpt><trkpt lat="52.4013789184" lon="17.9465238098"></trkpt><trkpt lat="52.4011088535" lon="17.9461121745"></trkpt><trkpt lat="52.4014687724" lon="17.9467190243"></trkpt><trkpt lat="52.4024924543" lon="17.9500248469"></trkpt><trkpt lat="52.4020337965" lon="17.9504851811"></trkpt><trkpt lat="52.4015235901" lon="17.9508966487"></trkpt><trkpt lat="52.4012401979" lon="17.9510067031"></trkpt><trkpt lat="52.4008660298" lon="17.9510398116"></trkpt><trkpt lat="52.4004120659" lon="17.9509098921"></trkpt><trkpt lat="52.4000332039" lon="17.95004379"></trkpt><trkpt lat="52.3998272605" lon="17.9497246072"></trkpt><trkpt lat="52.4000619538" lon="17.9501053132"></trkpt><trkpt lat="52.40031383" lon="17.9506456945"></trkpt><trkpt lat="52.3999799788" lon="17.9508523084"></trkpt><trkpt lat="52.399509754" lon="17.9507651366"></trkpt><trkpt lat="52.3995372467" lon="17.9520112742"></trkpt><trkpt lat="52.3997060582" lon="17.9530009255"></trkpt><trkpt lat="52.4019195512" lon="17.9726605117"></trkpt><trkpt lat="52.4018056411" lon="17.9733895697"></trkpt><trkpt lat="52.3996331356" lon="17.9957349692"></trkpt><trkpt lat="52.3998345528" lon="17.9968094453"></trkpt><trkpt lat="52.3998659849" lon="17.9976507369"></trkpt><trkpt lat="52.400175361" lon="17.9990380257"></trkpt><trkpt lat="52.4008502718" lon="17.9998556804"></trkpt><trkpt lat="52.4011103623" lon="18.0000931397"></trkpt><trkpt lat="52.4019783083" lon="17.9984821379"></trkpt><trkpt lat="52.4022078048" lon="17.9978392459"></trkpt><trkpt lat="52.4023501296" lon="17.9970852099"></trkpt><trkpt lat="52.4032390304" lon="17.997503886"></trkpt><trkpt lat="52.4071493559" lon="17.9986132309"></trkpt><trkpt lat="52.4079163838" lon="17.998031443"></trkpt><trkpt lat="52.4084558431" lon="17.9977355618"></trkpt><trkpt lat="52.4093528744" lon="17.9976688419"></trkpt><trkpt lat="52.4139647651" lon="17.996632671"></trkpt><trkpt lat="52.4145328905" lon="17.9962434154"></trkpt><trkpt lat="52.4157616775" lon="17.9956250824"></trkpt><trkpt lat="52.4161886517" lon="17.9956185445"></trkpt><trkpt lat="52.4165642448" lon="17.9958769586"></trkpt><trkpt lat="52.4170679972" lon="17.9963758495"></trkpt><trkpt lat="52.4241355341" lon="18.0017191451"></trkpt><trkpt lat="52.4245962873" lon="18.0018521659"></trkpt><trkpt lat="52.425120743" lon="18.0022197124"></trkpt><trkpt lat="52.4256505631" lon="18.0027023423"></trkpt><trkpt lat="52.426864095" lon="18.0042012781"></trkpt><trkpt lat="52.4270148855" lon="18.0048217904"></trkpt><trkpt lat="52.4271143787" lon="18.0055934284"></trkpt><trkpt lat="52.4277560972" lon="18.009022465"></trkpt><trkpt lat="52.4282631185" lon="18.0096373614"></trkpt><trkpt lat="52.4285025056" lon="18.0111923721"></trkpt><trkpt lat="52.4286484346" lon="18.0106493924"></trkpt><trkpt lat="52.4286480993" lon="18.0100750644"></trkpt><trkpt lat="52.4281601049" lon="18.0107608717"></trkpt><trkpt lat="52.4277927261" lon="18.0111844931"></trkpt><trkpt lat="52.426694613" lon="18.0120993778"></trkpt><trkpt lat="52.4260508828" lon="18.0123048183"></trkpt><trkpt lat="52.4242229573" lon="18.0133560766"></trkpt><trkpt lat="52.4235131778" lon="18.0140668619"></trkpt><trkpt lat="52.4103794899" lon="18.0240954738"></trkpt><trkpt lat="52.4096058402" lon="18.0238211341"></trkpt><trkpt lat="52.4080856144" lon="18.0235204753"></trkpt><trkpt lat="52.4082145281" lon="18.0240098108"></trkpt><trkpt lat="52.4093919341" lon="18.0274316389"></trkpt><trkpt lat="52.4098809343" lon="18.0280565098"></trkpt><trkpt lat="52.412859695" lon="18.032830758"></trkpt><trkpt lat="52.413122803" lon="18.0337078404"></trkpt><trkpt lat="52.4175000004" lon="18.0522766896"></trkpt><trkpt lat="52.4174574204" lon="18.0532029737"></trkpt><trkpt lat="52.4175002519" lon="18.0548884906"></trkpt><trkpt lat="52.4177222047" lon="18.0553201586"></trkpt><trkpt lat="52.432931168" lon="18.0800542329"></trkpt><trkpt lat="52.4335766584" lon="18.0804673769"></trkpt><trkpt lat="52.4348527193" lon="18.0815240834"></trkpt><trkpt lat="52.441406697" lon="18.0882723536"></trkpt><trkpt lat="52.4420100264" lon="18.0890703946"></trkpt><trkpt lat="52.4432966486" lon="18.0900726188"></trkpt><trkpt lat="52.4439903349" lon="18.0903020315"></trkpt><trkpt lat="52.4468129408" lon="18.0916683655"></trkpt><trkpt lat="52.4469722807" lon="18.092033313600002"></trkpt><trkpt lat="52.4470988475" lon="18.0934904236"></trkpt><trkpt lat="52.4471244123" lon="18.0947499722"></trkpt><trkpt lat="52.4472353049" lon="18.0961245205"></trkpt><trkpt lat="52.4474588502" lon="18.0964036379"></trkpt><trkpt lat="52.4477673881" lon="18.0966936518"></trkpt><trkpt lat="52.4482951127" lon="18.0975381285"></trkpt><trkpt lat="52.4497870076" lon="18.1004849542"></trkpt><trkpt lat="52.450084649" lon="18.1012018584"></trkpt><trkpt lat="52.4526630063" lon="18.1062806211"></trkpt><trkpt lat="52.4529639166" lon="18.1060999911"></trkpt><trkpt lat="52.4567598291" lon="18.1046272907"></trkpt><trkpt lat="52.4588535447" lon="18.1050303765"></trkpt><trkpt lat="52.4603955634" lon="18.1058010086"></trkpt><trkpt lat="52.4612740707" lon="18.1064206827"></trkpt><trkpt lat="52.4629512057" lon="18.1072424445"></trkpt><trkpt lat="52.4629592523" lon="18.1058863364"></trkpt><trkpt lat="52.4641158711" lon="18.0979768373"></trkpt><trkpt lat="52.4648307636" lon="18.0981706269"></trkpt><trkpt lat="52.4712176062" lon="18.1012142636"></trkpt><trkpt lat="52.4716723245" lon="18.1018017512"></trkpt><trkpt lat="52.4752701726" lon="18.1075466238"></trkpt><trkpt lat="52.4757346138" lon="18.1085908413"></trkpt><trkpt lat="52.4779660441" lon="18.1151039992"></trkpt><trkpt lat="52.4780053552" lon="18.1156810932"></trkpt><trkpt lat="52.4786642566" lon="18.1197975297"></trkpt><trkpt lat="52.4789204076" lon="18.1205374841"></trkpt><trkpt lat="52.479637647" lon="18.1231396459"></trkpt><trkpt lat="52.4798334483" lon="18.1241184007"></trkpt><trkpt lat="52.4799503759" lon="18.1250944734"></trkpt><trkpt lat="52.4799802992" lon="18.1262614857"></trkpt><trkpt lat="52.4801870808" lon="18.128674468"></trkpt><trkpt lat="52.4804464169" lon="18.1298215315"></trkpt><trkpt lat="52.4808040727" lon="18.1327868812"></trkpt><trkpt lat="52.4808439706" lon="18.1342618447"></trkpt><trkpt lat="52.48209388" lon="18.1494654436"></trkpt><trkpt lat="52.482613055" lon="18.1501242612"></trkpt><trkpt lat="52.488898728" lon="18.1610840186"></trkpt><trkpt lat="52.4886329379" lon="18.1618613563"></trkpt><trkpt lat="52.4885160103" lon="18.1623193435"></trkpt><trkpt lat="52.4891931843" lon="18.1623747479"></trkpt><trkpt lat="52.4918210786" lon="18.1633111741"></trkpt><trkpt lat="52.4926380627" lon="18.1639566645"></trkpt><trkpt lat="52.5211577397" lon="18.18073011"></trkpt><trkpt lat="52.5215755776" lon="18.1799574662"></trkpt><trkpt lat="52.5241587125" lon="18.1759509165"></trkpt><trkpt lat="52.5270047039" lon="18.1705673877"></trkpt><trkpt lat="52.5506334566" lon="18.1331302878"></trkpt><trkpt lat="52.5509174354" lon="18.1329561956"></trkpt><trkpt lat="52.5529373903" lon="18.1320504472"></trkpt><trkpt lat="52.553141322" lon="18.1327208318"></trkpt><trkpt lat="52.5533087086" lon="18.1335573457"></trkpt><trkpt lat="52.5535379536" lon="18.134168135"></trkpt><trkpt lat="52.5540142972" lon="18.1344770081"></trkpt><trkpt lat="52.5554077048" lon="18.1357093994"></trkpt><trkpt lat="52.5555579085" lon="18.1360882614"></trkpt><trkpt lat="52.5558344275" lon="18.1362607609"></trkpt><trkpt lat="52.5723542366" lon="18.1218588911"></trkpt><trkpt lat="52.5721258298" lon="18.1206762884"></trkpt><trkpt lat="52.5712240208" lon="18.1140536629"></trkpt><trkpt lat="52.5718524959" lon="18.1146019232"></trkpt><trkpt lat="52.5873922929" lon="18.1252982374"></trkpt><trkpt lat="52.5895530637" lon="18.1272829045"></trkpt><trkpt lat="52.5909918174" lon="18.1281924248"></trkpt><trkpt lat="52.5913655665" lon="18.128320165"></trkpt><trkpt lat="52.5926756579" lon="18.128979234"></trkpt><trkpt lat="52.5934869424" lon="18.1292534061"></trkpt><trkpt lat="52.5955387484" lon="18.1293468643"></trkpt><trkpt lat="52.5965928566" lon="18.129111249"></trkpt><trkpt lat="52.5981414132" lon="18.1290764641"></trkpt><trkpt lat="52.5989433099" lon="18.1293527316"></trkpt><trkpt lat="52.5996400137" lon="18.130332157"></trkpt><trkpt lat="52.6200539712" lon="18.1527426001"></trkpt><trkpt lat="52.6200640295" lon="18.1513229571"></trkpt><trkpt lat="52.6197834034" lon="18.1479791645"></trkpt><trkpt lat="52.6196074672" lon="18.1474845484"></trkpt><trkpt lat="52.6176580042" lon="18.1429804489"></trkpt><trkpt lat="52.6014905702" lon="18.0976584926"></trkpt><trkpt lat="52.601231318" lon="18.0964533426"></trkpt><trkpt lat="52.5994565338" lon="18.0903215613"></trkpt><trkpt lat="52.5988952816" lon="18.0890672933"></trkpt><trkpt lat="52.5985797029" lon="18.088185098"></trkpt><trkpt lat="52.5940397289" lon="18.0716906022"></trkpt><trkpt lat="52.594180461" lon="18.0705984402"></trkpt><trkpt lat="52.6019659918" lon="18.0291910004"></trkpt><trkpt lat="52.6021605358" lon="18.0287555605"></trkpt><trkpt lat="52.6027149986" lon="18.0282016844"></trkpt><trkpt lat="52.6031478401" lon="18.027965901400002"></trkpt><trkpt lat="52.6048238855" lon="18.0267563928"></trkpt><trkpt lat="52.6045393199" lon="18.0266737472"></trkpt><trkpt lat="52.6039582025" lon="18.0266408902"></trkpt><trkpt lat="52.6009583194" lon="18.0260043684"></trkpt><trkpt lat="52.6010012347" lon="18.0253364146"></trkpt><trkpt lat="52.6009891648" lon="18.0246584862"></trkpt><trkpt lat="52.6008444931" lon="18.0263494514"></trkpt><trkpt lat="52.599998759099996" lon="18.0262838211"></trkpt><trkpt lat="52.5962320995" lon="18.0251527671"></trkpt><trkpt lat="52.5959130842" lon="18.0245149881"></trkpt><trkpt lat="52.5955842622" lon="18.0241818074"></trkpt><trkpt lat="52.595041953" lon="18.0237633828"></trkpt><trkpt lat="52.5936783012" lon="18.0224329233"></trkpt><trkpt lat="52.5869783945" lon="18.0143050756"></trkpt><trkpt lat="52.5865369197" lon="18.013201179"></trkpt><trkpt lat="52.5832566619" lon="18.0071893428"></trkpt><trkpt lat="52.582682753" lon="18.0072429869"></trkpt><trkpt lat="52.5764641352" lon="18.0089281686"></trkpt><trkpt lat="52.5760808308" lon="18.0092724133"></trkpt><trkpt lat="52.5757784955" lon="18.0094848946"></trkpt><trkpt lat="52.5755148847" lon="18.0096003134"></trkpt><trkpt lat="52.5746988226" lon="18.0096297339"></trkpt><trkpt lat="52.5741115864" lon="18.00917577"></trkpt><trkpt lat="52.5728128105" lon="18.0086263362"></trkpt><trkpt lat="52.5725266524" lon="18.0085799843"></trkpt><trkpt lat="52.5721044559" lon="18.0083401781"></trkpt><trkpt lat="52.5718460418" lon="18.0081235059"></trkpt><trkpt lat="52.5712559558" lon="18.0080839433"></trkpt><trkpt lat="52.5685136486" lon="18.0087941419"></trkpt><trkpt lat="52.5681034382" lon="18.0089825671"></trkpt><trkpt lat="52.5677912124" lon="18.0090614408"></trkpt><trkpt lat="52.5670847856" lon="18.0090114847"></trkpt><trkpt lat="52.5662997365" lon="18.0095698871"></trkpt><trkpt lat="52.5656424277" lon="18.0099055823"></trkpt><trkpt lat="52.5654036272" lon="18.0101313908"></trkpt><trkpt lat="52.5652231649" lon="18.0104913097"></trkpt><trkpt lat="52.5650665909" lon="18.0096944422"></trkpt><trkpt lat="52.5624165684" lon="17.9993899819"></trkpt><trkpt lat="52.5610378291" lon="17.9919452593"></trkpt><trkpt lat="52.5615475327" lon="17.9918843228"></trkpt><trkpt lat="52.5621251296" lon="17.9915462807"></trkpt><trkpt lat="52.5624034926" lon="17.9915347975"></trkpt><trkpt lat="52.5631616358" lon="17.9919305071"></trkpt><trkpt lat="52.5632418506" lon="17.9914976656"></trkpt><trkpt lat="52.5632395037" lon="17.9919637833"></trkpt><trkpt lat="52.5637350418" lon="17.9920705687"></trkpt><trkpt lat="52.5643629301" lon="17.9924302362"></trkpt><trkpt lat="52.5645008124" lon="17.9930358287"></trkpt><trkpt lat="52.5648476556" lon="17.993910145"></trkpt><trkpt lat="52.5650729612" lon="17.9943140689"></trkpt><trkpt lat="52.5656819902" lon="17.9946288094"></trkpt><trkpt lat="52.5663341861" lon="17.9946441483"></trkpt><trkpt lat="52.5674700178" lon="17.9944471736"></trkpt><trkpt lat="52.5677467044" lon="17.9943202715"></trkpt><trkpt lat="52.5778876338" lon="17.9913968313"></trkpt><trkpt lat="52.5797270425" lon="17.9916147608"></trkpt><trkpt lat="52.5820941757" lon="17.9923609179"></trkpt><trkpt lat="52.5824600458" lon="17.992409952"></trkpt><trkpt lat="52.5827360619" lon="17.9924962018"></trkpt><trkpt lat="52.5838363543" lon="17.9926422983"></trkpt><trkpt lat="52.5844126102" lon="17.9924571421"></trkpt><trkpt lat="52.5858826283" lon="17.9917553253"></trkpt><trkpt lat="52.586384871999996" lon="17.9912980087"></trkpt><trkpt lat="52.5878042635" lon="17.9897243064"></trkpt><trkpt lat="52.5880623423" lon="17.9892197158"></trkpt><trkpt lat="52.5896991603" lon="17.9853806365"></trkpt><trkpt lat="52.5914507266" lon="17.9802481458"></trkpt><trkpt lat="52.5927469041" lon="17.97550424"></trkpt><trkpt lat="52.5955126807" lon="17.9673768114"></trkpt><trkpt lat="52.5964650325" lon="17.9650769848"></trkpt><trkpt lat="52.6068924554" lon="17.9442469496"></trkpt><trkpt lat="52.6072864886" lon="17.9439501464"></trkpt><trkpt lat="52.609700812" lon="17.9427253827"></trkpt><trkpt lat="52.6100780815" lon="17.9423559085"></trkpt><trkpt lat="52.6102740504" lon="17.9420312773"></trkpt><trkpt lat="52.6100365911" lon="17.9410635028"></trkpt><trkpt lat="52.6099684462" lon="17.9394815024"></trkpt><trkpt lat="52.6100039016" lon="17.9362206906"></trkpt><trkpt lat="52.6103166305" lon="17.9342917632"></trkpt><trkpt lat="52.6122887246" lon="17.9110225104"></trkpt><trkpt lat="52.6116542984" lon="17.9092343152"></trkpt><trkpt lat="52.6106901281" lon="17.9058257304"></trkpt><trkpt lat="52.6108196285" lon="17.9047651682"></trkpt><trkpt lat="52.6111860014" lon="17.9040720686"></trkpt></trkseg></trk></gpx>