<?xml version="1.0" encoding="UTF-8" standalone="no" ?><gpx xmlns="http://www.topografix.com/GPX/1/1" xmlns:gpxx="http://www.garmin.com/xmlschemas/GpxExtensions/v3" ><trk><trkseg><trkpt lat="51.9518725388" lon="16.3314899057"></trkpt><trkpt lat="51.9515684433" lon="16.3316883892"></trkpt><trkpt lat="51.9518105127" lon="16.3314085174"></trkpt><trkpt lat="51.9519872032" lon="16.3310736604"></trkpt><trkpt lat="51.9522634707" lon="16.3307909388"></trkpt><trkpt lat="51.9525155146" lon="16.3304251526"></trkpt><trkpt lat="51.9523051288" lon="16.3300741185"></trkpt><trkpt lat="51.9520579465" lon="16.3298536744"></trkpt><trkpt lat="51.9518442079" lon="16.3295473158"></trkpt><trkpt lat="51.9515790883" lon="16.3290899992"></trkpt><trkpt lat="51.9504285045" lon="16.3266041782"></trkpt><trkpt lat="51.9501881953" lon="16.3263315987"></trkpt><trkpt lat="51.9504629541" lon="16.3265095465"></trkpt><trkpt lat="51.9501632173" lon="16.3263353705"></trkpt><trkpt lat="51.9498455431" lon="16.3259649742"></trkpt><trkpt lat="51.9497105107" lon="16.3255547639"></trkpt><trkpt lat="51.9494417869" lon="16.3251700345"></trkpt><trkpt lat="51.9487594999" lon="16.3239810616"></trkpt><trkpt lat="51.9485591725" lon="16.3234283589"></trkpt><trkpt lat="51.9483647123" lon="16.3230196573"></trkpt><trkpt lat="51.9482061267" lon="16.3225122169"></trkpt><trkpt lat="51.9479640573" lon="16.3219969813"></trkpt><trkpt lat="51.9482047856" lon="16.3215609547"></trkpt><trkpt lat="51.9478503149" lon="16.3217211328"></trkpt><trkpt lat="51.947642779" lon="16.3211903907"></trkpt><trkpt lat="51.9474899769" lon="16.3206034061"></trkpt><trkpt lat="51.9472806808" lon="16.3203109615"></trkpt><trkpt lat="51.9469765853" lon="16.3197336998"></trkpt><trkpt lat="51.9467742462" lon="16.3192436937"></trkpt><trkpt lat="51.9464244694" lon="16.3185470738"></trkpt><trkpt lat="51.9462473597" lon="16.3180728257"></trkpt><trkpt lat="51.9461237267" lon="16.3175526448"></trkpt><trkpt lat="51.9459209684" lon="16.31711578"></trkpt><trkpt lat="51.9456493109" lon="16.3169527519"></trkpt><trkpt lat="51.9447993021" lon="16.3165841997"></trkpt><trkpt lat="51.9446042553" lon="16.3161961176"></trkpt><trkpt lat="51.9445457496" lon="16.3154927082"></trkpt><trkpt lat="51.9439375587" lon="16.3111926243"></trkpt><trkpt lat="51.9437190425" lon="16.310623493"></trkpt><trkpt lat="51.940211216" lon="16.2994090933"></trkpt><trkpt lat="51.9402806181" lon="16.2987517845"></trkpt><trkpt lat="51.9400790334" lon="16.2983278278"></trkpt><trkpt lat="51.9397746027" lon="16.2981113233"></trkpt><trkpt lat="51.9394720159" lon="16.2977828365"></trkpt><trkpt lat="51.9391997717" lon="16.2976345606"></trkpt><trkpt lat="51.9390548486" lon="16.2972438801"></trkpt><trkpt lat="51.9388246816" lon="16.2967958674"></trkpt><trkpt lat="51.9369348977" lon="16.2938677333"></trkpt><trkpt lat="51.9366976898" lon="16.2944171671"></trkpt><trkpt lat="51.9365878869" lon="16.2949444726"></trkpt><trkpt lat="51.9364738092" lon="16.295861369"></trkpt><trkpt lat="51.9361547101" lon="16.2962272391"></trkpt><trkpt lat="51.9359915145" lon="16.2966213562"></trkpt><trkpt lat="51.9361664448" lon="16.2962093856"></trkpt><trkpt lat="51.9364441372" lon="16.2960538175"></trkpt><trkpt lat="51.9365743082" lon="16.2954215705"></trkpt><trkpt lat="51.9366331492" lon="16.2948302273"></trkpt><trkpt lat="51.9367176387" lon="16.2943868246"></trkpt><trkpt lat="51.9368371647" lon="16.2939336989"></trkpt><trkpt lat="51.9370687567" lon="16.2935690023"></trkpt><trkpt lat="51.9368742965" lon="16.293204641"></trkpt><trkpt lat="51.9367172197" lon="16.2928127032"></trkpt><trkpt lat="51.9366021361" lon="16.292379275"></trkpt><trkpt lat="51.9368141983" lon="16.2919675559"></trkpt><trkpt lat="51.9370277692" lon="16.2916967366"></trkpt><trkpt lat="51.9372923858" lon="16.2914245762"></trkpt><trkpt lat="51.9375125784" lon="16.2911070697"></trkpt><trkpt lat="51.9381838851" lon="16.2898939569"></trkpt><trkpt lat="51.9383013155" lon="16.2892509811"></trkpt><trkpt lat="51.9383547083" lon="16.2886752281"></trkpt><trkpt lat="51.9388251007" lon="16.275631059"></trkpt><trkpt lat="51.9386460632" lon="16.2749507837"></trkpt><trkpt lat="51.9384835381" lon="16.274141008"></trkpt><trkpt lat="51.9384702947" lon="16.2736075837"></trkpt><trkpt lat="51.9384922553" lon="16.273163259"></trkpt><trkpt lat="51.9388800859" lon="16.2694384251"></trkpt><trkpt lat="51.9389060698" lon="16.2688239478"></trkpt><trkpt lat="51.9389676768" lon="16.2683568243"></trkpt><trkpt lat="51.9395448547" lon="16.2601114623"></trkpt><trkpt lat="51.9393120892" lon="16.2596939597"></trkpt><trkpt lat="51.9390557706" lon="16.259369161"></trkpt><trkpt lat="51.9386640843" lon="16.2592776306"></trkpt><trkpt lat="51.9378533028" lon="16.2596471887"></trkpt><trkpt lat="51.9375980739" lon="16.2598119769"></trkpt><trkpt lat="51.9358197693" lon="16.2606125325"></trkpt><trkpt lat="51.9355186913" lon="16.2605521828"></trkpt><trkpt lat="51.9352049567" lon="16.2604068406"></trkpt><trkpt lat="51.9349291082" lon="16.2602273002"></trkpt><trkpt lat="51.9338742457" lon="16.2592980824"></trkpt><trkpt lat="51.9336728286" lon="16.2589172088"></trkpt><trkpt lat="51.9330469519" lon="16.2579408009"></trkpt><trkpt lat="51.9327086583" lon="16.2571804784"></trkpt><trkpt lat="51.9324602187" lon="16.256987527"></trkpt><trkpt lat="51.9322249386" lon="16.2566514965"></trkpt><trkpt lat="51.9318628404" lon="16.2563774921"></trkpt><trkpt lat="51.9315206911" lon="16.2564749736"></trkpt><trkpt lat="51.9312641211" lon="16.2567742076"></trkpt><trkpt lat="51.930831112" lon="16.2571868487"></trkpt><trkpt lat="51.9305910543" lon="16.2576579954"></trkpt><trkpt lat="51.9304398447" lon="16.2580864783"></trkpt><trkpt lat="51.9301987812" lon="16.2585582118"></trkpt><trkpt lat="51.9299348351" lon="16.2589456234"></trkpt><trkpt lat="51.9275478367" lon="16.2618499529"></trkpt><trkpt lat="51.9271929469" lon="16.2619747594"></trkpt><trkpt lat="51.9269346166" lon="16.2621701416"></trkpt><trkpt lat="51.9266686589" lon="16.2623263802"></trkpt><trkpt lat="51.9263659883" lon="16.2624521926"></trkpt><trkpt lat="51.9260960072" lon="16.2625196669"></trkpt><trkpt lat="51.9256066717" lon="16.2622910086"></trkpt><trkpt lat="51.925318921" lon="16.2620479334"></trkpt><trkpt lat="51.9251229521" lon="16.261643758"></trkpt><trkpt lat="51.9253371935" lon="16.2619825546"></trkpt><trkpt lat="51.9255993795" lon="16.2623106223"></trkpt><trkpt lat="51.9258458912" lon="16.2625323236"></trkpt><trkpt lat="51.9256191608" lon="16.2628562842"></trkpt><trkpt lat="51.9255893212" lon="16.2634032033"></trkpt><trkpt lat="51.9257276226" lon="16.2638981547"></trkpt><trkpt lat="51.9257793389" lon="16.2644338422"></trkpt><trkpt lat="51.9256104436" lon="16.2650324777"></trkpt><trkpt lat="51.9256231841" lon="16.2655739486"></trkpt><trkpt lat="51.925605163" lon="16.2660984881"></trkpt><trkpt lat="51.9256751519" lon="16.2666868977"></trkpt><trkpt lat="51.9257655088" lon="16.267099455"></trkpt><trkpt lat="51.9257178996" lon="16.2676043808"></trkpt><trkpt lat="51.9255838729" lon="16.2680085562"></trkpt><trkpt lat="51.9227206986" lon="16.2749621831"></trkpt><trkpt lat="51.9224363007" lon="16.2750408053"></trkpt><trkpt lat="51.9224238116" lon="16.275492087"></trkpt><trkpt lat="51.9224570878" lon="16.2764197122"></trkpt><trkpt lat="51.9224221352" lon="16.276931176"></trkpt><trkpt lat="51.9226874225" lon="16.2772439048"></trkpt><trkpt lat="51.9227824733" lon="16.2777023111"></trkpt><trkpt lat="51.9226222113" lon="16.2782457098"></trkpt><trkpt lat="51.9224079698" lon="16.2793636881"></trkpt><trkpt lat="51.9222505577" lon="16.2798127066"></trkpt><trkpt lat="51.922009578" lon="16.2807264179"></trkpt><trkpt lat="51.9203105662" lon="16.2891466264"></trkpt><trkpt lat="51.920256" lon="16.2895969022"></trkpt><trkpt lat="51.9201333728" lon="16.2901732419"></trkpt><trkpt lat="51.9203330297" lon="16.2897745986"></trkpt><trkpt lat="51.9205889292" lon="16.2900454178"></trkpt><trkpt lat="51.9213416241" lon="16.2910390086"></trkpt><trkpt lat="51.921627447" lon="16.2912027072"></trkpt><trkpt lat="51.9219161198" lon="16.2911016215"></trkpt><trkpt lat="51.9222295191" lon="16.2906587217"></trkpt><trkpt lat="51.9224802218" lon="16.2904904969"></trkpt><trkpt lat="51.9227840658" lon="16.290459903"></trkpt><trkpt lat="51.9231170788" lon="16.2906392757"></trkpt><trkpt lat="51.9234723877" lon="16.2906691991"></trkpt><trkpt lat="51.9241460413" lon="16.2905096915"></trkpt><trkpt lat="51.9245211314" lon="16.2902358547"></trkpt><trkpt lat="51.924720034" lon="16.2898655422"></trkpt><trkpt lat="51.9250499457" lon="16.2895488739"></trkpt><trkpt lat="51.9254487567" lon="16.2892668229"></trkpt><trkpt lat="51.9257939234" lon="16.2893399969"></trkpt><trkpt lat="51.9278503396" lon="16.2886036467"></trkpt><trkpt lat="51.9282402657" lon="16.2883385271"></trkpt><trkpt lat="51.9285846781" lon="16.2882814463"></trkpt><trkpt lat="51.9289213791" lon="16.288402481"></trkpt><trkpt lat="51.9291762728" lon="16.2882477511"></trkpt><trkpt lat="51.9295682106" lon="16.2882459071"></trkpt><trkpt lat="51.9299262855" lon="16.288334839"></trkpt><trkpt lat="51.9306329638" lon="16.2886654213"></trkpt><trkpt lat="51.93092281" lon="16.2888682634"></trkpt><trkpt lat="51.9312685635" lon="16.2889621407"></trkpt><trkpt lat="51.9316628482" lon="16.2891290244"></trkpt><trkpt lat="51.9319835398" lon="16.2893258315"></trkpt><trkpt lat="51.9322594721" lon="16.2894244026"></trkpt><trkpt lat="51.9326919783" lon="16.289710477"></trkpt><trkpt lat="51.9329842553" lon="16.2898125686"></trkpt><trkpt lat="51.9335812144" lon="16.2901356071"></trkpt><trkpt lat="51.9342707936" lon="16.2903859746"></trkpt><trkpt lat="51.9345502462" lon="16.2905548699"></trkpt><trkpt lat="51.9349261746" lon="16.2907158863"></trkpt><trkpt lat="51.9352022745" lon="16.2908950914"></trkpt><trkpt lat="51.9355801307" lon="16.2910586223"></trkpt><trkpt lat="51.9358924404" lon="16.2913985923"></trkpt><trkpt lat="51.9360882416" lon="16.2917261571"></trkpt><trkpt lat="51.9365557004" lon="16.2926637568"></trkpt><trkpt lat="51.9368374161" lon="16.2930783257"></trkpt><trkpt lat="51.937067667" lon="16.2935620453"></trkpt><trkpt lat="51.9373268355" lon="16.2939895224"></trkpt><trkpt lat="51.9383396208" lon="16.2959984131"></trkpt><trkpt lat="51.938569285" lon="16.29637409"></trkpt><trkpt lat="51.9391548447" lon="16.2975346483"></trkpt><trkpt lat="51.9394310284" lon="16.2977236602"></trkpt><trkpt lat="51.9396807253" lon="16.2979850918"></trkpt><trkpt lat="51.9403204322" lon="16.2984909397"></trkpt><trkpt lat="51.940664174" lon="16.2985354476"></trkpt><trkpt lat="51.9410159625" lon="16.2987924367"></trkpt><trkpt lat="51.9412787352" lon="16.2989226915"></trkpt><trkpt lat="51.9416023605" lon="16.2988940254"></trkpt><trkpt lat="51.9412956666" lon="16.2988822907"></trkpt><trkpt lat="51.9410211593" lon="16.2987263035"></trkpt><trkpt lat="51.9403632637" lon="16.2985481881"></trkpt><trkpt lat="51.9402831327" lon="16.2989814486"></trkpt><trkpt lat="51.9402073603" lon="16.2997342274"></trkpt><trkpt lat="51.9402409717" lon="16.3002279215"></trkpt><trkpt lat="51.9404079393" lon="16.3007716555"></trkpt><trkpt lat="51.9444801193" lon="16.313834684"></trkpt><trkpt lat="51.9444833882" lon="16.3143374305"></trkpt><trkpt lat="51.9445287343" lon="16.3148123492"></trkpt><trkpt lat="51.9445262197" lon="16.3154337835"></trkpt><trkpt lat="51.9446074404" lon="16.3158909325"></trkpt><trkpt lat="51.944671981" lon="16.3164373487"></trkpt><trkpt lat="51.9448288903" lon="16.3172559254"></trkpt><trkpt lat="51.945024021" lon="16.3177082129"></trkpt><trkpt lat="51.9452349935" lon="16.3180936128"></trkpt><trkpt lat="51.950768223" lon="16.3296555262"></trkpt><trkpt lat="51.9509551395" lon="16.3303829078"></trkpt><trkpt lat="51.9512326643" lon="16.3307260629"></trkpt><trkpt lat="51.9514225982" lon="16.3311751653"></trkpt><trkpt lat="51.9516826887" lon="16.33151941"></trkpt></trkseg></trk></gpx>