<?xml version="1.0" encoding="UTF-8" standalone="no" ?><gpx xmlns="http://www.topografix.com/GPX/1/1" xmlns:gpxx="http://www.garmin.com/xmlschemas/GpxExtensions/v3" ><trk><trkseg><trkpt lat="52.28023" lon="16.709415"></trkpt><trkpt lat="52.279966" lon="16.709152"></trkpt><trkpt lat="52.279154" lon="16.708499"></trkpt><trkpt lat="52.278823" lon="16.708585"></trkpt><trkpt lat="52.27849" lon="16.70892"></trkpt><trkpt lat="52.273659" lon="16.714799"></trkpt><trkpt lat="52.273343" lon="16.715315"></trkpt><trkpt lat="52.269807" lon="16.722246"></trkpt><trkpt lat="52.26963" lon="16.722849"></trkpt><trkpt lat="52.264936" lon="16.735759"></trkpt><trkpt lat="52.264644" lon="16.736298"></trkpt><trkpt lat="52.262605" lon="16.740854"></trkpt><trkpt lat="52.262405" lon="16.741414"></trkpt><trkpt lat="52.259052" lon="16.749148"></trkpt><trkpt lat="52.258734" lon="16.749546"></trkpt><trkpt lat="52.258353" lon="16.750118"></trkpt><trkpt lat="52.258578" lon="16.749813"></trkpt><trkpt lat="52.259915" lon="16.748309"></trkpt><trkpt lat="52.260158" lon="16.747967"></trkpt><trkpt lat="52.260669" lon="16.747423"></trkpt><trkpt lat="52.260992" lon="16.747326"></trkpt><trkpt lat="52.261256" lon="16.74752"></trkpt><trkpt lat="52.261503" lon="16.747802"></trkpt><trkpt lat="52.261679" lon="16.748137"></trkpt><trkpt lat="52.262031" lon="16.748644"></trkpt><trkpt lat="52.262311" lon="16.748935"></trkpt><trkpt lat="52.262748" lon="16.749104"></trkpt><trkpt lat="52.265455" lon="16.749502"></trkpt><trkpt lat="52.265494" lon="16.748868"></trkpt><trkpt lat="52.265663" lon="16.747682"></trkpt><trkpt lat="52.266625" lon="16.736276"></trkpt><trkpt lat="52.266602" lon="16.735693"></trkpt><trkpt lat="52.266616" lon="16.734733"></trkpt></trkseg></trk></gpx>