<?xml version="1.0" encoding="UTF-8" standalone="no" ?><gpx xmlns="http://www.topografix.com/GPX/1/1" xmlns:gpxx="http://www.garmin.com/xmlschemas/GpxExtensions/v3" ><trk><trkseg><trkpt lat="50.883367" lon="15.871228"></trkpt><trkpt lat="50.883239" lon="15.871721"></trkpt><trkpt lat="50.883018" lon="15.872161"></trkpt><trkpt lat="50.882393" lon="15.873172"></trkpt><trkpt lat="50.882025" lon="15.87351"></trkpt><trkpt lat="50.881706" lon="15.873746"></trkpt><trkpt lat="50.881423" lon="15.873586"></trkpt><trkpt lat="50.881264" lon="15.873188"></trkpt><trkpt lat="50.880472" lon="15.871556"></trkpt><trkpt lat="50.879532" lon="15.870063"></trkpt><trkpt lat="50.879352" lon="15.870591"></trkpt><trkpt lat="50.878911" lon="15.87163"></trkpt><trkpt lat="50.878557" lon="15.871632"></trkpt><trkpt lat="50.878296" lon="15.871423"></trkpt><trkpt lat="50.878322" lon="15.870822"></trkpt><trkpt lat="50.878542" lon="15.868934"></trkpt><trkpt lat="50.878716" lon="15.868363"></trkpt><trkpt lat="50.878888" lon="15.868029"></trkpt><trkpt lat="50.879172" lon="15.86764"></trkpt><trkpt lat="50.879529" lon="15.867339"></trkpt><trkpt lat="50.879778" lon="15.866915"></trkpt><trkpt lat="50.879987" lon="15.866451"></trkpt><trkpt lat="50.880243" lon="15.866038"></trkpt><trkpt lat="50.880855" lon="15.865244"></trkpt><trkpt lat="50.881174" lon="15.864942"></trkpt><trkpt lat="50.881478" lon="15.864743"></trkpt><trkpt lat="50.882285" lon="15.863866"></trkpt><trkpt lat="50.882297" lon="15.863194"></trkpt><trkpt lat="50.882368" lon="15.862619"></trkpt><trkpt lat="50.882509" lon="15.861936"></trkpt><trkpt lat="50.882765" lon="15.861398"></trkpt><trkpt lat="50.883167" lon="15.860358"></trkpt><trkpt lat="50.883189" lon="15.859845"></trkpt><trkpt lat="50.883266" lon="15.859079"></trkpt><trkpt lat="50.883398" lon="15.858615"></trkpt><trkpt lat="50.883248" lon="15.858015"></trkpt><trkpt lat="50.882921" lon="15.857713"></trkpt><trkpt lat="50.88268" lon="15.857309"></trkpt><trkpt lat="50.882308" lon="15.856847"></trkpt><trkpt lat="50.882038" lon="15.856814"></trkpt><trkpt lat="50.881662" lon="15.856487"></trkpt><trkpt lat="50.881316" lon="15.856246"></trkpt><trkpt lat="50.880924" lon="15.856064"></trkpt><trkpt lat="50.88058" lon="15.855802"></trkpt><trkpt lat="50.880297" lon="15.855501"></trkpt><trkpt lat="50.880015" lon="15.855032"></trkpt><trkpt lat="50.879596" lon="15.854067"></trkpt><trkpt lat="50.879455" lon="15.853606"></trkpt><trkpt lat="50.879161" lon="15.853328"></trkpt><trkpt lat="50.878853" lon="15.853116"></trkpt><trkpt lat="50.878572" lon="15.852784"></trkpt><trkpt lat="50.878377" lon="15.852209"></trkpt><trkpt lat="50.878288" lon="15.851735"></trkpt><trkpt lat="50.878119" lon="15.851399"></trkpt><trkpt lat="50.87785" lon="15.851068"></trkpt><trkpt lat="50.874859" lon="15.84667"></trkpt><trkpt lat="50.874645" lon="15.846101"></trkpt><trkpt lat="50.874509" lon="15.845646"></trkpt><trkpt lat="50.874358" lon="15.844724"></trkpt><trkpt lat="50.874116" lon="15.843733"></trkpt><trkpt lat="50.87394" lon="15.842745"></trkpt><trkpt lat="50.873744" lon="15.842238"></trkpt><trkpt lat="50.873511" lon="15.841866"></trkpt><trkpt lat="50.873206" lon="15.841952"></trkpt><trkpt lat="50.873052" lon="15.841553"></trkpt><trkpt lat="50.872945" lon="15.840934"></trkpt><trkpt lat="50.873026" lon="15.840477"></trkpt><trkpt lat="50.873047" lon="15.83993"></trkpt><trkpt lat="50.872972" lon="15.83886"></trkpt><trkpt lat="50.872777" lon="15.83852"></trkpt><trkpt lat="50.872573" lon="15.838054"></trkpt><trkpt lat="50.872438" lon="15.837562"></trkpt><trkpt lat="50.872366" lon="15.837048"></trkpt><trkpt lat="50.872268" lon="15.836563"></trkpt><trkpt lat="50.871631" lon="15.834171"></trkpt><trkpt lat="50.871354" lon="15.833641"></trkpt><trkpt lat="50.871242" lon="15.833236"></trkpt><trkpt lat="50.871096" lon="15.832851"></trkpt><trkpt lat="50.870881" lon="15.832505"></trkpt><trkpt lat="50.870551" lon="15.832415"></trkpt><trkpt lat="50.870243" lon="15.832439"></trkpt><trkpt lat="50.869665" lon="15.832241"></trkpt><trkpt lat="50.869392" lon="15.831858"></trkpt><trkpt lat="50.869198" lon="15.831444"></trkpt><trkpt lat="50.86896" lon="15.831104"></trkpt><trkpt lat="50.868755" lon="15.830733"></trkpt><trkpt lat="50.868788" lon="15.83005"></trkpt><trkpt lat="50.869075" lon="15.829838"></trkpt><trkpt lat="50.869377" lon="15.829687"></trkpt><trkpt lat="50.869695" lon="15.829355"></trkpt><trkpt lat="50.869661" lon="15.828922"></trkpt><trkpt lat="50.869527" lon="15.828507"></trkpt><trkpt lat="50.869301" lon="15.828046"></trkpt><trkpt lat="50.869017" lon="15.828158"></trkpt><trkpt lat="50.86928" lon="15.828332"></trkpt><trkpt lat="50.869278" lon="15.827847"></trkpt><trkpt lat="50.869055" lon="15.827503"></trkpt><trkpt lat="50.868669" lon="15.827009"></trkpt><trkpt lat="50.868363" lon="15.826837"></trkpt><trkpt lat="50.868078" lon="15.826758"></trkpt><trkpt lat="50.867866" lon="15.826325"></trkpt><trkpt lat="50.867653" lon="15.825983"></trkpt><trkpt lat="50.867001" lon="15.825155"></trkpt><trkpt lat="50.866798" lon="15.82465"></trkpt><trkpt lat="50.866734" lon="15.824107"></trkpt><trkpt lat="50.866773" lon="15.823434"></trkpt><trkpt lat="50.867155" lon="15.820801"></trkpt><trkpt lat="50.867396" lon="15.820435"></trkpt><trkpt lat="50.867558" lon="15.819857"></trkpt><trkpt lat="50.867627" lon="15.819303"></trkpt><trkpt lat="50.867885" lon="15.818822"></trkpt><trkpt lat="50.868117" lon="15.81848"></trkpt><trkpt lat="50.868306" lon="15.81814"></trkpt><trkpt lat="50.871578" lon="15.813359"></trkpt><trkpt lat="50.871848" lon="15.813267"></trkpt><trkpt lat="50.872204" lon="15.813294"></trkpt><trkpt lat="50.872774" lon="15.813124"></trkpt><trkpt lat="50.873032" lon="15.812688"></trkpt><trkpt lat="50.87325" lon="15.812159"></trkpt><trkpt lat="50.874008" lon="15.810635"></trkpt><trkpt lat="50.874252" lon="15.810438"></trkpt><trkpt lat="50.874682" lon="15.810004"></trkpt><trkpt lat="50.876056" lon="15.808902"></trkpt><trkpt lat="50.876004" lon="15.809388"></trkpt><trkpt lat="50.87601" lon="15.808906"></trkpt><trkpt lat="50.876285" lon="15.808943"></trkpt><trkpt lat="50.876526" lon="15.808549"></trkpt><trkpt lat="50.876801" lon="15.808344"></trkpt><trkpt lat="50.877196" lon="15.80797"></trkpt><trkpt lat="50.877419" lon="15.808428"></trkpt><trkpt lat="50.877582" lon="15.808854"></trkpt><trkpt lat="50.877663" lon="15.809477"></trkpt><trkpt lat="50.877763" lon="15.810926"></trkpt><trkpt lat="50.877409" lon="15.811327"></trkpt><trkpt lat="50.877222" lon="15.811755"></trkpt><trkpt lat="50.876848" lon="15.812811"></trkpt><trkpt lat="50.876738" lon="15.813313"></trkpt><trkpt lat="50.876686" lon="15.813934"></trkpt><trkpt lat="50.876945" lon="15.814145"></trkpt><trkpt lat="50.877356" lon="15.813994"></trkpt><trkpt lat="50.877977" lon="15.813869"></trkpt><trkpt lat="50.878343" lon="15.814043"></trkpt><trkpt lat="50.878627" lon="15.814258"></trkpt><trkpt lat="50.878886" lon="15.814403"></trkpt><trkpt lat="50.87953" lon="15.81488"></trkpt><trkpt lat="50.879872" lon="15.815"></trkpt><trkpt lat="50.880413" lon="15.815272"></trkpt><trkpt lat="50.881488" lon="15.816091"></trkpt><trkpt lat="50.881673" lon="15.816473"></trkpt><trkpt lat="50.884145" lon="15.822685"></trkpt><trkpt lat="50.884139" lon="15.823193"></trkpt><trkpt lat="50.884044" lon="15.823873"></trkpt><trkpt lat="50.884112" lon="15.824895"></trkpt><trkpt lat="50.884416" lon="15.825044"></trkpt><trkpt lat="50.884587" lon="15.825578"></trkpt><trkpt lat="50.885051" lon="15.826684"></trkpt><trkpt lat="50.885309" lon="15.826911"></trkpt><trkpt lat="50.885648" lon="15.827087"></trkpt><trkpt lat="50.88745" lon="15.827697"></trkpt><trkpt lat="50.888216" lon="15.827572"></trkpt><trkpt lat="50.890783" lon="15.828369"></trkpt><trkpt lat="50.891033" lon="15.828911"></trkpt><trkpt lat="50.891315" lon="15.829354"></trkpt><trkpt lat="50.891485" lon="15.829822"></trkpt><trkpt lat="50.891433" lon="15.830278"></trkpt><trkpt lat="50.891202" lon="15.834738"></trkpt><trkpt lat="50.891283" lon="15.835361"></trkpt><trkpt lat="50.89142" lon="15.835792"></trkpt><trkpt lat="50.891577" lon="15.836164"></trkpt><trkpt lat="50.891956" lon="15.836859"></trkpt><trkpt lat="50.8922" lon="15.83715"></trkpt><trkpt lat="50.892453" lon="15.837517"></trkpt><trkpt lat="50.892209" lon="15.837728"></trkpt><trkpt lat="50.891744" lon="15.83827"></trkpt><trkpt lat="50.891554" lon="15.838614"></trkpt><trkpt lat="50.891244" lon="15.839032"></trkpt><trkpt lat="50.890889" lon="15.839236"></trkpt><trkpt lat="50.890346" lon="15.839451"></trkpt><trkpt lat="50.890023" lon="15.839525"></trkpt><trkpt lat="50.889759" lon="15.839712"></trkpt><trkpt lat="50.889471" lon="15.839841"></trkpt><trkpt lat="50.889118" lon="15.839924"></trkpt><trkpt lat="50.887308" lon="15.840051"></trkpt><trkpt lat="50.887055" lon="15.839859"></trkpt><trkpt lat="50.886787" lon="15.839531"></trkpt><trkpt lat="50.886432" lon="15.839572"></trkpt><trkpt lat="50.884429" lon="15.838999"></trkpt><trkpt lat="50.884146" lon="15.838767"></trkpt><trkpt lat="50.883876" lon="15.838605"></trkpt><trkpt lat="50.883289" lon="15.838391"></trkpt><trkpt lat="50.882999" lon="15.838412"></trkpt><trkpt lat="50.882518" lon="15.83853"></trkpt><trkpt lat="50.88234" lon="15.838996"></trkpt><trkpt lat="50.882079" lon="15.839403"></trkpt><trkpt lat="50.881807" lon="15.839733"></trkpt><trkpt lat="50.881535" lon="15.839971"></trkpt><trkpt lat="50.881173" lon="15.840167"></trkpt><trkpt lat="50.88081" lon="15.840223"></trkpt><trkpt lat="50.880548" lon="15.84037"></trkpt><trkpt lat="50.88031" lon="15.840607"></trkpt><trkpt lat="50.880092" lon="15.840942"></trkpt><trkpt lat="50.879915" lon="15.841391"></trkpt><trkpt lat="50.879712" lon="15.841772"></trkpt><trkpt lat="50.879299" lon="15.842376"></trkpt><trkpt lat="50.878998" lon="15.842463"></trkpt><trkpt lat="50.87864" lon="15.842429"></trkpt><trkpt lat="50.874372" lon="15.841282"></trkpt><trkpt lat="50.874171" lon="15.84081"></trkpt><trkpt lat="50.874" lon="15.840265"></trkpt><trkpt lat="50.873939" lon="15.83979"></trkpt><trkpt lat="50.873929" lon="15.839304"></trkpt><trkpt lat="50.873974" lon="15.83854"></trkpt><trkpt lat="50.873976" lon="15.834725"></trkpt><trkpt lat="50.873795" lon="15.834364"></trkpt><trkpt lat="50.873653" lon="15.833945"></trkpt><trkpt lat="50.872722" lon="15.831701"></trkpt><trkpt lat="50.872547" lon="15.831366"></trkpt><trkpt lat="50.870912" lon="15.827605"></trkpt><trkpt lat="50.87088" lon="15.827171"></trkpt><trkpt lat="50.870815" lon="15.826708"></trkpt><trkpt lat="50.870855" lon="15.825984"></trkpt><trkpt lat="50.870737" lon="15.825144"></trkpt><trkpt lat="50.870596" lon="15.82469"></trkpt><trkpt lat="50.870353" lon="15.823659"></trkpt><trkpt lat="50.870336" lon="15.823086"></trkpt><trkpt lat="50.870351" lon="15.822654"></trkpt><trkpt lat="50.870497" lon="15.821257"></trkpt><trkpt lat="50.870597" lon="15.820823"></trkpt><trkpt lat="50.870767" lon="15.820446"></trkpt><trkpt lat="50.871033" lon="15.820242"></trkpt><trkpt lat="50.871319" lon="15.820074"></trkpt><trkpt lat="50.872622" lon="15.819051"></trkpt><trkpt lat="50.872855" lon="15.818821"></trkpt><trkpt lat="50.87343" lon="15.818118"></trkpt><trkpt lat="50.873683" lon="15.817886"></trkpt><trkpt lat="50.875548" lon="15.815808"></trkpt><trkpt lat="50.875683" lon="15.815427"></trkpt><trkpt lat="50.875867" lon="15.815113"></trkpt><trkpt lat="50.876591" lon="15.813536"></trkpt><trkpt lat="50.876759" lon="15.812948"></trkpt><trkpt lat="50.877302" lon="15.811443"></trkpt><trkpt lat="50.877555" lon="15.81099"></trkpt><trkpt lat="50.877677" lon="15.810523"></trkpt><trkpt lat="50.877661" lon="15.809961"></trkpt><trkpt lat="50.877587" lon="15.809183"></trkpt><trkpt lat="50.877377" lon="15.808373"></trkpt><trkpt lat="50.877188" lon="15.807936"></trkpt><trkpt lat="50.87746" lon="15.807784"></trkpt><trkpt lat="50.87769" lon="15.807395"></trkpt><trkpt lat="50.87713" lon="15.80773"></trkpt><trkpt lat="50.877496" lon="15.807707"></trkpt><trkpt lat="50.87722" lon="15.808201"></trkpt><trkpt lat="50.877472" lon="15.808588"></trkpt><trkpt lat="50.877624" lon="15.809074"></trkpt><trkpt lat="50.877666" lon="15.80954"></trkpt><trkpt lat="50.877645" lon="15.811002"></trkpt><trkpt lat="50.877436" lon="15.811287"></trkpt><trkpt lat="50.877276" lon="15.811653"></trkpt><trkpt lat="50.876815" lon="15.812997"></trkpt><trkpt lat="50.876698" lon="15.813463"></trkpt><trkpt lat="50.876608" lon="15.813942"></trkpt><trkpt lat="50.876365" lon="15.814394"></trkpt><trkpt lat="50.874526" lon="15.817242"></trkpt><trkpt lat="50.874185" lon="15.81757"></trkpt><trkpt lat="50.873866" lon="15.817804"></trkpt><trkpt lat="50.873523" lon="15.818148"></trkpt><trkpt lat="50.873008" lon="15.818772"></trkpt><trkpt lat="50.872553" lon="15.819464"></trkpt><trkpt lat="50.872277" lon="15.819607"></trkpt><trkpt lat="50.871952" lon="15.819852"></trkpt><trkpt lat="50.871583" lon="15.820019"></trkpt><trkpt lat="50.870848" lon="15.820466"></trkpt><trkpt lat="50.870629" lon="15.820917"></trkpt><trkpt lat="50.870554" lon="15.82137"></trkpt><trkpt lat="50.870389" lon="15.823129"></trkpt><trkpt lat="50.870383" lon="15.823642"></trkpt><trkpt lat="50.870446" lon="15.824118"></trkpt><trkpt lat="50.870539" lon="15.824525"></trkpt><trkpt lat="50.870696" lon="15.824952"></trkpt><trkpt lat="50.870815" lon="15.825364"></trkpt><trkpt lat="50.871089" lon="15.825607"></trkpt><trkpt lat="50.870912" lon="15.825117"></trkpt><trkpt lat="50.870878" lon="15.825568"></trkpt><trkpt lat="50.870881" lon="15.826182"></trkpt><trkpt lat="50.870805" lon="15.826878"></trkpt><trkpt lat="50.870486" lon="15.826908"></trkpt><trkpt lat="50.87028" lon="15.827187"></trkpt><trkpt lat="50.870254" lon="15.827814"></trkpt><trkpt lat="50.870295" lon="15.828331"></trkpt><trkpt lat="50.870265" lon="15.82898"></trkpt><trkpt lat="50.869919" lon="15.829152"></trkpt><trkpt lat="50.869661" lon="15.828839"></trkpt><trkpt lat="50.869499" lon="15.828375"></trkpt><trkpt lat="50.869087" lon="15.827945"></trkpt></trkseg></trk></gpx>