<?xml version="1.0" encoding="UTF-8" standalone="no" ?><gpx xmlns="http://www.topografix.com/GPX/1/1" xmlns:gpxx="http://www.garmin.com/xmlschemas/GpxExtensions/v3" ><trk><trkseg><trkpt lat="52.308039" lon="16.982393"></trkpt><trkpt lat="52.307809" lon="16.982671"></trkpt><trkpt lat="52.307462" lon="16.982906"></trkpt><trkpt lat="52.307187" lon="16.983009"></trkpt><trkpt lat="52.30661" lon="16.983097"></trkpt><trkpt lat="52.306015" lon="16.982902"></trkpt><trkpt lat="52.305521" lon="16.982656"></trkpt><trkpt lat="52.304909" lon="16.982202"></trkpt><trkpt lat="52.304454" lon="16.981732"></trkpt><trkpt lat="52.304333" lon="16.981323"></trkpt><trkpt lat="52.30426" lon="16.980884"></trkpt><trkpt lat="52.304121" lon="16.980491"></trkpt><trkpt lat="52.303934" lon="16.980094"></trkpt><trkpt lat="52.303568" lon="16.979465"></trkpt><trkpt lat="52.303293" lon="16.979149"></trkpt><trkpt lat="52.303086" lon="16.97878"></trkpt><trkpt lat="52.303023" lon="16.978321"></trkpt><trkpt lat="52.303068" lon="16.977678"></trkpt><trkpt lat="52.303064" lon="16.977202"></trkpt><trkpt lat="52.303103" lon="16.976733"></trkpt><trkpt lat="52.303115" lon="16.976239"></trkpt><trkpt lat="52.303155" lon="16.97579"></trkpt><trkpt lat="52.303269" lon="16.975367"></trkpt><trkpt lat="52.303439" lon="16.974922"></trkpt><trkpt lat="52.303705" lon="16.974049"></trkpt><trkpt lat="52.303744" lon="16.973535"></trkpt><trkpt lat="52.3041" lon="16.973304"></trkpt><trkpt lat="52.304351" lon="16.973044"></trkpt><trkpt lat="52.304585" lon="16.972668"></trkpt><trkpt lat="52.306283" lon="16.96924"></trkpt><trkpt lat="52.305988" lon="16.969333"></trkpt><trkpt lat="52.30573" lon="16.969692"></trkpt><trkpt lat="52.305705" lon="16.970201"></trkpt><trkpt lat="52.305407" lon="16.970357"></trkpt><trkpt lat="52.305116" lon="16.970371"></trkpt><trkpt lat="52.304894" lon="16.970089"></trkpt><trkpt lat="52.304639" lon="16.969871"></trkpt><trkpt lat="52.304467" lon="16.970441"></trkpt><trkpt lat="52.304579" lon="16.970872"></trkpt><trkpt lat="52.304781" lon="16.971204"></trkpt><trkpt lat="52.304628" lon="16.971671"></trkpt><trkpt lat="52.304419" lon="16.971971"></trkpt><trkpt lat="52.303572" lon="16.973436"></trkpt><trkpt lat="52.302603" lon="16.974766"></trkpt><trkpt lat="52.302271" lon="16.974711"></trkpt><trkpt lat="52.301849" lon="16.974873"></trkpt><trkpt lat="52.301487" lon="16.975181"></trkpt><trkpt lat="52.301206" lon="16.975209"></trkpt><trkpt lat="52.300894" lon="16.975121"></trkpt><trkpt lat="52.300783" lon="16.975605"></trkpt><trkpt lat="52.300618" lon="16.97598"></trkpt><trkpt lat="52.300381" lon="16.976275"></trkpt><trkpt lat="52.300335" lon="16.97676"></trkpt><trkpt lat="52.300695" lon="16.976612"></trkpt><trkpt lat="52.300759" lon="16.977044"></trkpt><trkpt lat="52.300494" lon="16.976909"></trkpt><trkpt lat="52.300273" lon="16.976493"></trkpt><trkpt lat="52.300497" lon="16.976179"></trkpt><trkpt lat="52.300802" lon="16.975562"></trkpt><trkpt lat="52.300893" lon="16.975051"></trkpt><trkpt lat="52.300946" lon="16.974575"></trkpt><trkpt lat="52.301274" lon="16.972924"></trkpt><trkpt lat="52.301521" lon="16.972498"></trkpt><trkpt lat="52.301792" lon="16.971914"></trkpt><trkpt lat="52.302079" lon="16.971156"></trkpt><trkpt lat="52.304825" lon="16.965441"></trkpt><trkpt lat="52.305819" lon="16.967934"></trkpt><trkpt lat="52.306178" lon="16.969034"></trkpt><trkpt lat="52.306727" lon="16.970382"></trkpt><trkpt lat="52.306896" lon="16.970912"></trkpt><trkpt lat="52.307084" lon="16.97139"></trkpt><trkpt lat="52.307578" lon="16.972393"></trkpt><trkpt lat="52.307826" lon="16.972675"></trkpt><trkpt lat="52.308067" lon="16.972881"></trkpt><trkpt lat="52.309557" lon="16.973872"></trkpt><trkpt lat="52.309826" lon="16.973751"></trkpt><trkpt lat="52.310142" lon="16.9735"></trkpt><trkpt lat="52.310436" lon="16.973566"></trkpt><trkpt lat="52.310961" lon="16.973563"></trkpt><trkpt lat="52.311273" lon="16.973739"></trkpt><trkpt lat="52.311587" lon="16.974253"></trkpt></trkseg></trk></gpx>