<?xml version="1.0" encoding="UTF-8" standalone="no" ?><gpx xmlns="http://www.topografix.com/GPX/1/1" xmlns:gpxx="http://www.garmin.com/xmlschemas/GpxExtensions/v3" ><trk><trkseg><trkpt lat="52.461977" lon="16.909012"></trkpt><trkpt lat="52.461997" lon="16.908469"></trkpt><trkpt lat="52.461973" lon="16.907782"></trkpt><trkpt lat="52.461849" lon="16.906581"></trkpt><trkpt lat="52.462041" lon="16.906019"></trkpt><trkpt lat="52.462287" lon="16.905588"></trkpt><trkpt lat="52.462565" lon="16.905233"></trkpt><trkpt lat="52.462551" lon="16.904517"></trkpt><trkpt lat="52.462815" lon="16.904397"></trkpt><trkpt lat="52.463331" lon="16.904049"></trkpt><trkpt lat="52.463384" lon="16.903608"></trkpt><trkpt lat="52.462959" lon="16.903619"></trkpt><trkpt lat="52.45855" lon="16.902834"></trkpt><trkpt lat="52.458157" lon="16.902362"></trkpt><trkpt lat="52.456673" lon="16.900216"></trkpt><trkpt lat="52.455442" lon="16.897984"></trkpt><trkpt lat="52.455658" lon="16.897549"></trkpt><trkpt lat="52.45595" lon="16.897232"></trkpt><trkpt lat="52.456206" lon="16.896773"></trkpt><trkpt lat="52.456498" lon="16.895934"></trkpt><trkpt lat="52.456554" lon="16.895497"></trkpt><trkpt lat="52.456289" lon="16.895315"></trkpt><trkpt lat="52.450844" lon="16.890586"></trkpt><trkpt lat="52.45071" lon="16.890144"></trkpt><trkpt lat="52.450892" lon="16.889737"></trkpt><trkpt lat="52.452149" lon="16.887396"></trkpt><trkpt lat="52.458342" lon="16.872757"></trkpt><trkpt lat="52.458164" lon="16.87237"></trkpt><trkpt lat="52.45857" lon="16.871601"></trkpt><trkpt lat="52.461326" lon="16.865343"></trkpt><trkpt lat="52.461086" lon="16.864899"></trkpt><trkpt lat="52.451926" lon="16.848702"></trkpt><trkpt lat="52.452194" lon="16.848059"></trkpt><trkpt lat="52.45254" lon="16.84749"></trkpt><trkpt lat="52.455842" lon="16.840927"></trkpt><trkpt lat="52.456038" lon="16.840364"></trkpt><trkpt lat="52.458896" lon="16.833622"></trkpt><trkpt lat="52.459756" lon="16.832034"></trkpt><trkpt lat="52.460065" lon="16.831586"></trkpt><trkpt lat="52.46236" lon="16.829085"></trkpt><trkpt lat="52.462694" lon="16.828975"></trkpt><trkpt lat="52.464223" lon="16.828234"></trkpt><trkpt lat="52.464603" lon="16.827768"></trkpt><trkpt lat="52.46952" lon="16.820541"></trkpt><trkpt lat="52.470412" lon="16.818942"></trkpt><trkpt lat="52.470659" lon="16.818313"></trkpt><trkpt lat="52.470823" lon="16.81773"></trkpt><trkpt lat="52.471519" lon="16.816154"></trkpt><trkpt lat="52.471915" lon="16.816294"></trkpt><trkpt lat="52.472589" lon="16.815952"></trkpt><trkpt lat="52.472815" lon="16.815551"></trkpt><trkpt lat="52.473531" lon="16.81395"></trkpt><trkpt lat="52.473732" lon="16.81329"></trkpt><trkpt lat="52.474016" lon="16.811931"></trkpt><trkpt lat="52.474099" lon="16.811198"></trkpt><trkpt lat="52.474387" lon="16.803781"></trkpt><trkpt lat="52.473964" lon="16.803541"></trkpt><trkpt lat="52.47342" lon="16.803135"></trkpt><trkpt lat="52.47293" lon="16.802637"></trkpt><trkpt lat="52.472155" lon="16.802123"></trkpt><trkpt lat="52.471872" lon="16.802265"></trkpt><trkpt lat="52.469636" lon="16.800715"></trkpt><trkpt lat="52.470019" lon="16.800017"></trkpt><trkpt lat="52.477769" lon="16.782866"></trkpt><trkpt lat="52.477861" lon="16.782274"></trkpt><trkpt lat="52.478706" lon="16.778858"></trkpt><trkpt lat="52.479083" lon="16.778579"></trkpt><trkpt lat="52.480387" lon="16.777351"></trkpt><trkpt lat="52.480558" lon="16.776964"></trkpt><trkpt lat="52.481859" lon="16.773397"></trkpt><trkpt lat="52.486143" lon="16.763838"></trkpt><trkpt lat="52.486557" lon="16.763273"></trkpt><trkpt lat="52.492849" lon="16.756346"></trkpt><trkpt lat="52.493473" lon="16.756128"></trkpt><trkpt lat="52.494919" lon="16.75536"></trkpt><trkpt lat="52.495498" lon="16.754913"></trkpt><trkpt lat="52.496144" lon="16.754289"></trkpt><trkpt lat="52.497734" lon="16.752154"></trkpt><trkpt lat="52.497896" lon="16.751697"></trkpt><trkpt lat="52.498199" lon="16.751237"></trkpt><trkpt lat="52.508194" lon="16.738786"></trkpt><trkpt lat="52.508724" lon="16.739229"></trkpt><trkpt lat="52.51155" lon="16.740944"></trkpt><trkpt lat="52.51199" lon="16.740985"></trkpt><trkpt lat="52.51226" lon="16.741337"></trkpt><trkpt lat="52.512313" lon="16.742175"></trkpt><trkpt lat="52.512385" lon="16.742618"></trkpt><trkpt lat="52.51291" lon="16.742454"></trkpt><trkpt lat="52.51363" lon="16.742528"></trkpt><trkpt lat="52.513933" lon="16.742724"></trkpt><trkpt lat="52.526384" lon="16.75139"></trkpt><trkpt lat="52.539141" lon="16.759466"></trkpt><trkpt lat="52.548131" lon="16.755737"></trkpt><trkpt lat="52.54838" lon="16.756184"></trkpt><trkpt lat="52.548435" lon="16.756796"></trkpt><trkpt lat="52.548438" lon="16.757563"></trkpt><trkpt lat="52.548884" lon="16.765321"></trkpt><trkpt lat="52.54905" lon="16.765814"></trkpt><trkpt lat="52.552327" lon="16.773779"></trkpt><trkpt lat="52.552638" lon="16.773622"></trkpt><trkpt lat="52.570122" lon="16.764917"></trkpt><trkpt lat="52.58231" lon="16.760847"></trkpt><trkpt lat="52.582554" lon="16.761775"></trkpt><trkpt lat="52.586222" lon="16.772795"></trkpt><trkpt lat="52.58672" lon="16.773218"></trkpt><trkpt lat="52.587119" lon="16.773305"></trkpt><trkpt lat="52.588302" lon="16.773964"></trkpt><trkpt lat="52.588465" lon="16.774403"></trkpt><trkpt lat="52.58863" lon="16.775048"></trkpt><trkpt lat="52.589159" lon="16.776421"></trkpt><trkpt lat="52.589371" lon="16.7768"></trkpt><trkpt lat="52.590911" lon="16.778763"></trkpt><trkpt lat="52.591058" lon="16.778135"></trkpt><trkpt lat="52.592552" lon="16.773182"></trkpt><trkpt lat="52.592834" lon="16.772703"></trkpt><trkpt lat="52.59816" lon="16.765365"></trkpt><trkpt lat="52.59853" lon="16.765247"></trkpt><trkpt lat="52.59822" lon="16.765275"></trkpt><trkpt lat="52.597442" lon="16.765464"></trkpt><trkpt lat="52.596818" lon="16.765767"></trkpt><trkpt lat="52.596481" lon="16.766292"></trkpt><trkpt lat="52.591843" lon="16.77491"></trkpt><trkpt lat="52.591622" lon="16.775763"></trkpt><trkpt lat="52.589946" lon="16.780536"></trkpt><trkpt lat="52.589663" lon="16.780806"></trkpt><trkpt lat="52.583741" lon="16.787783"></trkpt><trkpt lat="52.583837" lon="16.788283"></trkpt><trkpt lat="52.587314" lon="16.810242"></trkpt><trkpt lat="52.588402" lon="16.821033"></trkpt><trkpt lat="52.588432" lon="16.821787"></trkpt><trkpt lat="52.58832" lon="16.826684"></trkpt><trkpt lat="52.587839" lon="16.826725"></trkpt><trkpt lat="52.580657" lon="16.825008"></trkpt><trkpt lat="52.58057" lon="16.824314"></trkpt><trkpt lat="52.580553" lon="16.823541"></trkpt><trkpt lat="52.580876" lon="16.823454"></trkpt><trkpt lat="52.583888" lon="16.82309"></trkpt><trkpt lat="52.584338" lon="16.822849"></trkpt></trkseg></trk></gpx>