<?xml version="1.0" encoding="UTF-8" standalone="no" ?><gpx xmlns="http://www.topografix.com/GPX/1/1" xmlns:gpxx="http://www.garmin.com/xmlschemas/GpxExtensions/v3" ><trk><trkseg><trkpt lat="52.456471" lon="16.952163"></trkpt><trkpt lat="52.456696" lon="16.952448"></trkpt><trkpt lat="52.456738" lon="16.952934"></trkpt><trkpt lat="52.456759" lon="16.953805"></trkpt><trkpt lat="52.456667" lon="16.954916"></trkpt><trkpt lat="52.456056" lon="16.959209"></trkpt><trkpt lat="52.455963" lon="16.95966"></trkpt><trkpt lat="52.455645" lon="16.960834"></trkpt><trkpt lat="52.455302" lon="16.961388"></trkpt><trkpt lat="52.45472" lon="16.962167"></trkpt><trkpt lat="52.454584" lon="16.962707"></trkpt><trkpt lat="52.454644" lon="16.963468"></trkpt><trkpt lat="52.454634" lon="16.963932"></trkpt><trkpt lat="52.454798" lon="16.967702"></trkpt><trkpt lat="52.454557" lon="16.968198"></trkpt><trkpt lat="52.454554" lon="16.968681"></trkpt><trkpt lat="52.454433" lon="16.970642"></trkpt><trkpt lat="52.454638" lon="16.970986"></trkpt><trkpt lat="52.454466" lon="16.971393"></trkpt><trkpt lat="52.454625" lon="16.970882"></trkpt><trkpt lat="52.454585" lon="16.970367"></trkpt><trkpt lat="52.454475" lon="16.969774"></trkpt><trkpt lat="52.454159" lon="16.969614"></trkpt><trkpt lat="52.454473" lon="16.969776"></trkpt><trkpt lat="52.454627" lon="16.969309"></trkpt><trkpt lat="52.454911" lon="16.969368"></trkpt><trkpt lat="52.455112" lon="16.969731"></trkpt><trkpt lat="52.455043" lon="16.970282"></trkpt><trkpt lat="52.455034" lon="16.970778"></trkpt><trkpt lat="52.455072" lon="16.971266"></trkpt><trkpt lat="52.455209" lon="16.97172"></trkpt><trkpt lat="52.455376" lon="16.972142"></trkpt><trkpt lat="52.455537" lon="16.97279"></trkpt><trkpt lat="52.455899" lon="16.974776"></trkpt><trkpt lat="52.455667" lon="16.975049"></trkpt><trkpt lat="52.455623" lon="16.975528"></trkpt><trkpt lat="52.455769" lon="16.975027"></trkpt><trkpt lat="52.45606" lon="16.974982"></trkpt><trkpt lat="52.45636" lon="16.975127"></trkpt><trkpt lat="52.456636" lon="16.975351"></trkpt><trkpt lat="52.457065" lon="16.975612"></trkpt><trkpt lat="52.457377" lon="16.975589"></trkpt><trkpt lat="52.457682" lon="16.975676"></trkpt><trkpt lat="52.458049" lon="16.975679"></trkpt><trkpt lat="52.458292" lon="16.976115"></trkpt><trkpt lat="52.458376" lon="16.976538"></trkpt><trkpt lat="52.458645" lon="16.976635"></trkpt><trkpt lat="52.458368" lon="16.976503"></trkpt><trkpt lat="52.458308" lon="16.976048"></trkpt><trkpt lat="52.458472" lon="16.975666"></trkpt><trkpt lat="52.4588" lon="16.975657"></trkpt><trkpt lat="52.45922" lon="16.975738"></trkpt><trkpt lat="52.46062" lon="16.975677"></trkpt><trkpt lat="52.461136" lon="16.975798"></trkpt><trkpt lat="52.461251" lon="16.976299"></trkpt><trkpt lat="52.461516" lon="16.977202"></trkpt><trkpt lat="52.46139" lon="16.976795"></trkpt><trkpt lat="52.461073" lon="16.976641"></trkpt><trkpt lat="52.461263" lon="16.976197"></trkpt><trkpt lat="52.461122" lon="16.975814"></trkpt><trkpt lat="52.460796" lon="16.975799"></trkpt><trkpt lat="52.455951" lon="16.974837"></trkpt><trkpt lat="52.455883" lon="16.974164"></trkpt><trkpt lat="52.45574" lon="16.97341"></trkpt><trkpt lat="52.455583" lon="16.972794"></trkpt><trkpt lat="52.455278" lon="16.971851"></trkpt><trkpt lat="52.455097" lon="16.971078"></trkpt><trkpt lat="52.455072" lon="16.970418"></trkpt><trkpt lat="52.455139" lon="16.96993"></trkpt><trkpt lat="52.455014" lon="16.969531"></trkpt><trkpt lat="52.454776" lon="16.969258"></trkpt><trkpt lat="52.454576" lon="16.968737"></trkpt><trkpt lat="52.454552" lon="16.968181"></trkpt><trkpt lat="52.454562" lon="16.967645"></trkpt><trkpt lat="52.454997" lon="16.961789"></trkpt><trkpt lat="52.455301" lon="16.961354"></trkpt><trkpt lat="52.455698" lon="16.960643"></trkpt><trkpt lat="52.455883" lon="16.959988"></trkpt><trkpt lat="52.456035" lon="16.959293"></trkpt><trkpt lat="52.456539" lon="16.956147"></trkpt><trkpt lat="52.456527" lon="16.955614"></trkpt><trkpt lat="52.456683" lon="16.955111"></trkpt><trkpt lat="52.456692" lon="16.954635"></trkpt><trkpt lat="52.456588" lon="16.951627"></trkpt></trkseg></trk></gpx>