<?xml version="1.0" encoding="UTF-8" standalone="no" ?><gpx xmlns="http://www.topografix.com/GPX/1/1" xmlns:gpxx="http://www.garmin.com/xmlschemas/GpxExtensions/v3" ><trk><trkseg><trkpt lat="50.5047061946" lon="16.7336682882"></trkpt><trkpt lat="50.5045878422" lon="16.7341425363"></trkpt><trkpt lat="50.5045704078" lon="16.7345726117"></trkpt><trkpt lat="50.5045806337" lon="16.735020373"></trkpt><trkpt lat="50.5045482796" lon="16.7356048431"></trkpt><trkpt lat="50.504474435" lon="16.736141704"></trkpt><trkpt lat="50.5042202957" lon="16.7365809157"></trkpt><trkpt lat="50.5039210618" lon="16.7366764694"></trkpt><trkpt lat="50.503567094" lon="16.7364343163"></trkpt><trkpt lat="50.5033267848" lon="16.7362285405"></trkpt><trkpt lat="50.5030504335" lon="16.7361322325"></trkpt><trkpt lat="50.5026081204" lon="16.736069452"></trkpt><trkpt lat="50.5016960856" lon="16.7363443784"></trkpt><trkpt lat="50.5014275294" lon="16.7364655808"></trkpt><trkpt lat="50.5010882299" lon="16.7365149502"></trkpt><trkpt lat="50.5008671992" lon="16.7367655691"></trkpt><trkpt lat="50.500551872" lon="16.7369780503"></trkpt><trkpt lat="50.5002321862" lon="16.7370459437"></trkpt><trkpt lat="50.4996328801" lon="16.7370840814"></trkpt><trkpt lat="50.499365665" lon="16.7372585926"></trkpt><trkpt lat="50.4991444666" lon="16.7375552282"></trkpt><trkpt lat="50.4988418799" lon="16.7378676217"></trkpt><trkpt lat="50.498576425" lon="16.7380417138"></trkpt><trkpt lat="50.4982641153" lon="16.738125449"></trkpt><trkpt lat="50.4969686922" lon="16.738667842"></trkpt><trkpt lat="50.496824272" lon="16.7390959058"></trkpt><trkpt lat="50.4965371918" lon="16.7388815805"></trkpt><trkpt lat="50.4966293089" lon="16.7393458541"></trkpt><trkpt lat="50.4966780916" lon="16.7397907656"></trkpt><trkpt lat="50.4968948476" lon="16.7400955316"></trkpt><trkpt lat="50.4971156269" lon="16.7403444741"></trkpt><trkpt lat="50.4974375758" lon="16.7405059095"></trkpt><trkpt lat="50.4978435114" lon="16.7406282853"></trkpt><trkpt lat="50.498179039" lon="16.7406767327"></trkpt><trkpt lat="50.4984941147" lon="16.7408955842"></trkpt><trkpt lat="50.4988774192" lon="16.7412700877"></trkpt><trkpt lat="50.4990230966" lon="16.7416740116"></trkpt><trkpt lat="50.4992666747" lon="16.7418771889"></trkpt><trkpt lat="50.4995286092" lon="16.7421775125"></trkpt><trkpt lat="50.4998302739" lon="16.7419945356"></trkpt><trkpt lat="50.5000366364" lon="16.7416798789"></trkpt><trkpt lat="50.500380462" lon="16.7412816547"></trkpt><trkpt lat="50.5007128883" lon="16.7413984146"></trkpt><trkpt lat="50.5010288861" lon="16.7412272561"></trkpt><trkpt lat="50.5007879902" lon="16.7414445989"></trkpt><trkpt lat="50.5004714057" lon="16.741331527"></trkpt><trkpt lat="50.5001161806" lon="16.7415254842"></trkpt><trkpt lat="50.4998840857" lon="16.7419149075"></trkpt><trkpt lat="50.4995877016" lon="16.7422076873"></trkpt><trkpt lat="50.4992933292" lon="16.7419818789"></trkpt><trkpt lat="50.4989962745" lon="16.7416486982"></trkpt><trkpt lat="50.4987877328" lon="16.741304202"></trkpt><trkpt lat="50.4984706454" lon="16.741068922"></trkpt><trkpt lat="50.4981860798" lon="16.7407859489"></trkpt><trkpt lat="50.4978686571" lon="16.7407565285"></trkpt><trkpt lat="50.4971246794" lon="16.7405750602"></trkpt><trkpt lat="50.4968705401" lon="16.7403692845"></trkpt><trkpt lat="50.4966396187" lon="16.7401278019"></trkpt><trkpt lat="50.4964102898" lon="16.7397102155"></trkpt><trkpt lat="50.4964985512" lon="16.7392555811"></trkpt><trkpt lat="50.4966983758" lon="16.7389667407"></trkpt><trkpt lat="50.4968827777" lon="16.7385328095"></trkpt><trkpt lat="50.4971375037" lon="16.7383100186"></trkpt><trkpt lat="50.497456016" lon="16.738161156"></trkpt><trkpt lat="50.4985045083" lon="16.7378301546"></trkpt><trkpt lat="50.4988454841" lon="16.7376635224"></trkpt><trkpt lat="50.4990840331" lon="16.7374208663"></trkpt><trkpt lat="50.4993561935" lon="16.7370430101"></trkpt><trkpt lat="50.4996554274" lon="16.7367519904"></trkpt><trkpt lat="50.5021077208" lon="16.7349018529"></trkpt><trkpt lat="50.5024382193" lon="16.7348393239"></trkpt><trkpt lat="50.5027407221" lon="16.734843934"></trkpt><trkpt lat="50.5026745889" lon="16.7343705241"></trkpt><trkpt lat="50.5025933683" lon="16.7330314312"></trkpt><trkpt lat="50.5027895048" lon="16.7326716799"></trkpt><trkpt lat="50.5030287243" lon="16.7324685026"></trkpt><trkpt lat="50.5034734681" lon="16.7319286242"></trkpt><trkpt lat="50.5035728775" lon="16.7314739898"></trkpt><trkpt lat="50.5033301376" lon="16.7310647015"></trkpt><trkpt lat="50.5029937718" lon="16.7306088097"></trkpt><trkpt lat="50.5029586516" lon="16.7301682569"></trkpt><trkpt lat="50.5032566283" lon="16.7299028859"></trkpt><trkpt lat="50.503534656" lon="16.7300071567"></trkpt><trkpt lat="50.5037912261" lon="16.7302238289"></trkpt><trkpt lat="50.5043403246" lon="16.7308414914"></trkpt><trkpt lat="50.5044829845" lon="16.7313570622"></trkpt><trkpt lat="50.5046263989" lon="16.7320524249"></trkpt><trkpt lat="50.5047675502" lon="16.7330751009"></trkpt><trkpt lat="50.5046639498" lon="16.7334781867"></trkpt><trkpt lat="50.5046291649" lon="16.7339857947"></trkpt><trkpt lat="50.5046662129" lon="16.7344470508"></trkpt><trkpt lat="50.5046516284" lon="16.7349081393"></trkpt><trkpt lat="50.5045823939" lon="16.735650776"></trkpt><trkpt lat="50.5045158416" lon="16.7360795941"></trkpt><trkpt lat="50.5047151633" lon="16.7363894731"></trkpt><trkpt lat="50.5050049257" lon="16.7364406865"></trkpt><trkpt lat="50.5053384416" lon="16.7362705339"></trkpt><trkpt lat="50.5054013897" lon="16.7367938999"></trkpt><trkpt lat="50.5053733103" lon="16.7372860853"></trkpt><trkpt lat="50.5052314047" lon="16.7378335074"></trkpt><trkpt lat="50.505317403" lon="16.7383266985"></trkpt><trkpt lat="50.5054737255" lon="16.7389633879"></trkpt><trkpt lat="50.5056517571" lon="16.7393544875"></trkpt><trkpt lat="50.5057711154" lon="16.7397509515"></trkpt><trkpt lat="50.5059600435" lon="16.7401880678"></trkpt><trkpt lat="50.5060867779" lon="16.7405795865"></trkpt><trkpt lat="50.5061785597" lon="16.7411113344"></trkpt><trkpt lat="50.50632759" lon="16.7415623646"></trkpt><trkpt lat="50.5067430809" lon="16.7434264999"></trkpt><trkpt lat="50.5067069549" lon="16.7438639514"></trkpt><trkpt lat="50.5067776982" lon="16.7442875728"></trkpt><trkpt lat="50.5068196915" lon="16.7447272036"></trkpt><trkpt lat="50.5068353657" lon="16.7451885436"></trkpt><trkpt lat="50.5068860762" lon="16.7456090637"></trkpt><trkpt lat="50.5069610942" lon="16.7467875592"></trkpt><trkpt lat="50.5069580767" lon="16.7473644856"></trkpt><trkpt lat="50.5070848111" lon="16.7494389229"></trkpt><trkpt lat="50.5070256349" lon="16.7505769338"></trkpt><trkpt lat="50.5071048439" lon="16.7510617431"></trkpt><trkpt lat="50.5070564803" lon="16.7515218258"></trkpt><trkpt lat="50.506862523" lon="16.7519208882"></trkpt><trkpt lat="50.506800497" lon="16.7524146661"></trkpt><trkpt lat="50.5069790315" lon="16.7527712323"></trkpt><trkpt lat="50.5071796104" lon="16.7532565445"></trkpt><trkpt lat="50.5078718718" lon="16.7553420458"></trkpt><trkpt lat="50.5080877058" lon="16.755865328"></trkpt><trkpt lat="50.5082333833" lon="16.7563421745"></trkpt><trkpt lat="50.5084135104" lon="16.7566643748"></trkpt><trkpt lat="50.5085615348" lon="16.7572080251"></trkpt><trkpt lat="50.5088108964" lon="16.7578194011"></trkpt><trkpt lat="50.5091329291" lon="16.7588158417"></trkpt><trkpt lat="50.5093346816" lon="16.7592724878"></trkpt><trkpt lat="50.5094640143" lon="16.7596665211"></trkpt><trkpt lat="50.5095571373" lon="16.7601007875"></trkpt><trkpt lat="50.5093469191" lon="16.7597964406"></trkpt><trkpt lat="50.5092783552" lon="16.7593680415"></trkpt><trkpt lat="50.509481281" lon="16.7590402253"></trkpt><trkpt lat="50.5094540399" lon="16.7585717607"></trkpt><trkpt lat="50.5097165611" lon="16.7584280949"></trkpt></trkseg></trk></gpx>