<?xml version="1.0" encoding="UTF-8" standalone="no" ?><gpx xmlns="http://www.topografix.com/GPX/1/1" xmlns:gpxx="http://www.garmin.com/xmlschemas/GpxExtensions/v3" ><trk><trkseg><trkpt lat="50.955119" lon="15.81209"></trkpt><trkpt lat="50.954948" lon="15.812336"></trkpt><trkpt lat="50.954937" lon="15.812762"></trkpt><trkpt lat="50.954783" lon="15.813653"></trkpt><trkpt lat="50.954636" lon="15.814004"></trkpt><trkpt lat="50.954472" lon="15.814201"></trkpt><trkpt lat="50.954423" lon="15.814518"></trkpt><trkpt lat="50.954421" lon="15.814959"></trkpt><trkpt lat="50.95448" lon="15.815465"></trkpt><trkpt lat="50.954588" lon="15.816073"></trkpt><trkpt lat="50.954565" lon="15.816404"></trkpt><trkpt lat="50.954521" lon="15.816781"></trkpt><trkpt lat="50.95438" lon="15.817132"></trkpt><trkpt lat="50.954253" lon="15.81763"></trkpt><trkpt lat="50.954152" lon="15.817932"></trkpt><trkpt lat="50.954305" lon="15.818155"></trkpt><trkpt lat="50.954649" lon="15.818573"></trkpt><trkpt lat="50.955343" lon="15.819683"></trkpt><trkpt lat="50.955377" lon="15.820073"></trkpt><trkpt lat="50.955369" lon="15.820496"></trkpt><trkpt lat="50.95547" lon="15.822194"></trkpt><trkpt lat="50.955616" lon="15.822553"></trkpt><trkpt lat="50.955812" lon="15.822812"></trkpt><trkpt lat="50.956027" lon="15.822959"></trkpt><trkpt lat="50.956251" lon="15.822949"></trkpt><trkpt lat="50.956691" lon="15.822714"></trkpt><trkpt lat="50.957413" lon="15.822417"></trkpt><trkpt lat="50.95794" lon="15.82231"></trkpt><trkpt lat="50.959886" lon="15.822193"></trkpt><trkpt lat="50.960067" lon="15.822536"></trkpt><trkpt lat="50.960327" lon="15.823246"></trkpt><trkpt lat="50.961228" lon="15.825292"></trkpt><trkpt lat="50.961492" lon="15.82612"></trkpt><trkpt lat="50.96249" lon="15.828728"></trkpt><trkpt lat="50.962883" lon="15.829199"></trkpt><trkpt lat="50.963166" lon="15.829366"></trkpt><trkpt lat="50.963462" lon="15.829358"></trkpt><trkpt lat="50.963877" lon="15.82922"></trkpt><trkpt lat="50.965804" lon="15.8288"></trkpt><trkpt lat="50.966313" lon="15.828795"></trkpt><trkpt lat="50.966821" lon="15.828566"></trkpt><trkpt lat="50.967544" lon="15.82813"></trkpt><trkpt lat="50.967725" lon="15.82789"></trkpt><trkpt lat="50.968134" lon="15.827688"></trkpt><trkpt lat="50.969367" lon="15.826893"></trkpt><trkpt lat="50.96965" lon="15.82676"></trkpt><trkpt lat="50.969815" lon="15.826934"></trkpt><trkpt lat="50.970042" lon="15.827424"></trkpt><trkpt lat="50.970477" lon="15.827955"></trkpt><trkpt lat="50.970844" lon="15.828339"></trkpt><trkpt lat="50.971533" lon="15.829359"></trkpt><trkpt lat="50.972966" lon="15.831195"></trkpt><trkpt lat="50.973153" lon="15.831397"></trkpt><trkpt lat="50.973318" lon="15.83161"></trkpt><trkpt lat="50.974712" lon="15.833743"></trkpt><trkpt lat="50.975184" lon="15.834172"></trkpt><trkpt lat="50.97552" lon="15.834296"></trkpt><trkpt lat="50.978609" lon="15.835013"></trkpt><trkpt lat="50.984051" lon="15.834458"></trkpt><trkpt lat="50.985546" lon="15.834854"></trkpt><trkpt lat="50.98584" lon="15.835116"></trkpt><trkpt lat="50.986122" lon="15.835267"></trkpt><trkpt lat="50.986813" lon="15.835467"></trkpt><trkpt lat="50.987132" lon="15.835457"></trkpt><trkpt lat="50.987344" lon="15.835588"></trkpt><trkpt lat="50.98754" lon="15.835848"></trkpt><trkpt lat="50.987705" lon="15.836163"></trkpt><trkpt lat="50.988248" lon="15.836987"></trkpt><trkpt lat="50.988509" lon="15.837268"></trkpt><trkpt lat="50.988661" lon="15.837492"></trkpt><trkpt lat="50.989093" lon="15.838424"></trkpt><trkpt lat="50.989445" lon="15.839358"></trkpt><trkpt lat="50.989774" lon="15.840017"></trkpt><trkpt lat="50.990977" lon="15.842827"></trkpt><trkpt lat="50.991182" lon="15.843452"></trkpt><trkpt lat="50.992505" lon="15.846609"></trkpt><trkpt lat="50.993078" lon="15.847724"></trkpt><trkpt lat="50.993502" lon="15.848697"></trkpt><trkpt lat="50.996553" lon="15.85453"></trkpt><trkpt lat="50.997912" lon="15.857841"></trkpt><trkpt lat="50.99841" lon="15.85878"></trkpt><trkpt lat="50.998555" lon="15.859115"></trkpt><trkpt lat="50.998657" lon="15.859566"></trkpt><trkpt lat="50.99907" lon="15.859628"></trkpt><trkpt lat="50.999778" lon="15.859994"></trkpt><trkpt lat="51.000511" lon="15.86066"></trkpt><trkpt lat="51.000989" lon="15.860951"></trkpt><trkpt lat="51.001638" lon="15.861542"></trkpt><trkpt lat="51.00304" lon="15.862599"></trkpt><trkpt lat="51.003292" lon="15.862517"></trkpt><trkpt lat="51.003915" lon="15.862079"></trkpt><trkpt lat="51.004134" lon="15.862026"></trkpt><trkpt lat="51.004549" lon="15.862292"></trkpt><trkpt lat="51.004881" lon="15.862667"></trkpt><trkpt lat="51.006675" lon="15.864192"></trkpt><trkpt lat="51.006882" lon="15.864309"></trkpt><trkpt lat="51.007475" lon="15.864428"></trkpt><trkpt lat="51.008467" lon="15.864754"></trkpt><trkpt lat="51.009185" lon="15.865186"></trkpt><trkpt lat="51.009936" lon="15.865854"></trkpt><trkpt lat="51.012053" lon="15.868248"></trkpt><trkpt lat="51.012336" lon="15.86927"></trkpt><trkpt lat="51.013234" lon="15.871723"></trkpt><trkpt lat="51.013952" lon="15.872911"></trkpt><trkpt lat="51.016207" lon="15.877313"></trkpt><trkpt lat="51.016374" lon="15.877965"></trkpt><trkpt lat="51.016659" lon="15.878863"></trkpt><trkpt lat="51.017086" lon="15.87984"></trkpt><trkpt lat="51.017558" lon="15.880479"></trkpt><trkpt lat="51.017855" lon="15.880811"></trkpt><trkpt lat="51.017967" lon="15.881115"></trkpt><trkpt lat="51.017995" lon="15.881487"></trkpt><trkpt lat="51.018012" lon="15.882435"></trkpt><trkpt lat="51.017918" lon="15.883373"></trkpt><trkpt lat="51.018039" lon="15.883706"></trkpt><trkpt lat="51.018223" lon="15.883838"></trkpt><trkpt lat="51.018623" lon="15.883993"></trkpt><trkpt lat="51.018827" lon="15.884228"></trkpt><trkpt lat="51.019133" lon="15.88469"></trkpt><trkpt lat="51.019376" lon="15.885134"></trkpt><trkpt lat="51.019283" lon="15.885497"></trkpt><trkpt lat="51.018896" lon="15.886059"></trkpt><trkpt lat="51.018623" lon="15.886542"></trkpt><trkpt lat="51.018579" lon="15.88685"></trkpt><trkpt lat="51.018498" lon="15.887219"></trkpt><trkpt lat="51.018034" lon="15.887622"></trkpt><trkpt lat="51.017888" lon="15.887868"></trkpt><trkpt lat="51.017538" lon="15.888653"></trkpt><trkpt lat="51.017204" lon="15.889189"></trkpt><trkpt lat="51.017498" lon="15.889305"></trkpt><trkpt lat="51.018994" lon="15.888486"></trkpt><trkpt lat="51.019175" lon="15.888307"></trkpt><trkpt lat="51.019546" lon="15.888034"></trkpt><trkpt lat="51.019851" lon="15.887851"></trkpt><trkpt lat="51.021057" lon="15.88735"></trkpt><trkpt lat="51.021254" lon="15.88749"></trkpt><trkpt lat="51.021438" lon="15.887758"></trkpt><trkpt lat="51.021579" lon="15.888043"></trkpt><trkpt lat="51.022665" lon="15.890706"></trkpt><trkpt lat="51.022769" lon="15.891183"></trkpt><trkpt lat="51.022908" lon="15.892082"></trkpt><trkpt lat="51.022943" lon="15.892601"></trkpt><trkpt lat="51.022944" lon="15.893083"></trkpt><trkpt lat="51.022797" lon="15.895436"></trkpt><trkpt lat="51.022881" lon="15.895729"></trkpt><trkpt lat="51.02322" lon="15.896708"></trkpt><trkpt lat="51.0241" lon="15.89887"></trkpt><trkpt lat="51.024261" lon="15.899148"></trkpt><trkpt lat="51.028864" lon="15.906059"></trkpt><trkpt lat="51.029159" lon="15.906259"></trkpt><trkpt lat="51.030626" lon="15.906988"></trkpt><trkpt lat="51.030973" lon="15.907037"></trkpt><trkpt lat="51.032048" lon="15.907349"></trkpt><trkpt lat="51.032302" lon="15.907468"></trkpt><trkpt lat="51.034969" lon="15.908361"></trkpt><trkpt lat="51.035263" lon="15.908226"></trkpt><trkpt lat="51.035473" lon="15.908208"></trkpt><trkpt lat="51.0612" lon="15.909897"></trkpt><trkpt lat="51.061444" lon="15.909387"></trkpt><trkpt lat="51.061592" lon="15.909174"></trkpt><trkpt lat="51.062299" lon="15.908397"></trkpt><trkpt lat="51.062577" lon="15.907924"></trkpt><trkpt lat="51.062673" lon="15.907574"></trkpt><trkpt lat="51.062715" lon="15.90722"></trkpt><trkpt lat="51.06272" lon="15.90656"></trkpt><trkpt lat="51.06285" lon="15.905931"></trkpt><trkpt lat="51.063016" lon="15.905637"></trkpt><trkpt lat="51.06355" lon="15.905076"></trkpt><trkpt lat="51.063656" lon="15.904763"></trkpt><trkpt lat="51.063592" lon="15.904448"></trkpt><trkpt lat="51.063338" lon="15.904115"></trkpt><trkpt lat="51.063077" lon="15.903574"></trkpt><trkpt lat="51.063011" lon="15.903181"></trkpt><trkpt lat="51.062875" lon="15.902605"></trkpt><trkpt lat="51.062794" lon="15.901817"></trkpt><trkpt lat="51.062776" lon="15.901328"></trkpt><trkpt lat="51.062791" lon="15.900613"></trkpt><trkpt lat="51.062761" lon="15.900033"></trkpt><trkpt lat="51.062643" lon="15.899453"></trkpt><trkpt lat="51.062558" lon="15.899151"></trkpt><trkpt lat="51.062561" lon="15.898797"></trkpt><trkpt lat="51.062807" lon="15.898262"></trkpt><trkpt lat="51.062872" lon="15.897924"></trkpt><trkpt lat="51.06288" lon="15.897002"></trkpt><trkpt lat="51.062774" lon="15.894548"></trkpt><trkpt lat="51.062569" lon="15.894279"></trkpt><trkpt lat="51.06248" lon="15.893975"></trkpt><trkpt lat="51.062544" lon="15.893604"></trkpt><trkpt lat="51.062601" lon="15.893032"></trkpt><trkpt lat="51.062507" lon="15.892612"></trkpt><trkpt lat="51.062383" lon="15.892187"></trkpt><trkpt lat="51.062341" lon="15.891864"></trkpt><trkpt lat="51.062262" lon="15.890366"></trkpt><trkpt lat="51.062273" lon="15.889581"></trkpt><trkpt lat="51.062349" lon="15.888862"></trkpt><trkpt lat="51.062367" lon="15.888465"></trkpt><trkpt lat="51.062328" lon="15.887537"></trkpt><trkpt lat="51.062368" lon="15.887067"></trkpt><trkpt lat="51.062529" lon="15.886671"></trkpt><trkpt lat="51.06292" lon="15.885939"></trkpt><trkpt lat="51.063087" lon="15.885763"></trkpt><trkpt lat="51.063368" lon="15.885646"></trkpt><trkpt lat="51.064219" lon="15.885105"></trkpt><trkpt lat="51.064694" lon="15.883916"></trkpt><trkpt lat="51.0648" lon="15.883557"></trkpt><trkpt lat="51.064956" lon="15.883267"></trkpt><trkpt lat="51.065146" lon="15.883037"></trkpt><trkpt lat="51.065887" lon="15.882297"></trkpt><trkpt lat="51.06754" lon="15.880274"></trkpt><trkpt lat="51.068189" lon="15.879243"></trkpt><trkpt lat="51.068805" lon="15.878412"></trkpt><trkpt lat="51.069557" lon="15.877001"></trkpt><trkpt lat="51.069789" lon="15.876457"></trkpt><trkpt lat="51.06994" lon="15.875936"></trkpt><trkpt lat="51.070458" lon="15.873735"></trkpt><trkpt lat="51.070396" lon="15.873398"></trkpt><trkpt lat="51.070229" lon="15.873091"></trkpt><trkpt lat="51.070127" lon="15.872817"></trkpt><trkpt lat="51.070185" lon="15.872418"></trkpt><trkpt lat="51.070419" lon="15.871423"></trkpt><trkpt lat="51.070286" lon="15.869934"></trkpt><trkpt lat="51.070145" lon="15.869671"></trkpt><trkpt lat="51.069949" lon="15.869538"></trkpt><trkpt lat="51.069625" lon="15.869454"></trkpt><trkpt lat="51.069383" lon="15.869444"></trkpt><trkpt lat="51.069301" lon="15.869139"></trkpt><trkpt lat="51.06942" lon="15.86832"></trkpt><trkpt lat="51.069463" lon="15.867887"></trkpt><trkpt lat="51.06963" lon="15.864621"></trkpt><trkpt lat="51.069215" lon="15.864577"></trkpt><trkpt lat="51.067022" lon="15.864072"></trkpt><trkpt lat="51.06677" lon="15.863938"></trkpt><trkpt lat="51.066121" lon="15.863972"></trkpt><trkpt lat="51.065379" lon="15.864208"></trkpt><trkpt lat="51.064191" lon="15.864384"></trkpt><trkpt lat="51.062809" lon="15.864383"></trkpt><trkpt lat="51.062423" lon="15.864196"></trkpt><trkpt lat="51.06181" lon="15.863767"></trkpt><trkpt lat="51.061204" lon="15.863429"></trkpt><trkpt lat="51.06066" lon="15.863284"></trkpt><trkpt lat="51.059386" lon="15.863104"></trkpt><trkpt lat="51.058316" lon="15.862688"></trkpt><trkpt lat="51.057487" lon="15.862473"></trkpt><trkpt lat="51.05697" lon="15.863176"></trkpt><trkpt lat="51.055352" lon="15.865958"></trkpt><trkpt lat="51.05516" lon="15.866814"></trkpt><trkpt lat="51.054273" lon="15.869922"></trkpt><trkpt lat="51.053933" lon="15.870279"></trkpt><trkpt lat="51.053537" lon="15.870453"></trkpt><trkpt lat="51.053269" lon="15.870516"></trkpt><trkpt lat="51.052628" lon="15.870581"></trkpt><trkpt lat="51.048287" lon="15.871562"></trkpt><trkpt lat="51.047805" lon="15.871888"></trkpt><trkpt lat="51.044256" lon="15.873768"></trkpt><trkpt lat="51.043689" lon="15.873706"></trkpt><trkpt lat="51.043108" lon="15.873559"></trkpt><trkpt lat="51.041232" lon="15.872756"></trkpt><trkpt lat="51.040691" lon="15.871988"></trkpt><trkpt lat="51.040454" lon="15.871582"></trkpt><trkpt lat="51.039858" lon="15.870393"></trkpt><trkpt lat="51.039178" lon="15.868763"></trkpt><trkpt lat="51.03898" lon="15.868123"></trkpt><trkpt lat="51.038612" lon="15.868054"></trkpt><trkpt lat="51.038414" lon="15.86824"></trkpt><trkpt lat="51.038279" lon="15.868486"></trkpt><trkpt lat="51.038017" lon="15.868384"></trkpt><trkpt lat="51.037848" lon="15.868202"></trkpt><trkpt lat="51.03764" lon="15.868121"></trkpt><trkpt lat="51.037387" lon="15.867953"></trkpt><trkpt lat="51.037006" lon="15.867816"></trkpt><trkpt lat="51.036709" lon="15.867623"></trkpt><trkpt lat="51.036354" lon="15.867682"></trkpt><trkpt lat="51.036065" lon="15.867852"></trkpt><trkpt lat="51.034936" lon="15.868717"></trkpt><trkpt lat="51.034611" lon="15.869019"></trkpt><trkpt lat="51.034449" lon="15.869241"></trkpt><trkpt lat="51.03427" lon="15.869438"></trkpt><trkpt lat="51.034103" lon="15.869969"></trkpt><trkpt lat="51.033805" lon="15.870689"></trkpt><trkpt lat="51.033615" lon="15.870968"></trkpt><trkpt lat="51.033352" lon="15.87126"></trkpt><trkpt lat="51.033036" lon="15.871553"></trkpt><trkpt lat="51.0322" lon="15.870585"></trkpt><trkpt lat="51.031971" lon="15.870438"></trkpt><trkpt lat="51.03175" lon="15.870782"></trkpt><trkpt lat="51.031544" lon="15.870851"></trkpt><trkpt lat="51.031291" lon="15.870432"></trkpt><trkpt lat="51.031195" lon="15.870028"></trkpt><trkpt lat="51.030721" lon="15.86988"></trkpt><trkpt lat="51.030178" lon="15.869804"></trkpt><trkpt lat="51.02794" lon="15.869093"></trkpt><trkpt lat="51.027845" lon="15.86852"></trkpt><trkpt lat="51.027703" lon="15.867263"></trkpt><trkpt lat="51.027766" lon="15.866924"></trkpt><trkpt lat="51.027943" lon="15.866253"></trkpt><trkpt lat="51.02801" lon="15.865893"></trkpt><trkpt lat="51.028038" lon="15.865507"></trkpt><trkpt lat="51.028182" lon="15.864357"></trkpt><trkpt lat="51.028291" lon="15.86404"></trkpt><trkpt lat="51.028963" lon="15.861658"></trkpt><trkpt lat="51.029035" lon="15.861055"></trkpt><trkpt lat="51.029099" lon="15.860116"></trkpt><trkpt lat="51.029977" lon="15.853006"></trkpt><trkpt lat="51.030245" lon="15.852477"></trkpt><trkpt lat="51.030515" lon="15.851832"></trkpt><trkpt lat="51.030931" lon="15.850633"></trkpt><trkpt lat="51.030994" lon="15.850297"></trkpt><trkpt lat="51.031073" lon="15.849643"></trkpt><trkpt lat="51.031088" lon="15.849064"></trkpt><trkpt lat="51.03105" lon="15.847684"></trkpt><trkpt lat="51.031069" lon="15.847138"></trkpt><trkpt lat="51.031155" lon="15.8463"></trkpt><trkpt lat="51.031254" lon="15.845751"></trkpt><trkpt lat="51.031473" lon="15.844994"></trkpt><trkpt lat="51.031737" lon="15.844435"></trkpt><trkpt lat="51.032515" lon="15.84251"></trkpt><trkpt lat="51.032889" lon="15.841805"></trkpt><trkpt lat="51.033195" lon="15.840946"></trkpt><trkpt lat="51.033863" lon="15.839915"></trkpt><trkpt lat="51.034537" lon="15.839178"></trkpt><trkpt lat="51.035027" lon="15.838288"></trkpt><trkpt lat="51.035312" lon="15.837213"></trkpt><trkpt lat="51.035434" lon="15.835643"></trkpt><trkpt lat="51.035494" lon="15.835233"></trkpt><trkpt lat="51.035595" lon="15.834856"></trkpt><trkpt lat="51.036155" lon="15.833685"></trkpt><trkpt lat="51.036354" lon="15.832524"></trkpt><trkpt lat="51.036386" lon="15.832136"></trkpt><trkpt lat="51.036434" lon="15.830732"></trkpt><trkpt lat="51.036752" lon="15.828098"></trkpt><trkpt lat="51.037132" lon="15.828356"></trkpt><trkpt lat="51.037554" lon="15.828502"></trkpt><trkpt lat="51.037762" lon="15.828487"></trkpt><trkpt lat="51.037962" lon="15.828283"></trkpt><trkpt lat="51.038276" lon="15.827894"></trkpt><trkpt lat="51.038407" lon="15.827297"></trkpt><trkpt lat="51.038555" lon="15.826286"></trkpt><trkpt lat="51.03868" lon="15.824833"></trkpt><trkpt lat="51.038621" lon="15.824323"></trkpt><trkpt lat="51.038598" lon="15.823778"></trkpt><trkpt lat="51.038608" lon="15.82335"></trkpt><trkpt lat="51.038638" lon="15.823022"></trkpt><trkpt lat="51.038693" lon="15.822706"></trkpt><trkpt lat="51.038767" lon="15.82241"></trkpt><trkpt lat="51.039" lon="15.821954"></trkpt><trkpt lat="51.039266" lon="15.821548"></trkpt><trkpt lat="51.039772" lon="15.820387"></trkpt><trkpt lat="51.039827" lon="15.819683"></trkpt><trkpt lat="51.03987" lon="15.818392"></trkpt><trkpt lat="51.040473" lon="15.814367"></trkpt><trkpt lat="51.041105" lon="15.813344"></trkpt><trkpt lat="51.041427" lon="15.812949"></trkpt><trkpt lat="51.042783" lon="15.81084"></trkpt><trkpt lat="51.043221" lon="15.809893"></trkpt><trkpt lat="51.043819" lon="15.808915"></trkpt><trkpt lat="51.044292" lon="15.808272"></trkpt><trkpt lat="51.046181" lon="15.804991"></trkpt><trkpt lat="51.046498" lon="15.803787"></trkpt><trkpt lat="51.046604" lon="15.803494"></trkpt><trkpt lat="51.046752" lon="15.803258"></trkpt><trkpt lat="51.046925" lon="15.803066"></trkpt><trkpt lat="51.047908" lon="15.802131"></trkpt><trkpt lat="51.048107" lon="15.80187"></trkpt><trkpt lat="51.048708" lon="15.80044"></trkpt><trkpt lat="51.049713" lon="15.798553"></trkpt><trkpt lat="51.049974" lon="15.797849"></trkpt><trkpt lat="51.049987" lon="15.797507"></trkpt><trkpt lat="51.049894" lon="15.797203"></trkpt><trkpt lat="51.049825" lon="15.796899"></trkpt><trkpt lat="51.0499" lon="15.796602"></trkpt><trkpt lat="51.05051" lon="15.795794"></trkpt><trkpt lat="51.051138" lon="15.794737"></trkpt><trkpt lat="51.051754" lon="15.79402"></trkpt><trkpt lat="51.051964" lon="15.793643"></trkpt><trkpt lat="51.052184" lon="15.793529"></trkpt><trkpt lat="51.052749" lon="15.793534"></trkpt><trkpt lat="51.053064" lon="15.793616"></trkpt><trkpt lat="51.054667" lon="15.793481"></trkpt><trkpt lat="51.058449" lon="15.792688"></trkpt><trkpt lat="51.060295" lon="15.791644"></trkpt><trkpt lat="51.060198" lon="15.791139"></trkpt><trkpt lat="51.059809" lon="15.788454"></trkpt><trkpt lat="51.059412" lon="15.786737"></trkpt><trkpt lat="51.059214" lon="15.786467"></trkpt><trkpt lat="51.058871" lon="15.786204"></trkpt><trkpt lat="51.058128" lon="15.785441"></trkpt><trkpt lat="51.057904" lon="15.785093"></trkpt><trkpt lat="51.057569" lon="15.784641"></trkpt><trkpt lat="51.056216" lon="15.783144"></trkpt><trkpt lat="51.055631" lon="15.782367"></trkpt><trkpt lat="51.055435" lon="15.781998"></trkpt><trkpt lat="51.055186" lon="15.781617"></trkpt><trkpt lat="51.053934" lon="15.779349"></trkpt><trkpt lat="51.053638" lon="15.778707"></trkpt><trkpt lat="51.052392" lon="15.775521"></trkpt><trkpt lat="51.052131" lon="15.774732"></trkpt><trkpt lat="51.051643" lon="15.772965"></trkpt><trkpt lat="51.050909" lon="15.76966"></trkpt><trkpt lat="51.050816" lon="15.769015"></trkpt><trkpt lat="51.050717" lon="15.768509"></trkpt><trkpt lat="51.049909" lon="15.765434"></trkpt><trkpt lat="51.049668" lon="15.764759"></trkpt><trkpt lat="51.049097" lon="15.762738"></trkpt><trkpt lat="51.048884" lon="15.761672"></trkpt><trkpt lat="51.048497" lon="15.760589"></trkpt><trkpt lat="51.046903" lon="15.756851"></trkpt><trkpt lat="51.046506" lon="15.755648"></trkpt><trkpt lat="51.045903" lon="15.753267"></trkpt><trkpt lat="51.045817" lon="15.75271"></trkpt><trkpt lat="51.045758" lon="15.752128"></trkpt><trkpt lat="51.045658" lon="15.750332"></trkpt><trkpt lat="51.045656" lon="15.749007"></trkpt><trkpt lat="51.045502" lon="15.747727"></trkpt><trkpt lat="51.045207" lon="15.747235"></trkpt><trkpt lat="51.044837" lon="15.746727"></trkpt><trkpt lat="51.044102" lon="15.745878"></trkpt><trkpt lat="51.043898" lon="15.746063"></trkpt><trkpt lat="51.043512" lon="15.746503"></trkpt><trkpt lat="51.043308" lon="15.746416"></trkpt><trkpt lat="51.043012" lon="15.746154"></trkpt><trkpt lat="51.042517" lon="15.745471"></trkpt><trkpt lat="51.042671" lon="15.74518"></trkpt><trkpt lat="51.042988" lon="15.744855"></trkpt><trkpt lat="51.043187" lon="15.744428"></trkpt><trkpt lat="51.043153" lon="15.743939"></trkpt><trkpt lat="51.042999" lon="15.743445"></trkpt><trkpt lat="51.042733" lon="15.743076"></trkpt><trkpt lat="51.042178" lon="15.741982"></trkpt><trkpt lat="51.042221" lon="15.741536"></trkpt><trkpt lat="51.042384" lon="15.738361"></trkpt><trkpt lat="51.042434" lon="15.737912"></trkpt><trkpt lat="51.042517" lon="15.737514"></trkpt><trkpt lat="51.042649" lon="15.737137"></trkpt><trkpt lat="51.042913" lon="15.735864"></trkpt><trkpt lat="51.042728" lon="15.73561"></trkpt><trkpt lat="51.042467" lon="15.73539"></trkpt><trkpt lat="51.042195" lon="15.735324"></trkpt><trkpt lat="51.041524" lon="15.735571"></trkpt><trkpt lat="51.041236" lon="15.735715"></trkpt><trkpt lat="51.040948" lon="15.735812"></trkpt><trkpt lat="51.040663" lon="15.735821"></trkpt><trkpt lat="51.040415" lon="15.73575"></trkpt><trkpt lat="51.040133" lon="15.735608"></trkpt><trkpt lat="51.037141" lon="15.734675"></trkpt><trkpt lat="51.036652" lon="15.734767"></trkpt><trkpt lat="51.0364" lon="15.734606"></trkpt><trkpt lat="51.03607" lon="15.734256"></trkpt><trkpt lat="51.035876" lon="15.734134"></trkpt><trkpt lat="51.035666" lon="15.734061"></trkpt><trkpt lat="51.035125" lon="15.734009"></trkpt><trkpt lat="51.034429" lon="15.734168"></trkpt><trkpt lat="51.034017" lon="15.734018"></trkpt><trkpt lat="51.033646" lon="15.733733"></trkpt><trkpt lat="51.03347" lon="15.733514"></trkpt><trkpt lat="51.030671" lon="15.729445"></trkpt><trkpt lat="51.030584" lon="15.729162"></trkpt><trkpt lat="51.030479" lon="15.728727"></trkpt><trkpt lat="51.030481" lon="15.728264"></trkpt><trkpt lat="51.030594" lon="15.726952"></trkpt><trkpt lat="51.030553" lon="15.726617"></trkpt><trkpt lat="51.0304" lon="15.724525"></trkpt><trkpt lat="51.030408" lon="15.724161"></trkpt><trkpt lat="51.030483" lon="15.723473"></trkpt><trkpt lat="51.030535" lon="15.72315"></trkpt><trkpt lat="51.030874" lon="15.721567"></trkpt><trkpt lat="51.031133" lon="15.720607"></trkpt><trkpt lat="51.031314" lon="15.72029"></trkpt><trkpt lat="51.031408" lon="15.719904"></trkpt><trkpt lat="51.031423" lon="15.719432"></trkpt><trkpt lat="51.031398" lon="15.717658"></trkpt><trkpt lat="51.031155" lon="15.716838"></trkpt><trkpt lat="51.03104" lon="15.71608"></trkpt><trkpt lat="51.030753" lon="15.71479"></trkpt><trkpt lat="51.030452" lon="15.714441"></trkpt><trkpt lat="51.03024" lon="15.714273"></trkpt><trkpt lat="51.030045" lon="15.713962"></trkpt><trkpt lat="51.029924" lon="15.713711"></trkpt><trkpt lat="51.029264" lon="15.712534"></trkpt><trkpt lat="51.028992" lon="15.712245"></trkpt><trkpt lat="51.028845" lon="15.712"></trkpt><trkpt lat="51.028329" lon="15.710677"></trkpt><trkpt lat="51.028017" lon="15.710023"></trkpt><trkpt lat="51.02785" lon="15.709809"></trkpt><trkpt lat="51.027656" lon="15.709617"></trkpt><trkpt lat="51.02722" lon="15.709318"></trkpt><trkpt lat="51.026768" lon="15.709149"></trkpt><trkpt lat="51.026415" lon="15.709116"></trkpt><trkpt lat="51.025945" lon="15.709004"></trkpt><trkpt lat="51.025593" lon="15.708984"></trkpt><trkpt lat="51.025169" lon="15.709115"></trkpt><trkpt lat="51.02496" lon="15.709114"></trkpt><trkpt lat="51.024154" lon="15.709017"></trkpt><trkpt lat="51.023911" lon="15.708827"></trkpt><trkpt lat="51.023777" lon="15.708459"></trkpt><trkpt lat="51.023726" lon="15.708016"></trkpt><trkpt lat="51.02356" lon="15.707043"></trkpt><trkpt lat="51.023625" lon="15.705841"></trkpt><trkpt lat="51.02363" lon="15.702767"></trkpt><trkpt lat="51.023266" lon="15.694543"></trkpt><trkpt lat="51.023047" lon="15.693466"></trkpt><trkpt lat="51.021927" lon="15.689456"></trkpt><trkpt lat="51.021365" lon="15.68837"></trkpt><trkpt lat="51.021003" lon="15.687867"></trkpt><trkpt lat="51.020574" lon="15.686926"></trkpt><trkpt lat="51.020049" lon="15.686358"></trkpt><trkpt lat="51.019518" lon="15.685387"></trkpt><trkpt lat="51.019225" lon="15.684944"></trkpt><trkpt lat="51.01815" lon="15.683016"></trkpt><trkpt lat="51.018174" lon="15.682601"></trkpt><trkpt lat="51.01827" lon="15.682173"></trkpt><trkpt lat="51.01829" lon="15.681857"></trkpt><trkpt lat="51.01819" lon="15.680309"></trkpt><trkpt lat="51.017891" lon="15.678361"></trkpt><trkpt lat="51.017818" lon="15.678045"></trkpt><trkpt lat="51.017264" lon="15.676702"></trkpt><trkpt lat="51.016868" lon="15.675304"></trkpt><trkpt lat="51.016701" lon="15.67435"></trkpt><trkpt lat="51.016682" lon="15.674032"></trkpt><trkpt lat="51.016679" lon="15.674362"></trkpt><trkpt lat="51.016892" lon="15.674441"></trkpt><trkpt lat="51.017304" lon="15.674398"></trkpt><trkpt lat="51.016938" lon="15.673657"></trkpt><trkpt lat="51.017379" lon="15.672893"></trkpt><trkpt lat="51.017958" lon="15.671497"></trkpt><trkpt lat="51.018197" lon="15.67062"></trkpt><trkpt lat="51.018269" lon="15.67025"></trkpt><trkpt lat="51.018437" lon="15.670019"></trkpt><trkpt lat="51.018361" lon="15.669553"></trkpt><trkpt lat="51.018031" lon="15.666498"></trkpt><trkpt lat="51.018438" lon="15.666001"></trkpt><trkpt lat="51.018707" lon="15.665741"></trkpt><trkpt lat="51.019553" lon="15.664776"></trkpt><trkpt lat="51.019812" lon="15.664358"></trkpt><trkpt lat="51.020682" lon="15.663197"></trkpt><trkpt lat="51.020884" lon="15.662986"></trkpt><trkpt lat="51.022314" lon="15.661247"></trkpt><trkpt lat="51.022435" lon="15.66044"></trkpt><trkpt lat="51.022449" lon="15.660121"></trkpt><trkpt lat="51.022433" lon="15.653669"></trkpt><trkpt lat="51.022236" lon="15.653589"></trkpt><trkpt lat="51.021404" lon="15.653646"></trkpt><trkpt lat="51.021195" lon="15.65358"></trkpt><trkpt lat="51.02101" lon="15.653416"></trkpt><trkpt lat="51.020867" lon="15.653171"></trkpt><trkpt lat="51.020776" lon="15.652886"></trkpt><trkpt lat="51.020743" lon="15.652485"></trkpt><trkpt lat="51.020989" lon="15.651384"></trkpt><trkpt lat="51.021119" lon="15.649266"></trkpt><trkpt lat="51.021092" lon="15.648848"></trkpt><trkpt lat="51.021112" lon="15.648065"></trkpt><trkpt lat="51.021168" lon="15.647363"></trkpt><trkpt lat="51.021214" lon="15.647034"></trkpt><trkpt lat="51.021394" lon="15.646299"></trkpt><trkpt lat="51.021448" lon="15.645951"></trkpt><trkpt lat="51.021247" lon="15.644748"></trkpt><trkpt lat="51.021094" lon="15.643105"></trkpt><trkpt lat="51.021021" lon="15.641281"></trkpt><trkpt lat="51.020702" lon="15.637685"></trkpt><trkpt lat="51.02059" lon="15.637041"></trkpt><trkpt lat="51.02046" lon="15.636513"></trkpt><trkpt lat="51.020287" lon="15.636013"></trkpt><trkpt lat="51.019754" lon="15.634733"></trkpt><trkpt lat="51.019444" lon="15.634275"></trkpt><trkpt lat="51.019064" lon="15.633515"></trkpt><trkpt lat="51.018865" lon="15.632356"></trkpt><trkpt lat="51.018749" lon="15.631282"></trkpt><trkpt lat="51.018685" lon="15.629662"></trkpt><trkpt lat="51.018858" lon="15.628797"></trkpt><trkpt lat="51.020077" lon="15.624115"></trkpt><trkpt lat="51.020274" lon="15.623824"></trkpt><trkpt lat="51.023098" lon="15.620307"></trkpt><trkpt lat="51.023527" lon="15.620023"></trkpt><trkpt lat="51.023846" lon="15.619897"></trkpt><trkpt lat="51.02843" lon="15.617529"></trkpt><trkpt lat="51.028651" lon="15.617373"></trkpt><trkpt lat="51.030559" lon="15.61574"></trkpt><trkpt lat="51.030502" lon="15.61529"></trkpt><trkpt lat="51.03054" lon="15.614975"></trkpt><trkpt lat="51.030812" lon="15.615078"></trkpt><trkpt lat="51.030933" lon="15.615343"></trkpt><trkpt lat="51.031126" lon="15.615652"></trkpt><trkpt lat="51.030859" lon="15.615107"></trkpt><trkpt lat="51.030562" lon="15.614366"></trkpt><trkpt lat="51.030244" lon="15.61283"></trkpt><trkpt lat="51.030135" lon="15.611697"></trkpt><trkpt lat="51.030142" lon="15.611337"></trkpt><trkpt lat="51.030046" lon="15.610344"></trkpt><trkpt lat="51.029908" lon="15.607472"></trkpt><trkpt lat="51.030074" lon="15.60595"></trkpt><trkpt lat="51.030226" lon="15.605048"></trkpt><trkpt lat="51.030482" lon="15.602929"></trkpt><trkpt lat="51.030467" lon="15.602535"></trkpt><trkpt lat="51.030498" lon="15.599393"></trkpt><trkpt lat="51.030623" lon="15.598926"></trkpt><trkpt lat="51.030945" lon="15.597356"></trkpt><trkpt lat="51.03092" lon="15.597007"></trkpt><trkpt lat="51.030747" lon="15.595874"></trkpt><trkpt lat="51.030566" lon="15.595207"></trkpt><trkpt lat="51.030377" lon="15.595101"></trkpt><trkpt lat="51.030118" lon="15.59513"></trkpt><trkpt lat="51.030635" lon="15.59468"></trkpt><trkpt lat="51.030855" lon="15.594648"></trkpt><trkpt lat="51.03157" lon="15.594857"></trkpt><trkpt lat="51.032686" lon="15.594391"></trkpt><trkpt lat="51.033107" lon="15.594512"></trkpt><trkpt lat="51.033343" lon="15.594748"></trkpt><trkpt lat="51.033572" lon="15.595026"></trkpt><trkpt lat="51.034075" lon="15.595487"></trkpt><trkpt lat="51.034437" lon="15.595559"></trkpt><trkpt lat="51.034957" lon="15.5956"></trkpt><trkpt lat="51.03604" lon="15.595226"></trkpt><trkpt lat="51.038506" lon="15.594708"></trkpt><trkpt lat="51.038686" lon="15.594971"></trkpt><trkpt lat="51.038855" lon="15.595269"></trkpt><trkpt lat="51.039073" lon="15.595429"></trkpt><trkpt lat="51.039836" lon="15.595617"></trkpt><trkpt lat="51.040882" lon="15.59573"></trkpt><trkpt lat="51.041081" lon="15.595542"></trkpt><trkpt lat="51.041353" lon="15.59519"></trkpt><trkpt lat="51.041607" lon="15.595088"></trkpt><trkpt lat="51.042308" lon="15.595265"></trkpt><trkpt lat="51.0425" lon="15.595174"></trkpt><trkpt lat="51.044198" lon="15.594069"></trkpt><trkpt lat="51.044492" lon="15.593741"></trkpt><trkpt lat="51.044667" lon="15.593494"></trkpt><trkpt lat="51.048082" lon="15.58961"></trkpt><trkpt lat="51.048452" lon="15.589525"></trkpt><trkpt lat="51.048425" lon="15.589211"></trkpt><trkpt lat="51.048344" lon="15.588834"></trkpt><trkpt lat="51.047973" lon="15.586565"></trkpt><trkpt lat="51.047833" lon="15.585293"></trkpt><trkpt lat="51.047942" lon="15.585013"></trkpt><trkpt lat="51.047985" lon="15.584635"></trkpt><trkpt lat="51.047907" lon="15.584277"></trkpt><trkpt lat="51.04732" lon="15.580779"></trkpt><trkpt lat="51.047588" lon="15.580497"></trkpt><trkpt lat="51.04764" lon="15.580128"></trkpt><trkpt lat="51.047811" lon="15.579723"></trkpt><trkpt lat="51.048153" lon="15.578658"></trkpt><trkpt lat="51.048058" lon="15.57778"></trkpt><trkpt lat="51.047887" lon="15.577037"></trkpt><trkpt lat="51.047728" lon="15.576646"></trkpt><trkpt lat="51.047566" lon="15.576402"></trkpt><trkpt lat="51.047121" lon="15.575623"></trkpt><trkpt lat="51.046189" lon="15.573632"></trkpt><trkpt lat="51.04535" lon="15.572334"></trkpt><trkpt lat="51.044706" lon="15.570911"></trkpt><trkpt lat="51.044556" lon="15.57036"></trkpt><trkpt lat="51.044382" lon="15.569495"></trkpt><trkpt lat="51.044277" lon="15.568591"></trkpt><trkpt lat="51.043434" lon="15.564787"></trkpt><trkpt lat="51.043108" lon="15.564287"></trkpt><trkpt lat="51.042728" lon="15.564072"></trkpt><trkpt lat="51.042329" lon="15.563924"></trkpt><trkpt lat="51.041961" lon="15.563836"></trkpt><trkpt lat="51.04149" lon="15.563852"></trkpt><trkpt lat="51.041041" lon="15.563965"></trkpt><trkpt lat="51.040697" lon="15.564254"></trkpt><trkpt lat="51.039795" lon="15.564789"></trkpt><trkpt lat="51.039367" lon="15.564592"></trkpt><trkpt lat="51.038925" lon="15.56421"></trkpt><trkpt lat="51.0386" lon="15.563788"></trkpt><trkpt lat="51.038323" lon="15.563229"></trkpt><trkpt lat="51.038027" lon="15.562515"></trkpt><trkpt lat="51.037774" lon="15.562147"></trkpt><trkpt lat="51.037391" lon="15.561859"></trkpt><trkpt lat="51.037113" lon="15.561456"></trkpt><trkpt lat="51.036879" lon="15.560755"></trkpt><trkpt lat="51.036836" lon="15.560432"></trkpt><trkpt lat="51.036853" lon="15.560028"></trkpt><trkpt lat="51.037056" lon="15.559287"></trkpt><trkpt lat="51.037098" lon="15.558731"></trkpt><trkpt lat="51.037003" lon="15.558135"></trkpt><trkpt lat="51.035847" lon="15.553561"></trkpt><trkpt lat="51.035648" lon="15.553353"></trkpt><trkpt lat="51.035361" lon="15.553099"></trkpt><trkpt lat="51.035026" lon="15.552719"></trkpt><trkpt lat="51.034784" lon="15.552321"></trkpt><trkpt lat="51.034582" lon="15.551847"></trkpt><trkpt lat="51.033419" lon="15.54864"></trkpt><trkpt lat="51.033258" lon="15.548076"></trkpt><trkpt lat="51.030864" lon="15.541339"></trkpt><trkpt lat="51.030632" lon="15.540979"></trkpt><trkpt lat="51.030276" lon="15.540515"></trkpt><trkpt lat="51.029948" lon="15.540015"></trkpt><trkpt lat="51.029254" lon="15.53913"></trkpt><trkpt lat="51.028882" lon="15.538891"></trkpt><trkpt lat="51.028506" lon="15.538764"></trkpt><trkpt lat="51.02823" lon="15.538713"></trkpt><trkpt lat="51.027924" lon="15.538697"></trkpt><trkpt lat="51.027485" lon="15.538777"></trkpt><trkpt lat="51.027085" lon="15.538793"></trkpt><trkpt lat="51.026897" lon="15.538676"></trkpt><trkpt lat="51.026328" lon="15.537848"></trkpt><trkpt lat="51.025828" lon="15.536982"></trkpt><trkpt lat="51.025367" lon="15.536023"></trkpt><trkpt lat="51.024941" lon="15.534737"></trkpt><trkpt lat="51.024651" lon="15.533447"></trkpt><trkpt lat="51.024512" lon="15.533131"></trkpt><trkpt lat="51.024333" lon="15.532839"></trkpt><trkpt lat="51.023716" lon="15.531485"></trkpt><trkpt lat="51.02309" lon="15.530912"></trkpt><trkpt lat="51.021773" lon="15.529193"></trkpt><trkpt lat="51.021499" lon="15.52789"></trkpt><trkpt lat="51.021148" lon="15.526679"></trkpt><trkpt lat="51.020582" lon="15.525954"></trkpt><trkpt lat="51.020196" lon="15.525601"></trkpt><trkpt lat="51.019601" lon="15.525277"></trkpt><trkpt lat="51.019087" lon="15.524865"></trkpt><trkpt lat="51.018866" lon="15.524585"></trkpt><trkpt lat="51.015389" lon="15.518995"></trkpt><trkpt lat="51.015253" lon="15.518634"></trkpt><trkpt lat="51.015088" lon="15.518357"></trkpt><trkpt lat="51.014907" lon="15.518172"></trkpt><trkpt lat="51.01447" lon="15.517883"></trkpt><trkpt lat="51.012321" lon="15.516786"></trkpt><trkpt lat="51.012405" lon="15.515861"></trkpt><trkpt lat="51.012595" lon="15.515049"></trkpt><trkpt lat="51.012784" lon="15.513649"></trkpt><trkpt lat="51.012798" lon="15.513018"></trkpt><trkpt lat="51.012262" lon="15.513012"></trkpt><trkpt lat="51.012091" lon="15.512768"></trkpt><trkpt lat="51.011817" lon="15.511686"></trkpt><trkpt lat="51.011632" lon="15.510651"></trkpt><trkpt lat="51.012099" lon="15.510736"></trkpt><trkpt lat="51.012368" lon="15.510748"></trkpt><trkpt lat="51.01257" lon="15.510592"></trkpt><trkpt lat="51.012641" lon="15.509883"></trkpt><trkpt lat="51.012733" lon="15.509438"></trkpt><trkpt lat="51.013658" lon="15.506207"></trkpt><trkpt lat="51.013888" lon="15.505771"></trkpt><trkpt lat="51.014243" lon="15.505549"></trkpt><trkpt lat="51.01474" lon="15.505033"></trkpt><trkpt lat="51.014754" lon="15.504502"></trkpt><trkpt lat="51.014815" lon="15.504152"></trkpt><trkpt lat="51.014867" lon="15.503719"></trkpt><trkpt lat="51.014968" lon="15.503258"></trkpt><trkpt lat="51.015132" lon="15.502745"></trkpt><trkpt lat="51.015337" lon="15.501368"></trkpt><trkpt lat="51.015294" lon="15.501056"></trkpt><trkpt lat="51.015073" lon="15.500172"></trkpt><trkpt lat="51.0148" lon="15.498514"></trkpt><trkpt lat="51.014807" lon="15.497697"></trkpt><trkpt lat="51.014911" lon="15.496286"></trkpt><trkpt lat="51.014887" lon="15.49448"></trkpt><trkpt lat="51.014795" lon="15.494013"></trkpt><trkpt lat="51.014595" lon="15.493282"></trkpt><trkpt lat="51.014453" lon="15.492891"></trkpt><trkpt lat="51.014263" lon="15.492537"></trkpt><trkpt lat="51.013507" lon="15.490876"></trkpt><trkpt lat="51.013083" lon="15.489717"></trkpt><trkpt lat="51.012974" lon="15.488512"></trkpt><trkpt lat="51.012949" lon="15.487131"></trkpt><trkpt lat="51.013055" lon="15.484063"></trkpt><trkpt lat="51.013114" lon="15.483557"></trkpt><trkpt lat="51.013333" lon="15.482527"></trkpt><trkpt lat="51.01355" lon="15.480826"></trkpt><trkpt lat="51.013324" lon="15.479525"></trkpt><trkpt lat="51.010345" lon="15.466891"></trkpt><trkpt lat="51.00975" lon="15.465499"></trkpt><trkpt lat="51.008784" lon="15.463758"></trkpt><trkpt lat="51.008335" lon="15.46331"></trkpt><trkpt lat="51.006764" lon="15.461402"></trkpt><trkpt lat="51.00669" lon="15.459487"></trkpt><trkpt lat="51.006725" lon="15.459083"></trkpt><trkpt lat="51.006802" lon="15.457039"></trkpt><trkpt lat="51.006738" lon="15.455917"></trkpt><trkpt lat="51.006821" lon="15.45457"></trkpt><trkpt lat="51.007089" lon="15.453287"></trkpt><trkpt lat="51.007521" lon="15.452308"></trkpt><trkpt lat="51.008058" lon="15.450828"></trkpt><trkpt lat="51.008175" lon="15.449791"></trkpt><trkpt lat="51.008214" lon="15.44907"></trkpt><trkpt lat="51.008457" lon="15.446875"></trkpt><trkpt lat="51.008781" lon="15.446696"></trkpt><trkpt lat="51.008845" lon="15.446337"></trkpt><trkpt lat="51.008826" lon="15.445979"></trkpt><trkpt lat="51.009305" lon="15.445299"></trkpt><trkpt lat="51.010058" lon="15.444386"></trkpt><trkpt lat="51.010976" lon="15.44351"></trkpt><trkpt lat="51.014756" lon="15.43896"></trkpt><trkpt lat="51.015551" lon="15.437581"></trkpt><trkpt lat="51.019369" lon="15.431947"></trkpt><trkpt lat="51.020271" lon="15.431707"></trkpt><trkpt lat="51.022479" lon="15.430713"></trkpt><trkpt lat="51.023272" lon="15.429718"></trkpt><trkpt lat="51.025568" lon="15.426267"></trkpt><trkpt lat="51.026323" lon="15.424941"></trkpt><trkpt lat="51.027079" lon="15.423832"></trkpt><trkpt lat="51.02753" lon="15.423452"></trkpt><trkpt lat="51.027656" lon="15.423927"></trkpt><trkpt lat="51.027931" lon="15.4253"></trkpt><trkpt lat="51.028153" lon="15.425911"></trkpt><trkpt lat="51.028615" lon="15.427517"></trkpt><trkpt lat="51.028782" lon="15.428715"></trkpt><trkpt lat="51.028824" lon="15.429197"></trkpt><trkpt lat="51.028805" lon="15.429794"></trkpt><trkpt lat="51.028816" lon="15.430154"></trkpt><trkpt lat="51.029064" lon="15.430188"></trkpt><trkpt lat="51.031337" lon="15.42962"></trkpt><trkpt lat="51.033761" lon="15.428377"></trkpt></trkseg></trk></gpx>