<?xml version="1.0" encoding="UTF-8" standalone="no" ?><gpx xmlns="http://www.topografix.com/GPX/1/1" xmlns:gpxx="http://www.garmin.com/xmlschemas/GpxExtensions/v3" ><trk><trkseg><trkpt lat="52.303861" lon="16.134139"></trkpt><trkpt lat="52.303846" lon="16.133812"></trkpt><trkpt lat="52.304083" lon="16.133656"></trkpt><trkpt lat="52.304167" lon="16.133233"></trkpt><trkpt lat="52.3042" lon="16.13289"></trkpt><trkpt lat="52.304253" lon="16.131718"></trkpt><trkpt lat="52.304414" lon="16.131011"></trkpt><trkpt lat="52.304422" lon="16.130586"></trkpt><trkpt lat="52.304317" lon="16.130149"></trkpt><trkpt lat="52.304332" lon="16.129277"></trkpt><trkpt lat="52.304389" lon="16.128425"></trkpt><trkpt lat="52.305126" lon="16.128504"></trkpt><trkpt lat="52.305807" lon="16.128679"></trkpt><trkpt lat="52.306611" lon="16.129055"></trkpt><trkpt lat="52.306828" lon="16.129093"></trkpt><trkpt lat="52.307026" lon="16.129031"></trkpt><trkpt lat="52.308322" lon="16.129284"></trkpt><trkpt lat="52.308452" lon="16.128639"></trkpt><trkpt lat="52.308401" lon="16.128973"></trkpt><trkpt lat="52.308864" lon="16.129356"></trkpt><trkpt lat="52.309448" lon="16.129306"></trkpt><trkpt lat="52.315171" lon="16.13064"></trkpt><trkpt lat="52.315107" lon="16.131638"></trkpt><trkpt lat="52.315539" lon="16.13186"></trkpt><trkpt lat="52.315748" lon="16.13186"></trkpt><trkpt lat="52.315947" lon="16.131935"></trkpt><trkpt lat="52.316157" lon="16.131959"></trkpt><trkpt lat="52.316303" lon="16.13237"></trkpt><trkpt lat="52.31634" lon="16.132786"></trkpt><trkpt lat="52.316485" lon="16.133058"></trkpt><trkpt lat="52.316626" lon="16.133438"></trkpt><trkpt lat="52.316977" lon="16.133525"></trkpt><trkpt lat="52.317094" lon="16.134175"></trkpt><trkpt lat="52.317068" lon="16.135327"></trkpt><trkpt lat="52.316932" lon="16.137198"></trkpt><trkpt lat="52.31704" lon="16.137474"></trkpt><trkpt lat="52.317227" lon="16.137626"></trkpt><trkpt lat="52.317663" lon="16.13865"></trkpt><trkpt lat="52.323519" lon="16.150358"></trkpt><trkpt lat="52.323738" lon="16.150333"></trkpt><trkpt lat="52.32434" lon="16.150723"></trkpt><trkpt lat="52.334495" lon="16.158702"></trkpt><trkpt lat="52.337811" lon="16.161792"></trkpt><trkpt lat="52.33792" lon="16.162093"></trkpt><trkpt lat="52.338024" lon="16.162508"></trkpt><trkpt lat="52.33795" lon="16.162206"></trkpt><trkpt lat="52.338409" lon="16.16253"></trkpt><trkpt lat="52.338692" lon="16.162806"></trkpt><trkpt lat="52.340263" lon="16.163561"></trkpt><trkpt lat="52.341058" lon="16.163406"></trkpt><trkpt lat="52.341856" lon="16.163051"></trkpt><trkpt lat="52.342285" lon="16.162787"></trkpt><trkpt lat="52.34251" lon="16.162809"></trkpt><trkpt lat="52.352919" lon="16.16511"></trkpt><trkpt lat="52.353409" lon="16.165307"></trkpt><trkpt lat="52.376465" lon="16.177544"></trkpt><trkpt lat="52.377064" lon="16.177672"></trkpt><trkpt lat="52.377413" lon="16.17769"></trkpt><trkpt lat="52.377855" lon="16.17804"></trkpt><trkpt lat="52.378246" lon="16.178472"></trkpt><trkpt lat="52.378467" lon="16.178576"></trkpt><trkpt lat="52.379849" lon="16.178143"></trkpt><trkpt lat="52.38041" lon="16.178453"></trkpt><trkpt lat="52.383627" lon="16.177216"></trkpt><trkpt lat="52.384346" lon="16.177628"></trkpt><trkpt lat="52.406185" lon="16.193118"></trkpt><trkpt lat="52.407257" lon="16.194086"></trkpt><trkpt lat="52.412483" lon="16.19758"></trkpt><trkpt lat="52.413304" lon="16.197673"></trkpt><trkpt lat="52.413952" lon="16.198128"></trkpt><trkpt lat="52.414242" lon="16.198401"></trkpt><trkpt lat="52.414783" lon="16.198514"></trkpt><trkpt lat="52.414992" lon="16.198427"></trkpt><trkpt lat="52.41576" lon="16.197883"></trkpt><trkpt lat="52.416181" lon="16.197658"></trkpt><trkpt lat="52.417281" lon="16.196889"></trkpt><trkpt lat="52.417852" lon="16.19631"></trkpt><trkpt lat="52.418393" lon="16.195663"></trkpt><trkpt lat="52.419953" lon="16.194094"></trkpt><trkpt lat="52.42072" lon="16.193634"></trkpt><trkpt lat="52.444001" lon="16.178536"></trkpt><trkpt lat="52.445757" lon="16.177964"></trkpt><trkpt lat="52.446908" lon="16.179303"></trkpt><trkpt lat="52.44695" lon="16.179762"></trkpt><trkpt lat="52.447174" lon="16.181338"></trkpt><trkpt lat="52.447524" lon="16.181234"></trkpt><trkpt lat="52.447992" lon="16.181245"></trkpt><trkpt lat="52.448054" lon="16.181738"></trkpt><trkpt lat="52.448332" lon="16.181663"></trkpt><trkpt lat="52.448543" lon="16.181555"></trkpt><trkpt lat="52.449018" lon="16.181153"></trkpt><trkpt lat="52.449317" lon="16.180984"></trkpt><trkpt lat="52.449239" lon="16.180663"></trkpt><trkpt lat="52.44922" lon="16.180339"></trkpt><trkpt lat="52.449095" lon="16.179755"></trkpt><trkpt lat="52.449004" lon="16.179114"></trkpt><trkpt lat="52.449421" lon="16.178929"></trkpt><trkpt lat="52.449618" lon="16.17964"></trkpt><trkpt lat="52.449789" lon="16.180127"></trkpt><trkpt lat="52.450002" lon="16.179995"></trkpt><trkpt lat="52.450667" lon="16.179673"></trkpt><trkpt lat="52.450909" lon="16.179503"></trkpt><trkpt lat="52.450948" lon="16.179131"></trkpt><trkpt lat="52.451349" lon="16.177305"></trkpt><trkpt lat="52.45154" lon="16.176922"></trkpt><trkpt lat="52.452729" lon="16.173948"></trkpt><trkpt lat="52.452841" lon="16.173381"></trkpt><trkpt lat="52.452844" lon="16.173003"></trkpt><trkpt lat="52.453255" lon="16.171814"></trkpt><trkpt lat="52.45334" lon="16.171452"></trkpt><trkpt lat="52.453635" lon="16.171243"></trkpt><trkpt lat="52.454024" lon="16.170679"></trkpt><trkpt lat="52.454442" lon="16.170202"></trkpt><trkpt lat="52.454806" lon="16.170049"></trkpt><trkpt lat="52.455688" lon="16.169787"></trkpt><trkpt lat="52.459706" lon="16.16793"></trkpt><trkpt lat="52.46047" lon="16.167213"></trkpt><trkpt lat="52.467274" lon="16.162211"></trkpt><trkpt lat="52.467976" lon="16.162191"></trkpt><trkpt lat="52.473995" lon="16.161221"></trkpt><trkpt lat="52.474631" lon="16.160662"></trkpt><trkpt lat="52.478215" lon="16.156896"></trkpt><trkpt lat="52.47871" lon="16.155785"></trkpt><trkpt lat="52.489251" lon="16.135529"></trkpt><trkpt lat="52.489259" lon="16.136576"></trkpt><trkpt lat="52.489397" lon="16.138865"></trkpt><trkpt lat="52.489504" lon="16.139208"></trkpt><trkpt lat="52.490068" lon="16.139931"></trkpt><trkpt lat="52.490399" lon="16.140522"></trkpt><trkpt lat="52.490549" lon="16.140929"></trkpt><trkpt lat="52.495972" lon="16.153492"></trkpt><trkpt lat="52.496242" lon="16.153989"></trkpt><trkpt lat="52.496438" lon="16.154606"></trkpt><trkpt lat="52.49652" lon="16.154921"></trkpt><trkpt lat="52.496893" lon="16.156864"></trkpt><trkpt lat="52.496998" lon="16.157802"></trkpt><trkpt lat="52.498296" lon="16.165964"></trkpt><trkpt lat="52.498681" lon="16.165623"></trkpt><trkpt lat="52.498891" lon="16.165522"></trkpt><trkpt lat="52.499408" lon="16.166542"></trkpt><trkpt lat="52.499614" lon="16.16665"></trkpt><trkpt lat="52.5005" lon="16.166767"></trkpt><trkpt lat="52.509668" lon="16.166669"></trkpt><trkpt lat="52.510596" lon="16.166011"></trkpt><trkpt lat="52.51077" lon="16.165708"></trkpt><trkpt lat="52.510864" lon="16.165311"></trkpt><trkpt lat="52.511101" lon="16.165173"></trkpt><trkpt lat="52.512" lon="16.165209"></trkpt><trkpt lat="52.520393" lon="16.166764"></trkpt><trkpt lat="52.521096" lon="16.168047"></trkpt><trkpt lat="52.531424" lon="16.18427"></trkpt><trkpt lat="52.531666" lon="16.184333"></trkpt><trkpt lat="52.532483" lon="16.184889"></trkpt><trkpt lat="52.532718" lon="16.185002"></trkpt><trkpt lat="52.532954" lon="16.184952"></trkpt><trkpt lat="52.53369" lon="16.184495"></trkpt><trkpt lat="52.550311" lon="16.176358"></trkpt><trkpt lat="52.551334" lon="16.17603"></trkpt><trkpt lat="52.556114" lon="16.172982"></trkpt><trkpt lat="52.556438" lon="16.171827"></trkpt><trkpt lat="52.558239" lon="16.16769"></trkpt><trkpt lat="52.558454" lon="16.1676"></trkpt><trkpt lat="52.558681" lon="16.167584"></trkpt><trkpt lat="52.55928" lon="16.167769"></trkpt><trkpt lat="52.56023" lon="16.168843"></trkpt><trkpt lat="52.561024" lon="16.169962"></trkpt><trkpt lat="52.561378" lon="16.170369"></trkpt><trkpt lat="52.561707" lon="16.170314"></trkpt><trkpt lat="52.562119" lon="16.170183"></trkpt><trkpt lat="52.562886" lon="16.17065"></trkpt><trkpt lat="52.563096" lon="16.170634"></trkpt><trkpt lat="52.563942" lon="16.170003"></trkpt><trkpt lat="52.572346" lon="16.162432"></trkpt><trkpt lat="52.573009" lon="16.161485"></trkpt><trkpt lat="52.580842" lon="16.151813"></trkpt><trkpt lat="52.581116" lon="16.151638"></trkpt><trkpt lat="52.581264" lon="16.151415"></trkpt><trkpt lat="52.581381" lon="16.151131"></trkpt><trkpt lat="52.581477" lon="16.150815"></trkpt><trkpt lat="52.582678" lon="16.147475"></trkpt><trkpt lat="52.582956" lon="16.147339"></trkpt><trkpt lat="52.58443" lon="16.147002"></trkpt><trkpt lat="52.585445" lon="16.146897"></trkpt><trkpt lat="52.587066" lon="16.147394"></trkpt><trkpt lat="52.587267" lon="16.147515"></trkpt><trkpt lat="52.587675" lon="16.147569"></trkpt><trkpt lat="52.591544" lon="16.147592"></trkpt><trkpt lat="52.591815" lon="16.14751"></trkpt><trkpt lat="52.600204" lon="16.145967"></trkpt><trkpt lat="52.600389" lon="16.146191"></trkpt><trkpt lat="52.602644" lon="16.149376"></trkpt><trkpt lat="52.60284" lon="16.149537"></trkpt><trkpt lat="52.60367" lon="16.149992"></trkpt><trkpt lat="52.603882" lon="16.150171"></trkpt><trkpt lat="52.604109" lon="16.150251"></trkpt><trkpt lat="52.604342" lon="16.15023"></trkpt><trkpt lat="52.604914" lon="16.150076"></trkpt><trkpt lat="52.607337" lon="16.149739"></trkpt><trkpt lat="52.612084" lon="16.151037"></trkpt><trkpt lat="52.617375" lon="16.15166"></trkpt><trkpt lat="52.617707" lon="16.151306"></trkpt><trkpt lat="52.618227" lon="16.150881"></trkpt><trkpt lat="52.618568" lon="16.15067"></trkpt><trkpt lat="52.618895" lon="16.150373"></trkpt><trkpt lat="52.619183" lon="16.149976"></trkpt><trkpt lat="52.619402" lon="16.149588"></trkpt><trkpt lat="52.620941" lon="16.147294"></trkpt><trkpt lat="52.621208" lon="16.146967"></trkpt><trkpt lat="52.621881" lon="16.146299"></trkpt><trkpt lat="52.622319" lon="16.146017"></trkpt><trkpt lat="52.622807" lon="16.145615"></trkpt><trkpt lat="52.623287" lon="16.144923"></trkpt><trkpt lat="52.623817" lon="16.143945"></trkpt><trkpt lat="52.624442" lon="16.142982"></trkpt><trkpt lat="52.624972" lon="16.142594"></trkpt><trkpt lat="52.625866" lon="16.142268"></trkpt><trkpt lat="52.626715" lon="16.14185"></trkpt><trkpt lat="52.626696" lon="16.142884"></trkpt><trkpt lat="52.626921" lon="16.144434"></trkpt><trkpt lat="52.627164" lon="16.145588"></trkpt><trkpt lat="52.627875" lon="16.146301"></trkpt><trkpt lat="52.630062" lon="16.149054"></trkpt><trkpt lat="52.630173" lon="16.14933"></trkpt><trkpt lat="52.63767" lon="16.164322"></trkpt><trkpt lat="52.638457" lon="16.164888"></trkpt><trkpt lat="52.639027" lon="16.165597"></trkpt><trkpt lat="52.639426" lon="16.166184"></trkpt><trkpt lat="52.641132" lon="16.169079"></trkpt><trkpt lat="52.640971" lon="16.169824"></trkpt><trkpt lat="52.640039" lon="16.173005"></trkpt><trkpt lat="52.639647" lon="16.173327"></trkpt><trkpt lat="52.639462" lon="16.17364"></trkpt><trkpt lat="52.639209" lon="16.174558"></trkpt><trkpt lat="52.639208" lon="16.174924"></trkpt><trkpt lat="52.639338" lon="16.17564"></trkpt><trkpt lat="52.639722" lon="16.178499"></trkpt><trkpt lat="52.639627" lon="16.179026"></trkpt><trkpt lat="52.630974" lon="16.216987"></trkpt><trkpt lat="52.630789" lon="16.217151"></trkpt><trkpt lat="52.630021" lon="16.217586"></trkpt><trkpt lat="52.629539" lon="16.217735"></trkpt><trkpt lat="52.628894" lon="16.217694"></trkpt><trkpt lat="52.628085" lon="16.217871"></trkpt><trkpt lat="52.62782" lon="16.218145"></trkpt><trkpt lat="52.626726" lon="16.219082"></trkpt><trkpt lat="52.626908" lon="16.21894"></trkpt><trkpt lat="52.627062" lon="16.219178"></trkpt><trkpt lat="52.626919" lon="16.219859"></trkpt><trkpt lat="52.626968" lon="16.221391"></trkpt><trkpt lat="52.627082" lon="16.222678"></trkpt><trkpt lat="52.630368" lon="16.247501"></trkpt><trkpt lat="52.630362" lon="16.255555"></trkpt><trkpt lat="52.629795" lon="16.255852"></trkpt><trkpt lat="52.625606" lon="16.258608"></trkpt><trkpt lat="52.625631" lon="16.258974"></trkpt><trkpt lat="52.625745" lon="16.259272"></trkpt><trkpt lat="52.625895" lon="16.259494"></trkpt><trkpt lat="52.62649" lon="16.26025"></trkpt><trkpt lat="52.635279" lon="16.273461"></trkpt><trkpt lat="52.635646" lon="16.274306"></trkpt><trkpt lat="52.640357" lon="16.283462"></trkpt><trkpt lat="52.64095" lon="16.283914"></trkpt><trkpt lat="52.641141" lon="16.284127"></trkpt><trkpt lat="52.641311" lon="16.284637"></trkpt><trkpt lat="52.641478" lon="16.285385"></trkpt><trkpt lat="52.642377" lon="16.28867"></trkpt><trkpt lat="52.642648" lon="16.289418"></trkpt><trkpt lat="52.644281" lon="16.292933"></trkpt><trkpt lat="52.644879" lon="16.293439"></trkpt><trkpt lat="52.666824" lon="16.308754"></trkpt><trkpt lat="52.667279" lon="16.308809"></trkpt><trkpt lat="52.667673" lon="16.308653"></trkpt><trkpt lat="52.667813" lon="16.308237"></trkpt><trkpt lat="52.668057" lon="16.307658"></trkpt><trkpt lat="52.668413" lon="16.30707"></trkpt><trkpt lat="52.671792" lon="16.302254"></trkpt><trkpt lat="52.672321" lon="16.303123"></trkpt><trkpt lat="52.690469" lon="16.331892"></trkpt><trkpt lat="52.691709" lon="16.334373"></trkpt><trkpt lat="52.691844" lon="16.334903"></trkpt><trkpt lat="52.700218" lon="16.361007"></trkpt><trkpt lat="52.701135" lon="16.362174"></trkpt><trkpt lat="52.701854" lon="16.363259"></trkpt><trkpt lat="52.702458" lon="16.364481"></trkpt><trkpt lat="52.703934" lon="16.366587"></trkpt><trkpt lat="52.705043" lon="16.367388"></trkpt><trkpt lat="52.707075" lon="16.369384"></trkpt><trkpt lat="52.707197" lon="16.369669"></trkpt><trkpt lat="52.707146" lon="16.369997"></trkpt><trkpt lat="52.706938" lon="16.370273"></trkpt><trkpt lat="52.706495" lon="16.37065"></trkpt><trkpt lat="52.705542" lon="16.371625"></trkpt><trkpt lat="52.705493" lon="16.371965"></trkpt><trkpt lat="52.705471" lon="16.372987"></trkpt><trkpt lat="52.70515" lon="16.374298"></trkpt><trkpt lat="52.70466" lon="16.374856"></trkpt><trkpt lat="52.704644" lon="16.375392"></trkpt><trkpt lat="52.704793" lon="16.376314"></trkpt><trkpt lat="52.705311" lon="16.380746"></trkpt><trkpt lat="52.705782" lon="16.380719"></trkpt><trkpt lat="52.705775" lon="16.381266"></trkpt><trkpt lat="52.705677" lon="16.382228"></trkpt><trkpt lat="52.705522" lon="16.383213"></trkpt><trkpt lat="52.705151" lon="16.385749"></trkpt></trkseg></trk></gpx>