<?xml version="1.0" encoding="UTF-8" standalone="no" ?><gpx xmlns="http://www.topografix.com/GPX/1/1" xmlns:gpxx="http://www.garmin.com/xmlschemas/GpxExtensions/v3" ><trk><trkseg><trkpt lat="53.587851" lon="16.015612"></trkpt><trkpt lat="53.588128" lon="16.016253"></trkpt><trkpt lat="53.587806" lon="16.016229"></trkpt><trkpt lat="53.587607" lon="16.016339"></trkpt><trkpt lat="53.587278" lon="16.016361"></trkpt><trkpt lat="53.586491" lon="16.016209"></trkpt><trkpt lat="53.586323" lon="16.01574"></trkpt><trkpt lat="53.58624" lon="16.016054"></trkpt><trkpt lat="53.586057" lon="16.016618"></trkpt><trkpt lat="53.585819" lon="16.017147"></trkpt><trkpt lat="53.58562" lon="16.017706"></trkpt><trkpt lat="53.585424" lon="16.018001"></trkpt><trkpt lat="53.585444" lon="16.018744"></trkpt><trkpt lat="53.585592" lon="16.020822"></trkpt><trkpt lat="53.585744" lon="16.021201"></trkpt><trkpt lat="53.585908" lon="16.021435"></trkpt><trkpt lat="53.586028" lon="16.021818"></trkpt><trkpt lat="53.586234" lon="16.022882"></trkpt><trkpt lat="53.586249" lon="16.023351"></trkpt><trkpt lat="53.586192" lon="16.023699"></trkpt><trkpt lat="53.586038" lon="16.024314"></trkpt><trkpt lat="53.585969" lon="16.024962"></trkpt><trkpt lat="53.585887" lon="16.025491"></trkpt><trkpt lat="53.585667" lon="16.025673"></trkpt><trkpt lat="53.585282" lon="16.02577"></trkpt><trkpt lat="53.584678" lon="16.026269"></trkpt><trkpt lat="53.584587" lon="16.026956"></trkpt><trkpt lat="53.584566" lon="16.027299"></trkpt><trkpt lat="53.584276" lon="16.028902"></trkpt><trkpt lat="53.58446" lon="16.029557"></trkpt><trkpt lat="53.584583" lon="16.029876"></trkpt><trkpt lat="53.585775" lon="16.03249"></trkpt><trkpt lat="53.586298" lon="16.032732"></trkpt><trkpt lat="53.588734" lon="16.034435"></trkpt><trkpt lat="53.58897" lon="16.034902"></trkpt><trkpt lat="53.589259" lon="16.035652"></trkpt><trkpt lat="53.589568" lon="16.036596"></trkpt><trkpt lat="53.589575" lon="16.037398"></trkpt><trkpt lat="53.589864" lon="16.042942"></trkpt><trkpt lat="53.590059" lon="16.043103"></trkpt><trkpt lat="53.590368" lon="16.044048"></trkpt><trkpt lat="53.591811" lon="16.047629"></trkpt><trkpt lat="53.592341" lon="16.047606"></trkpt><trkpt lat="53.599717" lon="16.046341"></trkpt><trkpt lat="53.600382" lon="16.046066"></trkpt><trkpt lat="53.601703" lon="16.045731"></trkpt><trkpt lat="53.602359" lon="16.045753"></trkpt><trkpt lat="53.603153" lon="16.045979"></trkpt><trkpt lat="53.60392" lon="16.046391"></trkpt><trkpt lat="53.62792" lon="16.056477"></trkpt><trkpt lat="53.628482" lon="16.056372"></trkpt><trkpt lat="53.634044" lon="16.054624"></trkpt><trkpt lat="53.634407" lon="16.054037"></trkpt><trkpt lat="53.634613" lon="16.053606"></trkpt><trkpt lat="53.63489" lon="16.052847"></trkpt><trkpt lat="53.637311" lon="16.047352"></trkpt><trkpt lat="53.637627" lon="16.047041"></trkpt><trkpt lat="53.637978" lon="16.046768"></trkpt><trkpt lat="53.638504" lon="16.046432"></trkpt><trkpt lat="53.646152" lon="16.042926"></trkpt><trkpt lat="53.646395" lon="16.04332"></trkpt><trkpt lat="53.647321" lon="16.044455"></trkpt><trkpt lat="53.647583" lon="16.044662"></trkpt><trkpt lat="53.647987" lon="16.044866"></trkpt><trkpt lat="53.64823" lon="16.045077"></trkpt><trkpt lat="53.648473" lon="16.045411"></trkpt><trkpt lat="53.649172" lon="16.045804"></trkpt><trkpt lat="53.649568" lon="16.045967"></trkpt><trkpt lat="53.64998" lon="16.046189"></trkpt><trkpt lat="53.65022" lon="16.046268"></trkpt><trkpt lat="53.654698" lon="16.048318"></trkpt><trkpt lat="53.657229" lon="16.049108"></trkpt><trkpt lat="53.65976" lon="16.048684"></trkpt><trkpt lat="53.660076" lon="16.048839"></trkpt><trkpt lat="53.660261" lon="16.04867"></trkpt><trkpt lat="53.660119" lon="16.048936"></trkpt><trkpt lat="53.659255" lon="16.050906"></trkpt><trkpt lat="53.659313" lon="16.05152"></trkpt><trkpt lat="53.659475" lon="16.05215"></trkpt><trkpt lat="53.659386" lon="16.052737"></trkpt><trkpt lat="53.659225" lon="16.053211"></trkpt><trkpt lat="53.65915" lon="16.053529"></trkpt><trkpt lat="53.658897" lon="16.05417"></trkpt><trkpt lat="53.658514" lon="16.055325"></trkpt><trkpt lat="53.658428" lon="16.055793"></trkpt><trkpt lat="53.658391" lon="16.056306"></trkpt><trkpt lat="53.658486" lon="16.058336"></trkpt><trkpt lat="53.658696" lon="16.059557"></trkpt><trkpt lat="53.658682" lon="16.059923"></trkpt><trkpt lat="53.658613" lon="16.060274"></trkpt><trkpt lat="53.658078" lon="16.061395"></trkpt><trkpt lat="53.65759" lon="16.062258"></trkpt><trkpt lat="53.656769" lon="16.063386"></trkpt><trkpt lat="53.656469" lon="16.063862"></trkpt><trkpt lat="53.655985" lon="16.065116"></trkpt><trkpt lat="53.654272" lon="16.070447"></trkpt><trkpt lat="53.654204" lon="16.071597"></trkpt><trkpt lat="53.653771" lon="16.07492"></trkpt><trkpt lat="53.65323" lon="16.076566"></trkpt><trkpt lat="53.653082" lon="16.077572"></trkpt><trkpt lat="53.653033" lon="16.078199"></trkpt><trkpt lat="53.652972" lon="16.078686"></trkpt><trkpt lat="53.653386" lon="16.07838"></trkpt><trkpt lat="53.653887" lon="16.078322"></trkpt><trkpt lat="53.678063" lon="16.082841"></trkpt><trkpt lat="53.678429" lon="16.083188"></trkpt><trkpt lat="53.679048" lon="16.083678"></trkpt><trkpt lat="53.679562" lon="16.084004"></trkpt><trkpt lat="53.679883" lon="16.084257"></trkpt><trkpt lat="53.680337" lon="16.084431"></trkpt><trkpt lat="53.680795" lon="16.084442"></trkpt><trkpt lat="53.685818" lon="16.085166"></trkpt><trkpt lat="53.686461" lon="16.085909"></trkpt><trkpt lat="53.686898" lon="16.086633"></trkpt><trkpt lat="53.687913" lon="16.088085"></trkpt><trkpt lat="53.688284" lon="16.088803"></trkpt><trkpt lat="53.688745" lon="16.089124"></trkpt><trkpt lat="53.689607" lon="16.089887"></trkpt><trkpt lat="53.689936" lon="16.090458"></trkpt><trkpt lat="53.690148" lon="16.09136"></trkpt><trkpt lat="53.690645" lon="16.093102"></trkpt><trkpt lat="53.69083" lon="16.093298"></trkpt><trkpt lat="53.691631" lon="16.093496"></trkpt><trkpt lat="53.692316" lon="16.093146"></trkpt><trkpt lat="53.692522" lon="16.093001"></trkpt><trkpt lat="53.693149" lon="16.092122"></trkpt><trkpt lat="53.693402" lon="16.091853"></trkpt><trkpt lat="53.693697" lon="16.091739"></trkpt><trkpt lat="53.694124" lon="16.091639"></trkpt><trkpt lat="53.694514" lon="16.091334"></trkpt><trkpt lat="53.695043" lon="16.090514"></trkpt><trkpt lat="53.695564" lon="16.090199"></trkpt><trkpt lat="53.696168" lon="16.090021"></trkpt><trkpt lat="53.696698" lon="16.089795"></trkpt><trkpt lat="53.696916" lon="16.089822"></trkpt><trkpt lat="53.697313" lon="16.089937"></trkpt><trkpt lat="53.699159" lon="16.089129"></trkpt><trkpt lat="53.699894" lon="16.088599"></trkpt><trkpt lat="53.701255" lon="16.087392"></trkpt><trkpt lat="53.702788" lon="16.08577"></trkpt><trkpt lat="53.703231" lon="16.085165"></trkpt><trkpt lat="53.704331" lon="16.083894"></trkpt><trkpt lat="53.704547" lon="16.083877"></trkpt><trkpt lat="53.704761" lon="16.083934"></trkpt><trkpt lat="53.70656" lon="16.083865"></trkpt><trkpt lat="53.707902" lon="16.083554"></trkpt><trkpt lat="53.708048" lon="16.083281"></trkpt><trkpt lat="53.708217" lon="16.082805"></trkpt><trkpt lat="53.708512" lon="16.081796"></trkpt><trkpt lat="53.708645" lon="16.081012"></trkpt><trkpt lat="53.709117" lon="16.079446"></trkpt><trkpt lat="53.709392" lon="16.079363"></trkpt><trkpt lat="53.710079" lon="16.078858"></trkpt><trkpt lat="53.7103" lon="16.078346"></trkpt><trkpt lat="53.710967" lon="16.076548"></trkpt><trkpt lat="53.714991" lon="16.067534"></trkpt><trkpt lat="53.715492" lon="16.068022"></trkpt><trkpt lat="53.71609" lon="16.068462"></trkpt><trkpt lat="53.718899" lon="16.070125"></trkpt><trkpt lat="53.720127" lon="16.069218"></trkpt><trkpt lat="53.720723" lon="16.068863"></trkpt><trkpt lat="53.721613" lon="16.069104"></trkpt><trkpt lat="53.722081" lon="16.06974"></trkpt><trkpt lat="53.722878" lon="16.071102"></trkpt><trkpt lat="53.723146" lon="16.071489"></trkpt><trkpt lat="53.723344" lon="16.071593"></trkpt><trkpt lat="53.723561" lon="16.071598"></trkpt><trkpt lat="53.726829" lon="16.072124"></trkpt><trkpt lat="53.729138" lon="16.072064"></trkpt><trkpt lat="53.729326" lon="16.07217"></trkpt><trkpt lat="53.729501" lon="16.072329"></trkpt><trkpt lat="53.729724" lon="16.072639"></trkpt><trkpt lat="53.730437" lon="16.073902"></trkpt><trkpt lat="53.731081" lon="16.074796"></trkpt><trkpt lat="53.731585" lon="16.075383"></trkpt><trkpt lat="53.731788" lon="16.075459"></trkpt><trkpt lat="53.732659" lon="16.075371"></trkpt><trkpt lat="53.735693" lon="16.076056"></trkpt><trkpt lat="53.735921" lon="16.076279"></trkpt><trkpt lat="53.736138" lon="16.076538"></trkpt><trkpt lat="53.736429" lon="16.076945"></trkpt><trkpt lat="53.736892" lon="16.078003"></trkpt><trkpt lat="53.737699" lon="16.079555"></trkpt><trkpt lat="53.737889" lon="16.079676"></trkpt><trkpt lat="53.739821" lon="16.081195"></trkpt><trkpt lat="53.739918" lon="16.081528"></trkpt><trkpt lat="53.740204" lon="16.082331"></trkpt><trkpt lat="53.740758" lon="16.083026"></trkpt><trkpt lat="53.740984" lon="16.083141"></trkpt><trkpt lat="53.74157" lon="16.083323"></trkpt><trkpt lat="53.743602" lon="16.084411"></trkpt><trkpt lat="53.743774" lon="16.084714"></trkpt><trkpt lat="53.74392" lon="16.085079"></trkpt><trkpt lat="53.744034" lon="16.085495"></trkpt><trkpt lat="53.744117" lon="16.085925"></trkpt><trkpt lat="53.744599" lon="16.089187"></trkpt><trkpt lat="53.744626" lon="16.089751"></trkpt><trkpt lat="53.744975" lon="16.093359"></trkpt><trkpt lat="53.745161" lon="16.094314"></trkpt><trkpt lat="53.74541" lon="16.095328"></trkpt><trkpt lat="53.745673" lon="16.096136"></trkpt><trkpt lat="53.745854" lon="16.09646"></trkpt><trkpt lat="53.746048" lon="16.096751"></trkpt><trkpt lat="53.746538" lon="16.097226"></trkpt><trkpt lat="53.747036" lon="16.098004"></trkpt><trkpt lat="53.747112" lon="16.098549"></trkpt><trkpt lat="53.747111" lon="16.098932"></trkpt><trkpt lat="53.747379" lon="16.099099"></trkpt><trkpt lat="53.747665" lon="16.099046"></trkpt><trkpt lat="53.771593" lon="16.094158"></trkpt><trkpt lat="53.772227" lon="16.094172"></trkpt><trkpt lat="53.772718" lon="16.094064"></trkpt><trkpt lat="53.773732" lon="16.093634"></trkpt><trkpt lat="53.773901" lon="16.09339"></trkpt><trkpt lat="53.774126" lon="16.093408"></trkpt><trkpt lat="53.774329" lon="16.093682"></trkpt><trkpt lat="53.774524" lon="16.09383"></trkpt><trkpt lat="53.774796" lon="16.093857"></trkpt><trkpt lat="53.779566" lon="16.092555"></trkpt><trkpt lat="53.779717" lon="16.092004"></trkpt><trkpt lat="53.779974" lon="16.091218"></trkpt><trkpt lat="53.780112" lon="16.090909"></trkpt><trkpt lat="53.780349" lon="16.090269"></trkpt><trkpt lat="53.78087" lon="16.089157"></trkpt><trkpt lat="53.78111" lon="16.088822"></trkpt><trkpt lat="53.781334" lon="16.088619"></trkpt><trkpt lat="53.781705" lon="16.088405"></trkpt><trkpt lat="53.782309" lon="16.087974"></trkpt><trkpt lat="53.783461" lon="16.086803"></trkpt><trkpt lat="53.784457" lon="16.086031"></trkpt><trkpt lat="53.784723" lon="16.085931"></trkpt><trkpt lat="53.785826" lon="16.085344"></trkpt><trkpt lat="53.786078" lon="16.085174"></trkpt><trkpt lat="53.792847" lon="16.081565"></trkpt><trkpt lat="53.793298" lon="16.081478"></trkpt><trkpt lat="53.797711" lon="16.079976"></trkpt><trkpt lat="53.797957" lon="16.079838"></trkpt><trkpt lat="53.798483" lon="16.079367"></trkpt><trkpt lat="53.798678" lon="16.079142"></trkpt><trkpt lat="53.799097" lon="16.078574"></trkpt><trkpt lat="53.80216" lon="16.075262"></trkpt><trkpt lat="53.802481" lon="16.075084"></trkpt><trkpt lat="53.802727" lon="16.075003"></trkpt><trkpt lat="53.803155" lon="16.075523"></trkpt><trkpt lat="53.80349" lon="16.075729"></trkpt><trkpt lat="53.803885" lon="16.075826"></trkpt><trkpt lat="53.804231" lon="16.07559"></trkpt><trkpt lat="53.805133" lon="16.075118"></trkpt><trkpt lat="53.804869" lon="16.075123"></trkpt><trkpt lat="53.804972" lon="16.074691"></trkpt><trkpt lat="53.805178" lon="16.07416"></trkpt><trkpt lat="53.805353" lon="16.073593"></trkpt><trkpt lat="53.808266" lon="16.062206"></trkpt><trkpt lat="53.808386" lon="16.061517"></trkpt><trkpt lat="53.808884" lon="16.057689"></trkpt><trkpt lat="53.808947" lon="16.056929"></trkpt><trkpt lat="53.808974" lon="16.056077"></trkpt><trkpt lat="53.809111" lon="16.054961"></trkpt><trkpt lat="53.809203" lon="16.054627"></trkpt><trkpt lat="53.809308" lon="16.054315"></trkpt><trkpt lat="53.809509" lon="16.053811"></trkpt><trkpt lat="53.810582" lon="16.050455"></trkpt><trkpt lat="53.810724" lon="16.049431"></trkpt><trkpt lat="53.81096" lon="16.048161"></trkpt><trkpt lat="53.81148" lon="16.046204"></trkpt><trkpt lat="53.811717" lon="16.045632"></trkpt><trkpt lat="53.811859" lon="16.045384"></trkpt><trkpt lat="53.812599" lon="16.043774"></trkpt><trkpt lat="53.812826" lon="16.043031"></trkpt><trkpt lat="53.812915" lon="16.042639"></trkpt><trkpt lat="53.813483" lon="16.040608"></trkpt><trkpt lat="53.813794" lon="16.039969"></trkpt><trkpt lat="53.814422" lon="16.03827"></trkpt><trkpt lat="53.814633" lon="16.037409"></trkpt><trkpt lat="53.814724" lon="16.03662"></trkpt><trkpt lat="53.814633" lon="16.035872"></trkpt><trkpt lat="53.814566" lon="16.03553"></trkpt><trkpt lat="53.814469" lon="16.03485"></trkpt><trkpt lat="53.81444" lon="16.034501"></trkpt><trkpt lat="53.814251" lon="16.033459"></trkpt><trkpt lat="53.814111" lon="16.032312"></trkpt><trkpt lat="53.81435" lon="16.032195"></trkpt><trkpt lat="53.81762" lon="16.029953"></trkpt><trkpt lat="53.818283" lon="16.029251"></trkpt><trkpt lat="53.827668" lon="16.017577"></trkpt><trkpt lat="53.828314" lon="16.016287"></trkpt><trkpt lat="53.83061" lon="16.012563"></trkpt><trkpt lat="53.831526" lon="16.011659"></trkpt><trkpt lat="53.834148" lon="16.008331"></trkpt><trkpt lat="53.834917" lon="16.007167"></trkpt><trkpt lat="53.842867" lon="15.997735"></trkpt><trkpt lat="53.843775" lon="15.998017"></trkpt><trkpt lat="53.844286" lon="15.99808"></trkpt><trkpt lat="53.844541" lon="15.998151"></trkpt><trkpt lat="53.844624" lon="15.997831"></trkpt><trkpt lat="53.846162" lon="15.993203"></trkpt><trkpt lat="53.846565" lon="15.992261"></trkpt><trkpt lat="53.852867" lon="15.975101"></trkpt><trkpt lat="53.852892" lon="15.973216"></trkpt><trkpt lat="53.853277" lon="15.968106"></trkpt><trkpt lat="53.853591" lon="15.966746"></trkpt><trkpt lat="53.854813" lon="15.962604"></trkpt><trkpt lat="53.855261" lon="15.96134"></trkpt><trkpt lat="53.85862" lon="15.954375"></trkpt><trkpt lat="53.859426" lon="15.954015"></trkpt><trkpt lat="53.868251" lon="15.951268"></trkpt><trkpt lat="53.868225" lon="15.951606"></trkpt><trkpt lat="53.868299" lon="15.951286"></trkpt><trkpt lat="53.86856" lon="15.950816"></trkpt><trkpt lat="53.868779" lon="15.950348"></trkpt><trkpt lat="53.868981" lon="15.949493"></trkpt><trkpt lat="53.868871" lon="15.949136"></trkpt><trkpt lat="53.868719" lon="15.948723"></trkpt><trkpt lat="53.867821" lon="15.94558"></trkpt><trkpt lat="53.868115" lon="15.945397"></trkpt><trkpt lat="53.869174" lon="15.944326"></trkpt><trkpt lat="53.869153" lon="15.943842"></trkpt><trkpt lat="53.869257" lon="15.941257"></trkpt><trkpt lat="53.869769" lon="15.940966"></trkpt><trkpt lat="53.884349" lon="15.934943"></trkpt><trkpt lat="53.885068" lon="15.935601"></trkpt><trkpt lat="53.885956" lon="15.936077"></trkpt><trkpt lat="53.887199" lon="15.936283"></trkpt><trkpt lat="53.888592" lon="15.936696"></trkpt><trkpt lat="53.888745" lon="15.937056"></trkpt><trkpt lat="53.889027" lon="15.938636"></trkpt><trkpt lat="53.88943" lon="15.940362"></trkpt><trkpt lat="53.889652" lon="15.940579"></trkpt><trkpt lat="53.889888" lon="15.940635"></trkpt><trkpt lat="53.896179" lon="15.939951"></trkpt><trkpt lat="53.915225" lon="15.944469"></trkpt><trkpt lat="53.915421" lon="15.945037"></trkpt><trkpt lat="53.919876" lon="15.955131"></trkpt><trkpt lat="53.920527" lon="15.955703"></trkpt><trkpt lat="53.922328" lon="15.95759"></trkpt><trkpt lat="53.922717" lon="15.958478"></trkpt><trkpt lat="53.924705" lon="15.96195"></trkpt><trkpt lat="53.924959" lon="15.96217"></trkpt><trkpt lat="53.930746" lon="15.966036"></trkpt><trkpt lat="53.931273" lon="15.965544"></trkpt><trkpt lat="53.931569" lon="15.965177"></trkpt><trkpt lat="53.934828" lon="15.961765"></trkpt><trkpt lat="53.935267" lon="15.961433"></trkpt><trkpt lat="53.940959" lon="15.957914"></trkpt><trkpt lat="53.941306" lon="15.95784"></trkpt><trkpt lat="53.943905" lon="15.957683"></trkpt><trkpt lat="53.946516" lon="15.958517"></trkpt><trkpt lat="53.94714" lon="15.959133"></trkpt><trkpt lat="53.947597" lon="15.959456"></trkpt><trkpt lat="53.947857" lon="15.959687"></trkpt><trkpt lat="53.948312" lon="15.960716"></trkpt><trkpt lat="53.949139" lon="15.962284"></trkpt><trkpt lat="53.949632" lon="15.962925"></trkpt><trkpt lat="53.950094" lon="15.963432"></trkpt><trkpt lat="53.95048" lon="15.963781"></trkpt><trkpt lat="53.951042" lon="15.964192"></trkpt><trkpt lat="53.973924" lon="15.978372"></trkpt><trkpt lat="53.97491" lon="15.978844"></trkpt><trkpt lat="53.989412" lon="15.983953"></trkpt><trkpt lat="53.989877" lon="15.9837"></trkpt><trkpt lat="53.993931" lon="15.980782"></trkpt><trkpt lat="53.995146" lon="15.979197"></trkpt><trkpt lat="53.996039" lon="15.978295"></trkpt><trkpt lat="53.996976" lon="15.977567"></trkpt><trkpt lat="53.997221" lon="15.977568"></trkpt><trkpt lat="53.997461" lon="15.977641"></trkpt><trkpt lat="53.998523" lon="15.978419"></trkpt><trkpt lat="54.004592" lon="15.981649"></trkpt><trkpt lat="54.004797" lon="15.98116"></trkpt><trkpt lat="54.005432" lon="15.980089"></trkpt><trkpt lat="54.005688" lon="15.979904"></trkpt><trkpt lat="54.006069" lon="15.980073"></trkpt><trkpt lat="54.006156" lon="15.979492"></trkpt><trkpt lat="54.006344" lon="15.978644"></trkpt><trkpt lat="54.007066" lon="15.978778"></trkpt><trkpt lat="54.008992" lon="15.978901"></trkpt><trkpt lat="54.009532" lon="15.978403"></trkpt><trkpt lat="54.009756" lon="15.978269"></trkpt><trkpt lat="54.009572" lon="15.978557"></trkpt><trkpt lat="54.009733" lon="15.978349"></trkpt><trkpt lat="54.009643" lon="15.978847"></trkpt><trkpt lat="54.009641" lon="15.979373"></trkpt><trkpt lat="54.009542" lon="15.980737"></trkpt><trkpt lat="54.009454" lon="15.981496"></trkpt><trkpt lat="54.009427" lon="15.98188"></trkpt><trkpt lat="54.009187" lon="15.983941"></trkpt><trkpt lat="54.008994" lon="15.9845"></trkpt><trkpt lat="54.00868" lon="15.984858"></trkpt><trkpt lat="54.007881" lon="15.985628"></trkpt><trkpt lat="54.007011" lon="15.986182"></trkpt><trkpt lat="54.006804" lon="15.986187"></trkpt><trkpt lat="54.006208" lon="15.9863"></trkpt><trkpt lat="54.005815" lon="15.986427"></trkpt><trkpt lat="54.005806" lon="15.986952"></trkpt><trkpt lat="54.005559" lon="15.987181"></trkpt><trkpt lat="54.005826" lon="15.986378"></trkpt><trkpt lat="54.006264" lon="15.986191"></trkpt><trkpt lat="54.006837" lon="15.986097"></trkpt><trkpt lat="54.007743" lon="15.985784"></trkpt><trkpt lat="54.007828" lon="15.985463"></trkpt><trkpt lat="54.008123" lon="15.985246"></trkpt><trkpt lat="54.008303" lon="15.985508"></trkpt><trkpt lat="54.008551" lon="15.985217"></trkpt><trkpt lat="54.009223" lon="15.984271"></trkpt><trkpt lat="54.009335" lon="15.98297"></trkpt><trkpt lat="54.009953" lon="15.978428"></trkpt><trkpt lat="54.010222" lon="15.978478"></trkpt><trkpt lat="54.010162" lon="15.977986"></trkpt><trkpt lat="54.009877" lon="15.977869"></trkpt><trkpt lat="54.009689" lon="15.97776"></trkpt><trkpt lat="54.00996" lon="15.977764"></trkpt><trkpt lat="54.010146" lon="15.977654"></trkpt></trkseg></trk></gpx>