<?xml version="1.0" encoding="UTF-8" standalone="no" ?><gpx xmlns="http://www.topografix.com/GPX/1/1" xmlns:gpxx="http://www.garmin.com/xmlschemas/GpxExtensions/v3" ><trk><trkseg><trkpt lat="50.7395718154" lon="15.7287867274"></trkpt><trkpt lat="50.7392687257" lon="15.7290055789"></trkpt><trkpt lat="50.7390867546" lon="15.7294766419"></trkpt><trkpt lat="50.7383801602" lon="15.73098002"></trkpt><trkpt lat="50.7380820997" lon="15.7312976103"></trkpt><trkpt lat="50.737725785" lon="15.7317569386"></trkpt><trkpt lat="50.7368449308" lon="15.7331778388"></trkpt><trkpt lat="50.7368211262" lon="15.733602969"></trkpt><trkpt lat="50.7367408276" lon="15.7340222318"></trkpt><trkpt lat="50.7367580105" lon="15.7344560791"></trkpt><trkpt lat="50.7364943996" lon="15.7346012536"></trkpt><trkpt lat="50.7361373305" lon="15.7344730105"></trkpt><trkpt lat="50.7362737041" lon="15.7348488551"></trkpt><trkpt lat="50.7363670785" lon="15.7352524437"></trkpt><trkpt lat="50.7363617141" lon="15.7356879674"></trkpt><trkpt lat="50.7362944912" lon="15.7361702621"></trkpt><trkpt lat="50.7363866083" lon="15.7366285846"></trkpt><trkpt lat="50.7364882808" lon="15.7373728137"></trkpt><trkpt lat="50.7364480477" lon="15.7378976047"></trkpt><trkpt lat="50.7364400011" lon="15.7384381536"></trkpt><trkpt lat="50.7363976724" lon="15.7389385533"></trkpt><trkpt lat="50.7363129314" lon="15.7394377794"></trkpt><trkpt lat="50.7361405995" lon="15.7397734746"></trkpt><trkpt lat="50.7358838618" lon="15.7396349218"></trkpt><trkpt lat="50.7361499034" lon="15.7397343311"></trkpt><trkpt lat="50.7363493089" lon="15.7394464128"></trkpt><trkpt lat="50.7363759633" lon="15.7389864977"></trkpt><trkpt lat="50.7363789808" lon="15.7366984896"></trkpt><trkpt lat="50.7362797391" lon="15.7362673245"></trkpt><trkpt lat="50.7362188864" lon="15.7358287834"></trkpt><trkpt lat="50.7363245822" lon="15.735380603"></trkpt><trkpt lat="50.7362947427" lon="15.7349463366"></trkpt><trkpt lat="50.7361219916" lon="15.734551046"></trkpt><trkpt lat="50.7364638895" lon="15.7345433347"></trkpt><trkpt lat="50.7367631234" lon="15.7348234579"></trkpt><trkpt lat="50.7367281709" lon="15.7343670633"></trkpt><trkpt lat="50.736726243" lon="15.7334962673"></trkpt><trkpt lat="50.7368204556" lon="15.7330346759"></trkpt><trkpt lat="50.736993039" lon="15.7325944584"></trkpt><trkpt lat="50.7372372039" lon="15.7323362958"></trkpt><trkpt lat="50.7378494181" lon="15.7315555215"></trkpt><trkpt lat="50.7389630377" lon="15.7298135106"></trkpt><trkpt lat="50.7390864193" lon="15.7294027973"></trkpt><trkpt lat="50.7389291748" lon="15.7289987057"></trkpt><trkpt lat="50.7392900158" lon="15.7288704626"></trkpt><trkpt lat="50.7395672891" lon="15.728668794"></trkpt><trkpt lat="50.7394377887" lon="15.7293528412"></trkpt><trkpt lat="50.7393244654" lon="15.7289175689"></trkpt><trkpt lat="50.7394683827" lon="15.7284800336"></trkpt><trkpt lat="50.7398038264" lon="15.7271785755"></trkpt><trkpt lat="50.7398043294" lon="15.7265602425"></trkpt><trkpt lat="50.7398880646" lon="15.725953225"></trkpt><trkpt lat="50.7399967778" lon="15.725557683"></trkpt><trkpt lat="50.7401380129" lon="15.725175133"></trkpt><trkpt lat="50.7404407673" lon="15.7245163154"></trkpt><trkpt lat="50.7407485507" lon="15.7243517786"></trkpt><trkpt lat="50.7410468627" lon="15.7242745813"></trkpt><trkpt lat="50.7413840666" lon="15.7242613379"></trkpt><trkpt lat="50.7428258378" lon="15.7239970565"></trkpt><trkpt lat="50.7430722658" lon="15.7237641234"></trkpt><trkpt lat="50.7434859965" lon="15.7234503049"></trkpt><trkpt lat="50.7437556423" lon="15.7235418353"></trkpt><trkpt lat="50.7439827919" lon="15.7237835694"></trkpt><trkpt lat="50.7445567846" lon="15.7245191652"></trkpt><trkpt lat="50.7447358221" lon="15.7250223309"></trkpt><trkpt lat="50.745216608" lon="15.7261092961"></trkpt><trkpt lat="50.7455478609" lon="15.7263788581"></trkpt><trkpt lat="50.7458382938" lon="15.7265366893"></trkpt><trkpt lat="50.7461171597" lon="15.7267357595"></trkpt><trkpt lat="50.746692745" lon="15.7270385977"></trkpt><trkpt lat="50.7470113412" lon="15.7270232588"></trkpt><trkpt lat="50.7473166101" lon="15.7268801797"></trkpt><trkpt lat="50.7476248965" lon="15.7266845461"></trkpt><trkpt lat="50.74795397" lon="15.7263744157"></trkpt><trkpt lat="50.7483188342" lon="15.7259473577"></trkpt><trkpt lat="50.7486082613" lon="15.7253982592"></trkpt><trkpt lat="50.7494095713" lon="15.7235347945"></trkpt><trkpt lat="50.7495400775" lon="15.7231448684"></trkpt><trkpt lat="50.7496549934" lon="15.7224888168"></trkpt><trkpt lat="50.7497791294" lon="15.7212002669"></trkpt><trkpt lat="50.7497748546" lon="15.7207735442"></trkpt><trkpt lat="50.749421306" lon="15.7155296579"></trkpt><trkpt lat="50.7492585294" lon="15.7150485367"></trkpt><trkpt lat="50.7491530012" lon="15.7146550063"></trkpt><trkpt lat="50.749407392" lon="15.7148065511"></trkpt><trkpt lat="50.7500052731" lon="15.715050716"></trkpt><trkpt lat="50.7504744083" lon="15.7151699066"></trkpt><trkpt lat="50.7507377677" lon="15.7153419033"></trkpt><trkpt lat="50.750982184" lon="15.7155667897"></trkpt><trkpt lat="50.7512380835" lon="15.7158690412"></trkpt><trkpt lat="50.7514232397" lon="15.7161897328"></trkpt><trkpt lat="50.7516496349" lon="15.7164551038"></trkpt><trkpt lat="50.7518188655" lon="15.7168536633"></trkpt><trkpt lat="50.7521807123" lon="15.7175589167"></trkpt><trkpt lat="50.75242077" lon="15.7178633474"></trkpt><trkpt lat="50.7525778469" lon="15.7182236016"></trkpt><trkpt lat="50.7528254483" lon="15.718657868"></trkpt><trkpt lat="50.7538819034" lon="15.720179854"></trkpt><trkpt lat="50.7544678822" lon="15.7208731212"></trkpt><trkpt lat="50.7547475863" lon="15.7210993487"></trkpt><trkpt lat="50.7550950162" lon="15.7213007659"></trkpt><trkpt lat="50.7637864631" lon="15.7256961521"></trkpt><trkpt lat="50.7647827361" lon="15.7260058634"></trkpt><trkpt lat="50.7650864124" lon="15.7259952184"></trkpt><trkpt lat="50.7653570641" lon="15.7260910235"></trkpt><trkpt lat="50.7656891551" lon="15.7262784429"></trkpt><trkpt lat="50.7659921609" lon="15.7265039161"></trkpt><trkpt lat="50.7662848569" lon="15.7269119471"></trkpt><trkpt lat="50.7665208075" lon="15.7273322996"></trkpt><trkpt lat="50.7669137511" lon="15.7279153448"></trkpt><trkpt lat="50.767201921" lon="15.7281207014"></trkpt><trkpt lat="50.7680344954" lon="15.7289053313"></trkpt><trkpt lat="50.7682377566" lon="15.7292359974"></trkpt><trkpt lat="50.7684216555" lon="15.7296032924"></trkpt><trkpt lat="50.7686559297" lon="15.7298280112"></trkpt><trkpt lat="50.7685810793" lon="15.7302556559"></trkpt><trkpt lat="50.7686022017" lon="15.7307693828"></trkpt><trkpt lat="50.7686660718" lon="15.7313250192"></trkpt><trkpt lat="50.7687894534" lon="15.7338759676"></trkpt><trkpt lat="50.7686895411" lon="15.7344624493"></trkpt><trkpt lat="50.7685607113" lon="15.7356208283"></trkpt><trkpt lat="50.7684850227" lon="15.7364135049"></trkpt></trkseg></trk></gpx>