<?xml version="1.0" encoding="UTF-8" standalone="no" ?><gpx xmlns="http://www.topografix.com/GPX/1/1" xmlns:gpxx="http://www.garmin.com/xmlschemas/GpxExtensions/v3" ><trk><trkseg><trkpt lat="49.718747" lon="21.71622"></trkpt><trkpt lat="49.718943" lon="21.715909"></trkpt><trkpt lat="49.719105" lon="21.715702"></trkpt><trkpt lat="49.71942" lon="21.715596"></trkpt><trkpt lat="49.720482" lon="21.715379"></trkpt><trkpt lat="49.720713" lon="21.716526"></trkpt><trkpt lat="49.7211" lon="21.71802"></trkpt><trkpt lat="49.721866" lon="21.718836"></trkpt><trkpt lat="49.723493" lon="21.720973"></trkpt><trkpt lat="49.724022" lon="21.722001"></trkpt><trkpt lat="49.724776" lon="21.723238"></trkpt><trkpt lat="49.724933" lon="21.72343"></trkpt><trkpt lat="49.724972" lon="21.723768"></trkpt><trkpt lat="49.724943" lon="21.724413"></trkpt><trkpt lat="49.725344" lon="21.724964"></trkpt><trkpt lat="49.7254" lon="21.725553"></trkpt><trkpt lat="49.725594" lon="21.726232"></trkpt><trkpt lat="49.725795" lon="21.727263"></trkpt><trkpt lat="49.725868" lon="21.727827"></trkpt><trkpt lat="49.725812" lon="21.728225"></trkpt><trkpt lat="49.7257" lon="21.728515"></trkpt><trkpt lat="49.725531" lon="21.728826"></trkpt><trkpt lat="49.72547" lon="21.729616"></trkpt><trkpt lat="49.725499" lon="21.729927"></trkpt><trkpt lat="49.725602" lon="21.730212"></trkpt><trkpt lat="49.725806" lon="21.730341"></trkpt><trkpt lat="49.726252" lon="21.730527"></trkpt><trkpt lat="49.727003" lon="21.730751"></trkpt><trkpt lat="49.727665" lon="21.73036"></trkpt><trkpt lat="49.727855" lon="21.730174"></trkpt><trkpt lat="49.728502" lon="21.729827"></trkpt><trkpt lat="49.728808" lon="21.729722"></trkpt><trkpt lat="49.729515" lon="21.729703"></trkpt><trkpt lat="49.730023" lon="21.729818"></trkpt><trkpt lat="49.730717" lon="21.729777"></trkpt><trkpt lat="49.730939" lon="21.729575"></trkpt><trkpt lat="49.731547" lon="21.728605"></trkpt><trkpt lat="49.732191" lon="21.727754"></trkpt><trkpt lat="49.732971" lon="21.728192"></trkpt><trkpt lat="49.733473" lon="21.728399"></trkpt><trkpt lat="49.734135" lon="21.728226"></trkpt><trkpt lat="49.735001" lon="21.72864"></trkpt><trkpt lat="49.735087" lon="21.729535"></trkpt><trkpt lat="49.735097" lon="21.729953"></trkpt><trkpt lat="49.735181" lon="21.730249"></trkpt><trkpt lat="49.735364" lon="21.730526"></trkpt><trkpt lat="49.735569" lon="21.730887"></trkpt><trkpt lat="49.73548" lon="21.731228"></trkpt><trkpt lat="49.735775" lon="21.731698"></trkpt><trkpt lat="49.735992" lon="21.731772"></trkpt><trkpt lat="49.736287" lon="21.73157"></trkpt><trkpt lat="49.736672" lon="21.731452"></trkpt><trkpt lat="49.739383" lon="21.731594"></trkpt><trkpt lat="49.73992" lon="21.732113"></trkpt><trkpt lat="49.740124" lon="21.732147"></trkpt><trkpt lat="49.740693" lon="21.731716"></trkpt><trkpt lat="49.753726" lon="21.719747"></trkpt><trkpt lat="49.754567" lon="21.719369"></trkpt><trkpt lat="49.755134" lon="21.718979"></trkpt><trkpt lat="49.755535" lon="21.718406"></trkpt><trkpt lat="49.756876" lon="21.716772"></trkpt><trkpt lat="49.757114" lon="21.716546"></trkpt><trkpt lat="49.758117" lon="21.715381"></trkpt><trkpt lat="49.759152" lon="21.714601"></trkpt><trkpt lat="49.759825" lon="21.713996"></trkpt><trkpt lat="49.760358" lon="21.712892"></trkpt><trkpt lat="49.760541" lon="21.712712"></trkpt><trkpt lat="49.760729" lon="21.71256"></trkpt><trkpt lat="49.761286" lon="21.711739"></trkpt><trkpt lat="49.761975" lon="21.71053"></trkpt><trkpt lat="49.762013" lon="21.710201"></trkpt><trkpt lat="49.762079" lon="21.709823"></trkpt><trkpt lat="49.762587" lon="21.708662"></trkpt><trkpt lat="49.763138" lon="21.707176"></trkpt><trkpt lat="49.763181" lon="21.706824"></trkpt><trkpt lat="49.763199" lon="21.705731"></trkpt><trkpt lat="49.763254" lon="21.705078"></trkpt><trkpt lat="49.763375" lon="21.704829"></trkpt><trkpt lat="49.763977" lon="21.704276"></trkpt><trkpt lat="49.764459" lon="21.703935"></trkpt><trkpt lat="49.768159" lon="21.700669"></trkpt><trkpt lat="49.768716" lon="21.699984"></trkpt><trkpt lat="49.769232" lon="21.699239"></trkpt><trkpt lat="49.770377" lon="21.697905"></trkpt><trkpt lat="49.770541" lon="21.697603"></trkpt><trkpt lat="49.770632" lon="21.697296"></trkpt><trkpt lat="49.771963" lon="21.694611"></trkpt><trkpt lat="49.772367" lon="21.69406"></trkpt><trkpt lat="49.772585" lon="21.693712"></trkpt><trkpt lat="49.772994" lon="21.692904"></trkpt><trkpt lat="49.773315" lon="21.692082"></trkpt><trkpt lat="49.773544" lon="21.691626"></trkpt><trkpt lat="49.77375" lon="21.691462"></trkpt><trkpt lat="49.774128" lon="21.69105"></trkpt><trkpt lat="49.774141" lon="21.690658"></trkpt><trkpt lat="49.774083" lon="21.688238"></trkpt><trkpt lat="49.774214" lon="21.687964"></trkpt><trkpt lat="49.774744" lon="21.688062"></trkpt><trkpt lat="49.77508" lon="21.68817"></trkpt><trkpt lat="49.775581" lon="21.688434"></trkpt><trkpt lat="49.775943" lon="21.688522"></trkpt><trkpt lat="49.776227" lon="21.688522"></trkpt><trkpt lat="49.776578" lon="21.68839"></trkpt><trkpt lat="49.776968" lon="21.688133"></trkpt><trkpt lat="49.777441" lon="21.687703"></trkpt><trkpt lat="49.77783" lon="21.687258"></trkpt><trkpt lat="49.778488" lon="21.686381"></trkpt><trkpt lat="49.778745" lon="21.685815"></trkpt><trkpt lat="49.780496" lon="21.682488"></trkpt><trkpt lat="49.781217" lon="21.682294"></trkpt><trkpt lat="49.782704" lon="21.683176"></trkpt><trkpt lat="49.783599" lon="21.683566"></trkpt><trkpt lat="49.784207" lon="21.683572"></trkpt><trkpt lat="49.784394" lon="21.683687"></trkpt><trkpt lat="49.784633" lon="21.683893"></trkpt><trkpt lat="49.785445" lon="21.684762"></trkpt><trkpt lat="49.785769" lon="21.685314"></trkpt><trkpt lat="49.786028" lon="21.685957"></trkpt><trkpt lat="49.786404" lon="21.687163"></trkpt><trkpt lat="49.786569" lon="21.688113"></trkpt><trkpt lat="49.78708" lon="21.689939"></trkpt><trkpt lat="49.78736" lon="21.690313"></trkpt><trkpt lat="49.787975" lon="21.691012"></trkpt><trkpt lat="49.788391" lon="21.691567"></trkpt><trkpt lat="49.788621" lon="21.691607"></trkpt><trkpt lat="49.78896" lon="21.691369"></trkpt><trkpt lat="49.789404" lon="21.690934"></trkpt><trkpt lat="49.795466" lon="21.683791"></trkpt><trkpt lat="49.795948" lon="21.682601"></trkpt><trkpt lat="49.796455" lon="21.681029"></trkpt><trkpt lat="49.797791" lon="21.677992"></trkpt><trkpt lat="49.798499" lon="21.67711"></trkpt><trkpt lat="49.799168" lon="21.67644"></trkpt><trkpt lat="49.800457" lon="21.674922"></trkpt><trkpt lat="49.800611" lon="21.674668"></trkpt><trkpt lat="49.800724" lon="21.674336"></trkpt><trkpt lat="49.800832" lon="21.673836"></trkpt><trkpt lat="49.800966" lon="21.673577"></trkpt><trkpt lat="49.801455" lon="21.672759"></trkpt><trkpt lat="49.801968" lon="21.672246"></trkpt><trkpt lat="49.802702" lon="21.671357"></trkpt><trkpt lat="49.802954" lon="21.670912"></trkpt><trkpt lat="49.803314" lon="21.670456"></trkpt><trkpt lat="49.804384" lon="21.668669"></trkpt><trkpt lat="49.804451" lon="21.668274"></trkpt><trkpt lat="49.804371" lon="21.666626"></trkpt><trkpt lat="49.804379" lon="21.665813"></trkpt><trkpt lat="49.804521" lon="21.665575"></trkpt><trkpt lat="49.805048" lon="21.665281"></trkpt><trkpt lat="49.805211" lon="21.665031"></trkpt><trkpt lat="49.805278" lon="21.664388"></trkpt><trkpt lat="49.805471" lon="21.663504"></trkpt><trkpt lat="49.805678" lon="21.662806"></trkpt><trkpt lat="49.806046" lon="21.662089"></trkpt><trkpt lat="49.806637" lon="21.661274"></trkpt><trkpt lat="49.807105" lon="21.660803"></trkpt><trkpt lat="49.807459" lon="21.660537"></trkpt><trkpt lat="49.808731" lon="21.659324"></trkpt><trkpt lat="49.808941" lon="21.659009"></trkpt><trkpt lat="49.809729" lon="21.658003"></trkpt><trkpt lat="49.81019" lon="21.657906"></trkpt><trkpt lat="49.810467" lon="21.657739"></trkpt><trkpt lat="49.810622" lon="21.657477"></trkpt><trkpt lat="49.810981" lon="21.656579"></trkpt><trkpt lat="49.811389" lon="21.655937"></trkpt><trkpt lat="49.811924" lon="21.655334"></trkpt><trkpt lat="49.812409" lon="21.654945"></trkpt><trkpt lat="49.813043" lon="21.65431"></trkpt><trkpt lat="49.813248" lon="21.654045"></trkpt><trkpt lat="49.813828" lon="21.653467"></trkpt><trkpt lat="49.814216" lon="21.653224"></trkpt><trkpt lat="49.8168" lon="21.651253"></trkpt><trkpt lat="49.817428" lon="21.650424"></trkpt><trkpt lat="49.817939" lon="21.649607"></trkpt><trkpt lat="49.818265" lon="21.649206"></trkpt><trkpt lat="49.818863" lon="21.648702"></trkpt><trkpt lat="49.820161" lon="21.647823"></trkpt><trkpt lat="49.8206" lon="21.647377"></trkpt><trkpt lat="49.820775" lon="21.647023"></trkpt><trkpt lat="49.822644" lon="21.644074"></trkpt><trkpt lat="49.823543" lon="21.643185"></trkpt><trkpt lat="49.824112" lon="21.642435"></trkpt><trkpt lat="49.824325" lon="21.641914"></trkpt><trkpt lat="49.824568" lon="21.641435"></trkpt><trkpt lat="49.825693" lon="21.639591"></trkpt><trkpt lat="49.826447" lon="21.639299"></trkpt><trkpt lat="49.826646" lon="21.639102"></trkpt><trkpt lat="49.826776" lon="21.638776"></trkpt><trkpt lat="49.827668" lon="21.637256"></trkpt><trkpt lat="49.827893" lon="21.63703"></trkpt><trkpt lat="49.828403" lon="21.636396"></trkpt><trkpt lat="49.828592" lon="21.635706"></trkpt><trkpt lat="49.829028" lon="21.63448"></trkpt><trkpt lat="49.829363" lon="21.634192"></trkpt><trkpt lat="49.829521" lon="21.633905"></trkpt><trkpt lat="49.829608" lon="21.633566"></trkpt><trkpt lat="49.830209" lon="21.632088"></trkpt><trkpt lat="49.830498" lon="21.631589"></trkpt><trkpt lat="49.831513" lon="21.63075"></trkpt><trkpt lat="49.832315" lon="21.62982"></trkpt><trkpt lat="49.832809" lon="21.629082"></trkpt><trkpt lat="49.833025" lon="21.628331"></trkpt><trkpt lat="49.833183" lon="21.627879"></trkpt><trkpt lat="49.833552" lon="21.627525"></trkpt><trkpt lat="49.834076" lon="21.627122"></trkpt><trkpt lat="49.834432" lon="21.626654"></trkpt><trkpt lat="49.834917" lon="21.625854"></trkpt><trkpt lat="49.835015" lon="21.62552"></trkpt><trkpt lat="49.835357" lon="21.624557"></trkpt><trkpt lat="49.83581" lon="21.62417"></trkpt><trkpt lat="49.83696" lon="21.623367"></trkpt><trkpt lat="49.837343" lon="21.623185"></trkpt><trkpt lat="49.83771" lon="21.62273"></trkpt><trkpt lat="49.837941" lon="21.622166"></trkpt><trkpt lat="49.838077" lon="21.621606"></trkpt><trkpt lat="49.838204" lon="21.621223"></trkpt><trkpt lat="49.838395" lon="21.621102"></trkpt><trkpt lat="49.838996" lon="21.620853"></trkpt><trkpt lat="49.839968" lon="21.621564"></trkpt><trkpt lat="49.840091" lon="21.621861"></trkpt><trkpt lat="49.840155" lon="21.622969"></trkpt><trkpt lat="49.84026" lon="21.623313"></trkpt><trkpt lat="49.840901" lon="21.624037"></trkpt><trkpt lat="49.841306" lon="21.624311"></trkpt><trkpt lat="49.841773" lon="21.624259"></trkpt><trkpt lat="49.842796" lon="21.624759"></trkpt><trkpt lat="49.842942" lon="21.625013"></trkpt><trkpt lat="49.843219" lon="21.625952"></trkpt><trkpt lat="49.843581" lon="21.626803"></trkpt><trkpt lat="49.843928" lon="21.627444"></trkpt><trkpt lat="49.844194" lon="21.62773"></trkpt><trkpt lat="49.844389" lon="21.627825"></trkpt><trkpt lat="49.84497" lon="21.627786"></trkpt><trkpt lat="49.845288" lon="21.627617"></trkpt><trkpt lat="49.848664" lon="21.625354"></trkpt><trkpt lat="49.850998" lon="21.624388"></trkpt><trkpt lat="49.851417" lon="21.624292"></trkpt><trkpt lat="49.85168" lon="21.624265"></trkpt><trkpt lat="49.852185" lon="21.624386"></trkpt><trkpt lat="49.852447" lon="21.624414"></trkpt><trkpt lat="49.854338" lon="21.624837"></trkpt><trkpt lat="49.854813" lon="21.625507"></trkpt><trkpt lat="49.855385" lon="21.626516"></trkpt><trkpt lat="49.855821" lon="21.627505"></trkpt><trkpt lat="49.857423" lon="21.632026"></trkpt><trkpt lat="49.857578" lon="21.632854"></trkpt><trkpt lat="49.857754" lon="21.634895"></trkpt><trkpt lat="49.857784" lon="21.635819"></trkpt><trkpt lat="49.857731" lon="21.637335"></trkpt><trkpt lat="49.857851" lon="21.639018"></trkpt><trkpt lat="49.858101" lon="21.639916"></trkpt><trkpt lat="49.858361" lon="21.64121"></trkpt><trkpt lat="49.85858" lon="21.641975"></trkpt><trkpt lat="49.85864" lon="21.642622"></trkpt><trkpt lat="49.858653" lon="21.643028"></trkpt><trkpt lat="49.858709" lon="21.643369"></trkpt><trkpt lat="49.858937" lon="21.6454"></trkpt><trkpt lat="49.858848" lon="21.646378"></trkpt><trkpt lat="49.858704" lon="21.647284"></trkpt><trkpt lat="49.857369" lon="21.65325"></trkpt><trkpt lat="49.857245" lon="21.654424"></trkpt><trkpt lat="49.85738" lon="21.654712"></trkpt><trkpt lat="49.85754" lon="21.654948"></trkpt><trkpt lat="49.857668" lon="21.655224"></trkpt><trkpt lat="49.85766" lon="21.656081"></trkpt><trkpt lat="49.857718" lon="21.656587"></trkpt><trkpt lat="49.858048" lon="21.657349"></trkpt><trkpt lat="49.858317" lon="21.657857"></trkpt><trkpt lat="49.858617" lon="21.658146"></trkpt><trkpt lat="49.858852" lon="21.658152"></trkpt><trkpt lat="49.859313" lon="21.657929"></trkpt><trkpt lat="49.859757" lon="21.657427"></trkpt><trkpt lat="49.859948" lon="21.65716"></trkpt><trkpt lat="49.861099" lon="21.655288"></trkpt><trkpt lat="49.861162" lon="21.654954"></trkpt><trkpt lat="49.861244" lon="21.653935"></trkpt><trkpt lat="49.862125" lon="21.648166"></trkpt><trkpt lat="49.862641" lon="21.647842"></trkpt><trkpt lat="49.865372" lon="21.646604"></trkpt><trkpt lat="49.865817" lon="21.646577"></trkpt><trkpt lat="49.866524" lon="21.646405"></trkpt><trkpt lat="49.86663" lon="21.6461"></trkpt><trkpt lat="49.866743" lon="21.646368"></trkpt><trkpt lat="49.866875" lon="21.646608"></trkpt><trkpt lat="49.867191" lon="21.647092"></trkpt><trkpt lat="49.867411" lon="21.646855"></trkpt><trkpt lat="49.867844" lon="21.646461"></trkpt><trkpt lat="49.867813" lon="21.646113"></trkpt><trkpt lat="49.867697" lon="21.645832"></trkpt><trkpt lat="49.867717" lon="21.645451"></trkpt><trkpt lat="49.867951" lon="21.645482"></trkpt><trkpt lat="49.867927" lon="21.645165"></trkpt><trkpt lat="49.868017" lon="21.644877"></trkpt><trkpt lat="49.868065" lon="21.64455"></trkpt><trkpt lat="49.868224" lon="21.644355"></trkpt><trkpt lat="49.868463" lon="21.644242"></trkpt><trkpt lat="49.868647" lon="21.644012"></trkpt><trkpt lat="49.868511" lon="21.644266"></trkpt><trkpt lat="49.86824" lon="21.644552"></trkpt><trkpt lat="49.868484" lon="21.644937"></trkpt><trkpt lat="49.868632" lon="21.645337"></trkpt><trkpt lat="49.868725" lon="21.64571"></trkpt><trkpt lat="49.868624" lon="21.646046"></trkpt><trkpt lat="49.868386" lon="21.645741"></trkpt><trkpt lat="49.868219" lon="21.645557"></trkpt><trkpt lat="49.868" lon="21.645521"></trkpt><trkpt lat="49.86775" lon="21.64545"></trkpt><trkpt lat="49.867741" lon="21.645987"></trkpt><trkpt lat="49.867905" lon="21.646316"></trkpt><trkpt lat="49.867585" lon="21.646692"></trkpt><trkpt lat="49.867374" lon="21.646883"></trkpt><trkpt lat="49.867121" lon="21.647153"></trkpt><trkpt lat="49.8673" lon="21.647583"></trkpt><trkpt lat="49.868157" lon="21.650282"></trkpt><trkpt lat="49.868112" lon="21.650983"></trkpt><trkpt lat="49.868152" lon="21.651284"></trkpt><trkpt lat="49.868157" lon="21.651994"></trkpt><trkpt lat="49.868222" lon="21.652954"></trkpt><trkpt lat="49.869186" lon="21.661288"></trkpt><trkpt lat="49.869476" lon="21.662052"></trkpt><trkpt lat="49.870262" lon="21.663671"></trkpt><trkpt lat="49.870684" lon="21.664294"></trkpt><trkpt lat="49.8711" lon="21.66508"></trkpt><trkpt lat="49.871208" lon="21.66539"></trkpt><trkpt lat="49.87153" lon="21.665534"></trkpt><trkpt lat="49.872043" lon="21.666207"></trkpt><trkpt lat="49.873819" lon="21.667902"></trkpt><trkpt lat="49.874106" lon="21.668"></trkpt><trkpt lat="49.874403" lon="21.668173"></trkpt><trkpt lat="49.875369" lon="21.668593"></trkpt><trkpt lat="49.875658" lon="21.668613"></trkpt><trkpt lat="49.87697" lon="21.668859"></trkpt><trkpt lat="49.877225" lon="21.668997"></trkpt><trkpt lat="49.877672" lon="21.669161"></trkpt><trkpt lat="49.878006" lon="21.669178"></trkpt><trkpt lat="49.878228" lon="21.669133"></trkpt><trkpt lat="49.878592" lon="21.669435"></trkpt><trkpt lat="49.879546" lon="21.670367"></trkpt><trkpt lat="49.879624" lon="21.670652"></trkpt><trkpt lat="49.879812" lon="21.671147"></trkpt><trkpt lat="49.879931" lon="21.671404"></trkpt><trkpt lat="49.879996" lon="21.671943"></trkpt><trkpt lat="49.880009" lon="21.672273"></trkpt><trkpt lat="49.880173" lon="21.672623"></trkpt><trkpt lat="49.8806" lon="21.672903"></trkpt><trkpt lat="49.881116" lon="21.672392"></trkpt><trkpt lat="49.883007" lon="21.670137"></trkpt><trkpt lat="49.883443" lon="21.669993"></trkpt><trkpt lat="49.883745" lon="21.669936"></trkpt><trkpt lat="49.885097" lon="21.66985"></trkpt><trkpt lat="49.885598" lon="21.670026"></trkpt><trkpt lat="49.886181" lon="21.670126"></trkpt><trkpt lat="49.887015" lon="21.669656"></trkpt><trkpt lat="49.888116" lon="21.668876"></trkpt><trkpt lat="49.888443" lon="21.66847"></trkpt><trkpt lat="49.888733" lon="21.668026"></trkpt><trkpt lat="49.891181" lon="21.664856"></trkpt><trkpt lat="49.891467" lon="21.66475"></trkpt><trkpt lat="49.89168" lon="21.664639"></trkpt><trkpt lat="49.892224" lon="21.664511"></trkpt><trkpt lat="49.893177" lon="21.664403"></trkpt><trkpt lat="49.894162" lon="21.664745"></trkpt><trkpt lat="49.894599" lon="21.665016"></trkpt><trkpt lat="49.895" lon="21.665188"></trkpt><trkpt lat="49.895269" lon="21.665267"></trkpt><trkpt lat="49.895471" lon="21.665237"></trkpt><trkpt lat="49.89579" lon="21.665226"></trkpt><trkpt lat="49.896154" lon="21.665152"></trkpt><trkpt lat="49.896563" lon="21.664972"></trkpt><trkpt lat="49.896817" lon="21.664786"></trkpt><trkpt lat="49.89702" lon="21.664829"></trkpt><trkpt lat="49.897009" lon="21.665313"></trkpt><trkpt lat="49.896861" lon="21.665602"></trkpt><trkpt lat="49.8967" lon="21.665997"></trkpt><trkpt lat="49.896598" lon="21.666447"></trkpt><trkpt lat="49.896591" lon="21.666762"></trkpt><trkpt lat="49.896651" lon="21.667094"></trkpt><trkpt lat="49.896748" lon="21.667373"></trkpt><trkpt lat="49.896966" lon="21.667651"></trkpt><trkpt lat="49.897137" lon="21.667834"></trkpt><trkpt lat="49.897529" lon="21.668054"></trkpt><trkpt lat="49.89919" lon="21.668746"></trkpt><trkpt lat="49.899422" lon="21.668762"></trkpt><trkpt lat="49.902784" lon="21.669473"></trkpt><trkpt lat="49.90344" lon="21.671411"></trkpt><trkpt lat="49.903692" lon="21.671869"></trkpt><trkpt lat="49.904085" lon="21.672394"></trkpt><trkpt lat="49.905453" lon="21.67388"></trkpt><trkpt lat="49.905815" lon="21.674215"></trkpt><trkpt lat="49.906406" lon="21.674865"></trkpt><trkpt lat="49.906712" lon="21.675299"></trkpt><trkpt lat="49.908126" lon="21.677682"></trkpt><trkpt lat="49.908241" lon="21.678619"></trkpt><trkpt lat="49.908662" lon="21.680821"></trkpt><trkpt lat="49.908684" lon="21.681169"></trkpt><trkpt lat="49.908797" lon="21.681988"></trkpt><trkpt lat="49.90924" lon="21.682771"></trkpt><trkpt lat="49.90933" lon="21.683107"></trkpt><trkpt lat="49.909325" lon="21.683468"></trkpt><trkpt lat="49.909246" lon="21.683778"></trkpt><trkpt lat="49.908844" lon="21.684984"></trkpt><trkpt lat="49.908756" lon="21.685505"></trkpt><trkpt lat="49.90862" lon="21.68682"></trkpt><trkpt lat="49.908635" lon="21.687361"></trkpt><trkpt lat="49.90862" lon="21.687669"></trkpt><trkpt lat="49.908659" lon="21.691949"></trkpt><trkpt lat="49.908714" lon="21.692455"></trkpt><trkpt lat="49.908751" lon="21.693663"></trkpt><trkpt lat="49.908682" lon="21.694062"></trkpt><trkpt lat="49.908724" lon="21.694444"></trkpt><trkpt lat="49.908866" lon="21.695116"></trkpt><trkpt lat="49.909648" lon="21.695383"></trkpt><trkpt lat="49.910413" lon="21.695794"></trkpt><trkpt lat="49.910666" lon="21.696249"></trkpt><trkpt lat="49.910841" lon="21.696755"></trkpt><trkpt lat="49.91087" lon="21.697246"></trkpt><trkpt lat="49.91081" lon="21.697862"></trkpt><trkpt lat="49.910811" lon="21.698236"></trkpt><trkpt lat="49.910871" lon="21.69861"></trkpt><trkpt lat="49.911129" lon="21.699278"></trkpt><trkpt lat="49.911642" lon="21.700999"></trkpt><trkpt lat="49.911621" lon="21.701621"></trkpt><trkpt lat="49.911761" lon="21.705319"></trkpt><trkpt lat="49.911932" lon="21.705984"></trkpt><trkpt lat="49.912063" lon="21.706405"></trkpt><trkpt lat="49.912239" lon="21.70737"></trkpt><trkpt lat="49.912476" lon="21.708166"></trkpt><trkpt lat="49.912612" lon="21.708425"></trkpt><trkpt lat="49.91313" lon="21.709075"></trkpt><trkpt lat="49.913386" lon="21.70894"></trkpt><trkpt lat="49.913475" lon="21.708647"></trkpt><trkpt lat="49.913608" lon="21.708338"></trkpt><trkpt lat="49.913825" lon="21.708325"></trkpt><trkpt lat="49.913821" lon="21.709699"></trkpt><trkpt lat="49.913931" lon="21.710397"></trkpt><trkpt lat="49.914273" lon="21.711312"></trkpt><trkpt lat="49.914363" lon="21.7116"></trkpt><trkpt lat="49.914385" lon="21.712229"></trkpt><trkpt lat="49.914245" lon="21.718752"></trkpt><trkpt lat="49.914303" lon="21.720143"></trkpt><trkpt lat="49.915096" lon="21.720014"></trkpt><trkpt lat="49.923334" lon="21.7174"></trkpt><trkpt lat="49.923965" lon="21.716813"></trkpt><trkpt lat="49.927337" lon="21.714364"></trkpt><trkpt lat="49.928663" lon="21.713183"></trkpt><trkpt lat="49.931495" lon="21.710167"></trkpt><trkpt lat="49.931606" lon="21.709909"></trkpt><trkpt lat="49.931953" lon="21.709296"></trkpt><trkpt lat="49.933015" lon="21.707665"></trkpt><trkpt lat="49.933418" lon="21.70719"></trkpt><trkpt lat="49.933987" lon="21.706298"></trkpt><trkpt lat="49.934045" lon="21.705919"></trkpt><trkpt lat="49.933996" lon="21.705335"></trkpt><trkpt lat="49.933976" lon="21.704587"></trkpt><trkpt lat="49.934096" lon="21.704319"></trkpt><trkpt lat="49.934197" lon="21.703965"></trkpt><trkpt lat="49.934305" lon="21.703453"></trkpt><trkpt lat="49.935319" lon="21.699754"></trkpt><trkpt lat="49.935522" lon="21.699405"></trkpt><trkpt lat="49.93927" lon="21.69144"></trkpt><trkpt lat="49.93939" lon="21.690554"></trkpt><trkpt lat="49.939598" lon="21.690502"></trkpt><trkpt lat="49.939898" lon="21.690895"></trkpt><trkpt lat="49.942275" lon="21.693548"></trkpt><trkpt lat="49.942826" lon="21.693663"></trkpt><trkpt lat="49.948592" lon="21.695675"></trkpt><trkpt lat="49.948959" lon="21.695913"></trkpt><trkpt lat="49.949161" lon="21.695979"></trkpt><trkpt lat="49.949727" lon="21.696238"></trkpt><trkpt lat="49.949938" lon="21.696308"></trkpt><trkpt lat="49.953082" lon="21.696985"></trkpt><trkpt lat="49.953286" lon="21.696829"></trkpt><trkpt lat="49.953555" lon="21.696472"></trkpt><trkpt lat="49.955499" lon="21.694378"></trkpt><trkpt lat="49.95578" lon="21.694204"></trkpt><trkpt lat="49.956185" lon="21.694037"></trkpt><trkpt lat="49.956392" lon="21.693877"></trkpt><trkpt lat="49.95678" lon="21.693699"></trkpt><trkpt lat="49.957327" lon="21.693636"></trkpt><trkpt lat="49.95953" lon="21.69284"></trkpt><trkpt lat="49.959792" lon="21.692781"></trkpt><trkpt lat="49.960486" lon="21.692861"></trkpt><trkpt lat="49.96081" lon="21.692769"></trkpt><trkpt lat="49.961178" lon="21.692435"></trkpt><trkpt lat="49.961454" lon="21.691897"></trkpt><trkpt lat="49.962362" lon="21.690625"></trkpt><trkpt lat="49.962721" lon="21.690752"></trkpt><trkpt lat="49.962989" lon="21.691382"></trkpt><trkpt lat="49.963097" lon="21.691684"></trkpt><trkpt lat="49.964158" lon="21.695247"></trkpt><trkpt lat="49.964302" lon="21.695484"></trkpt><trkpt lat="49.964507" lon="21.695712"></trkpt><trkpt lat="49.964747" lon="21.695841"></trkpt><trkpt lat="49.96506" lon="21.695879"></trkpt><trkpt lat="49.968099" lon="21.69664"></trkpt><trkpt lat="49.968264" lon="21.696906"></trkpt><trkpt lat="49.968391" lon="21.697224"></trkpt><trkpt lat="49.970189" lon="21.700942"></trkpt><trkpt lat="49.970332" lon="21.701159"></trkpt><trkpt lat="49.970993" lon="21.701918"></trkpt><trkpt lat="49.97236" lon="21.703152"></trkpt><trkpt lat="49.974733" lon="21.705863"></trkpt><trkpt lat="49.974923" lon="21.706765"></trkpt><trkpt lat="49.975407" lon="21.708473"></trkpt><trkpt lat="49.975879" lon="21.709661"></trkpt><trkpt lat="49.976883" lon="21.711585"></trkpt><trkpt lat="49.977911" lon="21.713099"></trkpt><trkpt lat="49.978694" lon="21.714092"></trkpt><trkpt lat="49.979267" lon="21.714221"></trkpt><trkpt lat="49.984726" lon="21.713897"></trkpt><trkpt lat="49.985298" lon="21.714558"></trkpt><trkpt lat="49.985701" lon="21.715518"></trkpt><trkpt lat="49.98587" lon="21.716214"></trkpt><trkpt lat="49.98709" lon="21.72013"></trkpt><trkpt lat="49.98743" lon="21.720819"></trkpt><trkpt lat="49.98926" lon="21.72516"></trkpt><trkpt lat="49.98941" lon="21.725731"></trkpt><trkpt lat="49.990031" lon="21.727669"></trkpt><trkpt lat="49.990222" lon="21.727916"></trkpt><trkpt lat="49.990446" lon="21.728134"></trkpt><trkpt lat="49.990859" lon="21.728648"></trkpt><trkpt lat="49.991041" lon="21.729"></trkpt><trkpt lat="49.991246" lon="21.72977"></trkpt><trkpt lat="49.993112" lon="21.735314"></trkpt><trkpt lat="49.993673" lon="21.736392"></trkpt><trkpt lat="49.99488" lon="21.738334"></trkpt><trkpt lat="49.999598" lon="21.747171"></trkpt><trkpt lat="49.999471" lon="21.748169"></trkpt><trkpt lat="49.999471" lon="21.748503"></trkpt><trkpt lat="49.999525" lon="21.748818"></trkpt><trkpt lat="49.999631" lon="21.749087"></trkpt><trkpt lat="49.999837" lon="21.7494"></trkpt><trkpt lat="50.00052" lon="21.750094"></trkpt><trkpt lat="50.000735" lon="21.750349"></trkpt><trkpt lat="50.00118" lon="21.751238"></trkpt><trkpt lat="50.002865" lon="21.754117"></trkpt><trkpt lat="50.003101" lon="21.754309"></trkpt><trkpt lat="50.004165" lon="21.755012"></trkpt><trkpt lat="50.004461" lon="21.755135"></trkpt><trkpt lat="50.005796" lon="21.75553"></trkpt><trkpt lat="50.005997" lon="21.75553"></trkpt><trkpt lat="50.010455" lon="21.754345"></trkpt><trkpt lat="50.011084" lon="21.753895"></trkpt><trkpt lat="50.011849" lon="21.753489"></trkpt><trkpt lat="50.012553" lon="21.75321"></trkpt><trkpt lat="50.017065" lon="21.752418"></trkpt><trkpt lat="50.023274" lon="21.754433"></trkpt><trkpt lat="50.024086" lon="21.755143"></trkpt><trkpt lat="50.026499" lon="21.756889"></trkpt><trkpt lat="50.027052" lon="21.756621"></trkpt><trkpt lat="50.030871" lon="21.753953"></trkpt><trkpt lat="50.031314" lon="21.753216"></trkpt><trkpt lat="50.036352" lon="21.74634"></trkpt><trkpt lat="50.036865" lon="21.746273"></trkpt><trkpt lat="50.050648" lon="21.745982"></trkpt><trkpt lat="50.05091" lon="21.74615"></trkpt><trkpt lat="50.051124" lon="21.746179"></trkpt><trkpt lat="50.051403" lon="21.746088"></trkpt><trkpt lat="50.052132" lon="21.7457"></trkpt><trkpt lat="50.05275" lon="21.745093"></trkpt><trkpt lat="50.05448" lon="21.742865"></trkpt><trkpt lat="50.054706" lon="21.742312"></trkpt><trkpt lat="50.057289" lon="21.737018"></trkpt><trkpt lat="50.057961" lon="21.736489"></trkpt><trkpt lat="50.070064" lon="21.724765"></trkpt><trkpt lat="50.070143" lon="21.723541"></trkpt><trkpt lat="50.070569" lon="21.699949"></trkpt><trkpt lat="50.070374" lon="21.69906"></trkpt><trkpt lat="50.070092" lon="21.698038"></trkpt><trkpt lat="50.069998" lon="21.697601"></trkpt><trkpt lat="50.070167" lon="21.697393"></trkpt><trkpt lat="50.070669" lon="21.697151"></trkpt><trkpt lat="50.07133" lon="21.696977"></trkpt><trkpt lat="50.071538" lon="21.696853"></trkpt><trkpt lat="50.071697" lon="21.696611"></trkpt><trkpt lat="50.071818" lon="21.696332"></trkpt><trkpt lat="50.072046" lon="21.695603"></trkpt><trkpt lat="50.072439" lon="21.69492"></trkpt><trkpt lat="50.072943" lon="21.69455"></trkpt><trkpt lat="50.073203" lon="21.694473"></trkpt><trkpt lat="50.073549" lon="21.694449"></trkpt><trkpt lat="50.074588" lon="21.694251"></trkpt><trkpt lat="50.07479" lon="21.693942"></trkpt><trkpt lat="50.074944" lon="21.693743"></trkpt><trkpt lat="50.075144" lon="21.693415"></trkpt></trkseg></trk></gpx>