<?xml version="1.0" encoding="UTF-8" standalone="no" ?><gpx xmlns="http://www.topografix.com/GPX/1/1" xmlns:gpxx="http://www.garmin.com/xmlschemas/GpxExtensions/v3" ><trk><trkseg><trkpt lat="52.62063" lon="18.159662"></trkpt><trkpt lat="52.620952" lon="18.160134"></trkpt><trkpt lat="52.625559" lon="18.168067"></trkpt><trkpt lat="52.625555" lon="18.168396"></trkpt><trkpt lat="52.62562" lon="18.168734"></trkpt><trkpt lat="52.626273" lon="18.168755"></trkpt><trkpt lat="52.627475" lon="18.168971"></trkpt><trkpt lat="52.627595" lon="18.169922"></trkpt><trkpt lat="52.627811" lon="18.169993"></trkpt><trkpt lat="52.628914" lon="18.170013"></trkpt><trkpt lat="52.629633" lon="18.170382"></trkpt><trkpt lat="52.630575" lon="18.170522"></trkpt><trkpt lat="52.638063" lon="18.167704"></trkpt><trkpt lat="52.638747" lon="18.166377"></trkpt><trkpt lat="52.647892" lon="18.148456"></trkpt><trkpt lat="52.648289" lon="18.147404"></trkpt><trkpt lat="52.650828" lon="18.142193"></trkpt><trkpt lat="52.651554" lon="18.141249"></trkpt><trkpt lat="52.662874" lon="18.126672"></trkpt><trkpt lat="52.664071" lon="18.124796"></trkpt><trkpt lat="52.663953" lon="18.123209"></trkpt><trkpt lat="52.663485" lon="18.105359"></trkpt><trkpt lat="52.663792" lon="18.105032"></trkpt><trkpt lat="52.664053" lon="18.104823"></trkpt><trkpt lat="52.664505" lon="18.104639"></trkpt><trkpt lat="52.665071" lon="18.104517"></trkpt><trkpt lat="52.678961" lon="18.100841"></trkpt><trkpt lat="52.679796" lon="18.101181"></trkpt><trkpt lat="52.680343" lon="18.101285"></trkpt><trkpt lat="52.694087" lon="18.0989"></trkpt><trkpt lat="52.697543" lon="18.097831"></trkpt><trkpt lat="52.698041" lon="18.097609"></trkpt><trkpt lat="52.711508" lon="18.093177"></trkpt><trkpt lat="52.712197" lon="18.094015"></trkpt><trkpt lat="52.712895" lon="18.094461"></trkpt><trkpt lat="52.713844" lon="18.094639"></trkpt><trkpt lat="52.717445" lon="18.093424"></trkpt><trkpt lat="52.724344" lon="18.091932"></trkpt><trkpt lat="52.738467" lon="18.089107"></trkpt><trkpt lat="52.738714" lon="18.088833"></trkpt><trkpt lat="52.739535" lon="18.08765"></trkpt><trkpt lat="52.741349" lon="18.085583"></trkpt><trkpt lat="52.742054" lon="18.085124"></trkpt><trkpt lat="52.742764" lon="18.084874"></trkpt><trkpt lat="52.7436" lon="18.084814"></trkpt><trkpt lat="52.757484" lon="18.084185"></trkpt><trkpt lat="52.758123" lon="18.084074"></trkpt><trkpt lat="52.75882" lon="18.084046"></trkpt><trkpt lat="52.766407" lon="18.082844"></trkpt><trkpt lat="52.767043" lon="18.082446"></trkpt><trkpt lat="52.769319" lon="18.081562"></trkpt><trkpt lat="52.769933" lon="18.081495"></trkpt><trkpt lat="52.773297" lon="18.0807"></trkpt><trkpt lat="52.77379" lon="18.08026"></trkpt><trkpt lat="52.774294" lon="18.079725"></trkpt><trkpt lat="52.774803" lon="18.078969"></trkpt><trkpt lat="52.776866" lon="18.076485"></trkpt><trkpt lat="52.777801" lon="18.076091"></trkpt><trkpt lat="52.779135" lon="18.075239"></trkpt><trkpt lat="52.779485" lon="18.074858"></trkpt><trkpt lat="52.781136" lon="18.073594"></trkpt><trkpt lat="52.781831" lon="18.073558"></trkpt><trkpt lat="52.782036" lon="18.073642"></trkpt><trkpt lat="52.782231" lon="18.073889"></trkpt><trkpt lat="52.783093" lon="18.075352"></trkpt><trkpt lat="52.783885" lon="18.0765"></trkpt><trkpt lat="52.784775" lon="18.076888"></trkpt><trkpt lat="52.785025" lon="18.077073"></trkpt><trkpt lat="52.793587" lon="18.081169"></trkpt><trkpt lat="52.794404" lon="18.080932"></trkpt><trkpt lat="52.795541" lon="18.081042"></trkpt><trkpt lat="52.796378" lon="18.081286"></trkpt><trkpt lat="52.797283" lon="18.081984"></trkpt><trkpt lat="52.804852" lon="18.089647"></trkpt><trkpt lat="52.805059" lon="18.09016"></trkpt><trkpt lat="52.8053" lon="18.090453"></trkpt><trkpt lat="52.806067" lon="18.090789"></trkpt><trkpt lat="52.806821" lon="18.091418"></trkpt><trkpt lat="52.807484" lon="18.092149"></trkpt><trkpt lat="52.8076" lon="18.092415"></trkpt><trkpt lat="52.807677" lon="18.092718"></trkpt><trkpt lat="52.807868" lon="18.093813"></trkpt><trkpt lat="52.807809" lon="18.095472"></trkpt><trkpt lat="52.808023" lon="18.101084"></trkpt><trkpt lat="52.808224" lon="18.101159"></trkpt><trkpt lat="52.808534" lon="18.101226"></trkpt><trkpt lat="52.810551" lon="18.101952"></trkpt><trkpt lat="52.810551" lon="18.102777"></trkpt><trkpt lat="52.810825" lon="18.104852"></trkpt><trkpt lat="52.81158" lon="18.10495"></trkpt><trkpt lat="52.82547" lon="18.106503"></trkpt><trkpt lat="52.832951" lon="18.104792"></trkpt><trkpt lat="52.833873" lon="18.104438"></trkpt><trkpt lat="52.83627" lon="18.102918"></trkpt><trkpt lat="52.837549" lon="18.102583"></trkpt><trkpt lat="52.845294" lon="18.102019"></trkpt><trkpt lat="52.845453" lon="18.102314"></trkpt><trkpt lat="52.845545" lon="18.10266"></trkpt><trkpt lat="52.845823" lon="18.104275"></trkpt><trkpt lat="52.846434" lon="18.106491"></trkpt><trkpt lat="52.846928" lon="18.107635"></trkpt><trkpt lat="52.855372" lon="18.124413"></trkpt><trkpt lat="52.855646" lon="18.124646"></trkpt><trkpt lat="52.86126" lon="18.13065"></trkpt><trkpt lat="52.861278" lon="18.130995"></trkpt><trkpt lat="52.86117" lon="18.132924"></trkpt><trkpt lat="52.860358" lon="18.138993"></trkpt><trkpt lat="52.860016" lon="18.140699"></trkpt><trkpt lat="52.859754" lon="18.142579"></trkpt><trkpt lat="52.859445" lon="18.146195"></trkpt><trkpt lat="52.857164" lon="18.169696"></trkpt><trkpt lat="52.856734" lon="18.170799"></trkpt><trkpt lat="52.856653" lon="18.171453"></trkpt><trkpt lat="52.856561" lon="18.173226"></trkpt><trkpt lat="52.855346" lon="18.184029"></trkpt><trkpt lat="52.855222" lon="18.184334"></trkpt><trkpt lat="52.85503" lon="18.185783"></trkpt><trkpt lat="52.854773" lon="18.187118"></trkpt><trkpt lat="52.854449" lon="18.190178"></trkpt><trkpt lat="52.854421" lon="18.191662"></trkpt><trkpt lat="52.854479" lon="18.193798"></trkpt><trkpt lat="52.854741" lon="18.197456"></trkpt><trkpt lat="52.855562" lon="18.197135"></trkpt><trkpt lat="52.855949" lon="18.197043"></trkpt><trkpt lat="52.8585" lon="18.196089"></trkpt><trkpt lat="52.858962" lon="18.195996"></trkpt><trkpt lat="52.859191" lon="18.196103"></trkpt><trkpt lat="52.856914" lon="18.198612"></trkpt></trkseg></trk></gpx>