<?xml version="1.0" encoding="UTF-8" standalone="no" ?><gpx xmlns="http://www.topografix.com/GPX/1/1" xmlns:gpxx="http://www.garmin.com/xmlschemas/GpxExtensions/v3" ><trk><trkseg><trkpt lat="52.436014" lon="16.924036"></trkpt><trkpt lat="52.435953" lon="16.925315"></trkpt><trkpt lat="52.434575" lon="16.940408"></trkpt><trkpt lat="52.434135" lon="16.941549"></trkpt><trkpt lat="52.431544" lon="16.949605"></trkpt><trkpt lat="52.43151" lon="16.950678"></trkpt><trkpt lat="52.431036" lon="16.954802"></trkpt><trkpt lat="52.43076" lon="16.956097"></trkpt><trkpt lat="52.430376" lon="16.958748"></trkpt><trkpt lat="52.430468" lon="16.959705"></trkpt><trkpt lat="52.430629" lon="16.960267"></trkpt><trkpt lat="52.430868" lon="16.960804"></trkpt><trkpt lat="52.430574" lon="16.961256"></trkpt><trkpt lat="52.427211" lon="16.965712"></trkpt><trkpt lat="52.426614" lon="16.965639"></trkpt><trkpt lat="52.426274" lon="16.965547"></trkpt><trkpt lat="52.426049" lon="16.965523"></trkpt><trkpt lat="52.425848" lon="16.965612"></trkpt><trkpt lat="52.42491" lon="16.965351"></trkpt><trkpt lat="52.423694" lon="16.96468"></trkpt><trkpt lat="52.422854" lon="16.963958"></trkpt><trkpt lat="52.420072" lon="16.961063"></trkpt><trkpt lat="52.419747" lon="16.960634"></trkpt><trkpt lat="52.41892" lon="16.959767"></trkpt><trkpt lat="52.417955" lon="16.95894"></trkpt><trkpt lat="52.414522" lon="16.956485"></trkpt><trkpt lat="52.414499" lon="16.956818"></trkpt><trkpt lat="52.414391" lon="16.95711"></trkpt><trkpt lat="52.414337" lon="16.957463"></trkpt><trkpt lat="52.414341" lon="16.957795"></trkpt><trkpt lat="52.413937" lon="16.957521"></trkpt><trkpt lat="52.413336" lon="16.957543"></trkpt><trkpt lat="52.412863" lon="16.957978"></trkpt><trkpt lat="52.412144" lon="16.95842"></trkpt><trkpt lat="52.411431" lon="16.958272"></trkpt><trkpt lat="52.411073" lon="16.958025"></trkpt><trkpt lat="52.41088" lon="16.957922"></trkpt><trkpt lat="52.41064" lon="16.957691"></trkpt><trkpt lat="52.410388" lon="16.957756"></trkpt><trkpt lat="52.409628" lon="16.957675"></trkpt><trkpt lat="52.409296" lon="16.957572"></trkpt><trkpt lat="52.409102" lon="16.957467"></trkpt><trkpt lat="52.408837" lon="16.957401"></trkpt><trkpt lat="52.408612" lon="16.95728"></trkpt><trkpt lat="52.408117" lon="16.956948"></trkpt><trkpt lat="52.406644" lon="16.956161"></trkpt><trkpt lat="52.406513" lon="16.956419"></trkpt><trkpt lat="52.40635" lon="16.956667"></trkpt><trkpt lat="52.406119" lon="16.956632"></trkpt><trkpt lat="52.406044" lon="16.956302"></trkpt><trkpt lat="52.406444" lon="16.95628"></trkpt><trkpt lat="52.406118" lon="16.955898"></trkpt><trkpt lat="52.405695" lon="16.955552"></trkpt><trkpt lat="52.404966" lon="16.955062"></trkpt><trkpt lat="52.404716" lon="16.954967"></trkpt><trkpt lat="52.404415" lon="16.9549"></trkpt><trkpt lat="52.403838" lon="16.955134"></trkpt><trkpt lat="52.403778" lon="16.955499"></trkpt><trkpt lat="52.403771" lon="16.955833"></trkpt><trkpt lat="52.40359" lon="16.957137"></trkpt><trkpt lat="52.402359" lon="16.963718"></trkpt><trkpt lat="52.402216" lon="16.964271"></trkpt><trkpt lat="52.399695" lon="16.977002"></trkpt><trkpt lat="52.399709" lon="16.977363"></trkpt><trkpt lat="52.399866" lon="16.978146"></trkpt><trkpt lat="52.400025" lon="16.979674"></trkpt><trkpt lat="52.39996" lon="16.980471"></trkpt><trkpt lat="52.399896" lon="16.982143"></trkpt><trkpt lat="52.399911" lon="16.982496"></trkpt><trkpt lat="52.399996" lon="16.982836"></trkpt><trkpt lat="52.400004" lon="16.983171"></trkpt><trkpt lat="52.399972" lon="16.98413"></trkpt><trkpt lat="52.399798" lon="16.986276"></trkpt><trkpt lat="52.399647" lon="16.986701"></trkpt><trkpt lat="52.399482" lon="16.986926"></trkpt><trkpt lat="52.398937" lon="16.987863"></trkpt><trkpt lat="52.398659" lon="16.988166"></trkpt><trkpt lat="52.398467" lon="16.98831"></trkpt><trkpt lat="52.398268" lon="16.988635"></trkpt><trkpt lat="52.398199" lon="16.989017"></trkpt><trkpt lat="52.398075" lon="16.9895"></trkpt><trkpt lat="52.397818" lon="16.98987"></trkpt><trkpt lat="52.39762" lon="16.990005"></trkpt><trkpt lat="52.397322" lon="16.990084"></trkpt><trkpt lat="52.395355" lon="16.990868"></trkpt><trkpt lat="52.395201" lon="16.991343"></trkpt><trkpt lat="52.394154" lon="16.995249"></trkpt><trkpt lat="52.394249" lon="16.995561"></trkpt><trkpt lat="52.394214" lon="16.995915"></trkpt><trkpt lat="52.39409" lon="16.99635"></trkpt><trkpt lat="52.393836" lon="16.997021"></trkpt><trkpt lat="52.393558" lon="16.99758"></trkpt><trkpt lat="52.393185" lon="16.998484"></trkpt><trkpt lat="52.393123" lon="16.99901"></trkpt><trkpt lat="52.392905" lon="16.999841"></trkpt><trkpt lat="52.392646" lon="17.001153"></trkpt><trkpt lat="52.39267" lon="17.001641"></trkpt><trkpt lat="52.392668" lon="17.002575"></trkpt><trkpt lat="52.392446" lon="17.003442"></trkpt><trkpt lat="52.392324" lon="17.004446"></trkpt><trkpt lat="52.392226" lon="17.00503"></trkpt><trkpt lat="52.392099" lon="17.005459"></trkpt><trkpt lat="52.392005" lon="17.006118"></trkpt><trkpt lat="52.391976" lon="17.006571"></trkpt><trkpt lat="52.392018" lon="17.007174"></trkpt><trkpt lat="52.392115" lon="17.007543"></trkpt><trkpt lat="52.392453" lon="17.008031"></trkpt><trkpt lat="52.392813" lon="17.008446"></trkpt><trkpt lat="52.393005" lon="17.008608"></trkpt><trkpt lat="52.39313" lon="17.008923"></trkpt><trkpt lat="52.39325" lon="17.009501"></trkpt><trkpt lat="52.393391" lon="17.010539"></trkpt><trkpt lat="52.393507" lon="17.010925"></trkpt><trkpt lat="52.393574" lon="17.011273"></trkpt><trkpt lat="52.393791" lon="17.011415"></trkpt><trkpt lat="52.393937" lon="17.011709"></trkpt><trkpt lat="52.394109" lon="17.012318"></trkpt><trkpt lat="52.394539" lon="17.013337"></trkpt><trkpt lat="52.394825" lon="17.013772"></trkpt><trkpt lat="52.39495" lon="17.014048"></trkpt><trkpt lat="52.394996" lon="17.014409"></trkpt><trkpt lat="52.395093" lon="17.014722"></trkpt><trkpt lat="52.395081" lon="17.01512"></trkpt><trkpt lat="52.395113" lon="17.015456"></trkpt><trkpt lat="52.395234" lon="17.015729"></trkpt><trkpt lat="52.395462" lon="17.015845"></trkpt><trkpt lat="52.395874" lon="17.016225"></trkpt><trkpt lat="52.397341" lon="17.017253"></trkpt><trkpt lat="52.397657" lon="17.017425"></trkpt><trkpt lat="52.400486" lon="17.019364"></trkpt><trkpt lat="52.40064" lon="17.019679"></trkpt><trkpt lat="52.400566" lon="17.020028"></trkpt><trkpt lat="52.400695" lon="17.020766"></trkpt><trkpt lat="52.400841" lon="17.021411"></trkpt><trkpt lat="52.40095" lon="17.021697"></trkpt><trkpt lat="52.40143" lon="17.023248"></trkpt><trkpt lat="52.401502" lon="17.023706"></trkpt><trkpt lat="52.401654" lon="17.024327"></trkpt><trkpt lat="52.403295" lon="17.029184"></trkpt><trkpt lat="52.403622" lon="17.029488"></trkpt><trkpt lat="52.405485" lon="17.030857"></trkpt><trkpt lat="52.405825" lon="17.030823"></trkpt><trkpt lat="52.406142" lon="17.031224"></trkpt><trkpt lat="52.406158" lon="17.031627"></trkpt><trkpt lat="52.406093" lon="17.032059"></trkpt><trkpt lat="52.405797" lon="17.033102"></trkpt><trkpt lat="52.405568" lon="17.033608"></trkpt><trkpt lat="52.405311" lon="17.034652"></trkpt><trkpt lat="52.405293" lon="17.035149"></trkpt><trkpt lat="52.405378" lon="17.035746"></trkpt><trkpt lat="52.405468" lon="17.036213"></trkpt><trkpt lat="52.405677" lon="17.037769"></trkpt><trkpt lat="52.405619" lon="17.038324"></trkpt><trkpt lat="52.405668" lon="17.039113"></trkpt><trkpt lat="52.405732" lon="17.03953"></trkpt><trkpt lat="52.405829" lon="17.039821"></trkpt><trkpt lat="52.405929" lon="17.040279"></trkpt><trkpt lat="52.405816" lon="17.040585"></trkpt><trkpt lat="52.405581" lon="17.040957"></trkpt><trkpt lat="52.405496" lon="17.041272"></trkpt><trkpt lat="52.405752" lon="17.041388"></trkpt><trkpt lat="52.40613" lon="17.041637"></trkpt><trkpt lat="52.405991" lon="17.042344"></trkpt><trkpt lat="52.405783" lon="17.043053"></trkpt><trkpt lat="52.405925" lon="17.043606"></trkpt><trkpt lat="52.406264" lon="17.044"></trkpt><trkpt lat="52.407664" lon="17.045214"></trkpt><trkpt lat="52.408459" lon="17.04469"></trkpt><trkpt lat="52.408624" lon="17.044874"></trkpt><trkpt lat="52.408723" lon="17.045177"></trkpt><trkpt lat="52.408861" lon="17.045505"></trkpt><trkpt lat="52.409107" lon="17.046262"></trkpt><trkpt lat="52.409374" lon="17.046958"></trkpt><trkpt lat="52.410285" lon="17.048989"></trkpt><trkpt lat="52.410462" lon="17.049205"></trkpt><trkpt lat="52.41072" lon="17.050012"></trkpt><trkpt lat="52.410856" lon="17.050321"></trkpt><trkpt lat="52.410971" lon="17.050676"></trkpt><trkpt lat="52.411188" lon="17.051553"></trkpt><trkpt lat="52.411323" lon="17.052322"></trkpt><trkpt lat="52.411495" lon="17.052993"></trkpt><trkpt lat="52.411647" lon="17.053266"></trkpt><trkpt lat="52.412019" lon="17.05359"></trkpt><trkpt lat="52.412592" lon="17.054243"></trkpt><trkpt lat="52.412683" lon="17.054541"></trkpt><trkpt lat="52.412999" lon="17.055386"></trkpt><trkpt lat="52.413231" lon="17.055621"></trkpt><trkpt lat="52.413629" lon="17.056162"></trkpt><trkpt lat="52.413682" lon="17.056494"></trkpt><trkpt lat="52.413644" lon="17.057068"></trkpt><trkpt lat="52.413541" lon="17.057706"></trkpt><trkpt lat="52.413502" lon="17.058085"></trkpt><trkpt lat="52.413471" lon="17.059094"></trkpt><trkpt lat="52.413511" lon="17.059467"></trkpt><trkpt lat="52.41359" lon="17.05984"></trkpt><trkpt lat="52.413948" lon="17.060637"></trkpt><trkpt lat="52.414299" lon="17.061281"></trkpt><trkpt lat="52.417801" lon="17.066378"></trkpt><trkpt lat="52.418153" lon="17.066343"></trkpt><trkpt lat="52.419214" lon="17.066097"></trkpt><trkpt lat="52.419787" lon="17.066114"></trkpt><trkpt lat="52.420102" lon="17.066212"></trkpt><trkpt lat="52.420326" lon="17.066327"></trkpt><trkpt lat="52.420727" lon="17.066176"></trkpt><trkpt lat="52.420931" lon="17.065925"></trkpt><trkpt lat="52.421215" lon="17.065422"></trkpt><trkpt lat="52.421363" lon="17.065085"></trkpt><trkpt lat="52.421592" lon="17.064678"></trkpt><trkpt lat="52.422048" lon="17.064693"></trkpt><trkpt lat="52.422358" lon="17.064741"></trkpt><trkpt lat="52.422637" lon="17.064885"></trkpt><trkpt lat="52.423411" lon="17.065184"></trkpt><trkpt lat="52.424011" lon="17.065156"></trkpt><trkpt lat="52.424644" lon="17.064976"></trkpt><trkpt lat="52.425773" lon="17.064238"></trkpt><trkpt lat="52.42737" lon="17.064116"></trkpt><trkpt lat="52.427662" lon="17.065007"></trkpt><trkpt lat="52.429965" lon="17.070944"></trkpt><trkpt lat="52.430133" lon="17.070732"></trkpt><trkpt lat="52.430984" lon="17.069813"></trkpt><trkpt lat="52.431222" lon="17.070988"></trkpt><trkpt lat="52.432216" lon="17.074595"></trkpt><trkpt lat="52.432604" lon="17.075758"></trkpt><trkpt lat="52.441399" lon="17.100132"></trkpt><trkpt lat="52.443609" lon="17.105358"></trkpt><trkpt lat="52.443911" lon="17.105837"></trkpt><trkpt lat="52.447159" lon="17.111964"></trkpt><trkpt lat="52.447295" lon="17.112341"></trkpt><trkpt lat="52.447883" lon="17.114331"></trkpt><trkpt lat="52.447782" lon="17.114613"></trkpt><trkpt lat="52.447369" lon="17.115353"></trkpt><trkpt lat="52.446963" lon="17.116263"></trkpt><trkpt lat="52.446955" lon="17.116639"></trkpt><trkpt lat="52.447115" lon="17.117248"></trkpt><trkpt lat="52.447353" lon="17.117746"></trkpt><trkpt lat="52.449945" lon="17.12406"></trkpt><trkpt lat="52.45007" lon="17.12432"></trkpt><trkpt lat="52.450372" lon="17.124382"></trkpt><trkpt lat="52.450913" lon="17.124415"></trkpt><trkpt lat="52.451355" lon="17.124336"></trkpt><trkpt lat="52.452437" lon="17.124375"></trkpt><trkpt lat="52.452804" lon="17.124086"></trkpt><trkpt lat="52.453146" lon="17.123883"></trkpt><trkpt lat="52.453284" lon="17.124723"></trkpt><trkpt lat="52.453626" lon="17.127788"></trkpt><trkpt lat="52.453408" lon="17.128629"></trkpt><trkpt lat="52.453216" lon="17.129173"></trkpt><trkpt lat="52.45319" lon="17.129559"></trkpt><trkpt lat="52.453312" lon="17.129851"></trkpt><trkpt lat="52.453606" lon="17.130216"></trkpt><trkpt lat="52.453866" lon="17.131017"></trkpt><trkpt lat="52.453958" lon="17.131809"></trkpt><trkpt lat="52.454006" lon="17.132751"></trkpt><trkpt lat="52.454594" lon="17.13865"></trkpt><trkpt lat="52.455256" lon="17.143247"></trkpt><trkpt lat="52.458605" lon="17.160251"></trkpt><trkpt lat="52.45875" lon="17.160517"></trkpt><trkpt lat="52.461724" lon="17.1669"></trkpt><trkpt lat="52.461853" lon="17.167996"></trkpt><trkpt lat="52.461891" lon="17.169117"></trkpt><trkpt lat="52.461838" lon="17.169493"></trkpt><trkpt lat="52.460999" lon="17.173554"></trkpt><trkpt lat="52.460883" lon="17.174004"></trkpt><trkpt lat="52.460748" lon="17.174914"></trkpt><trkpt lat="52.460653" lon="17.176168"></trkpt><trkpt lat="52.460306" lon="17.18692"></trkpt><trkpt lat="52.46043" lon="17.188244"></trkpt><trkpt lat="52.460739" lon="17.194489"></trkpt><trkpt lat="52.462011" lon="17.207526"></trkpt><trkpt lat="52.462139" lon="17.208322"></trkpt><trkpt lat="52.462163" lon="17.208702"></trkpt><trkpt lat="52.4623" lon="17.209588"></trkpt><trkpt lat="52.462587" lon="17.210634"></trkpt><trkpt lat="52.462773" lon="17.211488"></trkpt><trkpt lat="52.462815" lon="17.212155"></trkpt><trkpt lat="52.462935" lon="17.213205"></trkpt><trkpt lat="52.46308" lon="17.214054"></trkpt><trkpt lat="52.463148" lon="17.214679"></trkpt><trkpt lat="52.463314" lon="17.2157"></trkpt><trkpt lat="52.463545" lon="17.217999"></trkpt><trkpt lat="52.463535" lon="17.218781"></trkpt><trkpt lat="52.463515" lon="17.219119"></trkpt><trkpt lat="52.463532" lon="17.219785"></trkpt><trkpt lat="52.463511" lon="17.22101"></trkpt><trkpt lat="52.463624" lon="17.22348"></trkpt><trkpt lat="52.463741" lon="17.224542"></trkpt><trkpt lat="52.46384" lon="17.225061"></trkpt><trkpt lat="52.46397" lon="17.225337"></trkpt><trkpt lat="52.466131" lon="17.229215"></trkpt><trkpt lat="52.466442" lon="17.229419"></trkpt><trkpt lat="52.466631" lon="17.229569"></trkpt><trkpt lat="52.466742" lon="17.229269"></trkpt><trkpt lat="52.466766" lon="17.228919"></trkpt><trkpt lat="52.466833" lon="17.228474"></trkpt><trkpt lat="52.467201" lon="17.227613"></trkpt><trkpt lat="52.467406" lon="17.227215"></trkpt><trkpt lat="52.467683" lon="17.226808"></trkpt><trkpt lat="52.467418" lon="17.227296"></trkpt><trkpt lat="52.46728" lon="17.227635"></trkpt><trkpt lat="52.467117" lon="17.227936"></trkpt><trkpt lat="52.46693" lon="17.228404"></trkpt><trkpt lat="52.466865" lon="17.228804"></trkpt><trkpt lat="52.466842" lon="17.22914"></trkpt><trkpt lat="52.466801" lon="17.229461"></trkpt><trkpt lat="52.467051" lon="17.229813"></trkpt><trkpt lat="52.467189" lon="17.230122"></trkpt><trkpt lat="52.46734" lon="17.230532"></trkpt><trkpt lat="52.467219" lon="17.230184"></trkpt><trkpt lat="52.466996" lon="17.229777"></trkpt><trkpt lat="52.466796" lon="17.22969"></trkpt><trkpt lat="52.466674" lon="17.229946"></trkpt><trkpt lat="52.46666" lon="17.23034"></trkpt><trkpt lat="52.466516" lon="17.232156"></trkpt><trkpt lat="52.466401" lon="17.23265"></trkpt><trkpt lat="52.466246" lon="17.233558"></trkpt><trkpt lat="52.466092" lon="17.234022"></trkpt><trkpt lat="52.465757" lon="17.234744"></trkpt><trkpt lat="52.465574" lon="17.235232"></trkpt><trkpt lat="52.465442" lon="17.2355"></trkpt><trkpt lat="52.46512" lon="17.236048"></trkpt><trkpt lat="52.464029" lon="17.237661"></trkpt><trkpt lat="52.463898" lon="17.238169"></trkpt><trkpt lat="52.463623" lon="17.239006"></trkpt><trkpt lat="52.463327" lon="17.239356"></trkpt><trkpt lat="52.463004" lon="17.239664"></trkpt><trkpt lat="52.462474" lon="17.240418"></trkpt><trkpt lat="52.462425" lon="17.240904"></trkpt><trkpt lat="52.46241" lon="17.241276"></trkpt><trkpt lat="52.462446" lon="17.241846"></trkpt><trkpt lat="52.462571" lon="17.243009"></trkpt><trkpt lat="52.462808" lon="17.247089"></trkpt><trkpt lat="52.462511" lon="17.248032"></trkpt><trkpt lat="52.462419" lon="17.248484"></trkpt><trkpt lat="52.462399" lon="17.248814"></trkpt><trkpt lat="52.462275" lon="17.249826"></trkpt><trkpt lat="52.462073" lon="17.250013"></trkpt><trkpt lat="52.46168" lon="17.250217"></trkpt><trkpt lat="52.459176" lon="17.251933"></trkpt><trkpt lat="52.458979" lon="17.252203"></trkpt><trkpt lat="52.458728" lon="17.252613"></trkpt><trkpt lat="52.458398" lon="17.253051"></trkpt><trkpt lat="52.45802" lon="17.253295"></trkpt><trkpt lat="52.45778" lon="17.25362"></trkpt><trkpt lat="52.457572" lon="17.254057"></trkpt><trkpt lat="52.457311" lon="17.254369"></trkpt><trkpt lat="52.456957" lon="17.254562"></trkpt><trkpt lat="52.456567" lon="17.254649"></trkpt><trkpt lat="52.456148" lon="17.254871"></trkpt><trkpt lat="52.455895" lon="17.254947"></trkpt><trkpt lat="52.455529" lon="17.255106"></trkpt><trkpt lat="52.45537" lon="17.255915"></trkpt><trkpt lat="52.455321" lon="17.256435"></trkpt><trkpt lat="52.455294" lon="17.257008"></trkpt><trkpt lat="52.455225" lon="17.257587"></trkpt><trkpt lat="52.454329" lon="17.262196"></trkpt><trkpt lat="52.454088" lon="17.262625"></trkpt><trkpt lat="52.453237" lon="17.263909"></trkpt><trkpt lat="52.452894" lon="17.263793"></trkpt><trkpt lat="52.452203" lon="17.263174"></trkpt><trkpt lat="52.452107" lon="17.262835"></trkpt><trkpt lat="52.452038" lon="17.262458"></trkpt><trkpt lat="52.451741" lon="17.261198"></trkpt><trkpt lat="52.451512" lon="17.260909"></trkpt><trkpt lat="52.451307" lon="17.260518"></trkpt><trkpt lat="52.451309" lon="17.260166"></trkpt><trkpt lat="52.451381" lon="17.259768"></trkpt><trkpt lat="52.451372" lon="17.259346"></trkpt><trkpt lat="52.451405" lon="17.259011"></trkpt><trkpt lat="52.451286" lon="17.258317"></trkpt><trkpt lat="52.451253" lon="17.257727"></trkpt><trkpt lat="52.451265" lon="17.25719"></trkpt><trkpt lat="52.451201" lon="17.25686"></trkpt><trkpt lat="52.451102" lon="17.256569"></trkpt><trkpt lat="52.450814" lon="17.255307"></trkpt><trkpt lat="52.450691" lon="17.255027"></trkpt><trkpt lat="52.450456" lon="17.25479"></trkpt><trkpt lat="52.45063" lon="17.25461"></trkpt><trkpt lat="52.450833" lon="17.254658"></trkpt><trkpt lat="52.451027" lon="17.25439"></trkpt><trkpt lat="52.451166" lon="17.253918"></trkpt><trkpt lat="52.451389" lon="17.253886"></trkpt><trkpt lat="52.451751" lon="17.254064"></trkpt><trkpt lat="52.451949" lon="17.254053"></trkpt><trkpt lat="52.452874" lon="17.254289"></trkpt><trkpt lat="52.453207" lon="17.25432"></trkpt><trkpt lat="52.453367" lon="17.253512"></trkpt><trkpt lat="52.453431" lon="17.253024"></trkpt><trkpt lat="52.453494" lon="17.251844"></trkpt><trkpt lat="52.453484" lon="17.251475"></trkpt><trkpt lat="52.453764" lon="17.251587"></trkpt><trkpt lat="52.453972" lon="17.251751"></trkpt><trkpt lat="52.454237" lon="17.252067"></trkpt><trkpt lat="52.454599" lon="17.252864"></trkpt><trkpt lat="52.456421" lon="17.256126"></trkpt><trkpt lat="52.45696" lon="17.256762"></trkpt><trkpt lat="52.457629" lon="17.257394"></trkpt><trkpt lat="52.459565" lon="17.259557"></trkpt><trkpt lat="52.459906" lon="17.260841"></trkpt><trkpt lat="52.459994" lon="17.261258"></trkpt><trkpt lat="52.459792" lon="17.260386"></trkpt><trkpt lat="52.45971" lon="17.259819"></trkpt><trkpt lat="52.459867" lon="17.259538"></trkpt><trkpt lat="52.460083" lon="17.259003"></trkpt><trkpt lat="52.460652" lon="17.257827"></trkpt><trkpt lat="52.460851" lon="17.257492"></trkpt><trkpt lat="52.46104" lon="17.25736"></trkpt><trkpt lat="52.461254" lon="17.257308"></trkpt><trkpt lat="52.461613" lon="17.257162"></trkpt><trkpt lat="52.461736" lon="17.256886"></trkpt><trkpt lat="52.461801" lon="17.256568"></trkpt><trkpt lat="52.461902" lon="17.255729"></trkpt><trkpt lat="52.462061" lon="17.254919"></trkpt><trkpt lat="52.462171" lon="17.254557"></trkpt><trkpt lat="52.462498" lon="17.253807"></trkpt><trkpt lat="52.462565" lon="17.253484"></trkpt><trkpt lat="52.462953" lon="17.25198"></trkpt><trkpt lat="52.462861" lon="17.251688"></trkpt><trkpt lat="52.462964" lon="17.252036"></trkpt><trkpt lat="52.462833" lon="17.252524"></trkpt><trkpt lat="52.461112" lon="17.257298"></trkpt><trkpt lat="52.460795" lon="17.257516"></trkpt><trkpt lat="52.4606" lon="17.257931"></trkpt><trkpt lat="52.459742" lon="17.260278"></trkpt><trkpt lat="52.460033" lon="17.261403"></trkpt><trkpt lat="52.461156" lon="17.264969"></trkpt><trkpt lat="52.461645" lon="17.265613"></trkpt><trkpt lat="52.466383" lon="17.273287"></trkpt><trkpt lat="52.466732" lon="17.274334"></trkpt><trkpt lat="52.468593" lon="17.279086"></trkpt><trkpt lat="52.471776" lon="17.285615"></trkpt><trkpt lat="52.472453" lon="17.286132"></trkpt><trkpt lat="52.4732" lon="17.286394"></trkpt><trkpt lat="52.47765" lon="17.287388"></trkpt><trkpt lat="52.477825" lon="17.286875"></trkpt><trkpt lat="52.478004" lon="17.286065"></trkpt><trkpt lat="52.478434" lon="17.28456"></trkpt><trkpt lat="52.479147" lon="17.279744"></trkpt><trkpt lat="52.478954" lon="17.27882"></trkpt><trkpt lat="52.47882" lon="17.277984"></trkpt><trkpt lat="52.47892" lon="17.277661"></trkpt><trkpt lat="52.479066" lon="17.277367"></trkpt><trkpt lat="52.478759" lon="17.27755"></trkpt><trkpt lat="52.478897" lon="17.277288"></trkpt><trkpt lat="52.479044" lon="17.276921"></trkpt><trkpt lat="52.478978" lon="17.276519"></trkpt><trkpt lat="52.47916" lon="17.27672"></trkpt><trkpt lat="52.479229" lon="17.277086"></trkpt><trkpt lat="52.479353" lon="17.277549"></trkpt><trkpt lat="52.479392" lon="17.277919"></trkpt></trkseg></trk></gpx>