<?xml version="1.0" encoding="UTF-8" standalone="no" ?><gpx xmlns="http://www.topografix.com/GPX/1/1" xmlns:gpxx="http://www.garmin.com/xmlschemas/GpxExtensions/v3" ><trk><trkseg><trkpt lat="50.869597" lon="15.828464"></trkpt><trkpt lat="50.869904" lon="15.829076"></trkpt><trkpt lat="50.870128" lon="15.828804"></trkpt><trkpt lat="50.870151" lon="15.828308"></trkpt><trkpt lat="50.870228" lon="15.827573"></trkpt><trkpt lat="50.870335" lon="15.827172"></trkpt><trkpt lat="50.870614" lon="15.827047"></trkpt><trkpt lat="50.870728" lon="15.82663"></trkpt><trkpt lat="50.870864" lon="15.825796"></trkpt><trkpt lat="50.87074" lon="15.825291"></trkpt><trkpt lat="50.870739" lon="15.82572"></trkpt><trkpt lat="50.870674" lon="15.825054"></trkpt><trkpt lat="50.870478" lon="15.824436"></trkpt><trkpt lat="50.870358" lon="15.823866"></trkpt><trkpt lat="50.870342" lon="15.823286"></trkpt><trkpt lat="50.870396" lon="15.822091"></trkpt><trkpt lat="50.870461" lon="15.821637"></trkpt><trkpt lat="50.870577" lon="15.821132"></trkpt><trkpt lat="50.870789" lon="15.820589"></trkpt><trkpt lat="50.871056" lon="15.820323"></trkpt><trkpt lat="50.871415" lon="15.820144"></trkpt><trkpt lat="50.872394" lon="15.819458"></trkpt><trkpt lat="50.872715" lon="15.81909"></trkpt><trkpt lat="50.878115" lon="15.813974"></trkpt><trkpt lat="50.878398" lon="15.814135"></trkpt><trkpt lat="50.881796" lon="15.816745"></trkpt><trkpt lat="50.881942" lon="15.817141"></trkpt><trkpt lat="50.882291" lon="15.817657"></trkpt><trkpt lat="50.882496" lon="15.818045"></trkpt><trkpt lat="50.882662" lon="15.818481"></trkpt><trkpt lat="50.884331" lon="15.822063"></trkpt><trkpt lat="50.884605" lon="15.821985"></trkpt><trkpt lat="50.884578" lon="15.82258"></trkpt><trkpt lat="50.884725" lon="15.821811"></trkpt></trkseg></trk></gpx>