<?xml version="1.0" encoding="UTF-8" standalone="no" ?><gpx xmlns="http://www.topografix.com/GPX/1/1" xmlns:gpxx="http://www.garmin.com/xmlschemas/GpxExtensions/v3" ><trk><trkseg><trkpt lat="52.658982" lon="17.946368"></trkpt><trkpt lat="52.658864" lon="17.946633"></trkpt><trkpt lat="52.65854" lon="17.946615"></trkpt><trkpt lat="52.658318" lon="17.946728"></trkpt><trkpt lat="52.658113" lon="17.946736"></trkpt><trkpt lat="52.657769" lon="17.946607"></trkpt><trkpt lat="52.657595" lon="17.946847"></trkpt><trkpt lat="52.657509" lon="17.947577"></trkpt><trkpt lat="52.656748" lon="17.949876"></trkpt><trkpt lat="52.656106" lon="17.949797"></trkpt><trkpt lat="52.653178" lon="17.94978"></trkpt><trkpt lat="52.652459" lon="17.949597"></trkpt><trkpt lat="52.642878" lon="17.94565"></trkpt><trkpt lat="52.642425" lon="17.944932"></trkpt><trkpt lat="52.640213" lon="17.941943"></trkpt><trkpt lat="52.639421" lon="17.941584"></trkpt><trkpt lat="52.624931" lon="17.933157"></trkpt><trkpt lat="52.624738" lon="17.932895"></trkpt><trkpt lat="52.624279" lon="17.932127"></trkpt><trkpt lat="52.610731" lon="17.905897"></trkpt><trkpt lat="52.610725" lon="17.905557"></trkpt><trkpt lat="52.610853" lon="17.904608"></trkpt><trkpt lat="52.610994" lon="17.903899"></trkpt><trkpt lat="52.611106" lon="17.903568"></trkpt><trkpt lat="52.611754" lon="17.901219"></trkpt><trkpt lat="52.611916" lon="17.900133"></trkpt><trkpt lat="52.611923" lon="17.899354"></trkpt><trkpt lat="52.611773" lon="17.896059"></trkpt><trkpt lat="52.611508" lon="17.895158"></trkpt><trkpt lat="52.611006" lon="17.894028"></trkpt><trkpt lat="52.610549" lon="17.893144"></trkpt><trkpt lat="52.60872" lon="17.88897"></trkpt><trkpt lat="52.608322" lon="17.887873"></trkpt><trkpt lat="52.604627" lon="17.874887"></trkpt><trkpt lat="52.604829" lon="17.874045"></trkpt><trkpt lat="52.605212" lon="17.871081"></trkpt><trkpt lat="52.605205" lon="17.870145"></trkpt><trkpt lat="52.605273" lon="17.869265"></trkpt><trkpt lat="52.605436" lon="17.868646"></trkpt><trkpt lat="52.605769" lon="17.867976"></trkpt><trkpt lat="52.60586" lon="17.867657"></trkpt><trkpt lat="52.605885" lon="17.867252"></trkpt><trkpt lat="52.605948" lon="17.863529"></trkpt><trkpt lat="52.605679" lon="17.862124"></trkpt><trkpt lat="52.605588" lon="17.860814"></trkpt><trkpt lat="52.605634" lon="17.855446"></trkpt><trkpt lat="52.605759" lon="17.854303"></trkpt><trkpt lat="52.605855" lon="17.85391"></trkpt><trkpt lat="52.606428" lon="17.854083"></trkpt><trkpt lat="52.60693" lon="17.854349"></trkpt><trkpt lat="52.607358" lon="17.854716"></trkpt><trkpt lat="52.607872" lon="17.854965"></trkpt><trkpt lat="52.608629" lon="17.855456"></trkpt><trkpt lat="52.608871" lon="17.856118"></trkpt><trkpt lat="52.609052" lon="17.856809"></trkpt><trkpt lat="52.609105" lon="17.857459"></trkpt><trkpt lat="52.609177" lon="17.858004"></trkpt><trkpt lat="52.609297" lon="17.858443"></trkpt><trkpt lat="52.610077" lon="17.860639"></trkpt><trkpt lat="52.610365" lon="17.8612"></trkpt><trkpt lat="52.610703" lon="17.861725"></trkpt><trkpt lat="52.611017" lon="17.862138"></trkpt><trkpt lat="52.6119" lon="17.86292"></trkpt><trkpt lat="52.612272" lon="17.863132"></trkpt><trkpt lat="52.61428" lon="17.864712"></trkpt><trkpt lat="52.61457" lon="17.865096"></trkpt><trkpt lat="52.614853" lon="17.865316"></trkpt><trkpt lat="52.615054" lon="17.865525"></trkpt><trkpt lat="52.615251" lon="17.865895"></trkpt><trkpt lat="52.616456" lon="17.867782"></trkpt><trkpt lat="52.616828" lon="17.868184"></trkpt><trkpt lat="52.620469" lon="17.872868"></trkpt><trkpt lat="52.62069" lon="17.872162"></trkpt><trkpt lat="52.620786" lon="17.871618"></trkpt><trkpt lat="52.62074" lon="17.871233"></trkpt><trkpt lat="52.620834" lon="17.870422"></trkpt><trkpt lat="52.620922" lon="17.869179"></trkpt><trkpt lat="52.620914" lon="17.867928"></trkpt><trkpt lat="52.620868" lon="17.867206"></trkpt><trkpt lat="52.620906" lon="17.86654"></trkpt><trkpt lat="52.621149" lon="17.866539"></trkpt><trkpt lat="52.621623" lon="17.866687"></trkpt><trkpt lat="52.622599" lon="17.866839"></trkpt><trkpt lat="52.622662" lon="17.866514"></trkpt><trkpt lat="52.62256" lon="17.866846"></trkpt><trkpt lat="52.622982" lon="17.867137"></trkpt><trkpt lat="52.62356" lon="17.8673"></trkpt><trkpt lat="52.623926" lon="17.867627"></trkpt><trkpt lat="52.623484" lon="17.867297"></trkpt><trkpt lat="52.623101" lon="17.867189"></trkpt><trkpt lat="52.620895" lon="17.867543"></trkpt><trkpt lat="52.620933" lon="17.868191"></trkpt><trkpt lat="52.620936" lon="17.869239"></trkpt><trkpt lat="52.62087" lon="17.870203"></trkpt><trkpt lat="52.620729" lon="17.871044"></trkpt><trkpt lat="52.620771" lon="17.871425"></trkpt><trkpt lat="52.620764" lon="17.871791"></trkpt><trkpt lat="52.620524" lon="17.872905"></trkpt><trkpt lat="52.620525" lon="17.873257"></trkpt><trkpt lat="52.620665" lon="17.873675"></trkpt><trkpt lat="52.620818" lon="17.874038"></trkpt><trkpt lat="52.621087" lon="17.874471"></trkpt><trkpt lat="52.621408" lon="17.875112"></trkpt><trkpt lat="52.622123" lon="17.876145"></trkpt><trkpt lat="52.622691" lon="17.877556"></trkpt><trkpt lat="52.622878" lon="17.878216"></trkpt><trkpt lat="52.623656" lon="17.879547"></trkpt><trkpt lat="52.623892" lon="17.879283"></trkpt><trkpt lat="52.624376" lon="17.878893"></trkpt><trkpt lat="52.624803" lon="17.87869"></trkpt><trkpt lat="52.630064" lon="17.877"></trkpt><trkpt lat="52.630399" lon="17.877035"></trkpt><trkpt lat="52.631928" lon="17.876674"></trkpt><trkpt lat="52.63256" lon="17.876308"></trkpt><trkpt lat="52.634266" lon="17.87507"></trkpt><trkpt lat="52.638787" lon="17.872666"></trkpt><trkpt lat="52.645769" lon="17.875396"></trkpt><trkpt lat="52.646634" lon="17.875485"></trkpt><trkpt lat="52.656964" lon="17.872555"></trkpt><trkpt lat="52.657037" lon="17.872141"></trkpt><trkpt lat="52.664334" lon="17.842004"></trkpt><trkpt lat="52.664812" lon="17.841767"></trkpt><trkpt lat="52.665706" lon="17.841555"></trkpt><trkpt lat="52.66659" lon="17.841508"></trkpt><trkpt lat="52.669898" lon="17.842325"></trkpt><trkpt lat="52.67018" lon="17.842766"></trkpt><trkpt lat="52.670462" lon="17.842936"></trkpt><trkpt lat="52.67068" lon="17.842999"></trkpt><trkpt lat="52.673856" lon="17.843212"></trkpt><trkpt lat="52.674268" lon="17.842769"></trkpt><trkpt lat="52.674934" lon="17.841911"></trkpt><trkpt lat="52.683111" lon="17.83293"></trkpt><trkpt lat="52.683995" lon="17.833115"></trkpt><trkpt lat="52.703744" lon="17.834449"></trkpt><trkpt lat="52.703909" lon="17.834189"></trkpt><trkpt lat="52.703922" lon="17.833809"></trkpt><trkpt lat="52.704187" lon="17.831241"></trkpt><trkpt lat="52.704507" lon="17.830023"></trkpt><trkpt lat="52.704787" lon="17.828544"></trkpt><trkpt lat="52.704848" lon="17.828067"></trkpt><trkpt lat="52.704886" lon="17.827135"></trkpt><trkpt lat="52.705094" lon="17.826978"></trkpt><trkpt lat="52.705772" lon="17.826999"></trkpt><trkpt lat="52.707152" lon="17.827619"></trkpt><trkpt lat="52.707742" lon="17.828209"></trkpt><trkpt lat="52.710239" lon="17.830206"></trkpt><trkpt lat="52.710512" lon="17.830128"></trkpt><trkpt lat="52.711149" lon="17.829598"></trkpt><trkpt lat="52.711613" lon="17.828846"></trkpt><trkpt lat="52.711909" lon="17.828044"></trkpt><trkpt lat="52.71258" lon="17.825895"></trkpt><trkpt lat="52.712584" lon="17.825243"></trkpt><trkpt lat="52.712689" lon="17.824355"></trkpt><trkpt lat="52.713153" lon="17.822975"></trkpt><trkpt lat="52.71373" lon="17.821707"></trkpt><trkpt lat="52.714177" lon="17.820995"></trkpt><trkpt lat="52.71469" lon="17.820574"></trkpt><trkpt lat="52.715266" lon="17.820348"></trkpt><trkpt lat="52.716349" lon="17.819539"></trkpt><trkpt lat="52.716844" lon="17.818738"></trkpt><trkpt lat="52.71735" lon="17.81779"></trkpt><trkpt lat="52.717798" lon="17.816788"></trkpt><trkpt lat="52.717964" lon="17.816479"></trkpt><trkpt lat="52.718211" lon="17.816252"></trkpt><trkpt lat="52.718412" lon="17.816196"></trkpt><trkpt lat="52.718625" lon="17.816213"></trkpt><trkpt lat="52.718836" lon="17.816288"></trkpt><trkpt lat="52.719894" lon="17.816518"></trkpt><trkpt lat="52.722167" lon="17.81568"></trkpt><trkpt lat="52.722203" lon="17.815265"></trkpt><trkpt lat="52.722203" lon="17.814547"></trkpt><trkpt lat="52.72217" lon="17.81409"></trkpt><trkpt lat="52.722141" lon="17.812877"></trkpt><trkpt lat="52.72219" lon="17.812449"></trkpt><trkpt lat="52.722277" lon="17.81213"></trkpt><trkpt lat="52.722474" lon="17.811691"></trkpt><trkpt lat="52.734968" lon="17.788162"></trkpt><trkpt lat="52.736101" lon="17.787874"></trkpt><trkpt lat="52.740367" lon="17.787356"></trkpt><trkpt lat="52.740707" lon="17.787219"></trkpt><trkpt lat="52.740779" lon="17.78597"></trkpt><trkpt lat="52.741384" lon="17.780621"></trkpt><trkpt lat="52.743488" lon="17.767333"></trkpt><trkpt lat="52.744859" lon="17.761547"></trkpt><trkpt lat="52.745464" lon="17.760966"></trkpt><trkpt lat="52.753835" lon="17.751326"></trkpt><trkpt lat="52.75403" lon="17.750838"></trkpt><trkpt lat="52.757071" lon="17.741813"></trkpt><trkpt lat="52.757175" lon="17.740432"></trkpt><trkpt lat="52.757916" lon="17.734196"></trkpt><trkpt lat="52.758336" lon="17.733379"></trkpt><trkpt lat="52.758789" lon="17.732616"></trkpt><trkpt lat="52.759301" lon="17.731983"></trkpt><trkpt lat="52.761335" lon="17.730283"></trkpt><trkpt lat="52.761541" lon="17.730588"></trkpt><trkpt lat="52.762103" lon="17.730434"></trkpt><trkpt lat="52.76265" lon="17.729988"></trkpt><trkpt lat="52.763144" lon="17.729504"></trkpt><trkpt lat="52.763492" lon="17.729058"></trkpt><trkpt lat="52.763553" lon="17.728684"></trkpt><trkpt lat="52.763658" lon="17.728219"></trkpt><trkpt lat="52.763867" lon="17.728039"></trkpt><trkpt lat="52.764633" lon="17.727702"></trkpt><trkpt lat="52.764876" lon="17.727717"></trkpt><trkpt lat="52.765871" lon="17.728274"></trkpt><trkpt lat="52.766153" lon="17.728043"></trkpt><trkpt lat="52.766246" lon="17.727673"></trkpt><trkpt lat="52.766404" lon="17.725986"></trkpt><trkpt lat="52.769973" lon="17.700081"></trkpt><trkpt lat="52.770158" lon="17.699856"></trkpt><trkpt lat="52.770533" lon="17.698918"></trkpt><trkpt lat="52.775566" lon="17.684168"></trkpt><trkpt lat="52.775912" lon="17.682686"></trkpt><trkpt lat="52.778641" lon="17.667178"></trkpt><trkpt lat="52.785867" lon="17.635929"></trkpt><trkpt lat="52.786049" lon="17.635774"></trkpt><trkpt lat="52.786313" lon="17.63541"></trkpt><trkpt lat="52.788674" lon="17.631333"></trkpt><trkpt lat="52.788765" lon="17.631033"></trkpt><trkpt lat="52.790021" lon="17.625444"></trkpt><trkpt lat="52.790086" lon="17.624945"></trkpt><trkpt lat="52.790179" lon="17.624535"></trkpt><trkpt lat="52.790354" lon="17.624206"></trkpt><trkpt lat="52.790767" lon="17.623817"></trkpt><trkpt lat="52.792461" lon="17.622726"></trkpt><trkpt lat="52.792655" lon="17.622794"></trkpt><trkpt lat="52.792962" lon="17.622813"></trkpt><trkpt lat="52.793356" lon="17.622668"></trkpt><trkpt lat="52.794244" lon="17.622223"></trkpt><trkpt lat="52.794713" lon="17.622083"></trkpt><trkpt lat="52.794925" lon="17.622091"></trkpt><trkpt lat="52.797613" lon="17.621626"></trkpt><trkpt lat="52.797731" lon="17.621337"></trkpt><trkpt lat="52.797801" lon="17.62097"></trkpt><trkpt lat="52.797824" lon="17.620599"></trkpt><trkpt lat="52.797819" lon="17.619497"></trkpt><trkpt lat="52.7978" lon="17.619142"></trkpt><trkpt lat="52.798009" lon="17.61915"></trkpt><trkpt lat="52.798415" lon="17.619842"></trkpt><trkpt lat="52.798547" lon="17.620117"></trkpt><trkpt lat="52.798805" lon="17.620401"></trkpt><trkpt lat="52.799" lon="17.620549"></trkpt><trkpt lat="52.799366" lon="17.620613"></trkpt><trkpt lat="52.799566" lon="17.620514"></trkpt><trkpt lat="52.800027" lon="17.620156"></trkpt><trkpt lat="52.800808" lon="17.619659"></trkpt><trkpt lat="52.80114" lon="17.619038"></trkpt><trkpt lat="52.811414" lon="17.602486"></trkpt><trkpt lat="52.812041" lon="17.601978"></trkpt><trkpt lat="52.817185" lon="17.597006"></trkpt><trkpt lat="52.817197" lon="17.596273"></trkpt><trkpt lat="52.817248" lon="17.595849"></trkpt><trkpt lat="52.820508" lon="17.578001"></trkpt><trkpt lat="52.820837" lon="17.577032"></trkpt><trkpt lat="52.82091" lon="17.576303"></trkpt><trkpt lat="52.821222" lon="17.569057"></trkpt><trkpt lat="52.821184" lon="17.568719"></trkpt><trkpt lat="52.821236" lon="17.568397"></trkpt><trkpt lat="52.821727" lon="17.567029"></trkpt><trkpt lat="52.825407" lon="17.55826"></trkpt><trkpt lat="52.825908" lon="17.557242"></trkpt><trkpt lat="52.829639" lon="17.548294"></trkpt><trkpt lat="52.829963" lon="17.546628"></trkpt><trkpt lat="52.834604" lon="17.528225"></trkpt><trkpt lat="52.835183" lon="17.528286"></trkpt><trkpt lat="52.835381" lon="17.528171"></trkpt><trkpt lat="52.835148" lon="17.527545"></trkpt><trkpt lat="52.834535" lon="17.525537"></trkpt><trkpt lat="52.834549" lon="17.524055"></trkpt><trkpt lat="52.834674" lon="17.52322"></trkpt><trkpt lat="52.836537" lon="17.513774"></trkpt><trkpt lat="52.83684" lon="17.512575"></trkpt><trkpt lat="52.840851" lon="17.499758"></trkpt><trkpt lat="52.841659" lon="17.500079"></trkpt><trkpt lat="52.842481" lon="17.50027"></trkpt><trkpt lat="52.842849" lon="17.500285"></trkpt><trkpt lat="52.843637" lon="17.500054"></trkpt><trkpt lat="52.844423" lon="17.499527"></trkpt><trkpt lat="52.849385" lon="17.497095"></trkpt><trkpt lat="52.84963" lon="17.496933"></trkpt><trkpt lat="52.849765" lon="17.496666"></trkpt><trkpt lat="52.85026" lon="17.495435"></trkpt><trkpt lat="52.850409" lon="17.495195"></trkpt><trkpt lat="52.850651" lon="17.495054"></trkpt><trkpt lat="52.851561" lon="17.494825"></trkpt><trkpt lat="52.865373" lon="17.48895"></trkpt><trkpt lat="52.865404" lon="17.487499"></trkpt><trkpt lat="52.865469" lon="17.487187"></trkpt><trkpt lat="52.865592" lon="17.486927"></trkpt><trkpt lat="52.865749" lon="17.486716"></trkpt><trkpt lat="52.866162" lon="17.48603"></trkpt><trkpt lat="52.866287" lon="17.485619"></trkpt><trkpt lat="52.866566" lon="17.483708"></trkpt><trkpt lat="52.868888" lon="17.471631"></trkpt><trkpt lat="52.869191" lon="17.470776"></trkpt><trkpt lat="52.869375" lon="17.470357"></trkpt><trkpt lat="52.871925" lon="17.462437"></trkpt><trkpt lat="52.871799" lon="17.460976"></trkpt><trkpt lat="52.871412" lon="17.451237"></trkpt><trkpt lat="52.871437" lon="17.450613"></trkpt><trkpt lat="52.871922" lon="17.445216"></trkpt><trkpt lat="52.872171" lon="17.444134"></trkpt><trkpt lat="52.872221" lon="17.443783"></trkpt><trkpt lat="52.872171" lon="17.443435"></trkpt><trkpt lat="52.871954" lon="17.442587"></trkpt><trkpt lat="52.871811" lon="17.441657"></trkpt><trkpt lat="52.871587" lon="17.43895"></trkpt><trkpt lat="52.870735" lon="17.433252"></trkpt><trkpt lat="52.870189" lon="17.431701"></trkpt><trkpt lat="52.869197" lon="17.428359"></trkpt><trkpt lat="52.867583" lon="17.423768"></trkpt><trkpt lat="52.867041" lon="17.422693"></trkpt><trkpt lat="52.865495" lon="17.418626"></trkpt><trkpt lat="52.865193" lon="17.41705"></trkpt><trkpt lat="52.861148" lon="17.388009"></trkpt><trkpt lat="52.861384" lon="17.386769"></trkpt><trkpt lat="52.861455" lon="17.385734"></trkpt><trkpt lat="52.861585" lon="17.376655"></trkpt><trkpt lat="52.86146" lon="17.375552"></trkpt><trkpt lat="52.856655" lon="17.345135"></trkpt><trkpt lat="52.851331" lon="17.319864"></trkpt><trkpt lat="52.850595" lon="17.318864"></trkpt><trkpt lat="52.838326" lon="17.304932"></trkpt><trkpt lat="52.838017" lon="17.30514"></trkpt><trkpt lat="52.837801" lon="17.305128"></trkpt><trkpt lat="52.837089" lon="17.304245"></trkpt><trkpt lat="52.83021" lon="17.29395"></trkpt><trkpt lat="52.830295" lon="17.293013"></trkpt><trkpt lat="52.831284" lon="17.270974"></trkpt><trkpt lat="52.831037" lon="17.269182"></trkpt><trkpt lat="52.828583" lon="17.243"></trkpt><trkpt lat="52.828586" lon="17.241749"></trkpt><trkpt lat="52.828498" lon="17.239597"></trkpt><trkpt lat="52.828135" lon="17.238973"></trkpt><trkpt lat="52.817457" lon="17.223483"></trkpt><trkpt lat="52.817164" lon="17.22364"></trkpt><trkpt lat="52.816716" lon="17.223727"></trkpt><trkpt lat="52.815507" lon="17.223809"></trkpt><trkpt lat="52.815461" lon="17.22321"></trkpt><trkpt lat="52.815207" lon="17.221146"></trkpt><trkpt lat="52.814549" lon="17.221472"></trkpt><trkpt lat="52.812193" lon="17.222314"></trkpt><trkpt lat="52.812019" lon="17.222146"></trkpt><trkpt lat="52.811556" lon="17.221335"></trkpt><trkpt lat="52.810669" lon="17.219533"></trkpt><trkpt lat="52.810502" lon="17.219096"></trkpt><trkpt lat="52.810382" lon="17.218691"></trkpt><trkpt lat="52.810014" lon="17.217675"></trkpt><trkpt lat="52.809194" lon="17.214846"></trkpt><trkpt lat="52.809301" lon="17.21453"></trkpt><trkpt lat="52.809428" lon="17.214012"></trkpt><trkpt lat="52.81011" lon="17.212348"></trkpt><trkpt lat="52.810274" lon="17.211801"></trkpt><trkpt lat="52.809924" lon="17.211351"></trkpt><trkpt lat="52.809914" lon="17.210894"></trkpt><trkpt lat="52.80997" lon="17.210471"></trkpt><trkpt lat="52.810102" lon="17.208963"></trkpt><trkpt lat="52.810158" lon="17.207572"></trkpt><trkpt lat="52.81012" lon="17.206306"></trkpt><trkpt lat="52.810067" lon="17.205819"></trkpt><trkpt lat="52.808948" lon="17.198754"></trkpt><trkpt lat="52.808475" lon="17.198575"></trkpt><trkpt lat="52.808476" lon="17.199369"></trkpt><trkpt lat="52.808554" lon="17.199851"></trkpt><trkpt lat="52.808613" lon="17.200403"></trkpt><trkpt lat="52.808626" lon="17.200914"></trkpt><trkpt lat="52.808951" lon="17.201091"></trkpt><trkpt lat="52.809098" lon="17.201697"></trkpt><trkpt lat="52.809137" lon="17.202182"></trkpt><trkpt lat="52.80937" lon="17.201954"></trkpt><trkpt lat="52.809444" lon="17.202341"></trkpt><trkpt lat="52.809577" lon="17.202756"></trkpt></trkseg></trk></gpx>