<?xml version="1.0" encoding="UTF-8" standalone="no" ?><gpx xmlns="http://www.topografix.com/GPX/1/1" xmlns:gpxx="http://www.garmin.com/xmlschemas/GpxExtensions/v3" ><trk><trkseg><trkpt lat="52.5695985183" lon="17.8168188035"></trkpt><trkpt lat="52.5697077345" lon="17.8175007552"></trkpt><trkpt lat="52.5695001986" lon="17.8179682139"></trkpt><trkpt lat="52.5695800781" lon="17.8191450331"></trkpt><trkpt lat="52.5697555114" lon="17.8200158291"></trkpt><trkpt lat="52.5699135941" lon="17.8211767226"></trkpt><trkpt lat="52.5695000309" lon="17.8215042036"></trkpt><trkpt lat="52.5666611642" lon="17.8244874068"></trkpt><trkpt lat="52.5661813002" lon="17.8251567855"></trkpt><trkpt lat="52.5658819824" lon="17.8254985157"></trkpt><trkpt lat="52.5651876256" lon="17.8253449593"></trkpt><trkpt lat="52.5629534293" lon="17.8244170826"></trkpt><trkpt lat="52.5622718967" lon="17.8237820696"></trkpt><trkpt lat="52.5619553123" lon="17.823275635"></trkpt><trkpt lat="52.5617554877" lon="17.8228021413"></trkpt><trkpt lat="52.5615610275" lon="17.8224821202"></trkpt><trkpt lat="52.5612355582" lon="17.8220521286"></trkpt><trkpt lat="52.5603585597" lon="17.821107069"></trkpt><trkpt lat="52.56005086" lon="17.820695769"></trkpt><trkpt lat="52.5597834773" lon="17.8199113905"></trkpt><trkpt lat="52.5595134124" lon="17.8194379807"></trkpt><trkpt lat="52.5592194591" lon="17.8192546684"></trkpt><trkpt lat="52.5589178782" lon="17.8192102443"></trkpt><trkpt lat="52.5580116268" lon="17.8188535105"></trkpt><trkpt lat="52.5576004107" lon="17.818523012099998"></trkpt><trkpt lat="52.5569881964" lon="17.8181412164"></trkpt><trkpt lat="52.5547783077" lon="17.817241922"></trkpt><trkpt lat="52.5544468034" lon="17.8171707597"></trkpt><trkpt lat="52.5502458774" lon="17.8169676661"></trkpt><trkpt lat="52.5500529259" lon="17.8172852565"></trkpt><trkpt lat="52.5497600622" lon="17.8176362906"></trkpt><trkpt lat="52.5492458325" lon="17.8183974512"></trkpt><trkpt lat="52.548995465" lon="17.8191193007"></trkpt><trkpt lat="52.5489214528" lon="17.8198433295"></trkpt><trkpt lat="52.5489491969" lon="17.8205790091"></trkpt><trkpt lat="52.5490327645" lon="17.8213996813"></trkpt><trkpt lat="52.5494092796" lon="17.834547786"></trkpt><trkpt lat="52.5491993967" lon="17.8357645869"></trkpt><trkpt lat="52.5472459942" lon="17.852981938"></trkpt><trkpt lat="52.5473004766" lon="17.8536413424"></trkpt><trkpt lat="52.547300728" lon="17.8558695875"></trkpt><trkpt lat="52.5470639393" lon="17.8602684941"></trkpt><trkpt lat="52.5464886054" lon="17.8603457753"></trkpt><trkpt lat="52.5452293921" lon="17.8607963026"></trkpt><trkpt lat="52.5447312556" lon="17.8612268809"></trkpt><trkpt lat="52.5426312536" lon="17.8626658861"></trkpt><trkpt lat="52.5420637149" lon="17.8627672233"></trkpt><trkpt lat="52.537970664" lon="17.8628065344"></trkpt><trkpt lat="52.5329494011" lon="17.8618621454"></trkpt><trkpt lat="52.5322135538" lon="17.8613288049"></trkpt><trkpt lat="52.5314516388" lon="17.8609143198"></trkpt><trkpt lat="52.5312087312" lon="17.8611905873"></trkpt><trkpt lat="52.5309984293" lon="17.8618509136"></trkpt><trkpt lat="52.5293601863" lon="17.8655350115"></trkpt><trkpt lat="52.5289710145" lon="17.8659447189"></trkpt><trkpt lat="52.5277867354" lon="17.8677905817"></trkpt><trkpt lat="52.5279993005" lon="17.8685472161"></trkpt><trkpt lat="52.5306384265" lon="17.8761167452"></trkpt><trkpt lat="52.5386379473" lon="17.8949931264"></trkpt><trkpt lat="52.5391755626" lon="17.8955294844"></trkpt><trkpt lat="52.5399031118" lon="17.8960173111"></trkpt><trkpt lat="52.5438472163" lon="17.8978036623"></trkpt><trkpt lat="52.5442297664" lon="17.8977816179"></trkpt><trkpt lat="52.5445070397" lon="17.8978733998"></trkpt><trkpt lat="52.5442481227" lon="17.8984256834"></trkpt><trkpt lat="52.5391190685" lon="17.9120558314"></trkpt><trkpt lat="52.539212862" lon="17.9128578119"></trkpt><trkpt lat="52.5397804007" lon="17.9220824316"></trkpt><trkpt lat="52.5417034607" lon="17.9355630465"></trkpt><trkpt lat="52.5419737771" lon="17.9357974883"></trkpt><trkpt lat="52.5420866814" lon="17.9364915099"></trkpt><trkpt lat="52.5421786308" lon="17.9374640621"></trkpt><trkpt lat="52.5431904942" lon="17.9442005977"></trkpt><trkpt lat="52.5434569549" lon="17.9450459965"></trkpt><trkpt lat="52.5436494034" lon="17.9462366458"></trkpt><trkpt lat="52.5437166262" lon="17.9470209405"></trkpt><trkpt lat="52.544584237" lon="17.9524198081"></trkpt><trkpt lat="52.5447726622" lon="17.9532662965"></trkpt><trkpt lat="52.5448980555" lon="17.9541696142"></trkpt><trkpt lat="52.5449431501" lon="17.9549864307"></trkpt><trkpt lat="52.5449345168" lon="17.9571443517"></trkpt><trkpt lat="52.5448096264" lon="17.958288649099998"></trkpt><trkpt lat="52.5447143242" lon="17.9613417573"></trkpt><trkpt lat="52.544965446" lon="17.9622791894"></trkpt><trkpt lat="52.5456097629" lon="17.9641660396"></trkpt><trkpt lat="52.5452585611" lon="17.9641931131"></trkpt><trkpt lat="52.5444575027" lon="17.9640093818"></trkpt><trkpt lat="52.544131279" lon="17.9636736028"></trkpt><trkpt lat="52.5419371482" lon="17.9621188436"></trkpt><trkpt lat="52.5413757283" lon="17.9619925283"></trkpt><trkpt lat="52.5409517717" lon="17.9617762752"></trkpt><trkpt lat="52.540524127" lon="17.9614227265"></trkpt><trkpt lat="52.5369767379" lon="17.9593217187"></trkpt><trkpt lat="52.5367451459" lon="17.9595692363"></trkpt><trkpt lat="52.536498215" lon="17.9600447416"></trkpt><trkpt lat="52.5348732155" lon="17.9638018459"></trkpt><trkpt lat="52.534523271" lon="17.9639630299"></trkpt><trkpt lat="52.5343280565" lon="17.9643019103"></trkpt><trkpt lat="52.5336799677" lon="17.9657404125"></trkpt><trkpt lat="52.5335850008" lon="17.9665769264"></trkpt><trkpt lat="52.5332910474" lon="17.9677782208"></trkpt><trkpt lat="52.5329760555" lon="17.9679119121"></trkpt><trkpt lat="52.5325718801" lon="17.9681526404"></trkpt><trkpt lat="52.5323276315" lon="17.9684145749"></trkpt><trkpt lat="52.5317948777" lon="17.9688025732"></trkpt><trkpt lat="52.5311969128" lon="17.9693943355"></trkpt><trkpt lat="52.5306235906" lon="17.969834134"></trkpt><trkpt lat="52.5303293858" lon="17.9699114151"></trkpt><trkpt lat="52.5282688625" lon="17.9707937781"></trkpt><trkpt lat="52.5278857257" lon="17.97123475"></trkpt><trkpt lat="52.5275092106" lon="17.9717964213"></trkpt><trkpt lat="52.5271409936" lon="17.9725476913"></trkpt><trkpt lat="52.5269545801" lon="17.9730754159"></trkpt><trkpt lat="52.5267848466" lon="17.9734575469"></trkpt><trkpt lat="52.5265102554" lon="17.9734037351"></trkpt><trkpt lat="52.5261799246" lon="17.9731536191"></trkpt><trkpt lat="52.5260517653" lon="17.9727392178"></trkpt><trkpt lat="52.5258917548" lon="17.9719507322"></trkpt><trkpt lat="52.5257817004" lon="17.9711666889"></trkpt><trkpt lat="52.5256069377" lon="17.970698392"></trkpt><trkpt lat="52.5252592564" lon="17.9705957975"></trkpt><trkpt lat="52.5250918698" lon="17.9709451552"></trkpt><trkpt lat="52.5250359625" lon="17.9715150408"></trkpt><trkpt lat="52.5247673225" lon="17.9723079689"></trkpt><trkpt lat="52.5241507497" lon="17.9748716578"></trkpt><trkpt lat="52.5241282862" lon="17.9753766675"></trkpt><trkpt lat="52.5243535079" lon="17.9757340718"></trkpt><trkpt lat="52.5246154424" lon="17.9758917354"></trkpt><trkpt lat="52.5265638158" lon="17.9774086084"></trkpt><trkpt lat="52.5267774705" lon="17.9777301382"></trkpt><trkpt lat="52.5269945618" lon="17.9784813244"></trkpt><trkpt lat="52.5274014194" lon="17.9803431127"></trkpt><trkpt lat="52.5278057624" lon="17.9816748295"></trkpt><trkpt lat="52.5280486699" lon="17.9820830282"></trkpt><trkpt lat="52.528975876" lon="17.9840531945"></trkpt><trkpt lat="52.5306806713" lon="17.9867483117"></trkpt><trkpt lat="52.5311024487" lon="17.9867840186"></trkpt><trkpt lat="52.5317956321" lon="17.9863364249"></trkpt><trkpt lat="52.5320931058" lon="17.9860385321"></trkpt><trkpt lat="52.5324992929" lon="17.9857115541"></trkpt><trkpt lat="52.5329264347" lon="17.9857034236"></trkpt><trkpt lat="52.5333677419" lon="17.9859415535"></trkpt><trkpt lat="52.5340884179" lon="17.9862087686"></trkpt><trkpt lat="52.5345174875" lon="17.986232657"></trkpt><trkpt lat="52.5356143434" lon="17.9858105443"></trkpt><trkpt lat="52.5358677283" lon="17.9850984178"></trkpt><trkpt lat="52.5359723344" lon="17.9846773949"></trkpt><trkpt lat="52.5370789971" lon="17.9812544771"></trkpt><trkpt lat="52.5376171991" lon="17.9802468885"></trkpt><trkpt lat="52.5379213784" lon="17.980183186"></trkpt><trkpt lat="52.5382699817" lon="17.9803256784"></trkpt><trkpt lat="52.5388932601" lon="17.9803850222"></trkpt><trkpt lat="52.5391828548" lon="17.9807686619"></trkpt><trkpt lat="52.5407164916" lon="17.9823464714"></trkpt><trkpt lat="52.5412323978" lon="17.9826318752"></trkpt><trkpt lat="52.5455405284" lon="17.985785231"></trkpt><trkpt lat="52.5456354115" lon="17.9866960086"></trkpt><trkpt lat="52.5457171351" lon="17.9871341307"></trkpt><trkpt lat="52.5460678339" lon="17.9876807146"></trkpt><trkpt lat="52.5465816446" lon="17.9879780207"></trkpt><trkpt lat="52.5487327762" lon="17.9896656331"></trkpt><trkpt lat="52.5487031881" lon="17.990129739"></trkpt><trkpt lat="52.5487954728" lon="17.9929448012"></trkpt><trkpt lat="52.5492889155" lon="17.9929650016"></trkpt><trkpt lat="52.5704156701" lon="17.9929809272"></trkpt><trkpt lat="52.5709572248" lon="17.9926961102"></trkpt><trkpt lat="52.5764618721" lon="17.9909283668"></trkpt><trkpt lat="52.5791078713" lon="17.9923408851"></trkpt><trkpt lat="52.5791932829" lon="17.9932256788"></trkpt><trkpt lat="52.5799060799" lon="17.9978065565"></trkpt><trkpt lat="52.5805019494" lon="17.9995812569"></trkpt><trkpt lat="52.5810528081" lon="18.0007955432"></trkpt><trkpt lat="52.5922875758" lon="18.0210315529"></trkpt><trkpt lat="52.5929194875" lon="18.0217343755"></trkpt><trkpt lat="52.5980097335" lon="18.0261201225"></trkpt><trkpt lat="52.5984401442" lon="18.0261690728"></trkpt><trkpt lat="52.6008222811" lon="18.0276660807"></trkpt><trkpt lat="52.6007658709" lon="18.0286211148"></trkpt><trkpt lat="52.6007520407" lon="18.0320706032"></trkpt><trkpt lat="52.6004469395" lon="18.033064194"></trkpt><trkpt lat="52.6001453586" lon="18.0338053219"></trkpt><trkpt lat="52.599812597" lon="18.0348282494"></trkpt><trkpt lat="52.5996165443" lon="18.035621345"></trkpt><trkpt lat="52.59947774" lon="18.0364960805"></trkpt><trkpt lat="52.5980443507" lon="18.0430515669"></trkpt><trkpt lat="52.5965539645" lon="18.0526075233"></trkpt><trkpt lat="52.5945013203" lon="18.0749702733"></trkpt><trkpt lat="52.5947936811" lon="18.0761701427"></trkpt><trkpt lat="52.5984025933" lon="18.0877686013"></trkpt><trkpt lat="52.5990991294" lon="18.0895719677"></trkpt><trkpt lat="52.6011641789" lon="18.0961751472"></trkpt><trkpt lat="52.6013158076" lon="18.096871851"></trkpt><trkpt lat="52.6081285346" lon="18.1211070344"></trkpt><trkpt lat="52.6092079561" lon="18.1260651816"></trkpt><trkpt lat="52.6093319245" lon="18.12692835"></trkpt><trkpt lat="52.6090147533" lon="18.1270799786"></trkpt><trkpt lat="52.6081429515" lon="18.1264577899"></trkpt><trkpt lat="52.6078991219" lon="18.1262327358"></trkpt><trkpt lat="52.6083956659" lon="18.1267343089"></trkpt><trkpt lat="52.608770337" lon="18.1269793119"></trkpt><trkpt lat="52.6124654151" lon="18.1308076624"></trkpt><trkpt lat="52.612697091" lon="18.131784657"></trkpt><trkpt lat="52.6129556727" lon="18.1324762478"></trkpt><trkpt lat="52.6200527977" lon="18.1559410505"></trkpt><trkpt lat="52.6200408116" lon="18.1568651553"></trkpt><trkpt lat="52.6204379462" lon="18.1594175287"></trkpt><trkpt lat="52.6206752378" lon="18.1596701592"></trkpt><trkpt lat="52.6210137829" lon="18.1602083612"></trkpt><trkpt lat="52.6283180248" lon="18.1698791496"></trkpt><trkpt lat="52.6290467475" lon="18.170124907"></trkpt><trkpt lat="52.6342550945" lon="18.1710765045"></trkpt><trkpt lat="52.6351609267" lon="18.1710936874"></trkpt><trkpt lat="52.6354253758" lon="18.1708897557"></trkpt><trkpt lat="52.63683144" lon="18.1700897031"></trkpt><trkpt lat="52.6364608761" lon="18.170851199"></trkpt><trkpt lat="52.6362371631" lon="18.1714821048"></trkpt><trkpt lat="52.6367783826" lon="18.1718514115"></trkpt><trkpt lat="52.6370507106" lon="18.1719610468"></trkpt><trkpt lat="52.6377252862" lon="18.1718343962"></trkpt><trkpt lat="52.6498767827" lon="18.1721565966"></trkpt><trkpt lat="52.6507174876" lon="18.1716143712"></trkpt><trkpt lat="52.6700249501" lon="18.1625242811"></trkpt><trkpt lat="52.6703514252" lon="18.1632830109"></trkpt><trkpt lat="52.6712010987" lon="18.164868867"></trkpt><trkpt lat="52.6716065314" lon="18.164914716"></trkpt><trkpt lat="52.6798075531" lon="18.1627033185"></trkpt><trkpt lat="52.6804491878" lon="18.1623755861"></trkpt><trkpt lat="52.6819648035" lon="18.1610519998"></trkpt><trkpt lat="52.6823772769" lon="18.1604705472"></trkpt><trkpt lat="52.6909465995" lon="18.1509239785"></trkpt><trkpt lat="52.7018564846" lon="18.160664672"></trkpt><trkpt lat="52.7025257796" lon="18.1610323861"></trkpt><trkpt lat="52.7069753129" lon="18.1622063555"></trkpt><trkpt lat="52.7074939851" lon="18.1616944727"></trkpt><trkpt lat="52.7201522514" lon="18.1516273879"></trkpt><trkpt lat="52.7207420859" lon="18.151588412"></trkpt><trkpt lat="52.7239517681" lon="18.1508645508"></trkpt><trkpt lat="52.7243568655" lon="18.1500397716"></trkpt><trkpt lat="52.7249869332" lon="18.1490690634"></trkpt><trkpt lat="52.7345179953" lon="18.1367764156"></trkpt><trkpt lat="52.7353218198" lon="18.1359339505"></trkpt><trkpt lat="52.7455247752" lon="18.1229419168"></trkpt><trkpt lat="52.7488204557" lon="18.1161941495"></trkpt></trkseg></trk></gpx>