<?xml version="1.0" encoding="UTF-8" standalone="no" ?><gpx xmlns="http://www.topografix.com/GPX/1/1" xmlns:gpxx="http://www.garmin.com/xmlschemas/GpxExtensions/v3" ><trk><trkseg><trkpt lat="49.626466" lon="20.957901"></trkpt><trkpt lat="49.626746" lon="20.957534"></trkpt><trkpt lat="49.626658" lon="20.957232"></trkpt><trkpt lat="49.626507" lon="20.95701"></trkpt><trkpt lat="49.626022" lon="20.956153"></trkpt><trkpt lat="49.625972" lon="20.955801"></trkpt><trkpt lat="49.626157" lon="20.95501"></trkpt><trkpt lat="49.626273" lon="20.954642"></trkpt><trkpt lat="49.626261" lon="20.954274"></trkpt><trkpt lat="49.625827" lon="20.953647"></trkpt><trkpt lat="49.625005" lon="20.952242"></trkpt><trkpt lat="49.624871" lon="20.951934"></trkpt><trkpt lat="49.624691" lon="20.952116"></trkpt><trkpt lat="49.624525" lon="20.952321"></trkpt><trkpt lat="49.624327" lon="20.952371"></trkpt><trkpt lat="49.624016" lon="20.952682"></trkpt><trkpt lat="49.623884" lon="20.952977"></trkpt><trkpt lat="49.623713" lon="20.9532"></trkpt><trkpt lat="49.623543" lon="20.953511"></trkpt><trkpt lat="49.623689" lon="20.953953"></trkpt><trkpt lat="49.623881" lon="20.954208"></trkpt><trkpt lat="49.624026" lon="20.954509"></trkpt><trkpt lat="49.624301" lon="20.955263"></trkpt><trkpt lat="49.624247" lon="20.955625"></trkpt><trkpt lat="49.624063" lon="20.956067"></trkpt><trkpt lat="49.62326" lon="20.957728"></trkpt><trkpt lat="49.623009" lon="20.958173"></trkpt><trkpt lat="49.622849" lon="20.95868"></trkpt><trkpt lat="49.622559" lon="20.959375"></trkpt><trkpt lat="49.622421" lon="20.959775"></trkpt><trkpt lat="49.622328" lon="20.960125"></trkpt><trkpt lat="49.622222" lon="20.960455"></trkpt><trkpt lat="49.622137" lon="20.960785"></trkpt><trkpt lat="49.621904" lon="20.961952"></trkpt><trkpt lat="49.62179" lon="20.96222"></trkpt><trkpt lat="49.621693" lon="20.962518"></trkpt><trkpt lat="49.621596" lon="20.963076"></trkpt><trkpt lat="49.621579" lon="20.963399"></trkpt><trkpt lat="49.621503" lon="20.963886"></trkpt><trkpt lat="49.62147" lon="20.964245"></trkpt><trkpt lat="49.621252" lon="20.96534"></trkpt><trkpt lat="49.62112" lon="20.965643"></trkpt><trkpt lat="49.620789" lon="20.966287"></trkpt><trkpt lat="49.620512" lon="20.96662"></trkpt><trkpt lat="49.620253" lon="20.966801"></trkpt><trkpt lat="49.619978" lon="20.966894"></trkpt><trkpt lat="49.619784" lon="20.96702"></trkpt><trkpt lat="49.619607" lon="20.96718"></trkpt><trkpt lat="49.619299" lon="20.967311"></trkpt><trkpt lat="49.618938" lon="20.967406"></trkpt><trkpt lat="49.618751" lon="20.967553"></trkpt><trkpt lat="49.618503" lon="20.967954"></trkpt><trkpt lat="49.618274" lon="20.968257"></trkpt><trkpt lat="49.6177" lon="20.968889"></trkpt><trkpt lat="49.617522" lon="20.969054"></trkpt><trkpt lat="49.616589" lon="20.969767"></trkpt><trkpt lat="49.616394" lon="20.969666"></trkpt><trkpt lat="49.615985" lon="20.969956"></trkpt><trkpt lat="49.615833" lon="20.970158"></trkpt><trkpt lat="49.615677" lon="20.970432"></trkpt><trkpt lat="49.614957" lon="20.972009"></trkpt><trkpt lat="49.614862" lon="20.972468"></trkpt><trkpt lat="49.614756" lon="20.972771"></trkpt><trkpt lat="49.614677" lon="20.973097"></trkpt><trkpt lat="49.614606" lon="20.973603"></trkpt><trkpt lat="49.614479" lon="20.974063"></trkpt><trkpt lat="49.614345" lon="20.974415"></trkpt><trkpt lat="49.613876" lon="20.975449"></trkpt><trkpt lat="49.61369" lon="20.975761"></trkpt><trkpt lat="49.613528" lon="20.976158"></trkpt><trkpt lat="49.612993" lon="20.977254"></trkpt><trkpt lat="49.61278" lon="20.97778"></trkpt><trkpt lat="49.612246" lon="20.9789"></trkpt><trkpt lat="49.611976" lon="20.979388"></trkpt><trkpt lat="49.61149" lon="20.980412"></trkpt><trkpt lat="49.611378" lon="20.981255"></trkpt><trkpt lat="49.610505" lon="20.985345"></trkpt><trkpt lat="49.610162" lon="20.986192"></trkpt><trkpt lat="49.609597" lon="20.987356"></trkpt><trkpt lat="49.609402" lon="20.987575"></trkpt><trkpt lat="49.609066" lon="20.988321"></trkpt><trkpt lat="49.608912" lon="20.988985"></trkpt><trkpt lat="49.608797" lon="20.989366"></trkpt><trkpt lat="49.608658" lon="20.989696"></trkpt><trkpt lat="49.607842" lon="20.991353"></trkpt><trkpt lat="49.607693" lon="20.991573"></trkpt><trkpt lat="49.607428" lon="20.991874"></trkpt><trkpt lat="49.60692" lon="20.992548"></trkpt><trkpt lat="49.606748" lon="20.992815"></trkpt><trkpt lat="49.606618" lon="20.993057"></trkpt><trkpt lat="49.60622" lon="20.993698"></trkpt><trkpt lat="49.606026" lon="20.993887"></trkpt><trkpt lat="49.605842" lon="20.994106"></trkpt><trkpt lat="49.605609" lon="20.994319"></trkpt><trkpt lat="49.605407" lon="20.994354"></trkpt><trkpt lat="49.605162" lon="20.99435"></trkpt><trkpt lat="49.6046" lon="20.99442"></trkpt><trkpt lat="49.604271" lon="20.994504"></trkpt><trkpt lat="49.603865" lon="20.994722"></trkpt><trkpt lat="49.603125" lon="20.995222"></trkpt><trkpt lat="49.602812" lon="20.995555"></trkpt><trkpt lat="49.601874" lon="20.996814"></trkpt><trkpt lat="49.601736" lon="20.997063"></trkpt><trkpt lat="49.601562" lon="20.997432"></trkpt><trkpt lat="49.601497" lon="20.997793"></trkpt><trkpt lat="49.601475" lon="20.998421"></trkpt><trkpt lat="49.60156" lon="20.998743"></trkpt><trkpt lat="49.60146" lon="20.998387"></trkpt><trkpt lat="49.601437" lon="20.998002"></trkpt><trkpt lat="49.601551" lon="20.997457"></trkpt><trkpt lat="49.601659" lon="20.997195"></trkpt><trkpt lat="49.602198" lon="20.996232"></trkpt><trkpt lat="49.602611" lon="20.995722"></trkpt><trkpt lat="49.602988" lon="20.995336"></trkpt><trkpt lat="49.603235" lon="20.99512"></trkpt><trkpt lat="49.603667" lon="20.99484"></trkpt><trkpt lat="49.604875" lon="20.99435"></trkpt><trkpt lat="49.605523" lon="20.994339"></trkpt><trkpt lat="49.60573" lon="20.994413"></trkpt><trkpt lat="49.605977" lon="20.994542"></trkpt><trkpt lat="49.607133" lon="20.995291"></trkpt><trkpt lat="49.607323" lon="20.995505"></trkpt><trkpt lat="49.607568" lon="20.995638"></trkpt><trkpt lat="49.607763" lon="20.995889"></trkpt><trkpt lat="49.607949" lon="20.996188"></trkpt><trkpt lat="49.608152" lon="20.996433"></trkpt><trkpt lat="49.608312" lon="20.996736"></trkpt><trkpt lat="49.608492" lon="20.997032"></trkpt><trkpt lat="49.608871" lon="20.997248"></trkpt><trkpt lat="49.609106" lon="20.997429"></trkpt><trkpt lat="49.609115" lon="20.997752"></trkpt><trkpt lat="49.609025" lon="20.998119"></trkpt><trkpt lat="49.609103" lon="20.998436"></trkpt><trkpt lat="49.609269" lon="20.998663"></trkpt><trkpt lat="49.610303" lon="20.999794"></trkpt><trkpt lat="49.610614" lon="20.999996"></trkpt><trkpt lat="49.611197" lon="21.00057"></trkpt><trkpt lat="49.611529" lon="21.000962"></trkpt><trkpt lat="49.61164" lon="21.001289"></trkpt><trkpt lat="49.611882" lon="21.001742"></trkpt><trkpt lat="49.612072" lon="21.002186"></trkpt><trkpt lat="49.612155" lon="21.0025"></trkpt><trkpt lat="49.612358" lon="21.002812"></trkpt><trkpt lat="49.612804" lon="21.00316"></trkpt><trkpt lat="49.613259" lon="21.00345"></trkpt><trkpt lat="49.613683" lon="21.00356"></trkpt><trkpt lat="49.613853" lon="21.003822"></trkpt><trkpt lat="49.613713" lon="21.004236"></trkpt><trkpt lat="49.613554" lon="21.005061"></trkpt><trkpt lat="49.613488" lon="21.005687"></trkpt><trkpt lat="49.613081" lon="21.007954"></trkpt><trkpt lat="49.612872" lon="21.008678"></trkpt><trkpt lat="49.612823" lon="21.008979"></trkpt><trkpt lat="49.612781" lon="21.009668"></trkpt><trkpt lat="49.612826" lon="21.010406"></trkpt><trkpt lat="49.612902" lon="21.010769"></trkpt><trkpt lat="49.613112" lon="21.01148"></trkpt><trkpt lat="49.613284" lon="21.012213"></trkpt><trkpt lat="49.613358" lon="21.013162"></trkpt><trkpt lat="49.613313" lon="21.013754"></trkpt><trkpt lat="49.613195" lon="21.014362"></trkpt><trkpt lat="49.613034" lon="21.014961"></trkpt><trkpt lat="49.609003" lon="21.026886"></trkpt><trkpt lat="49.608382" lon="21.027519"></trkpt><trkpt lat="49.607697" lon="21.028399"></trkpt><trkpt lat="49.607227" lon="21.029468"></trkpt><trkpt lat="49.606171" lon="21.032326"></trkpt><trkpt lat="49.605883" lon="21.033595"></trkpt><trkpt lat="49.605439" lon="21.036127"></trkpt><trkpt lat="49.605349" lon="21.036526"></trkpt><trkpt lat="49.60515" lon="21.037004"></trkpt><trkpt lat="49.60506" lon="21.037317"></trkpt><trkpt lat="49.604847" lon="21.037803"></trkpt><trkpt lat="49.604631" lon="21.039079"></trkpt><trkpt lat="49.60406" lon="21.041288"></trkpt><trkpt lat="49.603866" lon="21.041645"></trkpt><trkpt lat="49.603631" lon="21.041936"></trkpt><trkpt lat="49.602553" lon="21.04256"></trkpt><trkpt lat="49.602032" lon="21.042794"></trkpt><trkpt lat="49.601808" lon="21.042837"></trkpt><trkpt lat="49.601384" lon="21.04315"></trkpt><trkpt lat="49.600451" lon="21.043603"></trkpt><trkpt lat="49.599209" lon="21.043982"></trkpt><trkpt lat="49.598744" lon="21.043681"></trkpt><trkpt lat="49.598104" lon="21.043375"></trkpt><trkpt lat="49.597681" lon="21.043447"></trkpt><trkpt lat="49.596608" lon="21.043068"></trkpt><trkpt lat="49.596115" lon="21.043037"></trkpt><trkpt lat="49.594992" lon="21.043232"></trkpt><trkpt lat="49.59151" lon="21.044379"></trkpt><trkpt lat="49.590921" lon="21.044716"></trkpt><trkpt lat="49.590407" lon="21.044814"></trkpt><trkpt lat="49.5899" lon="21.044816"></trkpt><trkpt lat="49.586787" lon="21.045249"></trkpt><trkpt lat="49.586312" lon="21.045486"></trkpt><trkpt lat="49.585942" lon="21.04595"></trkpt><trkpt lat="49.585638" lon="21.046723"></trkpt><trkpt lat="49.585395" lon="21.047472"></trkpt><trkpt lat="49.585234" lon="21.047856"></trkpt><trkpt lat="49.585125" lon="21.048279"></trkpt><trkpt lat="49.58382" lon="21.051866"></trkpt><trkpt lat="49.583455" lon="21.052087"></trkpt><trkpt lat="49.583037" lon="21.052394"></trkpt><trkpt lat="49.581516" lon="21.053723"></trkpt><trkpt lat="49.581231" lon="21.054023"></trkpt><trkpt lat="49.580506" lon="21.054971"></trkpt><trkpt lat="49.579961" lon="21.05534"></trkpt><trkpt lat="49.579449" lon="21.055849"></trkpt><trkpt lat="49.578981" lon="21.0566"></trkpt><trkpt lat="49.578787" lon="21.057323"></trkpt><trkpt lat="49.577399" lon="21.063883"></trkpt><trkpt lat="49.577388" lon="21.065006"></trkpt><trkpt lat="49.577198" lon="21.066873"></trkpt><trkpt lat="49.576933" lon="21.0676"></trkpt><trkpt lat="49.576666" lon="21.067985"></trkpt><trkpt lat="49.576629" lon="21.06844"></trkpt><trkpt lat="49.576551" lon="21.068935"></trkpt><trkpt lat="49.576315" lon="21.069622"></trkpt><trkpt lat="49.575204" lon="21.073703"></trkpt><trkpt lat="49.575086" lon="21.074441"></trkpt><trkpt lat="49.574897" lon="21.076153"></trkpt><trkpt lat="49.574686" lon="21.077356"></trkpt><trkpt lat="49.574527" lon="21.077858"></trkpt><trkpt lat="49.572216" lon="21.086741"></trkpt><trkpt lat="49.572142" lon="21.087224"></trkpt><trkpt lat="49.571744" lon="21.089088"></trkpt><trkpt lat="49.571468" lon="21.089899"></trkpt><trkpt lat="49.57131" lon="21.090166"></trkpt><trkpt lat="49.570972" lon="21.090368"></trkpt><trkpt lat="49.570713" lon="21.090489"></trkpt><trkpt lat="49.566431" lon="21.09303"></trkpt><trkpt lat="49.566091" lon="21.093295"></trkpt><trkpt lat="49.564529" lon="21.094294"></trkpt><trkpt lat="49.565145" lon="21.093973"></trkpt><trkpt lat="49.56509" lon="21.093408"></trkpt><trkpt lat="49.565283" lon="21.09315"></trkpt><trkpt lat="49.565488" lon="21.093486"></trkpt><trkpt lat="49.565328" lon="21.093837"></trkpt><trkpt lat="49.565149" lon="21.093984"></trkpt><trkpt lat="49.564942" lon="21.094126"></trkpt><trkpt lat="49.564691" lon="21.094239"></trkpt><trkpt lat="49.564118" lon="21.094359"></trkpt><trkpt lat="49.56386" lon="21.094171"></trkpt><trkpt lat="49.56365" lon="21.093833"></trkpt><trkpt lat="49.563495" lon="21.093543"></trkpt><trkpt lat="49.56326" lon="21.093212"></trkpt><trkpt lat="49.563093" lon="21.09359"></trkpt><trkpt lat="49.562956" lon="21.09398"></trkpt><trkpt lat="49.562732" lon="21.094156"></trkpt><trkpt lat="49.562928" lon="21.094006"></trkpt><trkpt lat="49.563058" lon="21.093584"></trkpt><trkpt lat="49.563241" lon="21.093325"></trkpt><trkpt lat="49.563096" lon="21.092928"></trkpt><trkpt lat="49.562881" lon="21.092699"></trkpt><trkpt lat="49.562252" lon="21.091868"></trkpt><trkpt lat="49.562154" lon="21.091467"></trkpt><trkpt lat="49.56209" lon="21.090766"></trkpt><trkpt lat="49.562073" lon="21.089634"></trkpt><trkpt lat="49.561887" lon="21.087608"></trkpt><trkpt lat="49.561809" lon="21.087214"></trkpt><trkpt lat="49.56113" lon="21.084782"></trkpt><trkpt lat="49.560953" lon="21.084295"></trkpt><trkpt lat="49.560659" lon="21.08379"></trkpt><trkpt lat="49.560909" lon="21.084315"></trkpt><trkpt lat="49.561068" lon="21.084739"></trkpt><trkpt lat="49.561724" lon="21.08702"></trkpt><trkpt lat="49.561842" lon="21.087736"></trkpt><trkpt lat="49.562002" lon="21.089102"></trkpt><trkpt lat="49.562027" lon="21.089994"></trkpt><trkpt lat="49.56213" lon="21.091098"></trkpt><trkpt lat="49.56232" lon="21.092081"></trkpt><trkpt lat="49.562538" lon="21.092428"></trkpt><trkpt lat="49.562918" lon="21.092784"></trkpt><trkpt lat="49.563283" lon="21.093266"></trkpt><trkpt lat="49.563703" lon="21.093984"></trkpt><trkpt lat="49.563947" lon="21.094306"></trkpt><trkpt lat="49.564358" lon="21.094371"></trkpt><trkpt lat="49.564858" lon="21.094162"></trkpt><trkpt lat="49.565178" lon="21.093929"></trkpt><trkpt lat="49.565046" lon="21.093366"></trkpt><trkpt lat="49.564949" lon="21.093076"></trkpt><trkpt lat="49.564939" lon="21.092709"></trkpt><trkpt lat="49.56506" lon="21.092411"></trkpt><trkpt lat="49.564981" lon="21.092726"></trkpt><trkpt lat="49.565255" lon="21.092906"></trkpt><trkpt lat="49.565489" lon="21.09349"></trkpt><trkpt lat="49.565683" lon="21.0936"></trkpt><trkpt lat="49.566168" lon="21.093238"></trkpt><trkpt lat="49.570102" lon="21.09081"></trkpt><trkpt lat="49.570659" lon="21.090537"></trkpt><trkpt lat="49.571678" lon="21.089462"></trkpt><trkpt lat="49.571818" lon="21.089057"></trkpt><trkpt lat="49.571935" lon="21.088609"></trkpt><trkpt lat="49.572024" lon="21.088103"></trkpt><trkpt lat="49.574036" lon="21.07942"></trkpt><trkpt lat="49.574492" lon="21.078061"></trkpt><trkpt lat="49.574912" lon="21.076467"></trkpt><trkpt lat="49.574988" lon="21.075534"></trkpt><trkpt lat="49.575306" lon="21.073299"></trkpt><trkpt lat="49.575536" lon="21.072256"></trkpt><trkpt lat="49.575861" lon="21.071225"></trkpt><trkpt lat="49.576581" lon="21.068249"></trkpt><trkpt lat="49.5761" lon="21.068345"></trkpt><trkpt lat="49.575716" lon="21.068356"></trkpt><trkpt lat="49.575239" lon="21.068261"></trkpt><trkpt lat="49.563178" lon="21.067274"></trkpt><trkpt lat="49.562795" lon="21.067633"></trkpt><trkpt lat="49.562543" lon="21.067935"></trkpt><trkpt lat="49.561046" lon="21.070005"></trkpt><trkpt lat="49.56087" lon="21.070389"></trkpt><trkpt lat="49.560233" lon="21.071572"></trkpt><trkpt lat="49.560045" lon="21.071829"></trkpt><trkpt lat="49.55985" lon="21.07205"></trkpt><trkpt lat="49.55828" lon="21.073502"></trkpt><trkpt lat="49.557952" lon="21.073598"></trkpt><trkpt lat="49.557529" lon="21.07358"></trkpt><trkpt lat="49.557032" lon="21.0734"></trkpt><trkpt lat="49.556583" lon="21.073183"></trkpt><trkpt lat="49.556114" lon="21.073074"></trkpt><trkpt lat="49.555689" lon="21.073041"></trkpt><trkpt lat="49.551827" lon="21.074084"></trkpt><trkpt lat="49.55139" lon="21.07475"></trkpt><trkpt lat="49.540877" lon="21.091567"></trkpt><trkpt lat="49.540424" lon="21.092064"></trkpt><trkpt lat="49.537377" lon="21.096013"></trkpt><trkpt lat="49.537277" lon="21.096307"></trkpt><trkpt lat="49.535896" lon="21.099638"></trkpt><trkpt lat="49.535695" lon="21.099925"></trkpt><trkpt lat="49.535508" lon="21.100303"></trkpt><trkpt lat="49.535292" lon="21.100606"></trkpt><trkpt lat="49.532992" lon="21.104374"></trkpt><trkpt lat="49.532795" lon="21.104756"></trkpt><trkpt lat="49.532612" lon="21.105222"></trkpt><trkpt lat="49.532422" lon="21.105586"></trkpt><trkpt lat="49.531786" lon="21.107"></trkpt><trkpt lat="49.531695" lon="21.107303"></trkpt><trkpt lat="49.531565" lon="21.107536"></trkpt><trkpt lat="49.531467" lon="21.107962"></trkpt><trkpt lat="49.527103" lon="21.130846"></trkpt><trkpt lat="49.526566" lon="21.131799"></trkpt><trkpt lat="49.522714" lon="21.137496"></trkpt><trkpt lat="49.522352" lon="21.137832"></trkpt><trkpt lat="49.521997" lon="21.138107"></trkpt><trkpt lat="49.521792" lon="21.13801"></trkpt><trkpt lat="49.521522" lon="21.137939"></trkpt><trkpt lat="49.52151" lon="21.138266"></trkpt><trkpt lat="49.521558" lon="21.138566"></trkpt><trkpt lat="49.521457" lon="21.138302"></trkpt><trkpt lat="49.521146" lon="21.137611"></trkpt><trkpt lat="49.520927" lon="21.137277"></trkpt><trkpt lat="49.518794" lon="21.134456"></trkpt><trkpt lat="49.518403" lon="21.13412"></trkpt><trkpt lat="49.51752" lon="21.133211"></trkpt><trkpt lat="49.51718" lon="21.13272"></trkpt><trkpt lat="49.516841" lon="21.132308"></trkpt><trkpt lat="49.516398" lon="21.132021"></trkpt><trkpt lat="49.515968" lon="21.131817"></trkpt><trkpt lat="49.514983" lon="21.131632"></trkpt><trkpt lat="49.514463" lon="21.131988"></trkpt><trkpt lat="49.514247" lon="21.132191"></trkpt><trkpt lat="49.513472" lon="21.132735"></trkpt><trkpt lat="49.51308" lon="21.132909"></trkpt><trkpt lat="49.511454" lon="21.133401"></trkpt><trkpt lat="49.511119" lon="21.132812"></trkpt><trkpt lat="49.510908" lon="21.132083"></trkpt><trkpt lat="49.510381" lon="21.130608"></trkpt><trkpt lat="49.510089" lon="21.130223"></trkpt><trkpt lat="49.509792" lon="21.129887"></trkpt><trkpt lat="49.508806" lon="21.129132"></trkpt><trkpt lat="49.508415" lon="21.129126"></trkpt><trkpt lat="49.507537" lon="21.129249"></trkpt><trkpt lat="49.507084" lon="21.129633"></trkpt><trkpt lat="49.504914" lon="21.132139"></trkpt><trkpt lat="49.504794" lon="21.132712"></trkpt><trkpt lat="49.503642" lon="21.136342"></trkpt><trkpt lat="49.503352" lon="21.136713"></trkpt><trkpt lat="49.502925" lon="21.137405"></trkpt><trkpt lat="49.500675" lon="21.140376"></trkpt><trkpt lat="49.500311" lon="21.140558"></trkpt><trkpt lat="49.497652" lon="21.14223"></trkpt><trkpt lat="49.497074" lon="21.142751"></trkpt><trkpt lat="49.496828" lon="21.143128"></trkpt><trkpt lat="49.495605" lon="21.144649"></trkpt><trkpt lat="49.495162" lon="21.145059"></trkpt><trkpt lat="49.481813" lon="21.155544"></trkpt><trkpt lat="49.481189" lon="21.155858"></trkpt><trkpt lat="49.46665" lon="21.161303"></trkpt><trkpt lat="49.466303" lon="21.161251"></trkpt><trkpt lat="49.465711" lon="21.161073"></trkpt><trkpt lat="49.465428" lon="21.16089"></trkpt><trkpt lat="49.465165" lon="21.160681"></trkpt><trkpt lat="49.463618" lon="21.159691"></trkpt><trkpt lat="49.463194" lon="21.15982"></trkpt><trkpt lat="49.457073" lon="21.162482"></trkpt><trkpt lat="49.457174" lon="21.162698"></trkpt></trkseg></trk></gpx>