<?xml version="1.0" encoding="UTF-8" standalone="no" ?><gpx xmlns="http://www.topografix.com/GPX/1/1" xmlns:gpxx="http://www.garmin.com/xmlschemas/GpxExtensions/v3" ><trk><trkseg><trkpt lat="51.511537" lon="17.110122"></trkpt><trkpt lat="51.511724" lon="17.110005"></trkpt><trkpt lat="51.511978" lon="17.110239"></trkpt><trkpt lat="51.512154" lon="17.110485"></trkpt><trkpt lat="51.512021" lon="17.111004"></trkpt><trkpt lat="51.511872" lon="17.11137"></trkpt><trkpt lat="51.511554" lon="17.112009"></trkpt><trkpt lat="51.511293" lon="17.112342"></trkpt><trkpt lat="51.511469" lon="17.112631"></trkpt><trkpt lat="51.511765" lon="17.113222"></trkpt><trkpt lat="51.512284" lon="17.113987"></trkpt><trkpt lat="51.512668" lon="17.114397"></trkpt><trkpt lat="51.512794" lon="17.114692"></trkpt><trkpt lat="51.512895" lon="17.115385"></trkpt><trkpt lat="51.513525" lon="17.124089"></trkpt><trkpt lat="51.513252" lon="17.125402"></trkpt><trkpt lat="51.512523" lon="17.12773"></trkpt><trkpt lat="51.512184" lon="17.128364"></trkpt><trkpt lat="51.510069" lon="17.133048"></trkpt><trkpt lat="51.509968" lon="17.133625"></trkpt><trkpt lat="51.509037" lon="17.136974"></trkpt><trkpt lat="51.508661" lon="17.137797"></trkpt><trkpt lat="51.508521" lon="17.138857"></trkpt><trkpt lat="51.508433" lon="17.139978"></trkpt><trkpt lat="51.507169" lon="17.149499"></trkpt><trkpt lat="51.506959" lon="17.150433"></trkpt><trkpt lat="51.505738" lon="17.154865"></trkpt><trkpt lat="51.505593" lon="17.155524"></trkpt><trkpt lat="51.505426" lon="17.156118"></trkpt><trkpt lat="51.504854" lon="17.158656"></trkpt><trkpt lat="51.502239" lon="17.168095"></trkpt><trkpt lat="51.501518" lon="17.167968"></trkpt><trkpt lat="51.500067" lon="17.167941"></trkpt><trkpt lat="51.50001" lon="17.168797"></trkpt><trkpt lat="51.499888" lon="17.169693"></trkpt><trkpt lat="51.499499" lon="17.16963"></trkpt><trkpt lat="51.499329" lon="17.169813"></trkpt><trkpt lat="51.499182" lon="17.17043"></trkpt><trkpt lat="51.499113" lon="17.170838"></trkpt><trkpt lat="51.499216" lon="17.171405"></trkpt><trkpt lat="51.499533" lon="17.171881"></trkpt><trkpt lat="51.499674" lon="17.172363"></trkpt><trkpt lat="51.499935" lon="17.173516"></trkpt><trkpt lat="51.50078" lon="17.176535"></trkpt><trkpt lat="51.501077" lon="17.177299"></trkpt><trkpt lat="51.502849" lon="17.182684"></trkpt><trkpt lat="51.502974" lon="17.183615"></trkpt><trkpt lat="51.505732" lon="17.197956"></trkpt><trkpt lat="51.505974" lon="17.198336"></trkpt><trkpt lat="51.506269" lon="17.198886"></trkpt><trkpt lat="51.506516" lon="17.199203"></trkpt><trkpt lat="51.507169" lon="17.200247"></trkpt><trkpt lat="51.508455" lon="17.202683"></trkpt><trkpt lat="51.522108" lon="17.224975"></trkpt><trkpt lat="51.522823" lon="17.225864"></trkpt><trkpt lat="51.530107" lon="17.236404"></trkpt><trkpt lat="51.530288" lon="17.236961"></trkpt><trkpt lat="51.530575" lon="17.238083"></trkpt><trkpt lat="51.530621" lon="17.238921"></trkpt><trkpt lat="51.530604" lon="17.2393"></trkpt><trkpt lat="51.530421" lon="17.240924"></trkpt><trkpt lat="51.530035" lon="17.24276"></trkpt><trkpt lat="51.529633" lon="17.243646"></trkpt><trkpt lat="51.528841" lon="17.245826"></trkpt><trkpt lat="51.528681" lon="17.246832"></trkpt><trkpt lat="51.528502" lon="17.24847"></trkpt><trkpt lat="51.528415" lon="17.250287"></trkpt><trkpt lat="51.528401" lon="17.256734"></trkpt><trkpt lat="51.528541" lon="17.256496"></trkpt><trkpt lat="51.5298" lon="17.258996"></trkpt><trkpt lat="51.529865" lon="17.259515"></trkpt><trkpt lat="51.529918" lon="17.260396"></trkpt><trkpt lat="51.530932" lon="17.269324"></trkpt><trkpt lat="51.531117" lon="17.269017"></trkpt><trkpt lat="51.531166" lon="17.268628"></trkpt><trkpt lat="51.531331" lon="17.268326"></trkpt><trkpt lat="51.531283" lon="17.268647"></trkpt><trkpt lat="51.53117" lon="17.26911"></trkpt><trkpt lat="51.530801" lon="17.269442"></trkpt><trkpt lat="51.530483" lon="17.26962"></trkpt><trkpt lat="51.53026" lon="17.269789"></trkpt><trkpt lat="51.530385" lon="17.270431"></trkpt><trkpt lat="51.530613" lon="17.270994"></trkpt><trkpt lat="51.530779" lon="17.271488"></trkpt><trkpt lat="51.530995" lon="17.272001"></trkpt><trkpt lat="51.531281" lon="17.272858"></trkpt><trkpt lat="51.530782" lon="17.273202"></trkpt><trkpt lat="51.530371" lon="17.273326"></trkpt><trkpt lat="51.529589" lon="17.27389"></trkpt><trkpt lat="51.529498" lon="17.274362"></trkpt><trkpt lat="51.529445" lon="17.275029"></trkpt><trkpt lat="51.529257" lon="17.275783"></trkpt><trkpt lat="51.528931" lon="17.276275"></trkpt><trkpt lat="51.528592" lon="17.277004"></trkpt><trkpt lat="51.528457" lon="17.277356"></trkpt><trkpt lat="51.527904" lon="17.279105"></trkpt><trkpt lat="51.527892" lon="17.279761"></trkpt><trkpt lat="51.527832" lon="17.280663"></trkpt><trkpt lat="51.527739" lon="17.281305"></trkpt><trkpt lat="51.526963" lon="17.285248"></trkpt><trkpt lat="51.52684" lon="17.285669"></trkpt><trkpt lat="51.526695" lon="17.286419"></trkpt><trkpt lat="51.526483" lon="17.28797"></trkpt><trkpt lat="51.526416" lon="17.288822"></trkpt><trkpt lat="51.526672" lon="17.288946"></trkpt><trkpt lat="51.526691" lon="17.289339"></trkpt><trkpt lat="51.526659" lon="17.289676"></trkpt><trkpt lat="51.526724" lon="17.290711"></trkpt><trkpt lat="51.526809" lon="17.291041"></trkpt><trkpt lat="51.527082" lon="17.291537"></trkpt><trkpt lat="51.5275" lon="17.292448"></trkpt><trkpt lat="51.527753" lon="17.29289"></trkpt><trkpt lat="51.527436" lon="17.293124"></trkpt><trkpt lat="51.527217" lon="17.293231"></trkpt><trkpt lat="51.527438" lon="17.293516"></trkpt><trkpt lat="51.527883" lon="17.293695"></trkpt><trkpt lat="51.528285" lon="17.293917"></trkpt><trkpt lat="51.528441" lon="17.294294"></trkpt><trkpt lat="51.528553" lon="17.295055"></trkpt><trkpt lat="51.528548" lon="17.295399"></trkpt><trkpt lat="51.528384" lon="17.295893"></trkpt><trkpt lat="51.528051" lon="17.296612"></trkpt><trkpt lat="51.527975" lon="17.296921"></trkpt><trkpt lat="51.527935" lon="17.297405"></trkpt><trkpt lat="51.528238" lon="17.298207"></trkpt><trkpt lat="51.528557" lon="17.298737"></trkpt><trkpt lat="51.530396" lon="17.302419"></trkpt><trkpt lat="51.530775" lon="17.303297"></trkpt><trkpt lat="51.532187" lon="17.307206"></trkpt><trkpt lat="51.532229" lon="17.308493"></trkpt><trkpt lat="51.532038" lon="17.315949"></trkpt><trkpt lat="51.531959" lon="17.31626"></trkpt><trkpt lat="51.530351" lon="17.321415"></trkpt><trkpt lat="51.528535" lon="17.32854"></trkpt><trkpt lat="51.528477" lon="17.328995"></trkpt><trkpt lat="51.528433" lon="17.329932"></trkpt><trkpt lat="51.528665" lon="17.330589"></trkpt><trkpt lat="51.528853" lon="17.330962"></trkpt><trkpt lat="51.529" lon="17.33133"></trkpt><trkpt lat="51.529072" lon="17.331661"></trkpt><trkpt lat="51.529237" lon="17.332675"></trkpt><trkpt lat="51.529314" lon="17.333946"></trkpt><trkpt lat="51.529215" lon="17.3347"></trkpt><trkpt lat="51.529058" lon="17.335514"></trkpt><trkpt lat="51.528994" lon="17.336549"></trkpt><trkpt lat="51.529125" lon="17.337011"></trkpt><trkpt lat="51.529666" lon="17.338608"></trkpt><trkpt lat="51.529979" lon="17.338955"></trkpt><trkpt lat="51.530287" lon="17.339365"></trkpt><trkpt lat="51.53054" lon="17.339459"></trkpt><trkpt lat="51.530886" lon="17.339899"></trkpt><trkpt lat="51.531228" lon="17.340267"></trkpt><trkpt lat="51.53145" lon="17.340402"></trkpt><trkpt lat="51.531738" lon="17.339489"></trkpt><trkpt lat="51.531679" lon="17.339824"></trkpt><trkpt lat="51.531521" lon="17.340495"></trkpt><trkpt lat="51.531975" lon="17.340877"></trkpt><trkpt lat="51.537407" lon="17.346833"></trkpt><trkpt lat="51.537443" lon="17.347285"></trkpt><trkpt lat="51.537734" lon="17.349548"></trkpt><trkpt lat="51.540487" lon="17.364681"></trkpt><trkpt lat="51.540673" lon="17.364846"></trkpt><trkpt lat="51.541746" lon="17.365631"></trkpt><trkpt lat="51.544856" lon="17.367439"></trkpt><trkpt lat="51.545039" lon="17.367217"></trkpt><trkpt lat="51.545308" lon="17.366971"></trkpt><trkpt lat="51.545815" lon="17.36684"></trkpt><trkpt lat="51.546316" lon="17.36663"></trkpt><trkpt lat="51.548384" lon="17.366093"></trkpt><trkpt lat="51.548597" lon="17.366097"></trkpt><trkpt lat="51.548857" lon="17.366284"></trkpt><trkpt lat="51.549132" lon="17.366429"></trkpt><trkpt lat="51.551686" lon="17.368141"></trkpt><trkpt lat="51.551914" lon="17.368216"></trkpt><trkpt lat="51.551883" lon="17.367633"></trkpt><trkpt lat="51.551902" lon="17.366978"></trkpt><trkpt lat="51.55201" lon="17.366426"></trkpt><trkpt lat="51.552397" lon="17.363606"></trkpt><trkpt lat="51.552429" lon="17.362989"></trkpt><trkpt lat="51.552411" lon="17.360671"></trkpt><trkpt lat="51.552667" lon="17.360365"></trkpt><trkpt lat="51.553024" lon="17.360172"></trkpt><trkpt lat="51.553763" lon="17.359931"></trkpt><trkpt lat="51.554344" lon="17.359996"></trkpt><trkpt lat="51.554737" lon="17.359882"></trkpt><trkpt lat="51.555046" lon="17.359547"></trkpt><trkpt lat="51.555249" lon="17.358902"></trkpt><trkpt lat="51.55537" lon="17.358368"></trkpt><trkpt lat="51.555759" lon="17.35716"></trkpt><trkpt lat="51.556085" lon="17.357176"></trkpt><trkpt lat="51.558554" lon="17.356746"></trkpt><trkpt lat="51.558626" lon="17.356215"></trkpt><trkpt lat="51.558737" lon="17.354817"></trkpt><trkpt lat="51.558575" lon="17.354156"></trkpt><trkpt lat="51.558374" lon="17.353533"></trkpt><trkpt lat="51.55827" lon="17.353123"></trkpt><trkpt lat="51.558386" lon="17.352852"></trkpt><trkpt lat="51.558269" lon="17.35311"></trkpt><trkpt lat="51.55845" lon="17.353775"></trkpt><trkpt lat="51.558747" lon="17.355293"></trkpt><trkpt lat="51.558639" lon="17.356088"></trkpt><trkpt lat="51.55802" lon="17.357443"></trkpt><trkpt lat="51.557526" lon="17.357358"></trkpt><trkpt lat="51.555602" lon="17.357341"></trkpt><trkpt lat="51.555381" lon="17.358299"></trkpt><trkpt lat="51.555006" lon="17.359621"></trkpt><trkpt lat="51.554839" lon="17.359809"></trkpt><trkpt lat="51.554311" lon="17.359981"></trkpt><trkpt lat="51.553847" lon="17.359944"></trkpt><trkpt lat="51.552837" lon="17.360255"></trkpt><trkpt lat="51.552423" lon="17.360436"></trkpt><trkpt lat="51.552182" lon="17.360229"></trkpt><trkpt lat="51.552047" lon="17.359915"></trkpt><trkpt lat="51.551862" lon="17.35937"></trkpt><trkpt lat="51.550762" lon="17.356672"></trkpt><trkpt lat="51.55051" lon="17.356447"></trkpt><trkpt lat="51.537404" lon="17.346771"></trkpt><trkpt lat="51.537501" lon="17.347693"></trkpt><trkpt lat="51.538289" lon="17.362473"></trkpt><trkpt lat="51.538016" lon="17.362472"></trkpt><trkpt lat="51.53776" lon="17.36257"></trkpt><trkpt lat="51.537134" lon="17.362904"></trkpt><trkpt lat="51.53512" lon="17.363709"></trkpt><trkpt lat="51.532508" lon="17.363076"></trkpt><trkpt lat="51.532516" lon="17.363696"></trkpt><trkpt lat="51.532471" lon="17.365083"></trkpt><trkpt lat="51.531171" lon="17.378832"></trkpt><trkpt lat="51.530914" lon="17.379294"></trkpt><trkpt lat="51.530015" lon="17.380463"></trkpt><trkpt lat="51.5296" lon="17.380826"></trkpt><trkpt lat="51.529099" lon="17.381467"></trkpt><trkpt lat="51.528808" lon="17.382064"></trkpt><trkpt lat="51.528347" lon="17.382861"></trkpt><trkpt lat="51.526799" lon="17.385125"></trkpt><trkpt lat="51.526363" lon="17.385475"></trkpt><trkpt lat="51.525765" lon="17.385652"></trkpt><trkpt lat="51.525266" lon="17.385576"></trkpt><trkpt lat="51.525209" lon="17.385891"></trkpt><trkpt lat="51.525275" lon="17.386377"></trkpt><trkpt lat="51.525587" lon="17.38804"></trkpt><trkpt lat="51.525812" lon="17.388055"></trkpt><trkpt lat="51.525612" lon="17.388086"></trkpt><trkpt lat="51.525471" lon="17.387832"></trkpt><trkpt lat="51.525391" lon="17.387322"></trkpt><trkpt lat="51.524812" lon="17.384745"></trkpt><trkpt lat="51.524675" lon="17.384364"></trkpt><trkpt lat="51.524435" lon="17.384013"></trkpt><trkpt lat="51.524114" lon="17.384002"></trkpt><trkpt lat="51.523542" lon="17.38415"></trkpt><trkpt lat="51.519484" lon="17.384721"></trkpt><trkpt lat="51.515012" lon="17.384641"></trkpt><trkpt lat="51.514619" lon="17.384695"></trkpt><trkpt lat="51.513599" lon="17.384676"></trkpt><trkpt lat="51.512556" lon="17.38439"></trkpt><trkpt lat="51.512572" lon="17.384056"></trkpt><trkpt lat="51.512644" lon="17.383363"></trkpt><trkpt lat="51.51267" lon="17.38287"></trkpt><trkpt lat="51.512625" lon="17.381708"></trkpt><trkpt lat="51.512564" lon="17.381006"></trkpt><trkpt lat="51.512658" lon="17.380151"></trkpt><trkpt lat="51.512859" lon="17.379435"></trkpt><trkpt lat="51.513103" lon="17.378098"></trkpt><trkpt lat="51.513081" lon="17.377461"></trkpt><trkpt lat="51.513099" lon="17.376904"></trkpt><trkpt lat="51.5132" lon="17.376382"></trkpt><trkpt lat="51.513455" lon="17.374616"></trkpt><trkpt lat="51.51355" lon="17.373186"></trkpt><trkpt lat="51.513539" lon="17.372024"></trkpt><trkpt lat="51.514359" lon="17.350075"></trkpt><trkpt lat="51.514476" lon="17.349246"></trkpt><trkpt lat="51.515211" lon="17.345554"></trkpt><trkpt lat="51.515975" lon="17.342524"></trkpt><trkpt lat="51.516195" lon="17.342027"></trkpt><trkpt lat="51.516655" lon="17.341414"></trkpt><trkpt lat="51.517264" lon="17.340744"></trkpt><trkpt lat="51.517683" lon="17.340365"></trkpt><trkpt lat="51.518085" lon="17.340214"></trkpt><trkpt lat="51.518261" lon="17.340014"></trkpt><trkpt lat="51.518393" lon="17.339745"></trkpt><trkpt lat="51.518564" lon="17.339254"></trkpt><trkpt lat="51.518647" lon="17.338892"></trkpt><trkpt lat="51.518884" lon="17.33748"></trkpt><trkpt lat="51.518995" lon="17.336333"></trkpt><trkpt lat="51.519023" lon="17.335542"></trkpt><trkpt lat="51.518983" lon="17.33198"></trkpt><trkpt lat="51.518681" lon="17.326791"></trkpt><trkpt lat="51.518186" lon="17.322245"></trkpt><trkpt lat="51.518036" lon="17.321537"></trkpt><trkpt lat="51.518036" lon="17.321144"></trkpt><trkpt lat="51.518285" lon="17.318318"></trkpt><trkpt lat="51.518575" lon="17.317166"></trkpt><trkpt lat="51.519154" lon="17.315262"></trkpt><trkpt lat="51.519289" lon="17.315015"></trkpt><trkpt lat="51.519437" lon="17.314793"></trkpt><trkpt lat="51.519305" lon="17.315226"></trkpt><trkpt lat="51.519176" lon="17.314963"></trkpt><trkpt lat="51.519391" lon="17.31427"></trkpt><trkpt lat="51.519703" lon="17.313608"></trkpt><trkpt lat="51.521981" lon="17.309777"></trkpt><trkpt lat="51.522587" lon="17.309232"></trkpt><trkpt lat="51.524777" lon="17.306815"></trkpt><trkpt lat="51.525015" lon="17.305828"></trkpt><trkpt lat="51.525076" lon="17.305287"></trkpt><trkpt lat="51.525085" lon="17.304394"></trkpt><trkpt lat="51.525157" lon="17.303408"></trkpt><trkpt lat="51.526415" lon="17.296122"></trkpt><trkpt lat="51.526964" lon="17.295781"></trkpt><trkpt lat="51.528441" lon="17.294384"></trkpt><trkpt lat="51.528214" lon="17.293861"></trkpt><trkpt lat="51.527904" lon="17.293683"></trkpt><trkpt lat="51.527426" lon="17.29349"></trkpt><trkpt lat="51.527102" lon="17.293242"></trkpt><trkpt lat="51.526778" lon="17.29279"></trkpt><trkpt lat="51.526639" lon="17.292497"></trkpt><trkpt lat="51.526255" lon="17.292548"></trkpt><trkpt lat="51.524808" lon="17.292965"></trkpt><trkpt lat="51.524021" lon="17.2931"></trkpt><trkpt lat="51.523402" lon="17.292766"></trkpt><trkpt lat="51.522734" lon="17.292303"></trkpt><trkpt lat="51.522549" lon="17.291872"></trkpt><trkpt lat="51.522224" lon="17.290957"></trkpt><trkpt lat="51.522168" lon="17.290375"></trkpt><trkpt lat="51.522141" lon="17.289574"></trkpt><trkpt lat="51.521919" lon="17.287211"></trkpt><trkpt lat="51.521737" lon="17.286203"></trkpt><trkpt lat="51.517732" lon="17.270572"></trkpt><trkpt lat="51.516933" lon="17.270362"></trkpt><trkpt lat="51.507582" lon="17.266618"></trkpt><trkpt lat="51.507302" lon="17.266304"></trkpt><trkpt lat="51.490755" lon="17.244786"></trkpt><trkpt lat="51.490639" lon="17.244466"></trkpt><trkpt lat="51.490263" lon="17.243708"></trkpt><trkpt lat="51.486441" lon="17.237258"></trkpt><trkpt lat="51.48612" lon="17.236989"></trkpt><trkpt lat="51.485899" lon="17.236843"></trkpt><trkpt lat="51.485593" lon="17.236833"></trkpt><trkpt lat="51.485278" lon="17.236889"></trkpt><trkpt lat="51.484874" lon="17.236885"></trkpt><trkpt lat="51.48456" lon="17.236832"></trkpt><trkpt lat="51.483535" lon="17.236515"></trkpt><trkpt lat="51.483024" lon="17.235922"></trkpt><trkpt lat="51.482104" lon="17.234595"></trkpt><trkpt lat="51.481986" lon="17.234179"></trkpt><trkpt lat="51.48129" lon="17.229677"></trkpt><trkpt lat="51.481611" lon="17.229609"></trkpt><trkpt lat="51.482805" lon="17.228675"></trkpt><trkpt lat="51.482524" lon="17.228194"></trkpt><trkpt lat="51.482791" lon="17.228606"></trkpt><trkpt lat="51.482996" lon="17.228995"></trkpt><trkpt lat="51.483087" lon="17.22934"></trkpt><trkpt lat="51.482867" lon="17.229407"></trkpt><trkpt lat="51.481938" lon="17.229578"></trkpt><trkpt lat="51.480571" lon="17.229047"></trkpt><trkpt lat="51.480377" lon="17.22837"></trkpt><trkpt lat="51.476948" lon="17.212879"></trkpt><trkpt lat="51.477028" lon="17.211969"></trkpt><trkpt lat="51.477253" lon="17.210337"></trkpt><trkpt lat="51.477828" lon="17.208388"></trkpt><trkpt lat="51.478311" lon="17.207583"></trkpt><trkpt lat="51.478627" lon="17.206359"></trkpt><trkpt lat="51.479272" lon="17.204587"></trkpt><trkpt lat="51.481184" lon="17.200401"></trkpt><trkpt lat="51.481651" lon="17.199813"></trkpt><trkpt lat="51.486706" lon="17.19196"></trkpt><trkpt lat="51.486808" lon="17.191555"></trkpt><trkpt lat="51.487158" lon="17.189811"></trkpt><trkpt lat="51.487482" lon="17.18687"></trkpt><trkpt lat="51.487392" lon="17.186471"></trkpt><trkpt lat="51.487262" lon="17.186025"></trkpt><trkpt lat="51.485951" lon="17.180181"></trkpt><trkpt lat="51.485898" lon="17.179823"></trkpt><trkpt lat="51.485643" lon="17.175332"></trkpt><trkpt lat="51.4861" lon="17.174459"></trkpt><trkpt lat="51.487798" lon="17.170695"></trkpt><trkpt lat="51.48806" lon="17.169892"></trkpt><trkpt lat="51.488853" lon="17.166954"></trkpt><trkpt lat="51.489265" lon="17.165049"></trkpt><trkpt lat="51.489141" lon="17.164651"></trkpt><trkpt lat="51.489602" lon="17.164472"></trkpt><trkpt lat="51.490013" lon="17.164432"></trkpt><trkpt lat="51.491856" lon="17.164869"></trkpt><trkpt lat="51.492206" lon="17.165157"></trkpt><trkpt lat="51.494476" lon="17.166558"></trkpt><trkpt lat="51.494508" lon="17.165726"></trkpt><trkpt lat="51.494461" lon="17.165325"></trkpt><trkpt lat="51.494413" lon="17.164653"></trkpt><trkpt lat="51.494393" lon="17.163893"></trkpt><trkpt lat="51.494522" lon="17.156665"></trkpt><trkpt lat="51.494815" lon="17.156777"></trkpt><trkpt lat="51.49514" lon="17.156976"></trkpt><trkpt lat="51.504255" lon="17.161338"></trkpt><trkpt lat="51.504499" lon="17.160372"></trkpt><trkpt lat="51.50704" lon="17.146813"></trkpt><trkpt lat="51.506799" lon="17.146839"></trkpt><trkpt lat="51.506426" lon="17.146697"></trkpt><trkpt lat="51.506876" lon="17.146761"></trkpt><trkpt lat="51.507386" lon="17.146906"></trkpt><trkpt lat="51.507717" lon="17.146959"></trkpt><trkpt lat="51.50785" lon="17.146484"></trkpt><trkpt lat="51.507959" lon="17.145822"></trkpt><trkpt lat="51.508026" lon="17.145096"></trkpt><trkpt lat="51.509169" lon="17.136838"></trkpt><trkpt lat="51.509478" lon="17.136144"></trkpt><trkpt lat="51.509636" lon="17.135457"></trkpt><trkpt lat="51.509755" lon="17.134787"></trkpt><trkpt lat="51.510389" lon="17.132029"></trkpt><trkpt lat="51.510768" lon="17.131174"></trkpt><trkpt lat="51.511136" lon="17.130466"></trkpt><trkpt lat="51.513257" lon="17.125626"></trkpt><trkpt lat="51.513355" lon="17.125168"></trkpt><trkpt lat="51.513773" lon="17.121685"></trkpt><trkpt lat="51.513696" lon="17.121149"></trkpt><trkpt lat="51.512086" lon="17.113669"></trkpt><trkpt lat="51.511845" lon="17.113302"></trkpt><trkpt lat="51.511666" lon="17.112956"></trkpt><trkpt lat="51.511417" lon="17.112377"></trkpt><trkpt lat="51.511659" lon="17.111808"></trkpt><trkpt lat="51.512108" lon="17.11028"></trkpt><trkpt lat="51.511874" lon="17.11007"></trkpt><trkpt lat="51.511543" lon="17.110089"></trkpt></trkseg></trk></gpx>