<?xml version="1.0" encoding="UTF-8" standalone="no" ?><gpx xmlns="http://www.topografix.com/GPX/1/1" xmlns:gpxx="http://www.garmin.com/xmlschemas/GpxExtensions/v3" ><trk><trkseg><trkpt lat="52.620444" lon="18.15892"></trkpt><trkpt lat="52.620439" lon="18.159278"></trkpt><trkpt lat="52.620209" lon="18.15913"></trkpt><trkpt lat="52.619729" lon="18.158481"></trkpt><trkpt lat="52.60016" lon="18.131086"></trkpt><trkpt lat="52.597663" lon="18.128912"></trkpt><trkpt lat="52.596869" lon="18.128964"></trkpt><trkpt lat="52.596105" lon="18.12914"></trkpt><trkpt lat="52.593403" lon="18.129143"></trkpt><trkpt lat="52.593024" lon="18.129022"></trkpt><trkpt lat="52.592279" lon="18.128682"></trkpt><trkpt lat="52.588844" lon="18.12641"></trkpt><trkpt lat="52.588163" lon="18.125833"></trkpt><trkpt lat="52.586765" lon="18.12488"></trkpt><trkpt lat="52.585974" lon="18.12449"></trkpt><trkpt lat="52.578303" lon="18.119451"></trkpt><trkpt lat="52.577495" lon="18.11854"></trkpt><trkpt lat="52.57674" lon="18.118016"></trkpt><trkpt lat="52.57574" lon="18.117552"></trkpt><trkpt lat="52.574215" lon="18.116539"></trkpt><trkpt lat="52.573435" lon="18.115895"></trkpt><trkpt lat="52.569443" lon="18.111876"></trkpt><trkpt lat="52.568876" lon="18.111129"></trkpt><trkpt lat="52.568343" lon="18.110282"></trkpt><trkpt lat="52.567844" lon="18.109237"></trkpt><trkpt lat="52.566654" lon="18.107081"></trkpt><trkpt lat="52.565871" lon="18.106005"></trkpt><trkpt lat="52.565232" lon="18.105371"></trkpt><trkpt lat="52.564831" lon="18.104824"></trkpt><trkpt lat="52.564563" lon="18.104211"></trkpt><trkpt lat="52.564152" lon="18.103426"></trkpt><trkpt lat="52.563661" lon="18.102798"></trkpt><trkpt lat="52.562396" lon="18.100867"></trkpt><trkpt lat="52.562079" lon="18.100124"></trkpt><trkpt lat="52.56036" lon="18.097086"></trkpt><trkpt lat="52.55977" lon="18.096436"></trkpt><trkpt lat="52.559185" lon="18.09565"></trkpt><trkpt lat="52.553552" lon="18.089236"></trkpt><trkpt lat="52.552583" lon="18.088593"></trkpt><trkpt lat="52.540391" lon="18.082416"></trkpt><trkpt lat="52.539709" lon="18.082607"></trkpt><trkpt lat="52.538919" lon="18.082958"></trkpt><trkpt lat="52.537229" lon="18.083399"></trkpt><trkpt lat="52.536457" lon="18.083436"></trkpt><trkpt lat="52.534952" lon="18.082908"></trkpt><trkpt lat="52.534462" lon="18.082379"></trkpt><trkpt lat="52.530456" lon="18.077296"></trkpt><trkpt lat="52.529264" lon="18.075543"></trkpt><trkpt lat="52.529164" lon="18.075224"></trkpt><trkpt lat="52.527983" lon="18.070677"></trkpt><trkpt lat="52.526691" lon="18.06678"></trkpt><trkpt lat="52.526136" lon="18.066059"></trkpt><trkpt lat="52.525496" lon="18.065533"></trkpt><trkpt lat="52.52386" lon="18.064418"></trkpt><trkpt lat="52.518199" lon="18.061332"></trkpt><trkpt lat="52.517627" lon="18.061113"></trkpt><trkpt lat="52.513242" lon="18.058805"></trkpt><trkpt lat="52.510089" lon="18.056686"></trkpt><trkpt lat="52.509442" lon="18.056021"></trkpt><trkpt lat="52.508719" lon="18.055137"></trkpt><trkpt lat="52.508127" lon="18.054071"></trkpt><trkpt lat="52.504338" lon="18.045556"></trkpt><trkpt lat="52.50409" lon="18.044424"></trkpt><trkpt lat="52.503648" lon="18.042804"></trkpt><trkpt lat="52.503377" lon="18.042111"></trkpt><trkpt lat="52.502971" lon="18.041349"></trkpt><trkpt lat="52.502563" lon="18.040715"></trkpt><trkpt lat="52.499986" lon="18.035411"></trkpt><trkpt lat="52.499773" lon="18.034198"></trkpt><trkpt lat="52.498615" lon="18.02523"></trkpt><trkpt lat="52.498672" lon="18.020528"></trkpt><trkpt lat="52.499148" lon="18.019706"></trkpt><trkpt lat="52.501962" lon="18.013978"></trkpt><trkpt lat="52.501742" lon="18.013211"></trkpt><trkpt lat="52.498873" lon="18.000594"></trkpt><trkpt lat="52.498699" lon="17.999133"></trkpt><trkpt lat="52.495677" lon="17.981509"></trkpt><trkpt lat="52.49556" lon="17.98107"></trkpt><trkpt lat="52.494364" lon="17.973998"></trkpt><trkpt lat="52.494476" lon="17.973027"></trkpt><trkpt lat="52.496638" lon="17.941424"></trkpt><trkpt lat="52.496635" lon="17.940597"></trkpt><trkpt lat="52.496408" lon="17.939485"></trkpt><trkpt lat="52.495978" lon="17.938478"></trkpt><trkpt lat="52.495621" lon="17.937481"></trkpt><trkpt lat="52.495534" lon="17.937122"></trkpt><trkpt lat="52.494336" lon="17.933057"></trkpt><trkpt lat="52.494181" lon="17.931696"></trkpt><trkpt lat="52.494084" lon="17.930263"></trkpt><trkpt lat="52.494184" lon="17.929251"></trkpt><trkpt lat="52.494103" lon="17.928881"></trkpt><trkpt lat="52.493876" lon="17.928354"></trkpt><trkpt lat="52.493718" lon="17.928121"></trkpt><trkpt lat="52.493495" lon="17.927629"></trkpt><trkpt lat="52.493182" lon="17.927319"></trkpt><trkpt lat="52.489839" lon="17.923459"></trkpt><trkpt lat="52.485427" lon="17.919209"></trkpt><trkpt lat="52.485196" lon="17.919157"></trkpt><trkpt lat="52.471043" lon="17.914292"></trkpt><trkpt lat="52.470763" lon="17.914161"></trkpt><trkpt lat="52.470459" lon="17.913961"></trkpt><trkpt lat="52.470103" lon="17.913779"></trkpt><trkpt lat="52.468262" lon="17.912581"></trkpt><trkpt lat="52.46823" lon="17.912233"></trkpt><trkpt lat="52.468108" lon="17.911511"></trkpt><trkpt lat="52.466585" lon="17.904858"></trkpt><trkpt lat="52.466304" lon="17.904472"></trkpt><trkpt lat="52.460725" lon="17.895303"></trkpt><trkpt lat="52.460946" lon="17.89485"></trkpt><trkpt lat="52.461083" lon="17.894521"></trkpt><trkpt lat="52.461139" lon="17.894056"></trkpt><trkpt lat="52.461224" lon="17.89292"></trkpt><trkpt lat="52.46123" lon="17.892513"></trkpt><trkpt lat="52.460773" lon="17.891995"></trkpt><trkpt lat="52.460527" lon="17.891897"></trkpt><trkpt lat="52.460204" lon="17.891879"></trkpt><trkpt lat="52.459961" lon="17.891717"></trkpt><trkpt lat="52.459764" lon="17.891337"></trkpt><trkpt lat="52.459622" lon="17.890965"></trkpt><trkpt lat="52.459199" lon="17.891019"></trkpt><trkpt lat="52.458907" lon="17.891317"></trkpt><trkpt lat="52.457937" lon="17.892077"></trkpt><trkpt lat="52.457855" lon="17.891776"></trkpt><trkpt lat="52.457794" lon="17.891449"></trkpt><trkpt lat="52.457753" lon="17.89111"></trkpt><trkpt lat="52.457654" lon="17.890742"></trkpt><trkpt lat="52.458245" lon="17.891181"></trkpt><trkpt lat="52.458408" lon="17.890991"></trkpt><trkpt lat="52.458706" lon="17.890897"></trkpt><trkpt lat="52.458824" lon="17.89122"></trkpt><trkpt lat="52.459319" lon="17.892342"></trkpt><trkpt lat="52.459648" lon="17.891973"></trkpt><trkpt lat="52.460599" lon="17.891142"></trkpt><trkpt lat="52.460934" lon="17.890909"></trkpt><trkpt lat="52.461923" lon="17.890434"></trkpt><trkpt lat="52.46219" lon="17.890262"></trkpt><trkpt lat="52.46239" lon="17.890165"></trkpt><trkpt lat="52.462385" lon="17.889813"></trkpt><trkpt lat="52.462493" lon="17.889493"></trkpt><trkpt lat="52.462574" lon="17.889133"></trkpt><trkpt lat="52.466031" lon="17.877207"></trkpt><trkpt lat="52.466252" lon="17.876762"></trkpt><trkpt lat="52.46647" lon="17.875796"></trkpt><trkpt lat="52.467169" lon="17.87353"></trkpt><trkpt lat="52.467729" lon="17.872536"></trkpt><trkpt lat="52.467932" lon="17.872291"></trkpt><trkpt lat="52.468697" lon="17.871892"></trkpt><trkpt lat="52.469443" lon="17.871376"></trkpt><trkpt lat="52.469662" lon="17.870857"></trkpt><trkpt lat="52.469722" lon="17.870224"></trkpt><trkpt lat="52.469488" lon="17.869223"></trkpt><trkpt lat="52.467654" lon="17.862999"></trkpt><trkpt lat="52.467097" lon="17.862285"></trkpt><trkpt lat="52.465731" lon="17.861078"></trkpt><trkpt lat="52.464957" lon="17.860756"></trkpt><trkpt lat="52.46276" lon="17.859386"></trkpt><trkpt lat="52.462379" lon="17.85862"></trkpt><trkpt lat="52.46214" lon="17.857198"></trkpt><trkpt lat="52.462119" lon="17.856664"></trkpt><trkpt lat="52.462189" lon="17.855458"></trkpt><trkpt lat="52.462529" lon="17.852258"></trkpt><trkpt lat="52.462725" lon="17.852552"></trkpt><trkpt lat="52.463075" lon="17.852875"></trkpt><trkpt lat="52.464105" lon="17.853614"></trkpt><trkpt lat="52.464354" lon="17.853644"></trkpt><trkpt lat="52.466197" lon="17.853638"></trkpt><trkpt lat="52.466984" lon="17.853508"></trkpt><trkpt lat="52.467668" lon="17.853052"></trkpt><trkpt lat="52.481118" lon="17.842079"></trkpt><trkpt lat="52.481236" lon="17.841746"></trkpt><trkpt lat="52.482295" lon="17.838155"></trkpt><trkpt lat="52.482412" lon="17.837251"></trkpt><trkpt lat="52.482954" lon="17.834186"></trkpt><trkpt lat="52.483351" lon="17.833"></trkpt><trkpt lat="52.483665" lon="17.832248"></trkpt><trkpt lat="52.48386" lon="17.832385"></trkpt><trkpt lat="52.48397" lon="17.83272"></trkpt><trkpt lat="52.484136" lon="17.832923"></trkpt><trkpt lat="52.484328" lon="17.833044"></trkpt><trkpt lat="52.484541" lon="17.83307"></trkpt><trkpt lat="52.485446" lon="17.832842"></trkpt><trkpt lat="52.48657" lon="17.832698"></trkpt><trkpt lat="52.495948" lon="17.835085"></trkpt><trkpt lat="52.496561" lon="17.835956"></trkpt><trkpt lat="52.502328" lon="17.841705"></trkpt><trkpt lat="52.502491" lon="17.841425"></trkpt><trkpt lat="52.503055" lon="17.840917"></trkpt><trkpt lat="52.506727" lon="17.836836"></trkpt><trkpt lat="52.507193" lon="17.835894"></trkpt><trkpt lat="52.507606" lon="17.834721"></trkpt><trkpt lat="52.508054" lon="17.833146"></trkpt><trkpt lat="52.508247" lon="17.832166"></trkpt><trkpt lat="52.508543" lon="17.831181"></trkpt><trkpt lat="52.508706" lon="17.830846"></trkpt><trkpt lat="52.509564" lon="17.829335"></trkpt><trkpt lat="52.50985" lon="17.82927"></trkpt><trkpt lat="52.510815" lon="17.82922"></trkpt><trkpt lat="52.511714" lon="17.828951"></trkpt><trkpt lat="52.512663" lon="17.828812"></trkpt><trkpt lat="52.512907" lon="17.828675"></trkpt><trkpt lat="52.513243" lon="17.828347"></trkpt><trkpt lat="52.513614" lon="17.827906"></trkpt><trkpt lat="52.513933" lon="17.827158"></trkpt><trkpt lat="52.514105" lon="17.826903"></trkpt><trkpt lat="52.514306" lon="17.826735"></trkpt><trkpt lat="52.514527" lon="17.826632"></trkpt><trkpt lat="52.514818" lon="17.826559"></trkpt><trkpt lat="52.515527" lon="17.826974"></trkpt><trkpt lat="52.515898" lon="17.827306"></trkpt><trkpt lat="52.517901" lon="17.828795"></trkpt><trkpt lat="52.519136" lon="17.829904"></trkpt><trkpt lat="52.519259" lon="17.830266"></trkpt><trkpt lat="52.519588" lon="17.832053"></trkpt><trkpt lat="52.51975" lon="17.83355"></trkpt><trkpt lat="52.519791" lon="17.834243"></trkpt><trkpt lat="52.519721" lon="17.834601"></trkpt><trkpt lat="52.519588" lon="17.834968"></trkpt><trkpt lat="52.519641" lon="17.835302"></trkpt><trkpt lat="52.519746" lon="17.83564"></trkpt><trkpt lat="52.519835" lon="17.836374"></trkpt><trkpt lat="52.519913" lon="17.836829"></trkpt><trkpt lat="52.52007" lon="17.837444"></trkpt><trkpt lat="52.520479" lon="17.839574"></trkpt><trkpt lat="52.52061" lon="17.839953"></trkpt><trkpt lat="52.521132" lon="17.841079"></trkpt><trkpt lat="52.52128" lon="17.841573"></trkpt><trkpt lat="52.52142" lon="17.842657"></trkpt><trkpt lat="52.521508" lon="17.843753"></trkpt><trkpt lat="52.521624" lon="17.844025"></trkpt><trkpt lat="52.522476" lon="17.844389"></trkpt><trkpt lat="52.523106" lon="17.844226"></trkpt><trkpt lat="52.524498" lon="17.844035"></trkpt><trkpt lat="52.531301" lon="17.842183"></trkpt><trkpt lat="52.532341" lon="17.841287"></trkpt><trkpt lat="52.537964" lon="17.83808"></trkpt><trkpt lat="52.538741" lon="17.839107"></trkpt><trkpt lat="52.543981" lon="17.844979"></trkpt><trkpt lat="52.544225" lon="17.844943"></trkpt><trkpt lat="52.544952" lon="17.844228"></trkpt><trkpt lat="52.545438" lon="17.843525"></trkpt><trkpt lat="52.545631" lon="17.843202"></trkpt><trkpt lat="52.545907" lon="17.84247"></trkpt><trkpt lat="52.546142" lon="17.842026"></trkpt><trkpt lat="52.546349" lon="17.841891"></trkpt><trkpt lat="52.547179" lon="17.842726"></trkpt><trkpt lat="52.547652" lon="17.843117"></trkpt><trkpt lat="52.547565" lon="17.844003"></trkpt><trkpt lat="52.547273" lon="17.852983"></trkpt><trkpt lat="52.547345" lon="17.85408"></trkpt><trkpt lat="52.547335" lon="17.855333"></trkpt><trkpt lat="52.548418" lon="17.886169"></trkpt><trkpt lat="52.548756" lon="17.88805"></trkpt><trkpt lat="52.548979" lon="17.889767"></trkpt><trkpt lat="52.548762" lon="17.891673"></trkpt><trkpt lat="52.548415" lon="17.893267"></trkpt><trkpt lat="52.547908" lon="17.896346"></trkpt><trkpt lat="52.54815" lon="17.897581"></trkpt><trkpt lat="52.548542" lon="17.898894"></trkpt><trkpt lat="52.548822" lon="17.900034"></trkpt><trkpt lat="52.557057" lon="17.927573"></trkpt><trkpt lat="52.557569" lon="17.928944"></trkpt><trkpt lat="52.559054" lon="17.933855"></trkpt><trkpt lat="52.55904" lon="17.934201"></trkpt><trkpt lat="52.559751" lon="17.939882"></trkpt><trkpt lat="52.560649" lon="17.940219"></trkpt><trkpt lat="52.561187" lon="17.940499"></trkpt><trkpt lat="52.561754" lon="17.940642"></trkpt><trkpt lat="52.562473" lon="17.940934"></trkpt><trkpt lat="52.563992" lon="17.941092"></trkpt><trkpt lat="52.564894" lon="17.94055"></trkpt><trkpt lat="52.56622" lon="17.939936"></trkpt><trkpt lat="52.566239" lon="17.940292"></trkpt><trkpt lat="52.567628" lon="17.951657"></trkpt><trkpt lat="52.567769" lon="17.952021"></trkpt><trkpt lat="52.568185" lon="17.953311"></trkpt><trkpt lat="52.568348" lon="17.954342"></trkpt><trkpt lat="52.568446" lon="17.955483"></trkpt><trkpt lat="52.568658" lon="17.956679"></trkpt><trkpt lat="52.568942" lon="17.957665"></trkpt><trkpt lat="52.574281" lon="17.973279"></trkpt><trkpt lat="52.574527" lon="17.973687"></trkpt><trkpt lat="52.574806" lon="17.974356"></trkpt><trkpt lat="52.578838" lon="17.986123"></trkpt><trkpt lat="52.578779" lon="17.987863"></trkpt><trkpt lat="52.578843" lon="17.989024"></trkpt><trkpt lat="52.579756" lon="17.997197"></trkpt><trkpt lat="52.579973" lon="17.99802"></trkpt><trkpt lat="52.580634" lon="17.999873"></trkpt><trkpt lat="52.581317" lon="18.001315"></trkpt><trkpt lat="52.592261" lon="18.020995"></trkpt><trkpt lat="52.593053" lon="18.02185"></trkpt><trkpt lat="52.598199" lon="18.026159"></trkpt><trkpt lat="52.599163" lon="18.026275"></trkpt><trkpt lat="52.600876" lon="18.026683"></trkpt><trkpt lat="52.600835" lon="18.027741"></trkpt><trkpt lat="52.600258" lon="18.033576"></trkpt><trkpt lat="52.599821" lon="18.034845"></trkpt><trkpt lat="52.59952" lon="18.036243"></trkpt><trkpt lat="52.599278" lon="18.037895"></trkpt><trkpt lat="52.598279" lon="18.04225"></trkpt><trkpt lat="52.598012" lon="18.043206"></trkpt><trkpt lat="52.597812" lon="18.044214"></trkpt><trkpt lat="52.596424" lon="18.05348"></trkpt><trkpt lat="52.594671" lon="18.075726"></trkpt><trkpt lat="52.594984" lon="18.077096"></trkpt><trkpt lat="52.596689" lon="18.083196"></trkpt><trkpt lat="52.597309" lon="18.084652"></trkpt><trkpt lat="52.597883" lon="18.0863"></trkpt><trkpt lat="52.602503" lon="18.102322"></trkpt><trkpt lat="52.602835" lon="18.103832"></trkpt><trkpt lat="52.606758" lon="18.117492"></trkpt><trkpt lat="52.607159" lon="18.118252"></trkpt><trkpt lat="52.607672" lon="18.119748"></trkpt><trkpt lat="52.609824" lon="18.124805"></trkpt><trkpt lat="52.610494" lon="18.125428"></trkpt><trkpt lat="52.611608" lon="18.126666"></trkpt><trkpt lat="52.611722" lon="18.127022"></trkpt><trkpt lat="52.61196" lon="18.128669"></trkpt><trkpt lat="52.612086" lon="18.128983"></trkpt><trkpt lat="52.612252" lon="18.12925"></trkpt><trkpt lat="52.612482" lon="18.131114"></trkpt><trkpt lat="52.612572" lon="18.131506"></trkpt><trkpt lat="52.612889" lon="18.132368"></trkpt><trkpt lat="52.614058" lon="18.137393"></trkpt><trkpt lat="52.61405" lon="18.139144"></trkpt><trkpt lat="52.614307" lon="18.145378"></trkpt><trkpt lat="52.614527" lon="18.147157"></trkpt><trkpt lat="52.614913" lon="18.152095"></trkpt><trkpt lat="52.615378" lon="18.152779"></trkpt><trkpt lat="52.620714" lon="18.15967"></trkpt></trkseg></trk></gpx>