<?xml version="1.0" encoding="UTF-8" standalone="no" ?><gpx xmlns="http://www.topografix.com/GPX/1/1" xmlns:gpxx="http://www.garmin.com/xmlschemas/GpxExtensions/v3" ><trk><trkseg><trkpt lat="49.507173" lon="21.488123"></trkpt><trkpt lat="49.506796" lon="21.488289"></trkpt><trkpt lat="49.506451" lon="21.488621"></trkpt><trkpt lat="49.505946" lon="21.489319"></trkpt><trkpt lat="49.505569" lon="21.489982"></trkpt><trkpt lat="49.50394" lon="21.492361"></trkpt><trkpt lat="49.503723" lon="21.492615"></trkpt><trkpt lat="49.503931" lon="21.492807"></trkpt><trkpt lat="49.50452" lon="21.493009"></trkpt><trkpt lat="49.506609" lon="21.494268"></trkpt><trkpt lat="49.507071" lon="21.495263"></trkpt><trkpt lat="49.508829" lon="21.498406"></trkpt><trkpt lat="49.509261" lon="21.498848"></trkpt><trkpt lat="49.510897" lon="21.501613"></trkpt><trkpt lat="49.510715" lon="21.501875"></trkpt><trkpt lat="49.510188" lon="21.502868"></trkpt><trkpt lat="49.510086" lon="21.503411"></trkpt><trkpt lat="49.509968" lon="21.504485"></trkpt><trkpt lat="49.510158" lon="21.50529"></trkpt><trkpt lat="49.510234" lon="21.506374"></trkpt><trkpt lat="49.510197" lon="21.507213"></trkpt><trkpt lat="49.510157" lon="21.507651"></trkpt><trkpt lat="49.51009" lon="21.507978"></trkpt><trkpt lat="49.509987" lon="21.508276"></trkpt><trkpt lat="49.509375" lon="21.508958"></trkpt><trkpt lat="49.509081" lon="21.50936"></trkpt><trkpt lat="49.508648" lon="21.510088"></trkpt><trkpt lat="49.508221" lon="21.511002"></trkpt><trkpt lat="49.506883" lon="21.513415"></trkpt><trkpt lat="49.506614" lon="21.514356"></trkpt><trkpt lat="49.506441" lon="21.515347"></trkpt><trkpt lat="49.506477" lon="21.516264"></trkpt><trkpt lat="49.50662" lon="21.517334"></trkpt><trkpt lat="49.506822" lon="21.519885"></trkpt><trkpt lat="49.506686" lon="21.520417"></trkpt><trkpt lat="49.506357" lon="21.521015"></trkpt><trkpt lat="49.506013" lon="21.521232"></trkpt><trkpt lat="49.505509" lon="21.521487"></trkpt><trkpt lat="49.504783" lon="21.521984"></trkpt><trkpt lat="49.503934" lon="21.522739"></trkpt><trkpt lat="49.503687" lon="21.523"></trkpt><trkpt lat="49.503518" lon="21.52326"></trkpt><trkpt lat="49.503114" lon="21.524719"></trkpt><trkpt lat="49.503107" lon="21.525056"></trkpt><trkpt lat="49.503323" lon="21.525924"></trkpt><trkpt lat="49.503633" lon="21.528218"></trkpt><trkpt lat="49.5036" lon="21.529299"></trkpt><trkpt lat="49.50367" lon="21.530157"></trkpt><trkpt lat="49.50364" lon="21.5324"></trkpt><trkpt lat="49.503805" lon="21.534837"></trkpt><trkpt lat="49.504133" lon="21.535772"></trkpt><trkpt lat="49.504588" lon="21.536332"></trkpt><trkpt lat="49.505041" lon="21.537283"></trkpt><trkpt lat="49.505059" lon="21.537643"></trkpt><trkpt lat="49.504892" lon="21.538953"></trkpt><trkpt lat="49.504681" lon="21.539193"></trkpt><trkpt lat="49.504525" lon="21.5394"></trkpt><trkpt lat="49.503188" lon="21.540662"></trkpt><trkpt lat="49.502901" lon="21.540821"></trkpt><trkpt lat="49.50254" lon="21.541231"></trkpt><trkpt lat="49.502115" lon="21.54185"></trkpt><trkpt lat="49.501931" lon="21.542497"></trkpt><trkpt lat="49.501762" lon="21.542992"></trkpt><trkpt lat="49.501147" lon="21.543848"></trkpt><trkpt lat="49.500387" lon="21.545398"></trkpt><trkpt lat="49.500029" lon="21.546457"></trkpt><trkpt lat="49.499319" lon="21.548985"></trkpt><trkpt lat="49.4992" lon="21.549622"></trkpt><trkpt lat="49.498182" lon="21.553845"></trkpt><trkpt lat="49.497798" lon="21.554253"></trkpt><trkpt lat="49.497363" lon="21.554479"></trkpt><trkpt lat="49.496929" lon="21.554954"></trkpt><trkpt lat="49.496643" lon="21.555676"></trkpt><trkpt lat="49.495994" lon="21.55777"></trkpt><trkpt lat="49.496004" lon="21.558259"></trkpt><trkpt lat="49.495956" lon="21.559491"></trkpt><trkpt lat="49.495843" lon="21.56015"></trkpt><trkpt lat="49.49561" lon="21.560768"></trkpt><trkpt lat="49.495354" lon="21.561274"></trkpt><trkpt lat="49.495052" lon="21.561561"></trkpt><trkpt lat="49.494812" lon="21.561885"></trkpt><trkpt lat="49.494804" lon="21.562389"></trkpt><trkpt lat="49.494989" lon="21.566724"></trkpt><trkpt lat="49.495447" lon="21.567126"></trkpt><trkpt lat="49.495944" lon="21.567667"></trkpt><trkpt lat="49.496229" lon="21.568083"></trkpt><trkpt lat="49.496422" lon="21.568514"></trkpt><trkpt lat="49.496523" lon="21.568911"></trkpt><trkpt lat="49.49664" lon="21.569533"></trkpt><trkpt lat="49.496872" lon="21.571267"></trkpt><trkpt lat="49.496881" lon="21.571598"></trkpt><trkpt lat="49.496857" lon="21.572109"></trkpt><trkpt lat="49.496905" lon="21.575476"></trkpt><trkpt lat="49.496995" lon="21.575826"></trkpt><trkpt lat="49.497115" lon="21.57619"></trkpt><trkpt lat="49.49721" lon="21.576549"></trkpt><trkpt lat="49.497482" lon="21.577844"></trkpt><trkpt lat="49.498336" lon="21.58063"></trkpt><trkpt lat="49.498628" lon="21.580974"></trkpt><trkpt lat="49.49884" lon="21.581411"></trkpt><trkpt lat="49.499007" lon="21.581916"></trkpt><trkpt lat="49.499465" lon="21.583595"></trkpt><trkpt lat="49.499474" lon="21.584082"></trkpt><trkpt lat="49.499408" lon="21.58449"></trkpt><trkpt lat="49.49925" lon="21.586118"></trkpt><trkpt lat="49.499264" lon="21.586462"></trkpt><trkpt lat="49.499212" lon="21.588662"></trkpt><trkpt lat="49.499151" lon="21.589137"></trkpt><trkpt lat="49.499044" lon="21.591587"></trkpt><trkpt lat="49.49922" lon="21.592068"></trkpt><trkpt lat="49.499614" lon="21.593361"></trkpt><trkpt lat="49.499734" lon="21.59389"></trkpt><trkpt lat="49.499821" lon="21.594695"></trkpt><trkpt lat="49.499798" lon="21.594998"></trkpt><trkpt lat="49.499648" lon="21.601219"></trkpt><trkpt lat="49.499815" lon="21.601731"></trkpt><trkpt lat="49.499865" lon="21.602028"></trkpt><trkpt lat="49.499913" lon="21.602517"></trkpt><trkpt lat="49.499925" lon="21.602913"></trkpt><trkpt lat="49.499988" lon="21.603405"></trkpt><trkpt lat="49.50016" lon="21.603916"></trkpt><trkpt lat="49.500358" lon="21.60466"></trkpt><trkpt lat="49.500889" lon="21.607295"></trkpt><trkpt lat="49.500875" lon="21.607706"></trkpt><trkpt lat="49.500838" lon="21.608086"></trkpt><trkpt lat="49.500787" lon="21.609589"></trkpt><trkpt lat="49.500912" lon="21.610087"></trkpt><trkpt lat="49.501065" lon="21.611062"></trkpt><trkpt lat="49.500893" lon="21.611475"></trkpt><trkpt lat="49.500716" lon="21.611752"></trkpt><trkpt lat="49.500264" lon="21.612603"></trkpt><trkpt lat="49.500211" lon="21.612928"></trkpt><trkpt lat="49.500293" lon="21.613352"></trkpt><trkpt lat="49.500437" lon="21.613661"></trkpt><trkpt lat="49.500804" lon="21.613838"></trkpt><trkpt lat="49.501215" lon="21.614095"></trkpt><trkpt lat="49.501389" lon="21.614403"></trkpt><trkpt lat="49.501459" lon="21.614848"></trkpt><trkpt lat="49.501448" lon="21.615517"></trkpt><trkpt lat="49.501387" lon="21.61586"></trkpt><trkpt lat="49.501261" lon="21.616184"></trkpt><trkpt lat="49.501084" lon="21.616443"></trkpt><trkpt lat="49.500732" lon="21.616864"></trkpt><trkpt lat="49.5006" lon="21.617098"></trkpt><trkpt lat="49.500513" lon="21.617388"></trkpt><trkpt lat="49.500477" lon="21.61772"></trkpt><trkpt lat="49.500512" lon="21.618077"></trkpt><trkpt lat="49.500692" lon="21.61902"></trkpt><trkpt lat="49.501144" lon="21.62086"></trkpt><trkpt lat="49.501361" lon="21.621095"></trkpt><trkpt lat="49.508747" lon="21.627909"></trkpt><trkpt lat="49.509644" lon="21.628061"></trkpt><trkpt lat="49.510961" lon="21.628462"></trkpt><trkpt lat="49.511082" lon="21.629262"></trkpt><trkpt lat="49.511029" lon="21.629593"></trkpt><trkpt lat="49.510683" lon="21.630566"></trkpt><trkpt lat="49.510494" lon="21.63083"></trkpt><trkpt lat="49.50975" lon="21.631519"></trkpt><trkpt lat="49.505741" lon="21.634651"></trkpt><trkpt lat="49.504841" lon="21.635125"></trkpt><trkpt lat="49.502621" lon="21.636857"></trkpt><trkpt lat="49.501663" lon="21.63815"></trkpt><trkpt lat="49.494851" lon="21.64612"></trkpt><trkpt lat="49.494634" lon="21.646293"></trkpt><trkpt lat="49.493919" lon="21.647061"></trkpt><trkpt lat="49.493321" lon="21.648205"></trkpt><trkpt lat="49.492199" lon="21.650021"></trkpt><trkpt lat="49.491145" lon="21.651132"></trkpt><trkpt lat="49.489189" lon="21.653691"></trkpt><trkpt lat="49.489085" lon="21.654179"></trkpt><trkpt lat="49.489101" lon="21.654987"></trkpt><trkpt lat="49.489058" lon="21.656599"></trkpt><trkpt lat="49.488958" lon="21.657211"></trkpt><trkpt lat="49.488453" lon="21.659077"></trkpt><trkpt lat="49.488279" lon="21.659379"></trkpt><trkpt lat="49.487894" lon="21.660192"></trkpt><trkpt lat="49.486669" lon="21.662295"></trkpt><trkpt lat="49.485946" lon="21.662875"></trkpt><trkpt lat="49.48418" lon="21.664801"></trkpt><trkpt lat="49.483565" lon="21.665205"></trkpt><trkpt lat="49.48209" lon="21.666582"></trkpt><trkpt lat="49.481773" lon="21.667491"></trkpt><trkpt lat="49.479876" lon="21.671254"></trkpt><trkpt lat="49.478973" lon="21.671828"></trkpt><trkpt lat="49.476659" lon="21.67361"></trkpt><trkpt lat="49.476342" lon="21.674352"></trkpt><trkpt lat="49.476213" lon="21.67481"></trkpt><trkpt lat="49.47605" lon="21.675019"></trkpt><trkpt lat="49.475305" lon="21.675672"></trkpt><trkpt lat="49.475128" lon="21.675976"></trkpt><trkpt lat="49.474865" lon="21.676744"></trkpt><trkpt lat="49.474515" lon="21.677572"></trkpt><trkpt lat="49.474142" lon="21.678729"></trkpt><trkpt lat="49.471043" lon="21.686679"></trkpt><trkpt lat="49.470426" lon="21.687585"></trkpt><trkpt lat="49.470331" lon="21.687948"></trkpt><trkpt lat="49.470309" lon="21.688615"></trkpt><trkpt lat="49.470038" lon="21.689766"></trkpt><trkpt lat="49.469922" lon="21.690068"></trkpt><trkpt lat="49.469724" lon="21.690312"></trkpt><trkpt lat="49.468537" lon="21.691116"></trkpt><trkpt lat="49.468387" lon="21.691347"></trkpt><trkpt lat="49.468242" lon="21.692784"></trkpt><trkpt lat="49.467806" lon="21.695627"></trkpt><trkpt lat="49.467455" lon="21.696419"></trkpt><trkpt lat="49.467209" lon="21.696786"></trkpt><trkpt lat="49.467028" lon="21.696632"></trkpt><trkpt lat="49.466596" lon="21.696505"></trkpt><trkpt lat="49.46333" lon="21.696639"></trkpt><trkpt lat="49.463091" lon="21.697928"></trkpt><trkpt lat="49.462925" lon="21.698578"></trkpt><trkpt lat="49.46272" lon="21.698848"></trkpt><trkpt lat="49.462155" lon="21.699117"></trkpt><trkpt lat="49.461705" lon="21.699273"></trkpt><trkpt lat="49.462034" lon="21.699151"></trkpt><trkpt lat="49.462769" lon="21.698791"></trkpt><trkpt lat="49.46302" lon="21.698369"></trkpt><trkpt lat="49.463097" lon="21.69788"></trkpt><trkpt lat="49.463597" lon="21.695896"></trkpt><trkpt lat="49.463806" lon="21.69611"></trkpt><trkpt lat="49.463427" lon="21.696507"></trkpt><trkpt lat="49.463202" lon="21.697391"></trkpt><trkpt lat="49.463047" lon="21.69823"></trkpt><trkpt lat="49.462955" lon="21.698538"></trkpt><trkpt lat="49.462751" lon="21.698822"></trkpt><trkpt lat="49.462218" lon="21.699105"></trkpt><trkpt lat="49.461621" lon="21.699312"></trkpt><trkpt lat="49.457489" lon="21.70136"></trkpt><trkpt lat="49.457095" lon="21.701898"></trkpt><trkpt lat="49.45625" lon="21.702855"></trkpt><trkpt lat="49.45579" lon="21.703036"></trkpt><trkpt lat="49.444874" lon="21.708689"></trkpt><trkpt lat="49.4444" lon="21.709293"></trkpt><trkpt lat="49.442475" lon="21.711301"></trkpt><trkpt lat="49.442055" lon="21.711325"></trkpt><trkpt lat="49.441617" lon="21.711184"></trkpt><trkpt lat="49.438409" lon="21.710996"></trkpt><trkpt lat="49.437889" lon="21.711398"></trkpt><trkpt lat="49.437274" lon="21.711973"></trkpt><trkpt lat="49.437427" lon="21.712331"></trkpt><trkpt lat="49.437615" lon="21.712209"></trkpt><trkpt lat="49.437613" lon="21.711623"></trkpt><trkpt lat="49.437498" lon="21.712322"></trkpt><trkpt lat="49.437289" lon="21.712039"></trkpt><trkpt lat="49.436868" lon="21.712189"></trkpt><trkpt lat="49.436592" lon="21.712415"></trkpt><trkpt lat="49.432742" lon="21.715048"></trkpt><trkpt lat="49.432492" lon="21.715028"></trkpt><trkpt lat="49.426315" lon="21.716278"></trkpt><trkpt lat="49.426052" lon="21.716731"></trkpt><trkpt lat="49.422736" lon="21.723319"></trkpt><trkpt lat="49.422663" lon="21.722908"></trkpt><trkpt lat="49.422704" lon="21.722559"></trkpt><trkpt lat="49.422785" lon="21.722259"></trkpt><trkpt lat="49.423052" lon="21.721612"></trkpt><trkpt lat="49.423691" lon="21.720567"></trkpt><trkpt lat="49.427326" lon="21.715578"></trkpt><trkpt lat="49.428151" lon="21.715454"></trkpt><trkpt lat="49.435242" lon="21.713486"></trkpt><trkpt lat="49.435879" lon="21.712997"></trkpt><trkpt lat="49.440686" lon="21.71083"></trkpt><trkpt lat="49.442327" lon="21.711325"></trkpt><trkpt lat="49.443017" lon="21.711025"></trkpt><trkpt lat="49.443575" lon="21.710333"></trkpt><trkpt lat="49.44764" lon="21.706462"></trkpt><trkpt lat="49.448542" lon="21.706071"></trkpt><trkpt lat="49.458317" lon="21.700513"></trkpt><trkpt lat="49.458933" lon="21.70028"></trkpt><trkpt lat="49.463015" lon="21.698254"></trkpt><trkpt lat="49.463234" lon="21.69716"></trkpt><trkpt lat="49.463933" lon="21.695598"></trkpt><trkpt lat="49.46427" lon="21.695807"></trkpt><trkpt lat="49.46448" lon="21.695713"></trkpt><trkpt lat="49.468183" lon="21.698084"></trkpt><trkpt lat="49.468322" lon="21.698473"></trkpt><trkpt lat="49.468446" lon="21.69893"></trkpt><trkpt lat="49.469313" lon="21.701564"></trkpt><trkpt lat="49.469586" lon="21.702181"></trkpt><trkpt lat="49.472527" lon="21.707482"></trkpt><trkpt lat="49.473459" lon="21.708112"></trkpt><trkpt lat="49.474395" lon="21.708454"></trkpt><trkpt lat="49.475042" lon="21.708431"></trkpt><trkpt lat="49.475433" lon="21.708347"></trkpt><trkpt lat="49.475548" lon="21.708653"></trkpt><trkpt lat="49.475234" lon="21.709746"></trkpt><trkpt lat="49.474037" lon="21.71307"></trkpt><trkpt lat="49.473895" lon="21.713297"></trkpt><trkpt lat="49.471001" lon="21.718793"></trkpt><trkpt lat="49.470945" lon="21.719144"></trkpt><trkpt lat="49.470502" lon="21.721124"></trkpt><trkpt lat="49.470156" lon="21.721729"></trkpt><trkpt lat="49.469633" lon="21.722389"></trkpt><trkpt lat="49.468303" lon="21.724433"></trkpt><trkpt lat="49.468255" lon="21.724856"></trkpt><trkpt lat="49.468223" lon="21.725446"></trkpt><trkpt lat="49.46813" lon="21.726354"></trkpt><trkpt lat="49.468004" lon="21.726729"></trkpt><trkpt lat="49.467658" lon="21.727498"></trkpt><trkpt lat="49.463676" lon="21.734425"></trkpt><trkpt lat="49.463117" lon="21.734599"></trkpt><trkpt lat="49.462576" lon="21.734845"></trkpt><trkpt lat="49.462197" lon="21.735295"></trkpt><trkpt lat="49.461899" lon="21.736201"></trkpt><trkpt lat="49.46165" lon="21.73728"></trkpt><trkpt lat="49.461593" lon="21.73796"></trkpt><trkpt lat="49.461461" lon="21.738953"></trkpt><trkpt lat="49.461555" lon="21.739413"></trkpt><trkpt lat="49.461553" lon="21.739994"></trkpt><trkpt lat="49.461614" lon="21.740535"></trkpt><trkpt lat="49.461801" lon="21.743512"></trkpt><trkpt lat="49.461666" lon="21.744153"></trkpt><trkpt lat="49.461373" lon="21.746693"></trkpt><trkpt lat="49.461381" lon="21.748133"></trkpt><trkpt lat="49.461461" lon="21.749078"></trkpt><trkpt lat="49.461477" lon="21.750102"></trkpt><trkpt lat="49.461413" lon="21.75095"></trkpt><trkpt lat="49.461245" lon="21.752215"></trkpt><trkpt lat="49.461052" lon="21.753094"></trkpt><trkpt lat="49.455256" lon="21.775612"></trkpt><trkpt lat="49.455117" lon="21.776523"></trkpt><trkpt lat="49.455054" lon="21.777233"></trkpt><trkpt lat="49.454994" lon="21.778703"></trkpt><trkpt lat="49.45444" lon="21.783331"></trkpt><trkpt lat="49.454238" lon="21.783931"></trkpt><trkpt lat="49.453897" lon="21.78455"></trkpt><trkpt lat="49.453645" lon="21.784784"></trkpt><trkpt lat="49.453455" lon="21.784897"></trkpt><trkpt lat="49.452623" lon="21.785109"></trkpt><trkpt lat="49.451881" lon="21.785449"></trkpt><trkpt lat="49.451368" lon="21.786176"></trkpt><trkpt lat="49.450893" lon="21.787204"></trkpt><trkpt lat="49.450339" lon="21.788211"></trkpt><trkpt lat="49.449654" lon="21.789696"></trkpt><trkpt lat="49.44768" lon="21.794746"></trkpt><trkpt lat="49.447555" lon="21.795165"></trkpt><trkpt lat="49.446689" lon="21.797496"></trkpt><trkpt lat="49.446392" lon="21.798133"></trkpt><trkpt lat="49.445901" lon="21.79864"></trkpt><trkpt lat="49.445584" lon="21.798543"></trkpt><trkpt lat="49.445206" lon="21.798281"></trkpt><trkpt lat="49.444375" lon="21.797898"></trkpt><trkpt lat="49.443986" lon="21.798216"></trkpt><trkpt lat="49.443819" lon="21.798509"></trkpt><trkpt lat="49.443728" lon="21.798815"></trkpt><trkpt lat="49.443597" lon="21.799179"></trkpt><trkpt lat="49.44311" lon="21.800322"></trkpt><trkpt lat="49.442709" lon="21.801027"></trkpt><trkpt lat="49.44253" lon="21.801216"></trkpt><trkpt lat="49.442331" lon="21.801487"></trkpt><trkpt lat="49.441613" lon="21.802685"></trkpt><trkpt lat="49.441566" lon="21.803056"></trkpt></trkseg></trk></gpx>