<?xml version="1.0" encoding="UTF-8" standalone="no" ?><gpx xmlns="http://www.topografix.com/GPX/1/1" xmlns:gpxx="http://www.garmin.com/xmlschemas/GpxExtensions/v3" ><trk><trkseg><trkpt lat="53.3612124436" lon="18.0898415297"></trkpt><trkpt lat="53.3613324724" lon="18.090274455"></trkpt><trkpt lat="53.3609759063" lon="18.0902842619"></trkpt><trkpt lat="53.3606482577" lon="18.0903765466"></trkpt><trkpt lat="53.3573213965" lon="18.0886248127"></trkpt><trkpt lat="53.3572508208" lon="18.0879105069"></trkpt><trkpt lat="53.3569204062" lon="18.0799707491"></trkpt><trkpt lat="53.3571727853" lon="18.0801787879"></trkpt><trkpt lat="53.3572916407" lon="18.0805902556"></trkpt><trkpt lat="53.357727332" lon="18.0810784176"></trkpt><trkpt lat="53.3588339109" lon="18.0818542466"></trkpt><trkpt lat="53.3593051415" lon="18.0821053684"></trkpt><trkpt lat="53.3600449283" lon="18.082056921"></trkpt><trkpt lat="53.3727174439" lon="18.0791284516"></trkpt><trkpt lat="53.3732854854" lon="18.0788983684"></trkpt><trkpt lat="53.3739271201" lon="18.0787366815"></trkpt><trkpt lat="53.3744893782" lon="18.0786934309"></trkpt><trkpt lat="53.3778606635" lon="18.0778312683"></trkpt><trkpt lat="53.3786567766" lon="18.0773237441"></trkpt><trkpt lat="53.3812560048" lon="18.075162638"></trkpt><trkpt lat="53.3833157737" lon="18.0741367768"></trkpt><trkpt lat="53.3842996415" lon="18.0741245393"></trkpt><trkpt lat="53.4018587228" lon="18.07701068"></trkpt><trkpt lat="53.4026037063" lon="18.0774361454"></trkpt><trkpt lat="53.4067929816" lon="18.0811535195"></trkpt><trkpt lat="53.4064334817" lon="18.0819780473"></trkpt><trkpt lat="53.4055557288" lon="18.0846362002"></trkpt><trkpt lat="53.4052827302" lon="18.0857782345"></trkpt><trkpt lat="53.4036634304" lon="18.0947721004"></trkpt><trkpt lat="53.4035822935" lon="18.0955235381"></trkpt><trkpt lat="53.4022531752" lon="18.1032590289"></trkpt><trkpt lat="53.4021009598" lon="18.1036436744"></trkpt><trkpt lat="53.4014512785" lon="18.104978241"></trkpt><trkpt lat="53.3984202147" lon="18.1127450801"></trkpt><trkpt lat="53.3982031234" lon="18.1137913093"></trkpt><trkpt lat="53.3953255322" lon="18.1331271864"></trkpt><trkpt lat="53.3953484986" lon="18.1348926667"></trkpt><trkpt lat="53.3952424675" lon="18.1360716652"></trkpt><trkpt lat="53.395021772" lon="18.1371701136"></trkpt><trkpt lat="53.3906515315" lon="18.1537059322"></trkpt><trkpt lat="53.3902619407" lon="18.1539247837"></trkpt><trkpt lat="53.3862523735" lon="18.1568737887"></trkpt><trkpt lat="53.3863097057" lon="18.1574867573"></trkpt><trkpt lat="53.3873825893" lon="18.1891809124"></trkpt><trkpt lat="53.3872259315" lon="18.1901667919"></trkpt><trkpt lat="53.3873177134" lon="18.190882355"></trkpt><trkpt lat="53.3877425082" lon="18.1911899708"></trkpt><trkpt lat="53.3941120002" lon="18.1973136216"></trkpt><trkpt lat="53.3941708412" lon="18.1980302744"></trkpt><trkpt lat="53.3944343682" lon="18.1988475099"></trkpt><trkpt lat="53.3947227895" lon="18.1995362509"></trkpt><trkpt lat="53.4067957476" lon="18.2225763425"></trkpt><trkpt lat="53.4076651186" lon="18.2231270336"></trkpt><trkpt lat="53.4319925029" lon="18.2431209739"></trkpt><trkpt lat="53.4316707216" lon="18.243893031"></trkpt><trkpt lat="53.4312315099" lon="18.2446348295"></trkpt><trkpt lat="53.4292964637" lon="18.2485838793"></trkpt><trkpt lat="53.4296503477" lon="18.2493971754"></trkpt><trkpt lat="53.4311704058" lon="18.2539726049"></trkpt><trkpt lat="53.4312721621" lon="18.2550551277"></trkpt><trkpt lat="53.431515405" lon="18.2611879148"></trkpt><trkpt lat="53.4314931091" lon="18.2625208888"></trkpt><trkpt lat="53.4316313267" lon="18.2664054818"></trkpt><trkpt lat="53.4327983391" lon="18.2768006343"></trkpt><trkpt lat="53.4331028536" lon="18.277066173"></trkpt><trkpt lat="53.4355768561" lon="18.279826669"></trkpt><trkpt lat="53.4361543693" lon="18.2806860656"></trkpt><trkpt lat="53.4467968717" lon="18.2938815281"></trkpt><trkpt lat="53.4473550227" lon="18.2940970268"></trkpt><trkpt lat="53.4480902832" lon="18.2945296168"></trkpt><trkpt lat="53.4484792035" lon="18.2948921341"></trkpt><trkpt lat="53.45304952" lon="18.2980193384"></trkpt><trkpt lat="53.4536323138" lon="18.2981052529"></trkpt><trkpt lat="53.4741243906" lon="18.2980980445"></trkpt><trkpt lat="53.4790167399" lon="18.2989153638"></trkpt><trkpt lat="53.4793356713" lon="18.2992058806"></trkpt><trkpt lat="53.4800866898" lon="18.3000579011"></trkpt><trkpt lat="53.4805082995" lon="18.3006762341"></trkpt><trkpt lat="53.4810409695" lon="18.301213095"></trkpt><trkpt lat="53.4819144476" lon="18.3018727507"></trkpt><trkpt lat="53.4826134983" lon="18.3020591643"></trkpt><trkpt lat="53.5108265653" lon="18.3140036277"></trkpt><trkpt lat="53.5115671903" lon="18.3147041872"></trkpt><trkpt lat="53.5135797691" lon="18.3171622641"></trkpt><trkpt lat="53.5134989675" lon="18.3176147193"></trkpt><trkpt lat="53.5138023924" lon="18.3177702874"></trkpt><trkpt lat="53.5142834298" lon="18.3184280153"></trkpt><trkpt lat="53.5169333685" lon="18.3213952091"></trkpt><trkpt lat="53.5175976343" lon="18.3220006339"></trkpt><trkpt lat="53.5417610686" lon="18.3465088159"></trkpt><trkpt lat="53.5421852767" lon="18.3468360454"></trkpt><trkpt lat="53.5423883703" lon="18.3471540548"></trkpt><trkpt lat="53.542870665" lon="18.3476407081"></trkpt><trkpt lat="53.5485033877" lon="18.3545237593"></trkpt><trkpt lat="53.5545885656" lon="18.3603545465"></trkpt><trkpt lat="53.5549920704" lon="18.3604257088"></trkpt><trkpt lat="53.5569189023" lon="18.3612767234"></trkpt><trkpt lat="53.5574642289" lon="18.361665979"></trkpt><trkpt lat="53.5587754101" lon="18.3623408061"></trkpt><trkpt lat="53.5590747278" lon="18.3625506051"></trkpt><trkpt lat="53.5596629698" lon="18.3624687139"></trkpt><trkpt lat="53.5600228887" lon="18.3625979628"></trkpt><trkpt lat="53.5648997314" lon="18.3635742031"></trkpt><trkpt lat="53.573181387" lon="18.3606417105"></trkpt><trkpt lat="53.574095685" lon="18.3601071965"></trkpt><trkpt lat="53.6005851813" lon="18.3408029191"></trkpt><trkpt lat="53.6012039334" lon="18.3393439651"></trkpt><trkpt lat="53.6061055027" lon="18.3237456623"></trkpt><trkpt lat="53.6060593184" lon="18.3220211696"></trkpt><trkpt lat="53.6061153095" lon="18.3207613695"></trkpt><trkpt lat="53.606250342" lon="18.3197330777"></trkpt><trkpt lat="53.6064803414" lon="18.3185123373"></trkpt><trkpt lat="53.6167571414" lon="18.2735723443"></trkpt><trkpt lat="53.6170620751" lon="18.2726768218"></trkpt><trkpt lat="53.6170902383" lon="18.2732273452"></trkpt><trkpt lat="53.6172570381" lon="18.2726323977"></trkpt><trkpt lat="53.6171341594" lon="18.271852294"></trkpt><trkpt lat="53.6170937587" lon="18.2712657284"></trkpt><trkpt lat="53.6171184853" lon="18.270732807"></trkpt><trkpt lat="53.6175902188" lon="18.2703263685"></trkpt><trkpt lat="53.6181745213" lon="18.2696798723"></trkpt><trkpt lat="53.6184284091" lon="18.2691759523"></trkpt><trkpt lat="53.6280815117" lon="18.2454421744"></trkpt><trkpt lat="53.6281655822" lon="18.2441069372"></trkpt><trkpt lat="53.6281661689" lon="18.2432720158"></trkpt><trkpt lat="53.6280956771" lon="18.2421162352"></trkpt><trkpt lat="53.6284388322" lon="18.2403651718"></trkpt><trkpt lat="53.6288462766" lon="18.2393505424"></trkpt><trkpt lat="53.6295307428" lon="18.2382763177"></trkpt><trkpt lat="53.6341942661" lon="18.2323393319"></trkpt><trkpt lat="53.6349662393" lon="18.2317636628"></trkpt><trkpt lat="53.6397122405" lon="18.2272838708"></trkpt><trkpt lat="53.6392927263" lon="18.2262243144"></trkpt><trkpt lat="53.6390188895" lon="18.2257343084"></trkpt><trkpt lat="53.6387561169" lon="18.2250013947"></trkpt><trkpt lat="53.6386842001" lon="18.2244450878"></trkpt><trkpt lat="53.6385572981" lon="18.2240317762"></trkpt><trkpt lat="53.6381861474" lon="18.2233113516"></trkpt><trkpt lat="53.6379404739" lon="18.222632166"></trkpt><trkpt lat="53.6377870012" lon="18.2220771164"></trkpt><trkpt lat="53.6377460137" lon="18.2215236593"></trkpt><trkpt lat="53.6379118916" lon="18.2206563838"></trkpt><trkpt lat="53.6381683778" lon="18.2187508419"></trkpt><trkpt lat="53.6385626625" lon="18.2176230568"></trkpt><trkpt lat="53.6388002895" lon="18.2165944297"></trkpt><trkpt lat="53.6391778104" lon="18.215468321"></trkpt><trkpt lat="53.6396816466" lon="18.2149430271"></trkpt><trkpt lat="53.6432023812" lon="18.2122500055"></trkpt><trkpt lat="53.644083906" lon="18.2118970435"></trkpt><trkpt lat="53.6448562145" lon="18.211435033"></trkpt><trkpt lat="53.6456037126" lon="18.2108487189"></trkpt><trkpt lat="53.6463008355" lon="18.2100915816"></trkpt><trkpt lat="53.6468521133" lon="18.2093482744"></trkpt><trkpt lat="53.6471511796" lon="18.2083506603"></trkpt><trkpt lat="53.6476620566" lon="18.2071611844"></trkpt><trkpt lat="53.6494796723" lon="18.2037089299"></trkpt><trkpt lat="53.6498208996" lon="18.2032255456"></trkpt><trkpt lat="53.6515505053" lon="18.201276334"></trkpt><trkpt lat="53.6520527489" lon="18.2008538023"></trkpt><trkpt lat="53.6575685441" lon="18.1973148789"></trkpt><trkpt lat="53.6581028905" lon="18.1971615739"></trkpt><trkpt lat="53.6617514491" lon="18.1955031306"></trkpt><trkpt lat="53.6676741019" lon="18.1938684918"></trkpt><trkpt lat="53.6683754157" lon="18.1938710902"></trkpt><trkpt lat="53.6971169617" lon="18.1898470223"></trkpt><trkpt lat="53.6980665475" lon="18.1891530007"></trkpt><trkpt lat="53.6992621422" lon="18.1880254671"></trkpt><trkpt lat="53.6994906329" lon="18.1876228005"></trkpt><trkpt lat="53.7018912937" lon="18.1840748247"></trkpt><trkpt lat="53.7023888435" lon="18.1830795575"></trkpt><trkpt lat="53.7025990617" lon="18.1827456225"></trkpt><trkpt lat="53.702964345" lon="18.1822960172"></trkpt><trkpt lat="53.7034748029" lon="18.1813536398"></trkpt><trkpt lat="53.7084147613" lon="18.1737116072"></trkpt><trkpt lat="53.7086820602" lon="18.1735681091"></trkpt><trkpt lat="53.7088384666" lon="18.1731867325"></trkpt><trkpt lat="53.7092229445" lon="18.1731559709"></trkpt><trkpt lat="53.7092128024" lon="18.1726839021"></trkpt><trkpt lat="53.7093816977" lon="18.1722580176"></trkpt><trkpt lat="53.7160629127" lon="18.1583086867"></trkpt><trkpt lat="53.7164440379" lon="18.1576471031"></trkpt><trkpt lat="53.7208585348" lon="18.1512883399"></trkpt><trkpt lat="53.7216823082" lon="18.1503857765"></trkpt><trkpt lat="53.7415525317" lon="18.1233414821"></trkpt><trkpt lat="53.7420227565" lon="18.1214889977"></trkpt><trkpt lat="53.7523048371" lon="18.0891066883"></trkpt><trkpt lat="53.7547966931" lon="18.0788602307"></trkpt><trkpt lat="53.7544937711" lon="18.0781755131"></trkpt><trkpt lat="53.7542649452" lon="18.0778056197"></trkpt><trkpt lat="53.7536244839" lon="18.076365022"></trkpt><trkpt lat="53.7505478226" lon="18.0679552071"></trkpt><trkpt lat="53.7502786797" lon="18.0669897795"></trkpt><trkpt lat="53.7501755822" lon="18.0663431156"></trkpt><trkpt lat="53.7495992426" lon="18.0638054106"></trkpt><trkpt lat="53.7490314525" lon="18.0631532148"></trkpt><trkpt lat="53.7485857029" lon="18.0628275778"></trkpt><trkpt lat="53.7445603777" lon="18.0605756957"></trkpt><trkpt lat="53.7442484032" lon="18.0605167709"></trkpt><trkpt lat="53.7443747185" lon="18.0601045489"></trkpt><trkpt lat="53.744657943" lon="18.059495436"></trkpt><trkpt lat="53.7447564304" lon="18.0590304919"></trkpt><trkpt lat="53.7447363138" lon="18.0581405852"></trkpt><trkpt lat="53.7446629722" lon="18.0573186558"></trkpt><trkpt lat="53.7446624693" lon="18.0562788807"></trkpt><trkpt lat="53.7445729505" lon="18.0556231644"></trkpt><trkpt lat="53.7444934063" lon="18.0543597601"></trkpt><trkpt lat="53.7436883245" lon="18.0484615825"></trkpt><trkpt lat="53.7436936889" lon="18.0478538945"></trkpt><trkpt lat="53.7437794358" lon="18.0468658358"></trkpt><trkpt lat="53.7437908351" lon="18.0463930964"></trkpt><trkpt lat="53.7437669467" lon="18.0457037687"></trkpt><trkpt lat="53.7439003028" lon="18.0391688179"></trkpt><trkpt lat="53.7439768296" lon="18.0386777222"></trkpt><trkpt lat="53.744166512" lon="18.0353768449"></trkpt><trkpt lat="53.7439480796" lon="18.0347650498"></trkpt><trkpt lat="53.7435438205" lon="18.033947479"></trkpt><trkpt lat="53.743987726" lon="18.0337011348"></trkpt><trkpt lat="53.7503254507" lon="18.0314529408"></trkpt></trkseg></trk></gpx>