<?xml version="1.0" encoding="UTF-8" standalone="no" ?><gpx xmlns="http://www.topografix.com/GPX/1/1" xmlns:gpxx="http://www.garmin.com/xmlschemas/GpxExtensions/v3" ><trk><trkseg><trkpt lat="52.809147" lon="17.202141"></trkpt><trkpt lat="52.809102" lon="17.201766"></trkpt><trkpt lat="52.80902" lon="17.201437"></trkpt><trkpt lat="52.808705" lon="17.201273"></trkpt><trkpt lat="52.808504" lon="17.201313"></trkpt><trkpt lat="52.808426" lon="17.201724"></trkpt><trkpt lat="52.808377" lon="17.202386"></trkpt><trkpt lat="52.808308" lon="17.20295"></trkpt><trkpt lat="52.808169" lon="17.204898"></trkpt><trkpt lat="52.808179" lon="17.20536"></trkpt><trkpt lat="52.808601" lon="17.211215"></trkpt><trkpt lat="52.808819" lon="17.211251"></trkpt><trkpt lat="52.809058" lon="17.211254"></trkpt><trkpt lat="52.80927" lon="17.211282"></trkpt><trkpt lat="52.812262" lon="17.212221"></trkpt><trkpt lat="52.812416" lon="17.212528"></trkpt><trkpt lat="52.81262" lon="17.212522"></trkpt><trkpt lat="52.812985" lon="17.213044"></trkpt><trkpt lat="52.813151" lon="17.213407"></trkpt><trkpt lat="52.81345" lon="17.213889"></trkpt><trkpt lat="52.815227" lon="17.216325"></trkpt><trkpt lat="52.815332" lon="17.216606"></trkpt><trkpt lat="52.815315" lon="17.217008"></trkpt><trkpt lat="52.815498" lon="17.217352"></trkpt><trkpt lat="52.815907" lon="17.218014"></trkpt><trkpt lat="52.839754" lon="17.251343"></trkpt><trkpt lat="52.840241" lon="17.251727"></trkpt><trkpt lat="52.845218" lon="17.256465"></trkpt><trkpt lat="52.845603" lon="17.257057"></trkpt><trkpt lat="52.868508" lon="17.287126"></trkpt><trkpt lat="52.868963" lon="17.286971"></trkpt><trkpt lat="52.88791" lon="17.278194"></trkpt><trkpt lat="52.888561" lon="17.277618"></trkpt><trkpt lat="52.90036" lon="17.268999"></trkpt><trkpt lat="52.900638" lon="17.269262"></trkpt><trkpt lat="52.917637" lon="17.288076"></trkpt><trkpt lat="52.918099" lon="17.2887"></trkpt><trkpt lat="52.9249" lon="17.296514"></trkpt><trkpt lat="52.925309" lon="17.296369"></trkpt><trkpt lat="52.927203" lon="17.295963"></trkpt><trkpt lat="52.944874" lon="17.302077"></trkpt><trkpt lat="52.944996" lon="17.302492"></trkpt><trkpt lat="52.945128" lon="17.302807"></trkpt><trkpt lat="52.945288" lon="17.303088"></trkpt><trkpt lat="52.945704" lon="17.303961"></trkpt><trkpt lat="52.945864" lon="17.304886"></trkpt><trkpt lat="52.946179" lon="17.307556"></trkpt><trkpt lat="52.946957" lon="17.312317"></trkpt><trkpt lat="52.947753" lon="17.315873"></trkpt><trkpt lat="52.94814" lon="17.316313"></trkpt><trkpt lat="52.948457" lon="17.316592"></trkpt><trkpt lat="52.951217" lon="17.319644"></trkpt><trkpt lat="52.951338" lon="17.319929"></trkpt><trkpt lat="52.957111" lon="17.330681"></trkpt><trkpt lat="52.957721" lon="17.330769"></trkpt><trkpt lat="52.959684" lon="17.33153"></trkpt><trkpt lat="52.960053" lon="17.331949"></trkpt><trkpt lat="52.960352" lon="17.332363"></trkpt><trkpt lat="52.960419" lon="17.332794"></trkpt><trkpt lat="52.960351" lon="17.333403"></trkpt><trkpt lat="52.960264" lon="17.334931"></trkpt><trkpt lat="52.960407" lon="17.335689"></trkpt><trkpt lat="52.960568" lon="17.3362"></trkpt><trkpt lat="52.96082" lon="17.336586"></trkpt><trkpt lat="52.96126" lon="17.337129"></trkpt><trkpt lat="52.964279" lon="17.339713"></trkpt><trkpt lat="52.96458" lon="17.339517"></trkpt><trkpt lat="52.969134" lon="17.337159"></trkpt><trkpt lat="52.973395" lon="17.335596"></trkpt><trkpt lat="52.982431" lon="17.34011"></trkpt><trkpt lat="52.982637" lon="17.340484"></trkpt><trkpt lat="52.98429" lon="17.344419"></trkpt><trkpt lat="52.984095" lon="17.345118"></trkpt><trkpt lat="52.982846" lon="17.348517"></trkpt><trkpt lat="52.982558" lon="17.348873"></trkpt><trkpt lat="52.982669" lon="17.349403"></trkpt><trkpt lat="52.98282" lon="17.349788"></trkpt><trkpt lat="52.985961" lon="17.359238"></trkpt><trkpt lat="52.986067" lon="17.360191"></trkpt><trkpt lat="52.988984" lon="17.378881"></trkpt><trkpt lat="52.989062" lon="17.379262"></trkpt><trkpt lat="52.992406" lon="17.391777"></trkpt><trkpt lat="52.992577" lon="17.392152"></trkpt><trkpt lat="52.992643" lon="17.392596"></trkpt><trkpt lat="52.992581" lon="17.392924"></trkpt><trkpt lat="52.992342" lon="17.393874"></trkpt><trkpt lat="52.991673" lon="17.397651"></trkpt><trkpt lat="52.991648" lon="17.397984"></trkpt><trkpt lat="52.990209" lon="17.442682"></trkpt><trkpt lat="52.990249" lon="17.443493"></trkpt><trkpt lat="52.992461" lon="17.504272"></trkpt><trkpt lat="52.992404" lon="17.504725"></trkpt><trkpt lat="52.988253" lon="17.555219"></trkpt><trkpt lat="52.988307" lon="17.556174"></trkpt><trkpt lat="52.988992" lon="17.605469"></trkpt><trkpt lat="52.988928" lon="17.60666"></trkpt><trkpt lat="52.988583" lon="17.609886"></trkpt><trkpt lat="52.988381" lon="17.610038"></trkpt><trkpt lat="52.988141" lon="17.610052"></trkpt><trkpt lat="52.980449" lon="17.611596"></trkpt><trkpt lat="52.980187" lon="17.612375"></trkpt><trkpt lat="52.978979" lon="17.615437"></trkpt><trkpt lat="52.978532" lon="17.61618"></trkpt><trkpt lat="52.978328" lon="17.616453"></trkpt><trkpt lat="52.974681" lon="17.620559"></trkpt><trkpt lat="52.974224" lon="17.620968"></trkpt><trkpt lat="52.967268" lon="17.625893"></trkpt><trkpt lat="52.966899" lon="17.625693"></trkpt><trkpt lat="52.96393" lon="17.624485"></trkpt><trkpt lat="52.962577" lon="17.624866"></trkpt><trkpt lat="52.961215" lon="17.625066"></trkpt><trkpt lat="52.959549" lon="17.62561"></trkpt><trkpt lat="52.959637" lon="17.626126"></trkpt><trkpt lat="52.960103" lon="17.630226"></trkpt><trkpt lat="52.960127" lon="17.630772"></trkpt><trkpt lat="52.959935" lon="17.638861"></trkpt><trkpt lat="52.959696" lon="17.63953"></trkpt><trkpt lat="52.957474" lon="17.646901"></trkpt><trkpt lat="52.957312" lon="17.648089"></trkpt><trkpt lat="52.95582" lon="17.656121"></trkpt><trkpt lat="52.955563" lon="17.656649"></trkpt><trkpt lat="52.95514" lon="17.657208"></trkpt><trkpt lat="52.953297" lon="17.660249"></trkpt><trkpt lat="52.953689" lon="17.660402"></trkpt><trkpt lat="52.964878" lon="17.666187"></trkpt><trkpt lat="52.964894" lon="17.666773"></trkpt><trkpt lat="52.96488" lon="17.667132"></trkpt><trkpt lat="52.964882" lon="17.66771"></trkpt><trkpt lat="52.964842" lon="17.668575"></trkpt><trkpt lat="52.964769" lon="17.668937"></trkpt><trkpt lat="52.964573" lon="17.670293"></trkpt><trkpt lat="52.964518" lon="17.670938"></trkpt><trkpt lat="52.963912" lon="17.675623"></trkpt><trkpt lat="52.962618" lon="17.690761"></trkpt><trkpt lat="52.961424" lon="17.699648"></trkpt><trkpt lat="52.961279" lon="17.700227"></trkpt><trkpt lat="52.960876" lon="17.701497"></trkpt><trkpt lat="52.960531" lon="17.702408"></trkpt><trkpt lat="52.946973" lon="17.732997"></trkpt><trkpt lat="52.946463" lon="17.732662"></trkpt><trkpt lat="52.944626" lon="17.731187"></trkpt><trkpt lat="52.944406" lon="17.730964"></trkpt><trkpt lat="52.944102" lon="17.730844"></trkpt><trkpt lat="52.943958" lon="17.731238"></trkpt><trkpt lat="52.944195" lon="17.730817"></trkpt><trkpt lat="52.944392" lon="17.730964"></trkpt><trkpt lat="52.944643" lon="17.731283"></trkpt><trkpt lat="52.944837" lon="17.731483"></trkpt><trkpt lat="52.944622" lon="17.731201"></trkpt><trkpt lat="52.944266" lon="17.7308"></trkpt><trkpt lat="52.944058" lon="17.730895"></trkpt><trkpt lat="52.943925" lon="17.731273"></trkpt><trkpt lat="52.942925" lon="17.733413"></trkpt><trkpt lat="52.942561" lon="17.734391"></trkpt><trkpt lat="52.942344" lon="17.734794"></trkpt><trkpt lat="52.942034" lon="17.73522"></trkpt><trkpt lat="52.939808" lon="17.738903"></trkpt><trkpt lat="52.939672" lon="17.739676"></trkpt><trkpt lat="52.939353" lon="17.740927"></trkpt><trkpt lat="52.939083" lon="17.741305"></trkpt><trkpt lat="52.938392" lon="17.742471"></trkpt><trkpt lat="52.938302" lon="17.742976"></trkpt><trkpt lat="52.938289" lon="17.743554"></trkpt><trkpt lat="52.938636" lon="17.760936"></trkpt><trkpt lat="52.938441" lon="17.766324"></trkpt><trkpt lat="52.93814" lon="17.766538"></trkpt><trkpt lat="52.937669" lon="17.76694"></trkpt><trkpt lat="52.936019" lon="17.768101"></trkpt><trkpt lat="52.935707" lon="17.768255"></trkpt><trkpt lat="52.935361" lon="17.768506"></trkpt><trkpt lat="52.93522" lon="17.768762"></trkpt><trkpt lat="52.935118" lon="17.769102"></trkpt><trkpt lat="52.935065" lon="17.769433"></trkpt><trkpt lat="52.935086" lon="17.769878"></trkpt><trkpt lat="52.934978" lon="17.770515"></trkpt><trkpt lat="52.934456" lon="17.770928"></trkpt><trkpt lat="52.933731" lon="17.771628"></trkpt><trkpt lat="52.933828" lon="17.771982"></trkpt><trkpt lat="52.933934" lon="17.77226"></trkpt><trkpt lat="52.934098" lon="17.772774"></trkpt><trkpt lat="52.934169" lon="17.773163"></trkpt><trkpt lat="52.934161" lon="17.773568"></trkpt><trkpt lat="52.934086" lon="17.774523"></trkpt><trkpt lat="52.933911" lon="17.775106"></trkpt><trkpt lat="52.933477" lon="17.77697"></trkpt><trkpt lat="52.933485" lon="17.777624"></trkpt><trkpt lat="52.933547" lon="17.778264"></trkpt><trkpt lat="52.933822" lon="17.783501"></trkpt><trkpt lat="52.933794" lon="17.783854"></trkpt><trkpt lat="52.933342" lon="17.787131"></trkpt><trkpt lat="52.933195" lon="17.787591"></trkpt><trkpt lat="52.932833" lon="17.788973"></trkpt><trkpt lat="52.932744" lon="17.789448"></trkpt><trkpt lat="52.932633" lon="17.790277"></trkpt><trkpt lat="52.932389" lon="17.793066"></trkpt><trkpt lat="52.931565" lon="17.812545"></trkpt><trkpt lat="52.931677" lon="17.813127"></trkpt><trkpt lat="52.932007" lon="17.815383"></trkpt><trkpt lat="52.932559" lon="17.817982"></trkpt><trkpt lat="52.934073" lon="17.827419"></trkpt><trkpt lat="52.934066" lon="17.828045"></trkpt><trkpt lat="52.934125" lon="17.829471"></trkpt><trkpt lat="52.935267" lon="17.841233"></trkpt><trkpt lat="52.935816" lon="17.842062"></trkpt><trkpt lat="52.93606" lon="17.842497"></trkpt><trkpt lat="52.936357" lon="17.843612"></trkpt><trkpt lat="52.94026" lon="17.85573"></trkpt><trkpt lat="52.940044" lon="17.855827"></trkpt><trkpt lat="52.939784" lon="17.855989"></trkpt><trkpt lat="52.939756" lon="17.856505"></trkpt><trkpt lat="52.939794" lon="17.856852"></trkpt><trkpt lat="52.940534" lon="17.861597"></trkpt><trkpt lat="52.950981" lon="17.920109"></trkpt><trkpt lat="52.951261" lon="17.920509"></trkpt><trkpt lat="52.951697" lon="17.921044"></trkpt><trkpt lat="52.95191" lon="17.921456"></trkpt><trkpt lat="52.951903" lon="17.921791"></trkpt><trkpt lat="52.951974" lon="17.9214"></trkpt><trkpt lat="52.952003" lon="17.920873"></trkpt><trkpt lat="52.952139" lon="17.919717"></trkpt><trkpt lat="52.952086" lon="17.91915"></trkpt><trkpt lat="52.952331" lon="17.919248"></trkpt><trkpt lat="52.952123" lon="17.91926"></trkpt><trkpt lat="52.951999" lon="17.919756"></trkpt><trkpt lat="52.952042" lon="17.920191"></trkpt><trkpt lat="52.952029" lon="17.920546"></trkpt><trkpt lat="52.951937" lon="17.921027"></trkpt><trkpt lat="52.951878" lon="17.921628"></trkpt><trkpt lat="52.951868" lon="17.922072"></trkpt><trkpt lat="52.951898" lon="17.92257"></trkpt><trkpt lat="52.952129" lon="17.923269"></trkpt><trkpt lat="52.95234" lon="17.923751"></trkpt><trkpt lat="52.952516" lon="17.924011"></trkpt><trkpt lat="52.952413" lon="17.92368"></trkpt><trkpt lat="52.952275" lon="17.923916"></trkpt><trkpt lat="52.952163" lon="17.924294"></trkpt><trkpt lat="52.951949" lon="17.924385"></trkpt><trkpt lat="52.951002" lon="17.924965"></trkpt><trkpt lat="52.950914" lon="17.925613"></trkpt><trkpt lat="52.950927" lon="17.926104"></trkpt><trkpt lat="52.950968" lon="17.926487"></trkpt><trkpt lat="52.951021" lon="17.926814"></trkpt><trkpt lat="52.951101" lon="17.927623"></trkpt><trkpt lat="52.951039" lon="17.928231"></trkpt><trkpt lat="52.950974" lon="17.928554"></trkpt><trkpt lat="52.950719" lon="17.929577"></trkpt><trkpt lat="52.948238" lon="17.937215"></trkpt><trkpt lat="52.947822" lon="17.937781"></trkpt><trkpt lat="52.921687" lon="17.979079"></trkpt><trkpt lat="52.921543" lon="17.979542"></trkpt><trkpt lat="52.921367" lon="17.979912"></trkpt><trkpt lat="52.920969" lon="17.980504"></trkpt><trkpt lat="52.920362" lon="17.98162"></trkpt><trkpt lat="52.92022" lon="17.982145"></trkpt><trkpt lat="52.920117" lon="17.982727"></trkpt><trkpt lat="52.920068" lon="17.983328"></trkpt><trkpt lat="52.920093" lon="17.984126"></trkpt><trkpt lat="52.919973" lon="17.98545"></trkpt><trkpt lat="52.919779" lon="17.986316"></trkpt><trkpt lat="52.91953" lon="17.987193"></trkpt><trkpt lat="52.919255" lon="17.98781"></trkpt><trkpt lat="52.919095" lon="17.98838"></trkpt><trkpt lat="52.918985" lon="17.988997"></trkpt><trkpt lat="52.918462" lon="17.991254"></trkpt><trkpt lat="52.91832" lon="17.991483"></trkpt><trkpt lat="52.918063" lon="17.991819"></trkpt><trkpt lat="52.917868" lon="17.992148"></trkpt><trkpt lat="52.917689" lon="17.992548"></trkpt><trkpt lat="52.916982" lon="17.994429"></trkpt><trkpt lat="52.91679" lon="17.995252"></trkpt><trkpt lat="52.916701" lon="17.995817"></trkpt><trkpt lat="52.916232" lon="18.000231"></trkpt><trkpt lat="52.91634" lon="18.000973"></trkpt><trkpt lat="52.916513" lon="18.001768"></trkpt><trkpt lat="52.917657" lon="18.00856"></trkpt><trkpt lat="52.917701" lon="18.00943"></trkpt><trkpt lat="52.917699" lon="18.010951"></trkpt><trkpt lat="52.917604" lon="18.011503"></trkpt><trkpt lat="52.917341" lon="18.01402"></trkpt><trkpt lat="52.91733" lon="18.014861"></trkpt><trkpt lat="52.91654" lon="18.025658"></trkpt><trkpt lat="52.916275" lon="18.026515"></trkpt><trkpt lat="52.91201" lon="18.043843"></trkpt><trkpt lat="52.911991" lon="18.044819"></trkpt><trkpt lat="52.911503" lon="18.052626"></trkpt><trkpt lat="52.911373" lon="18.053491"></trkpt><trkpt lat="52.909356" lon="18.077338"></trkpt><trkpt lat="52.909609" lon="18.077528"></trkpt><trkpt lat="52.909823" lon="18.077752"></trkpt><trkpt lat="52.910004" lon="18.078143"></trkpt><trkpt lat="52.91013" lon="18.078752"></trkpt><trkpt lat="52.910182" lon="18.07911"></trkpt><trkpt lat="52.910232" lon="18.079617"></trkpt><trkpt lat="52.910337" lon="18.081756"></trkpt><trkpt lat="52.910248" lon="18.082201"></trkpt><trkpt lat="52.90634" lon="18.107608"></trkpt><trkpt lat="52.906257" lon="18.108503"></trkpt><trkpt lat="52.90301" lon="18.132152"></trkpt><trkpt lat="52.902892" lon="18.133956"></trkpt><trkpt lat="52.902894" lon="18.134399"></trkpt><trkpt lat="52.903037" lon="18.135448"></trkpt><trkpt lat="52.903485" lon="18.140888"></trkpt><trkpt lat="52.903195" lon="18.141134"></trkpt><trkpt lat="52.899367" lon="18.145045"></trkpt><trkpt lat="52.899089" lon="18.145253"></trkpt><trkpt lat="52.898856" lon="18.145321"></trkpt><trkpt lat="52.896006" lon="18.145799"></trkpt><trkpt lat="52.895705" lon="18.145537"></trkpt><trkpt lat="52.895491" lon="18.145386"></trkpt><trkpt lat="52.895129" lon="18.145079"></trkpt><trkpt lat="52.894241" lon="18.144555"></trkpt><trkpt lat="52.893779" lon="18.14438"></trkpt><trkpt lat="52.890234" lon="18.142085"></trkpt><trkpt lat="52.890121" lon="18.141682"></trkpt><trkpt lat="52.888791" lon="18.137787"></trkpt><trkpt lat="52.888413" lon="18.13804"></trkpt><trkpt lat="52.885918" lon="18.139324"></trkpt><trkpt lat="52.885447" lon="18.139404"></trkpt><trkpt lat="52.884893" lon="18.139395"></trkpt><trkpt lat="52.884346" lon="18.139294"></trkpt><trkpt lat="52.87144" lon="18.138512"></trkpt><trkpt lat="52.870845" lon="18.138694"></trkpt><trkpt lat="52.864607" lon="18.139845"></trkpt><trkpt lat="52.864233" lon="18.139693"></trkpt><trkpt lat="52.860365" lon="18.138865"></trkpt><trkpt lat="52.860244" lon="18.139472"></trkpt><trkpt lat="52.859573" lon="18.144076"></trkpt><trkpt lat="52.859484" lon="18.145297"></trkpt><trkpt lat="52.858152" lon="18.196339"></trkpt><trkpt lat="52.858666" lon="18.195942"></trkpt><trkpt lat="52.858864" lon="18.195927"></trkpt><trkpt lat="52.859074" lon="18.19598"></trkpt><trkpt lat="52.859287" lon="18.196093"></trkpt><trkpt lat="52.859583" lon="18.196015"></trkpt><trkpt lat="52.863515" lon="18.195448"></trkpt><trkpt lat="52.863065" lon="18.195387"></trkpt><trkpt lat="52.858598" lon="18.196724"></trkpt><trkpt lat="52.858238" lon="18.197117"></trkpt><trkpt lat="52.857622" lon="18.197953"></trkpt><trkpt lat="52.857721" lon="18.198688"></trkpt><trkpt lat="52.857928" lon="18.199818"></trkpt><trkpt lat="52.858063" lon="18.200342"></trkpt><trkpt lat="52.857856" lon="18.199232"></trkpt><trkpt lat="52.857671" lon="18.19789"></trkpt><trkpt lat="52.857813" lon="18.197649"></trkpt><trkpt lat="52.858168" lon="18.197259"></trkpt><trkpt lat="52.858422" lon="18.196922"></trkpt><trkpt lat="52.857588" lon="18.197844"></trkpt></trkseg></trk></gpx>