<?xml version="1.0" encoding="UTF-8" standalone="no" ?><gpx xmlns="http://www.topografix.com/GPX/1/1" xmlns:gpxx="http://www.garmin.com/xmlschemas/GpxExtensions/v3" ><trk><trkseg><trkpt lat="50.495142" lon="16.327391"></trkpt><trkpt lat="50.495026" lon="16.326948"></trkpt><trkpt lat="50.494604" lon="16.32569"></trkpt><trkpt lat="50.494235" lon="16.325824"></trkpt><trkpt lat="50.49331" lon="16.326334"></trkpt><trkpt lat="50.489105" lon="16.327985"></trkpt><trkpt lat="50.488907" lon="16.327676"></trkpt><trkpt lat="50.488578" lon="16.327646"></trkpt><trkpt lat="50.487613" lon="16.327873"></trkpt><trkpt lat="50.485468" lon="16.328042"></trkpt><trkpt lat="50.485337" lon="16.327631"></trkpt><trkpt lat="50.485117" lon="16.327316"></trkpt><trkpt lat="50.484834" lon="16.327034"></trkpt><trkpt lat="50.484481" lon="16.326838"></trkpt><trkpt lat="50.484079" lon="16.326807"></trkpt><trkpt lat="50.483415" lon="16.32658"></trkpt><trkpt lat="50.482043" lon="16.326401"></trkpt><trkpt lat="50.481792" lon="16.326588"></trkpt><trkpt lat="50.481491" lon="16.326999"></trkpt><trkpt lat="50.481254" lon="16.327485"></trkpt><trkpt lat="50.48028" lon="16.329123"></trkpt><trkpt lat="50.479978" lon="16.329373"></trkpt><trkpt lat="50.479634" lon="16.32983"></trkpt><trkpt lat="50.478309" lon="16.331987"></trkpt><trkpt lat="50.478148" lon="16.332423"></trkpt><trkpt lat="50.477887" lon="16.332904"></trkpt><trkpt lat="50.477626" lon="16.33328"></trkpt><trkpt lat="50.477337" lon="16.333794"></trkpt><trkpt lat="50.477136" lon="16.334336"></trkpt><trkpt lat="50.476658" lon="16.335355"></trkpt><trkpt lat="50.47611" lon="16.336225"></trkpt><trkpt lat="50.475951" lon="16.336584"></trkpt><trkpt lat="50.475473" lon="16.33809"></trkpt><trkpt lat="50.475661" lon="16.338467"></trkpt><trkpt lat="50.4754" lon="16.33807"></trkpt><trkpt lat="50.474959" lon="16.33761"></trkpt><trkpt lat="50.474681" lon="16.337629"></trkpt><trkpt lat="50.474384" lon="16.3377"></trkpt><trkpt lat="50.471763" lon="16.338707"></trkpt><trkpt lat="50.471524" lon="16.338948"></trkpt><trkpt lat="50.471105" lon="16.339462"></trkpt><trkpt lat="50.470848" lon="16.33988"></trkpt><trkpt lat="50.468788" lon="16.342685"></trkpt><trkpt lat="50.465781" lon="16.346016"></trkpt></trkseg></trk></gpx>