<?xml version="1.0" encoding="UTF-8" standalone="no" ?><gpx xmlns="http://www.topografix.com/GPX/1/1" xmlns:gpxx="http://www.garmin.com/xmlschemas/GpxExtensions/v3" ><trk><trkseg><trkpt lat="52.260031" lon="15.894913"></trkpt><trkpt lat="52.260104" lon="15.894525"></trkpt><trkpt lat="52.260446" lon="15.894601"></trkpt><trkpt lat="52.260669" lon="15.89474"></trkpt><trkpt lat="52.260897" lon="15.89409"></trkpt><trkpt lat="52.261053" lon="15.893429"></trkpt><trkpt lat="52.26122" lon="15.893202"></trkpt><trkpt lat="52.261574" lon="15.893018"></trkpt><trkpt lat="52.261955" lon="15.892868"></trkpt><trkpt lat="52.262231" lon="15.8928"></trkpt><trkpt lat="52.262768" lon="15.892772"></trkpt><trkpt lat="52.263706" lon="15.892567"></trkpt><trkpt lat="52.264243" lon="15.892346"></trkpt><trkpt lat="52.265061" lon="15.892124"></trkpt><trkpt lat="52.265258" lon="15.892209"></trkpt><trkpt lat="52.265491" lon="15.891849"></trkpt><trkpt lat="52.269929" lon="15.886069"></trkpt><trkpt lat="52.270129" lon="15.885918"></trkpt><trkpt lat="52.270701" lon="15.885728"></trkpt><trkpt lat="52.276012" lon="15.883457"></trkpt><trkpt lat="52.278194" lon="15.882893"></trkpt><trkpt lat="52.278731" lon="15.882903"></trkpt><trkpt lat="52.282395" lon="15.882283"></trkpt><trkpt lat="52.282775" lon="15.882061"></trkpt><trkpt lat="52.28811" lon="15.879416"></trkpt><trkpt lat="52.288497" lon="15.878987"></trkpt><trkpt lat="52.289489" lon="15.878145"></trkpt><trkpt lat="52.289925" lon="15.877876"></trkpt><trkpt lat="52.29496" lon="15.875025"></trkpt><trkpt lat="52.296222" lon="15.874532"></trkpt><trkpt lat="52.301486" lon="15.873038"></trkpt><trkpt lat="52.304054" lon="15.87199"></trkpt><trkpt lat="52.304672" lon="15.871424"></trkpt><trkpt lat="52.306949" lon="15.868896"></trkpt><trkpt lat="52.30727" lon="15.868384"></trkpt><trkpt lat="52.307784" lon="15.868016"></trkpt><trkpt lat="52.307939" lon="15.86781"></trkpt><trkpt lat="52.308215" lon="15.867721"></trkpt><trkpt lat="52.31051" lon="15.866585"></trkpt><trkpt lat="52.311091" lon="15.866071"></trkpt><trkpt lat="52.312267" lon="15.865539"></trkpt><trkpt lat="52.312713" lon="15.865625"></trkpt><trkpt lat="52.312925" lon="15.865709"></trkpt><trkpt lat="52.314986" lon="15.8668"></trkpt><trkpt lat="52.317528" lon="15.868506"></trkpt><trkpt lat="52.318037" lon="15.869351"></trkpt><trkpt lat="52.318837" lon="15.870268"></trkpt><trkpt lat="52.319239" lon="15.870468"></trkpt><trkpt lat="52.322636" lon="15.871726"></trkpt><trkpt lat="52.323296" lon="15.871852"></trkpt><trkpt lat="52.324418" lon="15.871923"></trkpt><trkpt lat="52.330294" lon="15.872271"></trkpt><trkpt lat="52.330999" lon="15.872571"></trkpt><trkpt lat="52.336765" lon="15.87434"></trkpt><trkpt lat="52.337375" lon="15.874401"></trkpt><trkpt lat="52.342866" lon="15.875275"></trkpt><trkpt lat="52.345704" lon="15.87539"></trkpt><trkpt lat="52.350997" lon="15.874797"></trkpt><trkpt lat="52.351794" lon="15.874313"></trkpt><trkpt lat="52.352871" lon="15.873876"></trkpt><trkpt lat="52.358373" lon="15.875763"></trkpt><trkpt lat="52.359691" lon="15.875998"></trkpt><trkpt lat="52.360168" lon="15.875729"></trkpt><trkpt lat="52.36385" lon="15.874407"></trkpt><trkpt lat="52.364251" lon="15.874755"></trkpt><trkpt lat="52.365025" lon="15.875548"></trkpt><trkpt lat="52.365247" lon="15.87586"></trkpt><trkpt lat="52.365573" lon="15.876389"></trkpt><trkpt lat="52.366014" lon="15.876845"></trkpt><trkpt lat="52.366201" lon="15.877007"></trkpt><trkpt lat="52.366494" lon="15.877373"></trkpt><trkpt lat="52.366755" lon="15.877977"></trkpt><trkpt lat="52.367055" lon="15.87879"></trkpt><trkpt lat="52.367322" lon="15.879304"></trkpt><trkpt lat="52.367852" lon="15.880156"></trkpt><trkpt lat="52.36817" lon="15.880592"></trkpt><trkpt lat="52.36856" lon="15.881013"></trkpt><trkpt lat="52.368927" lon="15.88148"></trkpt><trkpt lat="52.369129" lon="15.881805"></trkpt><trkpt lat="52.369467" lon="15.881716"></trkpt><trkpt lat="52.369808" lon="15.881674"></trkpt><trkpt lat="52.369951" lon="15.881932"></trkpt><trkpt lat="52.370084" lon="15.882696"></trkpt><trkpt lat="52.37018" lon="15.883873"></trkpt><trkpt lat="52.370024" lon="15.884402"></trkpt><trkpt lat="52.369921" lon="15.885028"></trkpt><trkpt lat="52.369885" lon="15.885768"></trkpt><trkpt lat="52.369925" lon="15.886507"></trkpt><trkpt lat="52.369994" lon="15.887001"></trkpt><trkpt lat="52.370033" lon="15.887468"></trkpt><trkpt lat="52.369709" lon="15.887555"></trkpt><trkpt lat="52.36938" lon="15.887586"></trkpt><trkpt lat="52.369097" lon="15.88765"></trkpt><trkpt lat="52.368854" lon="15.88801"></trkpt><trkpt lat="52.367977" lon="15.889104"></trkpt><trkpt lat="52.366245" lon="15.891855"></trkpt><trkpt lat="52.365944" lon="15.892467"></trkpt><trkpt lat="52.365354" lon="15.893039"></trkpt><trkpt lat="52.364835" lon="15.893406"></trkpt><trkpt lat="52.364397" lon="15.893561"></trkpt><trkpt lat="52.364196" lon="15.893574"></trkpt><trkpt lat="52.362527" lon="15.893262"></trkpt></trkseg></trk></gpx>