<?xml version="1.0" encoding="UTF-8" standalone="no" ?><gpx xmlns="http://www.topografix.com/GPX/1/1" xmlns:gpxx="http://www.garmin.com/xmlschemas/GpxExtensions/v3" ><trk><trkseg><trkpt lat="54.35369" lon="18.64854"></trkpt><trkpt lat="54.35346" lon="18.64879"></trkpt><trkpt lat="54.35319" lon="18.64878"></trkpt><trkpt lat="54.35267" lon="18.64888"></trkpt><trkpt lat="54.35257" lon="18.64932"></trkpt><trkpt lat="54.35237" lon="18.64964"></trkpt><trkpt lat="54.35215" lon="18.64991"></trkpt><trkpt lat="54.35198" lon="18.65028"></trkpt><trkpt lat="54.35172" lon="18.65043"></trkpt><trkpt lat="54.35145" lon="18.65032"></trkpt><trkpt lat="54.35118" lon="18.65026"></trkpt><trkpt lat="54.35104" lon="18.65066"></trkpt><trkpt lat="54.35085" lon="18.6511"></trkpt><trkpt lat="54.35069" lon="18.65155"></trkpt><trkpt lat="54.35062" lon="18.65201"></trkpt><trkpt lat="54.35048" lon="18.65268"></trkpt><trkpt lat="54.35029" lon="18.65303"></trkpt><trkpt lat="54.35026" lon="18.6535"></trkpt><trkpt lat="54.35032" lon="18.65397"></trkpt><trkpt lat="54.35004" lon="18.6539"></trkpt><trkpt lat="54.34985" lon="18.65424"></trkpt><trkpt lat="54.34978" lon="18.6547"></trkpt><trkpt lat="54.34966" lon="18.65514"></trkpt><trkpt lat="54.34961" lon="18.6556"></trkpt><trkpt lat="54.34952" lon="18.65604"></trkpt><trkpt lat="54.3495" lon="18.65652"></trkpt><trkpt lat="54.34957" lon="18.65698"></trkpt><trkpt lat="54.34979" lon="18.65726"></trkpt><trkpt lat="54.35007" lon="18.65745"></trkpt><trkpt lat="54.35035" lon="18.65751"></trkpt><trkpt lat="54.35017" lon="18.65802"></trkpt><trkpt lat="54.35044" lon="18.65811"></trkpt><trkpt lat="54.35072" lon="18.65812"></trkpt><trkpt lat="54.35099" lon="18.65786"></trkpt><trkpt lat="54.35126" lon="18.65794"></trkpt><trkpt lat="54.35152" lon="18.65807"></trkpt><trkpt lat="54.35201" lon="18.65823"></trkpt><trkpt lat="54.35261" lon="18.65813"></trkpt><trkpt lat="54.3532" lon="18.65813"></trkpt><trkpt lat="54.35302" lon="18.65778"></trkpt><trkpt lat="54.35287" lon="18.65739"></trkpt><trkpt lat="54.35323" lon="18.65784"></trkpt><trkpt lat="54.35336" lon="18.65825"></trkpt><trkpt lat="54.35337" lon="18.65872"></trkpt><trkpt lat="54.35355" lon="18.65908"></trkpt><trkpt lat="54.35364" lon="18.65952"></trkpt><trkpt lat="54.3538" lon="18.65992"></trkpt><trkpt lat="54.35366" lon="18.66032"></trkpt><trkpt lat="54.35343" lon="18.66057"></trkpt><trkpt lat="54.35322" lon="18.66026"></trkpt><trkpt lat="54.35303" lon="18.6599"></trkpt><trkpt lat="54.35266" lon="18.65901"></trkpt><trkpt lat="54.35272" lon="18.65853"></trkpt><trkpt lat="54.35248" lon="18.65825"></trkpt><trkpt lat="54.35221" lon="18.65814"></trkpt><trkpt lat="54.35196" lon="18.65835"></trkpt><trkpt lat="54.35176" lon="18.65867"></trkpt><trkpt lat="54.35149" lon="18.65878"></trkpt><trkpt lat="54.35122" lon="18.65874"></trkpt><trkpt lat="54.35091" lon="18.65849"></trkpt><trkpt lat="54.35064" lon="18.65848"></trkpt><trkpt lat="54.35059" lon="18.65894"></trkpt><trkpt lat="54.35057" lon="18.65941"></trkpt><trkpt lat="54.35041" lon="18.6598"></trkpt><trkpt lat="54.35016" lon="18.65999"></trkpt><trkpt lat="54.34988" lon="18.66004"></trkpt><trkpt lat="54.34956" lon="18.66004"></trkpt><trkpt lat="54.34929" lon="18.66014"></trkpt><trkpt lat="54.34901" lon="18.66018"></trkpt><trkpt lat="54.34856" lon="18.66032"></trkpt><trkpt lat="54.34806" lon="18.66033"></trkpt><trkpt lat="54.3479" lon="18.65978"></trkpt><trkpt lat="54.34786" lon="18.65658"></trkpt><trkpt lat="54.34782" lon="18.65612"></trkpt><trkpt lat="54.34794" lon="18.6557"></trkpt><trkpt lat="54.34802" lon="18.65525"></trkpt><trkpt lat="54.34814" lon="18.65477"></trkpt><trkpt lat="54.34822" lon="18.65431"></trkpt><trkpt lat="54.34833" lon="18.65385"></trkpt><trkpt lat="54.34863" lon="18.65287"></trkpt><trkpt lat="54.34872" lon="18.65243"></trkpt><trkpt lat="54.3489" lon="18.65208"></trkpt><trkpt lat="54.34898" lon="18.65162"></trkpt><trkpt lat="54.34917" lon="18.65086"></trkpt><trkpt lat="54.34922" lon="18.6504"></trkpt><trkpt lat="54.3495" lon="18.65051"></trkpt><trkpt lat="54.34937" lon="18.65009"></trkpt><trkpt lat="54.34944" lon="18.64964"></trkpt><trkpt lat="54.34987" lon="18.64762"></trkpt><trkpt lat="54.35" lon="18.64716"></trkpt><trkpt lat="54.35009" lon="18.64672"></trkpt><trkpt lat="54.35014" lon="18.64626"></trkpt><trkpt lat="54.35036" lon="18.64598"></trkpt><trkpt lat="54.35063" lon="18.64608"></trkpt><trkpt lat="54.35142" lon="18.64625"></trkpt><trkpt lat="54.3516" lon="18.64587"></trkpt><trkpt lat="54.35187" lon="18.64576"></trkpt><trkpt lat="54.352" lon="18.64535"></trkpt><trkpt lat="54.35199" lon="18.64488"></trkpt><trkpt lat="54.3521" lon="18.64182"></trkpt><trkpt lat="54.35238" lon="18.64187"></trkpt><trkpt lat="54.35266" lon="18.64197"></trkpt><trkpt lat="54.35306" lon="18.64205"></trkpt><trkpt lat="54.35387" lon="18.64234"></trkpt><trkpt lat="54.35414" lon="18.64252"></trkpt><trkpt lat="54.3544" lon="18.6423"></trkpt><trkpt lat="54.35456" lon="18.64191"></trkpt><trkpt lat="54.35462" lon="18.64145"></trkpt><trkpt lat="54.35472" lon="18.641"></trkpt><trkpt lat="54.35486" lon="18.64053"></trkpt><trkpt lat="54.35513" lon="18.64063"></trkpt><trkpt lat="54.35539" lon="18.64046"></trkpt><trkpt lat="54.35562" lon="18.64016"></trkpt><trkpt lat="54.35581" lon="18.63982"></trkpt><trkpt lat="54.35606" lon="18.63962"></trkpt><trkpt lat="54.35747" lon="18.64049"></trkpt><trkpt lat="54.3576" lon="18.64008"></trkpt><trkpt lat="54.3575" lon="18.64052"></trkpt><trkpt lat="54.35723" lon="18.64054"></trkpt><trkpt lat="54.35698" lon="18.64033"></trkpt><trkpt lat="54.35695" lon="18.6408"></trkpt><trkpt lat="54.35718" lon="18.6411"></trkpt><trkpt lat="54.35746" lon="18.64119"></trkpt><trkpt lat="54.35788" lon="18.64126"></trkpt><trkpt lat="54.35795" lon="18.64172"></trkpt><trkpt lat="54.35782" lon="18.64214"></trkpt><trkpt lat="54.35762" lon="18.64246"></trkpt><trkpt lat="54.35746" lon="18.64284"></trkpt><trkpt lat="54.35766" lon="18.64317"></trkpt><trkpt lat="54.35794" lon="18.64322"></trkpt><trkpt lat="54.35862" lon="18.64339"></trkpt></trkseg></trk></gpx>