<?xml version="1.0" encoding="UTF-8" standalone="no" ?><gpx xmlns="http://www.topografix.com/GPX/1/1" xmlns:gpxx="http://www.garmin.com/xmlschemas/GpxExtensions/v3" ><trk><trkseg><trkpt lat="53.133911" lon="23.135872"></trkpt><trkpt lat="53.134134" lon="23.136265"></trkpt><trkpt lat="53.134585" lon="23.137366"></trkpt><trkpt lat="53.134432" lon="23.137614"></trkpt><trkpt lat="53.134337" lon="23.137931"></trkpt><trkpt lat="53.134197" lon="23.138732"></trkpt><trkpt lat="53.134109" lon="23.139071"></trkpt><trkpt lat="53.133985" lon="23.139721"></trkpt><trkpt lat="53.133545" lon="23.142918"></trkpt><trkpt lat="53.133662" lon="23.143505"></trkpt><trkpt lat="53.134121" lon="23.146863"></trkpt><trkpt lat="53.134406" lon="23.14705"></trkpt><trkpt lat="53.134321" lon="23.147461"></trkpt><trkpt lat="53.134096" lon="23.148192"></trkpt><trkpt lat="53.134223" lon="23.14765"></trkpt><trkpt lat="53.134362" lon="23.147169"></trkpt><trkpt lat="53.134233" lon="23.146784"></trkpt><trkpt lat="53.134233" lon="23.146315"></trkpt><trkpt lat="53.134151" lon="23.145998"></trkpt><trkpt lat="53.134233" lon="23.145694"></trkpt><trkpt lat="53.134035" lon="23.144861"></trkpt><trkpt lat="53.133877" lon="23.14398"></trkpt><trkpt lat="53.133666" lon="23.142357"></trkpt><trkpt lat="53.133769" lon="23.141941"></trkpt><trkpt lat="53.134056" lon="23.140482"></trkpt><trkpt lat="53.134295" lon="23.140395"></trkpt><trkpt lat="53.13443" lon="23.140701"></trkpt><trkpt lat="53.134658" lon="23.141032"></trkpt><trkpt lat="53.134916" lon="23.141468"></trkpt><trkpt lat="53.134947" lon="23.141935"></trkpt><trkpt lat="53.135052" lon="23.142326"></trkpt><trkpt lat="53.134963" lon="23.142018"></trkpt><trkpt lat="53.134846" lon="23.141343"></trkpt><trkpt lat="53.134618" lon="23.140916"></trkpt><trkpt lat="53.134239" lon="23.140412"></trkpt><trkpt lat="53.134005" lon="23.140231"></trkpt><trkpt lat="53.133821" lon="23.140773"></trkpt><trkpt lat="53.133705" lon="23.141439"></trkpt><trkpt lat="53.133614" lon="23.143197"></trkpt><trkpt lat="53.133714" lon="23.14374"></trkpt><trkpt lat="53.134162" lon="23.147648"></trkpt><trkpt lat="53.134006" lon="23.148674"></trkpt><trkpt lat="53.133651" lon="23.150388"></trkpt><trkpt lat="53.133599" lon="23.150761"></trkpt><trkpt lat="53.133452" lon="23.151428"></trkpt><trkpt lat="53.13338" lon="23.152035"></trkpt><trkpt lat="53.13311" lon="23.153416"></trkpt><trkpt lat="53.132998" lon="23.15386"></trkpt><trkpt lat="53.132928" lon="23.154738"></trkpt><trkpt lat="53.13283" lon="23.155407"></trkpt><trkpt lat="53.132835" lon="23.155807"></trkpt><trkpt lat="53.132802" lon="23.156225"></trkpt><trkpt lat="53.132245" lon="23.160195"></trkpt><trkpt lat="53.132172" lon="23.160525"></trkpt><trkpt lat="53.131852" lon="23.160584"></trkpt><trkpt lat="53.131408" lon="23.160564"></trkpt><trkpt lat="53.131149" lon="23.160522"></trkpt><trkpt lat="53.130931" lon="23.160838"></trkpt><trkpt lat="53.13069" lon="23.160792"></trkpt><trkpt lat="53.130006" lon="23.161124"></trkpt><trkpt lat="53.129622" lon="23.161597"></trkpt><trkpt lat="53.129396" lon="23.162022"></trkpt><trkpt lat="53.129372" lon="23.162375"></trkpt><trkpt lat="53.129525" lon="23.162798"></trkpt><trkpt lat="53.129615" lon="23.163101"></trkpt><trkpt lat="53.129793" lon="23.163277"></trkpt><trkpt lat="53.130144" lon="23.163179"></trkpt><trkpt lat="53.130316" lon="23.163458"></trkpt><trkpt lat="53.130352" lon="23.163797"></trkpt><trkpt lat="53.130493" lon="23.164124"></trkpt><trkpt lat="53.13074" lon="23.164544"></trkpt><trkpt lat="53.130575" lon="23.164818"></trkpt><trkpt lat="53.130379" lon="23.165037"></trkpt><trkpt lat="53.130197" lon="23.16539"></trkpt><trkpt lat="53.130234" lon="23.165776"></trkpt><trkpt lat="53.130393" lon="23.166154"></trkpt><trkpt lat="53.130607" lon="23.166524"></trkpt><trkpt lat="53.130808" lon="23.166687"></trkpt><trkpt lat="53.130804" lon="23.167017"></trkpt><trkpt lat="53.131204" lon="23.167343"></trkpt><trkpt lat="53.131512" lon="23.167527"></trkpt><trkpt lat="53.131585" lon="23.167838"></trkpt><trkpt lat="53.131897" lon="23.168103"></trkpt><trkpt lat="53.131979" lon="23.16855"></trkpt><trkpt lat="53.131821" lon="23.168827"></trkpt><trkpt lat="53.131597" lon="23.168925"></trkpt><trkpt lat="53.13108" lon="23.169614"></trkpt><trkpt lat="53.127928" lon="23.174483"></trkpt><trkpt lat="53.127707" lon="23.175037"></trkpt><trkpt lat="53.125584" lon="23.181877"></trkpt><trkpt lat="53.125838" lon="23.182112"></trkpt><trkpt lat="53.12657" lon="23.18291"></trkpt><trkpt lat="53.126842" lon="23.183323"></trkpt><trkpt lat="53.127122" lon="23.18384"></trkpt><trkpt lat="53.12743" lon="23.184577"></trkpt><trkpt lat="53.130528" lon="23.190926"></trkpt><trkpt lat="53.130848" lon="23.191304"></trkpt><trkpt lat="53.132616" lon="23.193082"></trkpt><trkpt lat="53.142627" lon="23.2015"></trkpt><trkpt lat="53.143244" lon="23.201588"></trkpt><trkpt lat="53.143693" lon="23.201584"></trkpt><trkpt lat="53.143775" lon="23.201922"></trkpt><trkpt lat="53.144116" lon="23.202076"></trkpt><trkpt lat="53.144413" lon="23.202041"></trkpt><trkpt lat="53.157714" lon="23.202723"></trkpt><trkpt lat="53.158218" lon="23.202429"></trkpt><trkpt lat="53.158856" lon="23.2019"></trkpt><trkpt lat="53.159193" lon="23.201448"></trkpt><trkpt lat="53.159506" lon="23.200946"></trkpt><trkpt lat="53.160699" lon="23.199349"></trkpt><trkpt lat="53.160881" lon="23.199523"></trkpt><trkpt lat="53.165929" lon="23.205379"></trkpt><trkpt lat="53.166156" lon="23.205868"></trkpt><trkpt lat="53.172993" lon="23.223015"></trkpt><trkpt lat="53.173532" lon="23.22412"></trkpt><trkpt lat="53.17402" lon="23.224877"></trkpt><trkpt lat="53.174643" lon="23.225617"></trkpt><trkpt lat="53.175646" lon="23.226442"></trkpt><trkpt lat="53.177872" lon="23.22866"></trkpt><trkpt lat="53.177981" lon="23.229298"></trkpt><trkpt lat="53.178076" lon="23.230095"></trkpt><trkpt lat="53.178099" lon="23.230845"></trkpt><trkpt lat="53.178045" lon="23.231429"></trkpt><trkpt lat="53.177969" lon="23.23295"></trkpt><trkpt lat="53.178013" lon="23.233805"></trkpt><trkpt lat="53.178161" lon="23.234826"></trkpt><trkpt lat="53.178376" lon="23.235801"></trkpt><trkpt lat="53.178725" lon="23.236835"></trkpt><trkpt lat="53.179013" lon="23.237463"></trkpt><trkpt lat="53.179232" lon="23.23785"></trkpt><trkpt lat="53.179425" lon="23.238145"></trkpt><trkpt lat="53.179707" lon="23.238733"></trkpt><trkpt lat="53.181348" lon="23.241679"></trkpt><trkpt lat="53.181617" lon="23.241905"></trkpt><trkpt lat="53.181735" lon="23.242596"></trkpt><trkpt lat="53.182117" lon="23.244091"></trkpt><trkpt lat="53.184455" lon="23.255478"></trkpt><trkpt lat="53.184464" lon="23.255842"></trkpt><trkpt lat="53.184565" lon="23.256395"></trkpt><trkpt lat="53.18527" lon="23.261832"></trkpt><trkpt lat="53.18548" lon="23.262194"></trkpt><trkpt lat="53.185985" lon="23.262923"></trkpt><trkpt lat="53.187792" lon="23.265947"></trkpt><trkpt lat="53.188051" lon="23.266815"></trkpt><trkpt lat="53.188333" lon="23.267967"></trkpt><trkpt lat="53.188577" lon="23.269406"></trkpt><trkpt lat="53.188616" lon="23.269941"></trkpt><trkpt lat="53.188718" lon="23.270666"></trkpt><trkpt lat="53.188864" lon="23.271373"></trkpt><trkpt lat="53.188992" lon="23.271761"></trkpt><trkpt lat="53.190326" lon="23.276804"></trkpt><trkpt lat="53.190387" lon="23.277449"></trkpt><trkpt lat="53.192658" lon="23.293851"></trkpt><trkpt lat="53.192901" lon="23.29388"></trkpt><trkpt lat="53.193075" lon="23.294145"></trkpt><trkpt lat="53.193409" lon="23.294907"></trkpt><trkpt lat="53.194969" lon="23.297953"></trkpt><trkpt lat="53.195535" lon="23.298453"></trkpt><trkpt lat="53.195807" lon="23.298611"></trkpt><trkpt lat="53.195985" lon="23.298794"></trkpt><trkpt lat="53.19822" lon="23.300614"></trkpt><trkpt lat="53.19849" lon="23.300905"></trkpt><trkpt lat="53.198553" lon="23.301242"></trkpt><trkpt lat="53.198986" lon="23.301709"></trkpt><trkpt lat="53.19922" lon="23.301897"></trkpt><trkpt lat="53.200163" lon="23.302906"></trkpt><trkpt lat="53.200367" lon="23.303216"></trkpt><trkpt lat="53.2006" lon="23.303679"></trkpt><trkpt lat="53.200855" lon="23.304339"></trkpt><trkpt lat="53.201102" lon="23.305107"></trkpt><trkpt lat="53.203044" lon="23.312766"></trkpt><trkpt lat="53.203013" lon="23.313139"></trkpt><trkpt lat="53.203051" lon="23.31347"></trkpt><trkpt lat="53.203167" lon="23.31414"></trkpt><trkpt lat="53.204706" lon="23.321003"></trkpt><trkpt lat="53.204887" lon="23.321164"></trkpt><trkpt lat="53.205055" lon="23.321369"></trkpt><trkpt lat="53.205241" lon="23.32173"></trkpt><trkpt lat="53.204922" lon="23.321793"></trkpt><trkpt lat="53.204698" lon="23.322194"></trkpt><trkpt lat="53.204865" lon="23.323072"></trkpt><trkpt lat="53.205065" lon="23.32369"></trkpt><trkpt lat="53.205181" lon="23.324171"></trkpt><trkpt lat="53.205282" lon="23.324457"></trkpt><trkpt lat="53.205363" lon="23.324804"></trkpt><trkpt lat="53.205554" lon="23.325475"></trkpt><trkpt lat="53.205699" lon="23.325861"></trkpt><trkpt lat="53.206225" lon="23.325477"></trkpt><trkpt lat="53.206565" lon="23.325913"></trkpt><trkpt lat="53.206824" lon="23.326657"></trkpt><trkpt lat="53.207113" lon="23.327342"></trkpt><trkpt lat="53.207656" lon="23.327043"></trkpt><trkpt lat="53.208039" lon="23.326894"></trkpt><trkpt lat="53.208255" lon="23.327539"></trkpt><trkpt lat="53.208644" lon="23.328368"></trkpt><trkpt lat="53.208686" lon="23.328736"></trkpt><trkpt lat="53.209157" lon="23.331696"></trkpt><trkpt lat="53.210085" lon="23.336157"></trkpt><trkpt lat="53.210579" lon="23.335912"></trkpt><trkpt lat="53.210836" lon="23.335748"></trkpt><trkpt lat="53.21105" lon="23.335919"></trkpt><trkpt lat="53.210848" lon="23.335775"></trkpt><trkpt lat="53.210381" lon="23.336025"></trkpt><trkpt lat="53.209907" lon="23.336079"></trkpt><trkpt lat="53.209533" lon="23.336232"></trkpt><trkpt lat="53.205659" lon="23.338786"></trkpt><trkpt lat="53.205822" lon="23.339661"></trkpt><trkpt lat="53.206101" lon="23.343574"></trkpt><trkpt lat="53.20582" lon="23.343729"></trkpt><trkpt lat="53.205638" lon="23.34387"></trkpt><trkpt lat="53.205386" lon="23.344115"></trkpt><trkpt lat="53.205716" lon="23.343838"></trkpt><trkpt lat="53.205998" lon="23.343688"></trkpt><trkpt lat="53.206347" lon="23.343397"></trkpt><trkpt lat="53.206378" lon="23.343064"></trkpt><trkpt lat="53.206294" lon="23.342562"></trkpt><trkpt lat="53.206181" lon="23.342058"></trkpt><trkpt lat="53.206172" lon="23.341478"></trkpt><trkpt lat="53.206037" lon="23.340718"></trkpt><trkpt lat="53.205707" lon="23.338181"></trkpt><trkpt lat="53.206158" lon="23.337934"></trkpt><trkpt lat="53.212948" lon="23.335094"></trkpt><trkpt lat="53.213495" lon="23.335775"></trkpt><trkpt lat="53.214197" lon="23.336817"></trkpt><trkpt lat="53.214373" lon="23.337017"></trkpt><trkpt lat="53.214796" lon="23.33763"></trkpt><trkpt lat="53.218512" lon="23.343835"></trkpt><trkpt lat="53.218701" lon="23.344535"></trkpt><trkpt lat="53.218958" lon="23.345737"></trkpt><trkpt lat="53.21861" lon="23.346047"></trkpt><trkpt lat="53.218346" lon="23.346444"></trkpt><trkpt lat="53.218222" lon="23.346758"></trkpt><trkpt lat="53.217704" lon="23.347774"></trkpt><trkpt lat="53.217409" lon="23.348166"></trkpt><trkpt lat="53.215902" lon="23.350578"></trkpt><trkpt lat="53.215686" lon="23.351155"></trkpt><trkpt lat="53.215191" lon="23.35229"></trkpt><trkpt lat="53.21433" lon="23.35477"></trkpt><trkpt lat="53.214378" lon="23.355333"></trkpt><trkpt lat="53.214442" lon="23.355787"></trkpt><trkpt lat="53.214608" lon="23.356343"></trkpt><trkpt lat="53.214865" lon="23.356629"></trkpt><trkpt lat="53.215256" lon="23.356636"></trkpt><trkpt lat="53.215491" lon="23.356529"></trkpt><trkpt lat="53.215797" lon="23.356275"></trkpt><trkpt lat="53.216014" lon="23.356008"></trkpt><trkpt lat="53.216274" lon="23.355754"></trkpt><trkpt lat="53.216713" lon="23.355247"></trkpt><trkpt lat="53.21692" lon="23.354952"></trkpt><trkpt lat="53.217145" lon="23.354682"></trkpt><trkpt lat="53.218437" lon="23.3534"></trkpt><trkpt lat="53.218952" lon="23.353196"></trkpt><trkpt lat="53.220515" lon="23.353012"></trkpt><trkpt lat="53.221292" lon="23.353327"></trkpt><trkpt lat="53.221526" lon="23.353966"></trkpt><trkpt lat="53.224811" lon="23.36491"></trkpt><trkpt lat="53.22458" lon="23.365319"></trkpt><trkpt lat="53.224406" lon="23.365712"></trkpt><trkpt lat="53.224138" lon="23.366144"></trkpt><trkpt lat="53.223932" lon="23.36637"></trkpt><trkpt lat="53.223711" lon="23.366667"></trkpt><trkpt lat="53.223559" lon="23.366948"></trkpt><trkpt lat="53.223376" lon="23.367514"></trkpt><trkpt lat="53.223272" lon="23.367925"></trkpt><trkpt lat="53.223116" lon="23.368354"></trkpt><trkpt lat="53.222928" lon="23.368783"></trkpt><trkpt lat="53.222482" lon="23.369655"></trkpt><trkpt lat="53.2223" lon="23.369829"></trkpt><trkpt lat="53.222028" lon="23.370032"></trkpt><trkpt lat="53.221598" lon="23.370292"></trkpt><trkpt lat="53.220907" lon="23.370816"></trkpt><trkpt lat="53.220706" lon="23.371007"></trkpt><trkpt lat="53.218293" lon="23.373769"></trkpt><trkpt lat="53.218225" lon="23.374249"></trkpt><trkpt lat="53.218241" lon="23.375275"></trkpt><trkpt lat="53.21809" lon="23.379456"></trkpt><trkpt lat="53.217777" lon="23.380472"></trkpt><trkpt lat="53.21743" lon="23.381411"></trkpt><trkpt lat="53.217246" lon="23.381771"></trkpt><trkpt lat="53.216926" lon="23.382285"></trkpt><trkpt lat="53.216543" lon="23.382752"></trkpt><trkpt lat="53.21616" lon="23.383296"></trkpt><trkpt lat="53.21564" lon="23.38389"></trkpt><trkpt lat="53.215059" lon="23.384666"></trkpt><trkpt lat="53.214972" lon="23.384997"></trkpt><trkpt lat="53.214821" lon="23.386041"></trkpt><trkpt lat="53.214067" lon="23.39357"></trkpt><trkpt lat="53.214045" lon="23.394134"></trkpt><trkpt lat="53.213972" lon="23.394735"></trkpt><trkpt lat="53.213775" lon="23.395906"></trkpt><trkpt lat="53.213716" lon="23.396388"></trkpt><trkpt lat="53.213611" lon="23.396965"></trkpt><trkpt lat="53.213542" lon="23.397685"></trkpt><trkpt lat="53.213521" lon="23.39815"></trkpt><trkpt lat="53.213348" lon="23.399734"></trkpt><trkpt lat="53.213263" lon="23.400251"></trkpt><trkpt lat="53.212326" lon="23.409592"></trkpt><trkpt lat="53.21247" lon="23.410002"></trkpt><trkpt lat="53.212606" lon="23.410483"></trkpt><trkpt lat="53.212716" lon="23.411122"></trkpt><trkpt lat="53.21277" lon="23.41158"></trkpt><trkpt lat="53.213072" lon="23.413059"></trkpt><trkpt lat="53.213368" lon="23.413627"></trkpt><trkpt lat="53.213722" lon="23.414461"></trkpt><trkpt lat="53.213959" lon="23.415254"></trkpt><trkpt lat="53.214944" lon="23.419228"></trkpt><trkpt lat="53.214952" lon="23.419716"></trkpt><trkpt lat="53.214929" lon="23.420234"></trkpt><trkpt lat="53.214854" lon="23.421009"></trkpt><trkpt lat="53.214767" lon="23.421332"></trkpt><trkpt lat="53.214749" lon="23.421757"></trkpt><trkpt lat="53.214782" lon="23.422439"></trkpt><trkpt lat="53.214774" lon="23.424557"></trkpt><trkpt lat="53.214716" lon="23.424969"></trkpt><trkpt lat="53.21454" lon="23.425393"></trkpt><trkpt lat="53.214324" lon="23.425758"></trkpt><trkpt lat="53.214127" lon="23.426175"></trkpt><trkpt lat="53.213933" lon="23.426703"></trkpt><trkpt lat="53.213711" lon="23.427503"></trkpt><trkpt lat="53.213257" lon="23.428825"></trkpt><trkpt lat="53.21302" lon="23.429259"></trkpt><trkpt lat="53.212918" lon="23.429552"></trkpt><trkpt lat="53.212729" lon="23.430232"></trkpt><trkpt lat="53.212595" lon="23.43137"></trkpt><trkpt lat="53.212875" lon="23.431604"></trkpt><trkpt lat="53.213241" lon="23.431738"></trkpt><trkpt lat="53.213538" lon="23.431997"></trkpt><trkpt lat="53.213913" lon="23.432395"></trkpt><trkpt lat="53.215806" lon="23.434765"></trkpt><trkpt lat="53.215965" lon="23.435148"></trkpt><trkpt lat="53.216109" lon="23.435594"></trkpt><trkpt lat="53.21621" lon="23.435973"></trkpt><trkpt lat="53.216288" lon="23.436528"></trkpt><trkpt lat="53.216447" lon="23.437353"></trkpt><trkpt lat="53.216631" lon="23.438096"></trkpt><trkpt lat="53.216681" lon="23.438423"></trkpt><trkpt lat="53.216731" lon="23.439248"></trkpt><trkpt lat="53.216731" lon="23.439752"></trkpt><trkpt lat="53.216793" lon="23.440465"></trkpt><trkpt lat="53.216796" lon="23.440993"></trkpt><trkpt lat="53.216719" lon="23.441478"></trkpt><trkpt lat="53.216595" lon="23.441941"></trkpt><trkpt lat="53.214376" lon="23.452267"></trkpt><trkpt lat="53.21433" lon="23.452646"></trkpt><trkpt lat="53.213264" lon="23.458557"></trkpt><trkpt lat="53.212712" lon="23.459154"></trkpt><trkpt lat="53.212437" lon="23.458586"></trkpt><trkpt lat="53.211914" lon="23.456923"></trkpt><trkpt lat="53.21146" lon="23.455992"></trkpt><trkpt lat="53.211163" lon="23.45555"></trkpt><trkpt lat="53.210831" lon="23.455221"></trkpt><trkpt lat="53.210474" lon="23.455006"></trkpt><trkpt lat="53.210142" lon="23.454629"></trkpt><trkpt lat="53.209747" lon="23.454009"></trkpt><trkpt lat="53.209354" lon="23.453478"></trkpt><trkpt lat="53.209161" lon="23.453622"></trkpt><trkpt lat="53.208951" lon="23.4535"></trkpt><trkpt lat="53.20878" lon="23.453394"></trkpt></trkseg></trk></gpx>