<?xml version="1.0" encoding="UTF-8" standalone="no" ?><gpx xmlns="http://www.topografix.com/GPX/1/1" xmlns:gpxx="http://www.garmin.com/xmlschemas/GpxExtensions/v3" ><trk><trkseg><trkpt lat="52.303367" lon="16.204469"></trkpt><trkpt lat="52.303372" lon="16.203871"></trkpt><trkpt lat="52.303527" lon="16.203638"></trkpt><trkpt lat="52.303743" lon="16.203774"></trkpt><trkpt lat="52.304032" lon="16.203899"></trkpt><trkpt lat="52.304374" lon="16.203963"></trkpt><trkpt lat="52.30464" lon="16.203959"></trkpt><trkpt lat="52.304927" lon="16.20379"></trkpt><trkpt lat="52.309937" lon="16.201522"></trkpt><trkpt lat="52.310155" lon="16.20171"></trkpt><trkpt lat="52.31034" lon="16.20196"></trkpt><trkpt lat="52.310837" lon="16.20296"></trkpt><trkpt lat="52.313219" lon="16.206782"></trkpt><trkpt lat="52.31386" lon="16.207255"></trkpt><trkpt lat="52.316987" lon="16.209121"></trkpt><trkpt lat="52.317182" lon="16.209185"></trkpt><trkpt lat="52.317535" lon="16.209508"></trkpt><trkpt lat="52.317808" lon="16.20981"></trkpt><trkpt lat="52.318804" lon="16.210728"></trkpt><trkpt lat="52.319059" lon="16.210113"></trkpt><trkpt lat="52.319421" lon="16.210277"></trkpt><trkpt lat="52.319874" lon="16.210754"></trkpt><trkpt lat="52.320122" lon="16.211161"></trkpt><trkpt lat="52.320349" lon="16.211903"></trkpt><trkpt lat="52.320987" lon="16.213636"></trkpt><trkpt lat="52.32139" lon="16.214256"></trkpt><trkpt lat="52.321682" lon="16.214594"></trkpt><trkpt lat="52.322315" lon="16.214849"></trkpt><trkpt lat="52.322652" lon="16.214889"></trkpt><trkpt lat="52.346273" lon="16.216958"></trkpt><trkpt lat="52.348864" lon="16.216422"></trkpt><trkpt lat="52.349087" lon="16.216077"></trkpt><trkpt lat="52.34939" lon="16.215419"></trkpt><trkpt lat="52.34972" lon="16.216036"></trkpt><trkpt lat="52.349934" lon="16.216861"></trkpt><trkpt lat="52.350153" lon="16.218001"></trkpt><trkpt lat="52.350581" lon="16.219153"></trkpt><trkpt lat="52.350867" lon="16.219632"></trkpt><trkpt lat="52.362854" lon="16.242887"></trkpt><trkpt lat="52.363011" lon="16.243556"></trkpt><trkpt lat="52.363758" lon="16.247708"></trkpt><trkpt lat="52.363865" lon="16.248662"></trkpt><trkpt lat="52.364569" lon="16.252972"></trkpt><trkpt lat="52.364863" lon="16.252943"></trkpt><trkpt lat="52.365132" lon="16.252843"></trkpt><trkpt lat="52.365593" lon="16.252742"></trkpt><trkpt lat="52.365605" lon="16.252391"></trkpt><trkpt lat="52.365478" lon="16.25195"></trkpt><trkpt lat="52.365144" lon="16.250386"></trkpt><trkpt lat="52.36508" lon="16.249807"></trkpt><trkpt lat="52.364989" lon="16.249258"></trkpt><trkpt lat="52.364967" lon="16.248877"></trkpt><trkpt lat="52.364995" lon="16.248429"></trkpt><trkpt lat="52.365235" lon="16.248231"></trkpt><trkpt lat="52.365489" lon="16.248149"></trkpt><trkpt lat="52.365732" lon="16.248288"></trkpt><trkpt lat="52.366023" lon="16.248244"></trkpt><trkpt lat="52.365767" lon="16.248332"></trkpt><trkpt lat="52.365567" lon="16.248119"></trkpt><trkpt lat="52.365233" lon="16.248279"></trkpt><trkpt lat="52.365002" lon="16.248502"></trkpt><trkpt lat="52.364979" lon="16.249097"></trkpt><trkpt lat="52.365031" lon="16.249731"></trkpt><trkpt lat="52.365093" lon="16.250156"></trkpt><trkpt lat="52.365448" lon="16.251926"></trkpt><trkpt lat="52.365603" lon="16.252495"></trkpt><trkpt lat="52.365874" lon="16.252782"></trkpt><trkpt lat="52.366109" lon="16.252878"></trkpt><trkpt lat="52.375899" lon="16.258778"></trkpt><trkpt lat="52.376327" lon="16.259374"></trkpt><trkpt lat="52.376499" lon="16.259539"></trkpt><trkpt lat="52.3769" lon="16.259864"></trkpt><trkpt lat="52.383303" lon="16.266014"></trkpt><trkpt lat="52.383539" lon="16.266568"></trkpt><trkpt lat="52.383778" lon="16.267053"></trkpt><trkpt lat="52.3839" lon="16.267353"></trkpt><trkpt lat="52.384372" lon="16.268332"></trkpt><trkpt lat="52.384529" lon="16.268752"></trkpt><trkpt lat="52.384645" lon="16.269232"></trkpt><trkpt lat="52.384853" lon="16.269748"></trkpt><trkpt lat="52.387506" lon="16.275056"></trkpt><trkpt lat="52.387826" lon="16.275234"></trkpt><trkpt lat="52.38812" lon="16.275439"></trkpt><trkpt lat="52.390406" lon="16.277531"></trkpt><trkpt lat="52.390839" lon="16.278178"></trkpt><trkpt lat="52.391219" lon="16.27884"></trkpt><trkpt lat="52.39617" lon="16.286206"></trkpt><trkpt lat="52.39664" lon="16.285866"></trkpt><trkpt lat="52.401549" lon="16.283118"></trkpt><trkpt lat="52.401902" lon="16.283106"></trkpt><trkpt lat="52.402299" lon="16.283344"></trkpt><trkpt lat="52.402347" lon="16.283982"></trkpt><trkpt lat="52.402655" lon="16.285465"></trkpt><trkpt lat="52.403134" lon="16.285866"></trkpt><trkpt lat="52.40873" lon="16.28965"></trkpt><trkpt lat="52.408502" lon="16.290031"></trkpt><trkpt lat="52.408891" lon="16.290258"></trkpt><trkpt lat="52.409248" lon="16.290388"></trkpt><trkpt lat="52.432429" lon="16.29729"></trkpt><trkpt lat="52.437166" lon="16.295281"></trkpt><trkpt lat="52.438948" lon="16.294816"></trkpt><trkpt lat="52.447564" lon="16.298097"></trkpt><trkpt lat="52.458238" lon="16.303706"></trkpt><trkpt lat="52.458766" lon="16.304231"></trkpt><trkpt lat="52.459345" lon="16.304718"></trkpt><trkpt lat="52.459443" lon="16.304347"></trkpt><trkpt lat="52.459541" lon="16.303691"></trkpt><trkpt lat="52.459705" lon="16.303377"></trkpt><trkpt lat="52.460335" lon="16.302825"></trkpt><trkpt lat="52.461928" lon="16.301759"></trkpt><trkpt lat="52.462105" lon="16.301607"></trkpt><trkpt lat="52.462533" lon="16.301022"></trkpt><trkpt lat="52.464653" lon="16.298879"></trkpt><trkpt lat="52.46534" lon="16.298801"></trkpt><trkpt lat="52.489022" lon="16.294573"></trkpt><trkpt lat="52.489605" lon="16.294053"></trkpt><trkpt lat="52.496101" lon="16.287069"></trkpt><trkpt lat="52.496438" lon="16.285862"></trkpt><trkpt lat="52.499051" lon="16.274413"></trkpt><trkpt lat="52.499419" lon="16.273671"></trkpt><trkpt lat="52.499637" lon="16.273492"></trkpt><trkpt lat="52.50004" lon="16.273019"></trkpt><trkpt lat="52.500181" lon="16.272535"></trkpt><trkpt lat="52.50772" lon="16.250793"></trkpt><trkpt lat="52.507879" lon="16.250989"></trkpt><trkpt lat="52.508142" lon="16.251227"></trkpt><trkpt lat="52.508311" lon="16.25155"></trkpt><trkpt lat="52.508196" lon="16.252"></trkpt><trkpt lat="52.508072" lon="16.252287"></trkpt><trkpt lat="52.508336" lon="16.252825"></trkpt><trkpt lat="52.508997" lon="16.253918"></trkpt><trkpt lat="52.509291" lon="16.25432"></trkpt><trkpt lat="52.509621" lon="16.254699"></trkpt><trkpt lat="52.509631" lon="16.254294"></trkpt><trkpt lat="52.509806" lon="16.254046"></trkpt><trkpt lat="52.509999" lon="16.254199"></trkpt><trkpt lat="52.510269" lon="16.254291"></trkpt><trkpt lat="52.51" lon="16.254137"></trkpt><trkpt lat="52.509772" lon="16.254164"></trkpt><trkpt lat="52.5096" lon="16.254377"></trkpt><trkpt lat="52.509583" lon="16.254725"></trkpt><trkpt lat="52.509723" lon="16.255391"></trkpt><trkpt lat="52.509908" lon="16.256027"></trkpt><trkpt lat="52.510248" lon="16.25581"></trkpt><trkpt lat="52.511627" lon="16.254728"></trkpt><trkpt lat="52.511887" lon="16.254372"></trkpt><trkpt lat="52.515651" lon="16.248384"></trkpt><trkpt lat="52.516596" lon="16.248473"></trkpt><trkpt lat="52.540209" lon="16.251587"></trkpt><trkpt lat="52.540879" lon="16.251264"></trkpt><trkpt lat="52.556412" lon="16.24617"></trkpt><trkpt lat="52.557453" lon="16.246292"></trkpt><trkpt lat="52.56358" lon="16.244757"></trkpt><trkpt lat="52.564337" lon="16.244386"></trkpt><trkpt lat="52.5747" lon="16.237722"></trkpt><trkpt lat="52.574976" lon="16.237075"></trkpt><trkpt lat="52.574916" lon="16.236745"></trkpt><trkpt lat="52.574492" lon="16.23628"></trkpt><trkpt lat="52.574659" lon="16.236517"></trkpt><trkpt lat="52.574999" lon="16.236926"></trkpt><trkpt lat="52.57522" lon="16.23711"></trkpt><trkpt lat="52.575466" lon="16.237403"></trkpt><trkpt lat="52.575747" lon="16.237886"></trkpt><trkpt lat="52.576032" lon="16.238533"></trkpt><trkpt lat="52.581131" lon="16.248374"></trkpt><trkpt lat="52.581406" lon="16.248672"></trkpt><trkpt lat="52.587218" lon="16.256589"></trkpt><trkpt lat="52.587621" lon="16.257729"></trkpt><trkpt lat="52.5878" lon="16.258719"></trkpt><trkpt lat="52.587869" lon="16.259766"></trkpt><trkpt lat="52.587861" lon="16.260737"></trkpt><trkpt lat="52.587799" lon="16.261389"></trkpt><trkpt lat="52.588092" lon="16.261663"></trkpt><trkpt lat="52.58832" lon="16.261789"></trkpt><trkpt lat="52.589442" lon="16.262073"></trkpt><trkpt lat="52.590647" lon="16.261411"></trkpt><trkpt lat="52.590801" lon="16.261177"></trkpt><trkpt lat="52.590999" lon="16.261144"></trkpt><trkpt lat="52.591662" lon="16.261572"></trkpt><trkpt lat="52.591991" lon="16.261837"></trkpt><trkpt lat="52.592191" lon="16.261884"></trkpt><trkpt lat="52.592368" lon="16.26172"></trkpt><trkpt lat="52.592878" lon="16.260629"></trkpt><trkpt lat="52.594811" lon="16.257411"></trkpt><trkpt lat="52.595078" lon="16.257247"></trkpt><trkpt lat="52.611492" lon="16.244745"></trkpt><trkpt lat="52.61127" lon="16.244346"></trkpt><trkpt lat="52.610743" lon="16.243551"></trkpt><trkpt lat="52.610343" lon="16.243238"></trkpt><trkpt lat="52.609921" lon="16.242982"></trkpt><trkpt lat="52.60929" lon="16.242512"></trkpt><trkpt lat="52.609179" lon="16.242131"></trkpt><trkpt lat="52.609099" lon="16.241791"></trkpt><trkpt lat="52.609203" lon="16.242109"></trkpt><trkpt lat="52.609242" lon="16.242457"></trkpt><trkpt lat="52.60953" lon="16.242728"></trkpt><trkpt lat="52.60989" lon="16.242982"></trkpt><trkpt lat="52.611184" lon="16.24421"></trkpt><trkpt lat="52.611491" lon="16.244747"></trkpt><trkpt lat="52.61192" lon="16.245312"></trkpt><trkpt lat="52.612516" lon="16.245378"></trkpt><trkpt lat="52.612777" lon="16.245214"></trkpt><trkpt lat="52.613024" lon="16.244972"></trkpt><trkpt lat="52.613889" lon="16.246061"></trkpt><trkpt lat="52.614071" lon="16.246424"></trkpt><trkpt lat="52.614567" lon="16.247665"></trkpt><trkpt lat="52.614874" lon="16.248684"></trkpt><trkpt lat="52.615796" lon="16.252611"></trkpt><trkpt lat="52.615852" lon="16.252947"></trkpt><trkpt lat="52.615792" lon="16.25255"></trkpt><trkpt lat="52.615764" lon="16.252213"></trkpt><trkpt lat="52.615645" lon="16.251496"></trkpt><trkpt lat="52.615566" lon="16.25117"></trkpt><trkpt lat="52.614183" lon="16.2466"></trkpt><trkpt lat="52.614003" lon="16.246218"></trkpt><trkpt lat="52.613679" lon="16.245627"></trkpt><trkpt lat="52.613329" lon="16.245268"></trkpt><trkpt lat="52.61303" lon="16.24487"></trkpt><trkpt lat="52.613214" lon="16.244365"></trkpt><trkpt lat="52.613579" lon="16.243517"></trkpt><trkpt lat="52.613783" lon="16.243163"></trkpt><trkpt lat="52.618822" lon="16.236417"></trkpt><trkpt lat="52.619532" lon="16.236189"></trkpt><trkpt lat="52.622737" lon="16.235636"></trkpt><trkpt lat="52.624706" lon="16.235652"></trkpt><trkpt lat="52.625474" lon="16.23422"></trkpt><trkpt lat="52.627856" lon="16.230461"></trkpt><trkpt lat="52.627871" lon="16.231087"></trkpt><trkpt lat="52.628038" lon="16.232899"></trkpt><trkpt lat="52.628191" lon="16.233897"></trkpt><trkpt lat="52.630347" lon="16.255552"></trkpt><trkpt lat="52.629864" lon="16.255807"></trkpt><trkpt lat="52.625611" lon="16.258679"></trkpt><trkpt lat="52.625684" lon="16.259088"></trkpt><trkpt lat="52.625844" lon="16.259387"></trkpt><trkpt lat="52.62627" lon="16.25993"></trkpt><trkpt lat="52.635079" lon="16.272903"></trkpt><trkpt lat="52.635342" lon="16.273514"></trkpt><trkpt lat="52.640386" lon="16.283454"></trkpt><trkpt lat="52.641044" lon="16.283971"></trkpt><trkpt lat="52.641208" lon="16.284202"></trkpt><trkpt lat="52.641313" lon="16.284513"></trkpt><trkpt lat="52.64145" lon="16.285134"></trkpt><trkpt lat="52.642578" lon="16.28915"></trkpt><trkpt lat="52.642765" lon="16.289546"></trkpt><trkpt lat="52.642969" lon="16.290074"></trkpt><trkpt lat="52.643184" lon="16.290829"></trkpt><trkpt lat="52.643515" lon="16.291739"></trkpt><trkpt lat="52.643849" lon="16.292526"></trkpt><trkpt lat="52.644488" lon="16.293079"></trkpt><trkpt lat="52.6662" lon="16.308783"></trkpt><trkpt lat="52.666618" lon="16.308725"></trkpt><trkpt lat="52.666972" lon="16.308724"></trkpt><trkpt lat="52.667703" lon="16.308526"></trkpt><trkpt lat="52.667852" lon="16.308109"></trkpt><trkpt lat="52.668163" lon="16.307473"></trkpt><trkpt lat="52.668417" lon="16.307094"></trkpt><trkpt lat="52.672202" lon="16.302918"></trkpt><trkpt lat="52.672631" lon="16.303622"></trkpt><trkpt lat="52.689741" lon="16.330702"></trkpt><trkpt lat="52.691835" lon="16.334747"></trkpt><trkpt lat="52.691982" lon="16.335318"></trkpt><trkpt lat="52.700294" lon="16.361126"></trkpt><trkpt lat="52.701247" lon="16.362331"></trkpt><trkpt lat="52.701884" lon="16.363341"></trkpt><trkpt lat="52.70265" lon="16.364838"></trkpt><trkpt lat="52.704086" lon="16.366715"></trkpt><trkpt lat="52.705437" lon="16.367696"></trkpt><trkpt lat="52.70689" lon="16.369"></trkpt><trkpt lat="52.707178" lon="16.369627"></trkpt><trkpt lat="52.70716" lon="16.369982"></trkpt><trkpt lat="52.706859" lon="16.370434"></trkpt><trkpt lat="52.706441" lon="16.370726"></trkpt><trkpt lat="52.706047" lon="16.371066"></trkpt><trkpt lat="52.7056" lon="16.371547"></trkpt><trkpt lat="52.70549" lon="16.372707"></trkpt><trkpt lat="52.705455" lon="16.373655"></trkpt><trkpt lat="52.70533" lon="16.374156"></trkpt><trkpt lat="52.704938" lon="16.374541"></trkpt><trkpt lat="52.704705" lon="16.374822"></trkpt><trkpt lat="52.704639" lon="16.375332"></trkpt><trkpt lat="52.704759" lon="16.376052"></trkpt><trkpt lat="52.705259" lon="16.380434"></trkpt><trkpt lat="52.705401" lon="16.381104"></trkpt><trkpt lat="52.705514" lon="16.380802"></trkpt><trkpt lat="52.705812" lon="16.380732"></trkpt><trkpt lat="52.705744" lon="16.381643"></trkpt><trkpt lat="52.705205" lon="16.385975"></trkpt></trkseg></trk></gpx>