<?xml version="1.0" encoding="UTF-8" standalone="no" ?><gpx xmlns="http://www.topografix.com/GPX/1/1" xmlns:gpxx="http://www.garmin.com/xmlschemas/GpxExtensions/v3" ><trk><trkseg><trkpt lat="52.6416473463" lon="14.7815005761"></trkpt><trkpt lat="52.6412254851" lon="14.7815932799"></trkpt><trkpt lat="52.6407589484" lon="14.7816128097"></trkpt><trkpt lat="52.6403930783" lon="14.7817491833"></trkpt><trkpt lat="52.6400994603" lon="14.7818023246"></trkpt><trkpt lat="52.6315748971" lon="14.7846762277"></trkpt><trkpt lat="52.6313572191" lon="14.7850008588"></trkpt><trkpt lat="52.6244990621" lon="14.7946754191"></trkpt><trkpt lat="52.6194995921" lon="14.800510481"></trkpt><trkpt lat="52.6192274317" lon="14.8006551526"></trkpt><trkpt lat="52.6172800642" lon="14.8013600707"></trkpt><trkpt lat="52.6170042995" lon="14.8014055844"></trkpt><trkpt lat="52.617283836" lon="14.8013695423"></trkpt><trkpt lat="52.617110163" lon="14.8018561117"></trkpt><trkpt lat="52.6167290378" lon="14.8020300362"></trkpt><trkpt lat="52.6163302269" lon="14.802081082"></trkpt><trkpt lat="52.6133118197" lon="14.8029465973"></trkpt><trkpt lat="52.6130646374" lon="14.803132927"></trkpt><trkpt lat="52.6133707445" lon="14.8028752673"></trkpt><trkpt lat="52.6143261138" lon="14.8023187928"></trkpt><trkpt lat="52.6146132778" lon="14.8023040406"></trkpt><trkpt lat="52.6164013054" lon="14.8019389249"></trkpt><trkpt lat="52.6169399265" lon="14.8019151203"></trkpt><trkpt lat="52.6171986759" lon="14.8017792497"></trkpt><trkpt lat="52.6215539966" lon="14.7987123113"></trkpt><trkpt lat="52.6218241453" lon="14.7983297613"></trkpt><trkpt lat="52.628739886" lon="14.7886006348"></trkpt><trkpt lat="52.6337458938" lon="14.7827393375"></trkpt><trkpt lat="52.6424488239" lon="14.7812942974"></trkpt></trkseg></trk></gpx>