<?xml version="1.0" encoding="UTF-8" standalone="no" ?><gpx xmlns="http://www.topografix.com/GPX/1/1" xmlns:gpxx="http://www.garmin.com/xmlschemas/GpxExtensions/v3" ><trk><trkseg><trkpt lat="54.517549" lon="18.538477"></trkpt><trkpt lat="54.517867" lon="18.538572"></trkpt><trkpt lat="54.517795" lon="18.539097"></trkpt><trkpt lat="54.51765" lon="18.5416"></trkpt><trkpt lat="54.51803" lon="18.541631"></trkpt><trkpt lat="54.518372" lon="18.541771"></trkpt><trkpt lat="54.518672" lon="18.542021"></trkpt><trkpt lat="54.519128" lon="18.542282"></trkpt><trkpt lat="54.51929" lon="18.542766"></trkpt><trkpt lat="54.519268" lon="18.543341"></trkpt><trkpt lat="54.519203" lon="18.543822"></trkpt><trkpt lat="54.51893" lon="18.544047"></trkpt><trkpt lat="54.518907" lon="18.5446"></trkpt><trkpt lat="54.519022" lon="18.5475"></trkpt><trkpt lat="54.519298" lon="18.547402"></trkpt><trkpt lat="54.519353" lon="18.547917"></trkpt><trkpt lat="54.519349" lon="18.54854"></trkpt><trkpt lat="54.519313" lon="18.549014"></trkpt><trkpt lat="54.519341" lon="18.549544"></trkpt><trkpt lat="54.519439" lon="18.550433"></trkpt><trkpt lat="54.519449" lon="18.551145"></trkpt><trkpt lat="54.519391" lon="18.552709"></trkpt><trkpt lat="54.519339" lon="18.553297"></trkpt><trkpt lat="54.519324" lon="18.553915"></trkpt><trkpt lat="54.519251" lon="18.554797"></trkpt><trkpt lat="54.519243" lon="18.555333"></trkpt><trkpt lat="54.518836" lon="18.559542"></trkpt><trkpt lat="54.518427" lon="18.559556"></trkpt><trkpt lat="54.518058" lon="18.559697"></trkpt><trkpt lat="54.518331" lon="18.55951"></trkpt><trkpt lat="54.518741" lon="18.559356"></trkpt><trkpt lat="54.518995" lon="18.55899"></trkpt><trkpt lat="54.519047" lon="18.558459"></trkpt><trkpt lat="54.519066" lon="18.55784"></trkpt><trkpt lat="54.519182" lon="18.556509"></trkpt><trkpt lat="54.519223" lon="18.554578"></trkpt><trkpt lat="54.519297" lon="18.554067"></trkpt><trkpt lat="54.519311" lon="18.553548"></trkpt><trkpt lat="54.519698" lon="18.548922"></trkpt><trkpt lat="54.519707" lon="18.548155"></trkpt><trkpt lat="54.519603" lon="18.547305"></trkpt><trkpt lat="54.519766" lon="18.546925"></trkpt><trkpt lat="54.520226" lon="18.546883"></trkpt><trkpt lat="54.520511" lon="18.546587"></trkpt><trkpt lat="54.520826" lon="18.546352"></trkpt><trkpt lat="54.521149" lon="18.546251"></trkpt><trkpt lat="54.521822" lon="18.545839"></trkpt><trkpt lat="54.521772" lon="18.545143"></trkpt><trkpt lat="54.521629" lon="18.544496"></trkpt><trkpt lat="54.521776" lon="18.543947"></trkpt><trkpt lat="54.521602" lon="18.543464"></trkpt><trkpt lat="54.521503" lon="18.54295"></trkpt><trkpt lat="54.521357" lon="18.542531"></trkpt><trkpt lat="54.52127" lon="18.542058"></trkpt><trkpt lat="54.521227" lon="18.541505"></trkpt><trkpt lat="54.521683" lon="18.541159"></trkpt><trkpt lat="54.521421" lon="18.541334"></trkpt><trkpt lat="54.521353" lon="18.540687"></trkpt><trkpt lat="54.521358" lon="18.540092"></trkpt><trkpt lat="54.521239" lon="18.539413"></trkpt><trkpt lat="54.521216" lon="18.538769"></trkpt><trkpt lat="54.521235" lon="18.538273"></trkpt><trkpt lat="54.521203" lon="18.537804"></trkpt><trkpt lat="54.521104" lon="18.531877"></trkpt><trkpt lat="54.52125" lon="18.531465"></trkpt><trkpt lat="54.521283" lon="18.530756"></trkpt><trkpt lat="54.521358" lon="18.530278"></trkpt><trkpt lat="54.520774" lon="18.530371"></trkpt><trkpt lat="54.520465" lon="18.531013"></trkpt></trkseg><trkseg><trkpt lat="54.5480706543" lon="18.552151015"></trkpt><trkpt lat="54.5480168425" lon="18.5527798254"></trkpt><trkpt lat="54.5480664633" lon="18.5532694962"></trkpt><trkpt lat="54.5483742468" lon="18.5550133511"></trkpt><trkpt lat="54.5487018954" lon="18.5549983475"></trkpt><trkpt lat="54.5489722956" lon="18.5549157858"></trkpt><trkpt lat="54.5492522512" lon="18.554768851"></trkpt><trkpt lat="54.550207369" lon="18.5544281267"></trkpt><trkpt lat="54.5504798647" lon="18.5544023942"></trkpt><trkpt lat="54.5505908411" lon="18.5549781471"></trkpt><trkpt lat="54.5506690443" lon="18.5555744357"></trkpt><trkpt lat="54.5508161467" lon="18.5576306842"></trkpt><trkpt lat="54.5509337448" lon="18.5580942035"></trkpt><trkpt lat="54.5510984492" lon="18.5584675334"></trkpt><trkpt lat="54.5507822838" lon="18.5585302301"></trkpt><trkpt lat="54.5507190842" lon="18.5590234213"></trkpt><trkpt lat="54.5506760851" lon="18.5596420895"></trkpt><trkpt lat="54.5509244408" lon="18.5593928117"></trkpt><trkpt lat="54.5511959307" lon="18.5594201367"></trkpt><trkpt lat="54.5514472201" lon="18.5590919014"></trkpt><trkpt lat="54.5517648943" lon="18.5587961879"></trkpt><trkpt lat="54.5520203747" lon="18.558639111"></trkpt><trkpt lat="54.5523622725" lon="18.5585062578"></trkpt><trkpt lat="54.5530728064" lon="18.5581103805"></trkpt><trkpt lat="54.5533204079" lon="18.5578803811"></trkpt><trkpt lat="54.5535811689" lon="18.5577464383"></trkpt><trkpt lat="54.55388451" lon="18.5574596096"></trkpt><trkpt lat="54.5541417506" lon="18.5572812427"></trkpt><trkpt lat="54.5568242949" lon="18.5549315438"></trkpt><trkpt lat="54.557019677" lon="18.5545639973"></trkpt><trkpt lat="54.55736476" lon="18.5542520229"></trkpt><trkpt lat="54.5576645806" lon="18.5538657848"></trkpt><trkpt lat="54.5579090808" lon="18.5534762777"></trkpt><trkpt lat="54.558217451" lon="18.5532426741"></trkpt><trkpt lat="54.5584586821" lon="18.5528104194"></trkpt><trkpt lat="54.5587548148" lon="18.552868003"></trkpt><trkpt lat="54.558967296" lon="18.5525509994"></trkpt><trkpt lat="54.5587670524" lon="18.5521685332"></trkpt><trkpt lat="54.5588713232" lon="18.5516770184"></trkpt><trkpt lat="54.5589140709" lon="18.5511355475"></trkpt><trkpt lat="54.5590564795" lon="18.5458759032"></trkpt><trkpt lat="54.5587481093" lon="18.5459346604"></trkpt><trkpt lat="54.5583097357" lon="18.5461349878"></trkpt><trkpt lat="54.5574766584" lon="18.5466554202"></trkpt></trkseg></trk></gpx>