<?xml version="1.0" encoding="UTF-8" standalone="no" ?><gpx xmlns="http://www.topografix.com/GPX/1/1" xmlns:gpxx="http://www.garmin.com/xmlschemas/GpxExtensions/v3" ><trk><trkseg><trkpt lat="54.4587832689" lon="18.5570704378"></trkpt><trkpt lat="54.4588034693" lon="18.5580663756"></trkpt><trkpt lat="54.45871328" lon="18.5585157294"></trkpt><trkpt lat="54.4585883897" lon="18.5589381773"></trkpt><trkpt lat="54.4584821071" lon="18.559652064"></trkpt><trkpt lat="54.458374735" lon="18.5617673211"></trkpt><trkpt lat="54.4584985357" lon="18.5622248892"></trkpt><trkpt lat="54.4587847777" lon="18.5623724945"></trkpt><trkpt lat="54.4591566827" lon="18.5624368675"></trkpt><trkpt lat="54.4589494821" lon="18.5627702996"></trkpt><trkpt lat="54.458464589" lon="18.5628625005"></trkpt><trkpt lat="54.4581428077" lon="18.5629872233"></trkpt><trkpt lat="54.4578563981" lon="18.5630507581"></trkpt><trkpt lat="54.4574715849" lon="18.5632129479"></trkpt><trkpt lat="54.4555971399" lon="18.5643132403"></trkpt><trkpt lat="54.4500672631" lon="18.5665707383"></trkpt><trkpt lat="54.4503483921" lon="18.5662645474"></trkpt><trkpt lat="54.4507378992" lon="18.5659284331"></trkpt><trkpt lat="54.4543739688" lon="18.5634582862"></trkpt><trkpt lat="54.4583736453" lon="18.5598659702"></trkpt><trkpt lat="54.4584620744" lon="18.5593435261"></trkpt><trkpt lat="54.458756363" lon="18.558841534"></trkpt><trkpt lat="54.4588051457" lon="18.5581398848"></trkpt><trkpt lat="54.4591171201" lon="18.5558325145"></trkpt></trkseg></trk></gpx>