<?xml version="1.0" encoding="UTF-8" standalone="no" ?><gpx xmlns="http://www.topografix.com/GPX/1/1" xmlns:gpxx="http://www.garmin.com/xmlschemas/GpxExtensions/v3" ><trk><trkseg><trkpt lat="53.111828" lon="23.736385"></trkpt><trkpt lat="53.112229" lon="23.736493"></trkpt><trkpt lat="53.112419" lon="23.736602"></trkpt><trkpt lat="53.112398" lon="23.737617"></trkpt><trkpt lat="53.112303" lon="23.738391"></trkpt><trkpt lat="53.112238" lon="23.739303"></trkpt><trkpt lat="53.112223" lon="23.740086"></trkpt><trkpt lat="53.112344" lon="23.74039"></trkpt><trkpt lat="53.112694" lon="23.740827"></trkpt><trkpt lat="53.11298" lon="23.74124"></trkpt><trkpt lat="53.113153" lon="23.741456"></trkpt><trkpt lat="53.113348" lon="23.741651"></trkpt><trkpt lat="53.113692" lon="23.742136"></trkpt><trkpt lat="53.116241" lon="23.7465"></trkpt><trkpt lat="53.116441" lon="23.74703"></trkpt><trkpt lat="53.116625" lon="23.747787"></trkpt><trkpt lat="53.116749" lon="23.74863"></trkpt><trkpt lat="53.116776" lon="23.749462"></trkpt><trkpt lat="53.117089" lon="23.75246"></trkpt><trkpt lat="53.117239" lon="23.753131"></trkpt><trkpt lat="53.117335" lon="23.75376"></trkpt><trkpt lat="53.118359" lon="23.758575"></trkpt><trkpt lat="53.118749" lon="23.758861"></trkpt><trkpt lat="53.120868" lon="23.760084"></trkpt><trkpt lat="53.121503" lon="23.760179"></trkpt><trkpt lat="53.133491" lon="23.7634"></trkpt><trkpt lat="53.133692" lon="23.763727"></trkpt><trkpt lat="53.133826" lon="23.764015"></trkpt><trkpt lat="53.13414" lon="23.765037"></trkpt><trkpt lat="53.134212" lon="23.766188"></trkpt><trkpt lat="53.134186" lon="23.766712"></trkpt><trkpt lat="53.134268" lon="23.769178"></trkpt><trkpt lat="53.13439" lon="23.769505"></trkpt><trkpt lat="53.134537" lon="23.769996"></trkpt><trkpt lat="53.136518" lon="23.775395"></trkpt><trkpt lat="53.136983" lon="23.77599"></trkpt><trkpt lat="53.137458" lon="23.776305"></trkpt><trkpt lat="53.137872" lon="23.776433"></trkpt><trkpt lat="53.155515" lon="23.784565"></trkpt><trkpt lat="53.1557" lon="23.784996"></trkpt><trkpt lat="53.156256" lon="23.785519"></trkpt><trkpt lat="53.156849" lon="23.78569"></trkpt><trkpt lat="53.158344" lon="23.785927"></trkpt><trkpt lat="53.159685" lon="23.786416"></trkpt><trkpt lat="53.159909" lon="23.786634"></trkpt><trkpt lat="53.160324" lon="23.787118"></trkpt><trkpt lat="53.160683" lon="23.787474"></trkpt><trkpt lat="53.161023" lon="23.787916"></trkpt><trkpt lat="53.162588" lon="23.78966"></trkpt><trkpt lat="53.162791" lon="23.789787"></trkpt><trkpt lat="53.162972" lon="23.790012"></trkpt><trkpt lat="53.163145" lon="23.790393"></trkpt><trkpt lat="53.163681" lon="23.791362"></trkpt><trkpt lat="53.167278" lon="23.799098"></trkpt><trkpt lat="53.167404" lon="23.799778"></trkpt><trkpt lat="53.167673" lon="23.800685"></trkpt><trkpt lat="53.168084" lon="23.802439"></trkpt><trkpt lat="53.169027" lon="23.808074"></trkpt><trkpt lat="53.168947" lon="23.80889"></trkpt><trkpt lat="53.168926" lon="23.810857"></trkpt><trkpt lat="53.169213" lon="23.810987"></trkpt><trkpt lat="53.169611" lon="23.81111"></trkpt><trkpt lat="53.174416" lon="23.811952"></trkpt><trkpt lat="53.186401" lon="23.811973"></trkpt><trkpt lat="53.186774" lon="23.811115"></trkpt><trkpt lat="53.187764" lon="23.809321"></trkpt><trkpt lat="53.188096" lon="23.808817"></trkpt><trkpt lat="53.190035" lon="23.806282"></trkpt><trkpt lat="53.1905" lon="23.805871"></trkpt><trkpt lat="53.193227" lon="23.803866"></trkpt><trkpt lat="53.193693" lon="23.803657"></trkpt><trkpt lat="53.197849" lon="23.801167"></trkpt><trkpt lat="53.198149" lon="23.800578"></trkpt><trkpt lat="53.19939" lon="23.798567"></trkpt><trkpt lat="53.199672" lon="23.798427"></trkpt><trkpt lat="53.199743" lon="23.798093"></trkpt><trkpt lat="53.19982" lon="23.79729"></trkpt><trkpt lat="53.199977" lon="23.79403"></trkpt><trkpt lat="53.199783" lon="23.79388"></trkpt><trkpt lat="53.199603" lon="23.793698"></trkpt><trkpt lat="53.199677" lon="23.793103"></trkpt><trkpt lat="53.200086" lon="23.790681"></trkpt><trkpt lat="53.200256" lon="23.790459"></trkpt><trkpt lat="53.200356" lon="23.789974"></trkpt><trkpt lat="53.20038" lon="23.789201"></trkpt><trkpt lat="53.200218" lon="23.788352"></trkpt><trkpt lat="53.200397" lon="23.788507"></trkpt><trkpt lat="53.20081" lon="23.788473"></trkpt><trkpt lat="53.202078" lon="23.78876"></trkpt><trkpt lat="53.202725" lon="23.78909"></trkpt><trkpt lat="53.202905" lon="23.789463"></trkpt><trkpt lat="53.203295" lon="23.789706"></trkpt><trkpt lat="53.203576" lon="23.789823"></trkpt><trkpt lat="53.203892" lon="23.789873"></trkpt><trkpt lat="53.204058" lon="23.79016"></trkpt><trkpt lat="53.20412" lon="23.790484"></trkpt><trkpt lat="53.204364" lon="23.790655"></trkpt><trkpt lat="53.204659" lon="23.790749"></trkpt><trkpt lat="53.204981" lon="23.790788"></trkpt><trkpt lat="53.205081" lon="23.791124"></trkpt><trkpt lat="53.205056" lon="23.791609"></trkpt><trkpt lat="53.205025" lon="23.794963"></trkpt><trkpt lat="53.205111" lon="23.795448"></trkpt><trkpt lat="53.205243" lon="23.796459"></trkpt><trkpt lat="53.205316" lon="23.796831"></trkpt><trkpt lat="53.205818" lon="23.796846"></trkpt><trkpt lat="53.206387" lon="23.796722"></trkpt><trkpt lat="53.210609" lon="23.796735"></trkpt><trkpt lat="53.211732" lon="23.797482"></trkpt><trkpt lat="53.212112" lon="23.797678"></trkpt><trkpt lat="53.212856" lon="23.797603"></trkpt><trkpt lat="53.213825" lon="23.797305"></trkpt><trkpt lat="53.215076" lon="23.797184"></trkpt><trkpt lat="53.215973" lon="23.796927"></trkpt><trkpt lat="53.216149" lon="23.796724"></trkpt><trkpt lat="53.216481" lon="23.796233"></trkpt><trkpt lat="53.217201" lon="23.795333"></trkpt><trkpt lat="53.218559" lon="23.793903"></trkpt><trkpt lat="53.218767" lon="23.793851"></trkpt><trkpt lat="53.219463" lon="23.794233"></trkpt><trkpt lat="53.219812" lon="23.794495"></trkpt><trkpt lat="53.220309" lon="23.79474"></trkpt><trkpt lat="53.220926" lon="23.794795"></trkpt><trkpt lat="53.224864" lon="23.793848"></trkpt><trkpt lat="53.225378" lon="23.793631"></trkpt><trkpt lat="53.234113" lon="23.791054"></trkpt><trkpt lat="53.234573" lon="23.79105"></trkpt><trkpt lat="53.239794" lon="23.790138"></trkpt><trkpt lat="53.240639" lon="23.78969"></trkpt><trkpt lat="53.260599" lon="23.776398"></trkpt><trkpt lat="53.260831" lon="23.775925"></trkpt><trkpt lat="53.262323" lon="23.773385"></trkpt><trkpt lat="53.262593" lon="23.77325"></trkpt><trkpt lat="53.26306" lon="23.773087"></trkpt><trkpt lat="53.263313" lon="23.772944"></trkpt><trkpt lat="53.263853" lon="23.772718"></trkpt><trkpt lat="53.263973" lon="23.773178"></trkpt><trkpt lat="53.264075" lon="23.773502"></trkpt><trkpt lat="53.264269" lon="23.773251"></trkpt><trkpt lat="53.264411" lon="23.772976"></trkpt><trkpt lat="53.264685" lon="23.772533"></trkpt><trkpt lat="53.264852" lon="23.772341"></trkpt><trkpt lat="53.265004" lon="23.772007"></trkpt><trkpt lat="53.26532" lon="23.771447"></trkpt><trkpt lat="53.265287" lon="23.771784"></trkpt><trkpt lat="53.265411" lon="23.772082"></trkpt><trkpt lat="53.265531" lon="23.772428"></trkpt><trkpt lat="53.265582" lon="23.772749"></trkpt><trkpt lat="53.265694" lon="23.773291"></trkpt><trkpt lat="53.265615" lon="23.772972"></trkpt><trkpt lat="53.265549" lon="23.772554"></trkpt><trkpt lat="53.265231" lon="23.772537"></trkpt><trkpt lat="53.26501" lon="23.772579"></trkpt><trkpt lat="53.264747" lon="23.772589"></trkpt><trkpt lat="53.264558" lon="23.772924"></trkpt><trkpt lat="53.264089" lon="23.773414"></trkpt><trkpt lat="53.264299" lon="23.773385"></trkpt><trkpt lat="53.264136" lon="23.773021"></trkpt><trkpt lat="53.26412" lon="23.772592"></trkpt><trkpt lat="53.264282" lon="23.772284"></trkpt><trkpt lat="53.264265" lon="23.771925"></trkpt><trkpt lat="53.264473" lon="23.771229"></trkpt><trkpt lat="53.26544" lon="23.767305"></trkpt><trkpt lat="53.265676" lon="23.765664"></trkpt><trkpt lat="53.268982" lon="23.732358"></trkpt><trkpt lat="53.268952" lon="23.731591"></trkpt><trkpt lat="53.269054" lon="23.695268"></trkpt><trkpt lat="53.267651" lon="23.65984"></trkpt><trkpt lat="53.26744" lon="23.657335"></trkpt><trkpt lat="53.265009" lon="23.638561"></trkpt><trkpt lat="53.264816" lon="23.638659"></trkpt><trkpt lat="53.265034" lon="23.639015"></trkpt><trkpt lat="53.265188" lon="23.63949"></trkpt><trkpt lat="53.264952" lon="23.639533"></trkpt><trkpt lat="53.264742" lon="23.639534"></trkpt><trkpt lat="53.264538" lon="23.63925"></trkpt><trkpt lat="53.26432" lon="23.639356"></trkpt><trkpt lat="53.263951" lon="23.639295"></trkpt><trkpt lat="53.263696" lon="23.639302"></trkpt><trkpt lat="53.263458" lon="23.639371"></trkpt><trkpt lat="53.263255" lon="23.63935"></trkpt><trkpt lat="53.263019" lon="23.639442"></trkpt><trkpt lat="53.262835" lon="23.639607"></trkpt><trkpt lat="53.262611" lon="23.63965"></trkpt><trkpt lat="53.262408" lon="23.639352"></trkpt><trkpt lat="53.260895" lon="23.639229"></trkpt><trkpt lat="53.260653" lon="23.63883"></trkpt><trkpt lat="53.26049" lon="23.638633"></trkpt><trkpt lat="53.260277" lon="23.638189"></trkpt><trkpt lat="53.260054" lon="23.637627"></trkpt><trkpt lat="53.260295" lon="23.638154"></trkpt><trkpt lat="53.260501" lon="23.638152"></trkpt><trkpt lat="53.26098" lon="23.637997"></trkpt><trkpt lat="53.261146" lon="23.638295"></trkpt><trkpt lat="53.261401" lon="23.638331"></trkpt><trkpt lat="53.261619" lon="23.638126"></trkpt><trkpt lat="53.261654" lon="23.637717"></trkpt><trkpt lat="53.261857" lon="23.637566"></trkpt><trkpt lat="53.261985" lon="23.63782"></trkpt><trkpt lat="53.262236" lon="23.637783"></trkpt><trkpt lat="53.262409" lon="23.637948"></trkpt><trkpt lat="53.262502" lon="23.638243"></trkpt><trkpt lat="53.262723" lon="23.638323"></trkpt><trkpt lat="53.26298" lon="23.638649"></trkpt><trkpt lat="53.263268" lon="23.638775"></trkpt><trkpt lat="53.263553" lon="23.638794"></trkpt><trkpt lat="53.264308" lon="23.638639"></trkpt><trkpt lat="53.266016" lon="23.638515"></trkpt><trkpt lat="53.266129" lon="23.639043"></trkpt><trkpt lat="53.266232" lon="23.639795"></trkpt><trkpt lat="53.266273" lon="23.640709"></trkpt><trkpt lat="53.268918" lon="23.670649"></trkpt><trkpt lat="53.269057" lon="23.671309"></trkpt><trkpt lat="53.269355" lon="23.673506"></trkpt><trkpt lat="53.269545" lon="23.673649"></trkpt><trkpt lat="53.270044" lon="23.673356"></trkpt><trkpt lat="53.290344" lon="23.6609"></trkpt><trkpt lat="53.29936" lon="23.653823"></trkpt><trkpt lat="53.2993" lon="23.653459"></trkpt><trkpt lat="53.29897" lon="23.649997"></trkpt><trkpt lat="53.299197" lon="23.648954"></trkpt><trkpt lat="53.29969" lon="23.647399"></trkpt><trkpt lat="53.311289" lon="23.616681"></trkpt><trkpt lat="53.311565" lon="23.616522"></trkpt><trkpt lat="53.332055" lon="23.60472"></trkpt><trkpt lat="53.33893" lon="23.599505"></trkpt><trkpt lat="53.339209" lon="23.598859"></trkpt><trkpt lat="53.351761" lon="23.568891"></trkpt><trkpt lat="53.354026" lon="23.564747"></trkpt><trkpt lat="53.354333" lon="23.564601"></trkpt><trkpt lat="53.374729" lon="23.552406"></trkpt><trkpt lat="53.388956" lon="23.541873"></trkpt><trkpt lat="53.389186" lon="23.541485"></trkpt><trkpt lat="53.399079" lon="23.522145"></trkpt><trkpt lat="53.399237" lon="23.521345"></trkpt><trkpt lat="53.399465" lon="23.520451"></trkpt><trkpt lat="53.399703" lon="23.519701"></trkpt><trkpt lat="53.399572" lon="23.520216"></trkpt><trkpt lat="53.399348" lon="23.520032"></trkpt><trkpt lat="53.399587" lon="23.519338"></trkpt><trkpt lat="53.401358" lon="23.51573"></trkpt><trkpt lat="53.401928" lon="23.515192"></trkpt><trkpt lat="53.402253" lon="23.514679"></trkpt><trkpt lat="53.40273" lon="23.513766"></trkpt><trkpt lat="53.403438" lon="23.511572"></trkpt><trkpt lat="53.403304" lon="23.511268"></trkpt><trkpt lat="53.403178" lon="23.510611"></trkpt><trkpt lat="53.403027" lon="23.509476"></trkpt><trkpt lat="53.400358" lon="23.495037"></trkpt><trkpt lat="53.400009" lon="23.495063"></trkpt><trkpt lat="53.399765" lon="23.494958"></trkpt><trkpt lat="53.399304" lon="23.494411"></trkpt><trkpt lat="53.39904" lon="23.493783"></trkpt><trkpt lat="53.398588" lon="23.493338"></trkpt><trkpt lat="53.397665" lon="23.492195"></trkpt><trkpt lat="53.397566" lon="23.491799"></trkpt><trkpt lat="53.397413" lon="23.490943"></trkpt><trkpt lat="53.397281" lon="23.490391"></trkpt><trkpt lat="53.395042" lon="23.478122"></trkpt><trkpt lat="53.395415" lon="23.477889"></trkpt><trkpt lat="53.396776" lon="23.476773"></trkpt><trkpt lat="53.396603" lon="23.476441"></trkpt><trkpt lat="53.394308" lon="23.470794"></trkpt></trkseg></trk></gpx>