<?xml version="1.0" encoding="UTF-8" standalone="no" ?><gpx xmlns="http://www.topografix.com/GPX/1/1" xmlns:gpxx="http://www.garmin.com/xmlschemas/GpxExtensions/v3" ><trk><trkseg><trkpt lat="51.429736" lon="17.940367"></trkpt><trkpt lat="51.429527" lon="17.940415"></trkpt><trkpt lat="51.429272" lon="17.940285"></trkpt><trkpt lat="51.429067" lon="17.940309"></trkpt><trkpt lat="51.428866" lon="17.940455"></trkpt><trkpt lat="51.427753" lon="17.941004"></trkpt><trkpt lat="51.42767" lon="17.940625"></trkpt><trkpt lat="51.427488" lon="17.939992"></trkpt><trkpt lat="51.42742" lon="17.939684"></trkpt><trkpt lat="51.4273" lon="17.9389"></trkpt><trkpt lat="51.427684" lon="17.938767"></trkpt><trkpt lat="51.428082" lon="17.938749"></trkpt><trkpt lat="51.428552" lon="17.938589"></trkpt><trkpt lat="51.428807" lon="17.938279"></trkpt><trkpt lat="51.428965" lon="17.937947"></trkpt><trkpt lat="51.429058" lon="17.937549"></trkpt><trkpt lat="51.429145" lon="17.937044"></trkpt><trkpt lat="51.429638" lon="17.935067"></trkpt><trkpt lat="51.430018" lon="17.935217"></trkpt><trkpt lat="51.457371" lon="17.949351"></trkpt><trkpt lat="51.491893" lon="17.963285"></trkpt><trkpt lat="51.492398" lon="17.963311"></trkpt><trkpt lat="51.522518" lon="17.968285"></trkpt><trkpt lat="51.522824" lon="17.968479"></trkpt><trkpt lat="51.526952" lon="17.970505"></trkpt><trkpt lat="51.527184" lon="17.970537"></trkpt><trkpt lat="51.52864" lon="17.97057"></trkpt><trkpt lat="51.528872" lon="17.970417"></trkpt><trkpt lat="51.529156" lon="17.970292"></trkpt><trkpt lat="51.530359" lon="17.970014"></trkpt><trkpt lat="51.530451" lon="17.970301"></trkpt><trkpt lat="51.530489" lon="17.970631"></trkpt><trkpt lat="51.530578" lon="17.971087"></trkpt><trkpt lat="51.530777" lon="17.971258"></trkpt><trkpt lat="51.530957" lon="17.971059"></trkpt><trkpt lat="51.531154" lon="17.971313"></trkpt><trkpt lat="51.531285" lon="17.97163"></trkpt><trkpt lat="51.531805" lon="17.972633"></trkpt><trkpt lat="51.53214" lon="17.973086"></trkpt><trkpt lat="51.532354" lon="17.973143"></trkpt><trkpt lat="51.53456" lon="17.973432"></trkpt><trkpt lat="51.535413" lon="17.973167"></trkpt><trkpt lat="51.535603" lon="17.972987"></trkpt><trkpt lat="51.535809" lon="17.972733"></trkpt><trkpt lat="51.536108" lon="17.972434"></trkpt><trkpt lat="51.53636" lon="17.972232"></trkpt><trkpt lat="51.5401" lon="17.969771"></trkpt><trkpt lat="51.542895" lon="17.971082"></trkpt><trkpt lat="51.543161" lon="17.971006"></trkpt><trkpt lat="51.543378" lon="17.970969"></trkpt><trkpt lat="51.543615" lon="17.970882"></trkpt><trkpt lat="51.543823" lon="17.97083"></trkpt><trkpt lat="51.547311" lon="17.97036"></trkpt><trkpt lat="51.547487" lon="17.97074"></trkpt><trkpt lat="51.547696" lon="17.971001"></trkpt><trkpt lat="51.54828" lon="17.971878"></trkpt><trkpt lat="51.548708" lon="17.972105"></trkpt><trkpt lat="51.549104" lon="17.972241"></trkpt><trkpt lat="51.556346" lon="17.973795"></trkpt><trkpt lat="51.556603" lon="17.973588"></trkpt><trkpt lat="51.568277" lon="17.965891"></trkpt><trkpt lat="51.568591" lon="17.966005"></trkpt><trkpt lat="51.598764" lon="17.973142"></trkpt><trkpt lat="51.598902" lon="17.972601"></trkpt><trkpt lat="51.601429" lon="17.964745"></trkpt><trkpt lat="51.601736" lon="17.964691"></trkpt><trkpt lat="51.602113" lon="17.964699"></trkpt><trkpt lat="51.613209" lon="17.963122"></trkpt><trkpt lat="51.613479" lon="17.96278"></trkpt><trkpt lat="51.616101" lon="17.959928"></trkpt><trkpt lat="51.616538" lon="17.959633"></trkpt><trkpt lat="51.616809" lon="17.959372"></trkpt><trkpt lat="51.617036" lon="17.95895"></trkpt><trkpt lat="51.617145" lon="17.958621"></trkpt><trkpt lat="51.617301" lon="17.95805"></trkpt><trkpt lat="51.621457" lon="17.945373"></trkpt><trkpt lat="51.621884" lon="17.945227"></trkpt><trkpt lat="51.622075" lon="17.94511"></trkpt><trkpt lat="51.622252" lon="17.9448"></trkpt><trkpt lat="51.622331" lon="17.944498"></trkpt><trkpt lat="51.623931" lon="17.93942"></trkpt><trkpt lat="51.624455" lon="17.939672"></trkpt><trkpt lat="51.625332" lon="17.939986"></trkpt><trkpt lat="51.625565" lon="17.939944"></trkpt><trkpt lat="51.625901" lon="17.939786"></trkpt><trkpt lat="51.626107" lon="17.939656"></trkpt><trkpt lat="51.632625" lon="17.93666"></trkpt><trkpt lat="51.633163" lon="17.936769"></trkpt><trkpt lat="51.637874" lon="17.937092"></trkpt><trkpt lat="51.637878" lon="17.93653"></trkpt><trkpt lat="51.639065" lon="17.879707"></trkpt><trkpt lat="51.639173" lon="17.879087"></trkpt><trkpt lat="51.639276" lon="17.87864"></trkpt><trkpt lat="51.639411" lon="17.878177"></trkpt><trkpt lat="51.639536" lon="17.877833"></trkpt><trkpt lat="51.639982" lon="17.876373"></trkpt><trkpt lat="51.640072" lon="17.875996"></trkpt><trkpt lat="51.640216" lon="17.875541"></trkpt><trkpt lat="51.649045" lon="17.841914"></trkpt><trkpt lat="51.649097" lon="17.841527"></trkpt><trkpt lat="51.649177" lon="17.841089"></trkpt><trkpt lat="51.649979" lon="17.837908"></trkpt><trkpt lat="51.650254" lon="17.838045"></trkpt><trkpt lat="51.650672" lon="17.83817"></trkpt><trkpt lat="51.650993" lon="17.838219"></trkpt><trkpt lat="51.653247" lon="17.8383"></trkpt><trkpt lat="51.653357" lon="17.837924"></trkpt><trkpt lat="51.653312" lon="17.837514"></trkpt><trkpt lat="51.653301" lon="17.837119"></trkpt><trkpt lat="51.653413" lon="17.836835"></trkpt><trkpt lat="51.653698" lon="17.836902"></trkpt><trkpt lat="51.653591" lon="17.836577"></trkpt><trkpt lat="51.653534" lon="17.836228"></trkpt><trkpt lat="51.653361" lon="17.835967"></trkpt><trkpt lat="51.653226" lon="17.835718"></trkpt><trkpt lat="51.65319" lon="17.835233"></trkpt><trkpt lat="51.653152" lon="17.833959"></trkpt><trkpt lat="51.653352" lon="17.833822"></trkpt><trkpt lat="51.653305" lon="17.833394"></trkpt><trkpt lat="51.653197" lon="17.832863"></trkpt><trkpt lat="51.653119" lon="17.832266"></trkpt><trkpt lat="51.653059" lon="17.831511"></trkpt><trkpt lat="51.652928" lon="17.827498"></trkpt><trkpt lat="51.652938" lon="17.826844"></trkpt><trkpt lat="51.653208" lon="17.823887"></trkpt><trkpt lat="51.653461" lon="17.823911"></trkpt><trkpt lat="51.663997" lon="17.826152"></trkpt><trkpt lat="51.664291" lon="17.82651"></trkpt><trkpt lat="51.667635" lon="17.829904"></trkpt><trkpt lat="51.667712" lon="17.829489"></trkpt><trkpt lat="51.667738" lon="17.829172"></trkpt><trkpt lat="51.667675" lon="17.828651"></trkpt><trkpt lat="51.667647" lon="17.828148"></trkpt><trkpt lat="51.667288" lon="17.824587"></trkpt><trkpt lat="51.667173" lon="17.823812"></trkpt><trkpt lat="51.666484" lon="17.816948"></trkpt><trkpt lat="51.666544" lon="17.816587"></trkpt><trkpt lat="51.666649" lon="17.81627"></trkpt><trkpt lat="51.666987" lon="17.815001"></trkpt><trkpt lat="51.667046" lon="17.814418"></trkpt><trkpt lat="51.666904" lon="17.814189"></trkpt><trkpt lat="51.66667" lon="17.814309"></trkpt><trkpt lat="51.666466" lon="17.814485"></trkpt><trkpt lat="51.666102" lon="17.814539"></trkpt><trkpt lat="51.665834" lon="17.814458"></trkpt><trkpt lat="51.66562" lon="17.814341"></trkpt><trkpt lat="51.665853" lon="17.814541"></trkpt><trkpt lat="51.666155" lon="17.814547"></trkpt><trkpt lat="51.666469" lon="17.814445"></trkpt><trkpt lat="51.666662" lon="17.81434"></trkpt><trkpt lat="51.668164" lon="17.813281"></trkpt><trkpt lat="51.668186" lon="17.812711"></trkpt><trkpt lat="51.668221" lon="17.812377"></trkpt><trkpt lat="51.668584" lon="17.810374"></trkpt><trkpt lat="51.668749" lon="17.808804"></trkpt><trkpt lat="51.668679" lon="17.808467"></trkpt><trkpt lat="51.668622" lon="17.808062"></trkpt><trkpt lat="51.668715" lon="17.807743"></trkpt><trkpt lat="51.668814" lon="17.807281"></trkpt><trkpt lat="51.669169" lon="17.80492"></trkpt><trkpt lat="51.668987" lon="17.804663"></trkpt><trkpt lat="51.669047" lon="17.804206"></trkpt><trkpt lat="51.66903" lon="17.803878"></trkpt><trkpt lat="51.669028" lon="17.803055"></trkpt><trkpt lat="51.669155" lon="17.802506"></trkpt><trkpt lat="51.669255" lon="17.801811"></trkpt><trkpt lat="51.669317" lon="17.800219"></trkpt><trkpt lat="51.669083" lon="17.800127"></trkpt><trkpt lat="51.668871" lon="17.800078"></trkpt><trkpt lat="51.668573" lon="17.800057"></trkpt><trkpt lat="51.668229" lon="17.800127"></trkpt><trkpt lat="51.667915" lon="17.80027"></trkpt><trkpt lat="51.66757" lon="17.800516"></trkpt><trkpt lat="51.66722" lon="17.800661"></trkpt><trkpt lat="51.66706" lon="17.800468"></trkpt><trkpt lat="51.666868" lon="17.800549"></trkpt><trkpt lat="51.664119" lon="17.801354"></trkpt><trkpt lat="51.664154" lon="17.800873"></trkpt><trkpt lat="51.664352" lon="17.80044"></trkpt><trkpt lat="51.684023" lon="17.753031"></trkpt><trkpt lat="51.684245" lon="17.752613"></trkpt><trkpt lat="51.691251" lon="17.74121"></trkpt><trkpt lat="51.691771" lon="17.740653"></trkpt><trkpt lat="51.709207" lon="17.724746"></trkpt><trkpt lat="51.709833" lon="17.724759"></trkpt><trkpt lat="51.718407" lon="17.725946"></trkpt><trkpt lat="51.7186" lon="17.726022"></trkpt><trkpt lat="51.723177" lon="17.727024"></trkpt><trkpt lat="51.723483" lon="17.726726"></trkpt><trkpt lat="51.726851" lon="17.723975"></trkpt><trkpt lat="51.727071" lon="17.72384"></trkpt><trkpt lat="51.727408" lon="17.723676"></trkpt><trkpt lat="51.753081" lon="17.714327"></trkpt><trkpt lat="51.753735" lon="17.714235"></trkpt><trkpt lat="51.757128" lon="17.713024"></trkpt><trkpt lat="51.757553" lon="17.712804"></trkpt><trkpt lat="51.758111" lon="17.71262"></trkpt><trkpt lat="51.776782" lon="17.704188"></trkpt><trkpt lat="51.777339" lon="17.703805"></trkpt><trkpt lat="51.806705" lon="17.687493"></trkpt><trkpt lat="51.807232" lon="17.687295"></trkpt><trkpt lat="51.807681" lon="17.687355"></trkpt><trkpt lat="51.807908" lon="17.687614"></trkpt><trkpt lat="51.808353" lon="17.687579"></trkpt><trkpt lat="51.814195" lon="17.68641"></trkpt><trkpt lat="51.814516" lon="17.686291"></trkpt><trkpt lat="51.827356" lon="17.683047"></trkpt><trkpt lat="51.840314" lon="17.681353"></trkpt><trkpt lat="51.840907" lon="17.681554"></trkpt><trkpt lat="51.847917" lon="17.683068"></trkpt><trkpt lat="51.848254" lon="17.683039"></trkpt><trkpt lat="51.859643" lon="17.680598"></trkpt><trkpt lat="51.859899" lon="17.680278"></trkpt><trkpt lat="51.86026" lon="17.679748"></trkpt><trkpt lat="51.860361" lon="17.679425"></trkpt><trkpt lat="51.860468" lon="17.679008"></trkpt><trkpt lat="51.860685" lon="17.678443"></trkpt><trkpt lat="51.861009" lon="17.678026"></trkpt><trkpt lat="51.86533" lon="17.671544"></trkpt><trkpt lat="51.865413" lon="17.671237"></trkpt><trkpt lat="51.865907" lon="17.669767"></trkpt><trkpt lat="51.866135" lon="17.669294"></trkpt><trkpt lat="51.869778" lon="17.662841"></trkpt><trkpt lat="51.870072" lon="17.66263"></trkpt><trkpt lat="51.873851" lon="17.660559"></trkpt><trkpt lat="51.87396" lon="17.661309"></trkpt><trkpt lat="51.874746" lon="17.665272"></trkpt><trkpt lat="51.875135" lon="17.665136"></trkpt><trkpt lat="51.876043" lon="17.664632"></trkpt><trkpt lat="51.876348" lon="17.664316"></trkpt><trkpt lat="51.876898" lon="17.663831"></trkpt><trkpt lat="51.880012" lon="17.661543"></trkpt><trkpt lat="51.880458" lon="17.661462"></trkpt><trkpt lat="51.880722" lon="17.661479"></trkpt><trkpt lat="51.881366" lon="17.661628"></trkpt><trkpt lat="51.882193" lon="17.661685"></trkpt><trkpt lat="51.882506" lon="17.661622"></trkpt><trkpt lat="51.883303" lon="17.661356"></trkpt><trkpt lat="51.918122" lon="17.652326"></trkpt><trkpt lat="51.918271" lon="17.652034"></trkpt><trkpt lat="51.918337" lon="17.651615"></trkpt><trkpt lat="51.91904" lon="17.648306"></trkpt><trkpt lat="51.919152" lon="17.648027"></trkpt><trkpt lat="51.919432" lon="17.647964"></trkpt><trkpt lat="51.919878" lon="17.648124"></trkpt><trkpt lat="51.920317" lon="17.648361"></trkpt><trkpt lat="51.923649" lon="17.649733"></trkpt><trkpt lat="51.924202" lon="17.649849"></trkpt><trkpt lat="51.925904" lon="17.649997"></trkpt><trkpt lat="51.926087" lon="17.649688"></trkpt><trkpt lat="51.932479" lon="17.637182"></trkpt><trkpt lat="51.932565" lon="17.636885"></trkpt><trkpt lat="51.934503" lon="17.63127"></trkpt><trkpt lat="51.934787" lon="17.630842"></trkpt><trkpt lat="51.936038" lon="17.629283"></trkpt><trkpt lat="51.936618" lon="17.629144"></trkpt><trkpt lat="51.937101" lon="17.629087"></trkpt><trkpt lat="51.939088" lon="17.628569"></trkpt><trkpt lat="51.939309" lon="17.628424"></trkpt><trkpt lat="51.939775" lon="17.628051"></trkpt><trkpt lat="51.940456" lon="17.627634"></trkpt><trkpt lat="51.94093" lon="17.627567"></trkpt><trkpt lat="51.94164" lon="17.627782"></trkpt><trkpt lat="51.941888" lon="17.627922"></trkpt><trkpt lat="51.942194" lon="17.628056"></trkpt><trkpt lat="51.94228" lon="17.627427"></trkpt><trkpt lat="51.942399" lon="17.626817"></trkpt><trkpt lat="51.942601" lon="17.626161"></trkpt><trkpt lat="51.942962" lon="17.625183"></trkpt><trkpt lat="51.94455" lon="17.621501"></trkpt><trkpt lat="51.944881" lon="17.621792"></trkpt><trkpt lat="51.946304" lon="17.622762"></trkpt><trkpt lat="51.946502" lon="17.622721"></trkpt><trkpt lat="51.946715" lon="17.622388"></trkpt><trkpt lat="51.946967" lon="17.621748"></trkpt><trkpt lat="51.951466" lon="17.608328"></trkpt><trkpt lat="51.951552" lon="17.607886"></trkpt><trkpt lat="51.952477" lon="17.604109"></trkpt><trkpt lat="51.952784" lon="17.603207"></trkpt><trkpt lat="51.954596" lon="17.598771"></trkpt><trkpt lat="51.954953" lon="17.597732"></trkpt><trkpt lat="51.955082" lon="17.597272"></trkpt><trkpt lat="51.955219" lon="17.596877"></trkpt><trkpt lat="51.955368" lon="17.596655"></trkpt><trkpt lat="51.955535" lon="17.596458"></trkpt><trkpt lat="51.955968" lon="17.595848"></trkpt><trkpt lat="51.956274" lon="17.595247"></trkpt><trkpt lat="51.961985" lon="17.582258"></trkpt><trkpt lat="51.962114" lon="17.58188"></trkpt><trkpt lat="51.962292" lon="17.581074"></trkpt><trkpt lat="51.962294" lon="17.580555"></trkpt><trkpt lat="51.96241" lon="17.578878"></trkpt><trkpt lat="51.962663" lon="17.578245"></trkpt><trkpt lat="51.963164" lon="17.577427"></trkpt><trkpt lat="51.963581" lon="17.577032"></trkpt><trkpt lat="51.96445" lon="17.576053"></trkpt><trkpt lat="51.964766" lon="17.5754"></trkpt><trkpt lat="51.967544" lon="17.567822"></trkpt><trkpt lat="51.967458" lon="17.566922"></trkpt><trkpt lat="51.967265" lon="17.565577"></trkpt><trkpt lat="51.967334" lon="17.565013"></trkpt><trkpt lat="51.967501" lon="17.564725"></trkpt><trkpt lat="51.967942" lon="17.563832"></trkpt><trkpt lat="51.96817" lon="17.563212"></trkpt><trkpt lat="51.969282" lon="17.560633"></trkpt><trkpt lat="51.977693" lon="17.537749"></trkpt><trkpt lat="51.977701" lon="17.537389"></trkpt><trkpt lat="51.977815" lon="17.535756"></trkpt><trkpt lat="51.977855" lon="17.535408"></trkpt><trkpt lat="51.979296" lon="17.526586"></trkpt><trkpt lat="51.979465" lon="17.526368"></trkpt><trkpt lat="51.979779" lon="17.52588"></trkpt><trkpt lat="51.979847" lon="17.525315"></trkpt><trkpt lat="51.979788" lon="17.524901"></trkpt><trkpt lat="51.979847" lon="17.524318"></trkpt><trkpt lat="51.979891" lon="17.523511"></trkpt><trkpt lat="51.979859" lon="17.523025"></trkpt><trkpt lat="51.979782" lon="17.522551"></trkpt><trkpt lat="51.979646" lon="17.522022"></trkpt><trkpt lat="51.979516" lon="17.521639"></trkpt><trkpt lat="51.973887" lon="17.501146"></trkpt><trkpt lat="51.974133" lon="17.500267"></trkpt><trkpt lat="51.97736" lon="17.490796"></trkpt><trkpt lat="51.977786" lon="17.490207"></trkpt><trkpt lat="51.978289" lon="17.48984"></trkpt><trkpt lat="51.982323" lon="17.487455"></trkpt><trkpt lat="51.984507" lon="17.486478"></trkpt><trkpt lat="51.984769" lon="17.48642"></trkpt><trkpt lat="51.985182" lon="17.486383"></trkpt><trkpt lat="51.986294" lon="17.486114"></trkpt><trkpt lat="51.986428" lon="17.485846"></trkpt><trkpt lat="51.98666" lon="17.485866"></trkpt><trkpt lat="51.991798" lon="17.484816"></trkpt><trkpt lat="51.992157" lon="17.484527"></trkpt><trkpt lat="52.000176" lon="17.476495"></trkpt><trkpt lat="52.000194" lon="17.476101"></trkpt><trkpt lat="52.002254" lon="17.453308"></trkpt><trkpt lat="52.002399" lon="17.453017"></trkpt><trkpt lat="52.002508" lon="17.452743"></trkpt><trkpt lat="52.002703" lon="17.452345"></trkpt><trkpt lat="52.004365" lon="17.44824"></trkpt><trkpt lat="52.004395" lon="17.447823"></trkpt><trkpt lat="52.004871" lon="17.443886"></trkpt><trkpt lat="52.005173" lon="17.443775"></trkpt><trkpt lat="52.013253" lon="17.439803"></trkpt><trkpt lat="52.013438" lon="17.439649"></trkpt><trkpt lat="52.020883" lon="17.43459"></trkpt><trkpt lat="52.020915" lon="17.435118"></trkpt><trkpt lat="52.021797" lon="17.442124"></trkpt><trkpt lat="52.023098" lon="17.440808"></trkpt></trkseg></trk></gpx>