<?xml version="1.0" encoding="UTF-8" standalone="no" ?><gpx xmlns="http://www.topografix.com/GPX/1/1" xmlns:gpxx="http://www.garmin.com/xmlschemas/GpxExtensions/v3" ><trk><trkseg><trkpt lat="53.394208" lon="23.470941"></trkpt><trkpt lat="53.394048" lon="23.471156"></trkpt><trkpt lat="53.394252" lon="23.471718"></trkpt><trkpt lat="53.394477" lon="23.472221"></trkpt><trkpt lat="53.394985" lon="23.473167"></trkpt><trkpt lat="53.396795" lon="23.477053"></trkpt><trkpt lat="53.396467" lon="23.477191"></trkpt><trkpt lat="53.395955" lon="23.477503"></trkpt><trkpt lat="53.39472" lon="23.478766"></trkpt><trkpt lat="53.394921" lon="23.479678"></trkpt><trkpt lat="53.398692" lon="23.49351"></trkpt><trkpt lat="53.398994" lon="23.493807"></trkpt><trkpt lat="53.399347" lon="23.494605"></trkpt><trkpt lat="53.399689" lon="23.494992"></trkpt><trkpt lat="53.399901" lon="23.49509"></trkpt><trkpt lat="53.400387" lon="23.495044"></trkpt><trkpt lat="53.400608" lon="23.494934"></trkpt><trkpt lat="53.401071" lon="23.494781"></trkpt><trkpt lat="53.401291" lon="23.496007"></trkpt><trkpt lat="53.401709" lon="23.499217"></trkpt><trkpt lat="53.404076" lon="23.512057"></trkpt><trkpt lat="53.404273" lon="23.511943"></trkpt><trkpt lat="53.40439" lon="23.511667"></trkpt><trkpt lat="53.404572" lon="23.511306"></trkpt><trkpt lat="53.404727" lon="23.512067"></trkpt><trkpt lat="53.406224" lon="23.51719"></trkpt><trkpt lat="53.406697" lon="23.516993"></trkpt><trkpt lat="53.407866" lon="23.516335"></trkpt><trkpt lat="53.4087" lon="23.516011"></trkpt><trkpt lat="53.408888" lon="23.516879"></trkpt><trkpt lat="53.411038" lon="23.529904"></trkpt><trkpt lat="53.411201" lon="23.531466"></trkpt><trkpt lat="53.413702" lon="23.549111"></trkpt><trkpt lat="53.413889" lon="23.550084"></trkpt><trkpt lat="53.413913" lon="23.55042"></trkpt><trkpt lat="53.413813" lon="23.551582"></trkpt><trkpt lat="53.413738" lon="23.552141"></trkpt><trkpt lat="53.413885" lon="23.551228"></trkpt><trkpt lat="53.413958" lon="23.550548"></trkpt><trkpt lat="53.414122" lon="23.550739"></trkpt><trkpt lat="53.41454" lon="23.551482"></trkpt><trkpt lat="53.417096" lon="23.555424"></trkpt><trkpt lat="53.417298" lon="23.555406"></trkpt><trkpt lat="53.417702" lon="23.555301"></trkpt><trkpt lat="53.418658" lon="23.555273"></trkpt><trkpt lat="53.419202" lon="23.555552"></trkpt><trkpt lat="53.41961" lon="23.556158"></trkpt><trkpt lat="53.41992" lon="23.556745"></trkpt><trkpt lat="53.420918" lon="23.559087"></trkpt><trkpt lat="53.421049" lon="23.560068"></trkpt><trkpt lat="53.421816" lon="23.56358"></trkpt><trkpt lat="53.42221" lon="23.564155"></trkpt><trkpt lat="53.42404" lon="23.566469"></trkpt><trkpt lat="53.432973" lon="23.577598"></trkpt><trkpt lat="53.438761" lon="23.586107"></trkpt><trkpt lat="53.43886" lon="23.586423"></trkpt><trkpt lat="53.439216" lon="23.588209"></trkpt><trkpt lat="53.440175" lon="23.590748"></trkpt><trkpt lat="53.44034" lon="23.591014"></trkpt><trkpt lat="53.440419" lon="23.591424"></trkpt><trkpt lat="53.440357" lon="23.591866"></trkpt><trkpt lat="53.440263" lon="23.592189"></trkpt><trkpt lat="53.440191" lon="23.592516"></trkpt><trkpt lat="53.44032" lon="23.592118"></trkpt><trkpt lat="53.440449" lon="23.591425"></trkpt><trkpt lat="53.440401" lon="23.591055"></trkpt><trkpt lat="53.440263" lon="23.590812"></trkpt><trkpt lat="53.439813" lon="23.59013"></trkpt><trkpt lat="53.439437" lon="23.589253"></trkpt><trkpt lat="53.439337" lon="23.588736"></trkpt><trkpt lat="53.439109" lon="23.587157"></trkpt><trkpt lat="53.439085" lon="23.58678"></trkpt><trkpt lat="53.439125" lon="23.585809"></trkpt><trkpt lat="53.439231" lon="23.585427"></trkpt><trkpt lat="53.439731" lon="23.584562"></trkpt><trkpt lat="53.44717" lon="23.571165"></trkpt><trkpt lat="53.447441" lon="23.570758"></trkpt><trkpt lat="53.450964" lon="23.567071"></trkpt><trkpt lat="53.45165" lon="23.56792"></trkpt><trkpt lat="53.456814" lon="23.573109"></trkpt><trkpt lat="53.456988" lon="23.572641"></trkpt><trkpt lat="53.457176" lon="23.572233"></trkpt><trkpt lat="53.457406" lon="23.571163"></trkpt><trkpt lat="53.457498" lon="23.570517"></trkpt><trkpt lat="53.457716" lon="23.569517"></trkpt><trkpt lat="53.459083" lon="23.564712"></trkpt><trkpt lat="53.459351" lon="23.564054"></trkpt><trkpt lat="53.460803" lon="23.560995"></trkpt><trkpt lat="53.468121" lon="23.548067"></trkpt><trkpt lat="53.468351" lon="23.548109"></trkpt><trkpt lat="53.468918" lon="23.548358"></trkpt><trkpt lat="53.469335" lon="23.548673"></trkpt><trkpt lat="53.470144" lon="23.54944"></trkpt><trkpt lat="53.47112" lon="23.550636"></trkpt><trkpt lat="53.472779" lon="23.552373"></trkpt><trkpt lat="53.473569" lon="23.552434"></trkpt><trkpt lat="53.474315" lon="23.552235"></trkpt><trkpt lat="53.485058" lon="23.549258"></trkpt><trkpt lat="53.48524" lon="23.548983"></trkpt><trkpt lat="53.491051" lon="23.538629"></trkpt><trkpt lat="53.491269" lon="23.537906"></trkpt><trkpt lat="53.49643" lon="23.521374"></trkpt><trkpt lat="53.497542" lon="23.518451"></trkpt><trkpt lat="53.498122" lon="23.518149"></trkpt><trkpt lat="53.498442" lon="23.517921"></trkpt><trkpt lat="53.498611" lon="23.517593"></trkpt><trkpt lat="53.49869" lon="23.517263"></trkpt><trkpt lat="53.498774" lon="23.516175"></trkpt><trkpt lat="53.498778" lon="23.515236"></trkpt><trkpt lat="53.499091" lon="23.5145"></trkpt><trkpt lat="53.499327" lon="23.51405"></trkpt><trkpt lat="53.499529" lon="23.513538"></trkpt><trkpt lat="53.499734" lon="23.512925"></trkpt><trkpt lat="53.499964" lon="23.512365"></trkpt><trkpt lat="53.502967" lon="23.506468"></trkpt><trkpt lat="53.503225" lon="23.506373"></trkpt><trkpt lat="53.513382" lon="23.504092"></trkpt><trkpt lat="53.513915" lon="23.504839"></trkpt><trkpt lat="53.516476" lon="23.507927"></trkpt><trkpt lat="53.516783" lon="23.507471"></trkpt><trkpt lat="53.517117" lon="23.506809"></trkpt><trkpt lat="53.52168" lon="23.499253"></trkpt><trkpt lat="53.522312" lon="23.498571"></trkpt><trkpt lat="53.531282" lon="23.488391"></trkpt><trkpt lat="53.531877" lon="23.487448"></trkpt><trkpt lat="53.532249" lon="23.48694"></trkpt><trkpt lat="53.536236" lon="23.480654"></trkpt><trkpt lat="53.536617" lon="23.479858"></trkpt><trkpt lat="53.542773" lon="23.465015"></trkpt><trkpt lat="53.543173" lon="23.463457"></trkpt><trkpt lat="53.545348" lon="23.456477"></trkpt><trkpt lat="53.545835" lon="23.456203"></trkpt><trkpt lat="53.546331" lon="23.455849"></trkpt><trkpt lat="53.546359" lon="23.455501"></trkpt><trkpt lat="53.545607" lon="23.454786"></trkpt><trkpt lat="53.543447" lon="23.453063"></trkpt><trkpt lat="53.543581" lon="23.452776"></trkpt><trkpt lat="53.543775" lon="23.452918"></trkpt><trkpt lat="53.544016" lon="23.452245"></trkpt><trkpt lat="53.544352" lon="23.452082"></trkpt><trkpt lat="53.544043" lon="23.45213"></trkpt><trkpt lat="53.544115" lon="23.451433"></trkpt><trkpt lat="53.544272" lon="23.450703"></trkpt><trkpt lat="53.54475" lon="23.447169"></trkpt></trkseg></trk></gpx>