<?xml version="1.0" encoding="UTF-8" standalone="no" ?><gpx xmlns="http://www.topografix.com/GPX/1/1" xmlns:gpxx="http://www.garmin.com/xmlschemas/GpxExtensions/v3" ><trk><trkseg><trkpt lat="51.7582328897" lon="19.4293890987"></trkpt><trkpt lat="51.7585066427" lon="19.4293202832"></trkpt><trkpt lat="51.7583581991" lon="19.4288473763"></trkpt><trkpt lat="51.7587294336" lon="19.4286764693"></trkpt><trkpt lat="51.7589834891" lon="19.4284971803"></trkpt><trkpt lat="51.7587529868" lon="19.4288315345"></trkpt><trkpt lat="51.7584504839" lon="19.4291850831"></trkpt><trkpt lat="51.7587260809" lon="19.4290544093"></trkpt><trkpt lat="51.7584117595" lon="19.4292331953"></trkpt><trkpt lat="51.7580916546" lon="19.4294724148"></trkpt><trkpt lat="51.7575941049" lon="19.4297558069"></trkpt><trkpt lat="51.7507263087" lon="19.4307114277"></trkpt><trkpt lat="51.7498937342" lon="19.4331955723"></trkpt><trkpt lat="51.7486494407" lon="19.4339686353"></trkpt><trkpt lat="51.7441226263" lon="19.4360378757"></trkpt><trkpt lat="51.7427635007" lon="19.4361385424"></trkpt><trkpt lat="51.735581886" lon="19.4377944712"></trkpt><trkpt lat="51.7338147294" lon="19.4390269462"></trkpt><trkpt lat="51.724573765" lon="19.4472283032"></trkpt><trkpt lat="51.7235287931" lon="19.4489434082"></trkpt><trkpt lat="51.7229299061" lon="19.4506741036"></trkpt><trkpt lat="51.7224288359" lon="19.452787349"></trkpt><trkpt lat="51.7206706479" lon="19.4550465234"></trkpt><trkpt lat="51.7203673907" lon="19.4552735891"></trkpt><trkpt lat="51.7176301964" lon="19.4568555057"></trkpt><trkpt lat="51.7166838795" lon="19.4576938637"></trkpt><trkpt lat="51.7263995949" lon="19.4725624379"></trkpt><trkpt lat="51.7269711569" lon="19.4741269201"></trkpt><trkpt lat="51.7272584047" lon="19.4758183043"></trkpt><trkpt lat="51.7273798585" lon="19.4775611535"></trkpt><trkpt lat="51.72725874" lon="19.4791249651"></trkpt><trkpt lat="51.7265998386" lon="19.4826010242"></trkpt><trkpt lat="51.7264641356" lon="19.4837896619"></trkpt><trkpt lat="51.7262224853" lon="19.4847117551"></trkpt><trkpt lat="51.7262409255" lon="19.4854568224"></trkpt><trkpt lat="51.7261579446" lon="19.4865802489"></trkpt><trkpt lat="51.7261943221" lon="19.5059998613"></trkpt><trkpt lat="51.7271509487" lon="19.5074321609"></trkpt><trkpt lat="51.7282235809" lon="19.5083373226"></trkpt><trkpt lat="51.7293485999" lon="19.5088756923"></trkpt><trkpt lat="51.7308440153" lon="19.5092830528"></trkpt><trkpt lat="51.7650820781" lon="19.5243836381"></trkpt><trkpt lat="51.7654013447" lon="19.5262512937"></trkpt><trkpt lat="51.7654823139" lon="19.5284088794"></trkpt><trkpt lat="51.7651234847" lon="19.5306106377"></trkpt><trkpt lat="51.7283868603" lon="19.7519230563"></trkpt><trkpt lat="51.727652438" lon="19.7550033219"></trkpt><trkpt lat="51.7273340095" lon="19.7575394344"></trkpt><trkpt lat="51.7272682115" lon="19.7602187097"></trkpt><trkpt lat="51.7275317386" lon="19.7627299279"></trkpt><trkpt lat="51.7280500755" lon="19.7657544538"></trkpt><trkpt lat="51.7301401868" lon="19.7865648754"></trkpt><trkpt lat="51.7296780087" lon="19.7889972199"></trkpt><trkpt lat="51.7264601961" lon="19.8013472836"></trkpt><trkpt lat="51.7252711393" lon="19.8037494533"></trkpt><trkpt lat="51.7240576074" lon="19.8069035634"></trkpt><trkpt lat="51.7113855947" lon="19.8473835457"></trkpt><trkpt lat="51.7108142842" lon="19.8509048671"></trkpt><trkpt lat="51.7089090776" lon="19.8582690395"></trkpt><trkpt lat="51.7081530299" lon="19.859404033"></trkpt><trkpt lat="51.7030515522" lon="19.8656631354"></trkpt><trkpt lat="51.7025878653" lon="19.8661014251"></trkpt><trkpt lat="51.702298522" lon="19.8662899341"></trkpt><trkpt lat="51.7020639963" lon="19.8666034173"></trkpt><trkpt lat="51.7015867308" lon="19.8669218458"></trkpt><trkpt lat="51.7002794053" lon="19.8680308554"></trkpt><trkpt lat="51.5801878553" lon="19.9903040472"></trkpt><trkpt lat="51.5522270836" lon="20.0258748326"></trkpt><trkpt lat="51.5515880473" lon="20.0278073642"></trkpt><trkpt lat="51.5509376954" lon="20.029076552"></trkpt><trkpt lat="51.5502511337" lon="20.0300931092"></trkpt><trkpt lat="51.5479751956" lon="20.032747658"></trkpt><trkpt lat="51.5471727122" lon="20.0333145261"></trkpt><trkpt lat="51.5465188399" lon="20.0339052826"></trkpt><trkpt lat="51.5463721566" lon="20.0342874136"></trkpt><trkpt lat="51.5460613556" lon="20.0345583167"></trkpt><trkpt lat="51.5393478703" lon="20.0418801606"></trkpt><trkpt lat="51.5391752031" lon="20.0432034116"></trkpt><trkpt lat="51.5389876999" lon="20.0463443622"></trkpt><trkpt lat="51.5395119041" lon="20.0477224309"></trkpt><trkpt lat="51.5402505174" lon="20.0488153473"></trkpt><trkpt lat="51.549601201" lon="20.0656944048"></trkpt><trkpt lat="51.5499355551" lon="20.0678208098"></trkpt><trkpt lat="51.5516028833" lon="20.075325463"></trkpt><trkpt lat="51.552022649" lon="20.076553328"></trkpt><trkpt lat="51.5532880649" lon="20.0826183055"></trkpt><trkpt lat="51.553602051" lon="20.0850486383"></trkpt><trkpt lat="51.5541233215" lon="20.0922833104"></trkpt><trkpt lat="51.5536991134" lon="20.0949112885"></trkpt><trkpt lat="51.5537248459" lon="20.0963647943"></trkpt><trkpt lat="51.5535351634" lon="20.0972428825"></trkpt><trkpt lat="51.5533249453" lon="20.0987915229"></trkpt><trkpt lat="51.5533348359" lon="20.0996100157"></trkpt><trkpt lat="51.5534266178" lon="20.1001713518"></trkpt><trkpt lat="51.5537219122" lon="20.1011264697"></trkpt><trkpt lat="51.5539591201" lon="20.1014975365"></trkpt><trkpt lat="51.5561550949" lon="20.1058772486"></trkpt><trkpt lat="51.5561490599" lon="20.1072490308"></trkpt><trkpt lat="51.5558870416" lon="20.1089846715"></trkpt><trkpt lat="51.5561245009" lon="20.1149701886"></trkpt><trkpt lat="51.5564360563" lon="20.1177654695"></trkpt><trkpt lat="51.5565701667" lon="20.1250940189"></trkpt><trkpt lat="51.5562894568" lon="20.1270649396"></trkpt><trkpt lat="51.556218043" lon="20.128666386"></trkpt><trkpt lat="51.5562918037" lon="20.1292150654"></trkpt><trkpt lat="51.556207817" lon="20.130265737"></trkpt><trkpt lat="51.5571426507" lon="20.1304812357"></trkpt><trkpt lat="51.5571616776" lon="20.1314219367"></trkpt><trkpt lat="51.5557149611" lon="20.1321182214"></trkpt><trkpt lat="51.5550392959" lon="20.1329357084"></trkpt><trkpt lat="51.5539985988" lon="20.1337509323"></trkpt><trkpt lat="51.5531608276" lon="20.1345762145"></trkpt><trkpt lat="51.5523625351" lon="20.1352099702"></trkpt><trkpt lat="51.5520068072" lon="20.1354114711"></trkpt><trkpt lat="51.5522960667" lon="20.1352324337"></trkpt><trkpt lat="51.5520042088" lon="20.1354386285"></trkpt><trkpt lat="51.5517129377" lon="20.1354178414"></trkpt><trkpt lat="51.5513692796" lon="20.135542145"></trkpt><trkpt lat="51.5505765192" lon="20.1361446362"></trkpt><trkpt lat="51.5507765952" lon="20.1357152313"></trkpt><trkpt lat="51.5510366019" lon="20.1355720684"></trkpt><trkpt lat="51.5513952635" lon="20.1354905963"></trkpt><trkpt lat="51.5519353934" lon="20.1352640335"></trkpt><trkpt lat="51.5563418437" lon="20.1157850772"></trkpt><trkpt lat="51.5560688451" lon="20.1076567266"></trkpt><trkpt lat="51.5552065987" lon="20.1029529702"></trkpt><trkpt lat="51.5540947393" lon="20.1013844647"></trkpt><trkpt lat="51.5391792264" lon="20.0435764063"></trkpt><trkpt lat="51.539175706" lon="20.0430547167"></trkpt><trkpt lat="51.5393384825" lon="20.0420247484"></trkpt><trkpt lat="51.5394893568" lon="20.0414845347"></trkpt><trkpt lat="51.5397621877" lon="20.040829489"></trkpt><trkpt lat="51.5403978713" lon="20.0397630595"></trkpt><trkpt lat="51.54109139" lon="20.0388736557"></trkpt><trkpt lat="51.5419034287" lon="20.0381025206"></trkpt><trkpt lat="51.5525219589" lon="20.0254224613"></trkpt><trkpt lat="51.5531418007" lon="20.0229710061"></trkpt><trkpt lat="51.5577911586" lon="20.0095027126"></trkpt><trkpt lat="51.5589657146" lon="20.0079958141"></trkpt><trkpt lat="51.5602272749" lon="20.0070811808"></trkpt><trkpt lat="51.5630258247" lon="20.0057873502"></trkpt><trkpt lat="51.5644852817" lon="20.0054307003"></trkpt><trkpt lat="51.5682708845" lon="20.0034959055"></trkpt><trkpt lat="51.56954946" lon="20.0018394738"></trkpt><trkpt lat="51.573870331" lon="19.9972274993"></trkpt><trkpt lat="51.6926598363" lon="19.8738084175"></trkpt><trkpt lat="51.693425104" lon="19.8732700478"></trkpt><trkpt lat="51.6931143031" lon="19.873464508"></trkpt><trkpt lat="51.6935957596" lon="19.8729131464"></trkpt><trkpt lat="51.6963331215" lon="19.8706491943"></trkpt><trkpt lat="51.6978434566" lon="19.8697450384"></trkpt><trkpt lat="51.7035988066" lon="19.8652583733"></trkpt><trkpt lat="51.7045856919" lon="19.8641345277"></trkpt><trkpt lat="51.7093876842" lon="19.8572457768"></trkpt><trkpt lat="51.7099105474" lon="19.8558421433"></trkpt><trkpt lat="51.7102505174" lon="19.8544347379"></trkpt><trkpt lat="51.7110021226" lon="19.8502758052"></trkpt><trkpt lat="51.7187451571" lon="19.8204860184"></trkpt><trkpt lat="51.7197309528" lon="19.8177198227"></trkpt><trkpt lat="51.7302548513" lon="19.7800127417"></trkpt><trkpt lat="51.7298856284" lon="19.7772861086"></trkpt><trkpt lat="51.7284241598" lon="19.7518472001"></trkpt><trkpt lat="51.729075769" lon="19.7493669111"></trkpt><trkpt lat="51.7303271871" lon="19.742427282"></trkpt><trkpt lat="51.7302944139" lon="19.7399598174"></trkpt><trkpt lat="51.7356345244" lon="19.6301671956"></trkpt><trkpt lat="51.7366530932" lon="19.6272176038"></trkpt><trkpt lat="51.7398983147" lon="19.6196891461"></trkpt><trkpt lat="51.7607737798" lon="19.5604263246"></trkpt><trkpt lat="51.761038648" lon="19.5585884247"></trkpt><trkpt lat="51.764127966" lon="19.5204927586"></trkpt><trkpt lat="51.7630601954" lon="19.517900655"></trkpt><trkpt lat="51.7617757525" lon="19.5158120524"></trkpt><trkpt lat="51.7606669106" lon="19.5152413286"></trkpt><trkpt lat="51.7560977675" lon="19.513758067"></trkpt><trkpt lat="51.7530289013" lon="19.5134106372"></trkpt><trkpt lat="51.7256994545" lon="19.5049881656"></trkpt><trkpt lat="51.7250203528" lon="19.5027507842"></trkpt><trkpt lat="51.724826647" lon="19.5017838478"></trkpt><trkpt lat="51.7247633636" lon="19.4996529166"></trkpt><trkpt lat="51.7249282356" lon="19.497775035"></trkpt><trkpt lat="51.72508833" lon="19.4968505949"></trkpt><trkpt lat="51.7265249044" lon="19.4843979366"></trkpt><trkpt lat="51.7268186901" lon="19.474085262"></trkpt><trkpt lat="51.7263197154" lon="19.4721311051"></trkpt><trkpt lat="51.7254767474" lon="19.4703066163"></trkpt><trkpt lat="51.7245280836" lon="19.4687770866"></trkpt><trkpt lat="51.7216901388" lon="19.4626124483"></trkpt><trkpt lat="51.7214139551" lon="19.4604515098"></trkpt><trkpt lat="51.721450584" lon="19.4585294556"></trkpt><trkpt lat="51.7217295337" lon="19.4566003606"></trkpt><trkpt lat="51.7224792112" lon="19.4534677919"></trkpt><trkpt lat="51.7241519038" lon="19.4481213111"></trkpt><trkpt lat="51.7251180019" lon="19.4466961361"></trkpt><trkpt lat="51.7268550675" lon="19.4446372055"></trkpt><trkpt lat="51.7325911392" lon="19.4399063755"></trkpt><trkpt lat="51.7344355769" lon="19.4391073287"></trkpt><trkpt lat="51.742668869" lon="19.4368923269"></trkpt><trkpt lat="51.74522602" lon="19.4356112368"></trkpt><trkpt lat="51.7458856758" lon="19.4346603937"></trkpt><trkpt lat="51.7464188486" lon="19.4332648069"></trkpt><trkpt lat="51.7467703857" lon="19.4316254742"></trkpt><trkpt lat="51.7468210962" lon="19.4300268777"></trkpt><trkpt lat="51.7466713116" lon="19.4281072542"></trkpt><trkpt lat="51.7463036813" lon="19.4267023634"></trkpt><trkpt lat="51.7263696715" lon="19.3662236631"></trkpt><trkpt lat="51.7258655" lon="19.3653869815"></trkpt><trkpt lat="51.7250755895" lon="19.3644828256"></trkpt><trkpt lat="51.7208970431" lon="19.3587216921"></trkpt><trkpt lat="51.7206612602" lon="19.3589702994"></trkpt><trkpt lat="51.7204393074" lon="19.3583403155"></trkpt><trkpt lat="51.7198640574" lon="19.3576526642"></trkpt><trkpt lat="51.7101244535" lon="19.3485188205"></trkpt><trkpt lat="51.7087525874" lon="19.3485809304"></trkpt><trkpt lat="51.6688807122" lon="19.3408752792"></trkpt><trkpt lat="51.6680208966" lon="19.3393151555"></trkpt><trkpt lat="51.6512027755" lon="19.3027630169"></trkpt><trkpt lat="51.6505700257" lon="19.3020506389"></trkpt><trkpt lat="51.6491262428" lon="19.2973707709"></trkpt><trkpt lat="51.6468050424" lon="19.291373603"></trkpt><trkpt lat="51.6110586561" lon="19.1776258126"></trkpt><trkpt lat="51.6105886828" lon="19.1745334771"></trkpt><trkpt lat="51.6096923221" lon="19.1634008847"></trkpt><trkpt lat="51.6066643596" lon="19.1420976073"></trkpt><trkpt lat="51.6053670086" lon="19.1371149011"></trkpt><trkpt lat="51.602916643" lon="19.1246818565"></trkpt><trkpt lat="51.6030335706" lon="19.1223516036"></trkpt><trkpt lat="51.5886757057" lon="18.9951185882"></trkpt><trkpt lat="51.5882569458" lon="18.9955875557"></trkpt><trkpt lat="51.5864772163" lon="18.9980268572"></trkpt><trkpt lat="51.594948722" lon="18.9857703354"></trkpt><trkpt lat="51.59562774" lon="18.9843498543"></trkpt><trkpt lat="51.6000947915" lon="18.9765581209"></trkpt><trkpt lat="51.6011361592" lon="18.9760022331"></trkpt><trkpt lat="51.6021321807" lon="18.9757821243"></trkpt><trkpt lat="51.6012388375" lon="18.9768284373"></trkpt><trkpt lat="51.6036209743" lon="18.9758741576"></trkpt><trkpt lat="51.6043412313" lon="18.9777569845"></trkpt><trkpt lat="51.6012399271" lon="18.9768286888"></trkpt><trkpt lat="51.6075447947" lon="18.9766344801"></trkpt><trkpt lat="51.608413998" lon="18.9763151295"></trkpt><trkpt lat="51.608894784" lon="18.9758967049"></trkpt><trkpt lat="51.6096538492" lon="18.9749547467"></trkpt><trkpt lat="51.6105109826" lon="18.9735647757"></trkpt><trkpt lat="51.6100566834" lon="18.972433554"></trkpt><trkpt lat="51.6110178363" lon="18.9728375617"></trkpt><trkpt lat="51.6101208888" lon="18.9721510839"></trkpt><trkpt lat="51.6111810319" lon="18.972556768"></trkpt><trkpt lat="51.6114772484" lon="18.9719821047"></trkpt><trkpt lat="51.610474186" lon="18.9705956541"></trkpt><trkpt lat="51.6106711607" lon="18.9697287977"></trkpt><trkpt lat="51.6114771646" lon="18.9471232239"></trkpt><trkpt lat="51.6114116181" lon="18.9464078285"></trkpt><trkpt lat="51.6112231929" lon="18.945907345"></trkpt><trkpt lat="51.6113026533" lon="18.9450653829"></trkpt><trkpt lat="51.611310197" lon="18.9441283699"></trkpt><trkpt lat="51.5998349525" lon="18.7238671258"></trkpt><trkpt lat="51.5985868033" lon="18.7218067702"></trkpt><trkpt lat="51.598019097" lon="18.7202160526"></trkpt><trkpt lat="51.5976687334" lon="18.7183729559"></trkpt><trkpt lat="51.5976614412" lon="18.7162079941"></trkpt><trkpt lat="51.6021236312" lon="18.6473302916"></trkpt><trkpt lat="51.6047412157" lon="18.6432410125"></trkpt><trkpt lat="51.6182900593" lon="18.6174618825"></trkpt><trkpt lat="51.6190528125" lon="18.6140280683"></trkpt><trkpt lat="51.6484981868" lon="18.5120894574"></trkpt><trkpt lat="51.6505708639" lon="18.5064140707"></trkpt><trkpt lat="51.6576482076" lon="18.4909057058"></trkpt><trkpt lat="51.6581775248" lon="18.4905624669"></trkpt><trkpt lat="51.6671569739" lon="18.4825859126"></trkpt><trkpt lat="51.6691104602" lon="18.4791459795"></trkpt><trkpt lat="51.7183020897" lon="18.3747419156"></trkpt><trkpt lat="51.7188835423" lon="18.3714431338"></trkpt><trkpt lat="51.7390975915" lon="18.1930968538"></trkpt><trkpt lat="51.7387152929" lon="18.1922730803"></trkpt><trkpt lat="51.7381605785" lon="18.1919614412"></trkpt><trkpt lat="51.7380002327" lon="18.1915503927"></trkpt><trkpt lat="51.7367024627" lon="18.1892918888"></trkpt><trkpt lat="51.7336434033" lon="18.1429446582"></trkpt><trkpt lat="51.733960323" lon="18.1251501292"></trkpt><trkpt lat="51.7333414871" lon="18.1105185952"></trkpt><trkpt lat="51.7331360467" lon="18.108582627"></trkpt><trkpt lat="51.7325798236" lon="18.1063262187"></trkpt><trkpt lat="51.731871888" lon="18.1045329943"></trkpt><trkpt lat="51.7309603561" lon="18.1040122267"></trkpt><trkpt lat="51.7287013493" lon="18.1031648163"></trkpt><trkpt lat="51.7272900045" lon="18.1028452981"></trkpt><trkpt lat="51.7265176121" lon="18.1023370195"></trkpt><trkpt lat="51.7256827746" lon="18.1013851706"></trkpt><trkpt lat="51.7250459176" lon="18.100143224"></trkpt><trkpt lat="51.725078607" lon="18.1018834747"></trkpt><trkpt lat="51.7238941602" lon="18.0957006477"></trkpt><trkpt lat="51.7239167076" lon="18.0938803498"></trkpt><trkpt lat="51.7246009223" lon="18.0916684493"></trkpt><trkpt lat="51.7260803282" lon="18.0880423542"></trkpt><trkpt lat="51.7266730126" lon="18.0871335045"></trkpt><trkpt lat="51.7287219688" lon="18.0854963511"></trkpt><trkpt lat="51.7301394325" lon="18.0853166431"></trkpt><trkpt lat="51.7324609682" lon="18.0860555079"></trkpt><trkpt lat="51.7332330253" lon="18.0866649561"></trkpt><trkpt lat="51.7368416861" lon="18.0887156725"></trkpt><trkpt lat="51.7380253784" lon="18.0885569192"></trkpt><trkpt lat="51.7390044685" lon="18.0881093256"></trkpt><trkpt lat="51.7399781942" lon="18.0873169005"></trkpt><trkpt lat="51.7407479882" lon="18.0863879342"></trkpt><trkpt lat="51.7438933812" lon="18.0815253407"></trkpt><trkpt lat="51.7442301661" lon="18.0800937954"></trkpt><trkpt lat="51.7444177531" lon="18.0784256291"></trkpt><trkpt lat="51.7443983071" lon="18.0765009765"></trkpt><trkpt lat="51.7441170942" lon="18.0747214146"></trkpt><trkpt lat="51.7437328678" lon="18.0734064616"></trkpt><trkpt lat="51.7431123555" lon="18.0719480105"></trkpt><trkpt lat="51.7403865606" lon="18.0638028961"></trkpt><trkpt lat="51.7245123256" lon="18.0251053255"></trkpt><trkpt lat="51.7213241011" lon="18.0156025942"></trkpt><trkpt lat="51.7208626773" lon="18.0132782087"></trkpt><trkpt lat="51.7202643771" lon="18.011100674"></trkpt><trkpt lat="51.7191354185" lon="18.0082942452"></trkpt><trkpt lat="51.7158579268" lon="18.0021472089"></trkpt><trkpt lat="51.7144381162" lon="18.0008734111"></trkpt><trkpt lat="51.7129539326" lon="18.0000621267"></trkpt><trkpt lat="51.7005686648" lon="17.9906069208"></trkpt><trkpt lat="51.7000449635" lon="17.9890662432"></trkpt><trkpt lat="51.6996749025" lon="17.9873324465"></trkpt><trkpt lat="51.6995110363" lon="17.9851091467"></trkpt><trkpt lat="51.6991372872" lon="17.9586981051"></trkpt><trkpt lat="51.6998857073" lon="17.9550894443"></trkpt><trkpt lat="51.7025766335" lon="17.9365952779"></trkpt><trkpt lat="51.7020556983" lon="17.9329493176"></trkpt><trkpt lat="51.6987500433" lon="17.9166141618"></trkpt><trkpt lat="51.6832963284" lon="17.8027531318"></trkpt><trkpt lat="51.6845747363" lon="17.8022712562"></trkpt><trkpt lat="51.6857478675" lon="17.8020181227"></trkpt><trkpt lat="51.6870670952" lon="17.8019232396"></trkpt><trkpt lat="51.7818320543" lon="17.7811915241"></trkpt><trkpt lat="51.7847129144" lon="17.779622348"></trkpt><trkpt lat="51.8596424349" lon="17.7504938934"></trkpt><trkpt lat="51.8927814625" lon="17.7315146662"></trkpt><trkpt lat="51.8931425549" lon="17.7305188123"></trkpt><trkpt lat="51.9027462043" lon="17.6973989792"></trkpt><trkpt lat="51.9034662936" lon="17.6941111777"></trkpt><trkpt lat="51.9107087608" lon="17.6687222254"></trkpt><trkpt lat="51.9144034199" lon="17.6508669276"></trkpt><trkpt lat="51.9151294604" lon="17.6456975564"></trkpt><trkpt lat="51.9187777676" lon="17.6294250134"></trkpt><trkpt lat="51.9201675709" lon="17.6262424886"></trkpt><trkpt lat="51.9289257377" lon="17.6018094085"></trkpt><trkpt lat="51.9296966214" lon="17.5975767151"></trkpt><trkpt lat="51.9556615781" lon="17.4938194826"></trkpt><trkpt lat="51.95707242" lon="17.4933055881"></trkpt><trkpt lat="51.9592105597" lon="17.4930602498"></trkpt><trkpt lat="51.9607016165" lon="17.4934825301"></trkpt><trkpt lat="51.9661926012" lon="17.4941597879"></trkpt><trkpt lat="51.9765249733" lon="17.4902613647"></trkpt><trkpt lat="51.9774852041" lon="17.4885500316"></trkpt><trkpt lat="51.9783730153" lon="17.4865377042"></trkpt><trkpt lat="51.9933213852" lon="17.4607380386"></trkpt><trkpt lat="51.9958023448" lon="17.4593590479"></trkpt><trkpt lat="52.0253262576" lon="17.4373666104"></trkpt><trkpt lat="52.0279343706" lon="17.4325893447"></trkpt><trkpt lat="52.0506581292" lon="17.3812473379"></trkpt><trkpt lat="52.0520750061" lon="17.3742483649"></trkpt><trkpt lat="52.0555540826" lon="17.3625717033"></trkpt><trkpt lat="52.0574032981" lon="17.359341234"></trkpt><trkpt lat="52.0601036958" lon="17.3563675024"></trkpt><trkpt lat="52.0616000332" lon="17.3552318383"></trkpt><trkpt lat="52.0662830863" lon="17.3530056886"></trkpt><trkpt lat="52.0693751704" lon="17.3503150139"></trkpt><trkpt lat="52.0704794861" lon="17.349091256"></trkpt><trkpt lat="52.07130678" lon="17.3483513854"></trkpt><trkpt lat="52.1135879494" lon="17.3180943076"></trkpt><trkpt lat="52.1154753864" lon="17.3174790759"></trkpt><trkpt lat="52.1734788269" lon="17.2897611279"></trkpt><trkpt lat="52.174817333" lon="17.2887330875"></trkpt><trkpt lat="52.1765139978" lon="17.2877843399"></trkpt><trkpt lat="52.1785958949" lon="17.287021419"></trkpt><trkpt lat="52.1808711626" lon="17.2865414713"></trkpt><trkpt lat="52.1826211363" lon="17.286596708"></trkpt><trkpt lat="52.2163950093" lon="17.2785667609"></trkpt><trkpt lat="52.2177465074" lon="17.2754995711"></trkpt><trkpt lat="52.2907569911" lon="17.0781681966"></trkpt><trkpt lat="52.3220040556" lon="17.0088573173"></trkpt><trkpt lat="52.3356573377" lon="16.9857058302"></trkpt></trkseg><trkseg><trkpt lat="51.0976064857" lon="17.0371473301"></trkpt><trkpt lat="51.0892453697" lon="17.0611773245"></trkpt><trkpt lat="51.0883326642" lon="17.062995024"></trkpt><trkpt lat="51.0851307772" lon="17.0682327915"></trkpt><trkpt lat="51.0839688778" lon="17.0698050689"></trkpt><trkpt lat="51.0808571801" lon="17.0733092073"></trkpt><trkpt lat="51.0796045046" lon="17.0742453821"></trkpt><trkpt lat="51.0354771372" lon="17.1152661648"></trkpt><trkpt lat="51.0324478336" lon="17.1188022383"></trkpt><trkpt lat="51.030490743" lon="17.1216826793"></trkpt><trkpt lat="50.9484545421" lon="17.2617199738"></trkpt><trkpt lat="50.9277592879" lon="17.3038522806"></trkpt><trkpt lat="50.8560790122" lon="17.4598889519"></trkpt><trkpt lat="50.8551388979" lon="17.4631285574"></trkpt><trkpt lat="50.8487692382" lon="17.4805996288"></trkpt><trkpt lat="50.8470264729" lon="17.4828025606"></trkpt><trkpt lat="50.8451314084" lon="17.4846599065"></trkpt><trkpt lat="50.7884693239" lon="17.5518820994"></trkpt><trkpt lat="50.7873920817" lon="17.5542880408"></trkpt><trkpt lat="50.7142035663" lon="17.7069626469"></trkpt><trkpt lat="50.6692825165" lon="17.8212305345"></trkpt><trkpt lat="50.6687765848" lon="17.8249209188"></trkpt><trkpt lat="50.6618441641" lon="17.9143606033"></trkpt><trkpt lat="50.6619575713" lon="17.9159961641"></trkpt><trkpt lat="50.6619973853" lon="17.9247416742"></trkpt><trkpt lat="50.6618263945" lon="17.9277490173"></trkpt><trkpt lat="50.6620803662" lon="17.9279573914"></trkpt><trkpt lat="50.6619130634" lon="17.9283085931"></trkpt><trkpt lat="50.661793286" lon="17.9289824981"></trkpt><trkpt lat="50.6616176013" lon="17.9296715744"></trkpt><trkpt lat="50.6607106794" lon="17.932211291"></trkpt><trkpt lat="50.6570256595" lon="17.9464149289"></trkpt><trkpt lat="50.6569513958" lon="17.9475267883"></trkpt><trkpt lat="50.6569404993" lon="17.9490366206"></trkpt><trkpt lat="50.6640491914" lon="18.0887518823"></trkpt><trkpt lat="50.6647734717" lon="18.0916174036"></trkpt><trkpt lat="50.6655995082" lon="18.0969035346"></trkpt><trkpt lat="50.6656488776" lon="18.0990893673"></trkpt><trkpt lat="50.6655271724" lon="18.1017725822"></trkpt><trkpt lat="50.6651899684" lon="18.1048271991"></trkpt><trkpt lat="50.6621585693" lon="18.1627338286"></trkpt><trkpt lat="50.6630121823" lon="18.1646274682"></trkpt><trkpt lat="50.6642681267" lon="18.1669236068"></trkpt><trkpt lat="50.6707998086" lon="18.1825107615"></trkpt><trkpt lat="50.6709257886" lon="18.1865539402"></trkpt><trkpt lat="50.6708159856" lon="18.1891861092"></trkpt><trkpt lat="50.6583966035" lon="18.3785253391"></trkpt><trkpt lat="50.6588129327" lon="18.3812515531"></trkpt><trkpt lat="50.6615518034" lon="18.4110690001"></trkpt><trkpt lat="50.6617054436" lon="18.415349219"></trkpt><trkpt lat="50.67244987" lon="18.5190338641"></trkpt><trkpt lat="50.6735619809" lon="18.5244531836"></trkpt><trkpt lat="50.6825228222" lon="18.6267503724"></trkpt><trkpt lat="50.6825735327" lon="18.6378972139"></trkpt><trkpt lat="50.6817229372" lon="18.6403959431"></trkpt><trkpt lat="50.6765497942" lon="18.6602052301"></trkpt><trkpt lat="50.6768968888" lon="18.6638590693"></trkpt><trkpt lat="50.677117249" lon="18.6706922483"></trkpt><trkpt lat="50.6763434317" lon="18.6847541481"></trkpt><trkpt lat="50.6752713025" lon="18.6867309362"></trkpt><trkpt lat="50.6661895104" lon="18.7071219273"></trkpt><trkpt lat="50.6662253849" lon="18.7089428119"></trkpt><trkpt lat="50.6666142214" lon="18.7105958909"></trkpt><trkpt lat="50.6671748869" lon="18.7118846923"></trkpt><trkpt lat="50.6681134924" lon="18.7132117152"></trkpt><trkpt lat="50.6690570433" lon="18.7139862869"></trkpt><trkpt lat="50.6699352991" lon="18.7143199705"></trkpt><trkpt lat="50.6710435543" lon="18.7143729441"></trkpt><trkpt lat="50.6800553575" lon="18.7168278359"></trkpt><trkpt lat="50.6813156605" lon="18.7185535859"></trkpt><trkpt lat="50.6828145124" lon="18.7212415785"></trkpt><trkpt lat="50.7284094673" lon="18.8198534958"></trkpt><trkpt lat="50.7293409482" lon="18.822861677"></trkpt><trkpt lat="50.7360581215" lon="18.853874635"></trkpt><trkpt lat="50.7355646789" lon="18.8575211819"></trkpt><trkpt lat="50.7356572989" lon="18.8597662747"></trkpt><trkpt lat="50.7361955009" lon="18.8618792687"></trkpt><trkpt lat="50.7372332644" lon="18.8644898962"></trkpt><trkpt lat="50.7391242217" lon="18.8680683821"></trkpt><trkpt lat="50.7404971775" lon="18.8692488894"></trkpt><trkpt lat="50.745965112" lon="18.8760668132"></trkpt><trkpt lat="50.7468526717" lon="18.8793216739"></trkpt><trkpt lat="50.7520372979" lon="18.8932719268"></trkpt><trkpt lat="50.7535802387" lon="18.8963950239"></trkpt><trkpt lat="50.758477198" lon="18.9104465302"></trkpt><trkpt lat="50.7592541166" lon="18.9136222657"></trkpt><trkpt lat="50.7991565857" lon="19.0946515091"></trkpt><trkpt lat="50.7987726107" lon="19.0975502227"></trkpt><trkpt lat="50.7955267187" lon="19.1143004503"></trkpt><trkpt lat="50.7948583458" lon="19.1160202492"></trkpt><trkpt lat="50.7945717685" lon="19.1173271555"></trkpt><trkpt lat="50.7945268415" lon="19.1181233525"></trkpt><trkpt lat="50.7947509736" lon="19.1195224598"></trkpt><trkpt lat="50.7953296602" lon="19.1207843553"></trkpt><trkpt lat="50.795966601" lon="19.1215840727"></trkpt><trkpt lat="50.7967051305" lon="19.1220467538"></trkpt><trkpt lat="50.7976287324" lon="19.1222168226"></trkpt><trkpt lat="50.7982909027" lon="19.1219439078"></trkpt><trkpt lat="50.799034629" lon="19.1213991679"></trkpt><trkpt lat="50.7995926961" lon="19.1208733711"></trkpt><trkpt lat="50.8002148848" lon="19.1206092574"></trkpt><trkpt lat="50.8010369819" lon="19.1204711236"></trkpt><trkpt lat="50.8066178206" lon="19.1206177231"></trkpt><trkpt lat="50.8080513775" lon="19.1208750475"></trkpt><trkpt lat="50.8084331732" lon="19.1207483131"></trkpt><trkpt lat="50.8088463172" lon="19.1208168771"></trkpt><trkpt lat="50.8212844748" lon="19.1252484731"></trkpt><trkpt lat="50.8226181194" lon="19.1267263703"></trkpt><trkpt lat="50.8236807771" lon="19.1282004118"></trkpt><trkpt lat="50.824693311" lon="19.129886264"></trkpt><trkpt lat="50.8268685825" lon="19.134292379"></trkpt><trkpt lat="50.8418712672" lon="19.1584580764"></trkpt><trkpt lat="50.8443919569" lon="19.1600206308"></trkpt><trkpt lat="50.8691360056" lon="19.1807220876"></trkpt><trkpt lat="50.8696062304" lon="19.1828904022"></trkpt><trkpt lat="50.9143682756" lon="19.3413475156"></trkpt><trkpt lat="50.9165133722" lon="19.3418749887"></trkpt><trkpt lat="50.9812986944" lon="19.367471477"></trkpt><trkpt lat="50.9833097644" lon="19.369062949"></trkpt><trkpt lat="51.0907652602" lon="19.4360639434"></trkpt><trkpt lat="51.0920389742" lon="19.4359299168"></trkpt><trkpt lat="51.1237944849" lon="19.4440430962"></trkpt><trkpt lat="51.1252702866" lon="19.4449666142"></trkpt><trkpt lat="51.1339824367" lon="19.4523562677"></trkpt><trkpt lat="51.1351942923" lon="19.4546788093"></trkpt><trkpt lat="51.1360665131" lon="19.4570502173"></trkpt><trkpt lat="51.1368949804" lon="19.4602821115"></trkpt><trkpt lat="51.1423919164" lon="19.4768744241"></trkpt><trkpt lat="51.1439753417" lon="19.4790189341"></trkpt><trkpt lat="51.1457270756" lon="19.4807730149"></trkpt><trkpt lat="51.1478009261" lon="19.4822607189"></trkpt><trkpt lat="51.149533214" lon="19.4831186067"></trkpt><trkpt lat="51.1519994214" lon="19.4837826211"></trkpt><trkpt lat="51.1857831851" lon="19.4978266675"></trkpt><trkpt lat="51.1868243013" lon="19.5009013172"></trkpt><trkpt lat="51.1875783373" lon="19.5041701756"></trkpt><trkpt lat="51.2158663385" lon="19.5995401405"></trkpt><trkpt lat="51.2171600014" lon="19.6015712433"></trkpt><trkpt lat="51.2255631946" lon="19.6120797191"></trkpt><trkpt lat="51.227373518" lon="19.6133500803"></trkpt><trkpt lat="51.3390705083" lon="19.6730212681"></trkpt><trkpt lat="51.3431782275" lon="19.6737037227"></trkpt><trkpt lat="51.562825162" lon="19.7292464878"></trkpt><trkpt lat="51.5645269398" lon="19.7292375192"></trkpt><trkpt lat="51.5662187431" lon="19.7287438251"></trkpt><trkpt lat="51.5689503215" lon="19.7273420356"></trkpt><trkpt lat="51.5906498116" lon="19.7221874166"></trkpt><trkpt lat="51.5936844796" lon="19.7238140926"></trkpt><trkpt lat="51.6180244368" lon="19.741029935"></trkpt><trkpt lat="51.6187386587" lon="19.7417862341"></trkpt><trkpt lat="51.6586547066" lon="19.7764021531"></trkpt><trkpt lat="51.6607259586" lon="19.77742902"></trkpt><trkpt lat="51.7338806111" lon="19.8007789906"></trkpt><trkpt lat="51.7335470952" lon="19.7988523263"></trkpt><trkpt lat="51.7287642974" lon="19.7508333251"></trkpt><trkpt lat="51.7297704611" lon="19.746979326"></trkpt><trkpt lat="51.7302540131" lon="19.744401807"></trkpt><trkpt lat="51.7304551788" lon="19.7416927759"></trkpt><trkpt lat="51.7303525843" lon="19.7388815694"></trkpt><trkpt lat="51.7318433058" lon="19.6795823704"></trkpt><trkpt lat="51.7321028933" lon="19.676731769"></trkpt><trkpt lat="51.7320854589" lon="19.6734152175"></trkpt><trkpt lat="51.7340264563" lon="19.63519793"></trkpt><trkpt lat="51.7353941314" lon="19.631091971"></trkpt><trkpt lat="51.7408695258" lon="19.6176800877"></trkpt><trkpt lat="51.7613523826" lon="19.556222884"></trkpt><trkpt lat="51.7616289016" lon="19.554336369"></trkpt><trkpt lat="51.7644277029" lon="19.5215113275"></trkpt><trkpt lat="51.7635936197" lon="19.5192860998"></trkpt><trkpt lat="51.7625909764" lon="19.5173831563"></trkpt><trkpt lat="51.7615123931" lon="19.5160981268"></trkpt><trkpt lat="51.7598743178" lon="19.5147218183"></trkpt><trkpt lat="51.7581644934" lon="19.513979014"></trkpt><trkpt lat="51.756043788" lon="19.5136500243"></trkpt><trkpt lat="51.7251428124" lon="19.5029109623"></trkpt><trkpt lat="51.7248809617" lon="19.5008007344"></trkpt><trkpt lat="51.7249124777" lon="19.4987269677"></trkpt><trkpt lat="51.7252488434" lon="19.4959002547"></trkpt><trkpt lat="51.7266368028" lon="19.4736560248"></trkpt><trkpt lat="51.7259763926" lon="19.4717520755"></trkpt><trkpt lat="51.7249755096" lon="19.4697853457"></trkpt><trkpt lat="51.7212328222" lon="19.4592033606"></trkpt><trkpt lat="51.7213833611" lon="19.4573878404"></trkpt><trkpt lat="51.7219999339" lon="19.4541582931"></trkpt><trkpt lat="51.7232094426" lon="19.4502469618"></trkpt><trkpt lat="51.7240288574" lon="19.448197335"></trkpt><trkpt lat="51.7250351049" lon="19.4466486946"></trkpt><trkpt lat="51.7266744375" lon="19.4448101241"></trkpt><trkpt lat="51.7331662215" lon="19.439539751"></trkpt><trkpt lat="51.7352377251" lon="19.4385154825"></trkpt><trkpt lat="51.7390224896" lon="19.4372151978"></trkpt><trkpt lat="51.7408125289" lon="19.4369256869"></trkpt><trkpt lat="51.7466302402" lon="19.4351104181"></trkpt><trkpt lat="51.7580673471" lon="19.4300526939"></trkpt></trkseg></trk></gpx>