<?xml version="1.0" encoding="UTF-8" standalone="no" ?><gpx xmlns="http://www.topografix.com/GPX/1/1" xmlns:gpxx="http://www.garmin.com/xmlschemas/GpxExtensions/v3" ><trk><trkseg><trkpt lat="50.8241495769" lon="15.5263954494"></trkpt><trkpt lat="50.8247539122" lon="15.5284610018"></trkpt><trkpt lat="50.8245785628" lon="15.5278177746"></trkpt><trkpt lat="50.824301457" lon="15.5271939933"></trkpt><trkpt lat="50.8241506666" lon="15.5266388599"></trkpt><trkpt lat="50.82419727" lon="15.5270802509"></trkpt><trkpt lat="50.8242960088" lon="15.5275638029"></trkpt><trkpt lat="50.8241256047" lon="15.5271094199"></trkpt><trkpt lat="50.8237972017" lon="15.5272371601"></trkpt><trkpt lat="50.8235908393" lon="15.5275257491"></trkpt><trkpt lat="50.8233082853" lon="15.527293738"></trkpt><trkpt lat="50.8230648749" lon="15.5270173028"></trkpt><trkpt lat="50.8228528127" lon="15.526684206"></trkpt><trkpt lat="50.8225101605" lon="15.5264997203"></trkpt><trkpt lat="50.8221752197" lon="15.526609607"></trkpt><trkpt lat="50.8220390975" lon="15.526235858"></trkpt><trkpt lat="50.8219620679" lon="15.5256516393"></trkpt><trkpt lat="50.8218497504" lon="15.5250840168"></trkpt><trkpt lat="50.8217319846" lon="15.524644386"></trkpt><trkpt lat="50.8217094373" lon="15.5241457466"></trkpt><trkpt lat="50.8215493429" lon="15.5232800636"></trkpt><trkpt lat="50.8213161584" lon="15.522921402"></trkpt><trkpt lat="50.8208655473" lon="15.5223769136"></trkpt><trkpt lat="50.820667902" lon="15.5220020749"></trkpt><trkpt lat="50.8204334602" lon="15.5216294993"></trkpt><trkpt lat="50.8201476373" lon="15.5213773716"></trkpt><trkpt lat="50.8198846132" lon="15.5209438596"></trkpt><trkpt lat="50.8186143357" lon="15.5183101818"></trkpt><trkpt lat="50.8186383918" lon="15.5177846365"></trkpt><trkpt lat="50.818447452" lon="15.5173960514"></trkpt><trkpt lat="50.8184546605" lon="15.5169585161"></trkpt><trkpt lat="50.8183528204" lon="15.5165418517"></trkpt><trkpt lat="50.8181314543" lon="15.5162626505"></trkpt><trkpt lat="50.818410404" lon="15.5163804162"></trkpt><trkpt lat="50.8186389785" lon="15.5166534148"></trkpt><trkpt lat="50.8188422397" lon="15.5162603036"></trkpt><trkpt lat="50.8187542297" lon="15.515830731"></trkpt><trkpt lat="50.8185223863" lon="15.5151517969"></trkpt><trkpt lat="50.8172708005" lon="15.5105562508"></trkpt><trkpt lat="50.817389572" lon="15.510039255"></trkpt><trkpt lat="50.8174923342" lon="15.5093337502"></trkpt><trkpt lat="50.8175473195" lon="15.5086830631"></trkpt><trkpt lat="50.8175622392" lon="15.5078708567"></trkpt><trkpt lat="50.8176637441" lon="15.5070775934"></trkpt><trkpt lat="50.8176132012" lon="15.5065924488"></trkpt><trkpt lat="50.8177706134" lon="15.5061845016"></trkpt><trkpt lat="50.8176506683" lon="15.5056867842"></trkpt><trkpt lat="50.8175649215" lon="15.5051286332"></trkpt><trkpt lat="50.8176065795" lon="15.5046030879"></trkpt><trkpt lat="50.8176000416" lon="15.5041724257"></trkpt><trkpt lat="50.8174566273" lon="15.5037110019"></trkpt><trkpt lat="50.8173199184" lon="15.5030676909"></trkpt><trkpt lat="50.8176134527" lon="15.5031666812"></trkpt><trkpt lat="50.8179079928" lon="15.5031769909"></trkpt><trkpt lat="50.8182127587" lon="15.5030084308"></trkpt><trkpt lat="50.8184583485" lon="15.5027486756"></trkpt><trkpt lat="50.8186570834" lon="15.5024262238"></trkpt><trkpt lat="50.8185063768" lon="15.5020279996"></trkpt><trkpt lat="50.8182429336" lon="15.5016927235"></trkpt><trkpt lat="50.8141415007" lon="15.4973802343"></trkpt><trkpt lat="50.8144549001" lon="15.4974071402"></trkpt><trkpt lat="50.8143086359" lon="15.4969646595"></trkpt><trkpt lat="50.8141411655" lon="15.4966035672"></trkpt><trkpt lat="50.8144470211" lon="15.4965104442"></trkpt><trkpt lat="50.8141873498" lon="15.496641621"></trkpt><trkpt lat="50.8139747847" lon="15.4962596577"></trkpt><trkpt lat="50.8133860398" lon="15.4965256993"></trkpt><trkpt lat="50.8126483485" lon="15.4967221711"></trkpt><trkpt lat="50.8123716619" lon="15.496749077"></trkpt><trkpt lat="50.8033724315" lon="15.4975705035"></trkpt><trkpt lat="50.8030449506" lon="15.4977487866"></trkpt><trkpt lat="50.8027487341" lon="15.4979596753"></trkpt><trkpt lat="50.802446818" lon="15.4981123097"></trkpt><trkpt lat="50.8011508081" lon="15.4989869613"></trkpt><trkpt lat="50.8009240776" lon="15.4992425255"></trkpt><trkpt lat="50.8006869536" lon="15.4995787237"></trkpt><trkpt lat="50.8003921621" lon="15.4996969085"></trkpt><trkpt lat="50.7984550204" lon="15.5007685348"></trkpt><trkpt lat="50.798181938" lon="15.5009669345"></trkpt><trkpt lat="50.7978969533" lon="15.501074139"></trkpt><trkpt lat="50.7975063566" lon="15.5011553597"></trkpt><trkpt lat="50.7972118165" lon="15.5011699442"></trkpt><trkpt lat="50.7968521491" lon="15.5010955967"></trkpt><trkpt lat="50.796573367" lon="15.5010790005"></trkpt><trkpt lat="50.7962733787" lon="15.5011494923"></trkpt><trkpt lat="50.7960023079" lon="15.5011732969"></trkpt><trkpt lat="50.7956954464" lon="15.5012442078"></trkpt><trkpt lat="50.793874478" lon="15.5019648001"></trkpt><trkpt lat="50.7936004736" lon="15.5020074639"></trkpt><trkpt lat="50.794330705" lon="15.5013963394"></trkpt><trkpt lat="50.7946060505" lon="15.5014015362"></trkpt><trkpt lat="50.7949639577" lon="15.501340013"></trkpt><trkpt lat="50.8006939106" lon="15.4995135125"></trkpt><trkpt lat="50.8009058889" lon="15.4992432799"></trkpt><trkpt lat="50.8015357051" lon="15.4985868931"></trkpt><trkpt lat="50.8018307481" lon="15.4984473344"></trkpt><trkpt lat="50.8081280719" lon="15.4965065885"></trkpt><trkpt lat="50.8084432315" lon="15.4967265297"></trkpt><trkpt lat="50.8091191482" lon="15.4970178846"></trkpt><trkpt lat="50.8095928095" lon="15.4969302099"></trkpt><trkpt lat="50.8104192652" lon="15.496964911"></trkpt><trkpt lat="50.810748674" lon="15.4968978558"></trkpt><trkpt lat="50.8110731374" lon="15.4966662638"></trkpt><trkpt lat="50.8113878779" lon="15.4965876415"></trkpt><trkpt lat="50.8117343858" lon="15.4966049921"></trkpt><trkpt lat="50.8120173588" lon="15.4967038147"></trkpt><trkpt lat="50.8123849891" lon="15.4967414495"></trkpt><trkpt lat="50.8133541048" lon="15.496484125"></trkpt><trkpt lat="50.8137669135" lon="15.4963027406"></trkpt><trkpt lat="50.8140670694" lon="15.4963518586"></trkpt><trkpt lat="50.8142292593" lon="15.4967924114"></trkpt><trkpt lat="50.8144729212" lon="15.4970726185"></trkpt><trkpt lat="50.818557255" lon="15.5027629249"></trkpt><trkpt lat="50.8182303607" lon="15.5030591413"></trkpt><trkpt lat="50.8178524207" lon="15.5032922421"></trkpt><trkpt lat="50.8175659273" lon="15.503298277"></trkpt><trkpt lat="50.8172915876" lon="15.5032182299"></trkpt><trkpt lat="50.8174042404" lon="15.5036772229"></trkpt><trkpt lat="50.8175460622" lon="15.5046275631"></trkpt><trkpt lat="50.8175125346" lon="15.5051754881"></trkpt><trkpt lat="50.8175913244" lon="15.5055899732"></trkpt><trkpt lat="50.8176696952" lon="15.5066579953"></trkpt><trkpt lat="50.8175655082" lon="15.5070640985"></trkpt><trkpt lat="50.8175347466" lon="15.5076418631"></trkpt><trkpt lat="50.81754338" lon="15.5082446896"></trkpt><trkpt lat="50.8174985368" lon="15.5090664513"></trkpt><trkpt lat="50.8174284641" lon="15.5095614865"></trkpt><trkpt lat="50.8173926733" lon="15.5103207193"></trkpt><trkpt lat="50.8172293939" lon="15.510839643"></trkpt><trkpt lat="50.8172962815" lon="15.5113319121"></trkpt><trkpt lat="50.8173210081" lon="15.5117639992"></trkpt><trkpt lat="50.8174419589" lon="15.5122990161"></trkpt><trkpt lat="50.817718897" lon="15.5132252164"></trkpt><trkpt lat="50.8178848587" lon="15.5135857221"></trkpt><trkpt lat="50.818890268" lon="15.5163544323"></trkpt><trkpt lat="50.8187150024" lon="15.5167578533"></trkpt><trkpt lat="50.8187179361" lon="15.5171871744"></trkpt><trkpt lat="50.8189123962" lon="15.5175339337"></trkpt><trkpt lat="50.8191467542" lon="15.5177918449"></trkpt><trkpt lat="50.8194058388" lon="15.5180205032"></trkpt><trkpt lat="50.8201919775" lon="15.5188916344"></trkpt><trkpt lat="50.8204504754" lon="15.5193501245"></trkpt><trkpt lat="50.820750799" lon="15.5197260529"></trkpt><trkpt lat="50.8210942056" lon="15.5199808627"></trkpt><trkpt lat="50.8214138076" lon="15.5201029871"></trkpt><trkpt lat="50.8218896482" lon="15.5201464891"></trkpt><trkpt lat="50.8222230803" lon="15.5204815976"></trkpt><trkpt lat="50.8230237197" lon="15.5214645434"></trkpt><trkpt lat="50.8231632784" lon="15.5218952056"></trkpt><trkpt lat="50.8233349398" lon="15.5222390313"></trkpt><trkpt lat="50.8236421365" lon="15.5226279516"></trkpt><trkpt lat="50.8241382614" lon="15.5234223884"></trkpt><trkpt lat="50.8243225794" lon="15.523926476"></trkpt><trkpt lat="50.8245172072" lon="15.5242396239"></trkpt><trkpt lat="50.8249761164" lon="15.5248479825"></trkpt><trkpt lat="50.8252212871" lon="15.5252377409"></trkpt><trkpt lat="50.8255222812" lon="15.5252747051"></trkpt><trkpt lat="50.8257674519" lon="15.5249716155"></trkpt><trkpt lat="50.8260436356" lon="15.5248714518"></trkpt></trkseg><trkseg><trkpt lat="50.8261772431" lon="15.5233088136"></trkpt><trkpt lat="50.8263127785" lon="15.5229174625"></trkpt><trkpt lat="50.8265254274" lon="15.5226265267"></trkpt><trkpt lat="50.8268819097" lon="15.522632394"></trkpt><trkpt lat="50.827152729" lon="15.5227421131"></trkpt><trkpt lat="50.8294823114" lon="15.5242300685"></trkpt><trkpt lat="50.8295373805" lon="15.5246792547"></trkpt><trkpt lat="50.8294184413" lon="15.5251026247"></trkpt><trkpt lat="50.8292746916" lon="15.5257672258"></trkpt><trkpt lat="50.8294219617" lon="15.5262477603"></trkpt><trkpt lat="50.8297075331" lon="15.5266319029"></trkpt><trkpt lat="50.8299458306" lon="15.5270406883"></trkpt><trkpt lat="50.8301583957" lon="15.527328942"></trkpt><trkpt lat="50.8305122796" lon="15.527616106"></trkpt><trkpt lat="50.8307267725" lon="15.527936127"></trkpt><trkpt lat="50.8308315463" lon="15.5284754187"></trkpt><trkpt lat="50.8311101608" lon="15.5286120437"></trkpt><trkpt lat="50.8320539631" lon="15.5292300414"></trkpt><trkpt lat="50.8323241118" lon="15.5295482185"></trkpt><trkpt lat="50.8324752375" lon="15.5299459398"></trkpt><trkpt lat="50.8325614873" lon="15.5304526258"></trkpt><trkpt lat="50.8325382695" lon="15.5310096033"></trkpt><trkpt lat="50.8324168157" lon="15.5314659141"></trkpt><trkpt lat="50.8322711382" lon="15.5321908649"></trkpt><trkpt lat="50.8321139775" lon="15.532554388"></trkpt><trkpt lat="50.8319015801" lon="15.5328609981"></trkpt><trkpt lat="50.8318452537" lon="15.5333209969"></trkpt><trkpt lat="50.8318284061" lon="15.5341794714"></trkpt><trkpt lat="50.8319666237" lon="15.5345734209"></trkpt><trkpt lat="50.8322428912" lon="15.5346826371"></trkpt><trkpt lat="50.8324971981" lon="15.5344379693"></trkpt><trkpt lat="50.8328126092" lon="15.5343357101"></trkpt><trkpt lat="50.8331728633" lon="15.5345175974"></trkpt><trkpt lat="50.8333363943" lon="15.5348633509"></trkpt><trkpt lat="50.8333838359" lon="15.5354049895"></trkpt><trkpt lat="50.8332348894" lon="15.5359084066"></trkpt><trkpt lat="50.8333752863" lon="15.5363613646"></trkpt><trkpt lat="50.8335965686" lon="15.5367070343"></trkpt><trkpt lat="50.8339187689" lon="15.5371071026"></trkpt><trkpt lat="50.8341930248" lon="15.5371901672"></trkpt><trkpt lat="50.8343385346" lon="15.537608508"></trkpt><trkpt lat="50.8341193479" lon="15.5380115937"></trkpt><trkpt lat="50.8338747639" lon="15.5383452773"></trkpt><trkpt lat="50.8335270826" lon="15.5389607605"></trkpt><trkpt lat="50.8335340396" lon="15.539463507"></trkpt><trkpt lat="50.8335877676" lon="15.5399653316"></trkpt><trkpt lat="50.8334891126" lon="15.5404514819"></trkpt><trkpt lat="50.8335627895" lon="15.5409144983"></trkpt><trkpt lat="50.8335576765" lon="15.5413640197"></trkpt><trkpt lat="50.8334949799" lon="15.5422295351"></trkpt><trkpt lat="50.8336138353" lon="15.5426679924"></trkpt><trkpt lat="50.8334765397" lon="15.5431310926"></trkpt><trkpt lat="50.8332065586" lon="15.5434124731"></trkpt><trkpt lat="50.83297153" lon="15.5437203404"></trkpt><trkpt lat="50.8327862062" lon="15.544047486"></trkpt><trkpt lat="50.8325257804" lon="15.5443772301"></trkpt><trkpt lat="50.8323269617" lon="15.5447304435"></trkpt><trkpt lat="50.832154965" lon="15.5451903585"></trkpt><trkpt lat="50.8320324216" lon="15.5456513632"></trkpt><trkpt lat="50.8319493569" lon="15.5460759066"></trkpt><trkpt lat="50.8318868279" lon="15.5465345643"></trkpt><trkpt lat="50.8319782745" lon="15.5469962396"></trkpt><trkpt lat="50.8320133947" lon="15.547439307"></trkpt><trkpt lat="50.8321820386" lon="15.5479570571"></trkpt><trkpt lat="50.8323849645" lon="15.5483374279"></trkpt><trkpt lat="50.8326127846" lon="15.5486069061"></trkpt><trkpt lat="50.8328732941" lon="15.5490173679"></trkpt><trkpt lat="50.8330639824" lon="15.5494690686"></trkpt><trkpt lat="50.8332192991" lon="15.5499361083"></trkpt><trkpt lat="50.8336620312" lon="15.5509498995"></trkpt><trkpt lat="50.8338678908" lon="15.5513296835"></trkpt><trkpt lat="50.8337362949" lon="15.5517031811"></trkpt><trkpt lat="50.8334311936" lon="15.5519358627"></trkpt><trkpt lat="50.8329652436" lon="15.5525059998"></trkpt><trkpt lat="50.8330136072" lon="15.5530784"></trkpt><trkpt lat="50.8331471309" lon="15.55356564"></trkpt><trkpt lat="50.8333240729" lon="15.5539537221"></trkpt><trkpt lat="50.8335565869" lon="15.5543253757"></trkpt><trkpt lat="50.8337721694" lon="15.5545978714"></trkpt><trkpt lat="50.8340438269" lon="15.5548308045"></trkpt><trkpt lat="50.8343192562" lon="15.5551507417"></trkpt><trkpt lat="50.8347492479" lon="15.5557572562"></trkpt><trkpt lat="50.8347581327" lon="15.556358071"></trkpt><trkpt lat="50.8349044807" lon="15.556782363"></trkpt><trkpt lat="50.8351744618" lon="15.5570659228"></trkpt><trkpt lat="50.8354551718" lon="15.5572199821"></trkpt><trkpt lat="50.8357260749" lon="15.5574965011"></trkpt><trkpt lat="50.836061351" lon="15.5577445216"></trkpt><trkpt lat="50.836329069" lon="15.5580036901"></trkpt><trkpt lat="50.8365670312" lon="15.558329327"></trkpt><trkpt lat="50.8371013775" lon="15.5589058343"></trkpt><trkpt lat="50.8374830056" lon="15.5589931738"></trkpt><trkpt lat="50.8377717622" lon="15.559003232"></trkpt><trkpt lat="50.8402096387" lon="15.5585568119"></trkpt><trkpt lat="50.8404484391" lon="15.5581372138"></trkpt><trkpt lat="50.8406443242" lon="15.5576671567"></trkpt><trkpt lat="50.8407250419" lon="15.5570834409"></trkpt><trkpt lat="50.8407200966" lon="15.5565375276"></trkpt><trkpt lat="50.8408889081" lon="15.5560914427"></trkpt><trkpt lat="50.8406229503" lon="15.555771254"></trkpt><trkpt lat="50.8407922648" lon="15.5553090759"></trkpt><trkpt lat="50.8410718851" lon="15.5552136898"></trkpt><trkpt lat="50.8413502481" lon="15.5549649987"></trkpt><trkpt lat="50.8417137712" lon="15.5548753962"></trkpt><trkpt lat="50.8419726882" lon="15.5546947662"></trkpt><trkpt lat="50.8422390651" lon="15.5544588994"></trkpt><trkpt lat="50.8424435835" lon="15.5541290715"></trkpt><trkpt lat="50.8426271472" lon="15.5545056704"></trkpt><trkpt lat="50.8432881441" lon="15.55563136"></trkpt><trkpt lat="50.8435392659" lon="15.5558163486"></trkpt><trkpt lat="50.8439525776" lon="15.5560331885"></trkpt><trkpt lat="50.8442358021" lon="15.5561169237"></trkpt><trkpt lat="50.8448951226" lon="15.5561975576"></trkpt><trkpt lat="50.8451696299" lon="15.5558639579"></trkpt><trkpt lat="50.8454743959" lon="15.5554205552"></trkpt><trkpt lat="50.8457910642" lon="15.5550523382"></trkpt><trkpt lat="50.8460840955" lon="15.5550608039"></trkpt><trkpt lat="50.8464700822" lon="15.5552871991"></trkpt><trkpt lat="50.8466952201" lon="15.5555442721"></trkpt><trkpt lat="50.8469514549" lon="15.5557845812"></trkpt><trkpt lat="50.8477267809" lon="15.5567038245"></trkpt><trkpt lat="50.84801713" lon="15.5568368454"></trkpt><trkpt lat="50.8484165277" lon="15.5570929963"></trkpt><trkpt lat="50.8485570084" lon="15.5574680865"></trkpt><trkpt lat="50.8485093992" lon="15.5569865461"></trkpt><trkpt lat="50.8485691622" lon="15.5572934914"></trkpt></trkseg></trk></gpx>