<?xml version="1.0" encoding="UTF-8" standalone="no" ?><gpx xmlns="http://www.topografix.com/GPX/1/1" xmlns:gpxx="http://www.garmin.com/xmlschemas/GpxExtensions/v3" ><trk><trkseg><trkpt lat="50.46058" lon="17.347607"></trkpt><trkpt lat="50.460315" lon="17.347136"></trkpt><trkpt lat="50.460079" lon="17.346873"></trkpt><trkpt lat="50.460624" lon="17.34654"></trkpt><trkpt lat="50.461249" lon="17.346512"></trkpt><trkpt lat="50.462344" lon="17.346722"></trkpt><trkpt lat="50.462644" lon="17.346406"></trkpt><trkpt lat="50.462661" lon="17.346076"></trkpt><trkpt lat="50.462576" lon="17.345571"></trkpt><trkpt lat="50.462577" lon="17.344866"></trkpt><trkpt lat="50.462539" lon="17.344499"></trkpt><trkpt lat="50.463073" lon="17.344381"></trkpt><trkpt lat="50.463853" lon="17.344022"></trkpt><trkpt lat="50.464473" lon="17.343558"></trkpt><trkpt lat="50.465476" lon="17.342584"></trkpt><trkpt lat="50.465847" lon="17.342118"></trkpt><trkpt lat="50.466778" lon="17.341109"></trkpt><trkpt lat="50.467009" lon="17.341027"></trkpt><trkpt lat="50.467214" lon="17.341019"></trkpt><trkpt lat="50.467397" lon="17.340877"></trkpt><trkpt lat="50.46743" lon="17.340421"></trkpt><trkpt lat="50.467714" lon="17.339386"></trkpt><trkpt lat="50.468011" lon="17.338845"></trkpt><trkpt lat="50.468532" lon="17.338427"></trkpt><trkpt lat="50.471336" lon="17.335764"></trkpt><trkpt lat="50.47168" lon="17.334866"></trkpt><trkpt lat="50.472617" lon="17.332799"></trkpt><trkpt lat="50.473071" lon="17.333165"></trkpt><trkpt lat="50.474125" lon="17.333637"></trkpt><trkpt lat="50.474314" lon="17.33329"></trkpt><trkpt lat="50.474654" lon="17.333541"></trkpt><trkpt lat="50.477022" lon="17.335904"></trkpt><trkpt lat="50.477201" lon="17.336261"></trkpt><trkpt lat="50.478546" lon="17.33851"></trkpt><trkpt lat="50.479292" lon="17.337527"></trkpt><trkpt lat="50.481106" lon="17.335607"></trkpt><trkpt lat="50.48133" lon="17.336029"></trkpt><trkpt lat="50.481963" lon="17.337059"></trkpt><trkpt lat="50.48225" lon="17.337165"></trkpt><trkpt lat="50.482585" lon="17.337134"></trkpt><trkpt lat="50.48392" lon="17.337777"></trkpt><trkpt lat="50.483997" lon="17.338076"></trkpt><trkpt lat="50.484196" lon="17.338146"></trkpt><trkpt lat="50.484431" lon="17.337932"></trkpt><trkpt lat="50.484679" lon="17.337772"></trkpt><trkpt lat="50.484972" lon="17.337543"></trkpt><trkpt lat="50.485323" lon="17.337433"></trkpt><trkpt lat="50.485634" lon="17.33739"></trkpt><trkpt lat="50.485941" lon="17.337174"></trkpt><trkpt lat="50.48618" lon="17.336853"></trkpt><trkpt lat="50.486352" lon="17.336532"></trkpt><trkpt lat="50.488008" lon="17.333939"></trkpt><trkpt lat="50.488329" lon="17.333807"></trkpt><trkpt lat="50.488669" lon="17.333722"></trkpt><trkpt lat="50.489078" lon="17.333678"></trkpt><trkpt lat="50.495379" lon="17.332254"></trkpt><trkpt lat="50.4958" lon="17.331879"></trkpt><trkpt lat="50.496591" lon="17.331308"></trkpt><trkpt lat="50.496928" lon="17.33116"></trkpt><trkpt lat="50.497623" lon="17.330982"></trkpt><trkpt lat="50.497871" lon="17.330952"></trkpt><trkpt lat="50.501959" lon="17.331905"></trkpt><trkpt lat="50.502224" lon="17.332021"></trkpt><trkpt lat="50.502783" lon="17.332182"></trkpt><trkpt lat="50.503517" lon="17.332147"></trkpt><trkpt lat="50.505089" lon="17.332682"></trkpt><trkpt lat="50.505403" lon="17.332935"></trkpt><trkpt lat="50.506901" lon="17.333581"></trkpt><trkpt lat="50.507936" lon="17.333677"></trkpt><trkpt lat="50.508551" lon="17.333916"></trkpt><trkpt lat="50.508991" lon="17.333983"></trkpt><trkpt lat="50.509698" lon="17.33396"></trkpt><trkpt lat="50.51082" lon="17.334491"></trkpt><trkpt lat="50.511934" lon="17.334752"></trkpt><trkpt lat="50.519911" lon="17.337719"></trkpt><trkpt lat="50.520624" lon="17.338264"></trkpt><trkpt lat="50.522139" lon="17.339194"></trkpt><trkpt lat="50.522618" lon="17.339258"></trkpt><trkpt lat="50.524405" lon="17.33875"></trkpt><trkpt lat="50.525375" lon="17.338352"></trkpt><trkpt lat="50.526023" lon="17.337924"></trkpt><trkpt lat="50.526472" lon="17.337822"></trkpt><trkpt lat="50.526953" lon="17.337768"></trkpt><trkpt lat="50.52715" lon="17.337716"></trkpt><trkpt lat="50.527335" lon="17.337858"></trkpt><trkpt lat="50.531813" lon="17.341986"></trkpt><trkpt lat="50.532082" lon="17.34234"></trkpt><trkpt lat="50.533286" lon="17.343623"></trkpt><trkpt lat="50.533932" lon="17.344147"></trkpt><trkpt lat="50.534478" lon="17.344759"></trkpt><trkpt lat="50.53525" lon="17.345445"></trkpt><trkpt lat="50.536001" lon="17.345681"></trkpt><trkpt lat="50.537249" lon="17.345825"></trkpt><trkpt lat="50.539286" lon="17.346606"></trkpt><trkpt lat="50.540058" lon="17.347213"></trkpt><trkpt lat="50.54081" lon="17.347649"></trkpt><trkpt lat="50.541565" lon="17.347517"></trkpt><trkpt lat="50.541771" lon="17.347375"></trkpt><trkpt lat="50.543936" lon="17.346178"></trkpt><trkpt lat="50.544338" lon="17.34601"></trkpt><trkpt lat="50.545834" lon="17.345132"></trkpt><trkpt lat="50.546304" lon="17.344754"></trkpt><trkpt lat="50.546799" lon="17.344281"></trkpt><trkpt lat="50.546764" lon="17.345162"></trkpt><trkpt lat="50.546619" lon="17.346242"></trkpt><trkpt lat="50.545065" lon="17.359356"></trkpt><trkpt lat="50.54513" lon="17.359792"></trkpt><trkpt lat="50.545173" lon="17.363471"></trkpt><trkpt lat="50.544924" lon="17.36437"></trkpt><trkpt lat="50.544015" lon="17.366942"></trkpt><trkpt lat="50.543775" lon="17.368361"></trkpt><trkpt lat="50.543721" lon="17.369246"></trkpt><trkpt lat="50.543741" lon="17.369803"></trkpt><trkpt lat="50.543778" lon="17.370243"></trkpt><trkpt lat="50.543776" lon="17.370576"></trkpt><trkpt lat="50.54394" lon="17.370776"></trkpt><trkpt lat="50.544068" lon="17.371098"></trkpt><trkpt lat="50.544293" lon="17.371214"></trkpt><trkpt lat="50.544711" lon="17.371484"></trkpt><trkpt lat="50.552263" lon="17.376203"></trkpt><trkpt lat="50.559524" lon="17.379695"></trkpt><trkpt lat="50.560379" lon="17.379737"></trkpt><trkpt lat="50.568259" lon="17.380336"></trkpt><trkpt lat="50.576195" lon="17.380951"></trkpt><trkpt lat="50.584679" lon="17.381588"></trkpt><trkpt lat="50.593095" lon="17.382226"></trkpt><trkpt lat="50.59492" lon="17.382658"></trkpt><trkpt lat="50.597779" lon="17.382537"></trkpt><trkpt lat="50.605775" lon="17.382395"></trkpt><trkpt lat="50.613695" lon="17.382393"></trkpt><trkpt lat="50.615978" lon="17.381895"></trkpt><trkpt lat="50.616058" lon="17.381586"></trkpt><trkpt lat="50.61643" lon="17.380579"></trkpt><trkpt lat="50.616935" lon="17.378206"></trkpt></trkseg></trk></gpx>