<?xml version="1.0" encoding="UTF-8" standalone="no" ?><gpx xmlns="http://www.topografix.com/GPX/1/1" xmlns:gpxx="http://www.garmin.com/xmlschemas/GpxExtensions/v3" ><trk><trkseg><trkpt lat="50.2442602627" lon="16.8529206421"></trkpt><trkpt lat="50.243940074" lon="16.8529951572"></trkpt><trkpt lat="50.2434930671" lon="16.8532040343"></trkpt><trkpt lat="50.2432572842" lon="16.8534348719"></trkpt><trkpt lat="50.2429316472" lon="16.8535744306"></trkpt><trkpt lat="50.2426375262" lon="16.853549201"></trkpt><trkpt lat="50.2423066087" lon="16.85344317"></trkpt><trkpt lat="50.2420339454" lon="16.853312999"></trkpt><trkpt lat="50.2417813148" lon="16.8530732766"></trkpt><trkpt lat="50.2415695041" lon="16.8527958356"></trkpt><trkpt lat="50.2397648804" lon="16.850826256"></trkpt><trkpt lat="50.2395073883" lon="16.8506328017"></trkpt><trkpt lat="50.2382331714" lon="16.8494398892"></trkpt><trkpt lat="50.2380038425" lon="16.8491351232"></trkpt><trkpt lat="50.2376019303" lon="16.8484266009"></trkpt><trkpt lat="50.2366853692" lon="16.8470914476"></trkpt><trkpt lat="50.2364039049" lon="16.8469236419"></trkpt><trkpt lat="50.2362990472" lon="16.8464823347"></trkpt><trkpt lat="50.2361961175" lon="16.8458815198"></trkpt><trkpt lat="50.2360820398" lon="16.8454810325"></trkpt><trkpt lat="50.2358754259" lon="16.8451025896"></trkpt><trkpt lat="50.2346689347" lon="16.8423715979"></trkpt><trkpt lat="50.2345744707" lon="16.8419729546"></trkpt><trkpt lat="50.2341246977" lon="16.8419432826"></trkpt><trkpt lat="50.2338555548" lon="16.8420252576"></trkpt><trkpt lat="50.2335745934" lon="16.8418390118"></trkpt><trkpt lat="50.2332083043" lon="16.8417281192"></trkpt><trkpt lat="50.2327555977" lon="16.8416669313"></trkpt><trkpt lat="50.2324298769" lon="16.8417598028"></trkpt><trkpt lat="50.2315165009" lon="16.8418808375"></trkpt><trkpt lat="50.2225207072" lon="16.8409766816"></trkpt><trkpt lat="50.2221889514" lon="16.8408924434"></trkpt><trkpt lat="50.2218335588" lon="16.840699492"></trkpt><trkpt lat="50.2211149782" lon="16.8404428381"></trkpt><trkpt lat="50.220134547" lon="16.8402550835"></trkpt><trkpt lat="50.2198561002" lon="16.8400788121"></trkpt><trkpt lat="50.2166201826" lon="16.8385340273"></trkpt><trkpt lat="50.2162403986" lon="16.8382591847"></trkpt><trkpt lat="50.2160597686" lon="16.8379229866"></trkpt><trkpt lat="50.2159354649" lon="16.8375288695"></trkpt><trkpt lat="50.2159022726" lon="16.8371088523"></trkpt><trkpt lat="50.2159922943" lon="16.8367052637"></trkpt><trkpt lat="50.21603873" lon="16.8361835741"></trkpt><trkpt lat="50.2159122471" lon="16.835779231"></trkpt><trkpt lat="50.2156574372" lon="16.8354776502"></trkpt><trkpt lat="50.2153045591" lon="16.8351394404"></trkpt><trkpt lat="50.2150184847" lon="16.8349633366"></trkpt><trkpt lat="50.2137975767" lon="16.834009476"></trkpt><trkpt lat="50.2131167147" lon="16.8333138619"></trkpt><trkpt lat="50.2107639145" lon="16.8313611299"></trkpt><trkpt lat="50.2104531135" lon="16.8312074896"></trkpt><trkpt lat="50.2101022471" lon="16.8312087469"></trkpt><trkpt lat="50.2097595111" lon="16.8312680908"></trkpt><trkpt lat="50.209323233" lon="16.8314107507"></trkpt><trkpt lat="50.2090066485" lon="16.8316253275"></trkpt><trkpt lat="50.2087441273" lon="16.8318658043"></trkpt><trkpt lat="50.2079256345" lon="16.832792256"></trkpt><trkpt lat="50.2077441663" lon="16.8332830165"></trkpt><trkpt lat="50.2070016135" lon="16.8349189125"></trkpt><trkpt lat="50.2068021242" lon="16.8352196552"></trkpt><trkpt lat="50.2065065783" lon="16.8355837651"></trkpt><trkpt lat="50.2062479127" lon="16.8360114098"></trkpt><trkpt lat="50.2059533726" lon="16.8363006692"></trkpt><trkpt lat="50.2056725789" lon="16.8365230411"></trkpt><trkpt lat="50.2050830796" lon="16.8368869834"></trkpt><trkpt lat="50.2046718635" lon="16.8370755762"></trkpt><trkpt lat="50.2044220828" lon="16.8372503389"></trkpt><trkpt lat="50.2042825241" lon="16.8376382533"></trkpt><trkpt lat="50.204205662" lon="16.8381665647"></trkpt><trkpt lat="50.2041474078" lon="16.8388752546"></trkpt><trkpt lat="50.2042343281" lon="16.8392947689"></trkpt><trkpt lat="50.2044270281" lon="16.8396413606"></trkpt><trkpt lat="50.2044421993" lon="16.840064479"></trkpt><trkpt lat="50.2047199756" lon="16.8403722625"></trkpt><trkpt lat="50.2053470258" lon="16.841220092"></trkpt><trkpt lat="50.2055463474" lon="16.8416606449"></trkpt><trkpt lat="50.2061410435" lon="16.8432647735"></trkpt><trkpt lat="50.2062323224" lon="16.8436738104"></trkpt><trkpt lat="50.2063528541" lon="16.8440718669"></trkpt><trkpt lat="50.206368193" lon="16.844496578"></trkpt><trkpt lat="50.2064864617" lon="16.8449256476"></trkpt><trkpt lat="50.206931876" lon="16.8461702764"></trkpt><trkpt lat="50.2071177866" lon="16.8465269264"></trkpt><trkpt lat="50.2074501291" lon="16.8470565788"></trkpt><trkpt lat="50.2071819082" lon="16.8467175309"></trkpt><trkpt lat="50.2070046309" lon="16.8463900499"></trkpt><trkpt lat="50.2067482285" lon="16.8458168954"></trkpt><trkpt lat="50.2066068258" lon="16.8453732412"></trkpt><trkpt lat="50.206357548" lon="16.8443704303"></trkpt><trkpt lat="50.2062889002" lon="16.8439358287"></trkpt><trkpt lat="50.2061920892" lon="16.8435029034"></trkpt><trkpt lat="50.2059512772" lon="16.8426831532"></trkpt><trkpt lat="50.2056770213" lon="16.8419356551"></trkpt><trkpt lat="50.2054381371" lon="16.8414869718"></trkpt><trkpt lat="50.2052794676" lon="16.8410896696"></trkpt><trkpt lat="50.2050507255" lon="16.8408085406"></trkpt><trkpt lat="50.2044437081" lon="16.8398701865"></trkpt><trkpt lat="50.2042967733" lon="16.8394631613"></trkpt><trkpt lat="50.2041095216" lon="16.8390940223"></trkpt><trkpt lat="50.2040785085" lon="16.8386728317"></trkpt><trkpt lat="50.204165848" lon="16.8382274173"></trkpt><trkpt lat="50.2044911496" lon="16.8371541984"></trkpt><trkpt lat="50.2048680838" lon="16.8370003905"></trkpt><trkpt lat="50.205688253" lon="16.8364989851"></trkpt><trkpt lat="50.2060224395" lon="16.8362334464"></trkpt><trkpt lat="50.2062594797" lon="16.8358991761"></trkpt><trkpt lat="50.2075086348" lon="16.8337866012"></trkpt><trkpt lat="50.2076937072" lon="16.8333787378"></trkpt><trkpt lat="50.2078802045" lon="16.8328704592"></trkpt><trkpt lat="50.2078828868" lon="16.8324292358"></trkpt><trkpt lat="50.2075414918" lon="16.8326205947"></trkpt><trkpt lat="50.2079589944" lon="16.8322537187"></trkpt><trkpt lat="50.208235262" lon="16.8322862405"></trkpt><trkpt lat="50.2084629983" lon="16.8320542295"></trkpt><trkpt lat="50.2088167146" lon="16.8317674845"></trkpt><trkpt lat="50.2096973173" lon="16.8312329706"></trkpt><trkpt lat="50.2100099623" lon="16.8311621435"></trkpt><trkpt lat="50.210346831" lon="16.8311699387"></trkpt><trkpt lat="50.2106758207" lon="16.8313016184"></trkpt><trkpt lat="50.2109480649" lon="16.8315418437"></trkpt><trkpt lat="50.2112654876" lon="16.831758013"></trkpt><trkpt lat="50.2115420904" lon="16.8318799697"></trkpt><trkpt lat="50.2117598522" lon="16.8321605958"></trkpt><trkpt lat="50.2120256424" lon="16.8323693052"></trkpt><trkpt lat="50.2160316892" lon="16.8363317661"></trkpt><trkpt lat="50.2159332857" lon="16.8368190061"></trkpt><trkpt lat="50.2158978302" lon="16.8372397777"></trkpt><trkpt lat="50.2159944735" lon="16.8376765586"></trkpt><trkpt lat="50.2161488682" lon="16.8380550016"></trkpt><trkpt lat="50.2163502853" lon="16.8383549061"></trkpt><trkpt lat="50.2166564763" lon="16.8384751026"></trkpt><trkpt lat="50.2170098573" lon="16.8384923693"></trkpt><trkpt lat="50.2172770724" lon="16.8385857437"></trkpt><trkpt lat="50.2175991889" lon="16.8386177626"></trkpt><trkpt lat="50.2178539988" lon="16.8387707323"></trkpt><trkpt lat="50.2181205433" lon="16.838984387"></trkpt><trkpt lat="50.2185116429" lon="16.8392235227"></trkpt><trkpt lat="50.2205911931" lon="16.8401760422"></trkpt><trkpt lat="50.2226479445" lon="16.8408144079"></trkpt><trkpt lat="50.2234857157" lon="16.8407223746"></trkpt><trkpt lat="50.2238356601" lon="16.8409294076"></trkpt><trkpt lat="50.2241260093" lon="16.8409444951"></trkpt><trkpt lat="50.2244237345" lon="16.8410231173"></trkpt><trkpt lat="50.2247008402" lon="16.8411641009"></trkpt><trkpt lat="50.2250420675" lon="16.8412036635"></trkpt><trkpt lat="50.2253299858" lon="16.8413495086"></trkpt><trkpt lat="50.2260108478" lon="16.8415432982"></trkpt><trkpt lat="50.2263498958" lon="16.8415282946"></trkpt><trkpt lat="50.2354057878" lon="16.8426134158"></trkpt><trkpt lat="50.2356798761" lon="16.842876859"></trkpt><trkpt lat="50.235902667" lon="16.8432481773"></trkpt><trkpt lat="50.2361195907" lon="16.8437045719"></trkpt><trkpt lat="50.2363049984" lon="16.8440265208"></trkpt><trkpt lat="50.2364297211" lon="16.8444832508"></trkpt><trkpt lat="50.2365574613" lon="16.8451324292"></trkpt><trkpt lat="50.2366903983" lon="16.8455750775"></trkpt><trkpt lat="50.236669695" lon="16.8460803386"></trkpt><trkpt lat="50.2367502451" lon="16.8465005234"></trkpt><trkpt lat="50.2369499858" lon="16.8468805589"></trkpt><trkpt lat="50.2374388184" lon="16.8480144627"></trkpt><trkpt lat="50.2371856011" lon="16.8475887459"></trkpt><trkpt lat="50.2369606309" lon="16.8472718261"></trkpt><trkpt lat="50.2366770711" lon="16.8471462652"></trkpt><trkpt lat="50.2364477422" lon="16.8468546588"></trkpt><trkpt lat="50.2363441419" lon="16.8463778961"></trkpt><trkpt lat="50.2359688003" lon="16.8451581616"></trkpt><trkpt lat="50.2358032577" lon="16.8447476998"></trkpt><trkpt lat="50.235590525" lon="16.8443805724"></trkpt><trkpt lat="50.2353592683" lon="16.8440869544"></trkpt><trkpt lat="50.2351928037" lon="16.8437427934"></trkpt><trkpt lat="50.2347777318" lon="16.843058411"></trkpt><trkpt lat="50.234610429" lon="16.8426539004"></trkpt><trkpt lat="50.2345427871" lon="16.8430828862"></trkpt><trkpt lat="50.2337514516" lon="16.8433512747"></trkpt><trkpt lat="50.2346442081" lon="16.8423315324"></trkpt><trkpt lat="50.2349757962" lon="16.8425580952"></trkpt><trkpt lat="50.2345681004" lon="16.8424608652"></trkpt><trkpt lat="50.234806817" lon="16.8421436101"></trkpt><trkpt lat="50.2351578511" lon="16.8423787225"></trkpt><trkpt lat="50.235399669" lon="16.8425875995"></trkpt><trkpt lat="50.2356745116" lon="16.8429303356"></trkpt><trkpt lat="50.2360255457" lon="16.8435073458"></trkpt><trkpt lat="50.2361915912" lon="16.8438477349"></trkpt><trkpt lat="50.2363307308" lon="16.8442701828"></trkpt><trkpt lat="50.2365709562" lon="16.8452853151"></trkpt><trkpt lat="50.2366270311" lon="16.8457806017"></trkpt><trkpt lat="50.2367416956" lon="16.8464024551"></trkpt><trkpt lat="50.2369742095" lon="16.8466891162"></trkpt><trkpt lat="50.2371747885" lon="16.8471946288"></trkpt><trkpt lat="50.2373356372" lon="16.8477346748"></trkpt><trkpt lat="50.2375559974" lon="16.848295508"></trkpt><trkpt lat="50.237805862" lon="16.8487743661"></trkpt><trkpt lat="50.238049021" lon="16.8491087202"></trkpt><trkpt lat="50.2395405807" lon="16.8508029543"></trkpt><trkpt lat="50.2398137469" lon="16.8510232307"></trkpt><trkpt lat="50.2413324639" lon="16.8525320571"></trkpt><trkpt lat="50.2415578533" lon="16.8528096657"></trkpt><trkpt lat="50.2417839132" lon="16.8531591073"></trkpt><trkpt lat="50.2421319298" lon="16.8534375541"></trkpt><trkpt lat="50.2424358577" lon="16.8535392266"></trkpt><trkpt lat="50.2428404521" lon="16.8535741791"></trkpt><trkpt lat="50.2433881257" lon="16.8532604445"></trkpt></trkseg></trk></gpx>