<?xml version="1.0" encoding="UTF-8" standalone="no" ?><gpx xmlns="http://www.topografix.com/GPX/1/1" xmlns:gpxx="http://www.garmin.com/xmlschemas/GpxExtensions/v3" ><trk><trkseg><trkpt lat="52.4877677578" lon="15.542635303"></trkpt><trkpt lat="52.4880576879" lon="15.5431829765"></trkpt><trkpt lat="52.4883200414" lon="15.543321697"></trkpt><trkpt lat="52.4885809701" lon="15.5435317475"></trkpt><trkpt lat="52.4885146692" lon="15.5441556126"></trkpt><trkpt lat="52.4882588536" lon="15.5449470319"></trkpt><trkpt lat="52.4878933188" lon="15.5458121281"></trkpt><trkpt lat="52.4876304623" lon="15.5466846004"></trkpt><trkpt lat="52.4876329768" lon="15.5471679009"></trkpt><trkpt lat="52.4875611439" lon="15.5479399581"></trkpt><trkpt lat="52.4870714732" lon="15.5481666885"></trkpt><trkpt lat="52.4788574595" lon="15.5532981735"></trkpt><trkpt lat="52.4786313996" lon="15.5536341202"></trkpt><trkpt lat="52.4783733208" lon="15.5539096333"></trkpt><trkpt lat="52.4780880008" lon="15.5539932847"></trkpt><trkpt lat="52.4778034352" lon="15.5542030837"></trkpt><trkpt lat="52.4775986653" lon="15.5546023138"></trkpt><trkpt lat="52.4773292709" lon="15.5549362488"></trkpt><trkpt lat="52.4766896479" lon="15.5555856787"></trkpt><trkpt lat="52.4560526479" lon="15.5760571361"></trkpt><trkpt lat="52.4553307146" lon="15.5765147042"></trkpt><trkpt lat="52.453986425" lon="15.5770741962"></trkpt><trkpt lat="52.4534559343" lon="15.5771487113"></trkpt><trkpt lat="52.4357483257" lon="15.57179695"></trkpt><trkpt lat="52.4349381309" lon="15.5710846558"></trkpt><trkpt lat="52.4196354579" lon="15.5544563849"></trkpt><trkpt lat="52.4194990844" lon="15.5539746769"></trkpt><trkpt lat="52.4172130041" lon="15.5475512054"></trkpt><trkpt lat="52.4165464751" lon="15.5470021069"></trkpt><trkpt lat="52.4156615976" lon="15.5460666027"></trkpt><trkpt lat="52.4151843321" lon="15.5453292467"></trkpt><trkpt lat="52.4143762328" lon="15.544341607"></trkpt><trkpt lat="52.4134641979" lon="15.5434577353"></trkpt><trkpt lat="52.412297437" lon="15.5426291842"></trkpt><trkpt lat="52.4115715642" lon="15.5422690976"></trkpt><trkpt lat="52.4100598879" lon="15.5418386869"></trkpt><trkpt lat="52.4094842188" lon="15.5417871382"></trkpt><trkpt lat="52.4038621411" lon="15.5403918866"></trkpt><trkpt lat="52.4039416015" lon="15.5398009624"></trkpt><trkpt lat="52.4041731097" lon="15.5388875026"></trkpt><trkpt lat="52.4047131557" lon="15.5389797874"></trkpt><trkpt lat="52.4049970508" lon="15.5388683919"></trkpt><trkpt lat="52.4052065145" lon="15.5385662243"></trkpt><trkpt lat="52.4055496696" lon="15.5378879607"></trkpt><trkpt lat="52.4063269235" lon="15.5366018414"></trkpt><trkpt lat="52.4060744606" lon="15.5367758498"></trkpt><trkpt lat="52.4057525117" lon="15.5374122038"></trkpt><trkpt lat="52.4048060272" lon="15.538972998"></trkpt><trkpt lat="52.4043241516" lon="15.5388633627"></trkpt><trkpt lat="52.4040388316" lon="15.5389906"></trkpt><trkpt lat="52.4038235843" lon="15.5403965805"></trkpt><trkpt lat="52.4035942554" lon="15.5414531194"></trkpt><trkpt lat="52.4030382" lon="15.5413317494"></trkpt><trkpt lat="52.3792204354" lon="15.534980949"></trkpt><trkpt lat="52.369080428" lon="15.5307131354"></trkpt><trkpt lat="52.3690562043" lon="15.5301856622"></trkpt><trkpt lat="52.3690983653" lon="15.5272398423"></trkpt><trkpt lat="52.3691845313" lon="15.5263159052"></trkpt><trkpt lat="52.3713572882" lon="15.5117109418"></trkpt><trkpt lat="52.3771094531" lon="15.4722983949"></trkpt><trkpt lat="52.3775537778" lon="15.4643616546"></trkpt><trkpt lat="52.3772471678" lon="15.4635590874"></trkpt><trkpt lat="52.3767807987" lon="15.4625887144"></trkpt><trkpt lat="52.3765512183" lon="15.4617291503"></trkpt><trkpt lat="52.376236897" lon="15.4609624576"></trkpt><trkpt lat="52.3745392263" lon="15.4576343391"></trkpt><trkpt lat="52.3743461072" lon="15.457057748"></trkpt><trkpt lat="52.3738975916" lon="15.455381535"></trkpt><trkpt lat="52.3732489161" lon="15.453533493"></trkpt><trkpt lat="52.372927554" lon="15.4529927764"></trkpt><trkpt lat="52.3731394485" lon="15.4532924294"></trkpt><trkpt lat="52.3734348267" lon="15.4538439587"></trkpt><trkpt lat="52.373679243" lon="15.4544507246"></trkpt><trkpt lat="52.373833973" lon="15.4551070277"></trkpt><trkpt lat="52.374222558" lon="15.457446333"></trkpt><trkpt lat="52.3739437759" lon="15.4574277252"></trkpt><trkpt lat="52.3743524775" lon="15.4573287349"></trkpt><trkpt lat="52.3744488694" lon="15.4578818567"></trkpt><trkpt lat="52.3744538985" lon="15.4587619565"></trkpt><trkpt lat="52.3741645552" lon="15.4595868196"></trkpt><trkpt lat="52.3740611225" lon="15.4601157177"></trkpt><trkpt lat="52.3741945624" lon="15.461193379"></trkpt><trkpt lat="52.374216523" lon="15.4617875721"></trkpt><trkpt lat="52.3737708572" lon="15.4629984219"></trkpt><trkpt lat="52.3732581362" lon="15.46406921"></trkpt><trkpt lat="52.3729200102" lon="15.4642644245"></trkpt><trkpt lat="52.372624632" lon="15.4642180726"></trkpt><trkpt lat="52.3621086963" lon="15.4609756172"></trkpt><trkpt lat="52.3619391304" lon="15.459579695"></trkpt><trkpt lat="52.361480305" lon="15.4571636952"></trkpt><trkpt lat="52.3612331226" lon="15.4568972345"></trkpt><trkpt lat="52.3602757417" lon="15.4564346373"></trkpt><trkpt lat="52.358026877" lon="15.4557295516"></trkpt><trkpt lat="52.357459506" lon="15.4554160684"></trkpt><trkpt lat="52.3572222982" lon="15.455113817"></trkpt><trkpt lat="52.3556802794" lon="15.452692369"></trkpt><trkpt lat="52.3556402978" lon="15.4522387404"></trkpt><trkpt lat="52.3556657787" lon="15.451750746"></trkpt><trkpt lat="52.3557438143" lon="15.4512697924"></trkpt><trkpt lat="52.3560199142" lon="15.4505549837"></trkpt><trkpt lat="52.356381258" lon="15.4497839324"></trkpt><trkpt lat="52.3566934001" lon="15.4486969672"></trkpt><trkpt lat="52.3571034428" lon="15.4478064738"></trkpt><trkpt lat="52.3577236198" lon="15.4477210622"></trkpt><trkpt lat="52.3621885758" lon="15.4461636208"></trkpt><trkpt lat="52.3627315555" lon="15.4457590263"></trkpt><trkpt lat="52.3702497873" lon="15.4420145787"></trkpt><trkpt lat="52.3703484423" lon="15.4426224343"></trkpt><trkpt lat="52.3711726349" lon="15.446295552"></trkpt><trkpt lat="52.3715710267" lon="15.4464346915"></trkpt><trkpt lat="52.375432821" lon="15.4486184288"></trkpt><trkpt lat="52.3759763874" lon="15.4493104387"></trkpt><trkpt lat="52.3763514776" lon="15.4500096571"></trkpt><trkpt lat="52.376363799" lon="15.4505184386"></trkpt><trkpt lat="52.376529593" lon="15.4523479566"></trkpt><trkpt lat="52.3768744245" lon="15.4543903749"></trkpt><trkpt lat="52.3772492632" lon="15.4555142205"></trkpt><trkpt lat="52.3777374253" lon="15.4562478047"></trkpt><trkpt lat="52.378667146" lon="15.4581481498"></trkpt><trkpt lat="52.3786612786" lon="15.458600102"></trkpt><trkpt lat="52.3781396728" lon="15.4588082246"></trkpt><trkpt lat="52.377676405" lon="15.459126737"></trkpt><trkpt lat="52.3772506043" lon="15.4595599137"></trkpt><trkpt lat="52.3768952116" lon="15.4596768413"></trkpt><trkpt lat="52.3764710873" lon="15.4597495962"></trkpt><trkpt lat="52.3761333805" lon="15.4598587286"></trkpt><trkpt lat="52.3756726272" lon="15.4594981391"></trkpt><trkpt lat="52.3753850441" lon="15.4589062929"></trkpt><trkpt lat="52.3751047533" lon="15.4584549274"></trkpt><trkpt lat="52.3742249049" lon="15.4574404657"></trkpt><trkpt lat="52.3739519063" lon="15.4573992267"></trkpt><trkpt lat="52.3744534794" lon="15.4574962053"></trkpt><trkpt lat="52.3745124042" lon="15.4580258578"></trkpt><trkpt lat="52.3744430859" lon="15.4590369668"></trkpt><trkpt lat="52.3741538264" lon="15.4597744066"></trkpt><trkpt lat="52.374116946" lon="15.4602302145"></trkpt><trkpt lat="52.3742472008" lon="15.4613286629"></trkpt><trkpt lat="52.3742544092" lon="15.4617726523"></trkpt><trkpt lat="52.3740997631" lon="15.4622539412"></trkpt><trkpt lat="52.373948805" lon="15.4626294505"></trkpt><trkpt lat="52.3730395362" lon="15.4642548691"></trkpt><trkpt lat="52.3727004882" lon="15.4642701242"></trkpt><trkpt lat="52.3723650444" lon="15.4641929269"></trkpt><trkpt lat="52.3618983943" lon="15.4592157528"></trkpt><trkpt lat="52.3617826402" lon="15.4581736308"></trkpt><trkpt lat="52.3616624437" lon="15.4575221892"></trkpt><trkpt lat="52.3614685703" lon="15.457112398"></trkpt><trkpt lat="52.3612053785" lon="15.4568410758"></trkpt><trkpt lat="52.3604911566" lon="15.4565058835"></trkpt><trkpt lat="52.3577492684" lon="15.4556618258"></trkpt><trkpt lat="52.3571703304" lon="15.4550164193"></trkpt><trkpt lat="52.3567597847" lon="15.4544244055"></trkpt><trkpt lat="52.3556353524" lon="15.4523953144"></trkpt><trkpt lat="52.3556354363" lon="15.451892484"></trkpt><trkpt lat="52.3558487557" lon="15.4509356897"></trkpt><trkpt lat="52.3561068345" lon="15.4503532313"></trkpt><trkpt lat="52.3567078169" lon="15.4486963805"></trkpt><trkpt lat="52.3568197992" lon="15.4482833203"></trkpt><trkpt lat="52.3569405824" lon="15.447489135"></trkpt><trkpt lat="52.3576927744" lon="15.4440862499"></trkpt><trkpt lat="52.3579407949" lon="15.443485938"></trkpt><trkpt lat="52.3581739794" lon="15.442375252"></trkpt><trkpt lat="52.357928222" lon="15.4414665699"></trkpt><trkpt lat="52.3540567048" lon="15.4225149192"></trkpt><trkpt lat="52.354033906" lon="15.4220165312"></trkpt><trkpt lat="52.3540906515" lon="15.4202168528"></trkpt><trkpt lat="52.3541922402" lon="15.4195529222"></trkpt><trkpt lat="52.3543680925" lon="15.4188334197"></trkpt><trkpt lat="52.3545707669" lon="15.4176683351"></trkpt><trkpt lat="52.355316421" lon="15.411015451"></trkpt><trkpt lat="52.3552813008" lon="15.4104765784"></trkpt><trkpt lat="52.3551874235" lon="15.4023421928"></trkpt><trkpt lat="52.3553569894" lon="15.4018693697"></trkpt><trkpt lat="52.3563199025" lon="15.3981215693"></trkpt><trkpt lat="52.3563611414" lon="15.3976636659"></trkpt><trkpt lat="52.3579981271" lon="15.3870950919"></trkpt><trkpt lat="52.3582731374" lon="15.3865086101"></trkpt><trkpt lat="52.3623796832" lon="15.3754909337"></trkpt><trkpt lat="52.3617248889" lon="15.3748038691"></trkpt><trkpt lat="52.3619273957" lon="15.3751274105"></trkpt><trkpt lat="52.3622802738" lon="15.375518091"></trkpt><trkpt lat="52.362590488" lon="15.3759578895"></trkpt><trkpt lat="52.3629025463" lon="15.3760166466"></trkpt><trkpt lat="52.3632883653" lon="15.3764194809"></trkpt><trkpt lat="52.3636672273" lon="15.3766833432"></trkpt><trkpt lat="52.3640353605" lon="15.3770684078"></trkpt><trkpt lat="52.3644737341" lon="15.3776223678"></trkpt><trkpt lat="52.3648641631" lon="15.3778853081"></trkpt><trkpt lat="52.3651660793" lon="15.3783023078"></trkpt><trkpt lat="52.365891533" lon="15.3787908889"></trkpt><trkpt lat="52.3663351033" lon="15.3789060563"></trkpt><trkpt lat="52.3668119498" lon="15.3788708523"></trkpt><trkpt lat="52.3695469648" lon="15.3781341668"></trkpt><trkpt lat="52.3699034471" lon="15.3777532931"></trkpt><trkpt lat="52.3718978371" lon="15.3760606516"></trkpt><trkpt lat="52.3723415751" lon="15.3759687021"></trkpt><trkpt lat="52.3726467602" lon="15.3759574704"></trkpt><trkpt lat="52.374804765" lon="15.375566287"></trkpt><trkpt lat="52.3777419515" lon="15.3765598778"></trkpt><trkpt lat="52.3785625398" lon="15.3772064578"></trkpt><trkpt lat="52.3810517974" lon="15.3783113603"></trkpt><trkpt lat="52.3816585634" lon="15.3779305704"></trkpt><trkpt lat="52.3821287882" lon="15.3777164128"></trkpt><trkpt lat="52.3828575946" lon="15.3774954658"></trkpt><trkpt lat="52.3868049681" lon="15.3755437396"></trkpt><trkpt lat="52.38756923" lon="15.3743645735"></trkpt><trkpt lat="52.3881062586" lon="15.3738956898"></trkpt><trkpt lat="52.3941988964" lon="15.3696620744"></trkpt><trkpt lat="52.3944281414" lon="15.3699178062"></trkpt><trkpt lat="52.3950069118" lon="15.3708176874"></trkpt><trkpt lat="52.3951359931" lon="15.3713138122"></trkpt><trkpt lat="52.3951451294" lon="15.3718272876"></trkpt><trkpt lat="52.3950282019" lon="15.3729613591"></trkpt><trkpt lat="52.3928106856" lon="15.3860183526"></trkpt><trkpt lat="52.3924625851" lon="15.3872535098"></trkpt><trkpt lat="52.3917802982" lon="15.390389096"></trkpt><trkpt lat="52.3918767739" lon="15.391217228"></trkpt><trkpt lat="52.3922840506" lon="15.3986397386"></trkpt><trkpt lat="52.3919381294" lon="15.3995795175"></trkpt><trkpt lat="52.3915015999" lon="15.4005030356"></trkpt><trkpt lat="52.3879345134" lon="15.4103873111"></trkpt><trkpt lat="52.3877011612" lon="15.4116238933"></trkpt><trkpt lat="52.3872721754" lon="15.4128089268"></trkpt><trkpt lat="52.3850841634" lon="15.4212061688"></trkpt><trkpt lat="52.3852107301" lon="15.4226486944"></trkpt><trkpt lat="52.385538714" lon="15.4246819764"></trkpt><trkpt lat="52.3858645186" lon="15.4246471915"></trkpt><trkpt lat="52.3871627077" lon="15.4242675751"></trkpt><trkpt lat="52.3873643763" lon="15.4238814209"></trkpt><trkpt lat="52.3878799472" lon="15.4234210029"></trkpt><trkpt lat="52.388267694" lon="15.4234199971"></trkpt><trkpt lat="52.3908802494" lon="15.4230169114"></trkpt><trkpt lat="52.3911845963" lon="15.4227784462"></trkpt><trkpt lat="52.3913794756" lon="15.422377456"></trkpt><trkpt lat="52.3917287495" lon="15.421967078"></trkpt><trkpt lat="52.3926070053" lon="15.4218125995"></trkpt><trkpt lat="52.3931673355" lon="15.4212646745"></trkpt><trkpt lat="52.3992985301" lon="15.4166812822"></trkpt><trkpt lat="52.4000190385" lon="15.4170026444"></trkpt><trkpt lat="52.4009098671" lon="15.4176664911"></trkpt><trkpt lat="52.4118521903" lon="15.4278124496"></trkpt><trkpt lat="52.412409503" lon="15.4291381314"></trkpt><trkpt lat="52.4144613091" lon="15.4326473828"></trkpt><trkpt lat="52.4149075616" lon="15.4328087345"></trkpt><trkpt lat="52.4193077255" lon="15.4352732655"></trkpt><trkpt lat="52.4194130022" lon="15.4356923606"></trkpt><trkpt lat="52.4195160158" lon="15.4364555329"></trkpt><trkpt lat="52.4244568124" lon="15.4752506688"></trkpt><trkpt lat="52.4247752409" lon="15.476850355"></trkpt><trkpt lat="52.4249330722" lon="15.4773877189"></trkpt><trkpt lat="52.4351931084" lon="15.5131724104"></trkpt><trkpt lat="52.4372217804" lon="15.5183145404"></trkpt><trkpt lat="52.4377217609" lon="15.5191196222"></trkpt><trkpt lat="52.4393276498" lon="15.5225149635"></trkpt><trkpt lat="52.4394328427" lon="15.5232035369"></trkpt><trkpt lat="52.4394719861" lon="15.5242023245"></trkpt><trkpt lat="52.4420651793" lon="15.5637935735"></trkpt><trkpt lat="52.4421450589" lon="15.5644247308"></trkpt><trkpt lat="52.4439448211" lon="15.5741768237"></trkpt><trkpt lat="52.4448344763" lon="15.5745734554"></trkpt><trkpt lat="52.4450334627" lon="15.5749572627"></trkpt><trkpt lat="52.4450052995" lon="15.5760192499"></trkpt><trkpt lat="52.4447742105" lon="15.5769889522"></trkpt><trkpt lat="52.444597017" lon="15.5775105581"></trkpt><trkpt lat="52.4443966895" lon="15.5778185092"></trkpt><trkpt lat="52.4437018298" lon="15.5775631126"></trkpt><trkpt lat="52.4429127574" lon="15.5771205481"></trkpt><trkpt lat="52.4397746567" lon="15.5758435652"></trkpt></trkseg></trk></gpx>