<?xml version="1.0" encoding="UTF-8" standalone="no" ?><gpx xmlns="http://www.topografix.com/GPX/1/1" xmlns:gpxx="http://www.garmin.com/xmlschemas/GpxExtensions/v3" ><trk><trkseg><trkpt lat="52.466875" lon="17.170083"></trkpt><trkpt lat="52.467157" lon="17.170091"></trkpt><trkpt lat="52.467536" lon="17.170226"></trkpt><trkpt lat="52.467659" lon="17.170484"></trkpt><trkpt lat="52.467775" lon="17.170943"></trkpt><trkpt lat="52.469234" lon="17.175607"></trkpt><trkpt lat="52.469426" lon="17.176014"></trkpt><trkpt lat="52.471326" lon="17.179502"></trkpt><trkpt lat="52.471795" lon="17.179906"></trkpt><trkpt lat="52.472355" lon="17.180526"></trkpt><trkpt lat="52.472707" lon="17.18117"></trkpt><trkpt lat="52.473451" lon="17.182258"></trkpt><trkpt lat="52.473635" lon="17.182458"></trkpt><trkpt lat="52.474488" lon="17.18324"></trkpt><trkpt lat="52.474637" lon="17.183698"></trkpt><trkpt lat="52.474952" lon="17.184178"></trkpt><trkpt lat="52.476244" lon="17.18584"></trkpt><trkpt lat="52.476507" lon="17.185911"></trkpt><trkpt lat="52.476966" lon="17.185678"></trkpt><trkpt lat="52.477121" lon="17.185362"></trkpt><trkpt lat="52.477189" lon="17.184971"></trkpt><trkpt lat="52.477173" lon="17.184575"></trkpt><trkpt lat="52.477188" lon="17.183604"></trkpt><trkpt lat="52.477296" lon="17.183197"></trkpt><trkpt lat="52.47746" lon="17.182371"></trkpt><trkpt lat="52.477475" lon="17.181821"></trkpt><trkpt lat="52.477535" lon="17.181308"></trkpt><trkpt lat="52.477687" lon="17.180882"></trkpt><trkpt lat="52.477927" lon="17.180359"></trkpt><trkpt lat="52.478555" lon="17.179197"></trkpt><trkpt lat="52.478833" lon="17.178863"></trkpt><trkpt lat="52.479615" lon="17.177763"></trkpt><trkpt lat="52.479737" lon="17.177351"></trkpt><trkpt lat="52.481537" lon="17.169692"></trkpt><trkpt lat="52.481567" lon="17.169309"></trkpt><trkpt lat="52.48165" lon="17.168729"></trkpt><trkpt lat="52.481912" lon="17.163862"></trkpt><trkpt lat="52.481604" lon="17.163763"></trkpt><trkpt lat="52.478338" lon="17.163121"></trkpt><trkpt lat="52.478293" lon="17.163509"></trkpt><trkpt lat="52.478181" lon="17.163899"></trkpt><trkpt lat="52.478331" lon="17.163666"></trkpt><trkpt lat="52.478407" lon="17.163318"></trkpt><trkpt lat="52.478629" lon="17.163141"></trkpt><trkpt lat="52.478839" lon="17.163087"></trkpt><trkpt lat="52.479047" lon="17.163061"></trkpt><trkpt lat="52.479649" lon="17.163062"></trkpt><trkpt lat="52.479923" lon="17.163206"></trkpt><trkpt lat="52.480139" lon="17.163271"></trkpt><trkpt lat="52.482325" lon="17.163605"></trkpt><trkpt lat="52.482376" lon="17.163157"></trkpt><trkpt lat="52.48332" lon="17.157611"></trkpt><trkpt lat="52.483592" lon="17.157061"></trkpt><trkpt lat="52.484804" lon="17.154149"></trkpt><trkpt lat="52.484826" lon="17.153624"></trkpt><trkpt lat="52.48482" lon="17.151774"></trkpt><trkpt lat="52.484645" lon="17.151476"></trkpt><trkpt lat="52.484371" lon="17.151153"></trkpt><trkpt lat="52.483894" lon="17.150273"></trkpt><trkpt lat="52.483911" lon="17.149926"></trkpt><trkpt lat="52.483986" lon="17.149481"></trkpt><trkpt lat="52.484049" lon="17.14897"></trkpt><trkpt lat="52.486414" lon="17.135394"></trkpt><trkpt lat="52.48662" lon="17.135238"></trkpt><trkpt lat="52.495921" lon="17.126801"></trkpt><trkpt lat="52.495966" lon="17.126466"></trkpt><trkpt lat="52.496007" lon="17.125964"></trkpt><trkpt lat="52.496768" lon="17.105496"></trkpt><trkpt lat="52.496638" lon="17.105241"></trkpt><trkpt lat="52.49649" lon="17.104896"></trkpt><trkpt lat="52.495811" lon="17.103725"></trkpt><trkpt lat="52.495769" lon="17.104131"></trkpt><trkpt lat="52.495821" lon="17.103683"></trkpt><trkpt lat="52.495828" lon="17.10321"></trkpt><trkpt lat="52.495714" lon="17.102901"></trkpt><trkpt lat="52.495183" lon="17.101755"></trkpt><trkpt lat="52.494921" lon="17.101355"></trkpt><trkpt lat="52.494177" lon="17.100385"></trkpt><trkpt lat="52.49045" lon="17.09478"></trkpt><trkpt lat="52.488064" lon="17.091685"></trkpt><trkpt lat="52.487692" lon="17.091899"></trkpt><trkpt lat="52.48308" lon="17.093914"></trkpt><trkpt lat="52.482694" lon="17.09393"></trkpt><trkpt lat="52.478468" lon="17.094748"></trkpt><trkpt lat="52.478338" lon="17.095011"></trkpt><trkpt lat="52.478122" lon="17.095348"></trkpt><trkpt lat="52.477797" lon="17.095628"></trkpt><trkpt lat="52.475192" lon="17.098373"></trkpt><trkpt lat="52.474987" lon="17.098625"></trkpt><trkpt lat="52.474814" lon="17.098792"></trkpt><trkpt lat="52.474594" lon="17.098947"></trkpt><trkpt lat="52.47427" lon="17.099063"></trkpt><trkpt lat="52.474058" lon="17.099086"></trkpt><trkpt lat="52.473536" lon="17.098921"></trkpt><trkpt lat="52.473315" lon="17.098767"></trkpt><trkpt lat="52.473131" lon="17.098609"></trkpt><trkpt lat="52.465084" lon="17.092837"></trkpt><trkpt lat="52.453973" lon="17.083127"></trkpt><trkpt lat="52.453766" lon="17.082534"></trkpt><trkpt lat="52.452554" lon="17.079678"></trkpt><trkpt lat="52.452373" lon="17.079512"></trkpt><trkpt lat="52.452129" lon="17.079363"></trkpt><trkpt lat="52.446131" lon="17.076471"></trkpt><trkpt lat="52.445908" lon="17.076446"></trkpt><trkpt lat="52.445679" lon="17.076392"></trkpt><trkpt lat="52.432649" lon="17.072832"></trkpt><trkpt lat="52.432351" lon="17.072685"></trkpt><trkpt lat="52.431754" lon="17.072505"></trkpt><trkpt lat="52.431454" lon="17.072451"></trkpt><trkpt lat="52.431158" lon="17.072595"></trkpt><trkpt lat="52.430901" lon="17.072578"></trkpt><trkpt lat="52.430585" lon="17.072644"></trkpt><trkpt lat="52.429848" lon="17.07235"></trkpt><trkpt lat="52.429772" lon="17.071876"></trkpt><trkpt lat="52.429204" lon="17.069277"></trkpt><trkpt lat="52.428942" lon="17.068534"></trkpt><trkpt lat="52.426778" lon="17.063509"></trkpt><trkpt lat="52.426544" lon="17.063669"></trkpt><trkpt lat="52.423793" lon="17.065171"></trkpt><trkpt lat="52.423568" lon="17.065136"></trkpt><trkpt lat="52.423366" lon="17.065079"></trkpt><trkpt lat="52.422906" lon="17.064864"></trkpt><trkpt lat="52.422478" lon="17.06453"></trkpt><trkpt lat="52.42224" lon="17.064305"></trkpt><trkpt lat="52.421992" lon="17.064214"></trkpt><trkpt lat="52.421692" lon="17.064286"></trkpt><trkpt lat="52.421628" lon="17.064606"></trkpt><trkpt lat="52.421511" lon="17.064953"></trkpt><trkpt lat="52.421313" lon="17.065328"></trkpt><trkpt lat="52.42118" lon="17.06562"></trkpt><trkpt lat="52.420984" lon="17.065908"></trkpt><trkpt lat="52.420726" lon="17.065974"></trkpt><trkpt lat="52.419606" lon="17.065821"></trkpt><trkpt lat="52.419406" lon="17.06589"></trkpt><trkpt lat="52.417399" lon="17.066287"></trkpt><trkpt lat="52.417184" lon="17.066143"></trkpt><trkpt lat="52.417014" lon="17.065926"></trkpt><trkpt lat="52.416798" lon="17.065571"></trkpt><trkpt lat="52.413547" lon="17.059299"></trkpt><trkpt lat="52.413569" lon="17.05895"></trkpt><trkpt lat="52.413746" lon="17.057317"></trkpt><trkpt lat="52.413779" lon="17.056603"></trkpt><trkpt lat="52.413692" lon="17.056118"></trkpt><trkpt lat="52.413431" lon="17.055851"></trkpt><trkpt lat="52.41298" lon="17.055298"></trkpt><trkpt lat="52.412898" lon="17.054971"></trkpt><trkpt lat="52.412604" lon="17.054204"></trkpt><trkpt lat="52.412429" lon="17.053973"></trkpt><trkpt lat="52.412025" lon="17.053586"></trkpt><trkpt lat="52.4116" lon="17.053033"></trkpt><trkpt lat="52.411492" lon="17.052631"></trkpt><trkpt lat="52.411279" lon="17.051658"></trkpt><trkpt lat="52.410162" lon="17.04884"></trkpt><trkpt lat="52.40999" lon="17.048566"></trkpt><trkpt lat="52.409851" lon="17.048263"></trkpt><trkpt lat="52.409679" lon="17.047791"></trkpt><trkpt lat="52.408351" lon="17.044689"></trkpt><trkpt lat="52.408113" lon="17.044806"></trkpt><trkpt lat="52.407925" lon="17.044965"></trkpt><trkpt lat="52.407426" lon="17.045163"></trkpt><trkpt lat="52.407234" lon="17.045006"></trkpt><trkpt lat="52.407028" lon="17.044793"></trkpt><trkpt lat="52.406827" lon="17.04455"></trkpt><trkpt lat="52.405786" lon="17.04306"></trkpt><trkpt lat="52.405949" lon="17.042555"></trkpt><trkpt lat="52.406072" lon="17.041982"></trkpt><trkpt lat="52.406183" lon="17.041625"></trkpt><trkpt lat="52.406" lon="17.041295"></trkpt><trkpt lat="52.40581" lon="17.04114"></trkpt><trkpt lat="52.405682" lon="17.040855"></trkpt><trkpt lat="52.405811" lon="17.040507"></trkpt><trkpt lat="52.405928" lon="17.040113"></trkpt><trkpt lat="52.405811" lon="17.039782"></trkpt><trkpt lat="52.405733" lon="17.039438"></trkpt><trkpt lat="52.405681" lon="17.0391"></trkpt><trkpt lat="52.405641" lon="17.038624"></trkpt><trkpt lat="52.405683" lon="17.038109"></trkpt><trkpt lat="52.405689" lon="17.037074"></trkpt><trkpt lat="52.405531" lon="17.036348"></trkpt><trkpt lat="52.405322" lon="17.034757"></trkpt><trkpt lat="52.40541" lon="17.034267"></trkpt><trkpt lat="52.405526" lon="17.033804"></trkpt><trkpt lat="52.405718" lon="17.033355"></trkpt><trkpt lat="52.406071" lon="17.032387"></trkpt><trkpt lat="52.406191" lon="17.031851"></trkpt><trkpt lat="52.406331" lon="17.031011"></trkpt><trkpt lat="52.406119" lon="17.030805"></trkpt><trkpt lat="52.405739" lon="17.030829"></trkpt><trkpt lat="52.404778" lon="17.030635"></trkpt><trkpt lat="52.405007" lon="17.030169"></trkpt><trkpt lat="52.405102" lon="17.029883"></trkpt><trkpt lat="52.405328" lon="17.029046"></trkpt><trkpt lat="52.405302" lon="17.028447"></trkpt><trkpt lat="52.40534" lon="17.027961"></trkpt><trkpt lat="52.405356" lon="17.027039"></trkpt><trkpt lat="52.405225" lon="17.026658"></trkpt><trkpt lat="52.405141" lon="17.02627"></trkpt><trkpt lat="52.405085" lon="17.025711"></trkpt><trkpt lat="52.404967" lon="17.02509"></trkpt><trkpt lat="52.404812" lon="17.024875"></trkpt><trkpt lat="52.404485" lon="17.024756"></trkpt><trkpt lat="52.40429" lon="17.02463"></trkpt><trkpt lat="52.403959" lon="17.02461"></trkpt><trkpt lat="52.403714" lon="17.024872"></trkpt><trkpt lat="52.40354" lon="17.025109"></trkpt><trkpt lat="52.403067" lon="17.025623"></trkpt><trkpt lat="52.402897" lon="17.025338"></trkpt><trkpt lat="52.402855" lon="17.024904"></trkpt><trkpt lat="52.402762" lon="17.024331"></trkpt><trkpt lat="52.402645" lon="17.024021"></trkpt><trkpt lat="52.402447" lon="17.023968"></trkpt><trkpt lat="52.402029" lon="17.023801"></trkpt><trkpt lat="52.401856" lon="17.023612"></trkpt><trkpt lat="52.401647" lon="17.023424"></trkpt><trkpt lat="52.401481" lon="17.023139"></trkpt><trkpt lat="52.401352" lon="17.02274"></trkpt><trkpt lat="52.401212" lon="17.022457"></trkpt><trkpt lat="52.4011" lon="17.022127"></trkpt><trkpt lat="52.400655" lon="17.020432"></trkpt><trkpt lat="52.400617" lon="17.020041"></trkpt><trkpt lat="52.400537" lon="17.01959"></trkpt><trkpt lat="52.400315" lon="17.01933"></trkpt><trkpt lat="52.400138" lon="17.019172"></trkpt><trkpt lat="52.400015" lon="17.018858"></trkpt><trkpt lat="52.399762" lon="17.018705"></trkpt><trkpt lat="52.399524" lon="17.0186"></trkpt><trkpt lat="52.399283" lon="17.018562"></trkpt><trkpt lat="52.399423" lon="17.018264"></trkpt><trkpt lat="52.399655" lon="17.017845"></trkpt><trkpt lat="52.399839" lon="17.017579"></trkpt><trkpt lat="52.400299" lon="17.017191"></trkpt><trkpt lat="52.400498" lon="17.017066"></trkpt><trkpt lat="52.400282" lon="17.017221"></trkpt><trkpt lat="52.399679" lon="17.017779"></trkpt><trkpt lat="52.399498" lon="17.018062"></trkpt><trkpt lat="52.39937" lon="17.018315"></trkpt><trkpt lat="52.399155" lon="17.018464"></trkpt><trkpt lat="52.394839" lon="17.014851"></trkpt><trkpt lat="52.39503" lon="17.015112"></trkpt><trkpt lat="52.395135" lon="17.014818"></trkpt><trkpt lat="52.395208" lon="17.014392"></trkpt><trkpt lat="52.395173" lon="17.014016"></trkpt><trkpt lat="52.395064" lon="17.013258"></trkpt><trkpt lat="52.394887" lon="17.011264"></trkpt><trkpt lat="52.394944" lon="17.010936"></trkpt><trkpt lat="52.395068" lon="17.010563"></trkpt><trkpt lat="52.39523" lon="17.010288"></trkpt><trkpt lat="52.39539" lon="17.009663"></trkpt><trkpt lat="52.395446" lon="17.009309"></trkpt><trkpt lat="52.395567" lon="17.00766"></trkpt><trkpt lat="52.395489" lon="17.00708"></trkpt><trkpt lat="52.395471" lon="17.006708"></trkpt><trkpt lat="52.39552" lon="17.006224"></trkpt><trkpt lat="52.395562" lon="17.005001"></trkpt><trkpt lat="52.395629" lon="17.00432"></trkpt><trkpt lat="52.395689" lon="17.003936"></trkpt><trkpt lat="52.395786" lon="17.003606"></trkpt><trkpt lat="52.395922" lon="17.003255"></trkpt><trkpt lat="52.396147" lon="17.002785"></trkpt><trkpt lat="52.396202" lon="17.002241"></trkpt><trkpt lat="52.396194" lon="17.001688"></trkpt><trkpt lat="52.39641" lon="16.995188"></trkpt><trkpt lat="52.396628" lon="16.994776"></trkpt><trkpt lat="52.396776" lon="16.994442"></trkpt><trkpt lat="52.397273" lon="16.993526"></trkpt><trkpt lat="52.397463" lon="16.993261"></trkpt><trkpt lat="52.397847" lon="16.992818"></trkpt><trkpt lat="52.398054" lon="16.992634"></trkpt><trkpt lat="52.398394" lon="16.992386"></trkpt><trkpt lat="52.399055" lon="16.992723"></trkpt><trkpt lat="52.399376" lon="16.99261"></trkpt><trkpt lat="52.399603" lon="16.992461"></trkpt><trkpt lat="52.400135" lon="16.992038"></trkpt><trkpt lat="52.400346" lon="16.991918"></trkpt><trkpt lat="52.400629" lon="16.991716"></trkpt><trkpt lat="52.40091" lon="16.991459"></trkpt><trkpt lat="52.401126" lon="16.991207"></trkpt><trkpt lat="52.402473" lon="16.989347"></trkpt><trkpt lat="52.402347" lon="16.989081"></trkpt><trkpt lat="52.401978" lon="16.988898"></trkpt><trkpt lat="52.401709" lon="16.988842"></trkpt><trkpt lat="52.40116" lon="16.988661"></trkpt><trkpt lat="52.40021" lon="16.988648"></trkpt><trkpt lat="52.39993" lon="16.988567"></trkpt><trkpt lat="52.399741" lon="16.988222"></trkpt><trkpt lat="52.399432" lon="16.987552"></trkpt><trkpt lat="52.399407" lon="16.987182"></trkpt><trkpt lat="52.39963" lon="16.986794"></trkpt><trkpt lat="52.399786" lon="16.986388"></trkpt><trkpt lat="52.399854" lon="16.986075"></trkpt><trkpt lat="52.399901" lon="16.985714"></trkpt><trkpt lat="52.399925" lon="16.985203"></trkpt><trkpt lat="52.400004" lon="16.984879"></trkpt><trkpt lat="52.400065" lon="16.984365"></trkpt><trkpt lat="52.400119" lon="16.983033"></trkpt><trkpt lat="52.400023" lon="16.982711"></trkpt><trkpt lat="52.399959" lon="16.982392"></trkpt><trkpt lat="52.399974" lon="16.98186"></trkpt><trkpt lat="52.399868" lon="16.977947"></trkpt><trkpt lat="52.39977" lon="16.977471"></trkpt><trkpt lat="52.399731" lon="16.977082"></trkpt><trkpt lat="52.399715" lon="16.976501"></trkpt><trkpt lat="52.39973" lon="16.975851"></trkpt><trkpt lat="52.399827" lon="16.974454"></trkpt><trkpt lat="52.399983" lon="16.973691"></trkpt><trkpt lat="52.403553" lon="16.95267"></trkpt><trkpt lat="52.403574" lon="16.951921"></trkpt><trkpt lat="52.403655" lon="16.951607"></trkpt><trkpt lat="52.403792" lon="16.95137"></trkpt><trkpt lat="52.405046" lon="16.949746"></trkpt><trkpt lat="52.405661" lon="16.950386"></trkpt><trkpt lat="52.405902" lon="16.950599"></trkpt><trkpt lat="52.407327" lon="16.951565"></trkpt><trkpt lat="52.407747" lon="16.95177"></trkpt><trkpt lat="52.408003" lon="16.951844"></trkpt><trkpt lat="52.408236" lon="16.951804"></trkpt><trkpt lat="52.408449" lon="16.951722"></trkpt><trkpt lat="52.408048" lon="16.951409"></trkpt><trkpt lat="52.407647" lon="16.951218"></trkpt><trkpt lat="52.407336" lon="16.951021"></trkpt><trkpt lat="52.407154" lon="16.95084"></trkpt><trkpt lat="52.40692" lon="16.950657"></trkpt><trkpt lat="52.406584" lon="16.950338"></trkpt><trkpt lat="52.399279" lon="16.942133"></trkpt><trkpt lat="52.398035" lon="16.941013"></trkpt><trkpt lat="52.397843" lon="16.940902"></trkpt><trkpt lat="52.397438" lon="16.940731"></trkpt><trkpt lat="52.396209" lon="16.941052"></trkpt><trkpt lat="52.39588" lon="16.941051"></trkpt><trkpt lat="52.395536" lon="16.941121"></trkpt><trkpt lat="52.394537" lon="16.940785"></trkpt><trkpt lat="52.391581" lon="16.940147"></trkpt><trkpt lat="52.389301" lon="16.939382"></trkpt><trkpt lat="52.389042" lon="16.939217"></trkpt><trkpt lat="52.388614" lon="16.939013"></trkpt><trkpt lat="52.382275" lon="16.936812"></trkpt><trkpt lat="52.382138" lon="16.937061"></trkpt><trkpt lat="52.382041" lon="16.93755"></trkpt><trkpt lat="52.381986" lon="16.937948"></trkpt><trkpt lat="52.381867" lon="16.938212"></trkpt><trkpt lat="52.38181" lon="16.937534"></trkpt></trkseg></trk></gpx>