<?xml version="1.0" encoding="UTF-8" standalone="no" ?><gpx xmlns="http://www.topografix.com/GPX/1/1" xmlns:gpxx="http://www.garmin.com/xmlschemas/GpxExtensions/v3" ><trk><trkseg><trkpt lat="53.745911" lon="18.023305"></trkpt><trkpt lat="53.745696" lon="18.022937"></trkpt><trkpt lat="53.745571" lon="18.02266"></trkpt><trkpt lat="53.745143" lon="18.02154"></trkpt><trkpt lat="53.745534" lon="18.020982"></trkpt><trkpt lat="53.745842" lon="18.020605"></trkpt><trkpt lat="53.749589" lon="18.016894"></trkpt><trkpt lat="53.749997" lon="18.016798"></trkpt><trkpt lat="53.751593" lon="18.016766"></trkpt><trkpt lat="53.752031" lon="18.016998"></trkpt><trkpt lat="53.757541" lon="18.01916"></trkpt><trkpt lat="53.758374" lon="18.01867"></trkpt><trkpt lat="53.758799" lon="18.018341"></trkpt><trkpt lat="53.760998" lon="18.016972"></trkpt><trkpt lat="53.76142" lon="18.01682"></trkpt><trkpt lat="53.761616" lon="18.016705"></trkpt><trkpt lat="53.76217" lon="18.016264"></trkpt><trkpt lat="53.777136" lon="18.001852"></trkpt><trkpt lat="53.778055" lon="18.000455"></trkpt><trkpt lat="53.78419" lon="17.992565"></trkpt><trkpt lat="53.784831" lon="17.992311"></trkpt><trkpt lat="53.787291" lon="17.990701"></trkpt><trkpt lat="53.787573" lon="17.989933"></trkpt><trkpt lat="53.787894" lon="17.988842"></trkpt><trkpt lat="53.78848" lon="17.987362"></trkpt><trkpt lat="53.788693" lon="17.986964"></trkpt><trkpt lat="53.789115" lon="17.986042"></trkpt><trkpt lat="53.789331" lon="17.985362"></trkpt><trkpt lat="53.791089" lon="17.980764"></trkpt><trkpt lat="53.791315" lon="17.980065"></trkpt><trkpt lat="53.791934" lon="17.978442"></trkpt><trkpt lat="53.792157" lon="17.9785"></trkpt><trkpt lat="53.792865" lon="17.978961"></trkpt><trkpt lat="53.793488" lon="17.979263"></trkpt><trkpt lat="53.793836" lon="17.979329"></trkpt><trkpt lat="53.794167" lon="17.979768"></trkpt><trkpt lat="53.795526" lon="17.981895"></trkpt><trkpt lat="53.795931" lon="17.98242"></trkpt><trkpt lat="53.7962" lon="17.982459"></trkpt><trkpt lat="53.796517" lon="17.982032"></trkpt><trkpt lat="53.797197" lon="17.981635"></trkpt><trkpt lat="53.799567" lon="17.980786"></trkpt><trkpt lat="53.800101" lon="17.980703"></trkpt><trkpt lat="53.80294" lon="17.979909"></trkpt><trkpt lat="53.803132" lon="17.979688"></trkpt><trkpt lat="53.803226" lon="17.979365"></trkpt><trkpt lat="53.803348" lon="17.978723"></trkpt><trkpt lat="53.803332" lon="17.978384"></trkpt><trkpt lat="53.803217" lon="17.978105"></trkpt><trkpt lat="53.803205" lon="17.976694"></trkpt><trkpt lat="53.803074" lon="17.975575"></trkpt><trkpt lat="53.802558" lon="17.975497"></trkpt><trkpt lat="53.802427" lon="17.975243"></trkpt><trkpt lat="53.80222" lon="17.974294"></trkpt><trkpt lat="53.800894" lon="17.966257"></trkpt><trkpt lat="53.801525" lon="17.966021"></trkpt><trkpt lat="53.801957" lon="17.965766"></trkpt><trkpt lat="53.804601" lon="17.964551"></trkpt><trkpt lat="53.806807" lon="17.963178"></trkpt><trkpt lat="53.807277" lon="17.962616"></trkpt><trkpt lat="53.813597" lon="17.956201"></trkpt><trkpt lat="53.81384" lon="17.956247"></trkpt><trkpt lat="53.814217" lon="17.956234"></trkpt><trkpt lat="53.814684" lon="17.956148"></trkpt><trkpt lat="53.8316" lon="17.950979"></trkpt><trkpt lat="53.832115" lon="17.950569"></trkpt><trkpt lat="53.835624" lon="17.948505"></trkpt><trkpt lat="53.836191" lon="17.948622"></trkpt><trkpt lat="53.836687" lon="17.948945"></trkpt><trkpt lat="53.837596" lon="17.949383"></trkpt><trkpt lat="53.837943" lon="17.949356"></trkpt><trkpt lat="53.838167" lon="17.949494"></trkpt><trkpt lat="53.838752" lon="17.949501"></trkpt><trkpt lat="53.841633" lon="17.95003"></trkpt><trkpt lat="53.842105" lon="17.950454"></trkpt><trkpt lat="53.854417" lon="17.959708"></trkpt><trkpt lat="53.854977" lon="17.959981"></trkpt><trkpt lat="53.86119" lon="17.962128"></trkpt><trkpt lat="53.863275" lon="17.961084"></trkpt><trkpt lat="53.864987" lon="17.959985"></trkpt><trkpt lat="53.866615" lon="17.958643"></trkpt><trkpt lat="53.867014" lon="17.958067"></trkpt><trkpt lat="53.868911" lon="17.955816"></trkpt><trkpt lat="53.869487" lon="17.955326"></trkpt><trkpt lat="53.90079" lon="17.933192"></trkpt><trkpt lat="53.901337" lon="17.932896"></trkpt><trkpt lat="53.901977" lon="17.932402"></trkpt><trkpt lat="53.902249" lon="17.932147"></trkpt><trkpt lat="53.902811" lon="17.931744"></trkpt><trkpt lat="53.903214" lon="17.931134"></trkpt><trkpt lat="53.903914" lon="17.929833"></trkpt><trkpt lat="53.904713" lon="17.928571"></trkpt><trkpt lat="53.905306" lon="17.927439"></trkpt><trkpt lat="53.905529" lon="17.926808"></trkpt><trkpt lat="53.905898" lon="17.925576"></trkpt><trkpt lat="53.907389" lon="17.921428"></trkpt><trkpt lat="53.90776" lon="17.920708"></trkpt><trkpt lat="53.907947" lon="17.920276"></trkpt><trkpt lat="53.908297" lon="17.920449"></trkpt><trkpt lat="53.908583" lon="17.920637"></trkpt><trkpt lat="53.909781" lon="17.921625"></trkpt><trkpt lat="53.910214" lon="17.922308"></trkpt><trkpt lat="53.910489" lon="17.92296"></trkpt><trkpt lat="53.910869" lon="17.924014"></trkpt><trkpt lat="53.911289" lon="17.924643"></trkpt><trkpt lat="53.911686" lon="17.9248"></trkpt><trkpt lat="53.912092" lon="17.924872"></trkpt><trkpt lat="53.915347" lon="17.925018"></trkpt><trkpt lat="53.915735" lon="17.925247"></trkpt><trkpt lat="53.916046" lon="17.925375"></trkpt><trkpt lat="53.916427" lon="17.92546"></trkpt><trkpt lat="53.916792" lon="17.925794"></trkpt><trkpt lat="53.9172" lon="17.926552"></trkpt><trkpt lat="53.91736" lon="17.926979"></trkpt><trkpt lat="53.917742" lon="17.927796"></trkpt><trkpt lat="53.918002" lon="17.928132"></trkpt><trkpt lat="53.918991" lon="17.928973"></trkpt><trkpt lat="53.919299" lon="17.928946"></trkpt><trkpt lat="53.920151" lon="17.929159"></trkpt><trkpt lat="53.920529" lon="17.929368"></trkpt><trkpt lat="53.921119" lon="17.929785"></trkpt><trkpt lat="53.921499" lon="17.930244"></trkpt><trkpt lat="53.921649" lon="17.930469"></trkpt><trkpt lat="53.923286" lon="17.932483"></trkpt><trkpt lat="53.923789" lon="17.932887"></trkpt><trkpt lat="53.925206" lon="17.934373"></trkpt><trkpt lat="53.92553" lon="17.935273"></trkpt><trkpt lat="53.927155" lon="17.938666"></trkpt><trkpt lat="53.927463" lon="17.938789"></trkpt><trkpt lat="53.927731" lon="17.938937"></trkpt><trkpt lat="53.927997" lon="17.939022"></trkpt><trkpt lat="53.931008" lon="17.939374"></trkpt><trkpt lat="53.931543" lon="17.939117"></trkpt><trkpt lat="53.932058" lon="17.938555"></trkpt><trkpt lat="53.93259" lon="17.937605"></trkpt><trkpt lat="53.933948" lon="17.935504"></trkpt><trkpt lat="53.934256" lon="17.935207"></trkpt><trkpt lat="53.934655" lon="17.934892"></trkpt><trkpt lat="53.937826" lon="17.933142"></trkpt><trkpt lat="53.941074" lon="17.935378"></trkpt><trkpt lat="53.94122" lon="17.935644"></trkpt><trkpt lat="53.941341" lon="17.935933"></trkpt><trkpt lat="53.942582" lon="17.938353"></trkpt><trkpt lat="53.942899" lon="17.938538"></trkpt><trkpt lat="53.943142" lon="17.938268"></trkpt><trkpt lat="53.943334" lon="17.938004"></trkpt><trkpt lat="53.947406" lon="17.93152"></trkpt><trkpt lat="53.947588" lon="17.931091"></trkpt><trkpt lat="53.947832" lon="17.930624"></trkpt><trkpt lat="53.948206" lon="17.929744"></trkpt><trkpt lat="53.950384" lon="17.925869"></trkpt><trkpt lat="53.950692" lon="17.925846"></trkpt><trkpt lat="53.9509" lon="17.925788"></trkpt><trkpt lat="53.951062" lon="17.92555"></trkpt><trkpt lat="53.951219" lon="17.924524"></trkpt><trkpt lat="53.951729" lon="17.922113"></trkpt><trkpt lat="53.952339" lon="17.9214"></trkpt><trkpt lat="53.954498" lon="17.919389"></trkpt><trkpt lat="53.955108" lon="17.919321"></trkpt><trkpt lat="53.955681" lon="17.919014"></trkpt><trkpt lat="53.955971" lon="17.918519"></trkpt><trkpt lat="53.956345" lon="17.918319"></trkpt><trkpt lat="53.957066" lon="17.918933"></trkpt><trkpt lat="53.957302" lon="17.919271"></trkpt><trkpt lat="53.957541" lon="17.91991"></trkpt><trkpt lat="53.957722" lon="17.920577"></trkpt><trkpt lat="53.957873" lon="17.920825"></trkpt><trkpt lat="53.958523" lon="17.921466"></trkpt><trkpt lat="53.959876" lon="17.922429"></trkpt><trkpt lat="53.960124" lon="17.922517"></trkpt><trkpt lat="53.960405" lon="17.922238"></trkpt><trkpt lat="53.96064" lon="17.921907"></trkpt><trkpt lat="53.960799" lon="17.921565"></trkpt><trkpt lat="53.961151" lon="17.92091"></trkpt><trkpt lat="53.961384" lon="17.920354"></trkpt><trkpt lat="53.961574" lon="17.91998"></trkpt><trkpt lat="53.961736" lon="17.919767"></trkpt><trkpt lat="53.961969" lon="17.919566"></trkpt><trkpt lat="53.962287" lon="17.919516"></trkpt><trkpt lat="53.962623" lon="17.919505"></trkpt><trkpt lat="53.963564" lon="17.91934"></trkpt><trkpt lat="53.963757" lon="17.919093"></trkpt><trkpt lat="53.964107" lon="17.919069"></trkpt><trkpt lat="53.964378" lon="17.919124"></trkpt><trkpt lat="53.964708" lon="17.919379"></trkpt><trkpt lat="53.965386" lon="17.920117"></trkpt><trkpt lat="53.965738" lon="17.920365"></trkpt><trkpt lat="53.966071" lon="17.920455"></trkpt><trkpt lat="53.966439" lon="17.920502"></trkpt><trkpt lat="53.966664" lon="17.920342"></trkpt><trkpt lat="53.966917" lon="17.920343"></trkpt><trkpt lat="53.967211" lon="17.920384"></trkpt><trkpt lat="53.967593" lon="17.920634"></trkpt><trkpt lat="53.967814" lon="17.920627"></trkpt><trkpt lat="53.968155" lon="17.920701"></trkpt><trkpt lat="53.968402" lon="17.920705"></trkpt><trkpt lat="53.968659" lon="17.920872"></trkpt><trkpt lat="53.968897" lon="17.920866"></trkpt><trkpt lat="53.968941" lon="17.921289"></trkpt><trkpt lat="53.969038" lon="17.921663"></trkpt><trkpt lat="53.969271" lon="17.921761"></trkpt><trkpt lat="53.97206" lon="17.923392"></trkpt><trkpt lat="53.972408" lon="17.923711"></trkpt><trkpt lat="53.974208" lon="17.925922"></trkpt><trkpt lat="53.974219" lon="17.926393"></trkpt><trkpt lat="53.974427" lon="17.926294"></trkpt><trkpt lat="53.974607" lon="17.926439"></trkpt><trkpt lat="53.974852" lon="17.926683"></trkpt><trkpt lat="53.974997" lon="17.926961"></trkpt><trkpt lat="53.975191" lon="17.927177"></trkpt><trkpt lat="53.975618" lon="17.927183"></trkpt><trkpt lat="53.976314" lon="17.92698"></trkpt><trkpt lat="53.97653" lon="17.92683"></trkpt><trkpt lat="53.977384" lon="17.926012"></trkpt><trkpt lat="53.977136" lon="17.926343"></trkpt><trkpt lat="53.976656" lon="17.926767"></trkpt><trkpt lat="53.976432" lon="17.926882"></trkpt><trkpt lat="53.976245" lon="17.927096"></trkpt><trkpt lat="53.976472" lon="17.927119"></trkpt><trkpt lat="53.976754" lon="17.926985"></trkpt><trkpt lat="53.977026" lon="17.926936"></trkpt><trkpt lat="53.977963" lon="17.926931"></trkpt><trkpt lat="53.978224" lon="17.926803"></trkpt><trkpt lat="53.979444" lon="17.926006"></trkpt><trkpt lat="53.979818" lon="17.92587"></trkpt><trkpt lat="53.980016" lon="17.925836"></trkpt><trkpt lat="53.980264" lon="17.925828"></trkpt><trkpt lat="53.980884" lon="17.925734"></trkpt><trkpt lat="53.983457" lon="17.925668"></trkpt><trkpt lat="53.98366" lon="17.925597"></trkpt><trkpt lat="53.983877" lon="17.92573"></trkpt><trkpt lat="53.984145" lon="17.925844"></trkpt><trkpt lat="53.984967" lon="17.926337"></trkpt><trkpt lat="53.985103" lon="17.926616"></trkpt><trkpt lat="53.986121" lon="17.928249"></trkpt><trkpt lat="53.986358" lon="17.928385"></trkpt><trkpt lat="53.986724" lon="17.928488"></trkpt><trkpt lat="53.986995" lon="17.92851"></trkpt><trkpt lat="53.987501" lon="17.928398"></trkpt><trkpt lat="53.988259" lon="17.928088"></trkpt><trkpt lat="53.988732" lon="17.927821"></trkpt><trkpt lat="53.989202" lon="17.927629"></trkpt><trkpt lat="53.989518" lon="17.92756"></trkpt><trkpt lat="53.99" lon="17.927607"></trkpt><trkpt lat="53.990212" lon="17.927399"></trkpt><trkpt lat="53.990312" lon="17.926857"></trkpt><trkpt lat="53.990347" lon="17.926401"></trkpt><trkpt lat="53.990489" lon="17.926083"></trkpt><trkpt lat="53.990843" lon="17.926055"></trkpt><trkpt lat="53.991188" lon="17.925975"></trkpt><trkpt lat="53.991728" lon="17.925959"></trkpt><trkpt lat="53.992164" lon="17.92587"></trkpt><trkpt lat="53.996918" lon="17.925663"></trkpt><trkpt lat="53.997234" lon="17.92583"></trkpt><trkpt lat="53.998047" lon="17.926154"></trkpt><trkpt lat="53.999784" lon="17.926472"></trkpt><trkpt lat="54.000442" lon="17.926261"></trkpt><trkpt lat="54.00033" lon="17.926634"></trkpt><trkpt lat="54.000219" lon="17.927086"></trkpt><trkpt lat="54.000139" lon="17.927549"></trkpt><trkpt lat="53.99931" lon="17.934099"></trkpt><trkpt lat="53.999394" lon="17.93468"></trkpt><trkpt lat="53.999383" lon="17.935255"></trkpt><trkpt lat="53.999267" lon="17.937091"></trkpt><trkpt lat="53.999179" lon="17.937608"></trkpt><trkpt lat="53.998987" lon="17.939441"></trkpt><trkpt lat="53.999039" lon="17.940096"></trkpt><trkpt lat="53.99903" lon="17.940809"></trkpt><trkpt lat="53.998977" lon="17.941538"></trkpt><trkpt lat="53.998575" lon="17.944722"></trkpt><trkpt lat="53.998519" lon="17.945504"></trkpt><trkpt lat="53.998532" lon="17.946058"></trkpt><trkpt lat="53.998631" lon="17.947215"></trkpt><trkpt lat="53.99906" lon="17.957505"></trkpt><trkpt lat="53.999023" lon="17.95788"></trkpt><trkpt lat="53.998919" lon="17.958371"></trkpt><trkpt lat="53.998326" lon="17.962156"></trkpt><trkpt lat="53.998283" lon="17.96279"></trkpt><trkpt lat="53.998178" lon="17.966983"></trkpt><trkpt lat="53.998512" lon="17.985019"></trkpt><trkpt lat="53.998831" lon="17.985949"></trkpt><trkpt lat="53.999049" lon="17.98647"></trkpt><trkpt lat="53.999142" lon="17.986847"></trkpt><trkpt lat="53.999399" lon="17.988525"></trkpt><trkpt lat="53.999319" lon="17.98886"></trkpt><trkpt lat="53.999045" lon="17.989562"></trkpt><trkpt lat="53.998734" lon="17.990506"></trkpt><trkpt lat="53.998668" lon="17.990953"></trkpt><trkpt lat="53.998727" lon="17.99146"></trkpt><trkpt lat="53.998924" lon="17.991764"></trkpt><trkpt lat="53.999301" lon="17.992258"></trkpt><trkpt lat="53.999605" lon="17.992592"></trkpt><trkpt lat="54.001108" lon="17.994523"></trkpt><trkpt lat="54.001451" lon="17.995184"></trkpt><trkpt lat="54.001597" lon="17.995528"></trkpt><trkpt lat="54.001832" lon="17.996271"></trkpt><trkpt lat="54.001946" lon="17.996771"></trkpt><trkpt lat="54.002013" lon="17.997154"></trkpt><trkpt lat="54.002292" lon="17.997483"></trkpt><trkpt lat="54.002578" lon="17.997674"></trkpt><trkpt lat="54.002797" lon="17.997784"></trkpt><trkpt lat="54.002998" lon="17.99782"></trkpt><trkpt lat="54.006446" lon="17.997895"></trkpt><trkpt lat="54.00673" lon="17.997835"></trkpt><trkpt lat="54.00716" lon="17.997985"></trkpt><trkpt lat="54.007425" lon="17.99799"></trkpt><trkpt lat="54.007756" lon="17.997873"></trkpt><trkpt lat="54.008828" lon="17.997271"></trkpt><trkpt lat="54.011515" lon="17.996226"></trkpt><trkpt lat="54.011733" lon="17.996373"></trkpt><trkpt lat="54.012065" lon="17.996804"></trkpt><trkpt lat="54.012236" lon="17.997181"></trkpt><trkpt lat="54.012294" lon="17.997648"></trkpt><trkpt lat="54.012371" lon="17.998008"></trkpt><trkpt lat="54.012686" lon="17.998249"></trkpt><trkpt lat="54.012976" lon="17.998425"></trkpt><trkpt lat="54.013472" lon="17.998656"></trkpt><trkpt lat="54.01368" lon="17.998676"></trkpt><trkpt lat="54.015806" lon="17.998119"></trkpt><trkpt lat="54.015657" lon="17.997606"></trkpt><trkpt lat="54.015494" lon="17.996865"></trkpt><trkpt lat="54.015469" lon="17.996506"></trkpt><trkpt lat="54.015384" lon="17.996073"></trkpt><trkpt lat="54.015255" lon="17.995589"></trkpt><trkpt lat="54.014978" lon="17.994278"></trkpt><trkpt lat="54.015253" lon="17.994028"></trkpt><trkpt lat="54.015476" lon="17.993905"></trkpt><trkpt lat="54.015467" lon="17.993545"></trkpt><trkpt lat="54.015422" lon="17.993183"></trkpt><trkpt lat="54.015252" lon="17.992366"></trkpt><trkpt lat="54.015025" lon="17.990934"></trkpt><trkpt lat="54.014648" lon="17.98927"></trkpt><trkpt lat="54.01416" lon="17.98821"></trkpt><trkpt lat="54.009267" lon="17.97587"></trkpt><trkpt lat="54.009223" lon="17.975"></trkpt><trkpt lat="54.009214" lon="17.973881"></trkpt><trkpt lat="54.009627" lon="17.962283"></trkpt><trkpt lat="54.009744" lon="17.961049"></trkpt><trkpt lat="54.009989" lon="17.956362"></trkpt><trkpt lat="54.011174" lon="17.943757"></trkpt><trkpt lat="54.011335" lon="17.942707"></trkpt><trkpt lat="54.011809" lon="17.940961"></trkpt><trkpt lat="54.011808" lon="17.940573"></trkpt><trkpt lat="54.011902" lon="17.940236"></trkpt><trkpt lat="54.01245" lon="17.940404"></trkpt><trkpt lat="54.01276" lon="17.94063"></trkpt><trkpt lat="54.01691" lon="17.942792"></trkpt><trkpt lat="54.017144" lon="17.942854"></trkpt><trkpt lat="54.017371" lon="17.943033"></trkpt><trkpt lat="54.018023" lon="17.943679"></trkpt><trkpt lat="54.018356" lon="17.943913"></trkpt><trkpt lat="54.019042" lon="17.944497"></trkpt><trkpt lat="54.019432" lon="17.944926"></trkpt><trkpt lat="54.023783" lon="17.948865"></trkpt><trkpt lat="54.024259" lon="17.948306"></trkpt><trkpt lat="54.024581" lon="17.948189"></trkpt><trkpt lat="54.024857" lon="17.94818"></trkpt><trkpt lat="54.025625" lon="17.948035"></trkpt><trkpt lat="54.026046" lon="17.947816"></trkpt><trkpt lat="54.027289" lon="17.947331"></trkpt><trkpt lat="54.028297" lon="17.947067"></trkpt><trkpt lat="54.028624" lon="17.946935"></trkpt><trkpt lat="54.029148" lon="17.946604"></trkpt><trkpt lat="54.0295" lon="17.946282"></trkpt><trkpt lat="54.029655" lon="17.946066"></trkpt><trkpt lat="54.030062" lon="17.94537"></trkpt><trkpt lat="54.031077" lon="17.943887"></trkpt><trkpt lat="54.031538" lon="17.943421"></trkpt><trkpt lat="54.031796" lon="17.943099"></trkpt><trkpt lat="54.035331" lon="17.937904"></trkpt><trkpt lat="54.035294" lon="17.937512"></trkpt><trkpt lat="54.034956" lon="17.936659"></trkpt><trkpt lat="54.034198" lon="17.934392"></trkpt><trkpt lat="54.03396" lon="17.933483"></trkpt><trkpt lat="54.032247" lon="17.928326"></trkpt><trkpt lat="54.031897" lon="17.927649"></trkpt><trkpt lat="54.031384" lon="17.926794"></trkpt><trkpt lat="54.031008" lon="17.926294"></trkpt><trkpt lat="54.030782" lon="17.925936"></trkpt><trkpt lat="54.030619" lon="17.925615"></trkpt><trkpt lat="54.030133" lon="17.92481"></trkpt><trkpt lat="54.029573" lon="17.9237"></trkpt><trkpt lat="54.024979" lon="17.915835"></trkpt><trkpt lat="54.02462" lon="17.915782"></trkpt><trkpt lat="54.018377" lon="17.914016"></trkpt><trkpt lat="54.018373" lon="17.913669"></trkpt><trkpt lat="54.018509" lon="17.912811"></trkpt><trkpt lat="54.018558" lon="17.912279"></trkpt><trkpt lat="54.01857" lon="17.911909"></trkpt><trkpt lat="54.018555" lon="17.911461"></trkpt><trkpt lat="54.01857" lon="17.910124"></trkpt><trkpt lat="54.018632" lon="17.908968"></trkpt><trkpt lat="54.018666" lon="17.903223"></trkpt><trkpt lat="54.018693" lon="17.902666"></trkpt><trkpt lat="54.018692" lon="17.901612"></trkpt><trkpt lat="54.018975" lon="17.896638"></trkpt><trkpt lat="54.019184" lon="17.895956"></trkpt><trkpt lat="54.019242" lon="17.89561"></trkpt><trkpt lat="54.019275" lon="17.894914"></trkpt><trkpt lat="54.019212" lon="17.893764"></trkpt><trkpt lat="54.019015" lon="17.893464"></trkpt><trkpt lat="54.01872" lon="17.893256"></trkpt><trkpt lat="54.018498" lon="17.89316"></trkpt><trkpt lat="54.018316" lon="17.892973"></trkpt><trkpt lat="54.018146" lon="17.892493"></trkpt><trkpt lat="54.018178" lon="17.891714"></trkpt><trkpt lat="54.018296" lon="17.891131"></trkpt><trkpt lat="54.018429" lon="17.890278"></trkpt><trkpt lat="54.018416" lon="17.889724"></trkpt><trkpt lat="54.018387" lon="17.889335"></trkpt><trkpt lat="54.017826" lon="17.884699"></trkpt><trkpt lat="54.01771" lon="17.884084"></trkpt><trkpt lat="54.01766" lon="17.883437"></trkpt><trkpt lat="54.017434" lon="17.881651"></trkpt><trkpt lat="54.017316" lon="17.881192"></trkpt><trkpt lat="54.017126" lon="17.880599"></trkpt><trkpt lat="54.016574" lon="17.879134"></trkpt><trkpt lat="54.016329" lon="17.878254"></trkpt><trkpt lat="54.016249" lon="17.87787"></trkpt><trkpt lat="54.01616" lon="17.877222"></trkpt><trkpt lat="54.015565" lon="17.874007"></trkpt><trkpt lat="54.015537" lon="17.873585"></trkpt><trkpt lat="54.015618" lon="17.872357"></trkpt><trkpt lat="54.015627" lon="17.871424"></trkpt><trkpt lat="54.015707" lon="17.871021"></trkpt><trkpt lat="54.015932" lon="17.870577"></trkpt><trkpt lat="54.015773" lon="17.870829"></trkpt><trkpt lat="54.015623" lon="17.871245"></trkpt><trkpt lat="54.015553" lon="17.871953"></trkpt><trkpt lat="54.015397" lon="17.872328"></trkpt><trkpt lat="54.0151" lon="17.872849"></trkpt><trkpt lat="54.014675" lon="17.873176"></trkpt><trkpt lat="54.014388" lon="17.873279"></trkpt><trkpt lat="54.014117" lon="17.873415"></trkpt><trkpt lat="54.01385" lon="17.873505"></trkpt><trkpt lat="54.013521" lon="17.873564"></trkpt><trkpt lat="54.013333" lon="17.873686"></trkpt><trkpt lat="54.013162" lon="17.873886"></trkpt><trkpt lat="54.013022" lon="17.874131"></trkpt><trkpt lat="54.012781" lon="17.874413"></trkpt><trkpt lat="54.012632" lon="17.874681"></trkpt><trkpt lat="54.012084" lon="17.875427"></trkpt><trkpt lat="54.011621" lon="17.875922"></trkpt><trkpt lat="54.009842" lon="17.877516"></trkpt><trkpt lat="54.008315" lon="17.878647"></trkpt><trkpt lat="54.007675" lon="17.879235"></trkpt><trkpt lat="54.006626" lon="17.879957"></trkpt><trkpt lat="54.006012" lon="17.880155"></trkpt><trkpt lat="54.005702" lon="17.88021"></trkpt><trkpt lat="54.000621" lon="17.880398"></trkpt><trkpt lat="53.999997" lon="17.880103"></trkpt><trkpt lat="53.998328" lon="17.879531"></trkpt><trkpt lat="53.99765" lon="17.879626"></trkpt><trkpt lat="53.993456" lon="17.878309"></trkpt><trkpt lat="53.992696" lon="17.877646"></trkpt><trkpt lat="53.991574" lon="17.876884"></trkpt><trkpt lat="53.991103" lon="17.876491"></trkpt><trkpt lat="53.990794" lon="17.876129"></trkpt><trkpt lat="53.990657" lon="17.875836"></trkpt><trkpt lat="53.990564" lon="17.875461"></trkpt><trkpt lat="53.99055" lon="17.875123"></trkpt><trkpt lat="53.990489" lon="17.874572"></trkpt><trkpt lat="53.990393" lon="17.87425"></trkpt><trkpt lat="53.990079" lon="17.873378"></trkpt><trkpt lat="53.989996" lon="17.873058"></trkpt><trkpt lat="53.989825" lon="17.872604"></trkpt><trkpt lat="53.989264" lon="17.871363"></trkpt><trkpt lat="53.989039" lon="17.87141"></trkpt><trkpt lat="53.988829" lon="17.871204"></trkpt><trkpt lat="53.988538" lon="17.870965"></trkpt><trkpt lat="53.988118" lon="17.870905"></trkpt><trkpt lat="53.987808" lon="17.87074"></trkpt><trkpt lat="53.987484" lon="17.870678"></trkpt><trkpt lat="53.987246" lon="17.870857"></trkpt><trkpt lat="53.987131" lon="17.871257"></trkpt><trkpt lat="53.987071" lon="17.871627"></trkpt><trkpt lat="53.98705" lon="17.871983"></trkpt><trkpt lat="53.987059" lon="17.872611"></trkpt><trkpt lat="53.986997" lon="17.873294"></trkpt><trkpt lat="53.9869" lon="17.87367"></trkpt><trkpt lat="53.986723" lon="17.87477"></trkpt><trkpt lat="53.98669" lon="17.875376"></trkpt><trkpt lat="53.986731" lon="17.876172"></trkpt><trkpt lat="53.986754" lon="17.878677"></trkpt><trkpt lat="53.986653" lon="17.880023"></trkpt><trkpt lat="53.986481" lon="17.880547"></trkpt><trkpt lat="53.986012" lon="17.882671"></trkpt><trkpt lat="53.985803" lon="17.882616"></trkpt><trkpt lat="53.985613" lon="17.882761"></trkpt><trkpt lat="53.985361" lon="17.883066"></trkpt><trkpt lat="53.985155" lon="17.883381"></trkpt><trkpt lat="53.984951" lon="17.883264"></trkpt><trkpt lat="53.985034" lon="17.883587"></trkpt><trkpt lat="53.984834" lon="17.883871"></trkpt><trkpt lat="53.984544" lon="17.884122"></trkpt><trkpt lat="53.984329" lon="17.884364"></trkpt><trkpt lat="53.976567" lon="17.891655"></trkpt><trkpt lat="53.976284" lon="17.891597"></trkpt><trkpt lat="53.962406" lon="17.890596"></trkpt><trkpt lat="53.962073" lon="17.890835"></trkpt><trkpt lat="53.961542" lon="17.891122"></trkpt><trkpt lat="53.960989" lon="17.891206"></trkpt><trkpt lat="53.958112" lon="17.892245"></trkpt><trkpt lat="53.957605" lon="17.893115"></trkpt><trkpt lat="53.957335" lon="17.893485"></trkpt><trkpt lat="53.957147" lon="17.893342"></trkpt><trkpt lat="53.957117" lon="17.892689"></trkpt><trkpt lat="53.956985" lon="17.891387"></trkpt><trkpt lat="53.956887" lon="17.890815"></trkpt><trkpt lat="53.956863" lon="17.890033"></trkpt><trkpt lat="53.956769" lon="17.888828"></trkpt><trkpt lat="53.956658" lon="17.887983"></trkpt><trkpt lat="53.956502" lon="17.887106"></trkpt><trkpt lat="53.956313" lon="17.886559"></trkpt><trkpt lat="53.956044" lon="17.886027"></trkpt><trkpt lat="53.955808" lon="17.88572"></trkpt><trkpt lat="53.955458" lon="17.885087"></trkpt><trkpt lat="53.955252" lon="17.88478"></trkpt><trkpt lat="53.947829" lon="17.875799"></trkpt><trkpt lat="53.947604" lon="17.876385"></trkpt><trkpt lat="53.946356" lon="17.879138"></trkpt><trkpt lat="53.945625" lon="17.881016"></trkpt><trkpt lat="53.93986" lon="17.893649"></trkpt><trkpt lat="53.939329" lon="17.892878"></trkpt><trkpt lat="53.935155" lon="17.88589"></trkpt><trkpt lat="53.923478" lon="17.863323"></trkpt><trkpt lat="53.923386" lon="17.862965"></trkpt><trkpt lat="53.923341" lon="17.862573"></trkpt><trkpt lat="53.923317" lon="17.862189"></trkpt><trkpt lat="53.923453" lon="17.861757"></trkpt><trkpt lat="53.923258" lon="17.861694"></trkpt><trkpt lat="53.923042" lon="17.861879"></trkpt><trkpt lat="53.922342" lon="17.86178"></trkpt><trkpt lat="53.916924" lon="17.86175"></trkpt><trkpt lat="53.916732" lon="17.862025"></trkpt><trkpt lat="53.916303" lon="17.862555"></trkpt><trkpt lat="53.916012" lon="17.862697"></trkpt><trkpt lat="53.915738" lon="17.862742"></trkpt><trkpt lat="53.915452" lon="17.862743"></trkpt><trkpt lat="53.90749" lon="17.861633"></trkpt><trkpt lat="53.906764" lon="17.861247"></trkpt><trkpt lat="53.89362" lon="17.852479"></trkpt><trkpt lat="53.890353" lon="17.85085"></trkpt><trkpt lat="53.890162" lon="17.850978"></trkpt><trkpt lat="53.889881" lon="17.851386"></trkpt><trkpt lat="53.889552" lon="17.852046"></trkpt><trkpt lat="53.88814" lon="17.854287"></trkpt><trkpt lat="53.887478" lon="17.854605"></trkpt><trkpt lat="53.887012" lon="17.85476"></trkpt><trkpt lat="53.885285" lon="17.855593"></trkpt><trkpt lat="53.88501" lon="17.855816"></trkpt><trkpt lat="53.884561" lon="17.856097"></trkpt><trkpt lat="53.879404" lon="17.858645"></trkpt><trkpt lat="53.877037" lon="17.859425"></trkpt><trkpt lat="53.876672" lon="17.85948"></trkpt><trkpt lat="53.874828" lon="17.860003"></trkpt><trkpt lat="53.874844" lon="17.860389"></trkpt><trkpt lat="53.874714" lon="17.861629"></trkpt><trkpt lat="53.874689" lon="17.862089"></trkpt><trkpt lat="53.87467" lon="17.863933"></trkpt><trkpt lat="53.874818" lon="17.860987"></trkpt><trkpt lat="53.874852" lon="17.860636"></trkpt><trkpt lat="53.874823" lon="17.859907"></trkpt><trkpt lat="53.874442" lon="17.859969"></trkpt><trkpt lat="53.873424" lon="17.860274"></trkpt><trkpt lat="53.872552" lon="17.860276"></trkpt><trkpt lat="53.872341" lon="17.86025"></trkpt><trkpt lat="53.869118" lon="17.859421"></trkpt><trkpt lat="53.868844" lon="17.859232"></trkpt><trkpt lat="53.859397" lon="17.850674"></trkpt><trkpt lat="53.859157" lon="17.849251"></trkpt><trkpt lat="53.858859" lon="17.84786"></trkpt><trkpt lat="53.85841" lon="17.846959"></trkpt><trkpt lat="53.857581" lon="17.844706"></trkpt><trkpt lat="53.857473" lon="17.843178"></trkpt><trkpt lat="53.856237" lon="17.832893"></trkpt><trkpt lat="53.855942" lon="17.832035"></trkpt><trkpt lat="53.855395" lon="17.830693"></trkpt><trkpt lat="53.854832" lon="17.829804"></trkpt><trkpt lat="53.854406" lon="17.829338"></trkpt><trkpt lat="53.854129" lon="17.828796"></trkpt><trkpt lat="53.853885" lon="17.828227"></trkpt><trkpt lat="53.853584" lon="17.827706"></trkpt><trkpt lat="53.852356" lon="17.826087"></trkpt><trkpt lat="53.851663" lon="17.825669"></trkpt><trkpt lat="53.85096" lon="17.825449"></trkpt><trkpt lat="53.850155" lon="17.825296"></trkpt><trkpt lat="53.846574" lon="17.825388"></trkpt><trkpt lat="53.845994" lon="17.824768"></trkpt><trkpt lat="53.845828" lon="17.824493"></trkpt><trkpt lat="53.844952" lon="17.822809"></trkpt><trkpt lat="53.844658" lon="17.821977"></trkpt><trkpt lat="53.842048" lon="17.815787"></trkpt><trkpt lat="53.841516" lon="17.815217"></trkpt><trkpt lat="53.841001" lon="17.815054"></trkpt><trkpt lat="53.840626" lon="17.815076"></trkpt><trkpt lat="53.840421" lon="17.815339"></trkpt><trkpt lat="53.839962" lon="17.816068"></trkpt><trkpt lat="53.837901" lon="17.820187"></trkpt><trkpt lat="53.837596" lon="17.821276"></trkpt><trkpt lat="53.827349" lon="17.866022"></trkpt><trkpt lat="53.827188" lon="17.867058"></trkpt><trkpt lat="53.82164" lon="17.894292"></trkpt><trkpt lat="53.821434" lon="17.894862"></trkpt><trkpt lat="53.821267" lon="17.895407"></trkpt><trkpt lat="53.821007" lon="17.896049"></trkpt><trkpt lat="53.820191" lon="17.897779"></trkpt><trkpt lat="53.820108" lon="17.898403"></trkpt><trkpt lat="53.819817" lon="17.899205"></trkpt><trkpt lat="53.800085" lon="17.951052"></trkpt><trkpt lat="53.799954" lon="17.951645"></trkpt><trkpt lat="53.798719" lon="17.958934"></trkpt><trkpt lat="53.798907" lon="17.959922"></trkpt><trkpt lat="53.799411" lon="17.965634"></trkpt><trkpt lat="53.799254" lon="17.965883"></trkpt><trkpt lat="53.799144" lon="17.966607"></trkpt><trkpt lat="53.798946" lon="17.966948"></trkpt><trkpt lat="53.798559" lon="17.967094"></trkpt><trkpt lat="53.797942" lon="17.96724"></trkpt><trkpt lat="53.797807" lon="17.966844"></trkpt><trkpt lat="53.797226" lon="17.966786"></trkpt><trkpt lat="53.79699" lon="17.96686"></trkpt><trkpt lat="53.796625" lon="17.967192"></trkpt><trkpt lat="53.796548" lon="17.967579"></trkpt><trkpt lat="53.79614" lon="17.967828"></trkpt><trkpt lat="53.79586" lon="17.967855"></trkpt><trkpt lat="53.795657" lon="17.968555"></trkpt><trkpt lat="53.795633" lon="17.969765"></trkpt><trkpt lat="53.795654" lon="17.970653"></trkpt><trkpt lat="53.795814" lon="17.971786"></trkpt><trkpt lat="53.795823" lon="17.972587"></trkpt><trkpt lat="53.795483" lon="17.973496"></trkpt><trkpt lat="53.795067" lon="17.974807"></trkpt><trkpt lat="53.795004" lon="17.975435"></trkpt><trkpt lat="53.795016" lon="17.976159"></trkpt><trkpt lat="53.794942" lon="17.976496"></trkpt><trkpt lat="53.794497" lon="17.976657"></trkpt><trkpt lat="53.794283" lon="17.976905"></trkpt><trkpt lat="53.793814" lon="17.978481"></trkpt><trkpt lat="53.793584" lon="17.979107"></trkpt><trkpt lat="53.793375" lon="17.979151"></trkpt><trkpt lat="53.792517" lon="17.978632"></trkpt><trkpt lat="53.791904" lon="17.97838"></trkpt><trkpt lat="53.791737" lon="17.978658"></trkpt><trkpt lat="53.791546" lon="17.979216"></trkpt><trkpt lat="53.790276" lon="17.982245"></trkpt><trkpt lat="53.790089" lon="17.982802"></trkpt><trkpt lat="53.78654" lon="17.991588"></trkpt><trkpt lat="53.786104" lon="17.991769"></trkpt><trkpt lat="53.782568" lon="17.993702"></trkpt><trkpt lat="53.782088" lon="17.994421"></trkpt><trkpt lat="53.772104" lon="18.007238"></trkpt><trkpt lat="53.771389" lon="18.007969"></trkpt><trkpt lat="53.770934" lon="18.00856"></trkpt><trkpt lat="53.767871" lon="18.011875"></trkpt><trkpt lat="53.76725" lon="18.012276"></trkpt><trkpt lat="53.765231" lon="18.013959"></trkpt><trkpt lat="53.760816" lon="18.016995"></trkpt><trkpt lat="53.760229" lon="18.01724"></trkpt><trkpt lat="53.759819" lon="18.017554"></trkpt><trkpt lat="53.757128" lon="18.019145"></trkpt><trkpt lat="53.756135" lon="18.018969"></trkpt><trkpt lat="53.75389" lon="18.018125"></trkpt><trkpt lat="53.75309" lon="18.017609"></trkpt><trkpt lat="53.750775" lon="18.01662"></trkpt><trkpt lat="53.750051" lon="18.016807"></trkpt><trkpt lat="53.747943" lon="18.017721"></trkpt><trkpt lat="53.747544" lon="18.018393"></trkpt><trkpt lat="53.746486" lon="18.019856"></trkpt><trkpt lat="53.74583" lon="18.020574"></trkpt><trkpt lat="53.745032" lon="18.021592"></trkpt><trkpt lat="53.745139" lon="18.021894"></trkpt><trkpt lat="53.74553" lon="18.022625"></trkpt><trkpt lat="53.746128" lon="18.023561"></trkpt><trkpt lat="53.746167" lon="18.023161"></trkpt></trkseg></trk></gpx>