<?xml version="1.0" encoding="UTF-8" standalone="no" ?><gpx xmlns="http://www.topografix.com/GPX/1/1" xmlns:gpxx="http://www.garmin.com/xmlschemas/GpxExtensions/v3" ><trk><trkseg><trkpt lat="50.59157" lon="16.812852"></trkpt><trkpt lat="50.591512" lon="16.812547"></trkpt><trkpt lat="50.591313" lon="16.81243"></trkpt><trkpt lat="50.591056" lon="16.812413"></trkpt><trkpt lat="50.590952" lon="16.812774"></trkpt><trkpt lat="50.590686" lon="16.812784"></trkpt><trkpt lat="50.590293" lon="16.812712"></trkpt><trkpt lat="50.590394" lon="16.811944"></trkpt><trkpt lat="50.590485" lon="16.811486"></trkpt><trkpt lat="50.590071" lon="16.811205"></trkpt><trkpt lat="50.589835" lon="16.811197"></trkpt><trkpt lat="50.589337" lon="16.810986"></trkpt><trkpt lat="50.588873" lon="16.810867"></trkpt><trkpt lat="50.588725" lon="16.811594"></trkpt><trkpt lat="50.588805" lon="16.811907"></trkpt><trkpt lat="50.589096" lon="16.812045"></trkpt><trkpt lat="50.589084" lon="16.812693"></trkpt><trkpt lat="50.589001" lon="16.813493"></trkpt><trkpt lat="50.588837" lon="16.814303"></trkpt><trkpt lat="50.588756" lon="16.814969"></trkpt><trkpt lat="50.588783" lon="16.815938"></trkpt><trkpt lat="50.588834" lon="16.816588"></trkpt><trkpt lat="50.588968" lon="16.81684"></trkpt><trkpt lat="50.589315" lon="16.817376"></trkpt><trkpt lat="50.589508" lon="16.817535"></trkpt><trkpt lat="50.589853" lon="16.817729"></trkpt><trkpt lat="50.590454" lon="16.817991"></trkpt><trkpt lat="50.590629" lon="16.818375"></trkpt><trkpt lat="50.590784" lon="16.818839"></trkpt><trkpt lat="50.590817" lon="16.819356"></trkpt><trkpt lat="50.590753" lon="16.819808"></trkpt><trkpt lat="50.590678" lon="16.820984"></trkpt><trkpt lat="50.590735" lon="16.821493"></trkpt><trkpt lat="50.590832" lon="16.822014"></trkpt><trkpt lat="50.59152" lon="16.824463"></trkpt><trkpt lat="50.591749" lon="16.825079"></trkpt><trkpt lat="50.594927" lon="16.832179"></trkpt><trkpt lat="50.595797" lon="16.832915"></trkpt><trkpt lat="50.601703" lon="16.838854"></trkpt><trkpt lat="50.602047" lon="16.839634"></trkpt><trkpt lat="50.60673" lon="16.848658"></trkpt><trkpt lat="50.607208" lon="16.849329"></trkpt><trkpt lat="50.608709" lon="16.851795"></trkpt><trkpt lat="50.614274" lon="16.859595"></trkpt><trkpt lat="50.614736" lon="16.859974"></trkpt><trkpt lat="50.615444" lon="16.860708"></trkpt><trkpt lat="50.615719" lon="16.861334"></trkpt><trkpt lat="50.616619" lon="16.863733"></trkpt><trkpt lat="50.616651" lon="16.864168"></trkpt><trkpt lat="50.616628" lon="16.864909"></trkpt><trkpt lat="50.616665" lon="16.866167"></trkpt><trkpt lat="50.616778" lon="16.866894"></trkpt><trkpt lat="50.616933" lon="16.868997"></trkpt><trkpt lat="50.616812" lon="16.869661"></trkpt><trkpt lat="50.615041" lon="16.883838"></trkpt><trkpt lat="50.615102" lon="16.884362"></trkpt><trkpt lat="50.615265" lon="16.886721"></trkpt><trkpt lat="50.615615" lon="16.90239"></trkpt><trkpt lat="50.615438" lon="16.902566"></trkpt><trkpt lat="50.615121" lon="16.903021"></trkpt><trkpt lat="50.614701" lon="16.903765"></trkpt><trkpt lat="50.614068" lon="16.904711"></trkpt><trkpt lat="50.613319" lon="16.905106"></trkpt><trkpt lat="50.612909" lon="16.905227"></trkpt><trkpt lat="50.612713" lon="16.905408"></trkpt><trkpt lat="50.612316" lon="16.905976"></trkpt><trkpt lat="50.612031" lon="16.9066"></trkpt><trkpt lat="50.611845" lon="16.908327"></trkpt><trkpt lat="50.611823" lon="16.908746"></trkpt><trkpt lat="50.611855" lon="16.909163"></trkpt><trkpt lat="50.612235" lon="16.911013"></trkpt><trkpt lat="50.612419" lon="16.911727"></trkpt><trkpt lat="50.61255" lon="16.91249"></trkpt><trkpt lat="50.612514" lon="16.913943"></trkpt><trkpt lat="50.612427" lon="16.914949"></trkpt><trkpt lat="50.612055" lon="16.926097"></trkpt><trkpt lat="50.61217" lon="16.926371"></trkpt><trkpt lat="50.612704" lon="16.927325"></trkpt><trkpt lat="50.614878" lon="16.931906"></trkpt><trkpt lat="50.615517" lon="16.933062"></trkpt><trkpt lat="50.61616" lon="16.933837"></trkpt><trkpt lat="50.616634" lon="16.934574"></trkpt><trkpt lat="50.616777" lon="16.934967"></trkpt><trkpt lat="50.616979" lon="16.935968"></trkpt><trkpt lat="50.617029" lon="16.936601"></trkpt><trkpt lat="50.616941" lon="16.937395"></trkpt><trkpt lat="50.617208" lon="16.938716"></trkpt><trkpt lat="50.61726" lon="16.939165"></trkpt><trkpt lat="50.61727" lon="16.94013"></trkpt><trkpt lat="50.617256" lon="16.940487"></trkpt><trkpt lat="50.617201" lon="16.94099"></trkpt><trkpt lat="50.617228" lon="16.941387"></trkpt><trkpt lat="50.617308" lon="16.941925"></trkpt><trkpt lat="50.617312" lon="16.942421"></trkpt><trkpt lat="50.617434" lon="16.944628"></trkpt><trkpt lat="50.617558" lon="16.944986"></trkpt><trkpt lat="50.61792" lon="16.946329"></trkpt><trkpt lat="50.617922" lon="16.947422"></trkpt><trkpt lat="50.618096" lon="16.948639"></trkpt><trkpt lat="50.618395" lon="16.949869"></trkpt><trkpt lat="50.618294" lon="16.950153"></trkpt><trkpt lat="50.618221" lon="16.950879"></trkpt><trkpt lat="50.618212" lon="16.951434"></trkpt><trkpt lat="50.618313" lon="16.952034"></trkpt><trkpt lat="50.618634" lon="16.952652"></trkpt><trkpt lat="50.618898" lon="16.953528"></trkpt><trkpt lat="50.619941" lon="16.956115"></trkpt><trkpt lat="50.620238" lon="16.957554"></trkpt><trkpt lat="50.620384" lon="16.958922"></trkpt><trkpt lat="50.620463" lon="16.960444"></trkpt><trkpt lat="50.620407" lon="16.961323"></trkpt><trkpt lat="50.62055" lon="16.962192"></trkpt><trkpt lat="50.620602" lon="16.96272"></trkpt><trkpt lat="50.620621" lon="16.963254"></trkpt><trkpt lat="50.620534" lon="16.967528"></trkpt><trkpt lat="50.620446" lon="16.968134"></trkpt><trkpt lat="50.619868" lon="16.971055"></trkpt><trkpt lat="50.619308" lon="16.971161"></trkpt><trkpt lat="50.619025" lon="16.971467"></trkpt><trkpt lat="50.618816" lon="16.972261"></trkpt><trkpt lat="50.6188" lon="16.972801"></trkpt><trkpt lat="50.618826" lon="16.973207"></trkpt><trkpt lat="50.618745" lon="16.975108"></trkpt><trkpt lat="50.618453" lon="16.976391"></trkpt><trkpt lat="50.618384" lon="16.976824"></trkpt><trkpt lat="50.618474" lon="16.977946"></trkpt><trkpt lat="50.618587" lon="16.978584"></trkpt><trkpt lat="50.619943" lon="16.984549"></trkpt><trkpt lat="50.619987" lon="16.985794"></trkpt><trkpt lat="50.619916" lon="16.993336"></trkpt><trkpt lat="50.619709" lon="16.993376"></trkpt><trkpt lat="50.619416" lon="16.993282"></trkpt><trkpt lat="50.618765" lon="16.992991"></trkpt><trkpt lat="50.618456" lon="16.992924"></trkpt><trkpt lat="50.61814" lon="16.992912"></trkpt><trkpt lat="50.61682" lon="16.993242"></trkpt><trkpt lat="50.616485" lon="16.993474"></trkpt><trkpt lat="50.616233" lon="16.99375"></trkpt><trkpt lat="50.616011" lon="16.994099"></trkpt><trkpt lat="50.614498" lon="16.995923"></trkpt><trkpt lat="50.614295" lon="16.996009"></trkpt><trkpt lat="50.613779" lon="16.996062"></trkpt><trkpt lat="50.612774" lon="16.996488"></trkpt><trkpt lat="50.612528" lon="16.996945"></trkpt><trkpt lat="50.612091" lon="16.997513"></trkpt><trkpt lat="50.611718" lon="16.99785"></trkpt><trkpt lat="50.611559" lon="16.998052"></trkpt><trkpt lat="50.611203" lon="16.998579"></trkpt><trkpt lat="50.611022" lon="16.998992"></trkpt><trkpt lat="50.610752" lon="16.999742"></trkpt><trkpt lat="50.610657" lon="17.000208"></trkpt><trkpt lat="50.607566" lon="17.012191"></trkpt><trkpt lat="50.606891" lon="17.016973"></trkpt><trkpt lat="50.606626" lon="17.01793"></trkpt><trkpt lat="50.60639" lon="17.018185"></trkpt><trkpt lat="50.606263" lon="17.018464"></trkpt><trkpt lat="50.606216" lon="17.019077"></trkpt><trkpt lat="50.606239" lon="17.019435"></trkpt><trkpt lat="50.606307" lon="17.019927"></trkpt><trkpt lat="50.606276" lon="17.020359"></trkpt><trkpt lat="50.6061" lon="17.021113"></trkpt><trkpt lat="50.605842" lon="17.022764"></trkpt><trkpt lat="50.605879" lon="17.023149"></trkpt><trkpt lat="50.606127" lon="17.024448"></trkpt><trkpt lat="50.606738" lon="17.026899"></trkpt><trkpt lat="50.607293" lon="17.027648"></trkpt><trkpt lat="50.607558" lon="17.028088"></trkpt><trkpt lat="50.607541" lon="17.028406"></trkpt><trkpt lat="50.607384" lon="17.028636"></trkpt><trkpt lat="50.606962" lon="17.029014"></trkpt><trkpt lat="50.606809" lon="17.029369"></trkpt><trkpt lat="50.606466" lon="17.03064"></trkpt><trkpt lat="50.605179" lon="17.034525"></trkpt><trkpt lat="50.604775" lon="17.034998"></trkpt><trkpt lat="50.603314" lon="17.036992"></trkpt><trkpt lat="50.602998" lon="17.037543"></trkpt><trkpt lat="50.600973" lon="17.040229"></trkpt><trkpt lat="50.60056" lon="17.040199"></trkpt><trkpt lat="50.600365" lon="17.040504"></trkpt><trkpt lat="50.600695" lon="17.040041"></trkpt><trkpt lat="50.600903" lon="17.04"></trkpt><trkpt lat="50.600677" lon="17.039802"></trkpt><trkpt lat="50.600628" lon="17.040126"></trkpt><trkpt lat="50.600418" lon="17.040458"></trkpt><trkpt lat="50.600366" lon="17.040769"></trkpt><trkpt lat="50.600581" lon="17.041134"></trkpt><trkpt lat="50.601316" lon="17.042586"></trkpt><trkpt lat="50.60113" lon="17.042332"></trkpt><trkpt lat="50.601144" lon="17.042013"></trkpt><trkpt lat="50.601531" lon="17.041218"></trkpt><trkpt lat="50.601307" lon="17.040804"></trkpt><trkpt lat="50.600996" lon="17.040324"></trkpt><trkpt lat="50.599729" lon="17.038648"></trkpt><trkpt lat="50.599171" lon="17.038296"></trkpt><trkpt lat="50.598697" lon="17.038077"></trkpt><trkpt lat="50.598515" lon="17.038671"></trkpt><trkpt lat="50.598298" lon="17.038845"></trkpt><trkpt lat="50.594348" lon="17.036319"></trkpt><trkpt lat="50.594009" lon="17.036377"></trkpt><trkpt lat="50.593564" lon="17.036512"></trkpt><trkpt lat="50.593206" lon="17.036787"></trkpt><trkpt lat="50.592974" lon="17.037109"></trkpt><trkpt lat="50.592707" lon="17.037668"></trkpt><trkpt lat="50.591719" lon="17.039319"></trkpt><trkpt lat="50.591288" lon="17.03992"></trkpt><trkpt lat="50.590335" lon="17.041034"></trkpt><trkpt lat="50.589703" lon="17.04146"></trkpt><trkpt lat="50.589217" lon="17.041898"></trkpt><trkpt lat="50.588942" lon="17.042569"></trkpt><trkpt lat="50.588875" lon="17.043562"></trkpt><trkpt lat="50.588605" lon="17.045268"></trkpt><trkpt lat="50.58839" lon="17.046002"></trkpt><trkpt lat="50.588113" lon="17.046715"></trkpt><trkpt lat="50.585809" lon="17.051804"></trkpt><trkpt lat="50.585617" lon="17.05236"></trkpt><trkpt lat="50.5855" lon="17.052771"></trkpt><trkpt lat="50.585165" lon="17.05369"></trkpt><trkpt lat="50.584941" lon="17.054111"></trkpt><trkpt lat="50.579329" lon="17.06321"></trkpt><trkpt lat="50.579038" lon="17.06326"></trkpt><trkpt lat="50.578523" lon="17.063456"></trkpt><trkpt lat="50.578368" lon="17.063653"></trkpt><trkpt lat="50.578203" lon="17.063992"></trkpt><trkpt lat="50.578051" lon="17.064414"></trkpt><trkpt lat="50.577402" lon="17.065845"></trkpt><trkpt lat="50.577218" lon="17.066138"></trkpt><trkpt lat="50.577045" lon="17.066518"></trkpt><trkpt lat="50.576452" lon="17.067281"></trkpt><trkpt lat="50.576046" lon="17.066449"></trkpt><trkpt lat="50.575947" lon="17.065916"></trkpt><trkpt lat="50.575937" lon="17.06551"></trkpt><trkpt lat="50.575954" lon="17.064979"></trkpt><trkpt lat="50.575938" lon="17.065333"></trkpt><trkpt lat="50.575856" lon="17.065972"></trkpt><trkpt lat="50.575553" lon="17.066032"></trkpt><trkpt lat="50.575814" lon="17.066039"></trkpt><trkpt lat="50.575993" lon="17.066184"></trkpt><trkpt lat="50.576078" lon="17.066613"></trkpt><trkpt lat="50.576182" lon="17.066886"></trkpt><trkpt lat="50.576485" lon="17.067379"></trkpt><trkpt lat="50.576608" lon="17.067843"></trkpt><trkpt lat="50.576734" lon="17.068134"></trkpt><trkpt lat="50.577149" lon="17.069305"></trkpt><trkpt lat="50.577223" lon="17.069707"></trkpt><trkpt lat="50.577208" lon="17.070408"></trkpt><trkpt lat="50.577307" lon="17.070826"></trkpt><trkpt lat="50.577419" lon="17.07109"></trkpt><trkpt lat="50.57758" lon="17.071758"></trkpt><trkpt lat="50.577556" lon="17.072467"></trkpt><trkpt lat="50.577768" lon="17.073564"></trkpt><trkpt lat="50.577976" lon="17.074386"></trkpt><trkpt lat="50.578265" lon="17.075259"></trkpt><trkpt lat="50.578475" lon="17.075722"></trkpt><trkpt lat="50.57866" lon="17.076549"></trkpt><trkpt lat="50.579225" lon="17.080044"></trkpt><trkpt lat="50.57928" lon="17.080682"></trkpt><trkpt lat="50.579733" lon="17.092416"></trkpt><trkpt lat="50.579699" lon="17.093068"></trkpt><trkpt lat="50.579888" lon="17.093396"></trkpt><trkpt lat="50.579645" lon="17.093459"></trkpt><trkpt lat="50.579467" lon="17.093791"></trkpt><trkpt lat="50.579085" lon="17.094369"></trkpt><trkpt lat="50.578929" lon="17.094564"></trkpt><trkpt lat="50.576072" lon="17.098827"></trkpt><trkpt lat="50.575937" lon="17.099086"></trkpt><trkpt lat="50.575863" lon="17.099396"></trkpt><trkpt lat="50.575713" lon="17.099878"></trkpt><trkpt lat="50.575334" lon="17.100841"></trkpt><trkpt lat="50.575021" lon="17.101275"></trkpt><trkpt lat="50.574502" lon="17.101668"></trkpt><trkpt lat="50.574094" lon="17.101765"></trkpt><trkpt lat="50.573753" lon="17.101732"></trkpt><trkpt lat="50.573468" lon="17.101818"></trkpt><trkpt lat="50.573059" lon="17.102174"></trkpt><trkpt lat="50.572415" lon="17.102862"></trkpt><trkpt lat="50.572158" lon="17.103265"></trkpt><trkpt lat="50.571907" lon="17.103885"></trkpt><trkpt lat="50.571787" lon="17.104347"></trkpt><trkpt lat="50.57167" lon="17.104969"></trkpt><trkpt lat="50.571406" lon="17.106075"></trkpt><trkpt lat="50.571268" lon="17.106534"></trkpt><trkpt lat="50.571175" lon="17.10706"></trkpt><trkpt lat="50.571039" lon="17.107345"></trkpt><trkpt lat="50.570909" lon="17.107804"></trkpt><trkpt lat="50.570785" lon="17.108075"></trkpt><trkpt lat="50.570669" lon="17.108497"></trkpt><trkpt lat="50.5705" lon="17.108809"></trkpt><trkpt lat="50.570135" lon="17.109147"></trkpt><trkpt lat="50.569843" lon="17.109307"></trkpt><trkpt lat="50.567148" lon="17.110413"></trkpt><trkpt lat="50.566697" lon="17.110487"></trkpt><trkpt lat="50.566344" lon="17.110493"></trkpt><trkpt lat="50.566148" lon="17.110424"></trkpt><trkpt lat="50.565765" lon="17.11047"></trkpt><trkpt lat="50.562792" lon="17.110458"></trkpt><trkpt lat="50.562444" lon="17.11028"></trkpt><trkpt lat="50.56223" lon="17.110213"></trkpt><trkpt lat="50.561778" lon="17.110241"></trkpt><trkpt lat="50.561388" lon="17.11032"></trkpt><trkpt lat="50.561069" lon="17.110335"></trkpt><trkpt lat="50.56067" lon="17.10995"></trkpt><trkpt lat="50.560269" lon="17.109624"></trkpt><trkpt lat="50.541283" lon="17.097173"></trkpt><trkpt lat="50.541187" lon="17.097484"></trkpt><trkpt lat="50.540925" lon="17.097412"></trkpt><trkpt lat="50.541154" lon="17.097498"></trkpt><trkpt lat="50.541086" lon="17.098335"></trkpt><trkpt lat="50.541012" lon="17.098913"></trkpt><trkpt lat="50.540536" lon="17.101323"></trkpt><trkpt lat="50.540241" lon="17.10166"></trkpt><trkpt lat="50.539963" lon="17.102081"></trkpt><trkpt lat="50.539762" lon="17.102448"></trkpt><trkpt lat="50.523966" lon="17.127429"></trkpt><trkpt lat="50.523524" lon="17.12768"></trkpt><trkpt lat="50.523617" lon="17.127331"></trkpt><trkpt lat="50.523448" lon="17.126614"></trkpt><trkpt lat="50.523316" lon="17.126343"></trkpt><trkpt lat="50.523099" lon="17.12611"></trkpt><trkpt lat="50.522594" lon="17.125955"></trkpt><trkpt lat="50.522215" lon="17.126141"></trkpt><trkpt lat="50.522009" lon="17.126415"></trkpt><trkpt lat="50.521738" lon="17.126996"></trkpt><trkpt lat="50.521568" lon="17.127257"></trkpt><trkpt lat="50.521318" lon="17.127373"></trkpt><trkpt lat="50.521091" lon="17.12734"></trkpt><trkpt lat="50.520623" lon="17.12705"></trkpt><trkpt lat="50.520388" lon="17.126805"></trkpt><trkpt lat="50.52004" lon="17.126335"></trkpt><trkpt lat="50.51959" lon="17.12584"></trkpt><trkpt lat="50.519175" lon="17.125611"></trkpt><trkpt lat="50.518977" lon="17.125359"></trkpt><trkpt lat="50.518808" lon="17.125048"></trkpt><trkpt lat="50.5185" lon="17.124389"></trkpt><trkpt lat="50.51806" lon="17.123694"></trkpt><trkpt lat="50.517545" lon="17.123025"></trkpt><trkpt lat="50.5173" lon="17.122972"></trkpt><trkpt lat="50.516216" lon="17.12304"></trkpt><trkpt lat="50.512128" lon="17.123751"></trkpt><trkpt lat="50.511645" lon="17.124136"></trkpt><trkpt lat="50.511498" lon="17.124396"></trkpt><trkpt lat="50.511383" lon="17.124756"></trkpt><trkpt lat="50.50511" lon="17.140923"></trkpt><trkpt lat="50.504946" lon="17.141153"></trkpt><trkpt lat="50.504555" lon="17.14207"></trkpt><trkpt lat="50.504133" lon="17.142923"></trkpt><trkpt lat="50.503915" lon="17.142877"></trkpt><trkpt lat="50.503656" lon="17.142667"></trkpt><trkpt lat="50.502884" lon="17.142364"></trkpt><trkpt lat="50.502712" lon="17.142087"></trkpt><trkpt lat="50.502433" lon="17.141489"></trkpt><trkpt lat="50.500884" lon="17.144363"></trkpt><trkpt lat="50.500703" lon="17.144851"></trkpt><trkpt lat="50.500841" lon="17.144619"></trkpt><trkpt lat="50.501006" lon="17.144292"></trkpt><trkpt lat="50.502295" lon="17.140929"></trkpt><trkpt lat="50.502149" lon="17.14037"></trkpt><trkpt lat="50.50193" lon="17.139908"></trkpt><trkpt lat="50.501732" lon="17.139573"></trkpt><trkpt lat="50.50156" lon="17.139118"></trkpt><trkpt lat="50.501414" lon="17.138534"></trkpt><trkpt lat="50.501041" lon="17.137326"></trkpt><trkpt lat="50.500884" lon="17.136926"></trkpt><trkpt lat="50.499782" lon="17.134547"></trkpt><trkpt lat="50.499576" lon="17.134258"></trkpt><trkpt lat="50.499194" lon="17.133815"></trkpt><trkpt lat="50.498604" lon="17.133246"></trkpt><trkpt lat="50.497303" lon="17.132201"></trkpt><trkpt lat="50.496819" lon="17.131896"></trkpt><trkpt lat="50.495033" lon="17.131006"></trkpt><trkpt lat="50.494661" lon="17.130893"></trkpt><trkpt lat="50.494409" lon="17.131025"></trkpt><trkpt lat="50.494181" lon="17.131182"></trkpt><trkpt lat="50.493962" lon="17.131225"></trkpt><trkpt lat="50.492557" lon="17.131132"></trkpt><trkpt lat="50.491949" lon="17.131371"></trkpt><trkpt lat="50.491662" lon="17.131361"></trkpt><trkpt lat="50.491252" lon="17.131219"></trkpt><trkpt lat="50.490873" lon="17.131032"></trkpt><trkpt lat="50.489566" lon="17.130164"></trkpt><trkpt lat="50.489032" lon="17.129669"></trkpt><trkpt lat="50.488599" lon="17.129186"></trkpt><trkpt lat="50.488228" lon="17.128602"></trkpt><trkpt lat="50.488042" lon="17.128379"></trkpt><trkpt lat="50.487461" lon="17.128043"></trkpt><trkpt lat="50.486564" lon="17.127393"></trkpt><trkpt lat="50.486421" lon="17.127165"></trkpt><trkpt lat="50.486269" lon="17.126789"></trkpt><trkpt lat="50.485883" lon="17.125596"></trkpt><trkpt lat="50.485617" lon="17.125077"></trkpt><trkpt lat="50.484943" lon="17.124315"></trkpt><trkpt lat="50.48288" lon="17.121531"></trkpt><trkpt lat="50.482321" lon="17.120483"></trkpt><trkpt lat="50.481896" lon="17.119523"></trkpt><trkpt lat="50.481781" lon="17.119161"></trkpt><trkpt lat="50.481573" lon="17.119266"></trkpt><trkpt lat="50.481377" lon="17.119684"></trkpt><trkpt lat="50.480799" lon="17.120658"></trkpt><trkpt lat="50.480455" lon="17.121645"></trkpt><trkpt lat="50.479697" lon="17.123179"></trkpt><trkpt lat="50.479246" lon="17.123871"></trkpt><trkpt lat="50.478996" lon="17.124793"></trkpt><trkpt lat="50.476891" lon="17.131251"></trkpt><trkpt lat="50.476276" lon="17.132546"></trkpt><trkpt lat="50.47594" lon="17.132891"></trkpt><trkpt lat="50.475713" lon="17.133034"></trkpt><trkpt lat="50.475558" lon="17.13328"></trkpt><trkpt lat="50.475509" lon="17.132805"></trkpt><trkpt lat="50.475602" lon="17.133148"></trkpt><trkpt lat="50.475357" lon="17.133759"></trkpt><trkpt lat="50.475255" lon="17.134137"></trkpt><trkpt lat="50.475495" lon="17.133462"></trkpt><trkpt lat="50.475839" lon="17.133017"></trkpt><trkpt lat="50.476071" lon="17.132782"></trkpt><trkpt lat="50.47644" lon="17.132511"></trkpt><trkpt lat="50.476273" lon="17.132701"></trkpt><trkpt lat="50.475958" lon="17.133195"></trkpt><trkpt lat="50.475806" lon="17.133774"></trkpt><trkpt lat="50.474971" lon="17.137767"></trkpt><trkpt lat="50.474033" lon="17.143846"></trkpt><trkpt lat="50.474015" lon="17.144581"></trkpt><trkpt lat="50.473719" lon="17.148005"></trkpt><trkpt lat="50.473582" lon="17.148799"></trkpt><trkpt lat="50.473484" lon="17.149601"></trkpt><trkpt lat="50.473501" lon="17.149941"></trkpt><trkpt lat="50.473091" lon="17.1509"></trkpt><trkpt lat="50.472813" lon="17.151914"></trkpt><trkpt lat="50.472644" lon="17.152976"></trkpt><trkpt lat="50.472534" lon="17.153483"></trkpt><trkpt lat="50.472207" lon="17.154486"></trkpt><trkpt lat="50.471588" lon="17.156956"></trkpt><trkpt lat="50.471048" lon="17.15981"></trkpt><trkpt lat="50.471075" lon="17.160652"></trkpt><trkpt lat="50.471054" lon="17.161692"></trkpt><trkpt lat="50.470924" lon="17.162153"></trkpt><trkpt lat="50.47078" lon="17.162387"></trkpt><trkpt lat="50.467864" lon="17.166361"></trkpt><trkpt lat="50.468173" lon="17.166791"></trkpt><trkpt lat="50.468382" lon="17.167259"></trkpt><trkpt lat="50.468556" lon="17.167739"></trkpt><trkpt lat="50.468681" lon="17.168541"></trkpt><trkpt lat="50.468436" lon="17.168981"></trkpt><trkpt lat="50.468239" lon="17.169288"></trkpt><trkpt lat="50.468108" lon="17.169558"></trkpt><trkpt lat="50.467933" lon="17.169856"></trkpt><trkpt lat="50.467689" lon="17.170211"></trkpt><trkpt lat="50.467054" lon="17.171325"></trkpt><trkpt lat="50.467161" lon="17.17183"></trkpt><trkpt lat="50.467268" lon="17.172609"></trkpt><trkpt lat="50.46686" lon="17.172924"></trkpt><trkpt lat="50.466442" lon="17.173179"></trkpt><trkpt lat="50.466334" lon="17.173462"></trkpt><trkpt lat="50.466114" lon="17.174165"></trkpt><trkpt lat="50.466149" lon="17.174482"></trkpt><trkpt lat="50.466174" lon="17.17501"></trkpt><trkpt lat="50.46638" lon="17.175216"></trkpt><trkpt lat="50.466216" lon="17.175009"></trkpt><trkpt lat="50.466188" lon="17.174538"></trkpt><trkpt lat="50.466139" lon="17.174145"></trkpt><trkpt lat="50.46607" lon="17.173752"></trkpt><trkpt lat="50.465967" lon="17.1733"></trkpt><trkpt lat="50.465738" lon="17.173269"></trkpt><trkpt lat="50.465485" lon="17.173169"></trkpt><trkpt lat="50.465277" lon="17.173133"></trkpt><trkpt lat="50.464035" lon="17.173499"></trkpt><trkpt lat="50.464224" lon="17.173602"></trkpt><trkpt lat="50.463766" lon="17.173915"></trkpt><trkpt lat="50.463613" lon="17.174365"></trkpt><trkpt lat="50.463768" lon="17.17396"></trkpt><trkpt lat="50.464249" lon="17.173881"></trkpt><trkpt lat="50.464303" lon="17.173559"></trkpt><trkpt lat="50.464144" lon="17.173371"></trkpt><trkpt lat="50.463928" lon="17.173518"></trkpt><trkpt lat="50.463556" lon="17.17369"></trkpt><trkpt lat="50.463362" lon="17.173526"></trkpt><trkpt lat="50.463185" lon="17.173323"></trkpt><trkpt lat="50.462968" lon="17.173151"></trkpt><trkpt lat="50.462752" lon="17.173034"></trkpt><trkpt lat="50.46252" lon="17.173049"></trkpt><trkpt lat="50.462274" lon="17.173156"></trkpt><trkpt lat="50.461888" lon="17.173131"></trkpt><trkpt lat="50.461653" lon="17.172871"></trkpt><trkpt lat="50.461407" lon="17.172389"></trkpt><trkpt lat="50.461256" lon="17.171888"></trkpt><trkpt lat="50.461101" lon="17.171187"></trkpt><trkpt lat="50.460174" lon="17.168192"></trkpt><trkpt lat="50.459742" lon="17.167926"></trkpt><trkpt lat="50.459374" lon="17.167756"></trkpt><trkpt lat="50.456367" lon="17.166719"></trkpt><trkpt lat="50.455937" lon="17.16622"></trkpt><trkpt lat="50.455312" lon="17.165367"></trkpt><trkpt lat="50.454352" lon="17.16428"></trkpt><trkpt lat="50.45411" lon="17.16431"></trkpt><trkpt lat="50.453648" lon="17.164733"></trkpt><trkpt lat="50.453792" lon="17.164516"></trkpt><trkpt lat="50.453121" lon="17.165294"></trkpt><trkpt lat="50.452386" lon="17.166004"></trkpt><trkpt lat="50.451822" lon="17.166007"></trkpt><trkpt lat="50.450899" lon="17.16586"></trkpt><trkpt lat="50.447079" lon="17.165712"></trkpt><trkpt lat="50.447134" lon="17.166758"></trkpt><trkpt lat="50.447131" lon="17.168812"></trkpt><trkpt lat="50.446403" lon="17.169081"></trkpt><trkpt lat="50.426564" lon="17.179206"></trkpt><trkpt lat="50.426442" lon="17.179516"></trkpt><trkpt lat="50.426246" lon="17.179649"></trkpt><trkpt lat="50.425431" lon="17.179395"></trkpt><trkpt lat="50.420926" lon="17.18017"></trkpt><trkpt lat="50.418056" lon="17.181309"></trkpt><trkpt lat="50.417684" lon="17.181771"></trkpt><trkpt lat="50.416593" lon="17.182905"></trkpt><trkpt lat="50.414422" lon="17.184828"></trkpt><trkpt lat="50.413884" lon="17.185012"></trkpt><trkpt lat="50.410119" lon="17.186832"></trkpt><trkpt lat="50.409799" lon="17.187056"></trkpt><trkpt lat="50.409209" lon="17.187352"></trkpt><trkpt lat="50.408765" lon="17.187519"></trkpt><trkpt lat="50.408176" lon="17.187664"></trkpt><trkpt lat="50.40729" lon="17.187743"></trkpt><trkpt lat="50.406948" lon="17.187822"></trkpt><trkpt lat="50.406798" lon="17.188054"></trkpt><trkpt lat="50.406872" lon="17.188364"></trkpt><trkpt lat="50.406976" lon="17.189089"></trkpt><trkpt lat="50.407502" lon="17.191404"></trkpt><trkpt lat="50.40814" lon="17.192908"></trkpt><trkpt lat="50.4089" lon="17.193994"></trkpt><trkpt lat="50.409572" lon="17.194491"></trkpt><trkpt lat="50.41195" lon="17.19593"></trkpt><trkpt lat="50.412726" lon="17.196108"></trkpt><trkpt lat="50.415424" lon="17.197123"></trkpt><trkpt lat="50.416056" lon="17.197515"></trkpt><trkpt lat="50.418463" lon="17.199942"></trkpt><trkpt lat="50.418686" lon="17.201115"></trkpt><trkpt lat="50.419508" lon="17.206931"></trkpt><trkpt lat="50.419609" lon="17.208168"></trkpt><trkpt lat="50.419734" lon="17.211852"></trkpt><trkpt lat="50.419546" lon="17.212284"></trkpt><trkpt lat="50.419276" lon="17.213081"></trkpt><trkpt lat="50.419251" lon="17.213449"></trkpt><trkpt lat="50.419191" lon="17.216538"></trkpt><trkpt lat="50.419224" lon="17.21757"></trkpt><trkpt lat="50.419884" lon="17.225282"></trkpt><trkpt lat="50.420132" lon="17.225696"></trkpt><trkpt lat="50.420393" lon="17.226212"></trkpt><trkpt lat="50.425621" lon="17.238207"></trkpt><trkpt lat="50.42604" lon="17.239338"></trkpt><trkpt lat="50.426371" lon="17.240445"></trkpt><trkpt lat="50.426598" lon="17.241824"></trkpt><trkpt lat="50.426593" lon="17.243013"></trkpt><trkpt lat="50.426447" lon="17.244252"></trkpt><trkpt lat="50.426426" lon="17.245331"></trkpt><trkpt lat="50.426467" lon="17.246754"></trkpt><trkpt lat="50.427676" lon="17.26138"></trkpt><trkpt lat="50.427969" lon="17.261844"></trkpt><trkpt lat="50.428325" lon="17.262577"></trkpt><trkpt lat="50.428435" lon="17.262918"></trkpt><trkpt lat="50.428648" lon="17.263828"></trkpt><trkpt lat="50.429942" lon="17.270985"></trkpt><trkpt lat="50.429709" lon="17.272352"></trkpt><trkpt lat="50.429349" lon="17.277103"></trkpt><trkpt lat="50.429606" lon="17.278195"></trkpt><trkpt lat="50.435839" lon="17.298521"></trkpt><trkpt lat="50.436576" lon="17.29833"></trkpt><trkpt lat="50.439828" lon="17.297875"></trkpt><trkpt lat="50.443504" lon="17.298839"></trkpt><trkpt lat="50.444268" lon="17.299222"></trkpt><trkpt lat="50.458793" lon="17.30882"></trkpt><trkpt lat="50.459067" lon="17.309612"></trkpt><trkpt lat="50.459247" lon="17.310306"></trkpt><trkpt lat="50.459385" lon="17.311303"></trkpt><trkpt lat="50.459316" lon="17.312231"></trkpt><trkpt lat="50.459304" lon="17.313065"></trkpt><trkpt lat="50.459372" lon="17.313486"></trkpt><trkpt lat="50.459616" lon="17.314624"></trkpt><trkpt lat="50.459764" lon="17.315144"></trkpt><trkpt lat="50.459962" lon="17.316145"></trkpt><trkpt lat="50.460773" lon="17.319224"></trkpt><trkpt lat="50.461178" lon="17.320114"></trkpt><trkpt lat="50.461466" lon="17.320874"></trkpt><trkpt lat="50.46174" lon="17.32182"></trkpt><trkpt lat="50.462772" lon="17.324806"></trkpt><trkpt lat="50.463281" lon="17.32589"></trkpt><trkpt lat="50.464279" lon="17.327712"></trkpt><trkpt lat="50.464298" lon="17.328102"></trkpt><trkpt lat="50.464468" lon="17.328809"></trkpt><trkpt lat="50.464903" lon="17.329528"></trkpt><trkpt lat="50.465162" lon="17.330159"></trkpt><trkpt lat="50.465448" lon="17.331"></trkpt><trkpt lat="50.466051" lon="17.332393"></trkpt><trkpt lat="50.466342" lon="17.332925"></trkpt><trkpt lat="50.466468" lon="17.333221"></trkpt><trkpt lat="50.466516" lon="17.333926"></trkpt><trkpt lat="50.466297" lon="17.335043"></trkpt><trkpt lat="50.466201" lon="17.336516"></trkpt><trkpt lat="50.466302" lon="17.336987"></trkpt><trkpt lat="50.466434" lon="17.337803"></trkpt><trkpt lat="50.465836" lon="17.338272"></trkpt><trkpt lat="50.463143" lon="17.34116"></trkpt><trkpt lat="50.463207" lon="17.342194"></trkpt><trkpt lat="50.463233" lon="17.344367"></trkpt><trkpt lat="50.463019" lon="17.344393"></trkpt><trkpt lat="50.462544" lon="17.344693"></trkpt><trkpt lat="50.462555" lon="17.345027"></trkpt><trkpt lat="50.462674" lon="17.345962"></trkpt><trkpt lat="50.462685" lon="17.346319"></trkpt><trkpt lat="50.462574" lon="17.346586"></trkpt><trkpt lat="50.462332" lon="17.346623"></trkpt><trkpt lat="50.46208" lon="17.346467"></trkpt><trkpt lat="50.461751" lon="17.346445"></trkpt><trkpt lat="50.460111" lon="17.347013"></trkpt><trkpt lat="50.460332" lon="17.347237"></trkpt><trkpt lat="50.460643" lon="17.347673"></trkpt></trkseg></trk></gpx>