<?xml version="1.0" encoding="UTF-8" standalone="no" ?><gpx xmlns="http://www.topografix.com/GPX/1/1" xmlns:gpxx="http://www.garmin.com/xmlschemas/GpxExtensions/v3" ><trk><trkseg><trkpt lat="53.745459" lon="23.198549"></trkpt><trkpt lat="53.745315" lon="23.198261"></trkpt><trkpt lat="53.745097" lon="23.198296"></trkpt><trkpt lat="53.744925" lon="23.198604"></trkpt><trkpt lat="53.74473" lon="23.199023"></trkpt><trkpt lat="53.744515" lon="23.199414"></trkpt><trkpt lat="53.742919" lon="23.203875"></trkpt><trkpt lat="53.743071" lon="23.204737"></trkpt><trkpt lat="53.743104" lon="23.205118"></trkpt><trkpt lat="53.743086" lon="23.205471"></trkpt><trkpt lat="53.743022" lon="23.205826"></trkpt><trkpt lat="53.742797" lon="23.206539"></trkpt><trkpt lat="53.74225" lon="23.207983"></trkpt><trkpt lat="53.741071" lon="23.210571"></trkpt><trkpt lat="53.740601" lon="23.210109"></trkpt><trkpt lat="53.726668" lon="23.19397"></trkpt><trkpt lat="53.726559" lon="23.19366"></trkpt><trkpt lat="53.726196" lon="23.192814"></trkpt><trkpt lat="53.715602" lon="23.167764"></trkpt><trkpt lat="53.704835" lon="23.142441"></trkpt><trkpt lat="53.69945" lon="23.131903"></trkpt><trkpt lat="53.699208" lon="23.131709"></trkpt><trkpt lat="53.698635" lon="23.131335"></trkpt><trkpt lat="53.691155" lon="23.125294"></trkpt><trkpt lat="53.691018" lon="23.124354"></trkpt><trkpt lat="53.690627" lon="23.122305"></trkpt><trkpt lat="53.690377" lon="23.121758"></trkpt><trkpt lat="53.689925" lon="23.12108"></trkpt><trkpt lat="53.676046" lon="23.101191"></trkpt><trkpt lat="53.67562" lon="23.100671"></trkpt><trkpt lat="53.674015" lon="23.099005"></trkpt><trkpt lat="53.673709" lon="23.09877"></trkpt><trkpt lat="53.673069" lon="23.098384"></trkpt><trkpt lat="53.672953" lon="23.098093"></trkpt><trkpt lat="53.673268" lon="23.098291"></trkpt><trkpt lat="53.673517" lon="23.098653"></trkpt><trkpt lat="53.673902" lon="23.098954"></trkpt><trkpt lat="53.675333" lon="23.100359"></trkpt><trkpt lat="53.67586" lon="23.101008"></trkpt><trkpt lat="53.676178" lon="23.101295"></trkpt><trkpt lat="53.676341" lon="23.101026"></trkpt><trkpt lat="53.676701" lon="23.100247"></trkpt><trkpt lat="53.680373" lon="23.090581"></trkpt><trkpt lat="53.680234" lon="23.089961"></trkpt><trkpt lat="53.673294" lon="23.061564"></trkpt><trkpt lat="53.673092" lon="23.061063"></trkpt><trkpt lat="53.671902" lon="23.057525"></trkpt><trkpt lat="53.671814" lon="23.057048"></trkpt><trkpt lat="53.67176" lon="23.056599"></trkpt><trkpt lat="53.671287" lon="23.053724"></trkpt><trkpt lat="53.671209" lon="23.053357"></trkpt><trkpt lat="53.670812" lon="23.052191"></trkpt><trkpt lat="53.670472" lon="23.051615"></trkpt><trkpt lat="53.670276" lon="23.051376"></trkpt><trkpt lat="53.66961" lon="23.050925"></trkpt><trkpt lat="53.669162" lon="23.050748"></trkpt><trkpt lat="53.667636" lon="23.049804"></trkpt><trkpt lat="53.667479" lon="23.049525"></trkpt><trkpt lat="53.667314" lon="23.049275"></trkpt><trkpt lat="53.667081" lon="23.048758"></trkpt><trkpt lat="53.6669" lon="23.04818"></trkpt><trkpt lat="53.666224" lon="23.04537"></trkpt><trkpt lat="53.666179" lon="23.044866"></trkpt><trkpt lat="53.665988" lon="23.043666"></trkpt><trkpt lat="53.665658" lon="23.042841"></trkpt><trkpt lat="53.665112" lon="23.041897"></trkpt><trkpt lat="53.663976" lon="23.039365"></trkpt><trkpt lat="53.663795" lon="23.038433"></trkpt><trkpt lat="53.662867" lon="23.032194"></trkpt><trkpt lat="53.66244" lon="23.028068"></trkpt><trkpt lat="53.662543" lon="23.027157"></trkpt><trkpt lat="53.663028" lon="23.025516"></trkpt><trkpt lat="53.663276" lon="23.024197"></trkpt><trkpt lat="53.663117" lon="23.024459"></trkpt><trkpt lat="53.662988" lon="23.02472"></trkpt><trkpt lat="53.662726" lon="23.024867"></trkpt><trkpt lat="53.662507" lon="23.024806"></trkpt><trkpt lat="53.662414" lon="23.02451"></trkpt><trkpt lat="53.662522" lon="23.024861"></trkpt><trkpt lat="53.662828" lon="23.02559"></trkpt><trkpt lat="53.66302" lon="23.024864"></trkpt><trkpt lat="53.663174" lon="23.024396"></trkpt><trkpt lat="53.663402" lon="23.024223"></trkpt><trkpt lat="53.663625" lon="23.023475"></trkpt><trkpt lat="53.663831" lon="23.022639"></trkpt><trkpt lat="53.664814" lon="23.020235"></trkpt><trkpt lat="53.66508" lon="23.019887"></trkpt><trkpt lat="53.665339" lon="23.019391"></trkpt><trkpt lat="53.665568" lon="23.018798"></trkpt><trkpt lat="53.665904" lon="23.017673"></trkpt><trkpt lat="53.66582" lon="23.016888"></trkpt><trkpt lat="53.665619" lon="23.016499"></trkpt><trkpt lat="53.665105" lon="23.016157"></trkpt><trkpt lat="53.664653" lon="23.015996"></trkpt><trkpt lat="53.660491" lon="23.013833"></trkpt><trkpt lat="53.660255" lon="23.013474"></trkpt><trkpt lat="53.6599" lon="23.013031"></trkpt><trkpt lat="53.65964" lon="23.012533"></trkpt><trkpt lat="53.659259" lon="23.011964"></trkpt><trkpt lat="53.657018" lon="23.008094"></trkpt><trkpt lat="53.656796" lon="23.00732"></trkpt><trkpt lat="53.653378" lon="22.992608"></trkpt><trkpt lat="53.65335" lon="22.991466"></trkpt><trkpt lat="53.652719" lon="22.983558"></trkpt><trkpt lat="53.652513" lon="22.983276"></trkpt><trkpt lat="53.652177" lon="22.982672"></trkpt><trkpt lat="53.652046" lon="22.98232"></trkpt><trkpt lat="53.650669" lon="22.977907"></trkpt><trkpt lat="53.650464" lon="22.977024"></trkpt><trkpt lat="53.646916" lon="22.965136"></trkpt><trkpt lat="53.646485" lon="22.964925"></trkpt><trkpt lat="53.629104" lon="22.956153"></trkpt><trkpt lat="53.618326" lon="22.949148"></trkpt><trkpt lat="53.618133" lon="22.948442"></trkpt><trkpt lat="53.615337" lon="22.940035"></trkpt><trkpt lat="53.615208" lon="22.939709"></trkpt><trkpt lat="53.613696" lon="22.93663"></trkpt><trkpt lat="53.613516" lon="22.936467"></trkpt><trkpt lat="53.61245" lon="22.935317"></trkpt><trkpt lat="53.610016" lon="22.931993"></trkpt><trkpt lat="53.610062" lon="22.931493"></trkpt><trkpt lat="53.610144" lon="22.931143"></trkpt><trkpt lat="53.609954" lon="22.930991"></trkpt><trkpt lat="53.609872" lon="22.930676"></trkpt><trkpt lat="53.609861" lon="22.930083"></trkpt><trkpt lat="53.609667" lon="22.929894"></trkpt><trkpt lat="53.605691" lon="22.926632"></trkpt><trkpt lat="53.605176" lon="22.925859"></trkpt><trkpt lat="53.604807" lon="22.925088"></trkpt><trkpt lat="53.602893" lon="22.921788"></trkpt><trkpt lat="53.602612" lon="22.92146"></trkpt><trkpt lat="53.599222" lon="22.918554"></trkpt><trkpt lat="53.598698" lon="22.91887"></trkpt><trkpt lat="53.598509" lon="22.919085"></trkpt><trkpt lat="53.598243" lon="22.919516"></trkpt><trkpt lat="53.597057" lon="22.921106"></trkpt><trkpt lat="53.596634" lon="22.921462"></trkpt><trkpt lat="53.592714" lon="22.925751"></trkpt><trkpt lat="53.593027" lon="22.926695"></trkpt><trkpt lat="53.593443" lon="22.929122"></trkpt><trkpt lat="53.593043" lon="22.929258"></trkpt><trkpt lat="53.591596" lon="22.929543"></trkpt><trkpt lat="53.591128" lon="22.929543"></trkpt><trkpt lat="53.590574" lon="22.929657"></trkpt><trkpt lat="53.589392" lon="22.930056"></trkpt><trkpt lat="53.589084" lon="22.930226"></trkpt><trkpt lat="53.588156" lon="22.930619"></trkpt><trkpt lat="53.587752" lon="22.930654"></trkpt><trkpt lat="53.587348" lon="22.930551"></trkpt><trkpt lat="53.586967" lon="22.930506"></trkpt><trkpt lat="53.585868" lon="22.930212"></trkpt><trkpt lat="53.585496" lon="22.92966"></trkpt><trkpt lat="53.585325" lon="22.929464"></trkpt><trkpt lat="53.584738" lon="22.929068"></trkpt><trkpt lat="53.584271" lon="22.929236"></trkpt><trkpt lat="53.584054" lon="22.929419"></trkpt><trkpt lat="53.583833" lon="22.929538"></trkpt><trkpt lat="53.583632" lon="22.929554"></trkpt><trkpt lat="53.583155" lon="22.929738"></trkpt><trkpt lat="53.582824" lon="22.929682"></trkpt><trkpt lat="53.582496" lon="22.929411"></trkpt><trkpt lat="53.582027" lon="22.929204"></trkpt><trkpt lat="53.581792" lon="22.929213"></trkpt><trkpt lat="53.581244" lon="22.929363"></trkpt><trkpt lat="53.576878" lon="22.929635"></trkpt><trkpt lat="53.576682" lon="22.929274"></trkpt><trkpt lat="53.576268" lon="22.928728"></trkpt><trkpt lat="53.575896" lon="22.928376"></trkpt><trkpt lat="53.57542" lon="22.928004"></trkpt><trkpt lat="53.57472" lon="22.927241"></trkpt><trkpt lat="53.574406" lon="22.926643"></trkpt><trkpt lat="53.57183" lon="22.922638"></trkpt><trkpt lat="53.571636" lon="22.922539"></trkpt><trkpt lat="53.571274" lon="22.922298"></trkpt><trkpt lat="53.568086" lon="22.920622"></trkpt><trkpt lat="53.567812" lon="22.920686"></trkpt><trkpt lat="53.566187" lon="22.920069"></trkpt><trkpt lat="53.565759" lon="22.919561"></trkpt><trkpt lat="53.564058" lon="22.916902"></trkpt><trkpt lat="53.56388" lon="22.916442"></trkpt><trkpt lat="53.563603" lon="22.915871"></trkpt><trkpt lat="53.563139" lon="22.915108"></trkpt><trkpt lat="53.562962" lon="22.914858"></trkpt><trkpt lat="53.562466" lon="22.914262"></trkpt><trkpt lat="53.562163" lon="22.913954"></trkpt><trkpt lat="53.561862" lon="22.913711"></trkpt><trkpt lat="53.560935" lon="22.912742"></trkpt><trkpt lat="53.560783" lon="22.912203"></trkpt><trkpt lat="53.560514" lon="22.911583"></trkpt><trkpt lat="53.560348" lon="22.911113"></trkpt><trkpt lat="53.560043" lon="22.910829"></trkpt><trkpt lat="53.559583" lon="22.910718"></trkpt><trkpt lat="53.559263" lon="22.910419"></trkpt><trkpt lat="53.558947" lon="22.910024"></trkpt><trkpt lat="53.558342" lon="22.909422"></trkpt><trkpt lat="53.557978" lon="22.909397"></trkpt><trkpt lat="53.557574" lon="22.9091"></trkpt><trkpt lat="53.557475" lon="22.908652"></trkpt><trkpt lat="53.557436" lon="22.907913"></trkpt><trkpt lat="53.557376" lon="22.90737"></trkpt><trkpt lat="53.557164" lon="22.90701"></trkpt><trkpt lat="53.556877" lon="22.906858"></trkpt><trkpt lat="53.556486" lon="22.906784"></trkpt><trkpt lat="53.555476" lon="22.906432"></trkpt><trkpt lat="53.555048" lon="22.905926"></trkpt><trkpt lat="53.554739" lon="22.905652"></trkpt><trkpt lat="53.55447" lon="22.905722"></trkpt><trkpt lat="53.554234" lon="22.905982"></trkpt><trkpt lat="53.553714" lon="22.906681"></trkpt><trkpt lat="53.553459" lon="22.906917"></trkpt><trkpt lat="53.553239" lon="22.907196"></trkpt><trkpt lat="53.553096" lon="22.907469"></trkpt><trkpt lat="53.552851" lon="22.907838"></trkpt><trkpt lat="53.552665" lon="22.908196"></trkpt><trkpt lat="53.552419" lon="22.908595"></trkpt><trkpt lat="53.551827" lon="22.909426"></trkpt><trkpt lat="53.551123" lon="22.910279"></trkpt><trkpt lat="53.550836" lon="22.90962"></trkpt><trkpt lat="53.550675" lon="22.909109"></trkpt><trkpt lat="53.550421" lon="22.908483"></trkpt><trkpt lat="53.547687" lon="22.900516"></trkpt><trkpt lat="53.547479" lon="22.900181"></trkpt><trkpt lat="53.547318" lon="22.899429"></trkpt><trkpt lat="53.547196" lon="22.89904"></trkpt><trkpt lat="53.54484" lon="22.89316"></trkpt><trkpt lat="53.544414" lon="22.892735"></trkpt><trkpt lat="53.543887" lon="22.892071"></trkpt><trkpt lat="53.543714" lon="22.891658"></trkpt><trkpt lat="53.5385" lon="22.881846"></trkpt><trkpt lat="53.538143" lon="22.882263"></trkpt><trkpt lat="53.537539" lon="22.881387"></trkpt><trkpt lat="53.537192" lon="22.880785"></trkpt><trkpt lat="53.528623" lon="22.86342"></trkpt><trkpt lat="53.528421" lon="22.862788"></trkpt><trkpt lat="53.524915" lon="22.854134"></trkpt><trkpt lat="53.524542" lon="22.854398"></trkpt><trkpt lat="53.519808" lon="22.856501"></trkpt><trkpt lat="53.51954" lon="22.855582"></trkpt><trkpt lat="53.518861" lon="22.853646"></trkpt><trkpt lat="53.518374" lon="22.852602"></trkpt><trkpt lat="53.506944" lon="22.828007"></trkpt><trkpt lat="53.506319" lon="22.826427"></trkpt><trkpt lat="53.506126" lon="22.825515"></trkpt><trkpt lat="53.494541" lon="22.769716"></trkpt></trkseg></trk></gpx>