<?xml version="1.0" encoding="UTF-8" standalone="no" ?><gpx xmlns="http://www.topografix.com/GPX/1/1" xmlns:gpxx="http://www.garmin.com/xmlschemas/GpxExtensions/v3" ><trk><trkseg><trkpt lat="54.480117" lon="18.557834"></trkpt><trkpt lat="54.480029" lon="18.559865"></trkpt><trkpt lat="54.480045" lon="18.560932"></trkpt><trkpt lat="54.48011" lon="18.561842"></trkpt><trkpt lat="54.480058" lon="18.562583"></trkpt><trkpt lat="54.479969" lon="18.563232"></trkpt><trkpt lat="54.479973" lon="18.563702"></trkpt><trkpt lat="54.480184" lon="18.564069"></trkpt><trkpt lat="54.480571" lon="18.564156"></trkpt><trkpt lat="54.480894" lon="18.564178"></trkpt><trkpt lat="54.481083" lon="18.564569"></trkpt><trkpt lat="54.481079" lon="18.565053"></trkpt><trkpt lat="54.481436" lon="18.565095"></trkpt><trkpt lat="54.48113" lon="18.56504"></trkpt><trkpt lat="54.481107" lon="18.564318"></trkpt><trkpt lat="54.480899" lon="18.563785"></trkpt><trkpt lat="54.48053" lon="18.563395"></trkpt><trkpt lat="54.480116" lon="18.562603"></trkpt><trkpt lat="54.48011" lon="18.56174"></trkpt><trkpt lat="54.480037" lon="18.560689"></trkpt><trkpt lat="54.48003" lon="18.559408"></trkpt><trkpt lat="54.480077" lon="18.558666"></trkpt><trkpt lat="54.480043" lon="18.557404"></trkpt><trkpt lat="54.479918" lon="18.556715"></trkpt><trkpt lat="54.479826" lon="18.555982"></trkpt><trkpt lat="54.479649" lon="18.55558"></trkpt></trkseg></trk></gpx>