<?xml version="1.0" encoding="UTF-8" standalone="no" ?><gpx xmlns="http://www.topografix.com/GPX/1/1" xmlns:gpxx="http://www.garmin.com/xmlschemas/GpxExtensions/v3" ><trk><trkseg><trkpt lat="53.746058" lon="18.023464"></trkpt><trkpt lat="53.745854" lon="18.023118"></trkpt><trkpt lat="53.745652" lon="18.022838"></trkpt><trkpt lat="53.745485" lon="18.022495"></trkpt><trkpt lat="53.745281" lon="18.022138"></trkpt><trkpt lat="53.744884" lon="18.021652"></trkpt><trkpt lat="53.744302" lon="18.022239"></trkpt><trkpt lat="53.743822" lon="18.022487"></trkpt><trkpt lat="53.741708" lon="18.024065"></trkpt><trkpt lat="53.741335" lon="18.024568"></trkpt><trkpt lat="53.740877" lon="18.025396"></trkpt><trkpt lat="53.739678" lon="18.027188"></trkpt><trkpt lat="53.739407" lon="18.027381"></trkpt><trkpt lat="53.737784" lon="18.028771"></trkpt><trkpt lat="53.737564" lon="18.029009"></trkpt><trkpt lat="53.73665" lon="18.029762"></trkpt><trkpt lat="53.735876" lon="18.030554"></trkpt><trkpt lat="53.735459" lon="18.031101"></trkpt><trkpt lat="53.735123" lon="18.031765"></trkpt><trkpt lat="53.734875" lon="18.03237"></trkpt><trkpt lat="53.734395" lon="18.033325"></trkpt><trkpt lat="53.733929" lon="18.033931"></trkpt><trkpt lat="53.733048" lon="18.034866"></trkpt><trkpt lat="53.732662" lon="18.035112"></trkpt><trkpt lat="53.732363" lon="18.035258"></trkpt><trkpt lat="53.731921" lon="18.035416"></trkpt><trkpt lat="53.731439" lon="18.035735"></trkpt><trkpt lat="53.730844" lon="18.036468"></trkpt><trkpt lat="53.730339" lon="18.037246"></trkpt><trkpt lat="53.729425" lon="18.039104"></trkpt><trkpt lat="53.729209" lon="18.040054"></trkpt><trkpt lat="53.729114" lon="18.040392"></trkpt><trkpt lat="53.728754" lon="18.041107"></trkpt><trkpt lat="53.728394" lon="18.041691"></trkpt><trkpt lat="53.728039" lon="18.042122"></trkpt><trkpt lat="53.726911" lon="18.043298"></trkpt><trkpt lat="53.725153" lon="18.044582"></trkpt><trkpt lat="53.724948" lon="18.043954"></trkpt><trkpt lat="53.724861" lon="18.042993"></trkpt><trkpt lat="53.724599" lon="18.041086"></trkpt><trkpt lat="53.724392" lon="18.040271"></trkpt><trkpt lat="53.724161" lon="18.039675"></trkpt><trkpt lat="53.723719" lon="18.038954"></trkpt><trkpt lat="53.723158" lon="18.037841"></trkpt><trkpt lat="53.722672" lon="18.036721"></trkpt><trkpt lat="53.722567" lon="18.035708"></trkpt><trkpt lat="53.722437" lon="18.035324"></trkpt><trkpt lat="53.722144" lon="18.034715"></trkpt><trkpt lat="53.72183" lon="18.033932"></trkpt><trkpt lat="53.72149" lon="18.033359"></trkpt><trkpt lat="53.721114" lon="18.032506"></trkpt><trkpt lat="53.721046" lon="18.032154"></trkpt><trkpt lat="53.721022" lon="18.031799"></trkpt><trkpt lat="53.720895" lon="18.030689"></trkpt><trkpt lat="53.720515" lon="18.029692"></trkpt><trkpt lat="53.720286" lon="18.028791"></trkpt><trkpt lat="53.71976" lon="18.027747"></trkpt><trkpt lat="53.718749" lon="18.025139"></trkpt><trkpt lat="53.718446" lon="18.024179"></trkpt><trkpt lat="53.718427" lon="18.023781"></trkpt><trkpt lat="53.718409" lon="18.020903"></trkpt><trkpt lat="53.718269" lon="18.018226"></trkpt><trkpt lat="53.718198" lon="18.01754"></trkpt><trkpt lat="53.717925" lon="18.016244"></trkpt><trkpt lat="53.717586" lon="18.015442"></trkpt><trkpt lat="53.717461" lon="18.015014"></trkpt><trkpt lat="53.717233" lon="18.013971"></trkpt><trkpt lat="53.717026" lon="18.012772"></trkpt><trkpt lat="53.716927" lon="18.011978"></trkpt><trkpt lat="53.716931" lon="18.011601"></trkpt><trkpt lat="53.71696" lon="18.011228"></trkpt><trkpt lat="53.716885" lon="18.01068"></trkpt><trkpt lat="53.716415" lon="18.010437"></trkpt><trkpt lat="53.715857" lon="18.010469"></trkpt><trkpt lat="53.715633" lon="18.010394"></trkpt><trkpt lat="53.715441" lon="18.01021"></trkpt><trkpt lat="53.715263" lon="18.010009"></trkpt><trkpt lat="53.715122" lon="18.009357"></trkpt><trkpt lat="53.714708" lon="18.007878"></trkpt><trkpt lat="53.714075" lon="18.003432"></trkpt><trkpt lat="53.714121" lon="18.001963"></trkpt><trkpt lat="53.714011" lon="17.991393"></trkpt><trkpt lat="53.713837" lon="17.990613"></trkpt><trkpt lat="53.713234" lon="17.987132"></trkpt><trkpt lat="53.713101" lon="17.985972"></trkpt><trkpt lat="53.71312" lon="17.984782"></trkpt><trkpt lat="53.713217" lon="17.984272"></trkpt><trkpt lat="53.713756" lon="17.980292"></trkpt><trkpt lat="53.713781" lon="17.979282"></trkpt><trkpt lat="53.713709" lon="17.978889"></trkpt><trkpt lat="53.713572" lon="17.978593"></trkpt><trkpt lat="53.713133" lon="17.97737"></trkpt><trkpt lat="53.713344" lon="17.976655"></trkpt><trkpt lat="53.713876" lon="17.974258"></trkpt><trkpt lat="53.713784" lon="17.973302"></trkpt><trkpt lat="53.713689" lon="17.971237"></trkpt><trkpt lat="53.713382" lon="17.968565"></trkpt><trkpt lat="53.712692" lon="17.958656"></trkpt><trkpt lat="53.712679" lon="17.957725"></trkpt><trkpt lat="53.712625" lon="17.956881"></trkpt><trkpt lat="53.712622" lon="17.956469"></trkpt><trkpt lat="53.71268" lon="17.955465"></trkpt><trkpt lat="53.712601" lon="17.952823"></trkpt><trkpt lat="53.712374" lon="17.951804"></trkpt><trkpt lat="53.711185" lon="17.944351"></trkpt><trkpt lat="53.711118" lon="17.944029"></trkpt><trkpt lat="53.710806" lon="17.941939"></trkpt><trkpt lat="53.710921" lon="17.940914"></trkpt><trkpt lat="53.711334" lon="17.940936"></trkpt><trkpt lat="53.711859" lon="17.941122"></trkpt><trkpt lat="53.718493" lon="17.944313"></trkpt><trkpt lat="53.719532" lon="17.944606"></trkpt><trkpt lat="53.719646" lon="17.944179"></trkpt><trkpt lat="53.72025" lon="17.942472"></trkpt><trkpt lat="53.720658" lon="17.941734"></trkpt><trkpt lat="53.720933" lon="17.94144"></trkpt><trkpt lat="53.721099" lon="17.941153"></trkpt><trkpt lat="53.721458" lon="17.940268"></trkpt><trkpt lat="53.721721" lon="17.939438"></trkpt><trkpt lat="53.722114" lon="17.937718"></trkpt><trkpt lat="53.722241" lon="17.936546"></trkpt><trkpt lat="53.723119" lon="17.922363"></trkpt><trkpt lat="53.723042" lon="17.919711"></trkpt><trkpt lat="53.722991" lon="17.919335"></trkpt><trkpt lat="53.72302" lon="17.917958"></trkpt><trkpt lat="53.722868" lon="17.91739"></trkpt><trkpt lat="53.722781" lon="17.916788"></trkpt><trkpt lat="53.722754" lon="17.915998"></trkpt><trkpt lat="53.722821" lon="17.912313"></trkpt><trkpt lat="53.722915" lon="17.9113"></trkpt><trkpt lat="53.723069" lon="17.910405"></trkpt><trkpt lat="53.723079" lon="17.909997"></trkpt><trkpt lat="53.723032" lon="17.909344"></trkpt><trkpt lat="53.722822" lon="17.908753"></trkpt><trkpt lat="53.722673" lon="17.908443"></trkpt><trkpt lat="53.72241" lon="17.908171"></trkpt><trkpt lat="53.721301" lon="17.906701"></trkpt><trkpt lat="53.721286" lon="17.906142"></trkpt><trkpt lat="53.72131" lon="17.905417"></trkpt><trkpt lat="53.721286" lon="17.903668"></trkpt><trkpt lat="53.721333" lon="17.9033"></trkpt><trkpt lat="53.721401" lon="17.902969"></trkpt><trkpt lat="53.721512" lon="17.902686"></trkpt><trkpt lat="53.721713" lon="17.902696"></trkpt><trkpt lat="53.721551" lon="17.902503"></trkpt><trkpt lat="53.721601" lon="17.902054"></trkpt><trkpt lat="53.721625" lon="17.901345"></trkpt><trkpt lat="53.721662" lon="17.901715"></trkpt><trkpt lat="53.721624" lon="17.901222"></trkpt><trkpt lat="53.721628" lon="17.900884"></trkpt><trkpt lat="53.721612" lon="17.90125"></trkpt><trkpt lat="53.72161" lon="17.902198"></trkpt><trkpt lat="53.721789" lon="17.902386"></trkpt><trkpt lat="53.722079" lon="17.902357"></trkpt><trkpt lat="53.723053" lon="17.901889"></trkpt><trkpt lat="53.723368" lon="17.901269"></trkpt><trkpt lat="53.723498" lon="17.900944"></trkpt><trkpt lat="53.723701" lon="17.900518"></trkpt><trkpt lat="53.723851" lon="17.900296"></trkpt><trkpt lat="53.724036" lon="17.900441"></trkpt><trkpt lat="53.724169" lon="17.899753"></trkpt><trkpt lat="53.724095" lon="17.899277"></trkpt><trkpt lat="53.723941" lon="17.898671"></trkpt><trkpt lat="53.720435" lon="17.881497"></trkpt><trkpt lat="53.72046" lon="17.880802"></trkpt><trkpt lat="53.720523" lon="17.879996"></trkpt><trkpt lat="53.720559" lon="17.878795"></trkpt><trkpt lat="53.720612" lon="17.878111"></trkpt><trkpt lat="53.720698" lon="17.877655"></trkpt><trkpt lat="53.72155" lon="17.870572"></trkpt><trkpt lat="53.721417" lon="17.870317"></trkpt><trkpt lat="53.721052" lon="17.869874"></trkpt><trkpt lat="53.720617" lon="17.869905"></trkpt><trkpt lat="53.720227" lon="17.870279"></trkpt><trkpt lat="53.719244" lon="17.871021"></trkpt><trkpt lat="53.718549" lon="17.871119"></trkpt><trkpt lat="53.713762" lon="17.871157"></trkpt><trkpt lat="53.713303" lon="17.87139"></trkpt><trkpt lat="53.710812" lon="17.872093"></trkpt><trkpt lat="53.710845" lon="17.871696"></trkpt><trkpt lat="53.711534" lon="17.866469"></trkpt><trkpt lat="53.712392" lon="17.861639"></trkpt><trkpt lat="53.712879" lon="17.859504"></trkpt><trkpt lat="53.713718" lon="17.856613"></trkpt><trkpt lat="53.713994" lon="17.856438"></trkpt><trkpt lat="53.714129" lon="17.855773"></trkpt><trkpt lat="53.716219" lon="17.84746"></trkpt><trkpt lat="53.716377" lon="17.847155"></trkpt><trkpt lat="53.716506" lon="17.846464"></trkpt><trkpt lat="53.716598" lon="17.846159"></trkpt><trkpt lat="53.716852" lon="17.845724"></trkpt><trkpt lat="53.717156" lon="17.845356"></trkpt><trkpt lat="53.717384" lon="17.845021"></trkpt><trkpt lat="53.71765" lon="17.844475"></trkpt><trkpt lat="53.717852" lon="17.843938"></trkpt><trkpt lat="53.718492" lon="17.841882"></trkpt><trkpt lat="53.7184" lon="17.841527"></trkpt><trkpt lat="53.718276" lon="17.841256"></trkpt><trkpt lat="53.71764" lon="17.839551"></trkpt><trkpt lat="53.717509" lon="17.838812"></trkpt><trkpt lat="53.717195" lon="17.836293"></trkpt><trkpt lat="53.717576" lon="17.836045"></trkpt><trkpt lat="53.72082" lon="17.833444"></trkpt><trkpt lat="53.721234" lon="17.833021"></trkpt><trkpt lat="53.732493" lon="17.823501"></trkpt><trkpt lat="53.733019" lon="17.823252"></trkpt><trkpt lat="53.733254" lon="17.823086"></trkpt><trkpt lat="53.734434" lon="17.822075"></trkpt><trkpt lat="53.737187" lon="17.819246"></trkpt><trkpt lat="53.7375" lon="17.818543"></trkpt><trkpt lat="53.737688" lon="17.81805"></trkpt><trkpt lat="53.738066" lon="17.816577"></trkpt><trkpt lat="53.738177" lon="17.815529"></trkpt><trkpt lat="53.738248" lon="17.814413"></trkpt><trkpt lat="53.738322" lon="17.810361"></trkpt><trkpt lat="53.738292" lon="17.810016"></trkpt><trkpt lat="53.738108" lon="17.809165"></trkpt><trkpt lat="53.737878" lon="17.807681"></trkpt><trkpt lat="53.737887" lon="17.807037"></trkpt><trkpt lat="53.738061" lon="17.806197"></trkpt><trkpt lat="53.738269" lon="17.805477"></trkpt><trkpt lat="53.73932" lon="17.802482"></trkpt><trkpt lat="53.739527" lon="17.802144"></trkpt><trkpt lat="53.739663" lon="17.801849"></trkpt><trkpt lat="53.74018" lon="17.800994"></trkpt><trkpt lat="53.745631" lon="17.789939"></trkpt><trkpt lat="53.745973" lon="17.788529"></trkpt><trkpt lat="53.746334" lon="17.787631"></trkpt><trkpt lat="53.746491" lon="17.787394"></trkpt><trkpt lat="53.747019" lon="17.786928"></trkpt><trkpt lat="53.747579" lon="17.786614"></trkpt><trkpt lat="53.748224" lon="17.786147"></trkpt><trkpt lat="53.74854" lon="17.785684"></trkpt><trkpt lat="53.748786" lon="17.784898"></trkpt><trkpt lat="53.74884" lon="17.783938"></trkpt><trkpt lat="53.748842" lon="17.782877"></trkpt><trkpt lat="53.748889" lon="17.781984"></trkpt><trkpt lat="53.749195" lon="17.780835"></trkpt><trkpt lat="53.749605" lon="17.779882"></trkpt><trkpt lat="53.751185" lon="17.775481"></trkpt><trkpt lat="53.751453" lon="17.774537"></trkpt><trkpt lat="53.751566" lon="17.774232"></trkpt><trkpt lat="53.751679" lon="17.773815"></trkpt><trkpt lat="53.751967" lon="17.774178"></trkpt><trkpt lat="53.752314" lon="17.774688"></trkpt><trkpt lat="53.752627" lon="17.775222"></trkpt><trkpt lat="53.752821" lon="17.775744"></trkpt><trkpt lat="53.75303" lon="17.77608"></trkpt><trkpt lat="53.753195" lon="17.776747"></trkpt><trkpt lat="53.759363" lon="17.804693"></trkpt><trkpt lat="53.76595" lon="17.832649"></trkpt><trkpt lat="53.771931" lon="17.861361"></trkpt><trkpt lat="53.778456" lon="17.890665"></trkpt><trkpt lat="53.785114" lon="17.919935"></trkpt><trkpt lat="53.790817" lon="17.948652"></trkpt><trkpt lat="53.790955" lon="17.94919"></trkpt><trkpt lat="53.790921" lon="17.949544"></trkpt><trkpt lat="53.790425" lon="17.949512"></trkpt><trkpt lat="53.789855" lon="17.949346"></trkpt><trkpt lat="53.789465" lon="17.949303"></trkpt><trkpt lat="53.789205" lon="17.949782"></trkpt><trkpt lat="53.789117" lon="17.950561"></trkpt><trkpt lat="53.788694" lon="17.953261"></trkpt><trkpt lat="53.788521" lon="17.953469"></trkpt><trkpt lat="53.788152" lon="17.954412"></trkpt><trkpt lat="53.787916" lon="17.955159"></trkpt><trkpt lat="53.787975" lon="17.956675"></trkpt><trkpt lat="53.787951" lon="17.961386"></trkpt><trkpt lat="53.788098" lon="17.964486"></trkpt><trkpt lat="53.788285" lon="17.96539"></trkpt><trkpt lat="53.789117" lon="17.970769"></trkpt><trkpt lat="53.788735" lon="17.971277"></trkpt><trkpt lat="53.788533" lon="17.971634"></trkpt><trkpt lat="53.788451" lon="17.971981"></trkpt><trkpt lat="53.788542" lon="17.97316"></trkpt><trkpt lat="53.788554" lon="17.974101"></trkpt><trkpt lat="53.788904" lon="17.980512"></trkpt><trkpt lat="53.789598" lon="17.98122"></trkpt><trkpt lat="53.790167" lon="17.981681"></trkpt><trkpt lat="53.790357" lon="17.981928"></trkpt><trkpt lat="53.790246" lon="17.982268"></trkpt><trkpt lat="53.786509" lon="17.991625"></trkpt><trkpt lat="53.786034" lon="17.991831"></trkpt><trkpt lat="53.782163" lon="17.994318"></trkpt><trkpt lat="53.781563" lon="17.995227"></trkpt><trkpt lat="53.772654" lon="18.006837"></trkpt><trkpt lat="53.77188" lon="18.00743"></trkpt><trkpt lat="53.771214" lon="18.008172"></trkpt><trkpt lat="53.77058" lon="18.008994"></trkpt><trkpt lat="53.767719" lon="18.011956"></trkpt><trkpt lat="53.767035" lon="18.012423"></trkpt><trkpt lat="53.765176" lon="18.01401"></trkpt><trkpt lat="53.760471" lon="18.017139"></trkpt><trkpt lat="53.756452" lon="18.019026"></trkpt><trkpt lat="53.755808" lon="18.018903"></trkpt><trkpt lat="53.754454" lon="18.018446"></trkpt><trkpt lat="53.753792" lon="18.018031"></trkpt><trkpt lat="53.750518" lon="18.016655"></trkpt><trkpt lat="53.749104" lon="18.017005"></trkpt><trkpt lat="53.748145" lon="18.017458"></trkpt><trkpt lat="53.74757" lon="18.018361"></trkpt><trkpt lat="53.746416" lon="18.019921"></trkpt><trkpt lat="53.745817" lon="18.020557"></trkpt><trkpt lat="53.744979" lon="18.021607"></trkpt><trkpt lat="53.745567" lon="18.022741"></trkpt><trkpt lat="53.746174" lon="18.023431"></trkpt></trkseg></trk></gpx>