<?xml version="1.0" encoding="UTF-8" standalone="no" ?><gpx xmlns="http://www.topografix.com/GPX/1/1" xmlns:gpxx="http://www.garmin.com/xmlschemas/GpxExtensions/v3" ><trk><trkseg><trkpt lat="53.964944" lon="18.396319"></trkpt><trkpt lat="53.964885" lon="18.39673"></trkpt><trkpt lat="53.964443" lon="18.39691"></trkpt><trkpt lat="53.963898" lon="18.39696"></trkpt><trkpt lat="53.953616" lon="18.399735"></trkpt><trkpt lat="53.953423" lon="18.400279"></trkpt><trkpt lat="53.953261" lon="18.400631"></trkpt><trkpt lat="53.953054" lon="18.400793"></trkpt><trkpt lat="53.95266" lon="18.40067"></trkpt><trkpt lat="53.952479" lon="18.401008"></trkpt><trkpt lat="53.952315" lon="18.402031"></trkpt><trkpt lat="53.951728" lon="18.404669"></trkpt><trkpt lat="53.951469" lon="18.405197"></trkpt><trkpt lat="53.951222" lon="18.405607"></trkpt><trkpt lat="53.951078" lon="18.405938"></trkpt><trkpt lat="53.951068" lon="18.40638"></trkpt><trkpt lat="53.951122" lon="18.407144"></trkpt><trkpt lat="53.951499" lon="18.420421"></trkpt><trkpt lat="53.951465" lon="18.422588"></trkpt><trkpt lat="53.951487" lon="18.423166"></trkpt><trkpt lat="53.951466" lon="18.424347"></trkpt><trkpt lat="53.951581" lon="18.42531"></trkpt><trkpt lat="53.951893" lon="18.426166"></trkpt><trkpt lat="53.952386" lon="18.428042"></trkpt><trkpt lat="53.952475" lon="18.429124"></trkpt><trkpt lat="53.952446" lon="18.430815"></trkpt><trkpt lat="53.952219" lon="18.43145"></trkpt><trkpt lat="53.952171" lon="18.432469"></trkpt><trkpt lat="53.952434" lon="18.433383"></trkpt><trkpt lat="53.952444" lon="18.433859"></trkpt><trkpt lat="53.952254" lon="18.434182"></trkpt><trkpt lat="53.951847" lon="18.435199"></trkpt><trkpt lat="53.951893" lon="18.435824"></trkpt><trkpt lat="53.951951" lon="18.436229"></trkpt><trkpt lat="53.952074" lon="18.43683"></trkpt><trkpt lat="53.952206" lon="18.438271"></trkpt><trkpt lat="53.951921" lon="18.438328"></trkpt><trkpt lat="53.951588" lon="18.438311"></trkpt><trkpt lat="53.95134" lon="18.438239"></trkpt><trkpt lat="53.95108" lon="18.438107"></trkpt><trkpt lat="53.946621" lon="18.436479"></trkpt><trkpt lat="53.946424" lon="18.436522"></trkpt><trkpt lat="53.946172" lon="18.436544"></trkpt><trkpt lat="53.945185" lon="18.436779"></trkpt><trkpt lat="53.944698" lon="18.436978"></trkpt><trkpt lat="53.944287" lon="18.436915"></trkpt><trkpt lat="53.944019" lon="18.43682"></trkpt><trkpt lat="53.943594" lon="18.436615"></trkpt><trkpt lat="53.942166" lon="18.436136"></trkpt><trkpt lat="53.941923" lon="18.436126"></trkpt><trkpt lat="53.940733" lon="18.435892"></trkpt><trkpt lat="53.940443" lon="18.435794"></trkpt><trkpt lat="53.939792" lon="18.435286"></trkpt><trkpt lat="53.939823" lon="18.434684"></trkpt><trkpt lat="53.939673" lon="18.434386"></trkpt><trkpt lat="53.939032" lon="18.434163"></trkpt><trkpt lat="53.937514" lon="18.433832"></trkpt><trkpt lat="53.936976" lon="18.434695"></trkpt><trkpt lat="53.936627" lon="18.434833"></trkpt><trkpt lat="53.93642" lon="18.43464"></trkpt><trkpt lat="53.933956" lon="18.432757"></trkpt><trkpt lat="53.933756" lon="18.432773"></trkpt><trkpt lat="53.933238" lon="18.433036"></trkpt><trkpt lat="53.931801" lon="18.433582"></trkpt><trkpt lat="53.929492" lon="18.433068"></trkpt><trkpt lat="53.929075" lon="18.433034"></trkpt><trkpt lat="53.927426" lon="18.43337"></trkpt><trkpt lat="53.926909" lon="18.433807"></trkpt><trkpt lat="53.92371" lon="18.437017"></trkpt><trkpt lat="53.922814" lon="18.438121"></trkpt><trkpt lat="53.92236" lon="18.438966"></trkpt><trkpt lat="53.920868" lon="18.442346"></trkpt><trkpt lat="53.92065" lon="18.443674"></trkpt><trkpt lat="53.919698" lon="18.447564"></trkpt><trkpt lat="53.919424" lon="18.447388"></trkpt><trkpt lat="53.918638" lon="18.447041"></trkpt><trkpt lat="53.918506" lon="18.447434"></trkpt><trkpt lat="53.918417" lon="18.447772"></trkpt><trkpt lat="53.918122" lon="18.44795"></trkpt><trkpt lat="53.917897" lon="18.447982"></trkpt><trkpt lat="53.917696" lon="18.447816"></trkpt><trkpt lat="53.917196" lon="18.448033"></trkpt><trkpt lat="53.916856" lon="18.448061"></trkpt><trkpt lat="53.916418" lon="18.44836"></trkpt><trkpt lat="53.916001" lon="18.448742"></trkpt><trkpt lat="53.915755" lon="18.448861"></trkpt><trkpt lat="53.91513" lon="18.448966"></trkpt><trkpt lat="53.914654" lon="18.448791"></trkpt><trkpt lat="53.914425" lon="18.448563"></trkpt><trkpt lat="53.914197" lon="18.448399"></trkpt><trkpt lat="53.913904" lon="18.448235"></trkpt><trkpt lat="53.913498" lon="18.448149"></trkpt><trkpt lat="53.912396" lon="18.448086"></trkpt><trkpt lat="53.912108" lon="18.448144"></trkpt><trkpt lat="53.908346" lon="18.449447"></trkpt><trkpt lat="53.90786" lon="18.449552"></trkpt><trkpt lat="53.902135" lon="18.449096"></trkpt><trkpt lat="53.900896" lon="18.448567"></trkpt><trkpt lat="53.900777" lon="18.447614"></trkpt><trkpt lat="53.900751" lon="18.447237"></trkpt><trkpt lat="53.900759" lon="18.446859"></trkpt><trkpt lat="53.900575" lon="18.446276"></trkpt><trkpt lat="53.900075" lon="18.445534"></trkpt><trkpt lat="53.899935" lon="18.445013"></trkpt><trkpt lat="53.899909" lon="18.444478"></trkpt><trkpt lat="53.899499" lon="18.440081"></trkpt><trkpt lat="53.899362" lon="18.439579"></trkpt><trkpt lat="53.899183" lon="18.439172"></trkpt><trkpt lat="53.899078" lon="18.438886"></trkpt><trkpt lat="53.899073" lon="18.438385"></trkpt><trkpt lat="53.899227" lon="18.437863"></trkpt><trkpt lat="53.89956" lon="18.436366"></trkpt><trkpt lat="53.899543" lon="18.435868"></trkpt><trkpt lat="53.899476" lon="18.435384"></trkpt><trkpt lat="53.89919" lon="18.43527"></trkpt><trkpt lat="53.898796" lon="18.435272"></trkpt><trkpt lat="53.898104" lon="18.434738"></trkpt><trkpt lat="53.897359" lon="18.433639"></trkpt><trkpt lat="53.897286" lon="18.43322"></trkpt><trkpt lat="53.897435" lon="18.431959"></trkpt><trkpt lat="53.897573" lon="18.43118"></trkpt><trkpt lat="53.897645" lon="18.430547"></trkpt><trkpt lat="53.898196" lon="18.427559"></trkpt><trkpt lat="53.898391" lon="18.427086"></trkpt><trkpt lat="53.899332" lon="18.425256"></trkpt><trkpt lat="53.899745" lon="18.424685"></trkpt><trkpt lat="53.900482" lon="18.423504"></trkpt><trkpt lat="53.900078" lon="18.423582"></trkpt><trkpt lat="53.898657" lon="18.423665"></trkpt><trkpt lat="53.898443" lon="18.423468"></trkpt><trkpt lat="53.897981" lon="18.422884"></trkpt><trkpt lat="53.897647" lon="18.422248"></trkpt><trkpt lat="53.897459" lon="18.421369"></trkpt><trkpt lat="53.896958" lon="18.420994"></trkpt><trkpt lat="53.896213" lon="18.42055"></trkpt><trkpt lat="53.895924" lon="18.420932"></trkpt><trkpt lat="53.894658" lon="18.422357"></trkpt><trkpt lat="53.894284" lon="18.422516"></trkpt><trkpt lat="53.89301" lon="18.423226"></trkpt><trkpt lat="53.892039" lon="18.424117"></trkpt><trkpt lat="53.891553" lon="18.424785"></trkpt><trkpt lat="53.887878" lon="18.428977"></trkpt><trkpt lat="53.887662" lon="18.428489"></trkpt><trkpt lat="53.887213" lon="18.427699"></trkpt><trkpt lat="53.88697" lon="18.427398"></trkpt><trkpt lat="53.886627" lon="18.427084"></trkpt><trkpt lat="53.886229" lon="18.426964"></trkpt><trkpt lat="53.885773" lon="18.426752"></trkpt><trkpt lat="53.885437" lon="18.426409"></trkpt><trkpt lat="53.885064" lon="18.42577"></trkpt><trkpt lat="53.884923" lon="18.425475"></trkpt><trkpt lat="53.884666" lon="18.425117"></trkpt><trkpt lat="53.884291" lon="18.424868"></trkpt><trkpt lat="53.883865" lon="18.424682"></trkpt><trkpt lat="53.883016" lon="18.424191"></trkpt><trkpt lat="53.882563" lon="18.423705"></trkpt><trkpt lat="53.881584" lon="18.42248"></trkpt><trkpt lat="53.881239" lon="18.422109"></trkpt><trkpt lat="53.88095" lon="18.421562"></trkpt><trkpt lat="53.880332" lon="18.420091"></trkpt><trkpt lat="53.880071" lon="18.419056"></trkpt><trkpt lat="53.879934" lon="18.418053"></trkpt><trkpt lat="53.878052" lon="18.408214"></trkpt><trkpt lat="53.877601" lon="18.407445"></trkpt><trkpt lat="53.87676" lon="18.406317"></trkpt><trkpt lat="53.876601" lon="18.406071"></trkpt><trkpt lat="53.876112" lon="18.405519"></trkpt><trkpt lat="53.87443" lon="18.403943"></trkpt><trkpt lat="53.87372" lon="18.403549"></trkpt><trkpt lat="53.870982" lon="18.402559"></trkpt><trkpt lat="53.870674" lon="18.402585"></trkpt><trkpt lat="53.868356" lon="18.403076"></trkpt><trkpt lat="53.867595" lon="18.40314"></trkpt><trkpt lat="53.863173" lon="18.402198"></trkpt><trkpt lat="53.862463" lon="18.40187"></trkpt><trkpt lat="53.859707" lon="18.401154"></trkpt><trkpt lat="53.858399" lon="18.400973"></trkpt><trkpt lat="53.851236" lon="18.400993"></trkpt><trkpt lat="53.851268" lon="18.400555"></trkpt><trkpt lat="53.851265" lon="18.398993"></trkpt><trkpt lat="53.851335" lon="18.398047"></trkpt><trkpt lat="53.851412" lon="18.397657"></trkpt><trkpt lat="53.851535" lon="18.397391"></trkpt><trkpt lat="53.852056" lon="18.396765"></trkpt><trkpt lat="53.859473" lon="18.389223"></trkpt><trkpt lat="53.860006" lon="18.388829"></trkpt><trkpt lat="53.866428" lon="18.38502"></trkpt><trkpt lat="53.867" lon="18.384874"></trkpt><trkpt lat="53.870851" lon="18.383356"></trkpt><trkpt lat="53.871234" lon="18.382465"></trkpt><trkpt lat="53.875538" lon="18.37382"></trkpt><trkpt lat="53.875856" lon="18.373314"></trkpt><trkpt lat="53.877894" lon="18.369271"></trkpt><trkpt lat="53.878374" lon="18.367916"></trkpt><trkpt lat="53.882266" lon="18.358628"></trkpt><trkpt lat="53.882637" lon="18.358439"></trkpt><trkpt lat="53.882806" lon="18.358235"></trkpt><trkpt lat="53.883257" lon="18.357232"></trkpt><trkpt lat="53.884479" lon="18.353823"></trkpt><trkpt lat="53.884581" lon="18.353092"></trkpt><trkpt lat="53.884952" lon="18.351132"></trkpt><trkpt lat="53.885442" lon="18.350215"></trkpt><trkpt lat="53.885954" lon="18.349962"></trkpt><trkpt lat="53.886598" lon="18.349944"></trkpt><trkpt lat="53.88769" lon="18.349768"></trkpt><trkpt lat="53.888288" lon="18.350205"></trkpt><trkpt lat="53.888475" lon="18.350489"></trkpt><trkpt lat="53.888777" lon="18.35116"></trkpt><trkpt lat="53.888847" lon="18.35173"></trkpt><trkpt lat="53.889071" lon="18.352733"></trkpt><trkpt lat="53.889284" lon="18.353174"></trkpt><trkpt lat="53.897375" lon="18.371119"></trkpt><trkpt lat="53.901465" lon="18.378821"></trkpt><trkpt lat="53.901901" lon="18.379409"></trkpt><trkpt lat="53.903861" lon="18.381564"></trkpt><trkpt lat="53.904307" lon="18.381914"></trkpt><trkpt lat="53.905185" lon="18.382875"></trkpt><trkpt lat="53.905711" lon="18.383707"></trkpt><trkpt lat="53.915528" lon="18.398371"></trkpt><trkpt lat="53.915459" lon="18.398713"></trkpt><trkpt lat="53.915069" lon="18.399592"></trkpt><trkpt lat="53.91476" lon="18.399951"></trkpt><trkpt lat="53.914535" lon="18.400257"></trkpt><trkpt lat="53.91445" lon="18.400627"></trkpt><trkpt lat="53.914568" lon="18.40139"></trkpt><trkpt lat="53.914757" lon="18.401653"></trkpt><trkpt lat="53.914964" lon="18.401727"></trkpt><trkpt lat="53.915733" lon="18.401768"></trkpt><trkpt lat="53.916353" lon="18.401876"></trkpt><trkpt lat="53.916667" lon="18.402227"></trkpt><trkpt lat="53.916876" lon="18.402553"></trkpt><trkpt lat="53.918214" lon="18.404322"></trkpt><trkpt lat="53.918604" lon="18.404402"></trkpt><trkpt lat="53.932265" lon="18.406895"></trkpt><trkpt lat="53.932503" lon="18.406725"></trkpt><trkpt lat="53.932553" lon="18.406127"></trkpt><trkpt lat="53.932667" lon="18.405508"></trkpt><trkpt lat="53.932854" lon="18.405289"></trkpt><trkpt lat="53.93317" lon="18.404748"></trkpt><trkpt lat="53.933596" lon="18.404162"></trkpt><trkpt lat="53.934169" lon="18.403525"></trkpt><trkpt lat="53.934518" lon="18.404422"></trkpt><trkpt lat="53.935193" lon="18.405381"></trkpt><trkpt lat="53.935623" lon="18.405456"></trkpt><trkpt lat="53.938249" lon="18.405502"></trkpt><trkpt lat="53.938588" lon="18.405353"></trkpt><trkpt lat="53.951748" lon="18.399452"></trkpt><trkpt lat="53.952008" lon="18.399512"></trkpt><trkpt lat="53.952216" lon="18.399771"></trkpt><trkpt lat="53.952481" lon="18.40043"></trkpt><trkpt lat="53.952709" lon="18.400733"></trkpt><trkpt lat="53.952996" lon="18.400833"></trkpt><trkpt lat="53.953242" lon="18.400677"></trkpt><trkpt lat="53.953394" lon="18.400356"></trkpt><trkpt lat="53.953568" lon="18.399885"></trkpt><trkpt lat="53.953895" lon="18.398762"></trkpt><trkpt lat="53.954186" lon="18.397941"></trkpt><trkpt lat="53.954472" lon="18.397618"></trkpt><trkpt lat="53.955011" lon="18.397187"></trkpt><trkpt lat="53.955313" lon="18.397223"></trkpt><trkpt lat="53.955583" lon="18.397298"></trkpt><trkpt lat="53.965097" lon="18.395973"></trkpt></trkseg></trk></gpx>