<?xml version="1.0" encoding="UTF-8" standalone="no" ?><gpx xmlns="http://www.topografix.com/GPX/1/1" xmlns:gpxx="http://www.garmin.com/xmlschemas/GpxExtensions/v3" ><trk><trkseg><trkpt lat="54.4587680139" lon="18.5571763851"></trkpt><trkpt lat="54.4587393478" lon="18.5586649273"></trkpt><trkpt lat="54.4584747311" lon="18.5589675978"></trkpt><trkpt lat="54.4584725518" lon="18.5594772175"></trkpt><trkpt lat="54.4584085979" lon="18.5602238774"></trkpt><trkpt lat="54.4584106933" lon="18.560744226"></trkpt><trkpt lat="54.458509516" lon="18.561574202"></trkpt><trkpt lat="54.4585634116" lon="18.5623844806"></trkpt><trkpt lat="54.4588782359" lon="18.5626310762"></trkpt><trkpt lat="54.4591812417" lon="18.562481543"></trkpt><trkpt lat="54.4587832689" lon="18.5627350956"></trkpt><trkpt lat="54.4584990386" lon="18.5628340859"></trkpt><trkpt lat="54.4587913994" lon="18.5626475047"></trkpt><trkpt lat="54.459085688" lon="18.562392192"></trkpt><trkpt lat="54.4593705051" lon="18.5624372028"></trkpt><trkpt lat="54.4614502229" lon="18.561650645"></trkpt><trkpt lat="54.4615984987" lon="18.5611204896"></trkpt><trkpt lat="54.4617834873" lon="18.5606588144"></trkpt><trkpt lat="54.4621847291" lon="18.5605732352"></trkpt><trkpt lat="54.4632197265" lon="18.5606092773"></trkpt><trkpt lat="54.4637133367" lon="18.5607060883"></trkpt><trkpt lat="54.4639664702" lon="18.5608828627"></trkpt><trkpt lat="54.4644035865" lon="18.5611043964"></trkpt><trkpt lat="54.4656712655" lon="18.5620630346"></trkpt><trkpt lat="54.465959603" lon="18.5621086322"></trkpt><trkpt lat="54.465627512" lon="18.5618845839"></trkpt><trkpt lat="54.4621560629" lon="18.5602137353"></trkpt><trkpt lat="54.4617899414" lon="18.5601790342"></trkpt><trkpt lat="54.4614791404" lon="18.5600398108"></trkpt><trkpt lat="54.4606989529" lon="18.5598634556"></trkpt><trkpt lat="54.4604049157" lon="18.5598507151"></trkpt><trkpt lat="54.4600480981" lon="18.5597803909"></trkpt><trkpt lat="54.4597014226" lon="18.5597898625"></trkpt><trkpt lat="54.4593393244" lon="18.5598638747"></trkpt><trkpt lat="54.4590117596" lon="18.5600051936"></trkpt><trkpt lat="54.4587516692" lon="18.559567742"></trkpt><trkpt lat="54.4586356636" lon="18.5591409355"></trkpt><trkpt lat="54.4588649925" lon="18.5588277876"></trkpt><trkpt lat="54.4588778168" lon="18.558327388"></trkpt><trkpt lat="54.4587912317" lon="18.5577210411"></trkpt><trkpt lat="54.458848061" lon="18.5571498144"></trkpt><trkpt lat="54.4588407688" lon="18.5565616563"></trkpt><trkpt lat="54.4593007676" lon="18.556252867"></trkpt></trkseg></trk></gpx>