<?xml version="1.0" encoding="UTF-8" standalone="no" ?><gpx xmlns="http://www.topografix.com/GPX/1/1" xmlns:gpxx="http://www.garmin.com/xmlschemas/GpxExtensions/v3" ><trk><trkseg><trkpt lat="53.771664" lon="19.852203"></trkpt><trkpt lat="53.771867" lon="19.851994"></trkpt><trkpt lat="53.771486" lon="19.85128"></trkpt><trkpt lat="53.771097" lon="19.850797"></trkpt><trkpt lat="53.770995" lon="19.850467"></trkpt><trkpt lat="53.770809" lon="19.84934"></trkpt><trkpt lat="53.770682" lon="19.84874"></trkpt><trkpt lat="53.770474" lon="19.848979"></trkpt><trkpt lat="53.770139" lon="19.849506"></trkpt><trkpt lat="53.769904" lon="19.849311"></trkpt><trkpt lat="53.769712" lon="19.849012"></trkpt><trkpt lat="53.769395" lon="19.848644"></trkpt><trkpt lat="53.769075" lon="19.848199"></trkpt><trkpt lat="53.769599" lon="19.847108"></trkpt><trkpt lat="53.770035" lon="19.845983"></trkpt><trkpt lat="53.769871" lon="19.845056"></trkpt><trkpt lat="53.769702" lon="19.84479"></trkpt><trkpt lat="53.768993" lon="19.844452"></trkpt><trkpt lat="53.767508" lon="19.843289"></trkpt><trkpt lat="53.767215" lon="19.842348"></trkpt><trkpt lat="53.766923" lon="19.842036"></trkpt><trkpt lat="53.766512" lon="19.842019"></trkpt><trkpt lat="53.766032" lon="19.842145"></trkpt><trkpt lat="53.76569" lon="19.842325"></trkpt><trkpt lat="53.76532" lon="19.841396"></trkpt><trkpt lat="53.764875" lon="19.840079"></trkpt><trkpt lat="53.764627" lon="19.839096"></trkpt><trkpt lat="53.764531" lon="19.836477"></trkpt><trkpt lat="53.764327" lon="19.834046"></trkpt><trkpt lat="53.764255" lon="19.832028"></trkpt><trkpt lat="53.764163" lon="19.832357"></trkpt><trkpt lat="53.763817" lon="19.832455"></trkpt><trkpt lat="53.763559" lon="19.832432"></trkpt><trkpt lat="53.763397" lon="19.832159"></trkpt><trkpt lat="53.763302" lon="19.831836"></trkpt><trkpt lat="53.763158" lon="19.830904"></trkpt><trkpt lat="53.763059" lon="19.829889"></trkpt><trkpt lat="53.763035" lon="19.828591"></trkpt><trkpt lat="53.763071" lon="19.827138"></trkpt><trkpt lat="53.7634" lon="19.825694"></trkpt><trkpt lat="53.763549" lon="19.824698"></trkpt><trkpt lat="53.763505" lon="19.823953"></trkpt><trkpt lat="53.763433" lon="19.823595"></trkpt><trkpt lat="53.763098" lon="19.822607"></trkpt><trkpt lat="53.762902" lon="19.822235"></trkpt><trkpt lat="53.762876" lon="19.821869"></trkpt><trkpt lat="53.763188" lon="19.82062"></trkpt><trkpt lat="53.763615" lon="19.819606"></trkpt><trkpt lat="53.763639" lon="19.819235"></trkpt><trkpt lat="53.763571" lon="19.818807"></trkpt><trkpt lat="53.763456" lon="19.817564"></trkpt><trkpt lat="53.763415" lon="19.816413"></trkpt><trkpt lat="53.763467" lon="19.808552"></trkpt><trkpt lat="53.763557" lon="19.80746"></trkpt><trkpt lat="53.765182" lon="19.79469"></trkpt><trkpt lat="53.76611" lon="19.789413"></trkpt><trkpt lat="53.766256" lon="19.788969"></trkpt><trkpt lat="53.767265" lon="19.785091"></trkpt><trkpt lat="53.767518" lon="19.783526"></trkpt><trkpt lat="53.767961" lon="19.78199"></trkpt><trkpt lat="53.770025" lon="19.772834"></trkpt><trkpt lat="53.770079" lon="19.771648"></trkpt><trkpt lat="53.770438" lon="19.76926"></trkpt><trkpt lat="53.77084" lon="19.767847"></trkpt><trkpt lat="53.771379" lon="19.765542"></trkpt><trkpt lat="53.77171" lon="19.764453"></trkpt><trkpt lat="53.774889" lon="19.756156"></trkpt><trkpt lat="53.77797" lon="19.746709"></trkpt><trkpt lat="53.778144" lon="19.745625"></trkpt><trkpt lat="53.779325" lon="19.734556"></trkpt><trkpt lat="53.779183" lon="19.733789"></trkpt><trkpt lat="53.778947" lon="19.732835"></trkpt><trkpt lat="53.776163" lon="19.718236"></trkpt><trkpt lat="53.776297" lon="19.717738"></trkpt><trkpt lat="53.778719" lon="19.706119"></trkpt><trkpt lat="53.778679" lon="19.70507"></trkpt><trkpt lat="53.778875" lon="19.693509"></trkpt><trkpt lat="53.779055" lon="19.693126"></trkpt><trkpt lat="53.780772" lon="19.689967"></trkpt><trkpt lat="53.781019" lon="19.690254"></trkpt><trkpt lat="53.780877" lon="19.690524"></trkpt><trkpt lat="53.781009" lon="19.690261"></trkpt><trkpt lat="53.78078" lon="19.690049"></trkpt><trkpt lat="53.780811" lon="19.689629"></trkpt><trkpt lat="53.780999" lon="19.689277"></trkpt><trkpt lat="53.786692" lon="19.676103"></trkpt><trkpt lat="53.78675" lon="19.675759"></trkpt><trkpt lat="53.786864" lon="19.67547"></trkpt><trkpt lat="53.787405" lon="19.674372"></trkpt><trkpt lat="53.788416" lon="19.671639"></trkpt><trkpt lat="53.788554" lon="19.671171"></trkpt><trkpt lat="53.789005" lon="19.670605"></trkpt><trkpt lat="53.789627" lon="19.66994"></trkpt><trkpt lat="53.790617" lon="19.669113"></trkpt><trkpt lat="53.791042" lon="19.668846"></trkpt><trkpt lat="53.795919" lon="19.66508"></trkpt><trkpt lat="53.795915" lon="19.664597"></trkpt><trkpt lat="53.795606" lon="19.663584"></trkpt><trkpt lat="53.795485" lon="19.663019"></trkpt><trkpt lat="53.795295" lon="19.661721"></trkpt><trkpt lat="53.795567" lon="19.660417"></trkpt><trkpt lat="53.795911" lon="19.65952"></trkpt><trkpt lat="53.796437" lon="19.65838"></trkpt><trkpt lat="53.797673" lon="19.654805"></trkpt><trkpt lat="53.797891" lon="19.653943"></trkpt><trkpt lat="53.798047" lon="19.652868"></trkpt><trkpt lat="53.798207" lon="19.651205"></trkpt><trkpt lat="53.798548" lon="19.649831"></trkpt><trkpt lat="53.798795" lon="19.649287"></trkpt><trkpt lat="53.798955" lon="19.649074"></trkpt><trkpt lat="53.799674" lon="19.648464"></trkpt><trkpt lat="53.800436" lon="19.648093"></trkpt><trkpt lat="53.801085" lon="19.647878"></trkpt><trkpt lat="53.80253" lon="19.646843"></trkpt><trkpt lat="53.803033" lon="19.646028"></trkpt><trkpt lat="53.803666" lon="19.644404"></trkpt><trkpt lat="53.803727" lon="19.643844"></trkpt><trkpt lat="53.804279" lon="19.640952"></trkpt><trkpt lat="53.804663" lon="19.640229"></trkpt><trkpt lat="53.805193" lon="19.639645"></trkpt><trkpt lat="53.805739" lon="19.639245"></trkpt><trkpt lat="53.807011" lon="19.638539"></trkpt><trkpt lat="53.813568" lon="19.633909"></trkpt><trkpt lat="53.813974" lon="19.633035"></trkpt><trkpt lat="53.816115" lon="19.627616"></trkpt><trkpt lat="53.816247" lon="19.626888"></trkpt><trkpt lat="53.816571" lon="19.626195"></trkpt><trkpt lat="53.81674" lon="19.625943"></trkpt><trkpt lat="53.817844" lon="19.624586"></trkpt><trkpt lat="53.818263" lon="19.624185"></trkpt><trkpt lat="53.83365" lon="19.611883"></trkpt><trkpt lat="53.834063" lon="19.611948"></trkpt><trkpt lat="53.842833" lon="19.612031"></trkpt><trkpt lat="53.843511" lon="19.611127"></trkpt><trkpt lat="53.843968" lon="19.610601"></trkpt><trkpt lat="53.844697" lon="19.610327"></trkpt><trkpt lat="53.845251" lon="19.610196"></trkpt><trkpt lat="53.845419" lon="19.610008"></trkpt><trkpt lat="53.845554" lon="19.609279"></trkpt><trkpt lat="53.845834" lon="19.609008"></trkpt><trkpt lat="53.84612" lon="19.608515"></trkpt><trkpt lat="53.846306" lon="19.607719"></trkpt><trkpt lat="53.846391" lon="19.607159"></trkpt><trkpt lat="53.846347" lon="19.606523"></trkpt><trkpt lat="53.846251" lon="19.605947"></trkpt><trkpt lat="53.84621" lon="19.60545"></trkpt><trkpt lat="53.846143" lon="19.605056"></trkpt><trkpt lat="53.845879" lon="19.602208"></trkpt><trkpt lat="53.845881" lon="19.600499"></trkpt><trkpt lat="53.845968" lon="19.599686"></trkpt><trkpt lat="53.84611" lon="19.59945"></trkpt><trkpt lat="53.846967" lon="19.59891"></trkpt><trkpt lat="53.847235" lon="19.598678"></trkpt><trkpt lat="53.847483" lon="19.598272"></trkpt><trkpt lat="53.847777" lon="19.597676"></trkpt><trkpt lat="53.849991" lon="19.592413"></trkpt><trkpt lat="53.850048" lon="19.591541"></trkpt><trkpt lat="53.850072" lon="19.59043"></trkpt><trkpt lat="53.850039" lon="19.589224"></trkpt><trkpt lat="53.850977" lon="19.559296"></trkpt><trkpt lat="53.851553" lon="19.55806"></trkpt><trkpt lat="53.851847" lon="19.556914"></trkpt><trkpt lat="53.852011" lon="19.555716"></trkpt><trkpt lat="53.853061" lon="19.549965"></trkpt><trkpt lat="53.853519" lon="19.548831"></trkpt><trkpt lat="53.854407" lon="19.546024"></trkpt><trkpt lat="53.854275" lon="19.545142"></trkpt><trkpt lat="53.854116" lon="19.544387"></trkpt><trkpt lat="53.854054" lon="19.543767"></trkpt><trkpt lat="53.853956" lon="19.543186"></trkpt><trkpt lat="53.853876" lon="19.542302"></trkpt><trkpt lat="53.853914" lon="19.541508"></trkpt><trkpt lat="53.854545" lon="19.534745"></trkpt><trkpt lat="53.85496" lon="19.531741"></trkpt><trkpt lat="53.85504" lon="19.530873"></trkpt><trkpt lat="53.855169" lon="19.530242"></trkpt><trkpt lat="53.855192" lon="19.529479"></trkpt><trkpt lat="53.855338" lon="19.527597"></trkpt><trkpt lat="53.855391" lon="19.527158"></trkpt><trkpt lat="53.855862" lon="19.520604"></trkpt><trkpt lat="53.855917" lon="19.520197"></trkpt><trkpt lat="53.861248" lon="19.492178"></trkpt><trkpt lat="53.861723" lon="19.491907"></trkpt><trkpt lat="53.862193" lon="19.491418"></trkpt><trkpt lat="53.862399" lon="19.491137"></trkpt><trkpt lat="53.862672" lon="19.490864"></trkpt><trkpt lat="53.863075" lon="19.490328"></trkpt><trkpt lat="53.865192" lon="19.488204"></trkpt><trkpt lat="53.865503" lon="19.488013"></trkpt><trkpt lat="53.867386" lon="19.487137"></trkpt><trkpt lat="53.867779" lon="19.487182"></trkpt><trkpt lat="53.868016" lon="19.487254"></trkpt><trkpt lat="53.86831" lon="19.487307"></trkpt><trkpt lat="53.875454" lon="19.487741"></trkpt><trkpt lat="53.876497" lon="19.487549"></trkpt><trkpt lat="53.876681" lon="19.487731"></trkpt><trkpt lat="53.877114" lon="19.488396"></trkpt><trkpt lat="53.877307" lon="19.488639"></trkpt><trkpt lat="53.878001" lon="19.488723"></trkpt><trkpt lat="53.878898" lon="19.48895"></trkpt><trkpt lat="53.879445" lon="19.489924"></trkpt><trkpt lat="53.8799" lon="19.490377"></trkpt><trkpt lat="53.883045" lon="19.492854"></trkpt><trkpt lat="53.883411" lon="19.492928"></trkpt><trkpt lat="53.892489" lon="19.4959"></trkpt><trkpt lat="53.893427" lon="19.496558"></trkpt><trkpt lat="53.895278" lon="19.497585"></trkpt><trkpt lat="53.895206" lon="19.497049"></trkpt><trkpt lat="53.89515" lon="19.496111"></trkpt><trkpt lat="53.895154" lon="19.495459"></trkpt><trkpt lat="53.895247" lon="19.49466"></trkpt><trkpt lat="53.895315" lon="19.493208"></trkpt><trkpt lat="53.895186" lon="19.49216"></trkpt><trkpt lat="53.895145" lon="19.491479"></trkpt><trkpt lat="53.895182" lon="19.490713"></trkpt><trkpt lat="53.895394" lon="19.489023"></trkpt><trkpt lat="53.895481" lon="19.487621"></trkpt><trkpt lat="53.895412" lon="19.484902"></trkpt><trkpt lat="53.89545" lon="19.48446"></trkpt><trkpt lat="53.895426" lon="19.482817"></trkpt><trkpt lat="53.895351" lon="19.482126"></trkpt><trkpt lat="53.895254" lon="19.481599"></trkpt><trkpt lat="53.895209" lon="19.481165"></trkpt><trkpt lat="53.895041" lon="19.477105"></trkpt><trkpt lat="53.89512" lon="19.475929"></trkpt><trkpt lat="53.896655" lon="19.461984"></trkpt><trkpt lat="53.896806" lon="19.461064"></trkpt><trkpt lat="53.896812" lon="19.460261"></trkpt><trkpt lat="53.896709" lon="19.459676"></trkpt><trkpt lat="53.893856" lon="19.4373"></trkpt><trkpt lat="53.894053" lon="19.435921"></trkpt><trkpt lat="53.893977" lon="19.435029"></trkpt><trkpt lat="53.893849" lon="19.434609"></trkpt><trkpt lat="53.893622" lon="19.433716"></trkpt><trkpt lat="53.893606" lon="19.433108"></trkpt><trkpt lat="53.893854" lon="19.43199"></trkpt><trkpt lat="53.894295" lon="19.431002"></trkpt><trkpt lat="53.894408" lon="19.430628"></trkpt><trkpt lat="53.894486" lon="19.430232"></trkpt><trkpt lat="53.894548" lon="19.429459"></trkpt><trkpt lat="53.895249" lon="19.424229"></trkpt><trkpt lat="53.896852" lon="19.4166"></trkpt><trkpt lat="53.897263" lon="19.415716"></trkpt><trkpt lat="53.897694" lon="19.414529"></trkpt><trkpt lat="53.899217" lon="19.4114"></trkpt><trkpt lat="53.901074" lon="19.406935"></trkpt><trkpt lat="53.905544" lon="19.397642"></trkpt><trkpt lat="53.908404" lon="19.392695"></trkpt><trkpt lat="53.908839" lon="19.392258"></trkpt><trkpt lat="53.909135" lon="19.392113"></trkpt><trkpt lat="53.909673" lon="19.391588"></trkpt><trkpt lat="53.909837" lon="19.39138"></trkpt><trkpt lat="53.909998" lon="19.391104"></trkpt><trkpt lat="53.910426" lon="19.390259"></trkpt><trkpt lat="53.911552" lon="19.387632"></trkpt><trkpt lat="53.912487" lon="19.384994"></trkpt><trkpt lat="53.91374" lon="19.382024"></trkpt><trkpt lat="53.914027" lon="19.381152"></trkpt><trkpt lat="53.914515" lon="19.380504"></trkpt><trkpt lat="53.915239" lon="19.379687"></trkpt><trkpt lat="53.918961" lon="19.37473"></trkpt><trkpt lat="53.919317" lon="19.373781"></trkpt><trkpt lat="53.922056" lon="19.365166"></trkpt><trkpt lat="53.922054" lon="19.36452"></trkpt><trkpt lat="53.92198" lon="19.362979"></trkpt><trkpt lat="53.922024" lon="19.362096"></trkpt><trkpt lat="53.922012" lon="19.361344"></trkpt><trkpt lat="53.921236" lon="19.349196"></trkpt><trkpt lat="53.920913" lon="19.34841"></trkpt><trkpt lat="53.921223" lon="19.34755"></trkpt><trkpt lat="53.921428" lon="19.347224"></trkpt><trkpt lat="53.921851" lon="19.346955"></trkpt><trkpt lat="53.922184" lon="19.346837"></trkpt><trkpt lat="53.922573" lon="19.346822"></trkpt><trkpt lat="53.922991" lon="19.346931"></trkpt><trkpt lat="53.923446" lon="19.347107"></trkpt><trkpt lat="53.924024" lon="19.34667"></trkpt><trkpt lat="53.924179" lon="19.346403"></trkpt><trkpt lat="53.925052" lon="19.345131"></trkpt><trkpt lat="53.925458" lon="19.344795"></trkpt><trkpt lat="53.925958" lon="19.344483"></trkpt><trkpt lat="53.926349" lon="19.344127"></trkpt><trkpt lat="53.926685" lon="19.343685"></trkpt><trkpt lat="53.928111" lon="19.341484"></trkpt><trkpt lat="53.928275" lon="19.34119"></trkpt><trkpt lat="53.929386" lon="19.338818"></trkpt><trkpt lat="53.92955" lon="19.33839"></trkpt><trkpt lat="53.929726" lon="19.337848"></trkpt><trkpt lat="53.93074" lon="19.333737"></trkpt><trkpt lat="53.930778" lon="19.333378"></trkpt><trkpt lat="53.93079" lon="19.332849"></trkpt><trkpt lat="53.930745" lon="19.332051"></trkpt><trkpt lat="53.930675" lon="19.326768"></trkpt><trkpt lat="53.930698" lon="19.326275"></trkpt><trkpt lat="53.93086" lon="19.32505"></trkpt><trkpt lat="53.931115" lon="19.323865"></trkpt><trkpt lat="53.931761" lon="19.319594"></trkpt><trkpt lat="53.931673" lon="19.318366"></trkpt><trkpt lat="53.931213" lon="19.302432"></trkpt><trkpt lat="53.931371" lon="19.300769"></trkpt><trkpt lat="53.931847" lon="19.298532"></trkpt><trkpt lat="53.933475" lon="19.292413"></trkpt><trkpt lat="53.933851" lon="19.291296"></trkpt><trkpt lat="53.938772" lon="19.273869"></trkpt><trkpt lat="53.938876" lon="19.273178"></trkpt><trkpt lat="53.93916" lon="19.27199"></trkpt><trkpt lat="53.939388" lon="19.271367"></trkpt><trkpt lat="53.940084" lon="19.268722"></trkpt><trkpt lat="53.940243" lon="19.267814"></trkpt><trkpt lat="53.942072" lon="19.2537"></trkpt><trkpt lat="53.942188" lon="19.252329"></trkpt><trkpt lat="53.946689" lon="19.219338"></trkpt><trkpt lat="53.947194" lon="19.218353"></trkpt><trkpt lat="53.947741" lon="19.217432"></trkpt><trkpt lat="53.948157" lon="19.217275"></trkpt><trkpt lat="53.949728" lon="19.216471"></trkpt><trkpt lat="53.949935" lon="19.216299"></trkpt><trkpt lat="53.95221" lon="19.213603"></trkpt><trkpt lat="53.952407" lon="19.213016"></trkpt><trkpt lat="53.952867" lon="19.212241"></trkpt><trkpt lat="53.953087" lon="19.211706"></trkpt><trkpt lat="53.953338" lon="19.211192"></trkpt><trkpt lat="53.953586" lon="19.21091"></trkpt><trkpt lat="53.955049" lon="19.208869"></trkpt><trkpt lat="53.955598" lon="19.208389"></trkpt><trkpt lat="53.955988" lon="19.208522"></trkpt><trkpt lat="53.956391" lon="19.208757"></trkpt><trkpt lat="53.964458" lon="19.212159"></trkpt><trkpt lat="53.965087" lon="19.211674"></trkpt><trkpt lat="53.967561" lon="19.209377"></trkpt><trkpt lat="53.970422" lon="19.206216"></trkpt><trkpt lat="53.970827" lon="19.20548"></trkpt><trkpt lat="53.977228" lon="19.191826"></trkpt><trkpt lat="53.977481" lon="19.190787"></trkpt><trkpt lat="53.978232" lon="19.188587"></trkpt><trkpt lat="53.978511" lon="19.188245"></trkpt><trkpt lat="53.97874" lon="19.188008"></trkpt><trkpt lat="53.98581" lon="19.1791"></trkpt><trkpt lat="53.986213" lon="19.177281"></trkpt><trkpt lat="53.986398" lon="19.175571"></trkpt><trkpt lat="53.986671" lon="19.169863"></trkpt><trkpt lat="53.986516" lon="19.169189"></trkpt><trkpt lat="53.986371" lon="19.167292"></trkpt><trkpt lat="53.986534" lon="19.166356"></trkpt><trkpt lat="53.986708" lon="19.164722"></trkpt><trkpt lat="53.986652" lon="19.164175"></trkpt><trkpt lat="53.986515" lon="19.163492"></trkpt><trkpt lat="53.986552" lon="19.162037"></trkpt><trkpt lat="53.986693" lon="19.160307"></trkpt><trkpt lat="53.986792" lon="19.157816"></trkpt><trkpt lat="53.986738" lon="19.157274"></trkpt><trkpt lat="53.986772" lon="19.154242"></trkpt><trkpt lat="53.986605" lon="19.153106"></trkpt><trkpt lat="53.986325" lon="19.152298"></trkpt><trkpt lat="53.986284" lon="19.151959"></trkpt><trkpt lat="53.986318" lon="19.150881"></trkpt><trkpt lat="53.986274" lon="19.148435"></trkpt><trkpt lat="53.986296" lon="19.149289"></trkpt><trkpt lat="53.986599" lon="19.145393"></trkpt><trkpt lat="53.98654" lon="19.144095"></trkpt><trkpt lat="53.986735" lon="19.138962"></trkpt><trkpt lat="53.986877" lon="19.138233"></trkpt><trkpt lat="53.986901" lon="19.13754"></trkpt><trkpt lat="53.986786" lon="19.136906"></trkpt><trkpt lat="53.98659" lon="19.136203"></trkpt><trkpt lat="53.985735" lon="19.132241"></trkpt><trkpt lat="53.985754" lon="19.131726"></trkpt><trkpt lat="53.985743" lon="19.129296"></trkpt><trkpt lat="53.98567" lon="19.128463"></trkpt><trkpt lat="53.984881" lon="19.122658"></trkpt><trkpt lat="53.983962" lon="19.121529"></trkpt><trkpt lat="53.98227" lon="19.11909"></trkpt><trkpt lat="53.98258" lon="19.11873"></trkpt><trkpt lat="53.984343" lon="19.11632"></trkpt><trkpt lat="54.006453" lon="19.085737"></trkpt><trkpt lat="54.006955" lon="19.084626"></trkpt><trkpt lat="54.011252" lon="19.073133"></trkpt><trkpt lat="54.011484" lon="19.071872"></trkpt><trkpt lat="54.012792" lon="19.066363"></trkpt><trkpt lat="54.013026" lon="19.065958"></trkpt><trkpt lat="54.018886" lon="19.05765"></trkpt><trkpt lat="54.019675" lon="19.056995"></trkpt><trkpt lat="54.020816" lon="19.05587"></trkpt><trkpt lat="54.021223" lon="19.055275"></trkpt><trkpt lat="54.022155" lon="19.053613"></trkpt><trkpt lat="54.028381" lon="19.044174"></trkpt><trkpt lat="54.028604" lon="19.043919"></trkpt><trkpt lat="54.034831" lon="19.037836"></trkpt><trkpt lat="54.03529" lon="19.037744"></trkpt><trkpt lat="54.035477" lon="19.037622"></trkpt><trkpt lat="54.035621" lon="19.037379"></trkpt><trkpt lat="54.035782" lon="19.037178"></trkpt><trkpt lat="54.035969" lon="19.036995"></trkpt><trkpt lat="54.036061" lon="19.036617"></trkpt><trkpt lat="54.0362" lon="19.036327"></trkpt><trkpt lat="54.036409" lon="19.036259"></trkpt><trkpt lat="54.036497" lon="19.03568"></trkpt><trkpt lat="54.036842" lon="19.034122"></trkpt><trkpt lat="54.036743" lon="19.033806"></trkpt><trkpt lat="54.036868" lon="19.03345"></trkpt><trkpt lat="54.036942" lon="19.032967"></trkpt><trkpt lat="54.036904" lon="19.032547"></trkpt><trkpt lat="54.037056" lon="19.032296"></trkpt><trkpt lat="54.037385" lon="19.032056"></trkpt><trkpt lat="54.037539" lon="19.031816"></trkpt><trkpt lat="54.037799" lon="19.031542"></trkpt><trkpt lat="54.038048" lon="19.031569"></trkpt><trkpt lat="54.038346" lon="19.030998"></trkpt><trkpt lat="54.038691" lon="19.029952"></trkpt><trkpt lat="54.038809" lon="19.029406"></trkpt><trkpt lat="54.039005" lon="19.028912"></trkpt><trkpt lat="54.039207" lon="19.028812"></trkpt><trkpt lat="54.039" lon="19.028809"></trkpt><trkpt lat="54.038868" lon="19.029076"></trkpt><trkpt lat="54.038666" lon="19.029988"></trkpt><trkpt lat="54.03842" lon="19.030141"></trkpt><trkpt lat="54.038217" lon="19.030068"></trkpt><trkpt lat="54.036926" lon="19.029811"></trkpt><trkpt lat="54.036924" lon="19.030715"></trkpt><trkpt lat="54.036701" lon="19.031139"></trkpt><trkpt lat="54.036698" lon="19.031588"></trkpt><trkpt lat="54.036447" lon="19.031804"></trkpt><trkpt lat="54.036109" lon="19.031881"></trkpt><trkpt lat="54.035882" lon="19.031996"></trkpt><trkpt lat="54.035525" lon="19.032549"></trkpt><trkpt lat="54.035517" lon="19.033446"></trkpt><trkpt lat="54.035462" lon="19.032494"></trkpt><trkpt lat="54.035451" lon="19.033321"></trkpt><trkpt lat="54.035569" lon="19.037338"></trkpt><trkpt lat="54.035843" lon="19.037713"></trkpt><trkpt lat="54.035907" lon="19.038042"></trkpt><trkpt lat="54.036271" lon="19.038256"></trkpt><trkpt lat="54.036524" lon="19.038499"></trkpt><trkpt lat="54.036648" lon="19.038833"></trkpt><trkpt lat="54.036664" lon="19.039204"></trkpt><trkpt lat="54.036625" lon="19.039685"></trkpt><trkpt lat="54.03625" lon="19.04077"></trkpt><trkpt lat="54.036035" lon="19.041298"></trkpt><trkpt lat="54.035845" lon="19.041538"></trkpt><trkpt lat="54.035691" lon="19.042097"></trkpt><trkpt lat="54.035762" lon="19.042614"></trkpt></trkseg></trk></gpx>