<?xml version="1.0" encoding="UTF-8" standalone="no" ?><gpx xmlns="http://www.topografix.com/GPX/1/1" xmlns:gpxx="http://www.garmin.com/xmlschemas/GpxExtensions/v3" ><trk><trkseg><trkpt lat="53.6577113718" lon="17.3712700233"></trkpt><trkpt lat="53.6576995533" lon="17.3708019778"></trkpt><trkpt lat="53.6574264709" lon="17.3703978863"></trkpt><trkpt lat="53.6571538914" lon="17.3702332657"></trkpt><trkpt lat="53.6573969666" lon="17.3704377841"></trkpt><trkpt lat="53.6576129682" lon="17.3707764968"></trkpt><trkpt lat="53.6573885847" lon="17.370474413"></trkpt><trkpt lat="53.6575919297" lon="17.3708719667"></trkpt><trkpt lat="53.6585705169" lon="17.3724715691"></trkpt><trkpt lat="53.6651154421" lon="17.3811320029"></trkpt><trkpt lat="53.6658955459" lon="17.3814425524"></trkpt><trkpt lat="53.6664666049" lon="17.3814454861"></trkpt><trkpt lat="53.6674669851" lon="17.3816872202"></trkpt><trkpt lat="53.6681215279" lon="17.382070357"></trkpt><trkpt lat="53.6690235045" lon="17.3823449481"></trkpt><trkpt lat="53.6887500621" lon="17.3877284769"></trkpt><trkpt lat="53.6896532122" lon="17.3878237791"></trkpt><trkpt lat="53.709932724" lon="17.3897610884"></trkpt><trkpt lat="53.7137988769" lon="17.3908288591"></trkpt><trkpt lat="53.7144122645" lon="17.3914169334"></trkpt><trkpt lat="53.7149502151" lon="17.3921915889"></trkpt><trkpt lat="53.7153699808" lon="17.3929202277"></trkpt><trkpt lat="53.7156150676" lon="17.3932509776"></trkpt><trkpt lat="53.7158939335" lon="17.3935216293"></trkpt><trkpt lat="53.7162413634" lon="17.3939322587"></trkpt><trkpt lat="53.7162354123" lon="17.3944051657"></trkpt><trkpt lat="53.7165421899" lon="17.3949208204"></trkpt><trkpt lat="53.7223084364" lon="17.4029019848"></trkpt><trkpt lat="53.7227323093" lon="17.4032976944"></trkpt><trkpt lat="53.7233604491" lon="17.4037535023"></trkpt><trkpt lat="53.7237652112" lon="17.4039695039"></trkpt><trkpt lat="53.7283718213" lon="17.4056612235"></trkpt><trkpt lat="53.7290902343" lon="17.4057211541"></trkpt><trkpt lat="53.7497481052" lon="17.4105361383"></trkpt><trkpt lat="53.7503013946" lon="17.4107634556"></trkpt><trkpt lat="53.7511975039" lon="17.4109796248"></trkpt><trkpt lat="53.7519326806" lon="17.4109618552"></trkpt><trkpt lat="53.7526969425" lon="17.410632195"></trkpt><trkpt lat="53.7536830734" lon="17.4098423682"></trkpt><trkpt lat="53.7547904905" lon="17.4086590949"></trkpt><trkpt lat="53.7549836934" lon="17.4082171172"></trkpt><trkpt lat="53.7551354058" lon="17.4072672799"></trkpt><trkpt lat="53.7555630505" lon="17.4055209104"></trkpt><trkpt lat="53.7557611149" lon="17.4043544848"></trkpt><trkpt lat="53.7559648789" lon="17.4024058599"></trkpt><trkpt lat="53.7567477487" lon="17.3979309294"></trkpt><trkpt lat="53.7570136227" lon="17.3972176295"></trkpt><trkpt lat="53.757144548" lon="17.3962479271"></trkpt><trkpt lat="53.757360382" lon="17.395364223"></trkpt><trkpt lat="53.75755216" lon="17.3942769226"></trkpt><trkpt lat="53.7580652162" lon="17.3921814468"></trkpt><trkpt lat="53.7594932411" lon="17.3878505174"></trkpt><trkpt lat="53.7599311955" lon="17.3871277459"></trkpt><trkpt lat="53.7609806098" lon="17.3857737333"></trkpt><trkpt lat="53.770887265" lon="17.3758526612"></trkpt><trkpt lat="53.7713404745" lon="17.3759066407"></trkpt><trkpt lat="53.7719253637" lon="17.3760888632"></trkpt><trkpt lat="53.772507906" lon="17.3764162604"></trkpt><trkpt lat="53.7731938809" lon="17.3766166717"></trkpt><trkpt lat="53.7746511586" lon="17.3766638618"></trkpt><trkpt lat="53.7751466129" lon="17.3764875904"></trkpt><trkpt lat="53.7758527044" lon="17.3764532246"></trkpt><trkpt lat="53.7764043175" lon="17.3767069448"></trkpt><trkpt lat="53.7772565894" lon="17.376930574"></trkpt><trkpt lat="53.77902098" lon="17.377078766"></trkpt><trkpt lat="53.7880596053" lon="17.374783298"></trkpt><trkpt lat="53.7882313505" lon="17.3735638987"></trkpt><trkpt lat="53.78943583" lon="17.3678995762"></trkpt><trkpt lat="53.7897607125" lon="17.3675248213"></trkpt><trkpt lat="53.7901943922" lon="17.3671444505"></trkpt><trkpt lat="53.7902202923" lon="17.3666698672"></trkpt><trkpt lat="53.7907934468" lon="17.366446238"></trkpt><trkpt lat="53.7949601747" lon="17.3654989991"></trkpt><trkpt lat="53.7972330954" lon="17.3645352479"></trkpt><trkpt lat="53.7977956887" lon="17.363923369"></trkpt><trkpt lat="53.798239762" lon="17.3633380607"></trkpt><trkpt lat="53.7987513095" lon="17.3623587191"></trkpt><trkpt lat="53.7990382221" lon="17.3615609296"></trkpt><trkpt lat="53.7993011624" lon="17.3606320471"></trkpt><trkpt lat="53.7994491868" lon="17.359856721"></trkpt><trkpt lat="53.7997128814" lon="17.3575724848"></trkpt><trkpt lat="53.7997647654" lon="17.3565493058"></trkpt><trkpt lat="53.7997620832" lon="17.3556311522"></trkpt><trkpt lat="53.7995994743" lon="17.3527691513"></trkpt><trkpt lat="53.7996314932" lon="17.3522280157"></trkpt><trkpt lat="53.7996122986" lon="17.3514684476"></trkpt><trkpt lat="53.7995351851" lon="17.351016663"></trkpt><trkpt lat="53.7994988076" lon="17.3500971682"></trkpt><trkpt lat="53.7994071096" lon="17.349409936"></trkpt><trkpt lat="53.7994350214" lon="17.3481451906"></trkpt><trkpt lat="53.7993616797" lon="17.3466919363"></trkpt><trkpt lat="53.7994403858" lon="17.3442803789"></trkpt><trkpt lat="53.7993922736" lon="17.3430913221"></trkpt><trkpt lat="53.7993103825" lon="17.3423178401"></trkpt><trkpt lat="53.7991987355" lon="17.3388743866"></trkpt><trkpt lat="53.7992317602" lon="17.3378674686"></trkpt><trkpt lat="53.7991714943" lon="17.3364469036"></trkpt><trkpt lat="53.798475042" lon="17.3293749243"></trkpt><trkpt lat="53.7985027023" lon="17.3287662305"></trkpt><trkpt lat="53.7983761355" lon="17.3282680102"></trkpt><trkpt lat="53.7985011935" lon="17.3278612364"></trkpt><trkpt lat="53.7982926518" lon="17.3265798111"></trkpt><trkpt lat="53.7979703676" lon="17.3235453945"></trkpt><trkpt lat="53.7974698842" lon="17.3126512673"></trkpt><trkpt lat="53.7975577265" lon="17.3115886096"></trkpt><trkpt lat="53.7975842971" lon="17.3101276439"></trkpt><trkpt lat="53.7976899929" lon="17.30911511"></trkpt><trkpt lat="53.7977022305" lon="17.3080380354"></trkpt><trkpt lat="53.7978760712" lon="17.3065929115"></trkpt><trkpt lat="53.7981643248" lon="17.3050577659"></trkpt><trkpt lat="53.7985799834" lon="17.3034362029"></trkpt><trkpt lat="53.8008188736" lon="17.2901793849"></trkpt><trkpt lat="53.8006783091" lon="17.2891674377"></trkpt><trkpt lat="53.7995989714" lon="17.2764488216"></trkpt><trkpt lat="53.7996387854" lon="17.2747982573"></trkpt><trkpt lat="53.8000142947" lon="17.2704586945"></trkpt><trkpt lat="53.7998194993" lon="17.2718662675"></trkpt><trkpt lat="53.7996526994" lon="17.2742086742"></trkpt><trkpt lat="53.7997081876" lon="17.2752421629"></trkpt><trkpt lat="53.7995965406" lon="17.2807947546"></trkpt><trkpt lat="53.7997097801" lon="17.28288671"></trkpt><trkpt lat="53.7998865545" lon="17.2842195164"></trkpt><trkpt lat="53.8006995991" lon="17.2951430641"></trkpt><trkpt lat="53.8004240859" lon="17.2963058855"></trkpt><trkpt lat="53.7976503465" lon="17.3118608538"></trkpt><trkpt lat="53.7976467423" lon="17.3131237552"></trkpt><trkpt lat="53.7974878214" lon="17.3149513453"></trkpt><trkpt lat="53.7974773441" lon="17.3172906507"></trkpt><trkpt lat="53.7977123726" lon="17.3204995785"></trkpt><trkpt lat="53.7995767593" lon="17.3548560776"></trkpt><trkpt lat="53.7997451518" lon="17.3559593037"></trkpt><trkpt lat="53.799697794" lon="17.3564604577"></trkpt><trkpt lat="53.7997556292" lon="17.357743727"></trkpt><trkpt lat="53.799682539" lon="17.3588240705"></trkpt><trkpt lat="53.7995457463" lon="17.35986921"></trkpt><trkpt lat="53.79930594" lon="17.3610479571"></trkpt><trkpt lat="53.7989336159" lon="17.3620429728"></trkpt><trkpt lat="53.7984233256" lon="17.3630475439"></trkpt><trkpt lat="53.7981559429" lon="17.3634793796"></trkpt><trkpt lat="53.7976977043" lon="17.3636411503"></trkpt><trkpt lat="53.7970123999" lon="17.3646679334"></trkpt><trkpt lat="53.796725655" lon="17.3647981044"></trkpt><trkpt lat="53.7955938466" lon="17.3655015137"></trkpt><trkpt lat="53.7946471944" lon="17.3658220377"></trkpt><trkpt lat="53.7937947549" lon="17.3657702375"></trkpt><trkpt lat="53.7934859656" lon="17.3658458423"></trkpt><trkpt lat="53.7931449898" lon="17.3658175953"></trkpt><trkpt lat="53.7924663909" lon="17.3659911845"></trkpt><trkpt lat="53.7898556795" lon="17.3672052193"></trkpt><trkpt lat="53.7895121891" lon="17.3677541502"></trkpt><trkpt lat="53.7892364245" lon="17.368551353"></trkpt><trkpt lat="53.7886124756" lon="17.3713971768"></trkpt><trkpt lat="53.788507618" lon="17.3722398095"></trkpt><trkpt lat="53.78778602" lon="17.3757080734"></trkpt><trkpt lat="53.7875209004" lon="17.3762746062"></trkpt><trkpt lat="53.7872780766" lon="17.3766610119"></trkpt><trkpt lat="53.7877306156" lon="17.375683682"></trkpt><trkpt lat="53.7880846672" lon="17.3745652009"></trkpt><trkpt lat="53.788266303" lon="17.3741596006"></trkpt><trkpt lat="53.7880124152" lon="17.3752263654"></trkpt><trkpt lat="53.7877736986" lon="17.3758656532"></trkpt><trkpt lat="53.7873632368" lon="17.3765626922"></trkpt><trkpt lat="53.7868667766" lon="17.3771174066"></trkpt><trkpt lat="53.7865016609" lon="17.3774198256"></trkpt><trkpt lat="53.7860390637" lon="17.3776769824"></trkpt><trkpt lat="53.7847399525" lon="17.3780045472"></trkpt><trkpt lat="53.7685253285" lon="17.3771692067"></trkpt><trkpt lat="53.768199943" lon="17.3775303829"></trkpt><trkpt lat="53.758561844" lon="17.3913649656"></trkpt><trkpt lat="53.7583718263" lon="17.3920829594"></trkpt><trkpt lat="53.7555828318" lon="17.4060721882"></trkpt><trkpt lat="53.7551711965" lon="17.4073179066"></trkpt><trkpt lat="53.7543839682" lon="17.4089968018"></trkpt><trkpt lat="53.7540353648" lon="17.4094870593"></trkpt><trkpt lat="53.7527547777" lon="17.4107114878"></trkpt><trkpt lat="53.7521621771" lon="17.4109069537"></trkpt><trkpt lat="53.7515234761" lon="17.4110170919"></trkpt><trkpt lat="53.7082147691" lon="17.3894299194"></trkpt><trkpt lat="53.7076748069" lon="17.3890485428"></trkpt><trkpt lat="53.7068149075" lon="17.3882479034"></trkpt><trkpt lat="53.7062389031" lon="17.3879203387"></trkpt><trkpt lat="53.6997419223" lon="17.3857563827"></trkpt><trkpt lat="53.6992099229" lon="17.3864906374"></trkpt><trkpt lat="53.6984626763" lon="17.3873167578"></trkpt><trkpt lat="53.6977883521" lon="17.3882647511"></trkpt><trkpt lat="53.6981388833" lon="17.3844309524"></trkpt><trkpt lat="53.6974732764" lon="17.3887306172"></trkpt><trkpt lat="53.6964257061" lon="17.388681164"></trkpt><trkpt lat="53.6763588432" lon="17.3850379698"></trkpt><trkpt lat="53.6736965831" lon="17.3841344006"></trkpt><trkpt lat="53.6626211554" lon="17.3786028475"></trkpt><trkpt lat="53.6622226797" lon="17.3781266715"></trkpt><trkpt lat="53.6619842984" lon="17.3777370807"></trkpt><trkpt lat="53.6616470106" lon="17.3773216736"></trkpt><trkpt lat="53.6613969784" lon="17.3768081982"></trkpt><trkpt lat="53.6611820664" lon="17.3765077908"></trkpt><trkpt lat="53.6608369835" lon="17.3759121727"></trkpt><trkpt lat="53.6605496518" lon="17.3755906429"></trkpt><trkpt lat="53.6571511254" lon="17.3701954633"></trkpt></trkseg></trk></gpx>