<?xml version="1.0" encoding="UTF-8" standalone="no" ?><gpx xmlns="http://www.topografix.com/GPX/1/1" xmlns:gpxx="http://www.garmin.com/xmlschemas/GpxExtensions/v3" ><trk><trkseg><trkpt lat="53.207087" lon="22.70994"></trkpt><trkpt lat="53.207097" lon="22.709196"></trkpt><trkpt lat="53.206949" lon="22.708896"></trkpt><trkpt lat="53.206337" lon="22.709306"></trkpt><trkpt lat="53.20602" lon="22.709615"></trkpt><trkpt lat="53.205798" lon="22.710183"></trkpt><trkpt lat="53.205742" lon="22.710768"></trkpt><trkpt lat="53.205551" lon="22.711088"></trkpt><trkpt lat="53.205311" lon="22.710931"></trkpt><trkpt lat="53.204925" lon="22.710536"></trkpt><trkpt lat="53.203794" lon="22.709575"></trkpt><trkpt lat="53.203608" lon="22.710427"></trkpt><trkpt lat="53.203216" lon="22.71299"></trkpt><trkpt lat="53.203187" lon="22.713836"></trkpt><trkpt lat="53.20294" lon="22.716405"></trkpt><trkpt lat="53.202927" lon="22.717231"></trkpt><trkpt lat="53.202959" lon="22.717878"></trkpt><trkpt lat="53.203336" lon="22.721886"></trkpt><trkpt lat="53.203482" lon="22.722797"></trkpt><trkpt lat="53.204855" lon="22.734798"></trkpt><trkpt lat="53.204981" lon="22.738156"></trkpt><trkpt lat="53.204946" lon="22.739211"></trkpt><trkpt lat="53.204262" lon="22.761376"></trkpt><trkpt lat="53.203661" lon="22.766005"></trkpt><trkpt lat="53.203295" lon="22.765946"></trkpt><trkpt lat="53.202912" lon="22.765821"></trkpt><trkpt lat="53.189933" lon="22.761027"></trkpt><trkpt lat="53.17751" lon="22.758023"></trkpt><trkpt lat="53.17595" lon="22.758203"></trkpt><trkpt lat="53.162137" lon="22.755727"></trkpt><trkpt lat="53.161454" lon="22.755266"></trkpt><trkpt lat="53.148746" lon="22.748116"></trkpt><trkpt lat="53.13617" lon="22.740172"></trkpt><trkpt lat="53.136124" lon="22.739837"></trkpt><trkpt lat="53.136138" lon="22.739247"></trkpt><trkpt lat="53.13588" lon="22.739899"></trkpt><trkpt lat="53.135627" lon="22.740411"></trkpt><trkpt lat="53.135208" lon="22.740971"></trkpt><trkpt lat="53.135276" lon="22.741282"></trkpt><trkpt lat="53.135489" lon="22.74134"></trkpt><trkpt lat="53.135308" lon="22.74148"></trkpt><trkpt lat="53.134985" lon="22.741329"></trkpt><trkpt lat="53.132686" lon="22.739935"></trkpt><trkpt lat="53.132496" lon="22.740077"></trkpt><trkpt lat="53.131983" lon="22.739812"></trkpt><trkpt lat="53.120709" lon="22.735527"></trkpt><trkpt lat="53.120003" lon="22.735515"></trkpt><trkpt lat="53.105946" lon="22.735192"></trkpt><trkpt lat="53.10455" lon="22.734994"></trkpt><trkpt lat="53.101617" lon="22.734933"></trkpt><trkpt lat="53.101658" lon="22.73568"></trkpt><trkpt lat="53.101719" lon="22.753978"></trkpt><trkpt lat="53.101564" lon="22.754192"></trkpt><trkpt lat="53.10144" lon="22.754554"></trkpt><trkpt lat="53.101281" lon="22.754867"></trkpt><trkpt lat="53.101056" lon="22.754983"></trkpt><trkpt lat="53.100618" lon="22.754998"></trkpt><trkpt lat="53.100446" lon="22.755218"></trkpt><trkpt lat="53.100219" lon="22.756521"></trkpt><trkpt lat="53.100022" lon="22.757197"></trkpt><trkpt lat="53.099843" lon="22.757643"></trkpt><trkpt lat="53.0995" lon="22.757959"></trkpt><trkpt lat="53.099011" lon="22.758321"></trkpt><trkpt lat="53.098543" lon="22.758941"></trkpt><trkpt lat="53.098172" lon="22.759701"></trkpt><trkpt lat="53.097331" lon="22.761853"></trkpt><trkpt lat="53.097254" lon="22.762408"></trkpt><trkpt lat="53.09487" lon="22.77344"></trkpt><trkpt lat="53.094495" lon="22.773773"></trkpt><trkpt lat="53.09373" lon="22.774329"></trkpt><trkpt lat="53.081629" lon="22.783709"></trkpt><trkpt lat="53.081324" lon="22.784036"></trkpt><trkpt lat="53.078306" lon="22.787845"></trkpt><trkpt lat="53.078003" lon="22.788429"></trkpt><trkpt lat="53.068519" lon="22.805141"></trkpt><trkpt lat="53.068252" lon="22.805491"></trkpt><trkpt lat="53.064048" lon="22.810174"></trkpt><trkpt lat="53.06326" lon="22.810715"></trkpt><trkpt lat="53.059666" lon="22.813918"></trkpt><trkpt lat="53.059245" lon="22.814723"></trkpt><trkpt lat="53.059" lon="22.815279"></trkpt><trkpt lat="53.057117" lon="22.818879"></trkpt><trkpt lat="53.056795" lon="22.819393"></trkpt><trkpt lat="53.056005" lon="22.820853"></trkpt><trkpt lat="53.055833" lon="22.821386"></trkpt><trkpt lat="53.053862" lon="22.828716"></trkpt><trkpt lat="53.05377" lon="22.829177"></trkpt><trkpt lat="53.053216" lon="22.831231"></trkpt><trkpt lat="53.052911" lon="22.831974"></trkpt><trkpt lat="53.05184" lon="22.834157"></trkpt><trkpt lat="53.051669" lon="22.834427"></trkpt><trkpt lat="53.051393" lon="22.834931"></trkpt><trkpt lat="53.050328" lon="22.836613"></trkpt><trkpt lat="53.050197" lon="22.836909"></trkpt><trkpt lat="53.049746" lon="22.837489"></trkpt><trkpt lat="53.049513" lon="22.837859"></trkpt><trkpt lat="53.049268" lon="22.838183"></trkpt><trkpt lat="53.048991" lon="22.838421"></trkpt><trkpt lat="53.048502" lon="22.83873"></trkpt><trkpt lat="53.047644" lon="22.839102"></trkpt><trkpt lat="53.047298" lon="22.839096"></trkpt><trkpt lat="53.047086" lon="22.839063"></trkpt><trkpt lat="53.041957" lon="22.838875"></trkpt><trkpt lat="53.0417" lon="22.839303"></trkpt><trkpt lat="53.039525" lon="22.843674"></trkpt><trkpt lat="53.038696" lon="22.844743"></trkpt><trkpt lat="53.038332" lon="22.844611"></trkpt><trkpt lat="53.037918" lon="22.844638"></trkpt><trkpt lat="53.037648" lon="22.844766"></trkpt><trkpt lat="53.037249" lon="22.845199"></trkpt><trkpt lat="53.036931" lon="22.845426"></trkpt><trkpt lat="53.036588" lon="22.84545"></trkpt><trkpt lat="53.036465" lon="22.845738"></trkpt><trkpt lat="53.036285" lon="22.845198"></trkpt><trkpt lat="53.036087" lon="22.844916"></trkpt><trkpt lat="53.03571" lon="22.84457"></trkpt><trkpt lat="53.035414" lon="22.844186"></trkpt><trkpt lat="53.030076" lon="22.838273"></trkpt><trkpt lat="53.029459" lon="22.837744"></trkpt><trkpt lat="53.028156" lon="22.837008"></trkpt><trkpt lat="53.027394" lon="22.836706"></trkpt><trkpt lat="53.014191" lon="22.83163"></trkpt><trkpt lat="53.00138" lon="22.828362"></trkpt><trkpt lat="53.001138" lon="22.828829"></trkpt><trkpt lat="52.999724" lon="22.832012"></trkpt><trkpt lat="52.998895" lon="22.833623"></trkpt><trkpt lat="52.998673" lon="22.833939"></trkpt><trkpt lat="52.998119" lon="22.834885"></trkpt><trkpt lat="52.997914" lon="22.835351"></trkpt><trkpt lat="52.997792" lon="22.835732"></trkpt><trkpt lat="52.997592" lon="22.836254"></trkpt><trkpt lat="52.997482" lon="22.836592"></trkpt><trkpt lat="52.997168" lon="22.837291"></trkpt><trkpt lat="52.988926" lon="22.855346"></trkpt><trkpt lat="52.984364" lon="22.867603"></trkpt><trkpt lat="52.984586" lon="22.868315"></trkpt><trkpt lat="52.988651" lon="22.879374"></trkpt><trkpt lat="52.988786" lon="22.879615"></trkpt><trkpt lat="52.990251" lon="22.88263"></trkpt><trkpt lat="52.990073" lon="22.882918"></trkpt><trkpt lat="52.990068" lon="22.883361"></trkpt><trkpt lat="52.990281" lon="22.88374"></trkpt><trkpt lat="52.990543" lon="22.883982"></trkpt></trkseg></trk></gpx>