<?xml version="1.0" encoding="UTF-8" standalone="no" ?><gpx xmlns="http://www.topografix.com/GPX/1/1" xmlns:gpxx="http://www.garmin.com/xmlschemas/GpxExtensions/v3" ><trk><trkseg><trkpt lat="50.2993872855" lon="16.6543318983"></trkpt><trkpt lat="50.298720086" lon="16.6541339178"></trkpt><trkpt lat="50.2983562276" lon="16.6536801215"></trkpt><trkpt lat="50.2979504596" lon="16.6532790475"></trkpt><trkpt lat="50.2977614477" lon="16.6528821643"></trkpt><trkpt lat="50.2975014411" lon="16.6526633129"></trkpt><trkpt lat="50.2971604653" lon="16.6521133762"></trkpt><trkpt lat="50.2968749776" lon="16.6519138031"></trkpt><trkpt lat="50.2963476721" lon="16.6521601472"></trkpt><trkpt lat="50.296095293" lon="16.6519179102"></trkpt><trkpt lat="50.2960665431" lon="16.6513903532"></trkpt><trkpt lat="50.29623284" lon="16.6510175262"></trkpt><trkpt lat="50.2959926985" lon="16.6505432781"></trkpt><trkpt lat="50.2955920435" lon="16.6504050605"></trkpt><trkpt lat="50.2953342162" lon="16.6507249977"></trkpt><trkpt lat="50.2950490639" lon="16.6509446036"></trkpt><trkpt lat="50.2946612332" lon="16.6510100663"></trkpt><trkpt lat="50.2943821158" lon="16.6508694179"></trkpt><trkpt lat="50.2940750867" lon="16.650776295"></trkpt><trkpt lat="50.2937826421" lon="16.6507684998"></trkpt><trkpt lat="50.2934787981" lon="16.6505742073"></trkpt><trkpt lat="50.2932094038" lon="16.6502970178"></trkpt><trkpt lat="50.292849401" lon="16.650091242"></trkpt><trkpt lat="50.2924442198" lon="16.6503882967"></trkpt><trkpt lat="50.2921552118" lon="16.6504025459"></trkpt><trkpt lat="50.2918921877" lon="16.6500927508"></trkpt><trkpt lat="50.2915846556" lon="16.6498516873"></trkpt><trkpt lat="50.2912977431" lon="16.6498440597"></trkpt><trkpt lat="50.2910105791" lon="16.6496442351"></trkpt><trkpt lat="50.2906887978" lon="16.6495054308"></trkpt><trkpt lat="50.2857101988" lon="16.6481240932"></trkpt><trkpt lat="50.2853948716" lon="16.6481406055"></trkpt><trkpt lat="50.2850549854" lon="16.648051925"></trkpt><trkpt lat="50.2849866729" lon="16.6476372723"></trkpt><trkpt lat="50.2852114756" lon="16.6473502759"></trkpt><trkpt lat="50.2853941172" lon="16.6470347811"></trkpt><trkpt lat="50.2851866651" lon="16.6470193584"></trkpt></trkseg></trk></gpx>