<?xml version="1.0" encoding="UTF-8" standalone="no" ?><gpx xmlns="http://www.topografix.com/GPX/1/1" xmlns:gpxx="http://www.garmin.com/xmlschemas/GpxExtensions/v3" ><trk><trkseg><trkpt lat="54.1202655248" lon="17.9950015526"></trkpt><trkpt lat="54.1205008887" lon="17.9952361621"></trkpt><trkpt lat="54.1207154654" lon="17.9945359379"></trkpt><trkpt lat="54.1211427748" lon="17.9941016715"></trkpt><trkpt lat="54.121543346" lon="17.9935730249"></trkpt><trkpt lat="54.1260978207" lon="17.9892562609"></trkpt><trkpt lat="54.1272520088" lon="17.9892085679"></trkpt><trkpt lat="54.1326738428" lon="17.9877309222"></trkpt><trkpt lat="54.1336217523" lon="17.9865415301"></trkpt><trkpt lat="54.1343409196" lon="17.985139573"></trkpt><trkpt lat="54.1348394752" lon="17.9835041799"></trkpt><trkpt lat="54.1351542994" lon="17.9815990571"></trkpt><trkpt lat="54.135219343" lon="17.9798499215"></trkpt><trkpt lat="54.135146169" lon="17.9770593345"></trkpt><trkpt lat="54.1340575274" lon="17.9648710415"></trkpt><trkpt lat="54.1339247581" lon="17.9643935245"></trkpt><trkpt lat="54.1331058461" lon="17.9626609012"></trkpt><trkpt lat="54.1323746927" lon="17.9607962631"></trkpt><trkpt lat="54.1318069864" lon="17.9587537609"></trkpt><trkpt lat="54.1314122826" lon="17.9562375136"></trkpt><trkpt lat="54.0995113458" lon="17.7770835534"></trkpt><trkpt lat="54.099232899" lon="17.7774820291"></trkpt><trkpt lat="54.0965848044" lon="17.7806365583"></trkpt><trkpt lat="54.0956244059" lon="17.7815588191"></trkpt><trkpt lat="54.092537351" lon="17.7839180734"></trkpt><trkpt lat="54.0914306883" lon="17.7840176504"></trkpt><trkpt lat="54.0904028993" lon="17.7837492619"></trkpt><trkpt lat="54.0890647285" lon="17.782692723"></trkpt><trkpt lat="54.0875783656" lon="17.7811382152"></trkpt><trkpt lat="54.0695604589" lon="17.767513264"></trkpt><trkpt lat="54.066935163" lon="17.7681095526"></trkpt><trkpt lat="54.0577071067" lon="17.7720363904"></trkpt><trkpt lat="54.0570531506" lon="17.7730663586"></trkpt><trkpt lat="54.0464280825" lon="17.7862765733"></trkpt><trkpt lat="54.0442064591" lon="17.7859971207"></trkpt><trkpt lat="54.0391070768" lon="17.7843307145"></trkpt><trkpt lat="54.0400518011" lon="17.7845561877"></trkpt><trkpt lat="54.0387288015" lon="17.7839440573"></trkpt><trkpt lat="54.0389508381" lon="17.7824480552"></trkpt><trkpt lat="54.038721174" lon="17.7819915768"></trkpt><trkpt lat="54.0366154723" lon="17.7815286443"></trkpt><trkpt lat="54.0326537658" lon="17.781623276"></trkpt><trkpt lat="54.014292201" lon="17.7778167184"></trkpt><trkpt lat="54.0132803377" lon="17.7770589106"></trkpt><trkpt lat="54.0062582307" lon="17.7737904713"></trkpt><trkpt lat="53.9772857632" lon="17.7822321374"></trkpt><trkpt lat="53.9698619116" lon="17.7788058668"></trkpt><trkpt lat="53.9662959985" lon="17.7764957305"></trkpt><trkpt lat="53.9653357677" lon="17.7755385172"></trkpt><trkpt lat="53.9643373154" lon="17.774042096"></trkpt><trkpt lat="53.9634718001" lon="17.772209309"></trkpt><trkpt lat="53.962743748" lon="17.7700746898"></trkpt><trkpt lat="53.9574338961" lon="17.7574761026"></trkpt><trkpt lat="53.9560445119" lon="17.7562766522"></trkpt><trkpt lat="53.9539862517" lon="17.754923813"></trkpt><trkpt lat="53.9132278226" lon="17.7351128496"></trkpt><trkpt lat="53.911730228" lon="17.7346506715"></trkpt><trkpt lat="53.8552177604" lon="17.7082855627"></trkpt><trkpt lat="53.8532105461" lon="17.7055326942"></trkpt><trkpt lat="53.831968708" lon="17.6702507492"></trkpt><trkpt lat="53.8306357339" lon="17.6671853196"></trkpt><trkpt lat="53.8081259653" lon="17.6239290833"></trkpt><trkpt lat="53.8069841824" lon="17.6234631334"></trkpt><trkpt lat="53.8019838743" lon="17.6204234362"></trkpt><trkpt lat="53.787708655" lon="17.6092618424"></trkpt><trkpt lat="53.7866418902" lon="17.6081514079"></trkpt><trkpt lat="53.7655360904" lon="17.5906596333"></trkpt><trkpt lat="53.7636503298" lon="17.5913327001"></trkpt><trkpt lat="53.7027014885" lon="17.6035696082"></trkpt><trkpt lat="53.7019558344" lon="17.602576185"></trkpt><trkpt lat="53.7012188137" lon="17.5990614016"></trkpt><trkpt lat="53.7004935276" lon="17.5965459086"></trkpt><trkpt lat="53.7001999095" lon="17.5943511911"></trkpt><trkpt lat="53.6997594405" lon="17.5942708924"></trkpt><trkpt lat="53.6999837402" lon="17.5936567504"></trkpt><trkpt lat="53.6956154276" lon="17.5865754671"></trkpt><trkpt lat="53.6945686955" lon="17.5855951197"></trkpt><trkpt lat="53.6892367154" lon="17.578381151"></trkpt><trkpt lat="53.6889482941" lon="17.5784934685"></trkpt><trkpt lat="53.6886599567" lon="17.5781803206"></trkpt><trkpt lat="53.6889697518" lon="17.5782928895"></trkpt><trkpt lat="53.6888237391" lon="17.577863317"></trkpt><trkpt lat="53.6890865117" lon="17.5781099126"></trkpt><trkpt lat="53.688754756" lon="17.5776390173"></trkpt><trkpt lat="53.6815746501" lon="17.5693167932"></trkpt><trkpt lat="53.6796728801" lon="17.567630019"></trkpt><trkpt lat="53.6745320074" lon="17.5615716632"></trkpt><trkpt lat="53.6737649795" lon="17.5597633515"></trkpt><trkpt lat="53.673557695" lon="17.5580273755"></trkpt><trkpt lat="53.6736627202" lon="17.5557542872"></trkpt><trkpt lat="53.6732561141" lon="17.5089986902"></trkpt><trkpt lat="53.673768919" lon="17.4988451041"></trkpt><trkpt lat="53.6727793515" lon="17.4938303791"></trkpt><trkpt lat="53.6708634999" lon="17.480273908"></trkpt><trkpt lat="53.6706445646" lon="17.479935782"></trkpt><trkpt lat="53.6709915753" lon="17.4834684189"></trkpt><trkpt lat="53.6739205476" lon="17.5518800039"></trkpt><trkpt lat="53.6738472059" lon="17.5566637237"></trkpt><trkpt lat="53.6739343777" lon="17.5579385273"></trkpt><trkpt lat="53.6743772775" lon="17.5604769867"></trkpt><trkpt lat="53.6751045752" lon="17.5627684314"></trkpt><trkpt lat="53.6760482937" lon="17.5646388531"></trkpt><trkpt lat="53.6772190779" lon="17.5658111461"></trkpt><trkpt lat="53.6765766889" lon="17.565305382"></trkpt><trkpt lat="53.6366651673" lon="17.5407834537"></trkpt><trkpt lat="53.6347115971" lon="17.5406491756"></trkpt><trkpt lat="53.5248815082" lon="17.5419947226"></trkpt><trkpt lat="53.524137279" lon="17.5417641364"></trkpt><trkpt lat="53.5189552512" lon="17.5410304684"></trkpt><trkpt lat="53.5168704204" lon="17.534719985"></trkpt><trkpt lat="53.5142846871" lon="17.5404346827"></trkpt><trkpt lat="53.5123571008" lon="17.5402632728"></trkpt><trkpt lat="53.5119890515" lon="17.5401340239"></trkpt><trkpt lat="53.5111171659" lon="17.540055234"></trkpt><trkpt lat="53.4010575805" lon="17.5486977305"></trkpt><trkpt lat="53.3809914719" lon="17.5439395756"></trkpt><trkpt lat="53.3807234187" lon="17.5427451544"></trkpt><trkpt lat="53.3650235273" lon="17.4896633159"></trkpt><trkpt lat="53.3640270028" lon="17.488905089"></trkpt><trkpt lat="53.3478475828" lon="17.4727791455"></trkpt><trkpt lat="53.3476540446" lon="17.4716180842"></trkpt><trkpt lat="53.3475811221" lon="17.4702021293"></trkpt><trkpt lat="53.3476072736" lon="17.4688505474"></trkpt><trkpt lat="53.3477335051" lon="17.4675141368"></trkpt><trkpt lat="53.3481867146" lon="17.4545251206"></trkpt><trkpt lat="53.347564023" lon="17.4526331574"></trkpt><trkpt lat="53.3467208873" lon="17.4506278709"></trkpt><trkpt lat="53.3459510095" lon="17.4492610339"></trkpt><trkpt lat="53.345299568" lon="17.4484134559"></trkpt><trkpt lat="53.3446508925" lon="17.4473928753"></trkpt><trkpt lat="53.3411782701" lon="17.4428949784"></trkpt><trkpt lat="53.3234218787" lon="17.4239336047"></trkpt><trkpt lat="53.3225381747" lon="17.4238170963"></trkpt><trkpt lat="53.3205999434" lon="17.4245817773"></trkpt><trkpt lat="53.3198901638" lon="17.4250344839"></trkpt><trkpt lat="53.2878161408" lon="17.4402686767"></trkpt><trkpt lat="53.2869136613" lon="17.4405101594"></trkpt><trkpt lat="53.2602245081" lon="17.4518287461"></trkpt><trkpt lat="53.2568139117" lon="17.4538251478"></trkpt><trkpt lat="53.2430438697" lon="17.4649920221"></trkpt><trkpt lat="53.2425723877" lon="17.4668707419"></trkpt><trkpt lat="53.2364973519" lon="17.4994439911"></trkpt><trkpt lat="53.2364878803" lon="17.5010205433"></trkpt><trkpt lat="53.2307550777" lon="17.5795093551"></trkpt><trkpt lat="53.2296353392" lon="17.5800403487"></trkpt><trkpt lat="53.1673818547" lon="17.6203162316"></trkpt><trkpt lat="53.1663464382" lon="17.6215003431"></trkpt><trkpt lat="53.16505244" lon="17.6225749031"></trkpt><trkpt lat="53.1642968953" lon="17.6226641703"></trkpt><trkpt lat="53.1634530053" lon="17.6229318045"></trkpt><trkpt lat="53.1625050958" lon="17.6234617084"></trkpt><trkpt lat="53.1585324928" lon="17.6248526853"></trkpt><trkpt lat="53.1561905053" lon="17.6248739753"></trkpt><trkpt lat="53.1481469795" lon="17.623591125"></trkpt><trkpt lat="53.1471767742" lon="17.6222246233"></trkpt><trkpt lat="53.1457341649" lon="17.6196860801"></trkpt><trkpt lat="53.1449987367" lon="17.6179611683"></trkpt><trkpt lat="53.1444103271" lon="17.6159166545"></trkpt><trkpt lat="53.1440418586" lon="17.6138620824"></trkpt><trkpt lat="53.1374064926" lon="17.5875346083"></trkpt><trkpt lat="53.1365705654" lon="17.5865385029"></trkpt><trkpt lat="53.135576807" lon="17.585930815"></trkpt><trkpt lat="53.1343531329" lon="17.5856731553"></trkpt><trkpt lat="53.1268861145" lon="17.5860663503"></trkpt><trkpt lat="53.1208736915" lon="17.5848593563"></trkpt><trkpt lat="53.0248342641" lon="17.5329023693"></trkpt><trkpt lat="53.0240233149" lon="17.5315601751"></trkpt><trkpt lat="53.0232515093" lon="17.5306498166"></trkpt><trkpt lat="52.9818926007" lon="17.4912664387"></trkpt><trkpt lat="52.9804525897" lon="17.4913386069"></trkpt><trkpt lat="52.9703229759" lon="17.4892233498"></trkpt><trkpt lat="52.9690282233" lon="17.4884932023"></trkpt><trkpt lat="52.9641095549" lon="17.4865917675"></trkpt><trkpt lat="52.9633806646" lon="17.4866001494"></trkpt><trkpt lat="52.9623080324" lon="17.4867915083"></trkpt><trkpt lat="52.931590369" lon="17.4867495988"></trkpt><trkpt lat="52.9295790475" lon="17.4858612008"></trkpt><trkpt lat="52.9041006602" lon="17.4785471521"></trkpt><trkpt lat="52.9025201686" lon="17.4796280824"></trkpt><trkpt lat="52.8893441521" lon="17.4863731675"></trkpt><trkpt lat="52.8717480227" lon="17.4924288411"></trkpt><trkpt lat="52.8702866379" lon="17.4926505424"></trkpt><trkpt lat="52.8327101469" lon="17.4925601017"></trkpt><trkpt lat="52.8311528731" lon="17.491271887"></trkpt><trkpt lat="52.8298261855" lon="17.4904258177"></trkpt><trkpt lat="52.8285150044" lon="17.4901313614"></trkpt><trkpt lat="52.7647714689" lon="17.4852623139"></trkpt><trkpt lat="52.6737518795" lon="17.5059280638"></trkpt><trkpt lat="52.672121264" lon="17.5067813415"></trkpt><trkpt lat="52.590224538" lon="17.5644289702"></trkpt><trkpt lat="52.5883455668" lon="17.567479061"></trkpt><trkpt lat="52.5457035564" lon="17.6250674296"></trkpt><trkpt lat="52.5444120727" lon="17.6253618021"></trkpt><trkpt lat="52.5304770749" lon="17.6112900954"></trkpt><trkpt lat="52.530288063" lon="17.6094026584"></trkpt><trkpt lat="52.5244915579" lon="17.5733881351"></trkpt><trkpt lat="52.5232864916" lon="17.568161767"></trkpt><trkpt lat="52.4980414566" lon="17.4201749079"></trkpt><trkpt lat="52.4742941838" lon="17.2401914746"></trkpt><trkpt lat="52.4419340864" lon="17.0645046048"></trkpt><trkpt lat="52.440653583" lon="17.0596384071"></trkpt><trkpt lat="52.4162688665" lon="16.9381792657"></trkpt><trkpt lat="52.4163151346" lon="16.9376957975"></trkpt><trkpt lat="52.4164435454" lon="16.9370000158"></trkpt><trkpt lat="52.4174943846" lon="16.9260976743"></trkpt><trkpt lat="52.4171489663" lon="16.9241104089"></trkpt><trkpt lat="52.4164603092" lon="16.921613859"></trkpt><trkpt lat="52.4148530792" lon="16.9175511505"></trkpt><trkpt lat="52.4143954273" lon="16.9169676024"></trkpt><trkpt lat="52.4117075186" lon="16.9154284336"></trkpt><trkpt lat="52.4101008754" lon="16.9148467295"></trkpt><trkpt lat="52.4091710709" lon="16.9143171608"></trkpt><trkpt lat="52.403308684" lon="16.9120620098"></trkpt><trkpt lat="52.4025766924" lon="16.9110572711"></trkpt><trkpt lat="52.4016468879" lon="16.9106699433"></trkpt><trkpt lat="52.401322592" lon="16.9104469009"></trkpt></trkseg></trk></gpx>