<?xml version="1.0" encoding="UTF-8" standalone="no" ?><gpx xmlns="http://www.topografix.com/GPX/1/1" xmlns:gpxx="http://www.garmin.com/xmlschemas/GpxExtensions/v3" ><trk><trkseg><trkpt lat="53.208681" lon="23.453339"></trkpt><trkpt lat="53.209042" lon="23.453497"></trkpt><trkpt lat="53.209308" lon="23.453449"></trkpt><trkpt lat="53.209801" lon="23.454109"></trkpt><trkpt lat="53.21017" lon="23.454697"></trkpt><trkpt lat="53.210486" lon="23.455042"></trkpt><trkpt lat="53.210996" lon="23.45535"></trkpt><trkpt lat="53.211365" lon="23.455854"></trkpt><trkpt lat="53.211689" lon="23.456388"></trkpt><trkpt lat="53.211892" lon="23.456861"></trkpt><trkpt lat="53.212134" lon="23.457888"></trkpt><trkpt lat="53.212376" lon="23.458494"></trkpt><trkpt lat="53.212776" lon="23.459326"></trkpt><trkpt lat="53.212877" lon="23.459033"></trkpt><trkpt lat="53.21317" lon="23.458702"></trkpt><trkpt lat="53.213407" lon="23.458301"></trkpt><trkpt lat="53.213562" lon="23.457715"></trkpt><trkpt lat="53.213697" lon="23.456898"></trkpt><trkpt lat="53.213844" lon="23.456225"></trkpt><trkpt lat="53.21407" lon="23.456071"></trkpt><trkpt lat="53.214367" lon="23.45619"></trkpt><trkpt lat="53.215419" lon="23.456383"></trkpt><trkpt lat="53.218491" lon="23.456282"></trkpt><trkpt lat="53.219802" lon="23.45669"></trkpt><trkpt lat="53.22" lon="23.457023"></trkpt><trkpt lat="53.220341" lon="23.457048"></trkpt><trkpt lat="53.223726" lon="23.457761"></trkpt><trkpt lat="53.223695" lon="23.458097"></trkpt><trkpt lat="53.223811" lon="23.464504"></trkpt><trkpt lat="53.224234" lon="23.46518"></trkpt><trkpt lat="53.22444" lon="23.465561"></trkpt><trkpt lat="53.224579" lon="23.466211"></trkpt><trkpt lat="53.224652" lon="23.466752"></trkpt><trkpt lat="53.224639" lon="23.468052"></trkpt><trkpt lat="53.224696" lon="23.46837"></trkpt><trkpt lat="53.224889" lon="23.468502"></trkpt><trkpt lat="53.225107" lon="23.468524"></trkpt><trkpt lat="53.226219" lon="23.468787"></trkpt><trkpt lat="53.227215" lon="23.469446"></trkpt><trkpt lat="53.227155" lon="23.469974"></trkpt><trkpt lat="53.22721" lon="23.470486"></trkpt><trkpt lat="53.227264" lon="23.470812"></trkpt><trkpt lat="53.22724" lon="23.471669"></trkpt><trkpt lat="53.226764" lon="23.478121"></trkpt><trkpt lat="53.226248" lon="23.478797"></trkpt><trkpt lat="53.224405" lon="23.481897"></trkpt><trkpt lat="53.224323" lon="23.482243"></trkpt><trkpt lat="53.223962" lon="23.482772"></trkpt><trkpt lat="53.223695" lon="23.48301"></trkpt><trkpt lat="53.221279" lon="23.485827"></trkpt><trkpt lat="53.221159" lon="23.486329"></trkpt><trkpt lat="53.219982" lon="23.490018"></trkpt><trkpt lat="53.219722" lon="23.490169"></trkpt><trkpt lat="53.219514" lon="23.49032"></trkpt><trkpt lat="53.219238" lon="23.490459"></trkpt><trkpt lat="53.218962" lon="23.490713"></trkpt><trkpt lat="53.217882" lon="23.492209"></trkpt><trkpt lat="53.217744" lon="23.492469"></trkpt><trkpt lat="53.216558" lon="23.494091"></trkpt><trkpt lat="53.216361" lon="23.494125"></trkpt><trkpt lat="53.212129" lon="23.493981"></trkpt><trkpt lat="53.211913" lon="23.494158"></trkpt><trkpt lat="53.211419" lon="23.494708"></trkpt><trkpt lat="53.2088" lon="23.497015"></trkpt><trkpt lat="53.208255" lon="23.496879"></trkpt><trkpt lat="53.207761" lon="23.496685"></trkpt><trkpt lat="53.207364" lon="23.496311"></trkpt><trkpt lat="53.207162" lon="23.496242"></trkpt><trkpt lat="53.206314" lon="23.496373"></trkpt><trkpt lat="53.204315" lon="23.496354"></trkpt><trkpt lat="53.203956" lon="23.496212"></trkpt><trkpt lat="53.203705" lon="23.496174"></trkpt><trkpt lat="53.203152" lon="23.495915"></trkpt><trkpt lat="53.201755" lon="23.495536"></trkpt><trkpt lat="53.200033" lon="23.496325"></trkpt><trkpt lat="53.199737" lon="23.496938"></trkpt><trkpt lat="53.198993" lon="23.498191"></trkpt><trkpt lat="53.198578" lon="23.498694"></trkpt><trkpt lat="53.196911" lon="23.500342"></trkpt><trkpt lat="53.196406" lon="23.500756"></trkpt><trkpt lat="53.195083" lon="23.502215"></trkpt><trkpt lat="53.195003" lon="23.502656"></trkpt><trkpt lat="53.194964" lon="23.503326"></trkpt><trkpt lat="53.194985" lon="23.503927"></trkpt><trkpt lat="53.19527" lon="23.506804"></trkpt><trkpt lat="53.195486" lon="23.507584"></trkpt><trkpt lat="53.195621" lon="23.508208"></trkpt><trkpt lat="53.195816" lon="23.50842"></trkpt><trkpt lat="53.195936" lon="23.508846"></trkpt><trkpt lat="53.196213" lon="23.510282"></trkpt><trkpt lat="53.196243" lon="23.510826"></trkpt><trkpt lat="53.196245" lon="23.511476"></trkpt><trkpt lat="53.196138" lon="23.512034"></trkpt><trkpt lat="53.195878" lon="23.512452"></trkpt><trkpt lat="53.195564" lon="23.513047"></trkpt><trkpt lat="53.195342" lon="23.513412"></trkpt><trkpt lat="53.195132" lon="23.513606"></trkpt><trkpt lat="53.194361" lon="23.513563"></trkpt><trkpt lat="53.194177" lon="23.513716"></trkpt><trkpt lat="53.194093" lon="23.514022"></trkpt><trkpt lat="53.194041" lon="23.514918"></trkpt><trkpt lat="53.193896" lon="23.515357"></trkpt><trkpt lat="53.191963" lon="23.519869"></trkpt><trkpt lat="53.191707" lon="23.519901"></trkpt><trkpt lat="53.191406" lon="23.519798"></trkpt><trkpt lat="53.191068" lon="23.519842"></trkpt><trkpt lat="53.190686" lon="23.519973"></trkpt><trkpt lat="53.186399" lon="23.522235"></trkpt><trkpt lat="53.186145" lon="23.522582"></trkpt><trkpt lat="53.18553" lon="23.523266"></trkpt><trkpt lat="53.184839" lon="23.52391"></trkpt><trkpt lat="53.184444" lon="23.524214"></trkpt><trkpt lat="53.184115" lon="23.524392"></trkpt><trkpt lat="53.183193" lon="23.525078"></trkpt><trkpt lat="53.182877" lon="23.525225"></trkpt><trkpt lat="53.18258" lon="23.525144"></trkpt><trkpt lat="53.182024" lon="23.524871"></trkpt><trkpt lat="53.181767" lon="23.524803"></trkpt><trkpt lat="53.181543" lon="23.524911"></trkpt><trkpt lat="53.181353" lon="23.525101"></trkpt><trkpt lat="53.181177" lon="23.525335"></trkpt><trkpt lat="53.18084" lon="23.526038"></trkpt><trkpt lat="53.180776" lon="23.526377"></trkpt><trkpt lat="53.180795" lon="23.527056"></trkpt><trkpt lat="53.18067" lon="23.528061"></trkpt><trkpt lat="53.180539" lon="23.528338"></trkpt><trkpt lat="53.180062" lon="23.529211"></trkpt><trkpt lat="53.179773" lon="23.529614"></trkpt><trkpt lat="53.179361" lon="23.52991"></trkpt><trkpt lat="53.178816" lon="23.530219"></trkpt><trkpt lat="53.177487" lon="23.530751"></trkpt><trkpt lat="53.176846" lon="23.531211"></trkpt><trkpt lat="53.176492" lon="23.531518"></trkpt><trkpt lat="53.176319" lon="23.531709"></trkpt><trkpt lat="53.176028" lon="23.532233"></trkpt><trkpt lat="53.175727" lon="23.532988"></trkpt><trkpt lat="53.17555" lon="23.533608"></trkpt><trkpt lat="53.175581" lon="23.534197"></trkpt><trkpt lat="53.175397" lon="23.535117"></trkpt><trkpt lat="53.175136" lon="23.534803"></trkpt><trkpt lat="53.174863" lon="23.534359"></trkpt><trkpt lat="53.173949" lon="23.532502"></trkpt><trkpt lat="53.173891" lon="23.531957"></trkpt><trkpt lat="53.173702" lon="23.53117"></trkpt><trkpt lat="53.173382" lon="23.530181"></trkpt><trkpt lat="53.171945" lon="23.526419"></trkpt><trkpt lat="53.171744" lon="23.526626"></trkpt><trkpt lat="53.171547" lon="23.526868"></trkpt><trkpt lat="53.171235" lon="23.527161"></trkpt><trkpt lat="53.17013" lon="23.528424"></trkpt><trkpt lat="53.169745" lon="23.528987"></trkpt><trkpt lat="53.153877" lon="23.555457"></trkpt><trkpt lat="53.153556" lon="23.556202"></trkpt><trkpt lat="53.140217" lon="23.587208"></trkpt><trkpt lat="53.126391" lon="23.617492"></trkpt><trkpt lat="53.125833" lon="23.61821"></trkpt><trkpt lat="53.108614" lon="23.642014"></trkpt><trkpt lat="53.108418" lon="23.642644"></trkpt><trkpt lat="53.108251" lon="23.643391"></trkpt><trkpt lat="53.108184" lon="23.643846"></trkpt><trkpt lat="53.108088" lon="23.645063"></trkpt><trkpt lat="53.10809" lon="23.645673"></trkpt><trkpt lat="53.108192" lon="23.646803"></trkpt><trkpt lat="53.108599" lon="23.64983"></trkpt><trkpt lat="53.108571" lon="23.649438"></trkpt><trkpt lat="53.108611" lon="23.649796"></trkpt><trkpt lat="53.109016" lon="23.652379"></trkpt><trkpt lat="53.109032" lon="23.652714"></trkpt><trkpt lat="53.109161" lon="23.654049"></trkpt><trkpt lat="53.109389" lon="23.655572"></trkpt><trkpt lat="53.109611" lon="23.655534"></trkpt><trkpt lat="53.10979" lon="23.655279"></trkpt><trkpt lat="53.109402" lon="23.655736"></trkpt><trkpt lat="53.10951" lon="23.65657"></trkpt><trkpt lat="53.111364" lon="23.679786"></trkpt><trkpt lat="53.111168" lon="23.681197"></trkpt><trkpt lat="53.110854" lon="23.682811"></trkpt><trkpt lat="53.109564" lon="23.692467"></trkpt><trkpt lat="53.109565" lon="23.693096"></trkpt><trkpt lat="53.110125" lon="23.705467"></trkpt><trkpt lat="53.110481" lon="23.706241"></trkpt><trkpt lat="53.114744" lon="23.717392"></trkpt><trkpt lat="53.114543" lon="23.718019"></trkpt><trkpt lat="53.114397" lon="23.718397"></trkpt><trkpt lat="53.113252" lon="23.721949"></trkpt><trkpt lat="53.113251" lon="23.722343"></trkpt><trkpt lat="53.113231" lon="23.722791"></trkpt><trkpt lat="53.112029" lon="23.736435"></trkpt><trkpt lat="53.111817" lon="23.736295"></trkpt><trkpt lat="53.112006" lon="23.736482"></trkpt><trkpt lat="53.111747" lon="23.736496"></trkpt><trkpt lat="53.111938" lon="23.73639"></trkpt><trkpt lat="53.112373" lon="23.736549"></trkpt><trkpt lat="53.112464" lon="23.736252"></trkpt><trkpt lat="53.112544" lon="23.735606"></trkpt><trkpt lat="53.112595" lon="23.734793"></trkpt><trkpt lat="53.112593" lon="23.734188"></trkpt><trkpt lat="53.112629" lon="23.733622"></trkpt><trkpt lat="53.114243" lon="23.718746"></trkpt><trkpt lat="53.114399" lon="23.718293"></trkpt><trkpt lat="53.115136" lon="23.716586"></trkpt><trkpt lat="53.115322" lon="23.716827"></trkpt><trkpt lat="53.115665" lon="23.717357"></trkpt><trkpt lat="53.121035" lon="23.724491"></trkpt><trkpt lat="53.121471" lon="23.724612"></trkpt><trkpt lat="53.122359" lon="23.72465"></trkpt><trkpt lat="53.122465" lon="23.724239"></trkpt><trkpt lat="53.122561" lon="23.723536"></trkpt><trkpt lat="53.123527" lon="23.718471"></trkpt><trkpt lat="53.123845" lon="23.717626"></trkpt><trkpt lat="53.124364" lon="23.71646"></trkpt><trkpt lat="53.125767" lon="23.713748"></trkpt><trkpt lat="53.125941" lon="23.713482"></trkpt><trkpt lat="53.127851" lon="23.711086"></trkpt><trkpt lat="53.128217" lon="23.711037"></trkpt><trkpt lat="53.129749" lon="23.7106"></trkpt><trkpt lat="53.1302" lon="23.710527"></trkpt><trkpt lat="53.130984" lon="23.710553"></trkpt><trkpt lat="53.131157" lon="23.710753"></trkpt><trkpt lat="53.131384" lon="23.711351"></trkpt><trkpt lat="53.131579" lon="23.711753"></trkpt><trkpt lat="53.132197" lon="23.713298"></trkpt><trkpt lat="53.137022" lon="23.727562"></trkpt><trkpt lat="53.137097" lon="23.728093"></trkpt><trkpt lat="53.142846" lon="23.763974"></trkpt><trkpt lat="53.145934" lon="23.7789"></trkpt><trkpt lat="53.146333" lon="23.778971"></trkpt><trkpt lat="53.149399" lon="23.779881"></trkpt><trkpt lat="53.154514" lon="23.782327"></trkpt><trkpt lat="53.154632" lon="23.782622"></trkpt><trkpt lat="53.156294" lon="23.785544"></trkpt><trkpt lat="53.156579" lon="23.785631"></trkpt><trkpt lat="53.157988" lon="23.785854"></trkpt><trkpt lat="53.159521" lon="23.786296"></trkpt><trkpt lat="53.159895" lon="23.786631"></trkpt><trkpt lat="53.160399" lon="23.787197"></trkpt><trkpt lat="53.161551" lon="23.788736"></trkpt><trkpt lat="53.161989" lon="23.789229"></trkpt><trkpt lat="53.16219" lon="23.789407"></trkpt><trkpt lat="53.162381" lon="23.789535"></trkpt><trkpt lat="53.162979" lon="23.790042"></trkpt><trkpt lat="53.163142" lon="23.790455"></trkpt><trkpt lat="53.163394" lon="23.790933"></trkpt><trkpt lat="53.163644" lon="23.791341"></trkpt><trkpt lat="53.167008" lon="23.797696"></trkpt><trkpt lat="53.167156" lon="23.798395"></trkpt><trkpt lat="53.167288" lon="23.799223"></trkpt><trkpt lat="53.167494" lon="23.800106"></trkpt><trkpt lat="53.167716" lon="23.800798"></trkpt><trkpt lat="53.167959" lon="23.80181"></trkpt><trkpt lat="53.169048" lon="23.807901"></trkpt><trkpt lat="53.168929" lon="23.808989"></trkpt><trkpt lat="53.168829" lon="23.810636"></trkpt><trkpt lat="53.169" lon="23.810899"></trkpt><trkpt lat="53.169323" lon="23.810954"></trkpt><trkpt lat="53.16969" lon="23.811109"></trkpt><trkpt lat="53.170035" lon="23.81121"></trkpt><trkpt lat="53.174222" lon="23.811908"></trkpt><trkpt lat="53.17711" lon="23.811905"></trkpt><trkpt lat="53.177039" lon="23.811537"></trkpt><trkpt lat="53.177069" lon="23.811124"></trkpt><trkpt lat="53.177324" lon="23.810998"></trkpt><trkpt lat="53.177503" lon="23.811157"></trkpt><trkpt lat="53.17727" lon="23.811032"></trkpt><trkpt lat="53.177074" lon="23.811264"></trkpt><trkpt lat="53.177095" lon="23.811756"></trkpt><trkpt lat="53.177093" lon="23.812294"></trkpt><trkpt lat="53.177347" lon="23.81251"></trkpt><trkpt lat="53.177639" lon="23.812571"></trkpt><trkpt lat="53.177865" lon="23.812663"></trkpt><trkpt lat="53.178372" lon="23.81277"></trkpt><trkpt lat="53.178751" lon="23.8129"></trkpt><trkpt lat="53.181355" lon="23.813416"></trkpt><trkpt lat="53.183353" lon="23.8144"></trkpt><trkpt lat="53.183723" lon="23.814477"></trkpt><trkpt lat="53.184762" lon="23.814566"></trkpt><trkpt lat="53.185047" lon="23.814498"></trkpt><trkpt lat="53.184687" lon="23.814508"></trkpt><trkpt lat="53.183113" lon="23.81426"></trkpt><trkpt lat="53.181254" lon="23.813745"></trkpt><trkpt lat="53.180914" lon="23.813594"></trkpt><trkpt lat="53.180728" lon="23.81345"></trkpt><trkpt lat="53.180307" lon="23.813339"></trkpt><trkpt lat="53.179396" lon="23.813223"></trkpt><trkpt lat="53.179487" lon="23.813806"></trkpt><trkpt lat="53.179626" lon="23.814263"></trkpt><trkpt lat="53.17984" lon="23.814838"></trkpt><trkpt lat="53.17994" lon="23.815373"></trkpt><trkpt lat="53.180092" lon="23.815948"></trkpt><trkpt lat="53.180311" lon="23.816539"></trkpt><trkpt lat="53.180487" lon="23.816824"></trkpt><trkpt lat="53.180841" lon="23.817291"></trkpt><trkpt lat="53.180489" lon="23.816844"></trkpt><trkpt lat="53.180197" lon="23.816226"></trkpt><trkpt lat="53.180026" lon="23.81572"></trkpt><trkpt lat="53.179884" lon="23.815086"></trkpt><trkpt lat="53.179693" lon="23.814404"></trkpt><trkpt lat="53.178826" lon="23.812889"></trkpt><trkpt lat="53.178198" lon="23.812727"></trkpt><trkpt lat="53.177983" lon="23.813166"></trkpt><trkpt lat="53.177958" lon="23.813534"></trkpt><trkpt lat="53.178026" lon="23.813987"></trkpt><trkpt lat="53.177986" lon="23.813418"></trkpt><trkpt lat="53.17803" lon="23.812804"></trkpt><trkpt lat="53.177664" lon="23.81255"></trkpt><trkpt lat="53.177259" lon="23.81246"></trkpt><trkpt lat="53.168916" lon="23.809602"></trkpt><trkpt lat="53.169047" lon="23.808364"></trkpt><trkpt lat="53.169149" lon="23.806665"></trkpt><trkpt lat="53.168938" lon="23.805946"></trkpt><trkpt lat="53.168137" lon="23.80262"></trkpt><trkpt lat="53.166008" lon="23.795354"></trkpt><trkpt lat="53.16584" lon="23.794948"></trkpt><trkpt lat="53.165694" lon="23.794651"></trkpt><trkpt lat="53.165529" lon="23.794372"></trkpt><trkpt lat="53.161751" lon="23.788965"></trkpt><trkpt lat="53.159234" lon="23.786156"></trkpt><trkpt lat="53.15895" lon="23.786074"></trkpt><trkpt lat="53.157287" lon="23.7858"></trkpt><trkpt lat="53.15582" lon="23.785132"></trkpt><trkpt lat="53.155542" lon="23.784636"></trkpt><trkpt lat="53.155077" lon="23.783658"></trkpt><trkpt lat="53.153271" lon="23.780749"></trkpt><trkpt lat="53.152937" lon="23.780666"></trkpt><trkpt lat="53.152513" lon="23.780643"></trkpt><trkpt lat="53.152079" lon="23.780547"></trkpt><trkpt lat="53.145097" lon="23.777848"></trkpt><trkpt lat="53.144998" lon="23.777481"></trkpt><trkpt lat="53.14488" lon="23.776831"></trkpt><trkpt lat="53.139134" lon="23.740601"></trkpt><trkpt lat="53.135148" lon="23.721511"></trkpt><trkpt lat="53.134942" lon="23.720904"></trkpt><trkpt lat="53.130727" lon="23.710665"></trkpt><trkpt lat="53.130302" lon="23.710532"></trkpt><trkpt lat="53.129868" lon="23.710184"></trkpt><trkpt lat="53.129592" lon="23.710129"></trkpt><trkpt lat="53.129876" lon="23.710008"></trkpt><trkpt lat="53.12982" lon="23.7105"></trkpt><trkpt lat="53.12952" lon="23.710886"></trkpt><trkpt lat="53.12926" lon="23.711024"></trkpt><trkpt lat="53.128706" lon="23.711052"></trkpt><trkpt lat="53.127562" lon="23.711307"></trkpt><trkpt lat="53.127383" lon="23.711628"></trkpt><trkpt lat="53.127079" lon="23.711985"></trkpt><trkpt lat="53.126815" lon="23.712237"></trkpt><trkpt lat="53.126621" lon="23.712518"></trkpt><trkpt lat="53.125188" lon="23.714983"></trkpt><trkpt lat="53.123906" lon="23.717571"></trkpt><trkpt lat="53.123633" lon="23.718286"></trkpt><trkpt lat="53.122871" lon="23.720847"></trkpt><trkpt lat="53.1228" lon="23.721447"></trkpt><trkpt lat="53.122766" lon="23.722078"></trkpt><trkpt lat="53.12265" lon="23.722886"></trkpt><trkpt lat="53.122257" lon="23.724709"></trkpt><trkpt lat="53.121435" lon="23.724613"></trkpt><trkpt lat="53.120963" lon="23.724471"></trkpt><trkpt lat="53.120743" lon="23.724313"></trkpt><trkpt lat="53.120324" lon="23.723763"></trkpt><trkpt lat="53.114484" lon="23.718048"></trkpt><trkpt lat="53.11421" lon="23.718802"></trkpt><trkpt lat="53.113195" lon="23.722822"></trkpt><trkpt lat="53.113152" lon="23.723638"></trkpt><trkpt lat="53.111918" lon="23.736424"></trkpt><trkpt lat="53.111711" lon="23.736469"></trkpt></trkseg></trk></gpx>