<?xml version="1.0" encoding="UTF-8" standalone="no" ?><gpx xmlns="http://www.topografix.com/GPX/1/1" xmlns:gpxx="http://www.garmin.com/xmlschemas/GpxExtensions/v3" ><trk><trkseg><trkpt lat="54.1811090056" lon="15.5898784753"></trkpt><trkpt lat="54.1870842129" lon="15.5796736758"></trkpt><trkpt lat="54.1871121246" lon="15.5791209731"></trkpt><trkpt lat="54.1870829556" lon="15.5785376765"></trkpt><trkpt lat="54.1870839614" lon="15.5779667851"></trkpt><trkpt lat="54.1871691216" lon="15.5625426583"></trkpt><trkpt lat="54.1872650106" lon="15.5620874371"></trkpt><trkpt lat="54.1873011366" lon="15.5614139512"></trkpt><trkpt lat="54.1872561257" lon="15.5608148128"></trkpt><trkpt lat="54.1871713847" lon="15.5602502078"></trkpt><trkpt lat="54.1871340014" lon="15.5597247463"></trkpt><trkpt lat="54.187119836" lon="15.5544663593"></trkpt><trkpt lat="54.1872474924" lon="15.5537906103"></trkpt><trkpt lat="54.1873689461" lon="15.55333036"></trkpt><trkpt lat="54.1872013081" lon="15.553749539"></trkpt><trkpt lat="54.1871613264" lon="15.5542729888"></trkpt><trkpt lat="54.1869409662" lon="15.5547323171"></trkpt><trkpt lat="54.1866627708" lon="15.5544730648"></trkpt><trkpt lat="54.186654808" lon="15.5539251398"></trkpt><trkpt lat="54.1862487886" lon="15.553679131"></trkpt><trkpt lat="54.1858535819" lon="15.5537174363"></trkpt><trkpt lat="54.185770601" lon="15.5542168301"></trkpt><trkpt lat="54.1858255025" lon="15.5548325647"></trkpt><trkpt lat="54.1854566149" lon="15.5550083332"></trkpt><trkpt lat="54.1851069219" lon="15.5551112629"></trkpt><trkpt lat="54.1846917663" lon="15.5553088244"></trkpt><trkpt lat="54.184583053" lon="15.5557463598"></trkpt><trkpt lat="54.1844961327" lon="15.5562041793"></trkpt><trkpt lat="54.1841539834" lon="15.5560599267"></trkpt><trkpt lat="54.1845799517" lon="15.556121869"></trkpt><trkpt lat="54.1843207832" lon="15.5563926883"></trkpt><trkpt lat="54.1842145845" lon="15.5568411201"></trkpt><trkpt lat="54.1829422116" lon="15.5610319041"></trkpt><trkpt lat="54.1827388667" lon="15.56136542"></trkpt><trkpt lat="54.1825894173" lon="15.5617663264"></trkpt><trkpt lat="54.1824060213" lon="15.5621191207"></trkpt><trkpt lat="54.1822433285" lon="15.562514076"></trkpt><trkpt lat="54.1819438431" lon="15.5634062458"></trkpt><trkpt lat="54.1816221457" lon="15.5649251305"></trkpt><trkpt lat="54.1818404105" lon="15.5652432237"></trkpt><trkpt lat="54.1820880119" lon="15.5658720341"></trkpt><trkpt lat="54.1820496228" lon="15.5664340407"></trkpt><trkpt lat="54.1819547396" lon="15.5670131464"></trkpt><trkpt lat="54.1819320247" lon="15.5676044896"></trkpt><trkpt lat="54.1819861718" lon="15.5705434363"></trkpt><trkpt lat="54.182123635" lon="15.5709943827"></trkpt><trkpt lat="54.1821287479" lon="15.5714993924"></trkpt><trkpt lat="54.1821008362" lon="15.5719723832"></trkpt><trkpt lat="54.1820985731" lon="15.5725784786"></trkpt><trkpt lat="54.1820118204" lon="15.573816821"></trkpt></trkseg></trk></gpx>