<?xml version="1.0" encoding="UTF-8" standalone="no" ?><gpx xmlns="http://www.topografix.com/GPX/1/1" xmlns:gpxx="http://www.garmin.com/xmlschemas/GpxExtensions/v3" ><trk><trkseg><trkpt lat="54.2340899259" lon="18.1289203092"></trkpt><trkpt lat="54.2338667996" lon="18.1293686572"></trkpt><trkpt lat="54.2339476012" lon="18.129824549"></trkpt><trkpt lat="54.2340141535" lon="18.130415976"></trkpt><trkpt lat="54.2337229662" lon="18.130628122"></trkpt><trkpt lat="54.2334504705" lon="18.1307611428"></trkpt><trkpt lat="54.2332027853" lon="18.1310217362"></trkpt><trkpt lat="54.2330614664" lon="18.131517861"></trkpt><trkpt lat="54.2328468058" lon="18.1319105532"></trkpt><trkpt lat="54.2325828597" lon="18.1321002357"></trkpt><trkpt lat="54.2322710529" lon="18.1321786065"></trkpt><trkpt lat="54.232025547" lon="18.1324204244"></trkpt><trkpt lat="54.2317937035" lon="18.1328590494"></trkpt><trkpt lat="54.2314825673" lon="18.1332331337"></trkpt><trkpt lat="54.2311405856" lon="18.1338901911"></trkpt><trkpt lat="54.2308550142" lon="18.1339301728"></trkpt><trkpt lat="54.2304556165" lon="18.1337699946"></trkpt><trkpt lat="54.2302089371" lon="18.1335723493"></trkpt><trkpt lat="54.2297708988" lon="18.1335416716"></trkpt><trkpt lat="54.2292188667" lon="18.1336807273"></trkpt><trkpt lat="54.2289694212" lon="18.1339546479"></trkpt><trkpt lat="54.2287151143" lon="18.1344170775"></trkpt><trkpt lat="54.2285050638" lon="18.1347262859"></trkpt><trkpt lat="54.2282190733" lon="18.1347909104"></trkpt><trkpt lat="54.2278651055" lon="18.1348033994"></trkpt><trkpt lat="54.2276103795" lon="18.1345190853"></trkpt><trkpt lat="54.2275779415" lon="18.1337593496"></trkpt><trkpt lat="54.2276698072" lon="18.1331949122"></trkpt><trkpt lat="54.2274338566" lon="18.1329206564"></trkpt><trkpt lat="54.2269491311" lon="18.1336400751"></trkpt><trkpt lat="54.226508243" lon="18.1337824836"></trkpt><trkpt lat="54.2263644934" lon="18.133377051"></trkpt><trkpt lat="54.2262100987" lon="18.1328306347"></trkpt><trkpt lat="54.226180343" lon="18.1323096156"></trkpt><trkpt lat="54.2262111045" lon="18.1318078749"></trkpt><trkpt lat="54.2262976058" lon="18.1312906276"></trkpt><trkpt lat="54.2263221648" lon="18.1307684351"></trkpt><trkpt lat="54.2261660937" lon="18.1301458273"></trkpt><trkpt lat="54.2259656824" lon="18.1297998223"></trkpt><trkpt lat="54.2254574876" lon="18.1287271064"></trkpt><trkpt lat="54.2255274765" lon="18.1281697098"></trkpt><trkpt lat="54.2256839667" lon="18.1277206074"></trkpt><trkpt lat="54.2258005589" lon="18.1272070482"></trkpt><trkpt lat="54.225970041" lon="18.1266220752"></trkpt><trkpt lat="54.2261340749" lon="18.1258410495"></trkpt><trkpt lat="54.2261790857" lon="18.1251606066"></trkpt><trkpt lat="54.2262759805" lon="18.1247131806"></trkpt><trkpt lat="54.2264505755" lon="18.1242638268"></trkpt><trkpt lat="54.2266236618" lon="18.1235100422"></trkpt><trkpt lat="54.2263629008" lon="18.1240329891"></trkpt><trkpt lat="54.2260912433" lon="18.124395255"></trkpt><trkpt lat="54.2257900815" lon="18.1249259971"></trkpt><trkpt lat="54.2254838068" lon="18.1251118239"></trkpt><trkpt lat="54.2252987344" lon="18.1255689729"></trkpt><trkpt lat="54.2249321938" lon="18.1255563162"></trkpt><trkpt lat="54.2247948982" lon="18.1251155119"></trkpt><trkpt lat="54.2244821694" lon="18.1251651328"></trkpt><trkpt lat="54.2242056504" lon="18.1249474548"></trkpt><trkpt lat="54.2243716121" lon="18.1244801637"></trkpt><trkpt lat="54.2246001866" lon="18.1242323946"></trkpt><trkpt lat="54.2248110753" lon="18.1237712223"></trkpt><trkpt lat="54.2247461993" lon="18.1233011652"></trkpt><trkpt lat="54.2245069798" lon="18.1230870914"></trkpt><trkpt lat="54.2242329754" lon="18.1226150226"></trkpt><trkpt lat="54.2239425424" lon="18.122659279"></trkpt><trkpt lat="54.22374079" lon="18.123096982"></trkpt><trkpt lat="54.2234158237" lon="18.1232895982"></trkpt><trkpt lat="54.2231647857" lon="18.1234953739"></trkpt><trkpt lat="54.2222726159" lon="18.1225248333"></trkpt><trkpt lat="54.2220564466" lon="18.1221150421"></trkpt><trkpt lat="54.2217757367" lon="18.1217849627"></trkpt><trkpt lat="54.2214586493" lon="18.1215312425"></trkpt><trkpt lat="54.2207328603" lon="18.1208031066"></trkpt><trkpt lat="54.2204126716" lon="18.1206524"></trkpt><trkpt lat="54.2201089952" lon="18.1205946486"></trkpt><trkpt lat="54.2198576219" lon="18.1203836761"></trkpt><trkpt lat="54.2196147144" lon="18.1198671833"></trkpt><trkpt lat="54.2193771712" lon="18.1194684561"></trkpt><trkpt lat="54.2190601677" lon="18.1195465755"></trkpt><trkpt lat="54.2186248954" lon="18.1195825338"></trkpt><trkpt lat="54.2181802355" lon="18.1193867326"></trkpt><trkpt lat="54.2182665691" lon="18.1187420804"></trkpt><trkpt lat="54.2183766235" lon="18.11692941"></trkpt><trkpt lat="54.2182592768" lon="18.1164540723"></trkpt><trkpt lat="54.2181120906" lon="18.115985943"></trkpt><trkpt lat="54.2179913074" lon="18.1153660174"></trkpt><trkpt lat="54.2176871281" lon="18.1149939448"></trkpt><trkpt lat="54.2174101062" lon="18.1145176012"></trkpt><trkpt lat="54.217217071" lon="18.1140733603"></trkpt><trkpt lat="54.2169393785" lon="18.1137763057"></trkpt><trkpt lat="54.2164010927" lon="18.1130212639"></trkpt><trkpt lat="54.2161992565" lon="18.1126092095"></trkpt><trkpt lat="54.2158276867" lon="18.112434363"></trkpt><trkpt lat="54.2148499377" lon="18.1117327139"></trkpt><trkpt lat="54.2147845589" lon="18.1112173107"></trkpt><trkpt lat="54.2146053538" lon="18.1108387839"></trkpt><trkpt lat="54.2146715708" lon="18.1103187706"></trkpt><trkpt lat="54.2148975469" lon="18.1099180318"></trkpt><trkpt lat="54.2149849702" lon="18.1094763055"></trkpt><trkpt lat="54.2151926737" lon="18.108960567"></trkpt><trkpt lat="54.2152499221" lon="18.1084686331"></trkpt><trkpt lat="54.2152315658" lon="18.1078880187"></trkpt><trkpt lat="54.2153553665" lon="18.1073344778"></trkpt><trkpt lat="54.2155103479" lon="18.106398806"></trkpt><trkpt lat="54.2155529279" lon="18.1058098096"></trkpt><trkpt lat="54.2157872859" lon="18.1055799779"></trkpt><trkpt lat="54.2161013559" lon="18.1050005369"></trkpt><trkpt lat="54.216317106" lon="18.1044503488"></trkpt><trkpt lat="54.2166916095" lon="18.1037119031"></trkpt><trkpt lat="54.2169951182" lon="18.1032153592"></trkpt><trkpt lat="54.2172589805" lon="18.1029928196"></trkpt><trkpt lat="54.2176347412" lon="18.1027520914"></trkpt><trkpt lat="54.2187091336" lon="18.1022854708"></trkpt><trkpt lat="54.2189968843" lon="18.1022884045"></trkpt><trkpt lat="54.2193135526" lon="18.1020594109"></trkpt><trkpt lat="54.2204020265" lon="18.101500757"></trkpt><trkpt lat="54.2206549086" lon="18.1012893654"></trkpt><trkpt lat="54.2208956368" lon="18.1009849347"></trkpt><trkpt lat="54.221107699" lon="18.1005140394"></trkpt><trkpt lat="54.2212326732" lon="18.1000991352"></trkpt><trkpt lat="54.2214663606" lon="18.0997998174"></trkpt><trkpt lat="54.2217645049" lon="18.0994848255"></trkpt><trkpt lat="54.2220780719" lon="18.0992565863"></trkpt><trkpt lat="54.2240168899" lon="18.0981828645"></trkpt><trkpt lat="54.2261520121" lon="18.0965066515"></trkpt><trkpt lat="54.2262774054" lon="18.0959683657"></trkpt><trkpt lat="54.2263756413" lon="18.0953973066"></trkpt><trkpt lat="54.2265396751" lon="18.094863547"></trkpt><trkpt lat="54.226914933" lon="18.0938787572"></trkpt><trkpt lat="54.2272291705" lon="18.0936148111"></trkpt><trkpt lat="54.2275159992" lon="18.093307782"></trkpt><trkpt lat="54.227766199" lon="18.0929740146"></trkpt><trkpt lat="54.2279542889" lon="18.0925868545"></trkpt><trkpt lat="54.2284097616" lon="18.0918049905"></trkpt><trkpt lat="54.2286412697" lon="18.0912322551"></trkpt><trkpt lat="54.2288883682" lon="18.091004435"></trkpt><trkpt lat="54.2292251531" lon="18.0908593442"></trkpt><trkpt lat="54.2294233013" lon="18.0903910473"></trkpt><trkpt lat="54.2301314045" lon="18.0890152417"></trkpt><trkpt lat="54.2304167245" lon="18.0885570869"></trkpt><trkpt lat="54.2308758013" lon="18.0883932207"></trkpt><trkpt lat="54.2312552501" lon="18.0883394927"></trkpt><trkpt lat="54.2315380555" lon="18.0881794821"></trkpt><trkpt lat="54.2314844951" lon="18.0876245163"></trkpt><trkpt lat="54.2313827388" lon="18.0871464126"></trkpt><trkpt lat="54.2314021848" lon="18.0865397304"></trkpt><trkpt lat="54.2313877679" lon="18.0858917255"></trkpt><trkpt lat="54.2316294182" lon="18.0852495041"></trkpt><trkpt lat="54.2319791112" lon="18.0848542135"></trkpt><trkpt lat="54.2324920837" lon="18.0844438355"></trkpt><trkpt lat="54.2327779904" lon="18.084592782"></trkpt><trkpt lat="54.233099604" lon="18.0846376251"></trkpt><trkpt lat="54.2333705071" lon="18.0843467731"></trkpt><trkpt lat="54.2337646242" lon="18.0841513071"></trkpt><trkpt lat="54.2342472542" lon="18.0841601919"></trkpt><trkpt lat="54.2340974696" lon="18.0846297462"></trkpt><trkpt lat="54.2342335917" lon="18.0852873065"></trkpt><trkpt lat="54.2344091088" lon="18.0857758038"></trkpt><trkpt lat="54.2345092725" lon="18.0862345453"></trkpt><trkpt lat="54.2346995417" lon="18.086894704"></trkpt><trkpt lat="54.2347870488" lon="18.0873854645"></trkpt><trkpt lat="54.234751761" lon="18.0879284441"></trkpt><trkpt lat="54.2348574568" lon="18.0884601083"></trkpt><trkpt lat="54.2350440379" lon="18.0891385395"></trkpt><trkpt lat="54.2351438664" lon="18.0896591395"></trkpt><trkpt lat="54.2353239935" lon="18.09023045"></trkpt><trkpt lat="54.2357098125" lon="18.0918600596"></trkpt><trkpt lat="54.235655833" lon="18.0924820807"></trkpt><trkpt lat="54.2354763765" lon="18.0936219357"></trkpt><trkpt lat="54.235583581" lon="18.0940892268"></trkpt><trkpt lat="54.2355482094" lon="18.0946717691"></trkpt><trkpt lat="54.2354207207" lon="18.0957922619"></trkpt><trkpt lat="54.2353372369" lon="18.0962665938"></trkpt><trkpt lat="54.2353391647" lon="18.0969332065"></trkpt><trkpt lat="54.2352976743" lon="18.0974844843"></trkpt><trkpt lat="54.2352516577" lon="18.100857446"></trkpt><trkpt lat="54.2349852808" lon="18.1011268403"></trkpt><trkpt lat="54.2346635833" lon="18.1015214603"></trkpt><trkpt lat="54.2343308218" lon="18.101573512"></trkpt><trkpt lat="54.2341011576" lon="18.1013008486"></trkpt><trkpt lat="54.233917091" lon="18.1009288598"></trkpt><trkpt lat="54.2341285665" lon="18.101393804"></trkpt><trkpt lat="54.2343055084" lon="18.1018960476"></trkpt><trkpt lat="54.2344952747" lon="18.1022725627"></trkpt><trkpt lat="54.2347117793" lon="18.1026201602"></trkpt><trkpt lat="54.2350536771" lon="18.1028325576"></trkpt><trkpt lat="54.2353083193" lon="18.1030610483"></trkpt><trkpt lat="54.235270936" lon="18.1036195345"></trkpt><trkpt lat="54.2351830937" lon="18.1042899191"></trkpt><trkpt lat="54.2350492347" lon="18.1048121955"></trkpt><trkpt lat="54.2348011304" lon="18.1052190531"></trkpt><trkpt lat="54.2349121906" lon="18.1058074627"></trkpt><trkpt lat="54.2352219019" lon="18.1059314311"></trkpt><trkpt lat="54.2355951481" lon="18.10591802"></trkpt><trkpt lat="54.2360022571" lon="18.1057133339"></trkpt><trkpt lat="54.2362788599" lon="18.1057127472"></trkpt><trkpt lat="54.2365347594" lon="18.1058619451"></trkpt><trkpt lat="54.2367587239" lon="18.1061355304"></trkpt><trkpt lat="54.2369363364" lon="18.1067022309"></trkpt><trkpt lat="54.2370323092" lon="18.1071833521"></trkpt><trkpt lat="54.2375880294" lon="18.1092036422"></trkpt><trkpt lat="54.2378290929" lon="18.1095768884"></trkpt><trkpt lat="54.2380861659" lon="18.110063374"></trkpt><trkpt lat="54.2383622658" lon="18.110481631"></trkpt><trkpt lat="54.2386594042" lon="18.1107459124"></trkpt><trkpt lat="54.2383821309" lon="18.1108574755"></trkpt><trkpt lat="54.2382072005" lon="18.1104931142"></trkpt><trkpt lat="54.2384565622" lon="18.1102238037"></trkpt><trkpt lat="54.2382980604" lon="18.1098082289"></trkpt><trkpt lat="54.2382447515" lon="18.1092907302"></trkpt><trkpt lat="54.2382308375" lon="18.1098398287"></trkpt><trkpt lat="54.2384369485" lon="18.1101714168"></trkpt><trkpt lat="54.2382803746" lon="18.1106630992"></trkpt><trkpt lat="54.2380577512" lon="18.1110738963"></trkpt><trkpt lat="54.2381007504" lon="18.1116204802"></trkpt><trkpt lat="54.2379409913" lon="18.1120285112"></trkpt><trkpt lat="54.237810066" lon="18.1124626938"></trkpt><trkpt lat="54.2377881054" lon="18.1130987126"></trkpt><trkpt lat="54.2377037834" lon="18.1135613099"></trkpt><trkpt lat="54.2375342175" lon="18.1142475363"></trkpt><trkpt lat="54.2372330558" lon="18.1150026619"></trkpt><trkpt lat="54.2368925828" lon="18.1154277083"></trkpt><trkpt lat="54.2368380167" lon="18.115941938"></trkpt><trkpt lat="54.2366284691" lon="18.1171465851"></trkpt><trkpt lat="54.2363739107" lon="18.1175115332"></trkpt><trkpt lat="54.2361271475" lon="18.11778537"></trkpt><trkpt lat="54.2358015105" lon="18.1180140283"></trkpt><trkpt lat="54.2355233151" lon="18.1184690818"></trkpt><trkpt lat="54.2352467123" lon="18.1187195331"></trkpt><trkpt lat="54.2348934989" lon="18.1187685672"></trkpt><trkpt lat="54.2348067462" lon="18.1192294043"></trkpt><trkpt lat="54.2348818481" lon="18.1198713742"></trkpt><trkpt lat="54.2350136116" lon="18.1225121766"></trkpt><trkpt lat="54.2349440418" lon="18.1231563259"></trkpt><trkpt lat="54.2348168045" lon="18.1236889958"></trkpt><trkpt lat="54.2345339153" lon="18.1252632849"></trkpt><trkpt lat="54.2345299758" lon="18.1257431488"></trkpt><trkpt lat="54.2344642617" lon="18.1264325604"></trkpt><trkpt lat="54.2345225159" lon="18.127011247"></trkpt><trkpt lat="54.2344693746" lon="18.1275376305"></trkpt><trkpt lat="54.2347216699" lon="18.1277315877"></trkpt><trkpt lat="54.2344306502" lon="18.1277469266"></trkpt></trkseg></trk></gpx>