<?xml version="1.0" encoding="UTF-8" standalone="no" ?><gpx xmlns="http://www.topografix.com/GPX/1/1" xmlns:gpxx="http://www.garmin.com/xmlschemas/GpxExtensions/v3" ><trk><trkseg><trkpt lat="53.746087" lon="18.023299"></trkpt><trkpt lat="53.745744" lon="18.022986"></trkpt><trkpt lat="53.745451" lon="18.022494"></trkpt><trkpt lat="53.74501" lon="18.021595"></trkpt><trkpt lat="53.745418" lon="18.021086"></trkpt><trkpt lat="53.749309" lon="18.016958"></trkpt><trkpt lat="53.749996" lon="18.016829"></trkpt><trkpt lat="53.751622" lon="18.016724"></trkpt><trkpt lat="53.75208" lon="18.016999"></trkpt><trkpt lat="53.757116" lon="18.019179"></trkpt><trkpt lat="53.757654" lon="18.019136"></trkpt><trkpt lat="53.758012" lon="18.018969"></trkpt><trkpt lat="53.758344" lon="18.018722"></trkpt><trkpt lat="53.777284" lon="18.00174"></trkpt><trkpt lat="53.777925" lon="18.000791"></trkpt><trkpt lat="53.784486" lon="17.992455"></trkpt><trkpt lat="53.785065" lon="17.992225"></trkpt><trkpt lat="53.78699" lon="17.991211"></trkpt><trkpt lat="53.787415" lon="17.990509"></trkpt><trkpt lat="53.787721" lon="17.989524"></trkpt><trkpt lat="53.788589" lon="17.987229"></trkpt><trkpt lat="53.788857" lon="17.986732"></trkpt><trkpt lat="53.78908" lon="17.986215"></trkpt><trkpt lat="53.789289" lon="17.985555"></trkpt><trkpt lat="53.791039" lon="17.981037"></trkpt><trkpt lat="53.791246" lon="17.980378"></trkpt><trkpt lat="53.79197" lon="17.978456"></trkpt><trkpt lat="53.792206" lon="17.978512"></trkpt><trkpt lat="53.792964" lon="17.979026"></trkpt><trkpt lat="53.79349" lon="17.979306"></trkpt><trkpt lat="53.79388" lon="17.979401"></trkpt><trkpt lat="53.794172" lon="17.979837"></trkpt><trkpt lat="53.795255" lon="17.981199"></trkpt><trkpt lat="53.795557" lon="17.980914"></trkpt><trkpt lat="53.795802" lon="17.980526"></trkpt><trkpt lat="53.79592" lon="17.980244"></trkpt><trkpt lat="53.795797" lon="17.979663"></trkpt><trkpt lat="53.795035" lon="17.974995"></trkpt><trkpt lat="53.795164" lon="17.974323"></trkpt><trkpt lat="53.795284" lon="17.973977"></trkpt><trkpt lat="53.795493" lon="17.973471"></trkpt><trkpt lat="53.79584" lon="17.972017"></trkpt><trkpt lat="53.795784" lon="17.971482"></trkpt><trkpt lat="53.795777" lon="17.970281"></trkpt><trkpt lat="53.795941" lon="17.970046"></trkpt><trkpt lat="53.796397" lon="17.970107"></trkpt><trkpt lat="53.797164" lon="17.969904"></trkpt><trkpt lat="53.797627" lon="17.969609"></trkpt><trkpt lat="53.799345" lon="17.968099"></trkpt><trkpt lat="53.799173" lon="17.967367"></trkpt><trkpt lat="53.799157" lon="17.967029"></trkpt><trkpt lat="53.799278" lon="17.966003"></trkpt><trkpt lat="53.799419" lon="17.965737"></trkpt><trkpt lat="53.799987" lon="17.96533"></trkpt><trkpt lat="53.80002" lon="17.964948"></trkpt><trkpt lat="53.7998" lon="17.96396"></trkpt><trkpt lat="53.798694" lon="17.957504"></trkpt><trkpt lat="53.798904" lon="17.956275"></trkpt><trkpt lat="53.799254" lon="17.954805"></trkpt><trkpt lat="53.801342" lon="17.947679"></trkpt><trkpt lat="53.80183" lon="17.946692"></trkpt><trkpt lat="53.808854" lon="17.930117"></trkpt><trkpt lat="53.80929" lon="17.928876"></trkpt><trkpt lat="53.822706" lon="17.891712"></trkpt><trkpt lat="53.82273" lon="17.891324"></trkpt><trkpt lat="53.822927" lon="17.890749"></trkpt><trkpt lat="53.823083" lon="17.890014"></trkpt><trkpt lat="53.830326" lon="17.847664"></trkpt><trkpt lat="53.830423" lon="17.847318"></trkpt><trkpt lat="53.842011" lon="17.812933"></trkpt><trkpt lat="53.8422" lon="17.812619"></trkpt><trkpt lat="53.854812" lon="17.788381"></trkpt><trkpt lat="53.85492" lon="17.787685"></trkpt><trkpt lat="53.855845" lon="17.78311"></trkpt><trkpt lat="53.855969" lon="17.782785"></trkpt><trkpt lat="53.865657" lon="17.760935"></trkpt><trkpt lat="53.866123" lon="17.760129"></trkpt><trkpt lat="53.867756" lon="17.757681"></trkpt><trkpt lat="53.868305" lon="17.75772"></trkpt><trkpt lat="53.868558" lon="17.757784"></trkpt><trkpt lat="53.871728" lon="17.758152"></trkpt><trkpt lat="53.872204" lon="17.75794"></trkpt><trkpt lat="53.873027" lon="17.757706"></trkpt><trkpt lat="53.874495" lon="17.757793"></trkpt><trkpt lat="53.874569" lon="17.757336"></trkpt><trkpt lat="53.874685" lon="17.756296"></trkpt><trkpt lat="53.874918" lon="17.754802"></trkpt><trkpt lat="53.875043" lon="17.754516"></trkpt><trkpt lat="53.875528" lon="17.754413"></trkpt><trkpt lat="53.876249" lon="17.754107"></trkpt><trkpt lat="53.876512" lon="17.753841"></trkpt><trkpt lat="53.87685" lon="17.753409"></trkpt><trkpt lat="53.877165" lon="17.752904"></trkpt><trkpt lat="53.879541" lon="17.748437"></trkpt><trkpt lat="53.879834" lon="17.747566"></trkpt><trkpt lat="53.879953" lon="17.747068"></trkpt><trkpt lat="53.886404" lon="17.711332"></trkpt><trkpt lat="53.886238" lon="17.710797"></trkpt><trkpt lat="53.885428" lon="17.708667"></trkpt><trkpt lat="53.885236" lon="17.708236"></trkpt><trkpt lat="53.88358" lon="17.703833"></trkpt><trkpt lat="53.883346" lon="17.703013"></trkpt><trkpt lat="53.883176" lon="17.702698"></trkpt><trkpt lat="53.882859" lon="17.701443"></trkpt><trkpt lat="53.882085" lon="17.698915"></trkpt><trkpt lat="53.8816" lon="17.697718"></trkpt><trkpt lat="53.880135" lon="17.694849"></trkpt><trkpt lat="53.879838" lon="17.694476"></trkpt><trkpt lat="53.879651" lon="17.694199"></trkpt><trkpt lat="53.879225" lon="17.69341"></trkpt><trkpt lat="53.874452" lon="17.683197"></trkpt><trkpt lat="53.874091" lon="17.682235"></trkpt><trkpt lat="53.874047" lon="17.681906"></trkpt><trkpt lat="53.873605" lon="17.680842"></trkpt><trkpt lat="53.873182" lon="17.68001"></trkpt><trkpt lat="53.869762" lon="17.672054"></trkpt><trkpt lat="53.869638" lon="17.671612"></trkpt><trkpt lat="53.869694" lon="17.67125"></trkpt><trkpt lat="53.869971" lon="17.670817"></trkpt><trkpt lat="53.870227" lon="17.670614"></trkpt><trkpt lat="53.870707" lon="17.670161"></trkpt><trkpt lat="53.870894" lon="17.669665"></trkpt><trkpt lat="53.87094" lon="17.669144"></trkpt><trkpt lat="53.871279" lon="17.667924"></trkpt><trkpt lat="53.871917" lon="17.666019"></trkpt><trkpt lat="53.871866" lon="17.665457"></trkpt><trkpt lat="53.871971" lon="17.665785"></trkpt><trkpt lat="53.872851" lon="17.663466"></trkpt><trkpt lat="53.881611" lon="17.63587"></trkpt><trkpt lat="53.881515" lon="17.634816"></trkpt><trkpt lat="53.881217" lon="17.632918"></trkpt><trkpt lat="53.880944" lon="17.632268"></trkpt><trkpt lat="53.880475" lon="17.631651"></trkpt><trkpt lat="53.880005" lon="17.631232"></trkpt><trkpt lat="53.869947" lon="17.620388"></trkpt><trkpt lat="53.869484" lon="17.619484"></trkpt><trkpt lat="53.863412" lon="17.605743"></trkpt><trkpt lat="53.862651" lon="17.603725"></trkpt><trkpt lat="53.86141" lon="17.601133"></trkpt><trkpt lat="53.860897" lon="17.600311"></trkpt><trkpt lat="53.859421" lon="17.597544"></trkpt><trkpt lat="53.8591" lon="17.596548"></trkpt><trkpt lat="53.85717" lon="17.589407"></trkpt><trkpt lat="53.856981" lon="17.588523"></trkpt><trkpt lat="53.85421" lon="17.577984"></trkpt><trkpt lat="53.853698" lon="17.577349"></trkpt><trkpt lat="53.853489" lon="17.577179"></trkpt><trkpt lat="53.853162" lon="17.57686"></trkpt><trkpt lat="53.852996" lon="17.576661"></trkpt><trkpt lat="53.852762" lon="17.576208"></trkpt><trkpt lat="53.852662" lon="17.575885"></trkpt><trkpt lat="53.852569" lon="17.57552"></trkpt><trkpt lat="53.852414" lon="17.574302"></trkpt><trkpt lat="53.85236" lon="17.573306"></trkpt><trkpt lat="53.852058" lon="17.570166"></trkpt><trkpt lat="53.851987" lon="17.56717"></trkpt><trkpt lat="53.852147" lon="17.566191"></trkpt><trkpt lat="53.852642" lon="17.564055"></trkpt><trkpt lat="53.852897" lon="17.5634"></trkpt><trkpt lat="53.854448" lon="17.558599"></trkpt><trkpt lat="53.854474" lon="17.558246"></trkpt><trkpt lat="53.854541" lon="17.557811"></trkpt><trkpt lat="53.854757" lon="17.556853"></trkpt><trkpt lat="53.854934" lon="17.556238"></trkpt><trkpt lat="53.85565" lon="17.553003"></trkpt><trkpt lat="53.855699" lon="17.552322"></trkpt><trkpt lat="53.85672" lon="17.543399"></trkpt><trkpt lat="53.856915" lon="17.542401"></trkpt><trkpt lat="53.857693" lon="17.539223"></trkpt><trkpt lat="53.863156" lon="17.510875"></trkpt><trkpt lat="53.863102" lon="17.510267"></trkpt><trkpt lat="53.862165" lon="17.503416"></trkpt><trkpt lat="53.862007" lon="17.503162"></trkpt><trkpt lat="53.860936" lon="17.500627"></trkpt><trkpt lat="53.860819" lon="17.500302"></trkpt><trkpt lat="53.860622" lon="17.50022"></trkpt><trkpt lat="53.86033" lon="17.499964"></trkpt><trkpt lat="53.859977" lon="17.499571"></trkpt><trkpt lat="53.859855" lon="17.49927"></trkpt><trkpt lat="53.859654" lon="17.498219"></trkpt><trkpt lat="53.859166" lon="17.496539"></trkpt><trkpt lat="53.858761" lon="17.49549"></trkpt><trkpt lat="53.857953" lon="17.493792"></trkpt><trkpt lat="53.857777" lon="17.493603"></trkpt><trkpt lat="53.857575" lon="17.493872"></trkpt><trkpt lat="53.85767" lon="17.493547"></trkpt><trkpt lat="53.85715" lon="17.493066"></trkpt><trkpt lat="53.855887" lon="17.492114"></trkpt><trkpt lat="53.855579" lon="17.492261"></trkpt><trkpt lat="53.855106" lon="17.492393"></trkpt><trkpt lat="53.844457" lon="17.493936"></trkpt><trkpt lat="53.843873" lon="17.493295"></trkpt><trkpt lat="53.843663" lon="17.492995"></trkpt><trkpt lat="53.843291" lon="17.492623"></trkpt><trkpt lat="53.84282" lon="17.492285"></trkpt><trkpt lat="53.842266" lon="17.491994"></trkpt><trkpt lat="53.841079" lon="17.492429"></trkpt><trkpt lat="53.840585" lon="17.492325"></trkpt><trkpt lat="53.840316" lon="17.492648"></trkpt><trkpt lat="53.840034" lon="17.492931"></trkpt><trkpt lat="53.839725" lon="17.493315"></trkpt><trkpt lat="53.839306" lon="17.493754"></trkpt><trkpt lat="53.838903" lon="17.493798"></trkpt><trkpt lat="53.838694" lon="17.493522"></trkpt><trkpt lat="53.838431" lon="17.49323"></trkpt><trkpt lat="53.837977" lon="17.492876"></trkpt><trkpt lat="53.837727" lon="17.492728"></trkpt><trkpt lat="53.837497" lon="17.492696"></trkpt><trkpt lat="53.835949" lon="17.492726"></trkpt><trkpt lat="53.835006" lon="17.492905"></trkpt><trkpt lat="53.834599" lon="17.493102"></trkpt><trkpt lat="53.834261" lon="17.493211"></trkpt><trkpt lat="53.833806" lon="17.493257"></trkpt><trkpt lat="53.833042" lon="17.493451"></trkpt><trkpt lat="53.832605" lon="17.493505"></trkpt><trkpt lat="53.832228" lon="17.493398"></trkpt><trkpt lat="53.831931" lon="17.492848"></trkpt><trkpt lat="53.831815" lon="17.492416"></trkpt><trkpt lat="53.831615" lon="17.492112"></trkpt><trkpt lat="53.831421" lon="17.491689"></trkpt><trkpt lat="53.831133" lon="17.491423"></trkpt><trkpt lat="53.830987" lon="17.491149"></trkpt><trkpt lat="53.830913" lon="17.490776"></trkpt><trkpt lat="53.830671" lon="17.490146"></trkpt><trkpt lat="53.830444" lon="17.490037"></trkpt><trkpt lat="53.829992" lon="17.489951"></trkpt><trkpt lat="53.82977" lon="17.489942"></trkpt><trkpt lat="53.829249" lon="17.489794"></trkpt><trkpt lat="53.82266" lon="17.488736"></trkpt><trkpt lat="53.822462" lon="17.488844"></trkpt><trkpt lat="53.821705" lon="17.489155"></trkpt><trkpt lat="53.821196" lon="17.48919"></trkpt><trkpt lat="53.820711" lon="17.489313"></trkpt><trkpt lat="53.820348" lon="17.489466"></trkpt><trkpt lat="53.81995" lon="17.489495"></trkpt><trkpt lat="53.81951" lon="17.489275"></trkpt><trkpt lat="53.819283" lon="17.488902"></trkpt><trkpt lat="53.818986" lon="17.488228"></trkpt><trkpt lat="53.818788" lon="17.487695"></trkpt><trkpt lat="53.818616" lon="17.4874"></trkpt><trkpt lat="53.818411" lon="17.487123"></trkpt><trkpt lat="53.8182" lon="17.487001"></trkpt><trkpt lat="53.817802" lon="17.48782"></trkpt><trkpt lat="53.817355" lon="17.489273"></trkpt><trkpt lat="53.817125" lon="17.490309"></trkpt><trkpt lat="53.816403" lon="17.495373"></trkpt><trkpt lat="53.816456" lon="17.495714"></trkpt><trkpt lat="53.81672" lon="17.496632"></trkpt><trkpt lat="53.816976" lon="17.497266"></trkpt><trkpt lat="53.81872" lon="17.502919"></trkpt><trkpt lat="53.818681" lon="17.504204"></trkpt><trkpt lat="53.818023" lon="17.51285"></trkpt><trkpt lat="53.817804" lon="17.513326"></trkpt><trkpt lat="53.817508" lon="17.513767"></trkpt><trkpt lat="53.817146" lon="17.514143"></trkpt><trkpt lat="53.816822" lon="17.514428"></trkpt><trkpt lat="53.816131" lon="17.514791"></trkpt><trkpt lat="53.815678" lon="17.514688"></trkpt><trkpt lat="53.815434" lon="17.514712"></trkpt><trkpt lat="53.815181" lon="17.514843"></trkpt><trkpt lat="53.814745" lon="17.515136"></trkpt><trkpt lat="53.814492" lon="17.515442"></trkpt><trkpt lat="53.814208" lon="17.51564"></trkpt><trkpt lat="53.813858" lon="17.515792"></trkpt><trkpt lat="53.813655" lon="17.51575"></trkpt><trkpt lat="53.813403" lon="17.515623"></trkpt><trkpt lat="53.809251" lon="17.51408"></trkpt><trkpt lat="53.803529" lon="17.512753"></trkpt><trkpt lat="53.803434" lon="17.513238"></trkpt><trkpt lat="53.803206" lon="17.514111"></trkpt><trkpt lat="53.802808" lon="17.514769"></trkpt><trkpt lat="53.802545" lon="17.515137"></trkpt><trkpt lat="53.802337" lon="17.515218"></trkpt><trkpt lat="53.802136" lon="17.51533"></trkpt><trkpt lat="53.801638" lon="17.515517"></trkpt><trkpt lat="53.78814" lon="17.522363"></trkpt><trkpt lat="53.787739" lon="17.522784"></trkpt><trkpt lat="53.777786" lon="17.530989"></trkpt><trkpt lat="53.777582" lon="17.53103"></trkpt><trkpt lat="53.777276" lon="17.530775"></trkpt><trkpt lat="53.753426" lon="17.513548"></trkpt><trkpt lat="53.752643" lon="17.513813"></trkpt><trkpt lat="53.751103" lon="17.514704"></trkpt><trkpt lat="53.750832" lon="17.51492"></trkpt><trkpt lat="53.749513" lon="17.515782"></trkpt><trkpt lat="53.749307" lon="17.51586"></trkpt><trkpt lat="53.748896" lon="17.515918"></trkpt><trkpt lat="53.748428" lon="17.515928"></trkpt><trkpt lat="53.745123" lon="17.515233"></trkpt><trkpt lat="53.744424" lon="17.514658"></trkpt><trkpt lat="53.744024" lon="17.514522"></trkpt><trkpt lat="53.74349" lon="17.514583"></trkpt><trkpt lat="53.74228" lon="17.514231"></trkpt><trkpt lat="53.741642" lon="17.513709"></trkpt><trkpt lat="53.740891" lon="17.513242"></trkpt><trkpt lat="53.740001" lon="17.513198"></trkpt><trkpt lat="53.739702" lon="17.513106"></trkpt><trkpt lat="53.73848" lon="17.512926"></trkpt><trkpt lat="53.738284" lon="17.512873"></trkpt><trkpt lat="53.738098" lon="17.512735"></trkpt><trkpt lat="53.73766" lon="17.512274"></trkpt><trkpt lat="53.737307" lon="17.512071"></trkpt><trkpt lat="53.733961" lon="17.510651"></trkpt><trkpt lat="53.733721" lon="17.510699"></trkpt><trkpt lat="53.733491" lon="17.510704"></trkpt><trkpt lat="53.733526" lon="17.511066"></trkpt><trkpt lat="53.733527" lon="17.51171"></trkpt><trkpt lat="53.733421" lon="17.513814"></trkpt><trkpt lat="53.733267" lon="17.514036"></trkpt><trkpt lat="53.732749" lon="17.514285"></trkpt><trkpt lat="53.731914" lon="17.514803"></trkpt><trkpt lat="53.731561" lon="17.515149"></trkpt><trkpt lat="53.731248" lon="17.515539"></trkpt><trkpt lat="53.721456" lon="17.525682"></trkpt><trkpt lat="53.720487" lon="17.526277"></trkpt><trkpt lat="53.717439" lon="17.528585"></trkpt><trkpt lat="53.717149" lon="17.528746"></trkpt><trkpt lat="53.71643" lon="17.528858"></trkpt><trkpt lat="53.713999" lon="17.529598"></trkpt><trkpt lat="53.713835" lon="17.530269"></trkpt><trkpt lat="53.712316" lon="17.53495"></trkpt><trkpt lat="53.711839" lon="17.535775"></trkpt><trkpt lat="53.697825" lon="17.556762"></trkpt><trkpt lat="53.697419" lon="17.556876"></trkpt><trkpt lat="53.696969" lon="17.556835"></trkpt><trkpt lat="53.694242" lon="17.558128"></trkpt><trkpt lat="53.694209" lon="17.558914"></trkpt><trkpt lat="53.693342" lon="17.566253"></trkpt><trkpt lat="53.693" lon="17.566677"></trkpt><trkpt lat="53.692724" lon="17.566827"></trkpt><trkpt lat="53.692504" lon="17.566906"></trkpt><trkpt lat="53.692198" lon="17.567129"></trkpt><trkpt lat="53.69209" lon="17.567454"></trkpt><trkpt lat="53.691721" lon="17.56831"></trkpt><trkpt lat="53.691494" lon="17.568761"></trkpt><trkpt lat="53.691109" lon="17.569687"></trkpt><trkpt lat="53.688831" lon="17.576407"></trkpt><trkpt lat="53.688831" lon="17.576035"></trkpt><trkpt lat="53.689006" lon="17.575545"></trkpt><trkpt lat="53.688863" lon="17.575242"></trkpt><trkpt lat="53.688417" lon="17.574622"></trkpt><trkpt lat="53.688242" lon="17.57445"></trkpt><trkpt lat="53.687919" lon="17.574213"></trkpt><trkpt lat="53.687571" lon="17.574877"></trkpt><trkpt lat="53.687472" lon="17.575209"></trkpt><trkpt lat="53.687597" lon="17.575576"></trkpt><trkpt lat="53.687964" lon="17.576076"></trkpt><trkpt lat="53.688537" lon="17.576996"></trkpt></trkseg></trk></gpx>