<?xml version="1.0" encoding="UTF-8" standalone="no" ?><gpx xmlns="http://www.topografix.com/GPX/1/1" xmlns:gpxx="http://www.garmin.com/xmlschemas/GpxExtensions/v3" ><trk><trkseg><trkpt lat="53.584529" lon="17.859337"></trkpt><trkpt lat="53.584571" lon="17.859725"></trkpt><trkpt lat="53.584717" lon="17.859987"></trkpt><trkpt lat="53.585756" lon="17.862816"></trkpt><trkpt lat="53.585348" lon="17.863411"></trkpt><trkpt lat="53.584359" lon="17.865146"></trkpt><trkpt lat="53.583516" lon="17.866851"></trkpt><trkpt lat="53.583836" lon="17.867365"></trkpt><trkpt lat="53.584419" lon="17.86812"></trkpt><trkpt lat="53.58737" lon="17.870674"></trkpt><trkpt lat="53.587594" lon="17.870778"></trkpt><trkpt lat="53.587734" lon="17.871015"></trkpt><trkpt lat="53.588244" lon="17.872482"></trkpt><trkpt lat="53.588319" lon="17.873254"></trkpt><trkpt lat="53.588484" lon="17.873875"></trkpt><trkpt lat="53.588885" lon="17.875072"></trkpt><trkpt lat="53.58909" lon="17.875287"></trkpt><trkpt lat="53.589198" lon="17.874962"></trkpt><trkpt lat="53.589216" lon="17.875311"></trkpt><trkpt lat="53.589355" lon="17.875696"></trkpt><trkpt lat="53.589419" lon="17.876078"></trkpt><trkpt lat="53.589967" lon="17.878333"></trkpt><trkpt lat="53.590314" lon="17.879413"></trkpt><trkpt lat="53.590558" lon="17.880745"></trkpt><trkpt lat="53.590663" lon="17.882274"></trkpt><trkpt lat="53.590774" lon="17.883184"></trkpt><trkpt lat="53.591238" lon="17.884042"></trkpt><trkpt lat="53.591742" lon="17.88485"></trkpt><trkpt lat="53.591955" lon="17.885026"></trkpt><trkpt lat="53.592762" lon="17.885268"></trkpt><trkpt lat="53.593363" lon="17.885235"></trkpt><trkpt lat="53.595494" lon="17.885884"></trkpt><trkpt lat="53.595667" lon="17.886508"></trkpt><trkpt lat="53.595892" lon="17.887088"></trkpt><trkpt lat="53.596504" lon="17.889158"></trkpt><trkpt lat="53.596622" lon="17.889956"></trkpt><trkpt lat="53.599727" lon="17.905984"></trkpt><trkpt lat="53.601365" lon="17.917449"></trkpt><trkpt lat="53.601414" lon="17.918747"></trkpt><trkpt lat="53.601833" lon="17.922677"></trkpt><trkpt lat="53.602006" lon="17.92316"></trkpt><trkpt lat="53.607336" lon="17.937802"></trkpt><trkpt lat="53.61227" lon="17.951188"></trkpt><trkpt lat="53.612549" lon="17.951354"></trkpt><trkpt lat="53.61347" lon="17.952095"></trkpt><trkpt lat="53.613981" lon="17.952598"></trkpt><trkpt lat="53.614396" lon="17.95291"></trkpt><trkpt lat="53.61473" lon="17.953073"></trkpt><trkpt lat="53.615117" lon="17.953211"></trkpt><trkpt lat="53.615856" lon="17.95337"></trkpt><trkpt lat="53.616132" lon="17.953352"></trkpt><trkpt lat="53.622927" lon="17.951787"></trkpt><trkpt lat="53.623528" lon="17.951189"></trkpt><trkpt lat="53.624033" lon="17.950901"></trkpt><trkpt lat="53.624534" lon="17.950776"></trkpt><trkpt lat="53.625724" lon="17.95063"></trkpt><trkpt lat="53.625687" lon="17.950981"></trkpt><trkpt lat="53.62621" lon="17.95092"></trkpt><trkpt lat="53.627351" lon="17.950614"></trkpt><trkpt lat="53.627729" lon="17.950416"></trkpt><trkpt lat="53.632967" lon="17.948418"></trkpt><trkpt lat="53.635722" lon="17.949832"></trkpt><trkpt lat="53.636005" lon="17.950112"></trkpt><trkpt lat="53.636382" lon="17.950414"></trkpt><trkpt lat="53.63712" lon="17.950892"></trkpt><trkpt lat="53.6373" lon="17.951119"></trkpt><trkpt lat="53.637669" lon="17.951513"></trkpt><trkpt lat="53.637931" lon="17.951732"></trkpt><trkpt lat="53.638507" lon="17.952125"></trkpt><trkpt lat="53.63911" lon="17.952375"></trkpt><trkpt lat="53.641095" lon="17.952948"></trkpt><trkpt lat="53.641479" lon="17.952723"></trkpt><trkpt lat="53.64386" lon="17.951647"></trkpt><trkpt lat="53.644072" lon="17.951614"></trkpt><trkpt lat="53.64519" lon="17.951259"></trkpt><trkpt lat="53.645569" lon="17.950959"></trkpt><trkpt lat="53.64597" lon="17.951163"></trkpt><trkpt lat="53.646119" lon="17.951406"></trkpt><trkpt lat="53.646628" lon="17.952365"></trkpt><trkpt lat="53.650476" lon="17.960764"></trkpt><trkpt lat="53.650635" lon="17.961454"></trkpt><trkpt lat="53.650769" lon="17.961832"></trkpt><trkpt lat="53.650968" lon="17.961994"></trkpt><trkpt lat="53.65141" lon="17.962139"></trkpt><trkpt lat="53.653553" lon="17.963287"></trkpt><trkpt lat="53.653622" lon="17.963881"></trkpt><trkpt lat="53.653806" lon="17.964393"></trkpt><trkpt lat="53.654048" lon="17.964956"></trkpt><trkpt lat="53.655479" lon="17.96781"></trkpt><trkpt lat="53.65872" lon="17.973292"></trkpt><trkpt lat="53.658922" lon="17.973438"></trkpt><trkpt lat="53.659692" lon="17.973608"></trkpt><trkpt lat="53.662426" lon="17.972664"></trkpt><trkpt lat="53.66764" lon="17.971516"></trkpt><trkpt lat="53.668204" lon="17.971459"></trkpt><trkpt lat="53.6776" lon="17.971824"></trkpt><trkpt lat="53.677762" lon="17.97205"></trkpt><trkpt lat="53.678116" lon="17.97269"></trkpt><trkpt lat="53.678407" lon="17.973296"></trkpt><trkpt lat="53.678504" lon="17.973673"></trkpt><trkpt lat="53.678694" lon="17.973907"></trkpt><trkpt lat="53.678838" lon="17.974194"></trkpt><trkpt lat="53.679027" lon="17.974646"></trkpt><trkpt lat="53.679243" lon="17.975353"></trkpt><trkpt lat="53.679732" lon="17.976196"></trkpt><trkpt lat="53.680141" lon="17.976657"></trkpt><trkpt lat="53.680508" lon="17.976958"></trkpt><trkpt lat="53.680342" lon="17.976255"></trkpt><trkpt lat="53.680192" lon="17.975785"></trkpt><trkpt lat="53.680427" lon="17.97569"></trkpt><trkpt lat="53.680798" lon="17.97566"></trkpt><trkpt lat="53.68271" lon="17.976044"></trkpt><trkpt lat="53.682443" lon="17.975831"></trkpt><trkpt lat="53.682103" lon="17.975811"></trkpt><trkpt lat="53.680325" lon="17.976213"></trkpt><trkpt lat="53.680444" lon="17.976602"></trkpt><trkpt lat="53.681663" lon="17.979758"></trkpt><trkpt lat="53.681964" lon="17.98038"></trkpt><trkpt lat="53.682705" lon="17.982197"></trkpt><trkpt lat="53.682805" lon="17.982514"></trkpt><trkpt lat="53.683722" lon="17.986077"></trkpt><trkpt lat="53.683894" lon="17.987205"></trkpt><trkpt lat="53.684068" lon="17.987898"></trkpt><trkpt lat="53.684367" lon="17.988587"></trkpt><trkpt lat="53.684904" lon="17.990029"></trkpt><trkpt lat="53.685214" lon="17.990361"></trkpt><trkpt lat="53.685909" lon="17.9906"></trkpt><trkpt lat="53.686348" lon="17.990545"></trkpt><trkpt lat="53.686551" lon="17.990433"></trkpt><trkpt lat="53.68681" lon="17.990343"></trkpt><trkpt lat="53.687236" lon="17.990342"></trkpt><trkpt lat="53.687745" lon="17.990606"></trkpt><trkpt lat="53.68813" lon="17.991073"></trkpt><trkpt lat="53.688549" lon="17.99171"></trkpt><trkpt lat="53.689525" lon="17.992744"></trkpt><trkpt lat="53.689906" lon="17.992469"></trkpt><trkpt lat="53.690232" lon="17.99236"></trkpt><trkpt lat="53.690589" lon="17.99241"></trkpt><trkpt lat="53.692928" lon="17.99304"></trkpt><trkpt lat="53.693298" lon="17.993188"></trkpt><trkpt lat="53.693839" lon="17.993516"></trkpt><trkpt lat="53.695124" lon="17.994109"></trkpt><trkpt lat="53.696468" lon="17.994921"></trkpt><trkpt lat="53.6968" lon="17.995181"></trkpt><trkpt lat="53.700056" lon="17.997064"></trkpt><trkpt lat="53.700423" lon="17.997095"></trkpt><trkpt lat="53.700774" lon="17.997222"></trkpt><trkpt lat="53.701048" lon="17.997671"></trkpt><trkpt lat="53.701345" lon="17.998367"></trkpt><trkpt lat="53.703191" lon="18.00184"></trkpt><trkpt lat="53.703493" lon="18.002156"></trkpt><trkpt lat="53.705272" lon="18.003645"></trkpt><trkpt lat="53.705622" lon="18.003782"></trkpt><trkpt lat="53.707277" lon="18.004652"></trkpt><trkpt lat="53.709386" lon="18.006104"></trkpt><trkpt lat="53.709806" lon="18.006584"></trkpt><trkpt lat="53.712197" lon="18.008782"></trkpt><trkpt lat="53.712792" lon="18.009016"></trkpt><trkpt lat="53.714351" lon="18.009192"></trkpt><trkpt lat="53.714717" lon="18.008889"></trkpt><trkpt lat="53.714947" lon="18.008773"></trkpt><trkpt lat="53.715167" lon="18.009624"></trkpt><trkpt lat="53.715342" lon="18.010126"></trkpt><trkpt lat="53.715805" lon="18.010482"></trkpt><trkpt lat="53.716287" lon="18.010413"></trkpt><trkpt lat="53.716644" lon="18.010514"></trkpt><trkpt lat="53.717057" lon="18.010692"></trkpt><trkpt lat="53.719705" lon="18.012174"></trkpt><trkpt lat="53.720002" lon="18.012387"></trkpt><trkpt lat="53.720329" lon="18.012549"></trkpt><trkpt lat="53.724488" lon="18.015177"></trkpt><trkpt lat="53.724699" lon="18.015423"></trkpt><trkpt lat="53.724884" lon="18.015606"></trkpt><trkpt lat="53.725043" lon="18.015817"></trkpt><trkpt lat="53.725217" lon="18.015992"></trkpt><trkpt lat="53.725364" lon="18.016217"></trkpt><trkpt lat="53.725549" lon="18.016396"></trkpt><trkpt lat="53.726497" lon="18.017152"></trkpt><trkpt lat="53.726775" lon="18.017476"></trkpt><trkpt lat="53.727334" lon="18.018023"></trkpt><trkpt lat="53.727527" lon="18.018176"></trkpt><trkpt lat="53.728951" lon="18.019085"></trkpt><trkpt lat="53.72933" lon="18.019214"></trkpt><trkpt lat="53.729605" lon="18.019371"></trkpt><trkpt lat="53.729912" lon="18.019452"></trkpt><trkpt lat="53.730267" lon="18.019606"></trkpt><trkpt lat="53.731436" lon="18.020273"></trkpt><trkpt lat="53.73161" lon="18.020457"></trkpt><trkpt lat="53.737645" lon="18.025871"></trkpt><trkpt lat="53.737848" lon="18.025823"></trkpt><trkpt lat="53.738239" lon="18.026055"></trkpt><trkpt lat="53.738606" lon="18.026399"></trkpt><trkpt lat="53.738776" lon="18.026608"></trkpt><trkpt lat="53.739591" lon="18.027035"></trkpt><trkpt lat="53.740005" lon="18.026597"></trkpt><trkpt lat="53.740259" lon="18.026263"></trkpt><trkpt lat="53.740813" lon="18.02534"></trkpt><trkpt lat="53.741939" lon="18.023715"></trkpt><trkpt lat="53.742539" lon="18.023187"></trkpt><trkpt lat="53.742987" lon="18.022932"></trkpt><trkpt lat="53.745385" lon="18.022437"></trkpt><trkpt lat="53.746113" lon="18.023652"></trkpt></trkseg></trk></gpx>