<?xml version="1.0" encoding="UTF-8" standalone="no" ?><gpx xmlns="http://www.topografix.com/GPX/1/1" xmlns:gpxx="http://www.garmin.com/xmlschemas/GpxExtensions/v3" ><trk><trkseg><trkpt lat="52.4566536304" lon="16.9571429864"></trkpt><trkpt lat="52.4564771913" lon="16.9575858023"></trkpt><trkpt lat="52.4561986607" lon="16.9584785588"></trkpt><trkpt lat="52.4560846668" lon="16.9590331055"></trkpt><trkpt lat="52.4555702694" lon="16.9609290082"></trkpt><trkpt lat="52.4553504959" lon="16.9613320939"></trkpt><trkpt lat="52.4551056605" lon="16.9616862293"></trkpt><trkpt lat="52.4546179175" lon="16.9627413433"></trkpt><trkpt lat="52.4546698015" lon="16.9634294137"></trkpt><trkpt lat="52.4546422251" lon="16.9641083479"></trkpt><trkpt lat="52.4547392875" lon="16.9676710758"></trkpt><trkpt lat="52.4550112803" lon="16.9676604308"></trkpt><trkpt lat="52.4552830216" lon="16.9678038452"></trkpt><trkpt lat="52.4549189117" lon="16.9677003287"></trkpt><trkpt lat="52.454551952" lon="16.9679143187"></trkpt><trkpt lat="52.4545754213" lon="16.9684560411"></trkpt><trkpt lat="52.4546502717" lon="16.9691269286"></trkpt><trkpt lat="52.4545715656" lon="16.9695909508"></trkpt><trkpt lat="52.4545162451" lon="16.9700972177"></trkpt><trkpt lat="52.4545551371" lon="16.9705560431"></trkpt><trkpt lat="52.4543267302" lon="16.9708114397"></trkpt><trkpt lat="52.4544218648" lon="16.9713033736"></trkpt><trkpt lat="52.4542914424" lon="16.9709017966"></trkpt><trkpt lat="52.4542480242" lon="16.9704621658"></trkpt><trkpt lat="52.4545952864" lon="16.9704952743"></trkpt><trkpt lat="52.4545036722" lon="16.9700672105"></trkpt><trkpt lat="52.4542685598" lon="16.9698428269"></trkpt><trkpt lat="52.4542652909" lon="16.9693410024"></trkpt><trkpt lat="52.4544323422" lon="16.9688945822"></trkpt><trkpt lat="52.4545544665" lon="16.9682873134"></trkpt><trkpt lat="52.4545667879" lon="16.9676088821"></trkpt><trkpt lat="52.4550921656" lon="16.9617055915"></trkpt><trkpt lat="52.4553393479" lon="16.9613478519"></trkpt><trkpt lat="52.4556658231" lon="16.9607280102"></trkpt><trkpt lat="52.4558032863" lon="16.9603092503"></trkpt><trkpt lat="52.4559544958" lon="16.9596825354"></trkpt><trkpt lat="52.4565372057" lon="16.9564000145"></trkpt><trkpt lat="52.4565796182" lon="16.9559263531"></trkpt><trkpt lat="52.4566991441" lon="16.9551208522"></trkpt><trkpt lat="52.4567392096" lon="16.9543497171"></trkpt><trkpt lat="52.4566822965" lon="16.9523217157"></trkpt></trkseg></trk></gpx>