<?xml version="1.0" encoding="UTF-8" standalone="no" ?><gpx xmlns="http://www.topografix.com/GPX/1/1" xmlns:gpxx="http://www.garmin.com/xmlschemas/GpxExtensions/v3" ><trk><trkseg><trkpt lat="53.207181" lon="22.710749"></trkpt><trkpt lat="53.207375" lon="22.710541"></trkpt><trkpt lat="53.207316" lon="22.710103"></trkpt><trkpt lat="53.207244" lon="22.709772"></trkpt><trkpt lat="53.206936" lon="22.708896"></trkpt><trkpt lat="53.206615" lon="22.709132"></trkpt><trkpt lat="53.205814" lon="22.710212"></trkpt><trkpt lat="53.205769" lon="22.710689"></trkpt><trkpt lat="53.205584" lon="22.711091"></trkpt><trkpt lat="53.205316" lon="22.710964"></trkpt><trkpt lat="53.204751" lon="22.710395"></trkpt><trkpt lat="53.203813" lon="22.709601"></trkpt><trkpt lat="53.203629" lon="22.710375"></trkpt><trkpt lat="53.203245" lon="22.712511"></trkpt><trkpt lat="53.203234" lon="22.713401"></trkpt><trkpt lat="53.203064" lon="22.715771"></trkpt><trkpt lat="53.203013" lon="22.716112"></trkpt><trkpt lat="53.202963" lon="22.716937"></trkpt><trkpt lat="53.202992" lon="22.71773"></trkpt><trkpt lat="53.203301" lon="22.721487"></trkpt><trkpt lat="53.203405" lon="22.722164"></trkpt><trkpt lat="53.204988" lon="22.738369"></trkpt><trkpt lat="53.204952" lon="22.739675"></trkpt><trkpt lat="53.202948" lon="22.765837"></trkpt><trkpt lat="53.202269" lon="22.765622"></trkpt><trkpt lat="53.181504" lon="22.757579"></trkpt><trkpt lat="53.18075" lon="22.757688"></trkpt><trkpt lat="53.165578" lon="22.757891"></trkpt><trkpt lat="53.165065" lon="22.757552"></trkpt><trkpt lat="53.153257" lon="22.751563"></trkpt><trkpt lat="53.15323" lon="22.752045"></trkpt><trkpt lat="53.152979" lon="22.75441"></trkpt><trkpt lat="53.152696" lon="22.754353"></trkpt><trkpt lat="53.149267" lon="22.75409"></trkpt><trkpt lat="53.149102" lon="22.754306"></trkpt><trkpt lat="53.138757" lon="22.765919"></trkpt><trkpt lat="53.138309" lon="22.766088"></trkpt><trkpt lat="53.129597" lon="22.770526"></trkpt><trkpt lat="53.12846" lon="22.771708"></trkpt><trkpt lat="53.126587" lon="22.773306"></trkpt><trkpt lat="53.125975" lon="22.773695"></trkpt><trkpt lat="53.125689" lon="22.773936"></trkpt><trkpt lat="53.125417" lon="22.774081"></trkpt><trkpt lat="53.109399" lon="22.784987"></trkpt><trkpt lat="53.109088" lon="22.785652"></trkpt><trkpt lat="53.105683" lon="22.794275"></trkpt><trkpt lat="53.105591" lon="22.794752"></trkpt><trkpt lat="53.105339" lon="22.795066"></trkpt><trkpt lat="53.10493" lon="22.795664"></trkpt><trkpt lat="53.10474" lon="22.795891"></trkpt><trkpt lat="53.104781" lon="22.796223"></trkpt><trkpt lat="53.104903" lon="22.796583"></trkpt><trkpt lat="53.104848" lon="22.796938"></trkpt><trkpt lat="53.104715" lon="22.797186"></trkpt><trkpt lat="53.104488" lon="22.797203"></trkpt><trkpt lat="53.104142" lon="22.797355"></trkpt><trkpt lat="53.104048" lon="22.797685"></trkpt><trkpt lat="53.104355" lon="22.797947"></trkpt><trkpt lat="53.104688" lon="22.798117"></trkpt><trkpt lat="53.10497" lon="22.798207"></trkpt><trkpt lat="53.105171" lon="22.798237"></trkpt><trkpt lat="53.105753" lon="22.798481"></trkpt><trkpt lat="53.105899" lon="22.798193"></trkpt><trkpt lat="53.106103" lon="22.798074"></trkpt><trkpt lat="53.106331" lon="22.798115"></trkpt><trkpt lat="53.106577" lon="22.798"></trkpt><trkpt lat="53.106801" lon="22.79804"></trkpt><trkpt lat="53.107099" lon="22.798149"></trkpt><trkpt lat="53.107052" lon="22.798506"></trkpt><trkpt lat="53.107077" lon="22.798163"></trkpt><trkpt lat="53.107077" lon="22.798502"></trkpt><trkpt lat="53.107124" lon="22.798138"></trkpt><trkpt lat="53.107326" lon="22.797988"></trkpt><trkpt lat="53.107428" lon="22.797635"></trkpt><trkpt lat="53.107549" lon="22.797098"></trkpt><trkpt lat="53.107396" lon="22.79688"></trkpt><trkpt lat="53.107269" lon="22.796602"></trkpt><trkpt lat="53.107083" lon="22.796441"></trkpt><trkpt lat="53.10689" lon="22.796328"></trkpt><trkpt lat="53.106689" lon="22.796493"></trkpt><trkpt lat="53.106523" lon="22.796765"></trkpt><trkpt lat="53.106296" lon="22.796942"></trkpt><trkpt lat="53.106213" lon="22.797336"></trkpt><trkpt lat="53.105994" lon="22.797502"></trkpt><trkpt lat="53.105817" lon="22.797699"></trkpt><trkpt lat="53.105578" lon="22.797712"></trkpt><trkpt lat="53.105374" lon="22.797593"></trkpt><trkpt lat="53.105154" lon="22.797378"></trkpt><trkpt lat="53.105046" lon="22.797047"></trkpt><trkpt lat="53.104951" lon="22.796685"></trkpt><trkpt lat="53.104885" lon="22.796217"></trkpt><trkpt lat="53.104709" lon="22.79598"></trkpt><trkpt lat="53.104929" lon="22.795929"></trkpt><trkpt lat="53.104728" lon="22.795832"></trkpt><trkpt lat="53.10466" lon="22.796143"></trkpt><trkpt lat="53.104855" lon="22.796562"></trkpt><trkpt lat="53.104787" lon="22.796939"></trkpt><trkpt lat="53.104571" lon="22.797281"></trkpt><trkpt lat="53.10476" lon="22.796957"></trkpt><trkpt lat="53.1049" lon="22.796604"></trkpt><trkpt lat="53.104775" lon="22.796255"></trkpt><trkpt lat="53.104923" lon="22.795728"></trkpt><trkpt lat="53.105112" lon="22.79536"></trkpt><trkpt lat="53.105385" lon="22.795031"></trkpt><trkpt lat="53.105686" lon="22.794173"></trkpt><trkpt lat="53.105607" lon="22.79379"></trkpt><trkpt lat="53.105514" lon="22.793173"></trkpt><trkpt lat="53.105655" lon="22.792821"></trkpt><trkpt lat="53.105851" lon="22.792429"></trkpt><trkpt lat="53.109763" lon="22.783353"></trkpt><trkpt lat="53.109852" lon="22.78295"></trkpt><trkpt lat="53.110035" lon="22.782686"></trkpt><trkpt lat="53.110733" lon="22.782204"></trkpt><trkpt lat="53.111455" lon="22.781855"></trkpt><trkpt lat="53.117464" lon="22.780537"></trkpt><trkpt lat="53.117193" lon="22.781647"></trkpt><trkpt lat="53.117125" lon="22.782643"></trkpt><trkpt lat="53.117156" lon="22.783393"></trkpt><trkpt lat="53.117149" lon="22.785531"></trkpt><trkpt lat="53.117133" lon="22.785875"></trkpt><trkpt lat="53.117143" lon="22.786463"></trkpt><trkpt lat="53.117211" lon="22.787445"></trkpt><trkpt lat="53.117221" lon="22.787056"></trkpt><trkpt lat="53.117206" lon="22.786512"></trkpt><trkpt lat="53.1173" lon="22.781071"></trkpt><trkpt lat="53.117489" lon="22.780492"></trkpt><trkpt lat="53.118452" lon="22.77815"></trkpt><trkpt lat="53.118671" lon="22.778029"></trkpt><trkpt lat="53.118866" lon="22.777895"></trkpt><trkpt lat="53.11912" lon="22.777795"></trkpt><trkpt lat="53.119472" lon="22.777536"></trkpt><trkpt lat="53.119899" lon="22.777298"></trkpt><trkpt lat="53.128162" lon="22.774202"></trkpt><trkpt lat="53.128596" lon="22.774723"></trkpt><trkpt lat="53.130799" lon="22.777877"></trkpt><trkpt lat="53.130882" lon="22.778556"></trkpt><trkpt lat="53.13226" lon="22.79606"></trkpt><trkpt lat="53.133326" lon="22.804093"></trkpt><trkpt lat="53.133664" lon="22.803924"></trkpt><trkpt lat="53.145615" lon="22.796039"></trkpt><trkpt lat="53.145435" lon="22.795239"></trkpt><trkpt lat="53.145147" lon="22.794612"></trkpt><trkpt lat="53.144841" lon="22.794384"></trkpt><trkpt lat="53.144589" lon="22.794398"></trkpt><trkpt lat="53.144324" lon="22.794045"></trkpt><trkpt lat="53.144039" lon="22.793938"></trkpt><trkpt lat="53.143917" lon="22.793619"></trkpt><trkpt lat="53.143767" lon="22.793016"></trkpt><trkpt lat="53.145297" lon="22.795021"></trkpt><trkpt lat="53.145529" lon="22.795817"></trkpt><trkpt lat="53.145914" lon="22.797692"></trkpt><trkpt lat="53.145327" lon="22.79788"></trkpt><trkpt lat="53.145007" lon="22.797894"></trkpt><trkpt lat="53.144199" lon="22.798094"></trkpt><trkpt lat="53.143789" lon="22.798276"></trkpt><trkpt lat="53.142762" lon="22.798891"></trkpt><trkpt lat="53.142182" lon="22.799342"></trkpt><trkpt lat="53.141713" lon="22.799807"></trkpt><trkpt lat="53.141776" lon="22.800135"></trkpt><trkpt lat="53.141976" lon="22.800245"></trkpt><trkpt lat="53.142156" lon="22.799987"></trkpt><trkpt lat="53.142788" lon="22.799296"></trkpt><trkpt lat="53.143227" lon="22.799045"></trkpt><trkpt lat="53.14365" lon="22.798857"></trkpt><trkpt lat="53.143951" lon="22.798782"></trkpt><trkpt lat="53.144051" lon="22.799192"></trkpt><trkpt lat="53.144093" lon="22.799614"></trkpt><trkpt lat="53.144767" lon="22.804184"></trkpt><trkpt lat="53.144867" lon="22.804483"></trkpt><trkpt lat="53.145079" lon="22.805873"></trkpt><trkpt lat="53.145119" lon="22.806341"></trkpt><trkpt lat="53.145322" lon="22.807571"></trkpt><trkpt lat="53.14627" lon="22.8155"></trkpt><trkpt lat="53.146402" lon="22.815843"></trkpt><trkpt lat="53.146599" lon="22.815969"></trkpt><trkpt lat="53.146727" lon="22.816278"></trkpt><trkpt lat="53.146882" lon="22.817403"></trkpt><trkpt lat="53.15242" lon="22.851891"></trkpt><trkpt lat="53.152673" lon="22.854162"></trkpt><trkpt lat="53.152444" lon="22.855021"></trkpt><trkpt lat="53.152372" lon="22.85544"></trkpt><trkpt lat="53.152445" lon="22.856215"></trkpt><trkpt lat="53.152604" lon="22.857208"></trkpt><trkpt lat="53.153003" lon="22.860997"></trkpt><trkpt lat="53.152878" lon="22.862035"></trkpt><trkpt lat="53.152702" lon="22.862743"></trkpt><trkpt lat="53.152589" lon="22.863033"></trkpt><trkpt lat="53.15239" lon="22.863798"></trkpt><trkpt lat="53.152369" lon="22.864228"></trkpt><trkpt lat="53.152209" lon="22.864429"></trkpt><trkpt lat="53.152106" lon="22.864714"></trkpt><trkpt lat="53.149415" lon="22.871085"></trkpt><trkpt lat="53.149121" lon="22.871221"></trkpt><trkpt lat="53.148198" lon="22.871782"></trkpt><trkpt lat="53.147947" lon="22.872332"></trkpt><trkpt lat="53.147593" lon="22.872984"></trkpt><trkpt lat="53.14739" lon="22.872891"></trkpt><trkpt lat="53.146779" lon="22.872507"></trkpt><trkpt lat="53.142691" lon="22.870522"></trkpt><trkpt lat="53.142583" lon="22.871236"></trkpt><trkpt lat="53.142372" lon="22.871335"></trkpt><trkpt lat="53.142136" lon="22.87131"></trkpt><trkpt lat="53.141602" lon="22.871071"></trkpt><trkpt lat="53.141305" lon="22.870778"></trkpt><trkpt lat="53.141043" lon="22.870227"></trkpt><trkpt lat="53.140664" lon="22.869578"></trkpt><trkpt lat="53.140231" lon="22.870032"></trkpt><trkpt lat="53.129801" lon="22.879046"></trkpt><trkpt lat="53.129769" lon="22.878719"></trkpt><trkpt lat="53.129751" lon="22.878365"></trkpt><trkpt lat="53.129748" lon="22.877903"></trkpt><trkpt lat="53.12971" lon="22.877529"></trkpt><trkpt lat="53.12917" lon="22.877609"></trkpt><trkpt lat="53.127838" lon="22.877629"></trkpt><trkpt lat="53.127324" lon="22.87728"></trkpt><trkpt lat="53.127122" lon="22.876984"></trkpt><trkpt lat="53.127084" lon="22.876488"></trkpt><trkpt lat="53.12698" lon="22.872434"></trkpt><trkpt lat="53.127625" lon="22.872507"></trkpt><trkpt lat="53.127849" lon="22.872396"></trkpt><trkpt lat="53.128209" lon="22.871661"></trkpt><trkpt lat="53.128387" lon="22.871408"></trkpt><trkpt lat="53.128792" lon="22.871261"></trkpt><trkpt lat="53.128939" lon="22.871493"></trkpt><trkpt lat="53.129318" lon="22.871558"></trkpt><trkpt lat="53.130019" lon="22.871572"></trkpt><trkpt lat="53.131332" lon="22.87134"></trkpt><trkpt lat="53.131621" lon="22.871228"></trkpt><trkpt lat="53.131289" lon="22.871409"></trkpt><trkpt lat="53.131028" lon="22.871458"></trkpt><trkpt lat="53.1291" lon="22.871575"></trkpt><trkpt lat="53.129186" lon="22.872167"></trkpt><trkpt lat="53.129341" lon="22.872903"></trkpt><trkpt lat="53.129673" lon="22.874118"></trkpt><trkpt lat="53.129897" lon="22.875542"></trkpt><trkpt lat="53.129841" lon="22.876474"></trkpt><trkpt lat="53.129791" lon="22.880157"></trkpt><trkpt lat="53.129838" lon="22.881285"></trkpt><trkpt lat="53.129903" lon="22.881721"></trkpt><trkpt lat="53.130144" lon="22.881531"></trkpt><trkpt lat="53.13033" lon="22.881321"></trkpt><trkpt lat="53.131048" lon="22.88063"></trkpt><trkpt lat="53.132047" lon="22.879476"></trkpt><trkpt lat="53.141176" lon="22.870567"></trkpt><trkpt lat="53.141553" lon="22.871061"></trkpt><trkpt lat="53.1419" lon="22.871208"></trkpt><trkpt lat="53.14235" lon="22.871341"></trkpt><trkpt lat="53.142553" lon="22.87134"></trkpt><trkpt lat="53.142625" lon="22.870999"></trkpt><trkpt lat="53.142766" lon="22.870081"></trkpt><trkpt lat="53.142996" lon="22.870073"></trkpt><trkpt lat="53.14341" lon="22.87037"></trkpt><trkpt lat="53.147725" lon="22.872859"></trkpt><trkpt lat="53.148077" lon="22.872081"></trkpt><trkpt lat="53.148602" lon="22.871463"></trkpt><trkpt lat="53.148808" lon="22.871384"></trkpt><trkpt lat="53.149932" lon="22.870608"></trkpt><trkpt lat="53.150074" lon="22.870235"></trkpt><trkpt lat="53.149934" lon="22.870522"></trkpt><trkpt lat="53.150163" lon="22.869964"></trkpt><trkpt lat="53.151811" lon="22.867885"></trkpt><trkpt lat="53.152211" lon="22.868316"></trkpt><trkpt lat="53.152406" lon="22.868417"></trkpt><trkpt lat="53.152788" lon="22.867622"></trkpt><trkpt lat="53.153212" lon="22.866463"></trkpt><trkpt lat="53.153049" lon="22.866108"></trkpt><trkpt lat="53.153131" lon="22.865795"></trkpt><trkpt lat="53.15361" lon="22.865832"></trkpt><trkpt lat="53.15396" lon="22.865718"></trkpt><trkpt lat="53.159438" lon="22.863089"></trkpt><trkpt lat="53.159897" lon="22.86253"></trkpt><trkpt lat="53.171701" lon="22.845903"></trkpt><trkpt lat="53.171999" lon="22.845333"></trkpt><trkpt lat="53.172184" lon="22.845029"></trkpt><trkpt lat="53.172318" lon="22.844684"></trkpt><trkpt lat="53.172656" lon="22.844032"></trkpt><trkpt lat="53.18679" lon="22.816309"></trkpt><trkpt lat="53.187984" lon="22.813403"></trkpt><trkpt lat="53.188076" lon="22.812694"></trkpt><trkpt lat="53.188294" lon="22.811539"></trkpt><trkpt lat="53.18855" lon="22.810584"></trkpt><trkpt lat="53.189568" lon="22.807533"></trkpt><trkpt lat="53.190125" lon="22.80655"></trkpt><trkpt lat="53.205394" lon="22.783862"></trkpt><trkpt lat="53.206172" lon="22.783989"></trkpt><trkpt lat="53.208147" lon="22.783366"></trkpt><trkpt lat="53.208172" lon="22.782167"></trkpt><trkpt lat="53.208074" lon="22.778478"></trkpt><trkpt lat="53.207948" lon="22.778038"></trkpt><trkpt lat="53.20781" lon="22.777311"></trkpt><trkpt lat="53.207551" lon="22.775491"></trkpt><trkpt lat="53.207516" lon="22.774994"></trkpt><trkpt lat="53.206015" lon="22.762286"></trkpt><trkpt lat="53.20587" lon="22.761779"></trkpt><trkpt lat="53.205766" lon="22.761122"></trkpt><trkpt lat="53.205449" lon="22.759973"></trkpt><trkpt lat="53.205227" lon="22.759945"></trkpt><trkpt lat="53.204353" lon="22.759731"></trkpt><trkpt lat="53.204374" lon="22.758943"></trkpt><trkpt lat="53.203848" lon="22.725175"></trkpt><trkpt lat="53.203756" lon="22.724535"></trkpt><trkpt lat="53.20307" lon="22.715794"></trkpt><trkpt lat="53.203229" lon="22.714598"></trkpt><trkpt lat="53.203281" lon="22.713385"></trkpt><trkpt lat="53.203504" lon="22.711147"></trkpt><trkpt lat="53.203636" lon="22.710512"></trkpt><trkpt lat="53.203872" lon="22.709605"></trkpt><trkpt lat="53.20444" lon="22.710112"></trkpt><trkpt lat="53.205701" lon="22.711023"></trkpt><trkpt lat="53.205799" lon="22.71058"></trkpt><trkpt lat="53.206082" lon="22.709613"></trkpt><trkpt lat="53.206344" lon="22.70936"></trkpt><trkpt lat="53.206545" lon="22.709219"></trkpt><trkpt lat="53.207063" lon="22.709107"></trkpt><trkpt lat="53.20723" lon="22.709716"></trkpt><trkpt lat="53.207311" lon="22.710605"></trkpt></trkseg></trk></gpx>