<?xml version="1.0" encoding="UTF-8" standalone="no" ?><gpx xmlns="http://www.topografix.com/GPX/1/1" xmlns:gpxx="http://www.garmin.com/xmlschemas/GpxExtensions/v3" ><trk><trkseg><trkpt lat="50.8654208947" lon="15.978677161"></trkpt><trkpt lat="50.8654069807" lon="15.9791531693"></trkpt><trkpt lat="50.8655617107" lon="15.9797022678"></trkpt><trkpt lat="50.8657662291" lon="15.9802138992"></trkpt><trkpt lat="50.8660899382" lon="15.9803256299"></trkpt><trkpt lat="50.866381377" lon="15.9803646896"></trkpt><trkpt lat="50.8660942968" lon="15.9803229477"></trkpt><trkpt lat="50.8657363895" lon="15.9801934473"></trkpt><trkpt lat="50.8655044623" lon="15.9798757732"></trkpt><trkpt lat="50.8651599661" lon="15.9798093885"></trkpt><trkpt lat="50.8648177329" lon="15.9796096478"></trkpt><trkpt lat="50.864554625" lon="15.9792302828"></trkpt><trkpt lat="50.8643543813" lon="15.9787091799"></trkpt><trkpt lat="50.8636223059" lon="15.9772274271"></trkpt><trkpt lat="50.8632909693" lon="15.9774745256"></trkpt><trkpt lat="50.8630438708" lon="15.9777402319"></trkpt><trkpt lat="50.86230224" lon="15.9783843812"></trkpt><trkpt lat="50.8620115556" lon="15.9784397017"></trkpt><trkpt lat="50.860424526" lon="15.9784957767"></trkpt><trkpt lat="50.8601384517" lon="15.9781050961"></trkpt><trkpt lat="50.8595841564" lon="15.9774802253"></trkpt><trkpt lat="50.859236978" lon="15.977274701"></trkpt><trkpt lat="50.8589061443" lon="15.9773470368"></trkpt><trkpt lat="50.8585480694" lon="15.9776310995"></trkpt><trkpt lat="50.8574596792" lon="15.9786977805"></trkpt><trkpt lat="50.857326407" lon="15.9791742917"></trkpt><trkpt lat="50.8572053723" lon="15.9797523078"></trkpt><trkpt lat="50.8571688272" lon="15.9802366979"></trkpt><trkpt lat="50.8570970781" lon="15.9806586429"></trkpt><trkpt lat="50.8567809965" lon="15.9819668066"></trkpt><trkpt lat="50.8565941639" lon="15.9822964668"></trkpt><trkpt lat="50.8563370071" lon="15.9825313278"></trkpt><trkpt lat="50.8558547124" lon="15.9828418773"></trkpt><trkpt lat="50.8541187365" lon="15.9842674714"></trkpt><trkpt lat="50.853817407" lon="15.9846750833"></trkpt><trkpt lat="50.8503344748" lon="15.9903503861"></trkpt><trkpt lat="50.8505935594" lon="15.9906474408"></trkpt><trkpt lat="50.8510067873" lon="15.9912182484"></trkpt><trkpt lat="50.8532415703" lon="15.9949451778"></trkpt><trkpt lat="50.8531903569" lon="15.9954230301"></trkpt><trkpt lat="50.8532179333" lon="15.9959262796"></trkpt><trkpt lat="50.8532080427" lon="15.9964985959"></trkpt><trkpt lat="50.8534663729" lon="16.0022604838"></trkpt><trkpt lat="50.8537737373" lon="16.0026988573"></trkpt><trkpt lat="50.8541232627" lon="16.0033495445"></trkpt><trkpt lat="50.854059644" lon="16.0038320068"></trkpt><trkpt lat="50.8538935147" lon="16.0042870604"></trkpt><trkpt lat="50.8537288103" lon="16.0049164575"></trkpt><trkpt lat="50.8525851835" lon="16.0112423636"></trkpt><trkpt lat="50.852836892" lon="16.011718791"></trkpt><trkpt lat="50.8545548469" lon="16.0144331027"></trkpt><trkpt lat="50.8549658954" lon="16.0147216916"></trkpt><trkpt lat="50.8552543167" lon="16.0148571432"></trkpt><trkpt lat="50.8554386348" lon="16.0152055789"></trkpt><trkpt lat="50.8551169373" lon="16.0147819575"></trkpt><trkpt lat="50.8547959942" lon="16.0146651138"></trkpt><trkpt lat="50.8545088302" lon="16.0143687297"></trkpt><trkpt lat="50.8541924134" lon="16.0139464494"></trkpt><trkpt lat="50.8539343346" lon="16.0135275219"></trkpt><trkpt lat="50.8520985302" lon="16.0099665541"></trkpt><trkpt lat="50.8522479795" lon="16.0095684137"></trkpt><trkpt lat="50.8519594744" lon="16.0091943294"></trkpt><trkpt lat="50.8517353423" lon="16.0087802634"></trkpt><trkpt lat="50.851722518" lon="16.008163942"></trkpt><trkpt lat="50.851105107" lon="16.0079719126"></trkpt></trkseg></trk></gpx>