<?xml version="1.0" encoding="UTF-8" standalone="no" ?><gpx xmlns="http://www.topografix.com/GPX/1/1" xmlns:gpxx="http://www.garmin.com/xmlschemas/GpxExtensions/v3" ><trk><trkseg><trkpt lat="50.8837689646" lon="15.8708286379"></trkpt><trkpt lat="50.883471407" lon="15.8708978724"></trkpt><trkpt lat="50.8833157551" lon="15.8714898024"></trkpt><trkpt lat="50.8831223845" lon="15.8719417546"></trkpt><trkpt lat="50.8825569414" lon="15.8729687892"></trkpt><trkpt lat="50.882260222" lon="15.8732530195"></trkpt><trkpt lat="50.8815027494" lon="15.8737421036"></trkpt><trkpt lat="50.8813325968" lon="15.8733727969"></trkpt><trkpt lat="50.8812046889" lon="15.8729879837"></trkpt><trkpt lat="50.8810223825" lon="15.8725473471"></trkpt><trkpt lat="50.8807870187" lon="15.8721088059"></trkpt><trkpt lat="50.8793905098" lon="15.8703884203"></trkpt><trkpt lat="50.8792800363" lon="15.870867949"></trkpt><trkpt lat="50.8790470194" lon="15.8714025468"></trkpt><trkpt lat="50.8787749428" lon="15.8716288581"></trkpt><trkpt lat="50.8784897905" lon="15.8716085739"></trkpt><trkpt lat="50.8783383295" lon="15.871234322"></trkpt><trkpt lat="50.878139846" lon="15.8709054161"></trkpt><trkpt lat="50.8777438011" lon="15.870539546"></trkpt><trkpt lat="50.8778308891" lon="15.8699383959"></trkpt><trkpt lat="50.8778549451" lon="15.8695005253"></trkpt><trkpt lat="50.8776313998" lon="15.8691167179"></trkpt><trkpt lat="50.8773060143" lon="15.8690781612"></trkpt><trkpt lat="50.8766703308" lon="15.8692642394"></trkpt><trkpt lat="50.8758776542" lon="15.8693414368"></trkpt><trkpt lat="50.8755901549" lon="15.8692077454"></trkpt><trkpt lat="50.8753627539" lon="15.8696811553"></trkpt><trkpt lat="50.8745727595" lon="15.8710394427"></trkpt><trkpt lat="50.8742803149" lon="15.8712183964"></trkpt><trkpt lat="50.8737864532" lon="15.8714390919"></trkpt><trkpt lat="50.8735274523" lon="15.8717493899"></trkpt><trkpt lat="50.8732405398" lon="15.8719978295"></trkpt><trkpt lat="50.8729283977" lon="15.8721461054"></trkpt><trkpt lat="50.8726222906" lon="15.8725212794"></trkpt><trkpt lat="50.8723181952" lon="15.8727680426"></trkpt><trkpt lat="50.8717472199" lon="15.8724170085"></trkpt><trkpt lat="50.8714493271" lon="15.8723696508"></trkpt><trkpt lat="50.8705836441" lon="15.8723544795"></trkpt><trkpt lat="50.8703050297" lon="15.8724156674"></trkpt><trkpt lat="50.8700219728" lon="15.8725993149"></trkpt><trkpt lat="50.8697048854" lon="15.8728622552"></trkpt><trkpt lat="50.8694342338" lon="15.8728977945"></trkpt><trkpt lat="50.8684052713" lon="15.8725984767"></trkpt><trkpt lat="50.8681718353" lon="15.8723231312"></trkpt><trkpt lat="50.8679812308" lon="15.8718261681"></trkpt><trkpt lat="50.8673085831" lon="15.870490931"></trkpt><trkpt lat="50.8670433797" lon="15.8702341095"></trkpt><trkpt lat="50.8669987042" lon="15.8697653934"></trkpt><trkpt lat="50.8669974469" lon="15.869227862"></trkpt><trkpt lat="50.8670876361" lon="15.8681255579"></trkpt><trkpt lat="50.8674083278" lon="15.8678437583"></trkpt><trkpt lat="50.867681494" lon="15.8675373159"></trkpt><trkpt lat="50.8679202944" lon="15.8671954181"></trkpt><trkpt lat="50.8681022655" lon="15.8668582141"></trkpt><trkpt lat="50.8682541456" lon="15.8664956968"></trkpt><trkpt lat="50.8684615977" lon="15.8661866561"></trkpt><trkpt lat="50.868744906" lon="15.8656824008"></trkpt><trkpt lat="50.86898949" lon="15.8654233161"></trkpt><trkpt lat="50.8690251131" lon="15.8658878412"></trkpt><trkpt lat="50.8690044936" lon="15.8663789369"></trkpt><trkpt lat="50.8690339979" lon="15.8669478167"></trkpt><trkpt lat="50.8689384442" lon="15.8673822507"></trkpt><trkpt lat="50.8687893301" lon="15.8678718377"></trkpt><trkpt lat="50.8691077586" lon="15.867847614"></trkpt><trkpt lat="50.8690382726" lon="15.8683633525"></trkpt><trkpt lat="50.8693224192" lon="15.8682562318"></trkpt><trkpt lat="50.8693161327" lon="15.8687164821"></trkpt><trkpt lat="50.8695778996" lon="15.8688337449"></trkpt><trkpt lat="50.8695915621" lon="15.8692805003"></trkpt><trkpt lat="50.8694938291" lon="15.8687614091"></trkpt><trkpt lat="50.8693554439" lon="15.8682288229"></trkpt><trkpt lat="50.8691845369" lon="15.8678000886"></trkpt><trkpt lat="50.8689429704" lon="15.8680399787"></trkpt><trkpt lat="50.8689459041" lon="15.8673907164"></trkpt><trkpt lat="50.8691115305" lon="15.8655061293"></trkpt><trkpt lat="50.8688451536" lon="15.8656995837"></trkpt><trkpt lat="50.8685709815" lon="15.8661868237"></trkpt><trkpt lat="50.8673779853" lon="15.8679253981"></trkpt><trkpt lat="50.8671525121" lon="15.8681694791"></trkpt><trkpt lat="50.8671130333" lon="15.8686153125"></trkpt><trkpt lat="50.8671487402" lon="15.8691916522"></trkpt><trkpt lat="50.8671172243" lon="15.8698282577"></trkpt><trkpt lat="50.8671489079" lon="15.8702559024"></trkpt><trkpt lat="50.8674121834" lon="15.8703907672"></trkpt><trkpt lat="50.8676182944" lon="15.870833667"></trkpt><trkpt lat="50.8688143082" lon="15.8727574814"></trkpt><trkpt lat="50.8692209143" lon="15.8727694675"></trkpt><trkpt lat="50.8700472862" lon="15.8725644462"></trkpt><trkpt lat="50.8703953028" lon="15.8723402303"></trkpt><trkpt lat="50.8707774337" lon="15.8722507115"></trkpt><trkpt lat="50.8710900787" lon="15.8722670563"></trkpt><trkpt lat="50.8720245771" lon="15.8724683896"></trkpt><trkpt lat="50.872294642" lon="15.8726865705"></trkpt><trkpt lat="50.87261701" lon="15.8724812977"></trkpt><trkpt lat="50.8728616778" lon="15.8721216302"></trkpt><trkpt lat="50.8732252847" lon="15.8719329536"></trkpt><trkpt lat="50.8735490777" lon="15.8716260921"></trkpt><trkpt lat="50.8741724398" lon="15.8711899817"></trkpt><trkpt lat="50.8744820673" lon="15.871044388"></trkpt><trkpt lat="50.8747686446" lon="15.8707701322"></trkpt><trkpt lat="50.8750952873" lon="15.8703573234"></trkpt><trkpt lat="50.875344649" lon="15.8697390743"></trkpt><trkpt lat="50.8755000494" lon="15.8692120202"></trkpt><trkpt lat="50.8757009637" lon="15.8688394446"></trkpt><trkpt lat="50.8757556975" lon="15.8692623954"></trkpt><trkpt lat="50.8760687616" lon="15.8694078214"></trkpt><trkpt lat="50.8764258306" lon="15.8693532553"></trkpt><trkpt lat="50.8766962308" lon="15.8691696078"></trkpt><trkpt lat="50.8770375419" lon="15.8690479025"></trkpt><trkpt lat="50.8774708863" lon="15.8690607268"></trkpt><trkpt lat="50.8777520154" lon="15.8692848589"></trkpt><trkpt lat="50.8778432105" lon="15.8697488811"></trkpt><trkpt lat="50.8777142968" lon="15.8702015877"></trkpt><trkpt lat="50.8779357467" lon="15.8706847206"></trkpt><trkpt lat="50.878285775" lon="15.8711380977"></trkpt><trkpt lat="50.8783535007" lon="15.871565491"></trkpt><trkpt lat="50.8786394075" lon="15.8716068137"></trkpt><trkpt lat="50.8790435828" lon="15.8713766467"></trkpt><trkpt lat="50.8792674635" lon="15.8707918413"></trkpt><trkpt lat="50.87939227" lon="15.8701932896"></trkpt><trkpt lat="50.8797287196" lon="15.8702587523"></trkpt><trkpt lat="50.8799661789" lon="15.8706512768"></trkpt><trkpt lat="50.881410297" lon="15.8735718671"></trkpt><trkpt lat="50.8818374388" lon="15.8736300375"></trkpt><trkpt lat="50.8822061587" lon="15.873287553"></trkpt><trkpt lat="50.8828728553" lon="15.8724548109"></trkpt><trkpt lat="50.8831083868" lon="15.871920716"></trkpt><trkpt lat="50.8833478577" lon="15.8711734693"></trkpt><trkpt lat="50.883570062" lon="15.8708164003"></trkpt><trkpt lat="50.883469563" lon="15.871255612"></trkpt></trkseg></trk></gpx>