<?xml version="1.0" encoding="UTF-8" standalone="no" ?><gpx xmlns="http://www.topografix.com/GPX/1/1" xmlns:gpxx="http://www.garmin.com/xmlschemas/GpxExtensions/v3" ><trk><trkseg><trkpt lat="50.832187403" lon="15.518605141"></trkpt><trkpt lat="50.8321068529" lon="15.5190415867"></trkpt><trkpt lat="50.8319580741" lon="15.519465711"></trkpt><trkpt lat="50.8317512088" lon="15.5197674595"></trkpt><trkpt lat="50.8315009251" lon="15.5199310742"></trkpt><trkpt lat="50.8311576862" lon="15.5196315888"></trkpt><trkpt lat="50.8311166987" lon="15.5191767029"></trkpt><trkpt lat="50.8309445344" lon="15.5188327096"></trkpt><trkpt lat="50.8307157923" lon="15.5184587929"></trkpt><trkpt lat="50.8304277062" lon="15.5183877144"></trkpt><trkpt lat="50.8301134687" lon="15.5182639975"></trkpt><trkpt lat="50.8298424818" lon="15.5180922523"></trkpt><trkpt lat="50.8296974748" lon="15.5176703073"></trkpt><trkpt lat="50.8293093089" lon="15.5168272555"></trkpt><trkpt lat="50.8289536647" lon="15.5172165111"></trkpt><trkpt lat="50.8289227355" lon="15.5166247487"></trkpt><trkpt lat="50.8285467234" lon="15.5166436918"></trkpt><trkpt lat="50.8285163809" lon="15.5171166826"></trkpt><trkpt lat="50.8287222404" lon="15.5167980865"></trkpt><trkpt lat="50.8291513938" lon="15.5172159243"></trkpt><trkpt lat="50.8293067943" lon="15.5167647265"></trkpt><trkpt lat="50.8294452634" lon="15.5161489081"></trkpt><trkpt lat="50.8292407449" lon="15.5156511907"></trkpt><trkpt lat="50.829103617" lon="15.5152346101"></trkpt><trkpt lat="50.8289865218" lon="15.514614014"></trkpt><trkpt lat="50.8286354039" lon="15.5141509138"></trkpt><trkpt lat="50.8283597231" lon="15.5137082655"></trkpt><trkpt lat="50.8281048294" lon="15.5135069322"></trkpt><trkpt lat="50.8278505225" lon="15.5131507851"></trkpt><trkpt lat="50.8275465947" lon="15.5126298498"></trkpt><trkpt lat="50.8273549844" lon="15.5120257661"></trkpt><trkpt lat="50.8271890227" lon="15.5116030667"></trkpt><trkpt lat="50.8269093186" lon="15.5110269785"></trkpt><trkpt lat="50.8267656527" lon="15.5106012616"></trkpt><trkpt lat="50.8266586158" lon="15.5100746267"></trkpt><trkpt lat="50.8266913891" lon="15.5094197486"></trkpt><trkpt lat="50.8268254995" lon="15.5089444946"></trkpt><trkpt lat="50.8268249966" lon="15.5082355533"></trkpt><trkpt lat="50.8266032953" lon="15.5078939069"></trkpt><trkpt lat="50.8263089228" lon="15.507616885"></trkpt><trkpt lat="50.825850768" lon="15.5073018931"></trkpt><trkpt lat="50.8254347742" lon="15.5073535256"></trkpt><trkpt lat="50.8251191955" lon="15.5072659347"></trkpt><trkpt lat="50.824839659" lon="15.5073009711"></trkpt><trkpt lat="50.824548807" lon="15.5071780924"></trkpt><trkpt lat="50.8242529258" lon="15.5069270544"></trkpt><trkpt lat="50.8239377663" lon="15.5068078637"></trkpt><trkpt lat="50.8236777596" lon="15.506613655"></trkpt><trkpt lat="50.8234142326" lon="15.5064681452"></trkpt><trkpt lat="50.8231315948" lon="15.5062237289"></trkpt><trkpt lat="50.8227199595" lon="15.5059692543"></trkpt><trkpt lat="50.8217933401" lon="15.5051869713"></trkpt><trkpt lat="50.8215458225" lon="15.5048458278"></trkpt><trkpt lat="50.8212153241" lon="15.5046207737"></trkpt><trkpt lat="50.8206215501" lon="15.5043137446"></trkpt><trkpt lat="50.8200206514" lon="15.5038778018"></trkpt><trkpt lat="50.8197478205" lon="15.503530791"></trkpt><trkpt lat="50.813095523" lon="15.4966574628"></trkpt><trkpt lat="50.8128081076" lon="15.496722674"></trkpt><trkpt lat="50.8119951468" lon="15.4967913218"></trkpt><trkpt lat="50.811728267" lon="15.4966961872"></trkpt><trkpt lat="50.8114576153" lon="15.4966766573"></trkpt><trkpt lat="50.8111093473" lon="15.4967690259"></trkpt><trkpt lat="50.8108512685" lon="15.4969733767"></trkpt><trkpt lat="50.8105745818" lon="15.4970323015"></trkpt><trkpt lat="50.8098272514" lon="15.497083012"></trkpt><trkpt lat="50.8083049301" lon="15.4967534356"></trkpt><trkpt lat="50.808023382" lon="15.4965546168"></trkpt><trkpt lat="50.8077155985" lon="15.4964112025"></trkpt><trkpt lat="50.8073728625" lon="15.4963475838"></trkpt><trkpt lat="50.8070585411" lon="15.4963467456"></trkpt><trkpt lat="50.8065103646" lon="15.4964303132"></trkpt><trkpt lat="50.8062233683" lon="15.4965677764"></trkpt><trkpt lat="50.8047925774" lon="15.4970314633"></trkpt><trkpt lat="50.8045142982" lon="15.4970815033"></trkpt><trkpt lat="50.804237863" lon="15.4972351436"></trkpt><trkpt lat="50.8037906885" lon="15.497404458"></trkpt><trkpt lat="50.8034752775" lon="15.4976477847"></trkpt><trkpt lat="50.8031912148" lon="15.4977445118"></trkpt><trkpt lat="50.8029360697" lon="15.4979090486"></trkpt><trkpt lat="50.7962731272" lon="15.5011635739"></trkpt><trkpt lat="50.7959852088" lon="15.5012161285"></trkpt><trkpt lat="50.7943338063" lon="15.501281675"></trkpt><trkpt lat="50.7940682676" lon="15.5009920802"></trkpt><trkpt lat="50.7937667705" lon="15.5010049045"></trkpt><trkpt lat="50.7934799418" lon="15.5010989495"></trkpt><trkpt lat="50.7933229487" lon="15.5014598742"></trkpt><trkpt lat="50.7932487689" lon="15.50187218"></trkpt><trkpt lat="50.7933465857" lon="15.5022715777"></trkpt><trkpt lat="50.7934325002" lon="15.5029064231"></trkpt><trkpt lat="50.793272322" lon="15.5033105146"></trkpt><trkpt lat="50.7931536343" lon="15.5037467089"></trkpt><trkpt lat="50.7922939025" lon="15.5062550772"></trkpt><trkpt lat="50.7920297049" lon="15.5065253936"></trkpt><trkpt lat="50.791521091" lon="15.5071637593"></trkpt><trkpt lat="50.7908709906" lon="15.5082258303"></trkpt><trkpt lat="50.7907438371" lon="15.5087335221"></trkpt><trkpt lat="50.7906506304" lon="15.5092661921"></trkpt><trkpt lat="50.7906852476" lon="15.5097206589"></trkpt><trkpt lat="50.7907728385" lon="15.5101566855"></trkpt><trkpt lat="50.7916580513" lon="15.5134008173"></trkpt><trkpt lat="50.791900875" lon="15.5136026535"></trkpt><trkpt lat="50.7916096877" lon="15.5134408828"></trkpt><trkpt lat="50.7913347613" lon="15.5133602489"></trkpt><trkpt lat="50.7910151593" lon="15.5133130588"></trkpt><trkpt lat="50.7894006371" lon="15.513299983"></trkpt><trkpt lat="50.7883904502" lon="15.5135046691"></trkpt><trkpt lat="50.78803204" lon="15.5136562139"></trkpt><trkpt lat="50.7877307944" lon="15.5136108678"></trkpt><trkpt lat="50.7871748228" lon="15.5138120335"></trkpt><trkpt lat="50.7869443204" lon="15.5140351597"></trkpt><trkpt lat="50.7864487823" lon="15.5144001078"></trkpt><trkpt lat="50.7860791404" lon="15.5147907883"></trkpt><trkpt lat="50.7851510961" lon="15.5155877396"></trkpt><trkpt lat="50.7846148219" lon="15.5159454793"></trkpt><trkpt lat="50.784379039" lon="15.5161893088"></trkpt><trkpt lat="50.7844602596" lon="15.5166263413"></trkpt><trkpt lat="50.7842009235" lon="15.5168184545"></trkpt><trkpt lat="50.7840034459" lon="15.5172133259"></trkpt><trkpt lat="50.7837439422" lon="15.5173472688"></trkpt><trkpt lat="50.7834312972" lon="15.5174259748"></trkpt><trkpt lat="50.7829807699" lon="15.5176133104"></trkpt><trkpt lat="50.7828211784" lon="15.5179740675"></trkpt><trkpt lat="50.7826003991" lon="15.5183572881"></trkpt><trkpt lat="50.782436952" lon="15.5187770538"></trkpt><trkpt lat="50.7822128199" lon="15.5192050338"></trkpt><trkpt lat="50.782004362" lon="15.519486079"></trkpt><trkpt lat="50.7818233129" lon="15.5198925175"></trkpt><trkpt lat="50.7815512363" lon="15.5203787517"></trkpt><trkpt lat="50.7792999409" lon="15.5251973402"></trkpt><trkpt lat="50.7792452071" lon="15.5257105641"></trkpt><trkpt lat="50.7791687641" lon="15.5261507817"></trkpt><trkpt lat="50.779115539" lon="15.5267988704"></trkpt><trkpt lat="50.7791981846" lon="15.5272094999"></trkpt><trkpt lat="50.7791053969" lon="15.5277901143"></trkpt><trkpt lat="50.7790743839" lon="15.5282377917"></trkpt><trkpt lat="50.7792379148" lon="15.5285964534"></trkpt><trkpt lat="50.779347131" lon="15.5291705299"></trkpt><trkpt lat="50.7795275096" lon="15.5296606198"></trkpt><trkpt lat="50.7795275096" lon="15.5301745981"></trkpt><trkpt lat="50.7795614563" lon="15.5307011493"></trkpt><trkpt lat="50.7794604544" lon="15.5313038081"></trkpt><trkpt lat="50.77928368" lon="15.5320714228"></trkpt><trkpt lat="50.7792239171" lon="15.5325315893"></trkpt><trkpt lat="50.7791545149" lon="15.534033794"></trkpt><trkpt lat="50.7792134397" lon="15.5344562419"></trkpt><trkpt lat="50.7793328818" lon="15.5350574758"></trkpt><trkpt lat="50.7801865786" lon="15.5413673725"></trkpt><trkpt lat="50.780166965" lon="15.5418852065"></trkpt><trkpt lat="50.7801858243" lon="15.5423240829"></trkpt><trkpt lat="50.7801679708" lon="15.5431112275"></trkpt><trkpt lat="50.7800462656" lon="15.5435054284"></trkpt><trkpt lat="50.780007625" lon="15.5440415349"></trkpt><trkpt lat="50.7799922861" lon="15.5456902552"></trkpt><trkpt lat="50.7800300047" lon="15.546222087"></trkpt><trkpt lat="50.7800222933" lon="15.5470559187"></trkpt><trkpt lat="50.7799884304" lon="15.5475172587"></trkpt><trkpt lat="50.7786934264" lon="15.5572639871"></trkpt><trkpt lat="50.7790463045" lon="15.5577011034"></trkpt><trkpt lat="50.7788384333" lon="15.5574157834"></trkpt><trkpt lat="50.7786753215" lon="15.5577581841"></trkpt><trkpt lat="50.7784137223" lon="15.5579182785"></trkpt><trkpt lat="50.77813779" lon="15.5579820648"></trkpt><trkpt lat="50.7777714171" lon="15.5579568353"></trkpt><trkpt lat="50.7775251567" lon="15.5581688974"></trkpt><trkpt lat="50.7774934731" lon="15.558597045"></trkpt><trkpt lat="50.7775249053" lon="15.5581388902"></trkpt><trkpt lat="50.7777937967" lon="15.5578516424"></trkpt><trkpt lat="50.7782123052" lon="15.55781845"></trkpt><trkpt lat="50.7785394508" lon="15.5577042047"></trkpt><trkpt lat="50.7786277961" lon="15.5572479777"></trkpt><trkpt lat="50.7789376751" lon="15.5569805112"></trkpt><trkpt lat="50.7790955901" lon="15.5566000566"></trkpt><trkpt lat="50.7792074047" lon="15.5561462604"></trkpt><trkpt lat="50.780147519" lon="15.553206224"></trkpt><trkpt lat="50.7803797815" lon="15.5528934952"></trkpt><trkpt lat="50.7817502227" lon="15.5506093428"></trkpt><trkpt lat="50.78168476" lon="15.5501839612"></trkpt><trkpt lat="50.7815418486" lon="15.5495533068"></trkpt><trkpt lat="50.7812079974" lon="15.5474886764"></trkpt><trkpt lat="50.7813331392" lon="15.5469741113"></trkpt><trkpt lat="50.7815669104" lon="15.5462492444"></trkpt><trkpt lat="50.7817810681" lon="15.5457506888"></trkpt><trkpt lat="50.7825017441" lon="15.5436583981"></trkpt><trkpt lat="50.7825765107" lon="15.5432154145"></trkpt><trkpt lat="50.7825886644" lon="15.5427492969"></trkpt><trkpt lat="50.7826504391" lon="15.5422378331"></trkpt><trkpt lat="50.7834357396" lon="15.5378727894"></trkpt><trkpt lat="50.7836097479" lon="15.5375260301"></trkpt><trkpt lat="50.7841919549" lon="15.5366618559"></trkpt><trkpt lat="50.7844985649" lon="15.5363715906"></trkpt><trkpt lat="50.7847774308" lon="15.536050396"></trkpt><trkpt lat="50.7850676961" lon="15.535629876"></trkpt><trkpt lat="50.7853885554" lon="15.5358438659"></trkpt><trkpt lat="50.7857160363" lon="15.5359159503"></trkpt><trkpt lat="50.7860017754" lon="15.5361023638"></trkpt><trkpt lat="50.7862497959" lon="15.5363662262"></trkpt><trkpt lat="50.7865528855" lon="15.5362568423"></trkpt><trkpt lat="50.7868889999" lon="15.5361970793"></trkpt><trkpt lat="50.7871795166" lon="15.5363473669"></trkpt><trkpt lat="50.7874432113" lon="15.5365316849"></trkpt><trkpt lat="50.7879329659" lon="15.5369762611"></trkpt><trkpt lat="50.7882707566" lon="15.5371736549"></trkpt><trkpt lat="50.7896251883" lon="15.5360520724"></trkpt><trkpt lat="50.7898489013" lon="15.5355360825"></trkpt><trkpt lat="50.7899922319" lon="15.5350858066"></trkpt><trkpt lat="50.7903987542" lon="15.5340653937"></trkpt><trkpt lat="50.7910216972" lon="15.5320353806"></trkpt><trkpt lat="50.7908764388" lon="15.5316726118"></trkpt><trkpt lat="50.790251568" lon="15.5294787325"></trkpt><trkpt lat="50.790484501" lon="15.5292110145"></trkpt><trkpt lat="50.7907118183" lon="15.5287622474"></trkpt><trkpt lat="50.7908542268" lon="15.5283226166"></trkpt><trkpt lat="50.7911455818" lon="15.527835628"></trkpt><trkpt lat="50.7913220208" lon="15.5273591168"></trkpt><trkpt lat="50.7914235257" lon="15.5269265268"></trkpt><trkpt lat="50.7915778365" lon="15.5264791008"></trkpt><trkpt lat="50.7916571293" lon="15.5260346085"></trkpt><trkpt lat="50.7918847818" lon="15.5257715005"></trkpt><trkpt lat="50.792185273" lon="15.525889853"></trkpt><trkpt lat="50.8008017857" lon="15.5300803017"></trkpt><trkpt lat="50.8010800648" lon="15.5300817266"></trkpt><trkpt lat="50.8013850823" lon="15.5302633625"></trkpt><trkpt lat="50.8017780259" lon="15.5304175895"></trkpt><trkpt lat="50.8021206781" lon="15.5304369517"></trkpt><trkpt lat="50.8024794236" lon="15.5303655379"></trkpt><trkpt lat="50.802756194" lon="15.5302105565"></trkpt><trkpt lat="50.8029944915" lon="15.52996899"></trkpt><trkpt lat="50.8044667728" lon="15.5287982058"></trkpt><trkpt lat="50.8053745329" lon="15.5282495264"></trkpt><trkpt lat="50.8056728449" lon="15.5282185134"></trkpt><trkpt lat="50.8087717183" lon="15.5290326476"></trkpt><trkpt lat="50.8090575412" lon="15.5293037184"></trkpt><trkpt lat="50.8099523094" lon="15.5304418132"></trkpt><trkpt lat="50.810163198" lon="15.5309265386"></trkpt><trkpt lat="50.8104144875" lon="15.5312370043"></trkpt><trkpt lat="50.8107279707" lon="15.5314226635"></trkpt><trkpt lat="50.8109998796" lon="15.5315348972"></trkpt><trkpt lat="50.8113007061" lon="15.5315468833"></trkpt><trkpt lat="50.8116127644" lon="15.5312539358"></trkpt><trkpt lat="50.8120073844" lon="15.5307732336"></trkpt><trkpt lat="50.8121530619" lon="15.5303277355"></trkpt><trkpt lat="50.8126916829" lon="15.5293027963"></trkpt><trkpt lat="50.8129626699" lon="15.5289474875"></trkpt><trkpt lat="50.8131567109" lon="15.5284204334"></trkpt><trkpt lat="50.8132240176" lon="15.5279280804"></trkpt><trkpt lat="50.8130987082" lon="15.5274407566"></trkpt><trkpt lat="50.8130194992" lon="15.5268679373"></trkpt><trkpt lat="50.8133648336" lon="15.5267914105"></trkpt><trkpt lat="50.8136866987" lon="15.5267739762"></trkpt><trkpt lat="50.8140628785" lon="15.5266573001"></trkpt><trkpt lat="50.8143834863" lon="15.5266345851"></trkpt><trkpt lat="50.8146619331" lon="15.5266986229"></trkpt><trkpt lat="50.8150228579" lon="15.5266837869"></trkpt><trkpt lat="50.8153671026" lon="15.5265907478"></trkpt><trkpt lat="50.8156745508" lon="15.5266046617"></trkpt><trkpt lat="50.8162442688" lon="15.5264939368"></trkpt><trkpt lat="50.8165778685" lon="15.5263452418"></trkpt><trkpt lat="50.8168747555" lon="15.5264191702"></trkpt><trkpt lat="50.8171307389" lon="15.5266518518"></trkpt><trkpt lat="50.8174198307" lon="15.5267569609"></trkpt><trkpt lat="50.8177428693" lon="15.5269462243"></trkpt><trkpt lat="50.8190232888" lon="15.5274891201"></trkpt><trkpt lat="50.8193377778" lon="15.5275689997"></trkpt><trkpt lat="50.8196970262" lon="15.527553577"></trkpt><trkpt lat="50.8213434834" lon="15.5272307061"></trkpt><trkpt lat="50.8218270354" lon="15.5270464718"></trkpt><trkpt lat="50.8220956754" lon="15.5268847849"></trkpt><trkpt lat="50.822405722" lon="15.5267561227"></trkpt><trkpt lat="50.8228352945" lon="15.5268007983"></trkpt><trkpt lat="50.8231212851" lon="15.5271520838"></trkpt><trkpt lat="50.8233665396" lon="15.5273453705"></trkpt><trkpt lat="50.8237241954" lon="15.5271551851"></trkpt><trkpt lat="50.8240645006" lon="15.5266990419"></trkpt><trkpt lat="50.8244789019" lon="15.5262619257"></trkpt><trkpt lat="50.8262232598" lon="15.5239435751"></trkpt><trkpt lat="50.8262749761" lon="15.5234158505"></trkpt><trkpt lat="50.8264131937" lon="15.5230074842"></trkpt><trkpt lat="50.8266923949" lon="15.5224904045"></trkpt><trkpt lat="50.8269167785" lon="15.5221708864"></trkpt><trkpt lat="50.8272984903" lon="15.5224464834"></trkpt><trkpt lat="50.8275824692" lon="15.5227366649"></trkpt><trkpt lat="50.8278670348" lon="15.5228496529"></trkpt><trkpt lat="50.8281144686" lon="15.5230825022"></trkpt><trkpt lat="50.8284018002" lon="15.5232838355"></trkpt><trkpt lat="50.8287466317" lon="15.5233803112"></trkpt><trkpt lat="50.8288089931" lon="15.5228525866"></trkpt><trkpt lat="50.828940589" lon="15.5224715453"></trkpt><trkpt lat="50.8291693311" lon="15.5221058428"></trkpt><trkpt lat="50.8293637913" lon="15.5217045173"></trkpt><trkpt lat="50.8296621032" lon="15.52130403"></trkpt><trkpt lat="50.8299573138" lon="15.5213561654"></trkpt><trkpt lat="50.8302833699" lon="15.5212456081"></trkpt><trkpt lat="50.8305767365" lon="15.521243345"></trkpt><trkpt lat="50.8315589279" lon="15.5210458674"></trkpt><trkpt lat="50.8317373786" lon="15.5206309631"></trkpt><trkpt lat="50.8317454252" lon="15.5201450642"></trkpt><trkpt lat="50.8319466747" lon="15.5196750071"></trkpt><trkpt lat="50.8322378621" lon="15.5192564148"></trkpt></trkseg></trk></gpx>