<?xml version="1.0" encoding="UTF-8" standalone="no" ?><gpx xmlns="http://www.topografix.com/GPX/1/1" xmlns:gpxx="http://www.garmin.com/xmlschemas/GpxExtensions/v3" ><trk><trkseg><trkpt lat="52.4980956037" lon="16.9463108014"></trkpt><trkpt lat="52.4984321371" lon="16.9464366976"></trkpt><trkpt lat="52.4987041298" lon="16.9465857279"></trkpt><trkpt lat="52.4989907071" lon="16.9468443096"></trkpt><trkpt lat="52.499652626" lon="16.9472800009"></trkpt><trkpt lat="52.4999032449" lon="16.9469998777"></trkpt><trkpt lat="52.4997098744" lon="16.9475151971"></trkpt><trkpt lat="52.4998210184" lon="16.9482131582"></trkpt><trkpt lat="52.4998570606" lon="16.9486738276"></trkpt><trkpt lat="52.4998629279" lon="16.9491799269"></trkpt><trkpt lat="52.4999708869" lon="16.9506496098"></trkpt><trkpt lat="52.499688752" lon="16.9505744241"></trkpt><trkpt lat="52.4993413221" lon="16.9503476936"></trkpt><trkpt lat="52.4990030285" lon="16.9503275771"></trkpt><trkpt lat="52.4985107593" lon="16.950166896"></trkpt><trkpt lat="52.4983870424" lon="16.9497367367"></trkpt><trkpt lat="52.4982172251" lon="16.9492873829"></trkpt><trkpt lat="52.4979369342" lon="16.950203944"></trkpt><trkpt lat="52.496760115" lon="16.953155715"></trkpt><trkpt lat="52.4965747073" lon="16.9535121974"></trkpt><trkpt lat="52.4960386008" lon="16.9543521479"></trkpt><trkpt lat="52.4958011415" lon="16.9546031021"></trkpt><trkpt lat="52.4957597349" lon="16.955082966"></trkpt><trkpt lat="52.4955693819" lon="16.9555465691"></trkpt><trkpt lat="52.4954594951" lon="16.9561447855"></trkpt><trkpt lat="52.4957103655" lon="16.9565082248"></trkpt><trkpt lat="52.4958496727" lon="16.9560789876"></trkpt><trkpt lat="52.4959385209" lon="16.9556052424"></trkpt><trkpt lat="52.4958785903" lon="16.9560545962"></trkpt><trkpt lat="52.4957704637" lon="16.9565606955"></trkpt><trkpt lat="52.4955060147" lon="16.9566759467"></trkpt><trkpt lat="52.4953204393" lon="16.9570459239"></trkpt><trkpt lat="52.4952223711" lon="16.9574708864"></trkpt><trkpt lat="52.4949067924" lon="16.9574578106"></trkpt><trkpt lat="52.494586017" lon="16.9575480837"></trkpt><trkpt lat="52.49427706" lon="16.9577054959"></trkpt><trkpt lat="52.4941836856" lon="16.9581653271"></trkpt><trkpt lat="52.4942728691" lon="16.9576564617"></trkpt><trkpt lat="52.4945393298" lon="16.9575106166"></trkpt><trkpt lat="52.4947593547" lon="16.9572393782"></trkpt><trkpt lat="52.4947990011" lon="16.956736967"></trkpt><trkpt lat="52.4949274119" lon="16.9561675843"></trkpt><trkpt lat="52.4950592592" lon="16.9557290431"></trkpt><trkpt lat="52.4952367041" lon="16.9552896637"></trkpt><trkpt lat="52.4980024807" lon="16.9462607615"></trkpt></trkseg></trk></gpx>