<?xml version="1.0" encoding="UTF-8" standalone="no" ?><gpx xmlns="http://www.topografix.com/GPX/1/1" xmlns:gpxx="http://www.garmin.com/xmlschemas/GpxExtensions/v3" ><trk><trkseg><trkpt lat="50.2309165243" lon="17.2105818149"></trkpt><trkpt lat="50.2308476251" lon="17.2110260557"></trkpt><trkpt lat="50.2307223156" lon="17.2114231065"></trkpt><trkpt lat="50.2305273525" lon="17.2118370049"></trkpt><trkpt lat="50.2302494086" lon="17.2119214945"></trkpt><trkpt lat="50.2300551999" lon="17.212335309"></trkpt><trkpt lat="50.2297270484" lon="17.2126714233"></trkpt><trkpt lat="50.229584137" lon="17.2130348627"></trkpt><trkpt lat="50.2296589874" lon="17.2134567238"></trkpt><trkpt lat="50.2298183274" lon="17.2138214204"></trkpt><trkpt lat="50.2296010684" lon="17.2141616419"></trkpt><trkpt lat="50.229397472" lon="17.2145897895"></trkpt><trkpt lat="50.2293092106" lon="17.2152209468"></trkpt><trkpt lat="50.2292007487" lon="17.2156698816"></trkpt><trkpt lat="50.2294693049" lon="17.215740541"></trkpt><trkpt lat="50.2297456563" lon="17.2159989551"></trkpt><trkpt lat="50.2298894059" lon="17.2164287791"></trkpt><trkpt lat="50.2299028169" lon="17.2168764565"></trkpt><trkpt lat="50.229728641" lon="17.2174085397"></trkpt><trkpt lat="50.2296705544" lon="17.2178313229"></trkpt><trkpt lat="50.2294221148" lon="17.2180330753"></trkpt><trkpt lat="50.2293274831" lon="17.2184827644"></trkpt><trkpt lat="50.2293125633" lon="17.2189430986"></trkpt><trkpt lat="50.2290826477" lon="17.2192176897"></trkpt><trkpt lat="50.2287570108" lon="17.2189628799"></trkpt><trkpt lat="50.2284861915" lon="17.2188052163"></trkpt><trkpt lat="50.2283048909" lon="17.2192697413"></trkpt><trkpt lat="50.2282220777" lon="17.2196881659"></trkpt><trkpt lat="50.2283255942" lon="17.220138358"></trkpt><trkpt lat="50.2283779811" lon="17.2206198983"></trkpt><trkpt lat="50.2284036297" lon="17.2211464494"></trkpt><trkpt lat="50.2281647455" lon="17.2214398999"></trkpt><trkpt lat="50.2281991951" lon="17.2220593225"></trkpt><trkpt lat="50.2280777413" lon="17.2225080896"></trkpt><trkpt lat="50.2279049903" lon="17.2229167074"></trkpt><trkpt lat="50.2278025635" lon="17.2233238164"></trkpt><trkpt lat="50.2276316565" lon="17.2237466834"></trkpt><trkpt lat="50.227372488" lon="17.2239648644"></trkpt><trkpt lat="50.2270965558" lon="17.2240379546"></trkpt><trkpt lat="50.226857001" lon="17.2243728116"></trkpt><trkpt lat="50.2265937254" lon="17.2246580478"></trkpt><trkpt lat="50.2264058031" lon="17.2249885462"></trkpt><trkpt lat="50.2260997798" lon="17.2247427888"></trkpt><trkpt lat="50.2259092592" lon="17.2244429681"></trkpt><trkpt lat="50.2261737082" lon="17.2248194832"></trkpt><trkpt lat="50.226630941" lon="17.2253306117"></trkpt><trkpt lat="50.2277412079" lon="17.2268226743"></trkpt><trkpt lat="50.227966262" lon="17.227260042"></trkpt><trkpt lat="50.2287662309" lon="17.2285012342"></trkpt><trkpt lat="50.2290465217" lon="17.2287906613"></trkpt><trkpt lat="50.2296649385" lon="17.2292890493"></trkpt><trkpt lat="50.2299697883" lon="17.2294414323"></trkpt><trkpt lat="50.2302251011" lon="17.2298314422"></trkpt><trkpt lat="50.2305024583" lon="17.2296432685"></trkpt><trkpt lat="50.2307473775" lon="17.2294204775"></trkpt><trkpt lat="50.2310067136" lon="17.2293029632"></trkpt><trkpt lat="50.2311891038" lon="17.2289865464"></trkpt><trkpt lat="50.2315403894" lon="17.2288268711"></trkpt><trkpt lat="50.2316376194" lon="17.2292601317"></trkpt><trkpt lat="50.2315282356" lon="17.2296947334"></trkpt><trkpt lat="50.2315876633" lon="17.2301564086"></trkpt><trkpt lat="50.2314192709" lon="17.2304921038"></trkpt><trkpt lat="50.2315052692" lon="17.2310209181"></trkpt><trkpt lat="50.2329594456" lon="17.2375043202"></trkpt><trkpt lat="50.2331228089" lon="17.2370238695"></trkpt><trkpt lat="50.2332418319" lon="17.2363884374"></trkpt><trkpt lat="50.2332657203" lon="17.2359132674"></trkpt><trkpt lat="50.2333881799" lon="17.2352977004"></trkpt><trkpt lat="50.2335764375" lon="17.2348164115"></trkpt><trkpt lat="50.2338571474" lon="17.2351522744"></trkpt><trkpt lat="50.2340040822" lon="17.2355405241"></trkpt><trkpt lat="50.2341772523" lon="17.2358761355"></trkpt><trkpt lat="50.2344436292" lon="17.2362525668"></trkpt><trkpt lat="50.23482861" lon="17.236343259"></trkpt><trkpt lat="50.2378488611" lon="17.2375168931"></trkpt><trkpt lat="50.2381092031" lon="17.2373768315"></trkpt><trkpt lat="50.2379288245" lon="17.2377173044"></trkpt><trkpt lat="50.2376253158" lon="17.2377627343"></trkpt><trkpt lat="50.2373512276" lon="17.2379806638"></trkpt><trkpt lat="50.2370612137" lon="17.2382766288"></trkpt><trkpt lat="50.2368575335" lon="17.2385813948"></trkpt><trkpt lat="50.2365634963" lon="17.2391548008"></trkpt><trkpt lat="50.2365079243" lon="17.2395986225"></trkpt><trkpt lat="50.2360334247" lon="17.2420639079"></trkpt><trkpt lat="50.235884143" lon="17.2425443586"></trkpt><trkpt lat="50.2356531378" lon="17.2427866794"></trkpt><trkpt lat="50.2354973182" lon="17.2431399766"></trkpt><trkpt lat="50.2352075558" lon="17.2436320782"></trkpt><trkpt lat="50.2349011134" lon="17.2442537639"></trkpt><trkpt lat="50.2346163802" lon="17.2444865294"></trkpt><trkpt lat="50.2328840923" lon="17.2462563682"></trkpt><trkpt lat="50.2326886263" lon="17.2465684265"></trkpt><trkpt lat="50.2323743887" lon="17.2471906152"></trkpt><trkpt lat="50.2321157232" lon="17.2475416493"></trkpt><trkpt lat="50.2318358514" lon="17.2474645358"></trkpt><trkpt lat="50.2300080936" lon="17.2483054921"></trkpt><trkpt lat="50.230053775" lon="17.2487347294"></trkpt><trkpt lat="50.2301660087" lon="17.2491479572"></trkpt><trkpt lat="50.23020708" lon="17.2496517096"></trkpt><trkpt lat="50.2301925793" lon="17.2503649257"></trkpt><trkpt lat="50.2302252688" lon="17.2509428579"></trkpt><trkpt lat="50.2302152105" lon="17.2514823172"></trkpt><trkpt lat="50.2299534436" lon="17.251940975"></trkpt><trkpt lat="50.2295782696" lon="17.2522513568"></trkpt><trkpt lat="50.2293189336" lon="17.2526717093"></trkpt><trkpt lat="50.2289033588" lon="17.25348006"></trkpt><trkpt lat="50.2287613694" lon="17.2539850697"></trkpt><trkpt lat="50.2286974993" lon="17.2544564679"></trkpt><trkpt lat="50.2285786439" lon="17.2548883874"></trkpt><trkpt lat="50.2284996025" lon="17.2553478833"></trkpt><trkpt lat="50.2285108343" lon="17.2557995003"></trkpt><trkpt lat="50.2284431923" lon="17.2567676101"></trkpt><trkpt lat="50.2283215709" lon="17.2573065665"></trkpt><trkpt lat="50.2283162065" lon="17.2577312775"></trkpt><trkpt lat="50.2282483969" lon="17.2582439147"></trkpt><trkpt lat="50.2282521687" lon="17.2587506846"></trkpt><trkpt lat="50.2283022925" lon="17.2592634894"></trkpt><trkpt lat="50.2285630535" lon="17.2609072644"></trkpt><trkpt lat="50.2287478745" lon="17.2612577118"></trkpt><trkpt lat="50.2300284617" lon="17.2641788051"></trkpt><trkpt lat="50.2303126082" lon="17.2650228627"></trkpt><trkpt lat="50.2304367442" lon="17.2655152157"></trkpt><trkpt lat="50.2305653226" lon="17.2662322037"></trkpt><trkpt lat="50.2307165321" lon="17.266719779"></trkpt><trkpt lat="50.2314527147" lon="17.2697556205"></trkpt><trkpt lat="50.2313939575" lon="17.2701782361"></trkpt><trkpt lat="50.2311268263" lon="17.2703031264"></trkpt><trkpt lat="50.2306791488" lon="17.2703651525"></trkpt><trkpt lat="50.2298126277" lon="17.2706078086"></trkpt><trkpt lat="50.2295457479" lon="17.2704471275"></trkpt><trkpt lat="50.2291978151" lon="17.2703938186"></trkpt><trkpt lat="50.2284606267" lon="17.2701776493"></trkpt><trkpt lat="50.2281990275" lon="17.2699930798"></trkpt><trkpt lat="50.2278630808" lon="17.2698786668"></trkpt><trkpt lat="50.2276140545" lon="17.2696663532"></trkpt><trkpt lat="50.2272887528" lon="17.2694835439"></trkpt><trkpt lat="50.2269506268" lon="17.2693903372"></trkpt><trkpt lat="50.226659188" lon="17.2696429677"></trkpt><trkpt lat="50.2263691742" lon="17.2697256971"></trkpt><trkpt lat="50.225980673" lon="17.2696883138"></trkpt><trkpt lat="50.2241027914" lon="17.2692058515"></trkpt><trkpt lat="50.2240866143" lon="17.2686544061"></trkpt><trkpt lat="50.2240093332" lon="17.2677938361"></trkpt><trkpt lat="50.2238100953" lon="17.2667246405"></trkpt><trkpt lat="50.2235630807" lon="17.2663253266"></trkpt><trkpt lat="50.2234030701" lon="17.2659233306"></trkpt><trkpt lat="50.2231404651" lon="17.2650609165"></trkpt><trkpt lat="50.222939048" lon="17.2646375466"></trkpt><trkpt lat="50.2227444202" lon="17.2643061262"></trkpt><trkpt lat="50.2225753572" lon="17.263886109"></trkpt><trkpt lat="50.2220650669" lon="17.26229975"></trkpt><trkpt lat="50.2218758874" lon="17.261968581"></trkpt><trkpt lat="50.2215529326" lon="17.2612547781"></trkpt><trkpt lat="50.2213979512" lon="17.2608066816"></trkpt><trkpt lat="50.2211982105" lon="17.2604260594"></trkpt><trkpt lat="50.221065525" lon="17.2600499634"></trkpt><trkpt lat="50.2209868189" lon="17.2596367355"></trkpt><trkpt lat="50.2208141517" lon="17.2590689454"></trkpt><trkpt lat="50.2208420634" lon="17.2585362755"></trkpt><trkpt lat="50.2209656965" lon="17.2580243088"></trkpt><trkpt lat="50.2210879046" lon="17.2572625615"></trkpt><trkpt lat="50.2211393695" lon="17.2566842102"></trkpt><trkpt lat="50.2211705502" lon="17.2557007615"></trkpt><trkpt lat="50.2210281417" lon="17.2552058101"></trkpt><trkpt lat="50.2209402993" lon="17.2546537779"></trkpt><trkpt lat="50.2208013274" lon="17.2541038413"></trkpt><trkpt lat="50.2206116449" lon="17.2537342831"></trkpt><trkpt lat="50.2189495973" lon="17.2498424817"></trkpt><trkpt lat="50.2187496889" lon="17.2494550701"></trkpt><trkpt lat="50.2184958849" lon="17.2491035331"></trkpt><trkpt lat="50.2182858344" lon="17.2485411074"></trkpt><trkpt lat="50.2181635424" lon="17.2480102815"></trkpt><trkpt lat="50.2178897057" lon="17.2471115738"></trkpt><trkpt lat="50.2175112627" lon="17.2464196477"></trkpt><trkpt lat="50.2175240032" lon="17.2459634207"></trkpt><trkpt lat="50.2174007054" lon="17.2454336006"></trkpt><trkpt lat="50.2173622325" lon="17.2445049696"></trkpt><trkpt lat="50.2172243502" lon="17.2440775763"></trkpt><trkpt lat="50.2170102764" lon="17.2431558184"></trkpt><trkpt lat="50.2170609869" lon="17.2424358968"></trkpt><trkpt lat="50.2169289719" lon="17.2419799212"></trkpt><trkpt lat="50.2167503536" lon="17.2409963887"></trkpt><trkpt lat="50.2167863119" lon="17.2405653074"></trkpt><trkpt lat="50.2168946899" lon="17.2399583738"></trkpt><trkpt lat="50.216955794" lon="17.2392594069"></trkpt><trkpt lat="50.2170877252" lon="17.2387108114"></trkpt><trkpt lat="50.2172498312" lon="17.2383161914"></trkpt><trkpt lat="50.2175084129" lon="17.237525275"></trkpt><trkpt lat="50.217558872" lon="17.2370525356"></trkpt><trkpt lat="50.2176414337" lon="17.2365852445"></trkpt><trkpt lat="50.2176560182" lon="17.235842105"></trkpt><trkpt lat="50.2174945828" lon="17.2354193218"></trkpt><trkpt lat="50.2171580493" lon="17.2350614145"></trkpt><trkpt lat="50.2169285528" lon="17.2346561495"></trkpt><trkpt lat="50.2135198843" lon="17.2273897938"></trkpt><trkpt lat="50.2134766337" lon="17.2269569524"></trkpt><trkpt lat="50.2133176289" lon="17.2265122086"></trkpt><trkpt lat="50.2131108474" lon="17.2257915325"></trkpt><trkpt lat="50.2132037189" lon="17.2253461182"></trkpt><trkpt lat="50.2138834074" lon="17.2229012847"></trkpt><trkpt lat="50.214074431" lon="17.222481519"></trkpt><trkpt lat="50.2142674662" lon="17.2221570555"></trkpt><trkpt lat="50.2144528739" lon="17.2217729129"></trkpt><trkpt lat="50.2146829572" lon="17.2214332782"></trkpt><trkpt lat="50.215038266" lon="17.2207027953"></trkpt><trkpt lat="50.2151901461" lon="17.2202117834"></trkpt><trkpt lat="50.2191930078" lon="17.2097279504"></trkpt><trkpt lat="50.2194214985" lon="17.2093475796"></trkpt><trkpt lat="50.2197585348" lon="17.2092637606"></trkpt><trkpt lat="50.2205372974" lon="17.2089574859"></trkpt><trkpt lat="50.2208046801" lon="17.208692953"></trkpt><trkpt lat="50.2210904192" lon="17.2085243091"></trkpt><trkpt lat="50.2213593107" lon="17.2084518056"></trkpt><trkpt lat="50.2220422681" lon="17.208378464"></trkpt><trkpt lat="50.2233845461" lon="17.2080362309"></trkpt><trkpt lat="50.2236898988" lon="17.2078433633"></trkpt><trkpt lat="50.2239172161" lon="17.2075541038"></trkpt><trkpt lat="50.2242626343" lon="17.2074507549"></trkpt><trkpt lat="50.2245975751" lon="17.2071569692"></trkpt><trkpt lat="50.2248441707" lon="17.2068076115"></trkpt><trkpt lat="50.2252571471" lon="17.2065612674"></trkpt><trkpt lat="50.2257256117" lon="17.2061730176"></trkpt><trkpt lat="50.2260543499" lon="17.2060173657"></trkpt><trkpt lat="50.2263362333" lon="17.2058389988"></trkpt><trkpt lat="50.2265618742" lon="17.2055913974"></trkpt><trkpt lat="50.2267508861" lon="17.2051721346"></trkpt><trkpt lat="50.2270565741" lon="17.20475832"></trkpt><trkpt lat="50.2280766517" lon="17.2036141902"></trkpt><trkpt lat="50.2283572778" lon="17.2030873038"></trkpt><trkpt lat="50.2286957391" lon="17.2031035647"></trkpt><trkpt lat="50.2287143469" lon="17.202656474"></trkpt><trkpt lat="50.228942167" lon="17.2022405639"></trkpt><trkpt lat="50.2291411534" lon="17.2019544896"></trkpt><trkpt lat="50.2294944506" lon="17.2016748693"></trkpt><trkpt lat="50.2298902441" lon="17.2014369071"></trkpt><trkpt lat="50.2302056551" lon="17.2013923153"></trkpt><trkpt lat="50.2304461319" lon="17.2015921399"></trkpt><trkpt lat="50.2323432919" lon="17.2027267143"></trkpt><trkpt lat="50.2323097643" lon="17.2021737602"></trkpt><trkpt lat="50.2323479857" lon="17.2016704269"></trkpt><trkpt lat="50.2323058248" lon="17.2023198567"></trkpt><trkpt lat="50.2322351653" lon="17.2028399538"></trkpt><trkpt lat="50.2319868095" lon="17.2030925006"></trkpt><trkpt lat="50.2311142534" lon="17.2037813254"></trkpt><trkpt lat="50.2306833398" lon="17.2038391605"></trkpt><trkpt lat="50.2300798427" lon="17.2041119915"></trkpt><trkpt lat="50.2300922479" lon="17.204607781"></trkpt><trkpt lat="50.2302741352" lon="17.2050407901"></trkpt><trkpt lat="50.2303432021" lon="17.2057753801"></trkpt><trkpt lat="50.2306944039" lon="17.2059452813"></trkpt><trkpt lat="50.2310404927" lon="17.205948215"></trkpt><trkpt lat="50.2314101346" lon="17.2063222155"></trkpt><trkpt lat="50.2315913513" lon="17.2068238724"></trkpt><trkpt lat="50.2317029983" lon="17.2072774172"></trkpt><trkpt lat="50.2319111209" lon="17.2077193111"></trkpt><trkpt lat="50.2319299802" lon="17.2082104906"></trkpt><trkpt lat="50.2317717299" lon="17.2085545678"></trkpt><trkpt lat="50.2314226236" lon="17.2091844678"></trkpt><trkpt lat="50.2308459487" lon="17.2101085726"></trkpt></trkseg></trk></gpx>