<?xml version="1.0" encoding="UTF-8" standalone="no" ?><gpx xmlns="http://www.topografix.com/GPX/1/1" xmlns:gpxx="http://www.garmin.com/xmlschemas/GpxExtensions/v3" ><trk><trkseg><trkpt lat="52.3892538249" lon="17.1165993903"></trkpt><trkpt lat="52.3894730955" lon="17.1169560403"></trkpt><trkpt lat="52.3896474391" lon="17.1173122711"></trkpt><trkpt lat="52.3899931088" lon="17.1181668062"></trkpt><trkpt lat="52.3903997988" lon="17.1194028854"></trkpt><trkpt lat="52.390620159" lon="17.1202492062"></trkpt><trkpt lat="52.390712779" lon="17.1207587421"></trkpt><trkpt lat="52.3910174612" lon="17.1220122557"></trkpt><trkpt lat="52.3911716882" lon="17.1224360447"></trkpt><trkpt lat="52.3919612635" lon="17.1251363587"></trkpt><trkpt lat="52.3920801189" lon="17.1256920788"></trkpt><trkpt lat="52.3933519889" lon="17.1302613895"></trkpt><trkpt lat="52.3958202079" lon="17.137387516"></trkpt><trkpt lat="52.3967707157" lon="17.1408041473"></trkpt><trkpt lat="52.3968709633" lon="17.1412987635"></trkpt><trkpt lat="52.4000545777" lon="17.1551418118"></trkpt><trkpt lat="52.4001109041" lon="17.1555931773"></trkpt><trkpt lat="52.4001423363" lon="17.1560674254"></trkpt><trkpt lat="52.4001419172" lon="17.1565813199"></trkpt><trkpt lat="52.4008495174" lon="17.1698559914"></trkpt><trkpt lat="52.4009748269" lon="17.1706041601"></trkpt><trkpt lat="52.4026364554" lon="17.1851464268"></trkpt><trkpt lat="52.4027483538" lon="17.1873663738"></trkpt><trkpt lat="52.4027398042" lon="17.1879300568"></trkpt><trkpt lat="52.4029057659" lon="17.2027238645"></trkpt><trkpt lat="52.4036622327" lon="17.2181298025"></trkpt><trkpt lat="52.4049386289" lon="17.2340467852"></trkpt><trkpt lat="52.4052059278" lon="17.235384034"></trkpt><trkpt lat="52.4083746225" lon="17.2495933715"></trkpt><trkpt lat="52.4091831408" lon="17.2523025703"></trkpt><trkpt lat="52.4094061833" lon="17.2528038081"></trkpt><trkpt lat="52.4112788681" lon="17.2579132486"></trkpt><trkpt lat="52.411851855" lon="17.2598615382"></trkpt><trkpt lat="52.4119476601" lon="17.2603026778"></trkpt><trkpt lat="52.4121479038" lon="17.2610081825"></trkpt><trkpt lat="52.4125060625" lon="17.2620037012"></trkpt><trkpt lat="52.4126889557" lon="17.2623937111"></trkpt><trkpt lat="52.413554471" lon="17.2646344453"></trkpt><trkpt lat="52.4136508629" lon="17.2650792729"></trkpt><trkpt lat="52.4137713108" lon="17.2658630647"></trkpt><trkpt lat="52.4138094485" lon="17.2663239855"></trkpt><trkpt lat="52.413782794" lon="17.2668267321"></trkpt><trkpt lat="52.4138134718" lon="17.2727783863"></trkpt><trkpt lat="52.4138834607" lon="17.2734662052"></trkpt><trkpt lat="52.4151099846" lon="17.2812576033"></trkpt><trkpt lat="52.4158299901" lon="17.2883380484"></trkpt><trkpt lat="52.4160489254" lon="17.2893610597"></trkpt><trkpt lat="52.4162349198" lon="17.2898023669"></trkpt><trkpt lat="52.4164429586" lon="17.290100595"></trkpt><trkpt lat="52.4167585373" lon="17.2904160898"></trkpt><trkpt lat="52.417081492" lon="17.2906777728"></trkpt><trkpt lat="52.4173914548" lon="17.290752707"></trkpt><trkpt lat="52.4180708919" lon="17.2910757456"></trkpt><trkpt lat="52.4180413876" lon="17.2915311344"></trkpt></trkseg></trk></gpx>