<?xml version="1.0" encoding="UTF-8" standalone="no" ?><gpx xmlns="http://www.topografix.com/GPX/1/1" xmlns:gpxx="http://www.garmin.com/xmlschemas/GpxExtensions/v3" ><trk><trkseg><trkpt lat="52.658789" lon="17.946423"></trkpt><trkpt lat="52.658886" lon="17.947"></trkpt><trkpt lat="52.659519" lon="17.947391"></trkpt><trkpt lat="52.660022" lon="17.947614"></trkpt><trkpt lat="52.660409" lon="17.94786"></trkpt><trkpt lat="52.660521" lon="17.947587"></trkpt><trkpt lat="52.660646" lon="17.946931"></trkpt><trkpt lat="52.660663" lon="17.946504"></trkpt><trkpt lat="52.660715" lon="17.945925"></trkpt><trkpt lat="52.660792" lon="17.945417"></trkpt><trkpt lat="52.660841" lon="17.944691"></trkpt><trkpt lat="52.660824" lon="17.94527"></trkpt><trkpt lat="52.661623" lon="17.945418"></trkpt><trkpt lat="52.662075" lon="17.945576"></trkpt><trkpt lat="52.662367" lon="17.945727"></trkpt><trkpt lat="52.662737" lon="17.945972"></trkpt><trkpt lat="52.663097" lon="17.946292"></trkpt><trkpt lat="52.663323" lon="17.946239"></trkpt><trkpt lat="52.663658" lon="17.945873"></trkpt><trkpt lat="52.665539" lon="17.943267"></trkpt><trkpt lat="52.665686" lon="17.942962"></trkpt><trkpt lat="52.670138" lon="17.93502"></trkpt><trkpt lat="52.670327" lon="17.934762"></trkpt><trkpt lat="52.671056" lon="17.933906"></trkpt><trkpt lat="52.671461" lon="17.933654"></trkpt><trkpt lat="52.674753" lon="17.93262"></trkpt><trkpt lat="52.675365" lon="17.933059"></trkpt><trkpt lat="52.680549" lon="17.935871"></trkpt><trkpt lat="52.680361" lon="17.936008"></trkpt><trkpt lat="52.680318" lon="17.936509"></trkpt><trkpt lat="52.680208" lon="17.936044"></trkpt><trkpt lat="52.679773" lon="17.935847"></trkpt><trkpt lat="52.679572" lon="17.935717"></trkpt><trkpt lat="52.674353" lon="17.931585"></trkpt><trkpt lat="52.674502" lon="17.931102"></trkpt><trkpt lat="52.6763" lon="17.926209"></trkpt><trkpt lat="52.676738" lon="17.92563"></trkpt><trkpt lat="52.677478" lon="17.924186"></trkpt><trkpt lat="52.678499" lon="17.922689"></trkpt><trkpt lat="52.679395" lon="17.9208"></trkpt><trkpt lat="52.679385" lon="17.920453"></trkpt><trkpt lat="52.679227" lon="17.92002"></trkpt><trkpt lat="52.678712" lon="17.91883"></trkpt><trkpt lat="52.678871" lon="17.919208"></trkpt><trkpt lat="52.679404" lon="17.920771"></trkpt><trkpt lat="52.679382" lon="17.921217"></trkpt><trkpt lat="52.679793" lon="17.921361"></trkpt><trkpt lat="52.680667" lon="17.920542"></trkpt><trkpt lat="52.681348" lon="17.919641"></trkpt><trkpt lat="52.683952" lon="17.917133"></trkpt><trkpt lat="52.684168" lon="17.917025"></trkpt><trkpt lat="52.684245" lon="17.916441"></trkpt><trkpt lat="52.684556" lon="17.914792"></trkpt><trkpt lat="52.684725" lon="17.914403"></trkpt><trkpt lat="52.685203" lon="17.912967"></trkpt><trkpt lat="52.685392" lon="17.912552"></trkpt><trkpt lat="52.685711" lon="17.912012"></trkpt><trkpt lat="52.686128" lon="17.911418"></trkpt><trkpt lat="52.685754" lon="17.91199"></trkpt><trkpt lat="52.685253" lon="17.912637"></trkpt><trkpt lat="52.685357" lon="17.911962"></trkpt><trkpt lat="52.685369" lon="17.911456"></trkpt><trkpt lat="52.685349" lon="17.91104"></trkpt><trkpt lat="52.685121" lon="17.908634"></trkpt><trkpt lat="52.685002" lon="17.908232"></trkpt><trkpt lat="52.684647" lon="17.906771"></trkpt><trkpt lat="52.684577" lon="17.906396"></trkpt><trkpt lat="52.684424" lon="17.905873"></trkpt><trkpt lat="52.683323" lon="17.902753"></trkpt><trkpt lat="52.68286" lon="17.902132"></trkpt><trkpt lat="52.682427" lon="17.901402"></trkpt><trkpt lat="52.682225" lon="17.900919"></trkpt><trkpt lat="52.682001" lon="17.899956"></trkpt><trkpt lat="52.680962" lon="17.896972"></trkpt><trkpt lat="52.680426" lon="17.896269"></trkpt><trkpt lat="52.679835" lon="17.895375"></trkpt><trkpt lat="52.679736" lon="17.895017"></trkpt><trkpt lat="52.679699" lon="17.894532"></trkpt><trkpt lat="52.679708" lon="17.893917"></trkpt><trkpt lat="52.679878" lon="17.893614"></trkpt><trkpt lat="52.680063" lon="17.893196"></trkpt><trkpt lat="52.683413" lon="17.886684"></trkpt><trkpt lat="52.684119" lon="17.886225"></trkpt><trkpt lat="52.68442" lon="17.885979"></trkpt><trkpt lat="52.684924" lon="17.885173"></trkpt><trkpt lat="52.685151" lon="17.884433"></trkpt><trkpt lat="52.685357" lon="17.883919"></trkpt><trkpt lat="52.68567" lon="17.884439"></trkpt><trkpt lat="52.686501" lon="17.886052"></trkpt><trkpt lat="52.686764" lon="17.886449"></trkpt><trkpt lat="52.687073" lon="17.88685"></trkpt><trkpt lat="52.687323" lon="17.88731"></trkpt><trkpt lat="52.68751" lon="17.887561"></trkpt><trkpt lat="52.687758" lon="17.887704"></trkpt><trkpt lat="52.688016" lon="17.887746"></trkpt><trkpt lat="52.68881" lon="17.887736"></trkpt><trkpt lat="52.689222" lon="17.887645"></trkpt><trkpt lat="52.689564" lon="17.887762"></trkpt><trkpt lat="52.689782" lon="17.888022"></trkpt><trkpt lat="52.690346" lon="17.888994"></trkpt><trkpt lat="52.691494" lon="17.890396"></trkpt><trkpt lat="52.691684" lon="17.890549"></trkpt><trkpt lat="52.691301" lon="17.890264"></trkpt><trkpt lat="52.690618" lon="17.889453"></trkpt><trkpt lat="52.690171" lon="17.88877"></trkpt><trkpt lat="52.68992" lon="17.888316"></trkpt><trkpt lat="52.689416" lon="17.887665"></trkpt><trkpt lat="52.689023" lon="17.887653"></trkpt><trkpt lat="52.688679" lon="17.88772"></trkpt><trkpt lat="52.688217" lon="17.887716"></trkpt><trkpt lat="52.687694" lon="17.88764"></trkpt><trkpt lat="52.687498" lon="17.887531"></trkpt><trkpt lat="52.687337" lon="17.887305"></trkpt><trkpt lat="52.687191" lon="17.887051"></trkpt><trkpt lat="52.686772" lon="17.886448"></trkpt><trkpt lat="52.686098" lon="17.885148"></trkpt><trkpt lat="52.685764" lon="17.88459"></trkpt><trkpt lat="52.68557" lon="17.884496"></trkpt><trkpt lat="52.685408" lon="17.883931"></trkpt><trkpt lat="52.685589" lon="17.882991"></trkpt><trkpt lat="52.685815" lon="17.882266"></trkpt><trkpt lat="52.686319" lon="17.880276"></trkpt><trkpt lat="52.686428" lon="17.879251"></trkpt><trkpt lat="52.686448" lon="17.878621"></trkpt><trkpt lat="52.686579" lon="17.877469"></trkpt><trkpt lat="52.686885" lon="17.875588"></trkpt><trkpt lat="52.687302" lon="17.871283"></trkpt><trkpt lat="52.687132" lon="17.870704"></trkpt><trkpt lat="52.686925" lon="17.870286"></trkpt><trkpt lat="52.686654" lon="17.869831"></trkpt><trkpt lat="52.686455" lon="17.869565"></trkpt><trkpt lat="52.686368" lon="17.869229"></trkpt><trkpt lat="52.68628" lon="17.86871"></trkpt><trkpt lat="52.686246" lon="17.868158"></trkpt><trkpt lat="52.686147" lon="17.867697"></trkpt><trkpt lat="52.685989" lon="17.867232"></trkpt><trkpt lat="52.685864" lon="17.8665"></trkpt><trkpt lat="52.685839" lon="17.866117"></trkpt><trkpt lat="52.685782" lon="17.865794"></trkpt><trkpt lat="52.685423" lon="17.862737"></trkpt><trkpt lat="52.68528" lon="17.862397"></trkpt><trkpt lat="52.685142" lon="17.86216"></trkpt><trkpt lat="52.685007" lon="17.861882"></trkpt><trkpt lat="52.684508" lon="17.861294"></trkpt><trkpt lat="52.684325" lon="17.861021"></trkpt><trkpt lat="52.684028" lon="17.860169"></trkpt><trkpt lat="52.682886" lon="17.857669"></trkpt><trkpt lat="52.682658" lon="17.857585"></trkpt><trkpt lat="52.682121" lon="17.857461"></trkpt><trkpt lat="52.681891" lon="17.857672"></trkpt><trkpt lat="52.681448" lon="17.858009"></trkpt><trkpt lat="52.68094" lon="17.858282"></trkpt><trkpt lat="52.680605" lon="17.85851"></trkpt><trkpt lat="52.680307" lon="17.858787"></trkpt><trkpt lat="52.6801" lon="17.85894"></trkpt><trkpt lat="52.679312" lon="17.859399"></trkpt><trkpt lat="52.679117" lon="17.859714"></trkpt><trkpt lat="52.678831" lon="17.860099"></trkpt><trkpt lat="52.678408" lon="17.860329"></trkpt><trkpt lat="52.677978" lon="17.860356"></trkpt><trkpt lat="52.677515" lon="17.860089"></trkpt><trkpt lat="52.677137" lon="17.859956"></trkpt><trkpt lat="52.676127" lon="17.859346"></trkpt><trkpt lat="52.676023" lon="17.858961"></trkpt><trkpt lat="52.675784" lon="17.858387"></trkpt><trkpt lat="52.675487" lon="17.858133"></trkpt><trkpt lat="52.674584" lon="17.857536"></trkpt><trkpt lat="52.674088" lon="17.857339"></trkpt><trkpt lat="52.673877" lon="17.857114"></trkpt><trkpt lat="52.67363" lon="17.856744"></trkpt><trkpt lat="52.67303" lon="17.856145"></trkpt><trkpt lat="52.672475" lon="17.855952"></trkpt><trkpt lat="52.669" lon="17.854191"></trkpt><trkpt lat="52.668674" lon="17.853296"></trkpt><trkpt lat="52.668071" lon="17.852046"></trkpt><trkpt lat="52.667897" lon="17.851603"></trkpt><trkpt lat="52.667415" lon="17.850101"></trkpt><trkpt lat="52.667491" lon="17.849785"></trkpt><trkpt lat="52.667924" lon="17.849197"></trkpt><trkpt lat="52.667916" lon="17.848443"></trkpt><trkpt lat="52.667742" lon="17.847615"></trkpt><trkpt lat="52.665927" lon="17.841535"></trkpt><trkpt lat="52.665491" lon="17.84159"></trkpt><trkpt lat="52.66489" lon="17.841751"></trkpt><trkpt lat="52.664458" lon="17.84193"></trkpt><trkpt lat="52.663365" lon="17.842251"></trkpt><trkpt lat="52.662336" lon="17.842089"></trkpt><trkpt lat="52.662035" lon="17.842259"></trkpt><trkpt lat="52.66147" lon="17.842498"></trkpt><trkpt lat="52.661013" lon="17.842525"></trkpt><trkpt lat="52.66065" lon="17.842075"></trkpt><trkpt lat="52.660416" lon="17.841265"></trkpt><trkpt lat="52.659455" lon="17.838767"></trkpt><trkpt lat="52.659242" lon="17.83837"></trkpt><trkpt lat="52.658936" lon="17.837888"></trkpt><trkpt lat="52.658535" lon="17.837513"></trkpt><trkpt lat="52.657998" lon="17.836783"></trkpt><trkpt lat="52.657912" lon="17.836482"></trkpt><trkpt lat="52.657208" lon="17.833378"></trkpt><trkpt lat="52.65731" lon="17.832232"></trkpt><trkpt lat="52.657277" lon="17.831199"></trkpt><trkpt lat="52.657156" lon="17.829671"></trkpt><trkpt lat="52.657046" lon="17.829289"></trkpt><trkpt lat="52.656567" lon="17.828471"></trkpt><trkpt lat="52.656778" lon="17.828661"></trkpt><trkpt lat="52.656961" lon="17.828278"></trkpt><trkpt lat="52.657269" lon="17.828081"></trkpt><trkpt lat="52.657735" lon="17.828091"></trkpt><trkpt lat="52.658028" lon="17.827731"></trkpt><trkpt lat="52.658234" lon="17.827514"></trkpt><trkpt lat="52.65849" lon="17.827165"></trkpt><trkpt lat="52.658807" lon="17.826869"></trkpt><trkpt lat="52.6602" lon="17.82581"></trkpt><trkpt lat="52.660646" lon="17.825723"></trkpt><trkpt lat="52.660858" lon="17.82542"></trkpt><trkpt lat="52.661419" lon="17.824779"></trkpt><trkpt lat="52.661783" lon="17.824595"></trkpt><trkpt lat="52.662168" lon="17.824623"></trkpt><trkpt lat="52.662514" lon="17.824918"></trkpt><trkpt lat="52.66278" lon="17.825068"></trkpt><trkpt lat="52.662581" lon="17.824997"></trkpt><trkpt lat="52.662822" lon="17.825017"></trkpt><trkpt lat="52.662838" lon="17.824495"></trkpt><trkpt lat="52.662738" lon="17.825102"></trkpt><trkpt lat="52.662564" lon="17.824938"></trkpt><trkpt lat="52.662311" lon="17.824658"></trkpt><trkpt lat="52.661986" lon="17.824558"></trkpt><trkpt lat="52.661361" lon="17.824862"></trkpt><trkpt lat="52.661027" lon="17.825162"></trkpt><trkpt lat="52.660773" lon="17.825589"></trkpt><trkpt lat="52.660501" lon="17.825807"></trkpt><trkpt lat="52.660035" lon="17.825796"></trkpt><trkpt lat="52.659726" lon="17.825946"></trkpt><trkpt lat="52.659241" lon="17.826482"></trkpt><trkpt lat="52.658617" lon="17.82704"></trkpt><trkpt lat="52.658341" lon="17.827362"></trkpt><trkpt lat="52.657273" lon="17.828048"></trkpt><trkpt lat="52.657014" lon="17.828066"></trkpt><trkpt lat="52.656902" lon="17.828583"></trkpt><trkpt lat="52.65654" lon="17.828414"></trkpt><trkpt lat="52.656258" lon="17.828105"></trkpt><trkpt lat="52.655717" lon="17.8274"></trkpt><trkpt lat="52.655513" lon="17.827066"></trkpt><trkpt lat="52.655114" lon="17.8265"></trkpt><trkpt lat="52.651277" lon="17.821885"></trkpt><trkpt lat="52.650874" lon="17.821491"></trkpt><trkpt lat="52.650592" lon="17.821131"></trkpt><trkpt lat="52.650445" lon="17.82085"></trkpt><trkpt lat="52.649658" lon="17.81908"></trkpt><trkpt lat="52.645423" lon="17.810994"></trkpt><trkpt lat="52.645087" lon="17.810105"></trkpt><trkpt lat="52.644912" lon="17.8092"></trkpt><trkpt lat="52.644351" lon="17.806919"></trkpt><trkpt lat="52.644118" lon="17.806749"></trkpt><trkpt lat="52.643209" lon="17.806554"></trkpt><trkpt lat="52.641266" lon="17.805722"></trkpt><trkpt lat="52.640753" lon="17.804999"></trkpt><trkpt lat="52.640341" lon="17.804293"></trkpt><trkpt lat="52.636383" lon="17.796162"></trkpt><trkpt lat="52.636216" lon="17.796579"></trkpt><trkpt lat="52.636315" lon="17.797084"></trkpt><trkpt lat="52.6365" lon="17.797792"></trkpt><trkpt lat="52.636413" lon="17.798315"></trkpt><trkpt lat="52.636234" lon="17.798824"></trkpt><trkpt lat="52.635711" lon="17.80005"></trkpt><trkpt lat="52.635207" lon="17.800446"></trkpt><trkpt lat="52.626648" lon="17.805982"></trkpt><trkpt lat="52.626179" lon="17.806176"></trkpt><trkpt lat="52.625707" lon="17.806527"></trkpt><trkpt lat="52.625538" lon="17.806709"></trkpt><trkpt lat="52.625161" lon="17.807198"></trkpt><trkpt lat="52.624787" lon="17.807781"></trkpt><trkpt lat="52.621393" lon="17.812309"></trkpt><trkpt lat="52.621084" lon="17.812601"></trkpt><trkpt lat="52.619719" lon="17.813644"></trkpt><trkpt lat="52.618951" lon="17.81328"></trkpt><trkpt lat="52.615353" lon="17.812052"></trkpt><trkpt lat="52.606617" lon="17.810113"></trkpt><trkpt lat="52.606684" lon="17.810426"></trkpt><trkpt lat="52.606726" lon="17.811247"></trkpt><trkpt lat="52.606694" lon="17.81395"></trkpt><trkpt lat="52.606498" lon="17.814624"></trkpt><trkpt lat="52.606276" lon="17.814992"></trkpt><trkpt lat="52.606056" lon="17.815446"></trkpt><trkpt lat="52.606171" lon="17.815796"></trkpt><trkpt lat="52.606027" lon="17.815461"></trkpt><trkpt lat="52.605743" lon="17.815684"></trkpt><trkpt lat="52.605474" lon="17.816035"></trkpt><trkpt lat="52.605111" lon="17.816679"></trkpt><trkpt lat="52.604717" lon="17.81724"></trkpt><trkpt lat="52.604182" lon="17.817417"></trkpt><trkpt lat="52.601089" lon="17.818919"></trkpt><trkpt lat="52.600736" lon="17.819345"></trkpt><trkpt lat="52.597443" lon="17.824124"></trkpt><trkpt lat="52.597448" lon="17.824467"></trkpt><trkpt lat="52.597217" lon="17.826719"></trkpt><trkpt lat="52.596837" lon="17.827461"></trkpt><trkpt lat="52.596243" lon="17.82806"></trkpt><trkpt lat="52.595178" lon="17.828813"></trkpt><trkpt lat="52.594726" lon="17.828935"></trkpt><trkpt lat="52.590773" lon="17.829534"></trkpt><trkpt lat="52.585801" lon="17.829363"></trkpt><trkpt lat="52.585564" lon="17.829526"></trkpt><trkpt lat="52.584099" lon="17.830312"></trkpt><trkpt lat="52.583711" lon="17.83001"></trkpt><trkpt lat="52.583154" lon="17.829473"></trkpt><trkpt lat="52.582824" lon="17.829259"></trkpt><trkpt lat="52.58274" lon="17.829964"></trkpt><trkpt lat="52.582849" lon="17.830757"></trkpt><trkpt lat="52.583085" lon="17.833437"></trkpt><trkpt lat="52.582925" lon="17.834579"></trkpt><trkpt lat="52.582827" lon="17.835812"></trkpt><trkpt lat="52.582752" lon="17.836143"></trkpt><trkpt lat="52.582609" lon="17.836394"></trkpt><trkpt lat="52.582506" lon="17.836707"></trkpt><trkpt lat="52.582769" lon="17.836061"></trkpt><trkpt lat="52.582839" lon="17.835661"></trkpt><trkpt lat="52.582868" lon="17.835175"></trkpt><trkpt lat="52.582946" lon="17.834555"></trkpt><trkpt lat="52.583092" lon="17.832762"></trkpt><trkpt lat="52.583073" lon="17.83232"></trkpt><trkpt lat="52.583013" lon="17.831786"></trkpt><trkpt lat="52.58295" lon="17.831465"></trkpt><trkpt lat="52.582901" lon="17.831096"></trkpt><trkpt lat="52.581705" lon="17.824884"></trkpt><trkpt lat="52.581545" lon="17.824651"></trkpt><trkpt lat="52.581284" lon="17.82433"></trkpt><trkpt lat="52.578373" lon="17.819739"></trkpt><trkpt lat="52.578291" lon="17.819219"></trkpt><trkpt lat="52.577999" lon="17.817886"></trkpt><trkpt lat="52.5779" lon="17.81724"></trkpt><trkpt lat="52.577774" lon="17.816621"></trkpt><trkpt lat="52.577372" lon="17.815232"></trkpt><trkpt lat="52.576874" lon="17.814997"></trkpt><trkpt lat="52.576507" lon="17.814988"></trkpt><trkpt lat="52.575955" lon="17.815447"></trkpt><trkpt lat="52.575766" lon="17.815647"></trkpt><trkpt lat="52.574161" lon="17.817692"></trkpt><trkpt lat="52.573542" lon="17.818347"></trkpt><trkpt lat="52.573024" lon="17.818768"></trkpt><trkpt lat="52.56611" lon="17.825436"></trkpt><trkpt lat="52.566666" lon="17.825603"></trkpt><trkpt lat="52.566755" lon="17.826088"></trkpt><trkpt lat="52.566659" lon="17.825698"></trkpt><trkpt lat="52.566176" lon="17.825547"></trkpt><trkpt lat="52.566433" lon="17.824962"></trkpt><trkpt lat="52.566774" lon="17.824493"></trkpt><trkpt lat="52.566904" lon="17.824231"></trkpt><trkpt lat="52.567262" lon="17.823697"></trkpt><trkpt lat="52.567511" lon="17.823415"></trkpt><trkpt lat="52.569625" lon="17.821462"></trkpt><trkpt lat="52.57026" lon="17.821036"></trkpt><trkpt lat="52.570677" lon="17.820673"></trkpt><trkpt lat="52.570421" lon="17.819863"></trkpt><trkpt lat="52.570049" lon="17.818287"></trkpt></trkseg></trk></gpx>