<?xml version="1.0" encoding="UTF-8" standalone="no" ?><gpx xmlns="http://www.topografix.com/GPX/1/1" xmlns:gpxx="http://www.garmin.com/xmlschemas/GpxExtensions/v3" ><trk><trkseg><trkpt lat="52.3097355478" lon="16.4003172331"></trkpt><trkpt lat="52.3099072929" lon="16.4009061456"></trkpt><trkpt lat="52.3098109849" lon="16.4021060988"></trkpt><trkpt lat="52.3098741006" lon="16.402578922"></trkpt><trkpt lat="52.3098627012" lon="16.403107401"></trkpt><trkpt lat="52.3098982405" lon="16.4036215469"></trkpt><trkpt lat="52.3100289982" lon="16.4040325116"></trkpt><trkpt lat="52.3101991508" lon="16.4044686221"></trkpt><trkpt lat="52.3102618475" lon="16.4049082529"></trkpt><trkpt lat="52.3103559762" lon="16.4053354785"></trkpt><trkpt lat="52.3105536215" lon="16.4059302583"></trkpt><trkpt lat="52.3109240178" lon="16.4057186153"></trkpt><trkpt lat="52.3111139517" lon="16.4053789806"></trkpt><trkpt lat="52.3114569392" lon="16.4054086525"></trkpt><trkpt lat="52.3115493916" lon="16.4048769884"></trkpt><trkpt lat="52.3118079733" lon="16.4045806881"></trkpt><trkpt lat="52.3121005856" lon="16.4043855574"></trkpt><trkpt lat="52.3124030884" lon="16.4042387903"></trkpt><trkpt lat="52.3126679566" lon="16.4040056057"></trkpt><trkpt lat="52.3130613193" lon="16.4038506243"></trkpt><trkpt lat="52.3134290334" lon="16.4038355369"></trkpt><trkpt lat="52.3204343766" lon="16.4025118668"></trkpt><trkpt lat="52.3207084648" lon="16.4023801871"></trkpt><trkpt lat="52.3257007264" lon="16.4007479791"></trkpt><trkpt lat="52.3258838709" lon="16.4011201356"></trkpt><trkpt lat="52.3259434663" lon="16.401590528"></trkpt><trkpt lat="52.3259823583" lon="16.4044786803"></trkpt><trkpt lat="52.3257014807" lon="16.4047981147"></trkpt><trkpt lat="52.3256877344" lon="16.4052607119"></trkpt><trkpt lat="52.3257355951" lon="16.4057083055"></trkpt><trkpt lat="52.3257070966" lon="16.4062352758"></trkpt><trkpt lat="52.3252699804" lon="16.4100324456"></trkpt><trkpt lat="52.3251507897" lon="16.4104396384"></trkpt><trkpt lat="52.3251004145" lon="16.4108849689"></trkpt><trkpt lat="52.3251108918" lon="16.4116831776"></trkpt><trkpt lat="52.3253745027" lon="16.4119477104"></trkpt><trkpt lat="52.3256446514" lon="16.4120253269"></trkpt><trkpt lat="52.3266108334" lon="16.4124618564"></trkpt><trkpt lat="52.3269486241" lon="16.4126847312"></trkpt><trkpt lat="52.3272312619" lon="16.4128026646"></trkpt><trkpt lat="52.3276374489" lon="16.4127227012"></trkpt><trkpt lat="52.3281427938" lon="16.412539389"></trkpt><trkpt lat="52.3369759787" lon="16.4086227771"></trkpt><trkpt lat="52.3406318296" lon="16.4076503925"></trkpt><trkpt lat="52.3406131379" lon="16.4082196075"></trkpt><trkpt lat="52.340414403" lon="16.4231372159"></trkpt><trkpt lat="52.3405465018" lon="16.423626719"></trkpt><trkpt lat="52.3444410693" lon="16.4369898196"></trkpt><trkpt lat="52.3445965536" lon="16.437354181"></trkpt><trkpt lat="52.3489675485" lon="16.4497913327"></trkpt><trkpt lat="52.3489170894" lon="16.4503482264"></trkpt><trkpt lat="52.348818602" lon="16.4508924633"></trkpt><trkpt lat="52.3486961424" lon="16.4513579104"></trkpt><trkpt lat="52.3479906376" lon="16.4534652885"></trkpt><trkpt lat="52.3477644939" lon="16.453823112"></trkpt><trkpt lat="52.3465088848" lon="16.455406202"></trkpt><trkpt lat="52.3462297674" lon="16.4554393943"></trkpt><trkpt lat="52.3371789884" lon="16.4569245838"></trkpt><trkpt lat="52.3349859472" lon="16.4576165099"></trkpt><trkpt lat="52.3347532656" lon="16.4581239503"></trkpt><trkpt lat="52.3344850447" lon="16.4585438836"></trkpt><trkpt lat="52.3342312407" lon="16.458733147"></trkpt><trkpt lat="52.3338923603" lon="16.4588810038"></trkpt><trkpt lat="52.3326209094" lon="16.4596771169"></trkpt><trkpt lat="52.3323961068" lon="16.4601892512"></trkpt><trkpt lat="52.3322472442" lon="16.460647909"></trkpt><trkpt lat="52.3321916722" lon="16.4611117635"></trkpt><trkpt lat="52.332169963" lon="16.4615670685"></trkpt><trkpt lat="52.3322547879" lon="16.462224042"></trkpt><trkpt lat="52.3323463183" lon="16.4637848362"></trkpt><trkpt lat="52.3322818615" lon="16.4643921051"></trkpt><trkpt lat="52.33216024" lon="16.4651353285"></trkpt><trkpt lat="52.3315643705" lon="16.4678014442"></trkpt><trkpt lat="52.3312744405" lon="16.467760792"></trkpt><trkpt lat="52.3309824988" lon="16.4675283618"></trkpt><trkpt lat="52.3290603608" lon="16.4663461782"></trkpt><trkpt lat="52.3286729492" lon="16.4663969725"></trkpt><trkpt lat="52.3271088861" lon="16.4670024812"></trkpt><trkpt lat="52.3272257298" lon="16.4673997834"></trkpt></trkseg></trk></gpx>