<?xml version="1.0" encoding="UTF-8" standalone="no" ?><gpx xmlns="http://www.topografix.com/GPX/1/1" xmlns:gpxx="http://www.garmin.com/xmlschemas/GpxExtensions/v3" ><trk><trkseg><trkpt lat="53.607296" lon="19.599771"></trkpt><trkpt lat="53.606868" lon="19.599889"></trkpt><trkpt lat="53.606776" lon="19.59942"></trkpt><trkpt lat="53.606534" lon="19.597735"></trkpt><trkpt lat="53.606989" lon="19.597738"></trkpt><trkpt lat="53.607398" lon="19.597655"></trkpt><trkpt lat="53.60788" lon="19.59769"></trkpt><trkpt lat="53.608325" lon="19.597579"></trkpt><trkpt lat="53.608852" lon="19.597382"></trkpt><trkpt lat="53.609563" lon="19.597206"></trkpt><trkpt lat="53.610115" lon="19.597594"></trkpt><trkpt lat="53.612069" lon="19.598146"></trkpt><trkpt lat="53.622713" lon="19.593755"></trkpt><trkpt lat="53.622877" lon="19.593507"></trkpt><trkpt lat="53.622975" lon="19.593161"></trkpt><trkpt lat="53.622956" lon="19.592766"></trkpt><trkpt lat="53.622979" lon="19.591852"></trkpt><trkpt lat="53.62311" lon="19.59155"></trkpt><trkpt lat="53.623627" lon="19.589789"></trkpt><trkpt lat="53.623963" lon="19.586061"></trkpt><trkpt lat="53.623444" lon="19.585342"></trkpt><trkpt lat="53.613621" lon="19.573952"></trkpt><trkpt lat="53.61282" lon="19.573428"></trkpt><trkpt lat="53.611591" lon="19.572049"></trkpt><trkpt lat="53.611419" lon="19.571716"></trkpt><trkpt lat="53.611305" lon="19.571368"></trkpt><trkpt lat="53.610961" lon="19.570745"></trkpt><trkpt lat="53.610944" lon="19.570408"></trkpt><trkpt lat="53.611564" lon="19.570029"></trkpt><trkpt lat="53.612337" lon="19.569434"></trkpt><trkpt lat="53.612276" lon="19.569115"></trkpt><trkpt lat="53.611382" lon="19.565432"></trkpt><trkpt lat="53.610705" lon="19.565194"></trkpt><trkpt lat="53.609185" lon="19.564435"></trkpt><trkpt lat="53.608996" lon="19.564305"></trkpt><trkpt lat="53.608554" lon="19.56407"></trkpt><trkpt lat="53.608341" lon="19.564073"></trkpt><trkpt lat="53.608378" lon="19.563389"></trkpt><trkpt lat="53.608294" lon="19.562987"></trkpt><trkpt lat="53.608183" lon="19.562681"></trkpt><trkpt lat="53.607888" lon="19.562177"></trkpt><trkpt lat="53.60763" lon="19.561981"></trkpt><trkpt lat="53.607348" lon="19.561839"></trkpt><trkpt lat="53.60694" lon="19.561795"></trkpt><trkpt lat="53.606372" lon="19.561632"></trkpt><trkpt lat="53.606093" lon="19.56123"></trkpt><trkpt lat="53.605678" lon="19.560539"></trkpt><trkpt lat="53.605457" lon="19.560236"></trkpt><trkpt lat="53.60524" lon="19.560178"></trkpt><trkpt lat="53.604637" lon="19.559394"></trkpt><trkpt lat="53.603464" lon="19.558445"></trkpt><trkpt lat="53.603165" lon="19.558302"></trkpt><trkpt lat="53.602853" lon="19.558378"></trkpt><trkpt lat="53.601633" lon="19.559045"></trkpt><trkpt lat="53.600903" lon="19.559274"></trkpt><trkpt lat="53.600673" lon="19.559451"></trkpt><trkpt lat="53.600557" lon="19.55977"></trkpt><trkpt lat="53.600471" lon="19.560777"></trkpt><trkpt lat="53.600551" lon="19.561144"></trkpt><trkpt lat="53.600622" lon="19.561619"></trkpt><trkpt lat="53.600624" lon="19.561962"></trkpt><trkpt lat="53.600388" lon="19.561886"></trkpt><trkpt lat="53.599162" lon="19.561261"></trkpt><trkpt lat="53.599068" lon="19.560935"></trkpt><trkpt lat="53.599157" lon="19.559927"></trkpt><trkpt lat="53.599179" lon="19.558919"></trkpt><trkpt lat="53.599122" lon="19.558536"></trkpt><trkpt lat="53.598809" lon="19.557932"></trkpt><trkpt lat="53.598608" lon="19.557774"></trkpt><trkpt lat="53.598084" lon="19.557445"></trkpt><trkpt lat="53.597842" lon="19.557252"></trkpt><trkpt lat="53.597568" lon="19.556274"></trkpt><trkpt lat="53.597456" lon="19.555631"></trkpt><trkpt lat="53.597079" lon="19.554277"></trkpt><trkpt lat="53.596491" lon="19.554128"></trkpt><trkpt lat="53.596276" lon="19.553994"></trkpt><trkpt lat="53.595891" lon="19.553464"></trkpt><trkpt lat="53.595828" lon="19.553109"></trkpt><trkpt lat="53.595682" lon="19.552499"></trkpt><trkpt lat="53.595451" lon="19.551761"></trkpt><trkpt lat="53.595393" lon="19.551217"></trkpt><trkpt lat="53.595241" lon="19.550315"></trkpt><trkpt lat="53.595018" lon="19.549288"></trkpt><trkpt lat="53.594959" lon="19.548795"></trkpt><trkpt lat="53.594923" lon="19.548148"></trkpt><trkpt lat="53.594447" lon="19.544192"></trkpt><trkpt lat="53.593974" lon="19.543452"></trkpt><trkpt lat="53.593241" lon="19.542681"></trkpt><trkpt lat="53.591057" lon="19.539889"></trkpt><trkpt lat="53.590738" lon="19.539323"></trkpt><trkpt lat="53.590501" lon="19.538837"></trkpt><trkpt lat="53.57778" lon="19.516333"></trkpt><trkpt lat="53.577348" lon="19.515915"></trkpt><trkpt lat="53.57633" lon="19.515622"></trkpt><trkpt lat="53.569099" lon="19.512207"></trkpt><trkpt lat="53.56853" lon="19.511045"></trkpt><trkpt lat="53.562671" lon="19.500697"></trkpt><trkpt lat="53.561995" lon="19.500756"></trkpt><trkpt lat="53.561264" lon="19.50093"></trkpt><trkpt lat="53.559216" lon="19.501172"></trkpt><trkpt lat="53.558374" lon="19.500907"></trkpt><trkpt lat="53.557639" lon="19.500801"></trkpt><trkpt lat="53.552501" lon="19.502158"></trkpt><trkpt lat="53.54464" lon="19.503085"></trkpt><trkpt lat="53.543668" lon="19.50249"></trkpt><trkpt lat="53.543013" lon="19.50198"></trkpt><trkpt lat="53.542879" lon="19.501712"></trkpt><trkpt lat="53.542154" lon="19.500032"></trkpt><trkpt lat="53.539203" lon="19.492019"></trkpt><trkpt lat="53.538943" lon="19.491105"></trkpt><trkpt lat="53.538526" lon="19.48932"></trkpt><trkpt lat="53.538476" lon="19.488996"></trkpt><trkpt lat="53.538281" lon="19.488174"></trkpt><trkpt lat="53.537669" lon="19.484958"></trkpt><trkpt lat="53.53723" lon="19.483677"></trkpt><trkpt lat="53.536769" lon="19.482931"></trkpt><trkpt lat="53.536437" lon="19.482258"></trkpt><trkpt lat="53.533517" lon="19.475277"></trkpt><trkpt lat="53.533266" lon="19.474374"></trkpt><trkpt lat="53.533243" lon="19.474023"></trkpt><trkpt lat="53.533498" lon="19.473638"></trkpt><trkpt lat="53.533762" lon="19.473124"></trkpt><trkpt lat="53.533979" lon="19.472557"></trkpt><trkpt lat="53.534152" lon="19.471938"></trkpt><trkpt lat="53.536071" lon="19.46053"></trkpt><trkpt lat="53.535127" lon="19.46035"></trkpt><trkpt lat="53.53344" lon="19.459775"></trkpt><trkpt lat="53.533374" lon="19.459429"></trkpt><trkpt lat="53.533335" lon="19.458953"></trkpt><trkpt lat="53.533243" lon="19.458641"></trkpt><trkpt lat="53.532784" lon="19.4579"></trkpt><trkpt lat="53.529718" lon="19.453619"></trkpt><trkpt lat="53.529109" lon="19.452923"></trkpt><trkpt lat="53.508056" lon="19.424907"></trkpt><trkpt lat="53.507749" lon="19.423739"></trkpt><trkpt lat="53.506999" lon="19.421436"></trkpt><trkpt lat="53.506845" lon="19.419792"></trkpt><trkpt lat="53.506902" lon="19.418501"></trkpt><trkpt lat="53.506959" lon="19.418059"></trkpt><trkpt lat="53.507187" lon="19.415251"></trkpt><trkpt lat="53.507222" lon="19.413726"></trkpt><trkpt lat="53.507074" lon="19.412541"></trkpt><trkpt lat="53.504562" lon="19.398133"></trkpt><trkpt lat="53.504075" lon="19.396967"></trkpt><trkpt lat="53.503632" lon="19.395678"></trkpt><trkpt lat="53.503559" lon="19.395338"></trkpt><trkpt lat="53.503606" lon="19.394836"></trkpt><trkpt lat="53.503777" lon="19.394214"></trkpt><trkpt lat="53.503898" lon="19.393489"></trkpt><trkpt lat="53.503783" lon="19.394203"></trkpt><trkpt lat="53.503638" lon="19.394691"></trkpt><trkpt lat="53.5031" lon="19.394364"></trkpt><trkpt lat="53.502613" lon="19.393961"></trkpt><trkpt lat="53.500738" lon="19.392729"></trkpt><trkpt lat="53.499686" lon="19.391813"></trkpt><trkpt lat="53.499048" lon="19.39148"></trkpt><trkpt lat="53.498308" lon="19.391284"></trkpt><trkpt lat="53.498109" lon="19.391112"></trkpt><trkpt lat="53.497586" lon="19.390504"></trkpt><trkpt lat="53.496823" lon="19.389884"></trkpt><trkpt lat="53.495942" lon="19.389422"></trkpt><trkpt lat="53.495532" lon="19.389335"></trkpt><trkpt lat="53.49366" lon="19.39001"></trkpt><trkpt lat="53.49332" lon="19.3907"></trkpt><trkpt lat="53.492985" lon="19.391048"></trkpt><trkpt lat="53.491821" lon="19.390096"></trkpt><trkpt lat="53.491002" lon="19.389559"></trkpt><trkpt lat="53.490263" lon="19.388865"></trkpt><trkpt lat="53.487378" lon="19.385416"></trkpt><trkpt lat="53.485743" lon="19.382952"></trkpt><trkpt lat="53.485131" lon="19.381828"></trkpt><trkpt lat="53.478354" lon="19.371257"></trkpt><trkpt lat="53.478037" lon="19.371211"></trkpt><trkpt lat="53.477823" lon="19.370891"></trkpt><trkpt lat="53.477709" lon="19.371174"></trkpt><trkpt lat="53.477336" lon="19.371095"></trkpt><trkpt lat="53.476934" lon="19.371094"></trkpt><trkpt lat="53.476331" lon="19.371301"></trkpt><trkpt lat="53.475785" lon="19.371615"></trkpt><trkpt lat="53.475401" lon="19.371932"></trkpt><trkpt lat="53.47507" lon="19.372368"></trkpt><trkpt lat="53.474592" lon="19.372777"></trkpt><trkpt lat="53.474065" lon="19.37352"></trkpt><trkpt lat="53.473752" lon="19.374121"></trkpt><trkpt lat="53.473466" lon="19.374489"></trkpt><trkpt lat="53.473073" lon="19.37481"></trkpt><trkpt lat="53.47283" lon="19.374931"></trkpt><trkpt lat="53.47255" lon="19.375403"></trkpt><trkpt lat="53.47116" lon="19.378224"></trkpt><trkpt lat="53.471055" lon="19.378763"></trkpt><trkpt lat="53.470933" lon="19.379076"></trkpt><trkpt lat="53.470758" lon="19.37928"></trkpt><trkpt lat="53.470544" lon="19.379355"></trkpt><trkpt lat="53.470098" lon="19.379592"></trkpt><trkpt lat="53.469399" lon="19.380362"></trkpt><trkpt lat="53.468606" lon="19.380839"></trkpt><trkpt lat="53.465332" lon="19.383649"></trkpt><trkpt lat="53.465364" lon="19.383984"></trkpt><trkpt lat="53.465286" lon="19.383592"></trkpt><trkpt lat="53.465132" lon="19.383308"></trkpt><trkpt lat="53.464868" lon="19.383044"></trkpt><trkpt lat="53.464517" lon="19.383007"></trkpt><trkpt lat="53.464102" lon="19.382905"></trkpt><trkpt lat="53.463707" lon="19.382729"></trkpt><trkpt lat="53.463424" lon="19.382483"></trkpt><trkpt lat="53.463261" lon="19.382238"></trkpt><trkpt lat="53.460895" lon="19.379179"></trkpt><trkpt lat="53.460434" lon="19.378722"></trkpt><trkpt lat="53.456786" lon="19.375733"></trkpt><trkpt lat="53.456619" lon="19.375547"></trkpt><trkpt lat="53.456149" lon="19.374414"></trkpt><trkpt lat="53.454213" lon="19.371126"></trkpt><trkpt lat="53.453669" lon="19.370772"></trkpt><trkpt lat="53.453191" lon="19.370357"></trkpt><trkpt lat="53.452648" lon="19.369985"></trkpt><trkpt lat="53.451628" lon="19.369561"></trkpt><trkpt lat="53.448853" lon="19.367951"></trkpt><trkpt lat="53.448387" lon="19.367272"></trkpt><trkpt lat="53.448139" lon="19.36642"></trkpt><trkpt lat="53.448063" lon="19.366083"></trkpt><trkpt lat="53.448005" lon="19.365704"></trkpt><trkpt lat="53.44742" lon="19.363368"></trkpt><trkpt lat="53.44707" lon="19.363131"></trkpt><trkpt lat="53.446538" lon="19.362998"></trkpt><trkpt lat="53.44627" lon="19.362858"></trkpt><trkpt lat="53.446195" lon="19.362345"></trkpt><trkpt lat="53.4443" lon="19.353541"></trkpt><trkpt lat="53.443902" lon="19.352671"></trkpt><trkpt lat="53.443382" lon="19.351851"></trkpt><trkpt lat="53.443121" lon="19.351498"></trkpt><trkpt lat="53.442827" lon="19.350937"></trkpt><trkpt lat="53.442552" lon="19.349729"></trkpt><trkpt lat="53.442124" lon="19.348194"></trkpt><trkpt lat="53.441594" lon="19.347182"></trkpt><trkpt lat="53.441345" lon="19.346341"></trkpt><trkpt lat="53.441107" lon="19.346076"></trkpt><trkpt lat="53.440572" lon="19.345756"></trkpt><trkpt lat="53.427764" lon="19.339867"></trkpt><trkpt lat="53.427559" lon="19.34006"></trkpt><trkpt lat="53.427055" lon="19.340651"></trkpt><trkpt lat="53.425956" lon="19.341207"></trkpt><trkpt lat="53.420293" lon="19.343178"></trkpt><trkpt lat="53.420148" lon="19.342156"></trkpt><trkpt lat="53.419906" lon="19.341012"></trkpt><trkpt lat="53.419723" lon="19.340772"></trkpt><trkpt lat="53.419047" lon="19.34021"></trkpt><trkpt lat="53.415741" lon="19.338319"></trkpt><trkpt lat="53.414884" lon="19.338524"></trkpt><trkpt lat="53.41425" lon="19.338787"></trkpt><trkpt lat="53.413417" lon="19.339387"></trkpt><trkpt lat="53.410533" lon="19.342027"></trkpt><trkpt lat="53.409208" lon="19.342987"></trkpt><trkpt lat="53.408732" lon="19.343195"></trkpt><trkpt lat="53.404598" lon="19.345619"></trkpt><trkpt lat="53.404025" lon="19.346356"></trkpt><trkpt lat="53.403678" lon="19.346975"></trkpt><trkpt lat="53.402616" lon="19.349215"></trkpt><trkpt lat="53.402247" lon="19.350475"></trkpt><trkpt lat="53.401948" lon="19.351834"></trkpt><trkpt lat="53.401711" lon="19.352694"></trkpt><trkpt lat="53.401218" lon="19.354179"></trkpt><trkpt lat="53.400669" lon="19.35496"></trkpt><trkpt lat="53.400098" lon="19.355916"></trkpt><trkpt lat="53.399779" lon="19.357188"></trkpt><trkpt lat="53.399436" lon="19.357742"></trkpt><trkpt lat="53.398835" lon="19.358196"></trkpt><trkpt lat="53.394552" lon="19.362094"></trkpt><trkpt lat="53.394044" lon="19.362795"></trkpt><trkpt lat="53.39236" lon="19.365589"></trkpt><trkpt lat="53.3918" lon="19.366887"></trkpt><trkpt lat="53.391067" lon="19.36916"></trkpt><trkpt lat="53.390837" lon="19.370138"></trkpt><trkpt lat="53.390183" lon="19.371933"></trkpt><trkpt lat="53.389777" lon="19.372757"></trkpt><trkpt lat="53.389241" lon="19.373626"></trkpt><trkpt lat="53.388488" lon="19.374657"></trkpt><trkpt lat="53.38547" lon="19.378166"></trkpt><trkpt lat="53.385218" lon="19.378183"></trkpt><trkpt lat="53.384818" lon="19.377968"></trkpt><trkpt lat="53.383791" lon="19.377553"></trkpt><trkpt lat="53.383303" lon="19.377642"></trkpt><trkpt lat="53.382357" lon="19.377299"></trkpt><trkpt lat="53.381522" lon="19.376773"></trkpt><trkpt lat="53.380866" lon="19.376556"></trkpt><trkpt lat="53.38032" lon="19.376222"></trkpt><trkpt lat="53.379715" lon="19.375766"></trkpt><trkpt lat="53.379384" lon="19.375298"></trkpt><trkpt lat="53.37922" lon="19.374964"></trkpt><trkpt lat="53.378827" lon="19.374408"></trkpt><trkpt lat="53.378164" lon="19.373725"></trkpt><trkpt lat="53.377839" lon="19.37371"></trkpt><trkpt lat="53.377464" lon="19.373633"></trkpt><trkpt lat="53.375289" lon="19.373444"></trkpt><trkpt lat="53.372821" lon="19.373951"></trkpt><trkpt lat="53.372118" lon="19.374402"></trkpt><trkpt lat="53.371262" lon="19.374715"></trkpt><trkpt lat="53.370564" lon="19.37514"></trkpt><trkpt lat="53.36953" lon="19.375383"></trkpt><trkpt lat="53.363904" lon="19.377489"></trkpt><trkpt lat="53.36318" lon="19.378241"></trkpt><trkpt lat="53.362812" lon="19.378496"></trkpt><trkpt lat="53.36228" lon="19.378956"></trkpt><trkpt lat="53.362126" lon="19.379307"></trkpt><trkpt lat="53.361808" lon="19.380304"></trkpt><trkpt lat="53.361567" lon="19.380855"></trkpt><trkpt lat="53.361341" lon="19.380991"></trkpt><trkpt lat="53.361099" lon="19.381099"></trkpt><trkpt lat="53.360726" lon="19.381395"></trkpt><trkpt lat="53.360503" lon="19.381719"></trkpt><trkpt lat="53.360215" lon="19.382216"></trkpt><trkpt lat="53.358671" lon="19.384511"></trkpt><trkpt lat="53.358146" lon="19.385066"></trkpt><trkpt lat="53.3576" lon="19.385877"></trkpt><trkpt lat="53.357103" lon="19.386906"></trkpt><trkpt lat="53.356696" lon="19.387624"></trkpt><trkpt lat="53.356526" lon="19.387797"></trkpt><trkpt lat="53.356337" lon="19.387932"></trkpt><trkpt lat="53.35614" lon="19.388002"></trkpt><trkpt lat="53.355939" lon="19.388028"></trkpt><trkpt lat="53.354932" lon="19.388359"></trkpt><trkpt lat="53.354669" lon="19.388519"></trkpt><trkpt lat="53.354109" lon="19.388003"></trkpt><trkpt lat="53.353943" lon="19.387709"></trkpt><trkpt lat="53.353822" lon="19.387371"></trkpt><trkpt lat="53.353774" lon="19.386992"></trkpt><trkpt lat="53.35385" lon="19.385973"></trkpt><trkpt lat="53.353794" lon="19.385643"></trkpt><trkpt lat="53.353675" lon="19.385363"></trkpt><trkpt lat="53.353428" lon="19.384927"></trkpt><trkpt lat="53.347139" lon="19.375651"></trkpt><trkpt lat="53.346812" lon="19.375449"></trkpt><trkpt lat="53.345285" lon="19.374891"></trkpt><trkpt lat="53.344247" lon="19.374706"></trkpt><trkpt lat="53.343388" lon="19.374686"></trkpt><trkpt lat="53.343169" lon="19.374766"></trkpt><trkpt lat="53.342282" lon="19.375251"></trkpt><trkpt lat="53.34232" lon="19.376166"></trkpt><trkpt lat="53.342289" lon="19.375545"></trkpt><trkpt lat="53.342238" lon="19.37503"></trkpt><trkpt lat="53.342006" lon="19.375101"></trkpt><trkpt lat="53.33994" lon="19.376037"></trkpt><trkpt lat="53.338656" lon="19.37644"></trkpt><trkpt lat="53.334517" lon="19.37569"></trkpt><trkpt lat="53.334068" lon="19.375509"></trkpt><trkpt lat="53.331086" lon="19.37488"></trkpt><trkpt lat="53.329979" lon="19.374963"></trkpt><trkpt lat="53.329696" lon="19.374286"></trkpt><trkpt lat="53.329415" lon="19.373721"></trkpt><trkpt lat="53.32845" lon="19.372073"></trkpt><trkpt lat="53.327888" lon="19.370686"></trkpt><trkpt lat="53.327733" lon="19.370144"></trkpt><trkpt lat="53.327298" lon="19.368986"></trkpt><trkpt lat="53.326945" lon="19.368252"></trkpt><trkpt lat="53.326627" lon="19.367391"></trkpt><trkpt lat="53.326503" lon="19.366441"></trkpt><trkpt lat="53.325437" lon="19.360515"></trkpt><trkpt lat="53.325161" lon="19.359901"></trkpt><trkpt lat="53.324669" lon="19.358997"></trkpt><trkpt lat="53.324361" lon="19.358313"></trkpt><trkpt lat="53.324106" lon="19.358241"></trkpt><trkpt lat="53.324036" lon="19.357922"></trkpt><trkpt lat="53.324052" lon="19.357305"></trkpt><trkpt lat="53.324016" lon="19.356777"></trkpt><trkpt lat="53.323945" lon="19.356293"></trkpt><trkpt lat="53.323859" lon="19.355849"></trkpt><trkpt lat="53.323823" lon="19.35537"></trkpt><trkpt lat="53.323653" lon="19.354254"></trkpt><trkpt lat="53.323513" lon="19.353978"></trkpt><trkpt lat="53.323115" lon="19.353592"></trkpt><trkpt lat="53.322676" lon="19.353301"></trkpt><trkpt lat="53.322267" lon="19.352717"></trkpt><trkpt lat="53.322001" lon="19.352055"></trkpt><trkpt lat="53.321826" lon="19.35151"></trkpt><trkpt lat="53.321332" lon="19.350338"></trkpt><trkpt lat="53.321174" lon="19.350112"></trkpt><trkpt lat="53.321018" lon="19.349794"></trkpt><trkpt lat="53.320932" lon="19.349084"></trkpt><trkpt lat="53.32094" lon="19.348458"></trkpt><trkpt lat="53.321116" lon="19.345666"></trkpt><trkpt lat="53.321231" lon="19.34496"></trkpt><trkpt lat="53.321383" lon="19.344245"></trkpt><trkpt lat="53.32122" lon="19.343469"></trkpt><trkpt lat="53.321196" lon="19.343124"></trkpt><trkpt lat="53.321204" lon="19.342553"></trkpt><trkpt lat="53.321165" lon="19.342078"></trkpt><trkpt lat="53.321054" lon="19.341644"></trkpt><trkpt lat="53.320831" lon="19.341183"></trkpt><trkpt lat="53.320535" lon="19.340694"></trkpt><trkpt lat="53.320322" lon="19.340433"></trkpt><trkpt lat="53.320125" lon="19.340112"></trkpt><trkpt lat="53.319896" lon="19.339791"></trkpt><trkpt lat="53.317436" lon="19.33562"></trkpt><trkpt lat="53.317297" lon="19.335305"></trkpt><trkpt lat="53.315798" lon="19.330683"></trkpt><trkpt lat="53.315831" lon="19.329484"></trkpt><trkpt lat="53.315753" lon="19.328691"></trkpt><trkpt lat="53.315536" lon="19.328154"></trkpt><trkpt lat="53.315281" lon="19.327661"></trkpt><trkpt lat="53.314782" lon="19.326836"></trkpt><trkpt lat="53.31462" lon="19.326613"></trkpt><trkpt lat="53.31279" lon="19.324436"></trkpt><trkpt lat="53.312301" lon="19.323705"></trkpt><trkpt lat="53.312477" lon="19.323476"></trkpt><trkpt lat="53.312834" lon="19.323209"></trkpt><trkpt lat="53.315031" lon="19.320902"></trkpt><trkpt lat="53.31564" lon="19.320007"></trkpt><trkpt lat="53.319118" lon="19.315695"></trkpt><trkpt lat="53.319675" lon="19.315562"></trkpt><trkpt lat="53.326091" lon="19.313242"></trkpt><trkpt lat="53.326037" lon="19.313743"></trkpt><trkpt lat="53.326268" lon="19.314617"></trkpt><trkpt lat="53.326652" lon="19.315633"></trkpt><trkpt lat="53.327327" lon="19.317136"></trkpt><trkpt lat="53.327517" lon="19.317261"></trkpt><trkpt lat="53.327914" lon="19.316841"></trkpt><trkpt lat="53.341029" lon="19.305046"></trkpt><trkpt lat="53.341685" lon="19.304579"></trkpt><trkpt lat="53.342047" lon="19.304266"></trkpt><trkpt lat="53.3425" lon="19.303344"></trkpt><trkpt lat="53.342889" lon="19.302383"></trkpt><trkpt lat="53.343273" lon="19.301208"></trkpt><trkpt lat="53.343179" lon="19.300801"></trkpt><trkpt lat="53.34317" lon="19.300452"></trkpt><trkpt lat="53.343075" lon="19.300089"></trkpt><trkpt lat="53.342707" lon="19.299983"></trkpt><trkpt lat="53.342517" lon="19.299803"></trkpt><trkpt lat="53.342424" lon="19.299448"></trkpt><trkpt lat="53.342261" lon="19.298429"></trkpt><trkpt lat="53.34148" lon="19.290966"></trkpt><trkpt lat="53.341464" lon="19.289943"></trkpt><trkpt lat="53.341319" lon="19.287947"></trkpt><trkpt lat="53.341061" lon="19.287647"></trkpt><trkpt lat="53.34063" lon="19.287274"></trkpt><trkpt lat="53.340271" lon="19.286893"></trkpt><trkpt lat="53.339842" lon="19.28613"></trkpt><trkpt lat="53.339711" lon="19.285809"></trkpt><trkpt lat="53.339627" lon="19.285071"></trkpt><trkpt lat="53.339764" lon="19.283938"></trkpt><trkpt lat="53.340325" lon="19.275703"></trkpt><trkpt lat="53.340218" lon="19.274684"></trkpt><trkpt lat="53.339638" lon="19.270991"></trkpt><trkpt lat="53.338994" lon="19.27015"></trkpt><trkpt lat="53.338083" lon="19.268769"></trkpt><trkpt lat="53.337836" lon="19.26756"></trkpt><trkpt lat="53.337699" lon="19.267237"></trkpt><trkpt lat="53.337324" lon="19.266585"></trkpt><trkpt lat="53.336784" lon="19.265879"></trkpt><trkpt lat="53.33492" lon="19.263044"></trkpt><trkpt lat="53.334645" lon="19.262235"></trkpt><trkpt lat="53.333879" lon="19.259519"></trkpt><trkpt lat="53.33392" lon="19.259184"></trkpt><trkpt lat="53.334507" lon="19.25822"></trkpt><trkpt lat="53.35033" lon="19.227131"></trkpt><trkpt lat="53.350335" lon="19.226776"></trkpt><trkpt lat="53.350371" lon="19.226401"></trkpt><trkpt lat="53.350282" lon="19.226069"></trkpt><trkpt lat="53.34995" lon="19.226879"></trkpt><trkpt lat="53.350151" lon="19.226524"></trkpt><trkpt lat="53.350309" lon="19.226188"></trkpt><trkpt lat="53.349999" lon="19.225555"></trkpt><trkpt lat="53.349714" lon="19.224596"></trkpt><trkpt lat="53.349537" lon="19.223499"></trkpt><trkpt lat="53.348619" lon="19.21918"></trkpt><trkpt lat="53.34847" lon="19.218655"></trkpt><trkpt lat="53.346456" lon="19.209443"></trkpt><trkpt lat="53.346511" lon="19.20884"></trkpt><trkpt lat="53.346407" lon="19.208439"></trkpt><trkpt lat="53.346161" lon="19.208288"></trkpt><trkpt lat="53.345926" lon="19.208201"></trkpt><trkpt lat="53.345589" lon="19.206921"></trkpt><trkpt lat="53.345143" lon="19.206026"></trkpt><trkpt lat="53.342501" lon="19.199745"></trkpt><trkpt lat="53.342306" lon="19.19912"></trkpt><trkpt lat="53.342088" lon="19.199091"></trkpt><trkpt lat="53.341817" lon="19.199306"></trkpt><trkpt lat="53.340906" lon="19.199685"></trkpt><trkpt lat="53.340203" lon="19.199524"></trkpt><trkpt lat="53.333616" lon="19.196971"></trkpt><trkpt lat="53.3332" lon="19.196237"></trkpt><trkpt lat="53.32745" lon="19.187497"></trkpt><trkpt lat="53.32676" lon="19.187439"></trkpt><trkpt lat="53.322213" lon="19.186174"></trkpt><trkpt lat="53.321288" lon="19.185595"></trkpt><trkpt lat="53.3199" lon="19.185022"></trkpt><trkpt lat="53.318891" lon="19.185302"></trkpt><trkpt lat="53.318379" lon="19.18493"></trkpt><trkpt lat="53.318236" lon="19.18466"></trkpt><trkpt lat="53.318309" lon="19.184343"></trkpt><trkpt lat="53.318557" lon="19.183527"></trkpt><trkpt lat="53.318755" lon="19.182702"></trkpt><trkpt lat="53.319152" lon="19.18051"></trkpt><trkpt lat="53.319272" lon="19.17954"></trkpt><trkpt lat="53.319611" lon="19.177784"></trkpt><trkpt lat="53.319786" lon="19.177232"></trkpt><trkpt lat="53.322193" lon="19.167639"></trkpt><trkpt lat="53.322328" lon="19.166556"></trkpt><trkpt lat="53.323172" lon="19.162143"></trkpt><trkpt lat="53.323503" lon="19.160759"></trkpt><trkpt lat="53.324249" lon="19.15619"></trkpt><trkpt lat="53.324261" lon="19.155848"></trkpt><trkpt lat="53.324403" lon="19.15443"></trkpt><trkpt lat="53.32456" lon="19.153528"></trkpt><trkpt lat="53.324736" lon="19.15286"></trkpt><trkpt lat="53.325416" lon="19.149642"></trkpt><trkpt lat="53.325385" lon="19.148541"></trkpt><trkpt lat="53.325445" lon="19.14447"></trkpt><trkpt lat="53.325544" lon="19.143664"></trkpt><trkpt lat="53.326509" lon="19.138132"></trkpt><trkpt lat="53.326835" lon="19.137192"></trkpt><trkpt lat="53.327117" lon="19.136014"></trkpt><trkpt lat="53.327227" lon="19.134878"></trkpt><trkpt lat="53.327239" lon="19.133779"></trkpt><trkpt lat="53.327295" lon="19.133414"></trkpt><trkpt lat="53.327429" lon="19.132764"></trkpt><trkpt lat="53.327556" lon="19.132268"></trkpt><trkpt lat="53.327835" lon="19.131512"></trkpt><trkpt lat="53.328734" lon="19.128586"></trkpt><trkpt lat="53.329202" lon="19.126281"></trkpt><trkpt lat="53.32927" lon="19.125527"></trkpt><trkpt lat="53.329595" lon="19.123199"></trkpt><trkpt lat="53.329695" lon="19.122783"></trkpt><trkpt lat="53.330063" lon="19.120351"></trkpt><trkpt lat="53.329998" lon="19.119325"></trkpt><trkpt lat="53.329933" lon="19.11892"></trkpt><trkpt lat="53.328931" lon="19.114201"></trkpt><trkpt lat="53.328697" lon="19.113543"></trkpt><trkpt lat="53.328462" lon="19.112754"></trkpt><trkpt lat="53.328273" lon="19.111959"></trkpt><trkpt lat="53.328044" lon="19.110678"></trkpt><trkpt lat="53.328044" lon="19.110277"></trkpt><trkpt lat="53.328089" lon="19.109616"></trkpt><trkpt lat="53.328377" lon="19.096481"></trkpt><trkpt lat="53.328273" lon="19.095822"></trkpt><trkpt lat="53.327736" lon="19.090584"></trkpt><trkpt lat="53.327806" lon="19.089752"></trkpt><trkpt lat="53.327917" lon="19.088944"></trkpt><trkpt lat="53.328169" lon="19.085914"></trkpt><trkpt lat="53.328148" lon="19.085457"></trkpt><trkpt lat="53.328061" lon="19.084878"></trkpt><trkpt lat="53.327954" lon="19.083812"></trkpt><trkpt lat="53.327825" lon="19.081419"></trkpt><trkpt lat="53.327876" lon="19.080097"></trkpt><trkpt lat="53.327699" lon="19.078625"></trkpt><trkpt lat="53.327327" lon="19.077835"></trkpt><trkpt lat="53.326809" lon="19.076352"></trkpt><trkpt lat="53.326846" lon="19.07597"></trkpt><trkpt lat="53.327005" lon="19.07557"></trkpt><trkpt lat="53.327368" lon="19.074829"></trkpt><trkpt lat="53.328242" lon="19.071801"></trkpt><trkpt lat="53.328255" lon="19.070859"></trkpt><trkpt lat="53.328184" lon="19.069472"></trkpt><trkpt lat="53.328365" lon="19.069674"></trkpt><trkpt lat="53.328618" lon="19.069568"></trkpt><trkpt lat="53.329158" lon="19.068599"></trkpt><trkpt lat="53.329706" lon="19.067816"></trkpt><trkpt lat="53.330107" lon="19.067803"></trkpt></trkseg></trk></gpx>