<?xml version="1.0" encoding="UTF-8" standalone="no" ?><gpx xmlns="http://www.topografix.com/GPX/1/1" xmlns:gpxx="http://www.garmin.com/xmlschemas/GpxExtensions/v3" ><trk><trkseg><trkpt lat="52.370185" lon="16.900304"></trkpt><trkpt lat="52.370336" lon="16.899847"></trkpt><trkpt lat="52.370642" lon="16.899093"></trkpt><trkpt lat="52.371529" lon="16.896367"></trkpt><trkpt lat="52.371338" lon="16.896263"></trkpt><trkpt lat="52.371095" lon="16.896198"></trkpt><trkpt lat="52.368126" lon="16.894894"></trkpt><trkpt lat="52.367733" lon="16.895124"></trkpt><trkpt lat="52.367258" lon="16.89568"></trkpt><trkpt lat="52.366903" lon="16.896166"></trkpt><trkpt lat="52.358949" lon="16.886317"></trkpt><trkpt lat="52.358685" lon="16.885617"></trkpt><trkpt lat="52.358066" lon="16.88362"></trkpt><trkpt lat="52.35792" lon="16.882932"></trkpt><trkpt lat="52.358258" lon="16.882334"></trkpt><trkpt lat="52.358375" lon="16.881973"></trkpt><trkpt lat="52.358185" lon="16.881842"></trkpt><trkpt lat="52.358114" lon="16.881537"></trkpt><trkpt lat="52.358395" lon="16.881183"></trkpt><trkpt lat="52.358283" lon="16.880764"></trkpt><trkpt lat="52.358151" lon="16.880515"></trkpt><trkpt lat="52.35802" lon="16.879948"></trkpt><trkpt lat="52.358284" lon="16.879662"></trkpt><trkpt lat="52.358632" lon="16.879072"></trkpt><trkpt lat="52.358561" lon="16.878752"></trkpt><trkpt lat="52.358396" lon="16.878433"></trkpt><trkpt lat="52.358371" lon="16.878025"></trkpt><trkpt lat="52.358159" lon="16.877847"></trkpt><trkpt lat="52.357679" lon="16.877653"></trkpt><trkpt lat="52.357243" lon="16.877287"></trkpt><trkpt lat="52.357067" lon="16.876918"></trkpt><trkpt lat="52.357034" lon="16.876546"></trkpt><trkpt lat="52.357025" lon="16.876041"></trkpt><trkpt lat="52.357086" lon="16.875732"></trkpt><trkpt lat="52.357401" lon="16.874493"></trkpt><trkpt lat="52.35737" lon="16.874114"></trkpt><trkpt lat="52.357246" lon="16.873804"></trkpt><trkpt lat="52.357069" lon="16.873281"></trkpt><trkpt lat="52.356587" lon="16.872122"></trkpt><trkpt lat="52.353033" lon="16.864759"></trkpt><trkpt lat="52.348502" lon="16.87281"></trkpt><trkpt lat="52.348343" lon="16.87259"></trkpt><trkpt lat="52.346373" lon="16.871501"></trkpt><trkpt lat="52.346066" lon="16.872045"></trkpt><trkpt lat="52.345822" lon="16.872064"></trkpt><trkpt lat="52.345621" lon="16.872106"></trkpt><trkpt lat="52.342885" lon="16.870595"></trkpt><trkpt lat="52.342856" lon="16.870113"></trkpt><trkpt lat="52.341736" lon="16.862754"></trkpt><trkpt lat="52.341408" lon="16.8628"></trkpt><trkpt lat="52.341091" lon="16.862808"></trkpt><trkpt lat="52.339212" lon="16.863101"></trkpt><trkpt lat="52.339165" lon="16.86344"></trkpt><trkpt lat="52.339247" lon="16.864749"></trkpt><trkpt lat="52.339369" lon="16.870972"></trkpt><trkpt lat="52.339185" lon="16.870676"></trkpt><trkpt lat="52.338989" lon="16.870453"></trkpt><trkpt lat="52.338419" lon="16.870188"></trkpt><trkpt lat="52.337782" lon="16.870208"></trkpt><trkpt lat="52.337109" lon="16.870315"></trkpt><trkpt lat="52.330836" lon="16.870317"></trkpt><trkpt lat="52.330542" lon="16.870018"></trkpt><trkpt lat="52.326528" lon="16.864915"></trkpt><trkpt lat="52.3261" lon="16.864029"></trkpt><trkpt lat="52.321177" lon="16.851418"></trkpt><trkpt lat="52.321297" lon="16.851077"></trkpt><trkpt lat="52.321175" lon="16.850816"></trkpt><trkpt lat="52.320771" lon="16.850148"></trkpt><trkpt lat="52.320515" lon="16.849839"></trkpt><trkpt lat="52.320075" lon="16.849461"></trkpt><trkpt lat="52.319275" lon="16.848652"></trkpt><trkpt lat="52.318881" lon="16.848107"></trkpt><trkpt lat="52.318672" lon="16.847884"></trkpt><trkpt lat="52.318397" lon="16.847636"></trkpt><trkpt lat="52.318464" lon="16.848412"></trkpt><trkpt lat="52.318417" lon="16.848966"></trkpt><trkpt lat="52.317908" lon="16.849555"></trkpt><trkpt lat="52.317643" lon="16.849727"></trkpt><trkpt lat="52.317416" lon="16.849725"></trkpt><trkpt lat="52.317222" lon="16.850496"></trkpt><trkpt lat="52.317147" lon="16.850987"></trkpt><trkpt lat="52.316937" lon="16.851475"></trkpt><trkpt lat="52.316522" lon="16.850945"></trkpt><trkpt lat="52.308678" lon="16.840178"></trkpt><trkpt lat="52.300938" lon="16.829693"></trkpt><trkpt lat="52.300792" lon="16.829463"></trkpt><trkpt lat="52.29956" lon="16.827804"></trkpt><trkpt lat="52.292051" lon="16.81704"></trkpt><trkpt lat="52.28484" lon="16.805914"></trkpt><trkpt lat="52.284645" lon="16.805566"></trkpt><trkpt lat="52.284524" lon="16.805275"></trkpt><trkpt lat="52.283863" lon="16.803936"></trkpt><trkpt lat="52.283387" lon="16.803712"></trkpt><trkpt lat="52.283163" lon="16.803561"></trkpt><trkpt lat="52.28339" lon="16.802969"></trkpt><trkpt lat="52.28349" lon="16.802662"></trkpt><trkpt lat="52.283743" lon="16.802149"></trkpt><trkpt lat="52.283565" lon="16.802453"></trkpt><trkpt lat="52.283869" lon="16.802289"></trkpt><trkpt lat="52.284053" lon="16.802127"></trkpt><trkpt lat="52.284387" lon="16.8015"></trkpt><trkpt lat="52.284607" lon="16.801258"></trkpt><trkpt lat="52.28587" lon="16.799646"></trkpt><trkpt lat="52.286043" lon="16.799383"></trkpt><trkpt lat="52.286462" lon="16.798833"></trkpt><trkpt lat="52.287108" lon="16.797753"></trkpt><trkpt lat="52.287235" lon="16.797484"></trkpt><trkpt lat="52.287958" lon="16.796189"></trkpt><trkpt lat="52.288231" lon="16.795784"></trkpt><trkpt lat="52.288661" lon="16.794987"></trkpt><trkpt lat="52.288999" lon="16.794259"></trkpt><trkpt lat="52.289849" lon="16.792707"></trkpt><trkpt lat="52.290089" lon="16.79241"></trkpt><trkpt lat="52.290554" lon="16.791941"></trkpt><trkpt lat="52.290482" lon="16.791292"></trkpt><trkpt lat="52.290521" lon="16.790948"></trkpt><trkpt lat="52.290469" lon="16.790623"></trkpt><trkpt lat="52.289832" lon="16.78841"></trkpt><trkpt lat="52.289513" lon="16.788594"></trkpt><trkpt lat="52.287178" lon="16.790546"></trkpt><trkpt lat="52.287144" lon="16.791335"></trkpt><trkpt lat="52.287042" lon="16.791699"></trkpt><trkpt lat="52.286894" lon="16.791982"></trkpt><trkpt lat="52.286714" lon="16.792483"></trkpt><trkpt lat="52.286692" lon="16.792836"></trkpt><trkpt lat="52.286722" lon="16.793476"></trkpt><trkpt lat="52.286616" lon="16.793777"></trkpt><trkpt lat="52.285979" lon="16.794421"></trkpt><trkpt lat="52.285146" lon="16.795127"></trkpt><trkpt lat="52.284458" lon="16.795509"></trkpt><trkpt lat="52.281461" lon="16.796785"></trkpt><trkpt lat="52.281277" lon="16.796229"></trkpt><trkpt lat="52.27724" lon="16.781668"></trkpt><trkpt lat="52.273217" lon="16.766807"></trkpt><trkpt lat="52.272559" lon="16.762734"></trkpt><trkpt lat="52.272761" lon="16.762556"></trkpt><trkpt lat="52.27584" lon="16.759367"></trkpt><trkpt lat="52.275491" lon="16.758695"></trkpt><trkpt lat="52.275262" lon="16.757906"></trkpt><trkpt lat="52.274908" lon="16.756307"></trkpt><trkpt lat="52.274892" lon="16.755474"></trkpt><trkpt lat="52.274401" lon="16.739343"></trkpt><trkpt lat="52.274544" lon="16.735133"></trkpt><trkpt lat="52.274577" lon="16.734804"></trkpt><trkpt lat="52.274611" lon="16.733811"></trkpt><trkpt lat="52.27467" lon="16.733074"></trkpt><trkpt lat="52.274654" lon="16.732724"></trkpt><trkpt lat="52.274657" lon="16.731461"></trkpt><trkpt lat="52.27476" lon="16.730782"></trkpt><trkpt lat="52.274985" lon="16.729961"></trkpt><trkpt lat="52.275095" lon="16.729265"></trkpt><trkpt lat="52.275223" lon="16.728957"></trkpt><trkpt lat="52.275444" lon="16.728765"></trkpt><trkpt lat="52.275878" lon="16.728168"></trkpt><trkpt lat="52.276061" lon="16.727824"></trkpt><trkpt lat="52.27628" lon="16.727482"></trkpt><trkpt lat="52.276542" lon="16.727254"></trkpt><trkpt lat="52.27761" lon="16.725924"></trkpt><trkpt lat="52.277958" lon="16.725324"></trkpt><trkpt lat="52.27827" lon="16.724626"></trkpt><trkpt lat="52.278356" lon="16.72423"></trkpt><trkpt lat="52.278871" lon="16.720119"></trkpt><trkpt lat="52.278932" lon="16.718529"></trkpt><trkpt lat="52.279743" lon="16.708876"></trkpt><trkpt lat="52.280173" lon="16.709051"></trkpt><trkpt lat="52.280383" lon="16.70924"></trkpt><trkpt lat="52.280603" lon="16.708648"></trkpt><trkpt lat="52.280977" lon="16.707896"></trkpt><trkpt lat="52.281294" lon="16.707104"></trkpt><trkpt lat="52.281392" lon="16.706809"></trkpt><trkpt lat="52.281317" lon="16.70717"></trkpt><trkpt lat="52.281116" lon="16.707597"></trkpt><trkpt lat="52.280339" lon="16.709544"></trkpt></trkseg></trk></gpx>