<?xml version="1.0" encoding="UTF-8" standalone="no" ?><gpx xmlns="http://www.topografix.com/GPX/1/1" xmlns:gpxx="http://www.garmin.com/xmlschemas/GpxExtensions/v3" ><trk><trkseg><trkpt lat="53.607233" lon="19.59994"></trkpt><trkpt lat="53.607038" lon="19.59971"></trkpt><trkpt lat="53.606848" lon="19.59985"></trkpt><trkpt lat="53.606909" lon="19.60037"></trkpt><trkpt lat="53.607066" lon="19.601052"></trkpt><trkpt lat="53.607546" lon="19.600814"></trkpt><trkpt lat="53.608084" lon="19.600622"></trkpt><trkpt lat="53.60824" lon="19.601439"></trkpt><trkpt lat="53.60855" lon="19.602567"></trkpt><trkpt lat="53.609491" lon="19.605382"></trkpt><trkpt lat="53.612761" lon="19.615231"></trkpt><trkpt lat="53.61613" lon="19.624082"></trkpt><trkpt lat="53.61605" lon="19.62441"></trkpt><trkpt lat="53.615863" lon="19.624629"></trkpt><trkpt lat="53.615792" lon="19.624962"></trkpt><trkpt lat="53.615964" lon="19.625742"></trkpt><trkpt lat="53.616075" lon="19.62655"></trkpt><trkpt lat="53.61615" lon="19.627519"></trkpt><trkpt lat="53.61597" lon="19.627979"></trkpt><trkpt lat="53.615528" lon="19.629378"></trkpt><trkpt lat="53.615405" lon="19.630009"></trkpt><trkpt lat="53.614974" lon="19.630018"></trkpt><trkpt lat="53.61472" lon="19.63015"></trkpt><trkpt lat="53.614606" lon="19.630428"></trkpt><trkpt lat="53.614435" lon="19.630672"></trkpt><trkpt lat="53.614439" lon="19.631035"></trkpt><trkpt lat="53.614776" lon="19.631531"></trkpt><trkpt lat="53.614879" lon="19.631833"></trkpt><trkpt lat="53.614911" lon="19.633822"></trkpt><trkpt lat="53.614782" lon="19.634952"></trkpt><trkpt lat="53.614488" lon="19.635671"></trkpt><trkpt lat="53.613767" lon="19.637746"></trkpt><trkpt lat="53.613363" lon="19.639226"></trkpt><trkpt lat="53.612586" lon="19.64159"></trkpt><trkpt lat="53.610703" lon="19.648725"></trkpt><trkpt lat="53.610375" lon="19.650445"></trkpt><trkpt lat="53.610223" lon="19.652043"></trkpt><trkpt lat="53.609056" lon="19.66333"></trkpt><trkpt lat="53.608947" lon="19.664035"></trkpt><trkpt lat="53.608842" lon="19.664996"></trkpt><trkpt lat="53.608891" lon="19.665462"></trkpt><trkpt lat="53.60918" lon="19.666459"></trkpt><trkpt lat="53.609394" lon="19.667508"></trkpt><trkpt lat="53.609564" lon="19.668656"></trkpt><trkpt lat="53.609868" lon="19.671938"></trkpt><trkpt lat="53.609878" lon="19.672753"></trkpt><trkpt lat="53.609676" lon="19.67589"></trkpt><trkpt lat="53.609407" lon="19.676863"></trkpt><trkpt lat="53.609084" lon="19.677739"></trkpt><trkpt lat="53.608551" lon="19.678592"></trkpt><trkpt lat="53.603273" lon="19.685693"></trkpt><trkpt lat="53.603091" lon="19.685898"></trkpt><trkpt lat="53.602506" lon="19.686812"></trkpt><trkpt lat="53.60114" lon="19.68946"></trkpt><trkpt lat="53.600905" lon="19.690232"></trkpt><trkpt lat="53.600297" lon="19.692835"></trkpt><trkpt lat="53.600708" lon="19.693253"></trkpt><trkpt lat="53.606408" lon="19.698011"></trkpt><trkpt lat="53.606678" lon="19.698046"></trkpt><trkpt lat="53.6128" lon="19.697975"></trkpt><trkpt lat="53.613316" lon="19.698176"></trkpt><trkpt lat="53.613696" lon="19.698389"></trkpt><trkpt lat="53.614198" lon="19.698601"></trkpt><trkpt lat="53.615024" lon="19.699115"></trkpt><trkpt lat="53.615935" lon="19.699529"></trkpt><trkpt lat="53.618204" lon="19.701043"></trkpt><trkpt lat="53.618626" lon="19.701493"></trkpt><trkpt lat="53.619263" lon="19.701989"></trkpt><trkpt lat="53.619692" lon="19.702387"></trkpt><trkpt lat="53.625309" lon="19.707575"></trkpt><trkpt lat="53.625833" lon="19.708437"></trkpt><trkpt lat="53.62614" lon="19.70914"></trkpt><trkpt lat="53.626318" lon="19.710056"></trkpt><trkpt lat="53.62647" lon="19.710618"></trkpt><trkpt lat="53.626722" lon="19.711121"></trkpt><trkpt lat="53.627008" lon="19.711559"></trkpt><trkpt lat="53.631922" lon="19.718886"></trkpt><trkpt lat="53.632105" lon="19.719026"></trkpt><trkpt lat="53.632272" lon="19.719376"></trkpt><trkpt lat="53.632477" lon="19.719624"></trkpt><trkpt lat="53.632789" lon="19.719753"></trkpt><trkpt lat="53.633063" lon="19.719807"></trkpt><trkpt lat="53.633377" lon="19.719928"></trkpt><trkpt lat="53.633593" lon="19.720089"></trkpt><trkpt lat="53.634999" lon="19.721383"></trkpt><trkpt lat="53.635413" lon="19.721984"></trkpt><trkpt lat="53.639483" lon="19.729525"></trkpt><trkpt lat="53.639678" lon="19.730665"></trkpt><trkpt lat="53.641364" lon="19.737611"></trkpt><trkpt lat="53.641933" lon="19.738546"></trkpt><trkpt lat="53.646312" lon="19.743635"></trkpt><trkpt lat="53.646585" lon="19.743452"></trkpt><trkpt lat="53.646801" lon="19.743114"></trkpt><trkpt lat="53.647041" lon="19.7428"></trkpt><trkpt lat="53.647768" lon="19.742015"></trkpt><trkpt lat="53.649113" lon="19.740242"></trkpt><trkpt lat="53.649448" lon="19.739958"></trkpt><trkpt lat="53.649901" lon="19.739675"></trkpt><trkpt lat="53.65045" lon="19.739433"></trkpt><trkpt lat="53.650768" lon="19.739391"></trkpt><trkpt lat="53.651869" lon="19.739376"></trkpt><trkpt lat="53.652232" lon="19.739315"></trkpt><trkpt lat="53.652461" lon="19.739164"></trkpt><trkpt lat="53.652925" lon="19.738729"></trkpt><trkpt lat="53.65368" lon="19.738194"></trkpt><trkpt lat="53.654302" lon="19.737994"></trkpt><trkpt lat="53.655659" lon="19.737943"></trkpt><trkpt lat="53.656083" lon="19.738055"></trkpt><trkpt lat="53.656589" lon="19.738125"></trkpt><trkpt lat="53.656377" lon="19.737743"></trkpt><trkpt lat="53.656525" lon="19.738025"></trkpt><trkpt lat="53.656714" lon="19.738154"></trkpt><trkpt lat="53.657013" lon="19.738315"></trkpt><trkpt lat="53.657458" lon="19.738465"></trkpt><trkpt lat="53.658104" lon="19.738394"></trkpt><trkpt lat="53.658296" lon="19.738294"></trkpt><trkpt lat="53.658635" lon="19.738052"></trkpt><trkpt lat="53.659003" lon="19.737722"></trkpt><trkpt lat="53.659231" lon="19.737311"></trkpt><trkpt lat="53.659544" lon="19.736476"></trkpt><trkpt lat="53.660198" lon="19.735161"></trkpt><trkpt lat="53.660516" lon="19.734763"></trkpt><trkpt lat="53.661146" lon="19.734086"></trkpt><trkpt lat="53.662246" lon="19.73262"></trkpt><trkpt lat="53.662455" lon="19.732217"></trkpt><trkpt lat="53.662936" lon="19.731421"></trkpt><trkpt lat="53.662667" lon="19.731886"></trkpt><trkpt lat="53.660999" lon="19.734277"></trkpt><trkpt lat="53.6607" lon="19.734611"></trkpt><trkpt lat="53.659832" lon="19.735778"></trkpt><trkpt lat="53.659621" lon="19.736269"></trkpt><trkpt lat="53.659398" lon="19.736889"></trkpt><trkpt lat="53.658929" lon="19.737835"></trkpt><trkpt lat="53.658747" lon="19.738012"></trkpt><trkpt lat="53.658318" lon="19.738313"></trkpt><trkpt lat="53.657798" lon="19.738483"></trkpt><trkpt lat="53.657158" lon="19.738407"></trkpt><trkpt lat="53.656831" lon="19.738289"></trkpt><trkpt lat="53.656629" lon="19.738136"></trkpt><trkpt lat="53.656465" lon="19.737917"></trkpt><trkpt lat="53.656316" lon="19.737638"></trkpt></trkseg></trk></gpx>