<?xml version="1.0" encoding="UTF-8" standalone="no" ?><gpx xmlns="http://www.topografix.com/GPX/1/1" xmlns:gpxx="http://www.garmin.com/xmlschemas/GpxExtensions/v3" ><trk><trkseg><trkpt lat="50.0866262522" lon="17.1393810678"></trkpt><trkpt lat="50.0863618031" lon="17.1395223029"></trkpt><trkpt lat="50.0860817637" lon="17.1397717483"></trkpt><trkpt lat="50.0856748223" lon="17.140230909"></trkpt><trkpt lat="50.0857182406" lon="17.1406621579"></trkpt><trkpt lat="50.0855292287" lon="17.140969187"></trkpt><trkpt lat="50.0853719003" lon="17.141332794"></trkpt><trkpt lat="50.0854016561" lon="17.1418010909"></trkpt><trkpt lat="50.0852194335" lon="17.1421398874"></trkpt><trkpt lat="50.0851551443" lon="17.1425531991"></trkpt><trkpt lat="50.084929755" lon="17.142965924"></trkpt><trkpt lat="50.0847690739" lon="17.1433507372"></trkpt><trkpt lat="50.084811151" lon="17.1437776275"></trkpt><trkpt lat="50.0847400725" lon="17.1441845689"></trkpt><trkpt lat="50.0843705982" lon="17.1444505267"></trkpt><trkpt lat="50.0839613937" lon="17.1445934381"></trkpt><trkpt lat="50.0836407021" lon="17.1444233693"></trkpt><trkpt lat="50.0833108742" lon="17.144410545"></trkpt><trkpt lat="50.0747994706" lon="17.1459751111"></trkpt><trkpt lat="50.0745719858" lon="17.1463199425"></trkpt><trkpt lat="50.0738991704" lon="17.1471711248"></trkpt><trkpt lat="50.0736193825" lon="17.14743549"></trkpt><trkpt lat="50.0717299338" lon="17.1496014576"></trkpt><trkpt lat="50.0714836735" lon="17.149944948"></trkpt><trkpt lat="50.0711460505" lon="17.1503388137"></trkpt><trkpt lat="50.0709185656" lon="17.1506592538"></trkpt><trkpt lat="50.0707314815" lon="17.1509790234"></trkpt><trkpt lat="50.0706547033" lon="17.1514582168"></trkpt><trkpt lat="50.0704183336" lon="17.1537812613"></trkpt><trkpt lat="50.070588151" lon="17.1542533301"></trkpt><trkpt lat="50.0707453955" lon="17.1548129898"></trkpt><trkpt lat="50.0714326277" lon="17.1566195413"></trkpt><trkpt lat="50.0716954004" lon="17.1565223951"></trkpt><trkpt lat="50.0719312672" lon="17.1562188864"></trkpt><trkpt lat="50.0721959677" lon="17.1560505778"></trkpt><trkpt lat="50.0724813715" lon="17.1560500748"></trkpt><trkpt lat="50.0730152149" lon="17.1561266016"></trkpt><trkpt lat="50.0743725803" lon="17.1566050407"></trkpt><trkpt lat="50.0746397115" lon="17.1568852477"></trkpt><trkpt lat="50.0775566138" lon="17.1606009454"></trkpt><trkpt lat="50.0775694381" lon="17.1611715853"></trkpt><trkpt lat="50.0774814282" lon="17.1616061032"></trkpt><trkpt lat="50.0773172267" lon="17.1619816963"></trkpt><trkpt lat="50.0770957768" lon="17.1622566227"></trkpt><trkpt lat="50.0767329242" lon="17.1624514181"></trkpt><trkpt lat="50.0764270686" lon="17.1624477301"></trkpt><trkpt lat="50.0761240628" lon="17.1623453032"></trkpt><trkpt lat="50.0758674089" lon="17.1620829497"></trkpt><trkpt lat="50.0753466412" lon="17.1616567299"></trkpt><trkpt lat="50.0714462902" lon="17.1576852165"></trkpt><trkpt lat="50.071383426" lon="17.1571612637"></trkpt><trkpt lat="50.0712761376" lon="17.1566623729"></trkpt><trkpt lat="50.0711015426" lon="17.1562827565"></trkpt><trkpt lat="50.0709540211" lon="17.1557801776"></trkpt><trkpt lat="50.0708647538" lon="17.1552832145"></trkpt><trkpt lat="50.0707458984" lon="17.1549020894"></trkpt><trkpt lat="50.0703851413" lon="17.1534005553"></trkpt><trkpt lat="50.0704733189" lon="17.152874507"></trkpt><trkpt lat="50.0711517502" lon="17.1503720898"></trkpt><trkpt lat="50.0714284368" lon="17.1500420943"></trkpt><trkpt lat="50.0769348443" lon="17.1445933543"></trkpt><trkpt lat="50.0772512611" lon="17.1446140576"></trkpt><trkpt lat="50.0849517994" lon="17.1429997031"></trkpt><trkpt lat="50.0851691421" lon="17.1426349226"></trkpt><trkpt lat="50.0852441601" lon="17.1421667095"></trkpt><trkpt lat="50.0853951182" lon="17.1417363826"></trkpt><trkpt lat="50.0854317471" lon="17.1412232425"></trkpt><trkpt lat="50.0856844615" lon="17.1408361662"></trkpt><trkpt lat="50.0857774168" lon="17.1403998882"></trkpt><trkpt lat="50.0859555323" lon="17.139911307"></trkpt><trkpt lat="50.0862959214" lon="17.139720032"></trkpt><trkpt lat="50.0863405131" lon="17.1392058022"></trkpt></trkseg></trk></gpx>