<?xml version="1.0" encoding="UTF-8" standalone="no" ?><gpx xmlns="http://www.topografix.com/GPX/1/1" xmlns:gpxx="http://www.garmin.com/xmlschemas/GpxExtensions/v3" ><trk><trkseg><trkpt lat="54.364481" lon="18.641992"></trkpt><trkpt lat="54.364688" lon="18.642562"></trkpt><trkpt lat="54.364523" lon="18.642971"></trkpt><trkpt lat="54.364294" lon="18.643313"></trkpt><trkpt lat="54.364064" lon="18.643567"></trkpt><trkpt lat="54.363904" lon="18.64411"></trkpt><trkpt lat="54.363727" lon="18.644497"></trkpt><trkpt lat="54.363637" lon="18.644947"></trkpt><trkpt lat="54.363707" lon="18.645465"></trkpt><trkpt lat="54.363695" lon="18.646122"></trkpt><trkpt lat="54.363725" lon="18.646757"></trkpt><trkpt lat="54.363895" lon="18.648398"></trkpt><trkpt lat="54.364136" lon="18.648185"></trkpt><trkpt lat="54.364482" lon="18.648117"></trkpt><trkpt lat="54.364891" lon="18.648118"></trkpt><trkpt lat="54.364518" lon="18.64831"></trkpt><trkpt lat="54.364125" lon="18.648224"></trkpt><trkpt lat="54.363722" lon="18.648458"></trkpt><trkpt lat="54.363776" lon="18.648972"></trkpt><trkpt lat="54.363654" lon="18.649651"></trkpt><trkpt lat="54.363264" lon="18.650967"></trkpt><trkpt lat="54.362935" lon="18.651037"></trkpt><trkpt lat="54.362678" lon="18.650679"></trkpt><trkpt lat="54.362399" lon="18.650677"></trkpt><trkpt lat="54.362244" lon="18.651231"></trkpt><trkpt lat="54.361962" lon="18.651781"></trkpt><trkpt lat="54.361607" lon="18.652673"></trkpt><trkpt lat="54.360872" lon="18.654936"></trkpt><trkpt lat="54.360797" lon="18.655396"></trkpt><trkpt lat="54.360577" lon="18.656176"></trkpt><trkpt lat="54.360483" lon="18.656684"></trkpt><trkpt lat="54.360294" lon="18.657036"></trkpt><trkpt lat="54.359946" lon="18.656837"></trkpt><trkpt lat="54.359619" lon="18.656566"></trkpt><trkpt lat="54.359328" lon="18.656241"></trkpt><trkpt lat="54.359009" lon="18.655973"></trkpt><trkpt lat="54.358713" lon="18.655635"></trkpt><trkpt lat="54.358367" lon="18.65536"></trkpt><trkpt lat="54.358033" lon="18.655241"></trkpt><trkpt lat="54.35773" lon="18.655017"></trkpt><trkpt lat="54.357439" lon="18.654648"></trkpt><trkpt lat="54.357235" lon="18.654094"></trkpt><trkpt lat="54.356984" lon="18.653746"></trkpt><trkpt lat="54.356661" lon="18.653469"></trkpt><trkpt lat="54.355607" lon="18.654113"></trkpt><trkpt lat="54.35537" lon="18.654513"></trkpt><trkpt lat="54.355069" lon="18.654852"></trkpt><trkpt lat="54.354792" lon="18.654805"></trkpt><trkpt lat="54.35339" lon="18.6548"></trkpt><trkpt lat="54.352481" lon="18.654654"></trkpt><trkpt lat="54.352124" lon="18.654376"></trkpt><trkpt lat="54.351833" lon="18.654294"></trkpt><trkpt lat="54.351605" lon="18.653987"></trkpt><trkpt lat="54.351262" lon="18.653978"></trkpt><trkpt lat="54.351164" lon="18.654418"></trkpt><trkpt lat="54.350966" lon="18.655621"></trkpt><trkpt lat="54.350839" lon="18.65615"></trkpt><trkpt lat="54.350696" lon="18.656592"></trkpt><trkpt lat="54.350669" lon="18.657139"></trkpt><trkpt lat="54.350472" lon="18.657474"></trkpt><trkpt lat="54.350708" lon="18.657075"></trkpt><trkpt lat="54.351002" lon="18.657032"></trkpt><trkpt lat="54.351333" lon="18.657239"></trkpt><trkpt lat="54.351479" lon="18.657709"></trkpt><trkpt lat="54.351268" lon="18.65804"></trkpt><trkpt lat="54.351124" lon="18.658513"></trkpt><trkpt lat="54.351262" lon="18.657989"></trkpt><trkpt lat="54.350979" lon="18.657824"></trkpt><trkpt lat="54.350621" lon="18.657762"></trkpt><trkpt lat="54.349985" lon="18.65752"></trkpt><trkpt lat="54.349691" lon="18.657338"></trkpt><trkpt lat="54.34938" lon="18.657405"></trkpt><trkpt lat="54.34957" lon="18.656901"></trkpt><trkpt lat="54.34981" lon="18.656612"></trkpt><trkpt lat="54.34997" lon="18.656111"></trkpt><trkpt lat="54.349763" lon="18.655589"></trkpt><trkpt lat="54.350036" lon="18.655779"></trkpt><trkpt lat="54.34981" lon="18.655455"></trkpt><trkpt lat="54.34969" lon="18.654954"></trkpt><trkpt lat="54.349823" lon="18.654503"></trkpt><trkpt lat="54.34964" lon="18.654133"></trkpt><trkpt lat="54.349238" lon="18.653655"></trkpt><trkpt lat="54.348988" lon="18.653895"></trkpt><trkpt lat="54.348827" lon="18.654336"></trkpt><trkpt lat="54.348807" lon="18.654904"></trkpt><trkpt lat="54.348731" lon="18.65551"></trkpt><trkpt lat="54.348519" lon="18.656376"></trkpt><trkpt lat="54.348284" lon="18.656731"></trkpt><trkpt lat="54.348005" lon="18.656752"></trkpt><trkpt lat="54.347867" lon="18.656255"></trkpt><trkpt lat="54.347782" lon="18.656801"></trkpt><trkpt lat="54.34765" lon="18.657296"></trkpt><trkpt lat="54.34776" lon="18.656768"></trkpt><trkpt lat="54.347841" lon="18.65623"></trkpt><trkpt lat="54.347672" lon="18.655846"></trkpt><trkpt lat="54.347448" lon="18.655497"></trkpt><trkpt lat="54.347697" lon="18.655892"></trkpt><trkpt lat="54.347946" lon="18.65566"></trkpt><trkpt lat="54.348111" lon="18.655115"></trkpt><trkpt lat="54.348162" lon="18.654644"></trkpt><trkpt lat="54.34812" lon="18.654154"></trkpt><trkpt lat="54.348391" lon="18.654099"></trkpt><trkpt lat="54.348789" lon="18.654345"></trkpt><trkpt lat="54.348745" lon="18.654815"></trkpt><trkpt lat="54.348796" lon="18.656535"></trkpt><trkpt lat="54.349096" lon="18.656997"></trkpt><trkpt lat="54.34938" lon="18.65736"></trkpt><trkpt lat="54.349689" lon="18.657667"></trkpt><trkpt lat="54.349997" lon="18.65786"></trkpt><trkpt lat="54.350297" lon="18.65819"></trkpt><trkpt lat="54.350689" lon="18.658373"></trkpt><trkpt lat="54.351067" lon="18.658469"></trkpt><trkpt lat="54.351279" lon="18.657752"></trkpt><trkpt lat="54.350989" lon="18.657675"></trkpt><trkpt lat="54.350685" lon="18.657679"></trkpt><trkpt lat="54.3504" lon="18.6574"></trkpt><trkpt lat="54.350093" lon="18.657185"></trkpt><trkpt lat="54.349805" lon="18.657466"></trkpt><trkpt lat="54.349652" lon="18.657923"></trkpt><trkpt lat="54.349701" lon="18.657358"></trkpt><trkpt lat="54.349799" lon="18.656761"></trkpt><trkpt lat="54.349484" lon="18.656646"></trkpt><trkpt lat="54.349598" lon="18.656216"></trkpt><trkpt lat="54.349717" lon="18.655532"></trkpt><trkpt lat="54.34977" lon="18.655026"></trkpt><trkpt lat="54.34978" lon="18.654501"></trkpt><trkpt lat="54.349922" lon="18.654072"></trkpt><trkpt lat="54.350165" lon="18.654332"></trkpt><trkpt lat="54.350398" lon="18.653948"></trkpt><trkpt lat="54.350403" lon="18.653445"></trkpt><trkpt lat="54.350291" lon="18.652876"></trkpt><trkpt lat="54.350452" lon="18.652422"></trkpt><trkpt lat="54.350733" lon="18.651427"></trkpt><trkpt lat="54.350695" lon="18.650855"></trkpt><trkpt lat="54.350932" lon="18.650467"></trkpt><trkpt lat="54.351211" lon="18.650124"></trkpt><trkpt lat="54.351412" lon="18.649709"></trkpt><trkpt lat="54.351705" lon="18.64973"></trkpt><trkpt lat="54.35213" lon="18.649603"></trkpt><trkpt lat="54.352439" lon="18.649455"></trkpt><trkpt lat="54.352661" lon="18.649121"></trkpt><trkpt lat="54.352901" lon="18.64887"></trkpt><trkpt lat="54.353218" lon="18.648845"></trkpt><trkpt lat="54.354201" lon="18.648594"></trkpt><trkpt lat="54.354509" lon="18.648388"></trkpt><trkpt lat="54.354833" lon="18.648229"></trkpt><trkpt lat="54.355143" lon="18.648154"></trkpt><trkpt lat="54.355432" lon="18.647815"></trkpt><trkpt lat="54.355389" lon="18.647131"></trkpt><trkpt lat="54.355415" lon="18.646652"></trkpt><trkpt lat="54.355672" lon="18.646412"></trkpt><trkpt lat="54.356006" lon="18.646321"></trkpt><trkpt lat="54.35585" lon="18.645845"></trkpt><trkpt lat="54.356516" lon="18.645494"></trkpt><trkpt lat="54.356596" lon="18.644777"></trkpt><trkpt lat="54.356591" lon="18.644166"></trkpt></trkseg></trk></gpx>