<?xml version="1.0" encoding="UTF-8" standalone="no" ?><gpx xmlns="http://www.topografix.com/GPX/1/1" xmlns:gpxx="http://www.garmin.com/xmlschemas/GpxExtensions/v3" ><trk><trkseg><trkpt lat="52.5752406288" lon="17.0161814243"></trkpt><trkpt lat="52.5753738172" lon="17.0157820266"></trkpt><trkpt lat="52.5754306465" lon="17.0153027494"></trkpt><trkpt lat="52.5755487476" lon="17.0148401521"></trkpt><trkpt lat="52.5762323756" lon="17.0110535435"></trkpt><trkpt lat="52.5761228241" lon="17.010612404"></trkpt><trkpt lat="52.5761916395" lon="17.0101146027"></trkpt><trkpt lat="52.5763757899" lon="17.0097825117"></trkpt><trkpt lat="52.5767114852" lon="17.0100721903"></trkpt><trkpt lat="52.5772369467" lon="17.0106534753"></trkpt><trkpt lat="52.5775169861" lon="17.0107085444"></trkpt><trkpt lat="52.5771845598" lon="17.0106249768"></trkpt><trkpt lat="52.5769376289" lon="17.0102104079"></trkpt><trkpt lat="52.5766088907" lon="17.0099958312"></trkpt><trkpt lat="52.5764840003" lon="17.0095076691"></trkpt><trkpt lat="52.5762441102" lon="17.0097630657"></trkpt><trkpt lat="52.5766563322" lon="17.0100475475"></trkpt><trkpt lat="52.5769819692" lon="17.0103357174"></trkpt><trkpt lat="52.5778701156" lon="17.0109234564"></trkpt><trkpt lat="52.5782019552" lon="17.0112153981"></trkpt><trkpt lat="52.5785643887" lon="17.011456294"></trkpt><trkpt lat="52.5788186956" lon="17.0117231738"></trkpt><trkpt lat="52.5791201927" lon="17.0121726952"></trkpt><trkpt lat="52.5793274771" lon="17.0125905331"></trkpt><trkpt lat="52.5801649131" lon="17.0146332029"></trkpt><trkpt lat="52.5799925812" lon="17.0150502864"></trkpt><trkpt lat="52.5785572641" lon="17.0193169266"></trkpt><trkpt lat="52.5784532446" lon="17.0197750814"></trkpt><trkpt lat="52.5746939611" lon="17.0334054809"></trkpt><trkpt lat="52.572913561" lon="17.0385937952"></trkpt><trkpt lat="52.5727123115" lon="17.0390518662"></trkpt><trkpt lat="52.5725942943" lon="17.0394870546"></trkpt><trkpt lat="52.5725052785" lon="17.0399665833"></trkpt><trkpt lat="52.5724958908" lon="17.0404238999"></trkpt><trkpt lat="52.572511984" lon="17.0408872515"></trkpt><trkpt lat="52.5730028283" lon="17.0459130406"></trkpt><trkpt lat="52.5731739867" lon="17.0464678388"></trkpt><trkpt lat="52.5734867156" lon="17.0472008362"></trkpt><trkpt lat="52.5737784896" lon="17.0475061052"></trkpt><trkpt lat="52.574185431" lon="17.0480593108"></trkpt><trkpt lat="52.5743759517" lon="17.0483934134"></trkpt><trkpt lat="52.5745823141" lon="17.0489291009"></trkpt><trkpt lat="52.5758902263" lon="17.0515419077"></trkpt><trkpt lat="52.5762357283" lon="17.051792359"></trkpt><trkpt lat="52.576479977" lon="17.0520207658"></trkpt><trkpt lat="52.5768174324" lon="17.0522597339"></trkpt><trkpt lat="52.5844135322" lon="17.0590056572"></trkpt><trkpt lat="52.5846381672" lon="17.0593060646"></trkpt><trkpt lat="52.5866442919" lon="17.0625111368"></trkpt><trkpt lat="52.5864936691" lon="17.0620716736"></trkpt><trkpt lat="52.5866334792" lon="17.0624773577"></trkpt><trkpt lat="52.5878894236" lon="17.065385459"></trkpt><trkpt lat="52.5879796967" lon="17.0648966264"></trkpt><trkpt lat="52.5881690439" lon="17.0644184388"></trkpt><trkpt lat="52.5899968855" lon="17.0584890805"></trkpt><trkpt lat="52.5898226257" lon="17.0580668841"></trkpt><trkpt lat="52.5897360407" lon="17.0576034486"></trkpt><trkpt lat="52.589533953" lon="17.0556220505"></trkpt><trkpt lat="52.5895050354" lon="17.0562571473"></trkpt><trkpt lat="52.5895725098" lon="17.0567738079"></trkpt><trkpt lat="52.5896580052" lon="17.0572037995"></trkpt><trkpt lat="52.590022115" lon="17.0584786031"></trkpt><trkpt lat="52.5902587362" lon="17.0586983766"></trkpt><trkpt lat="52.5903418846" lon="17.0580681413"></trkpt><trkpt lat="52.5906425435" lon="17.0536557399"></trkpt><trkpt lat="52.5905674417" lon="17.0532240719"></trkpt><trkpt lat="52.5879662856" lon="17.0390189253"></trkpt><trkpt lat="52.5878025033" lon="17.0383958146"></trkpt><trkpt lat="52.5870447792" lon="17.0345036779"></trkpt><trkpt lat="52.5869839266" lon="17.033968661"></trkpt><trkpt lat="52.5862587243" lon="17.0217882469"></trkpt><trkpt lat="52.5863206666" lon="17.0212802198"></trkpt><trkpt lat="52.5859554671" lon="17.0209361427"></trkpt><trkpt lat="52.5856505334" lon="17.0207945723"></trkpt><trkpt lat="52.5849237386" lon="17.0203256048"></trkpt><trkpt lat="52.5846672524" lon="17.0200779196"></trkpt><trkpt lat="52.5843733829" lon="17.020441778"></trkpt><trkpt lat="52.5843505841" lon="17.0198791008"></trkpt><trkpt lat="52.5840416271" lon="17.0196972974"></trkpt><trkpt lat="52.5837629288" lon="17.0201362576"></trkpt><trkpt lat="52.5836004037" lon="17.020633975"></trkpt><trkpt lat="52.5832106452" lon="17.0224924106"></trkpt><trkpt lat="52.5834973902" lon="17.0233970694"></trkpt></trkseg></trk></gpx>