<?xml version="1.0" encoding="UTF-8" standalone="no" ?><gpx xmlns="http://www.topografix.com/GPX/1/1" xmlns:gpxx="http://www.garmin.com/xmlschemas/GpxExtensions/v3" ><trk><trkseg><trkpt lat="52.4906284176" lon="17.3624085914"></trkpt><trkpt lat="52.4907486141" lon="17.3629336338"></trkpt><trkpt lat="52.490355419" lon="17.3628369067"></trkpt><trkpt lat="52.490042774" lon="17.3630513996"></trkpt><trkpt lat="52.4899205659" lon="17.3634998314"></trkpt><trkpt lat="52.4898716155" lon="17.3639892507"></trkpt><trkpt lat="52.4897194002" lon="17.3647519201"></trkpt><trkpt lat="52.4896748085" lon="17.3652192112"></trkpt><trkpt lat="52.487916369" lon="17.3764581699"></trkpt><trkpt lat="52.4876519199" lon="17.3761938885"></trkpt><trkpt lat="52.4797621183" lon="17.369055273"></trkpt><trkpt lat="52.4795876909" lon="17.3684304859"></trkpt><trkpt lat="52.4795427639" lon="17.3679548968"></trkpt><trkpt lat="52.4793618824" lon="17.3669278622"></trkpt><trkpt lat="52.4792383332" lon="17.3665315658"></trkpt><trkpt lat="52.4790202361" lon="17.3661126383"></trkpt><trkpt lat="52.4785917532" lon="17.3651108332"></trkpt><trkpt lat="52.4784502666" lon="17.3645340744"></trkpt><trkpt lat="52.4761081953" lon="17.3570557404"></trkpt><trkpt lat="52.4757575803" lon="17.3566962406"></trkpt><trkpt lat="52.4749660771" lon="17.3560934141"></trkpt><trkpt lat="52.4746058229" lon="17.3559186514"></trkpt><trkpt lat="52.4742997158" lon="17.3557044938"></trkpt><trkpt lat="52.4728798214" lon="17.3543676641"></trkpt><trkpt lat="52.4728447013" lon="17.3537057452"></trkpt><trkpt lat="52.4727721978" lon="17.3532133084"></trkpt><trkpt lat="52.4727177992" lon="17.3526150919"></trkpt><trkpt lat="52.4725313019" lon="17.3513396177"></trkpt><trkpt lat="52.4699363485" lon="17.3371654842"></trkpt><trkpt lat="52.4696660321" lon="17.3371115047"></trkpt><trkpt lat="52.4693061132" lon="17.3370975908"></trkpt><trkpt lat="52.4690235592" lon="17.33699793"></trkpt><trkpt lat="52.4685670808" lon="17.3369193915"></trkpt><trkpt lat="52.4628478568" lon="17.3350492213"></trkpt><trkpt lat="52.4630564824" lon="17.3346523382"></trkpt><trkpt lat="52.463344736" lon="17.3339292314"></trkpt><trkpt lat="52.4634856358" lon="17.3333730921"></trkpt><trkpt lat="52.4636481609" lon="17.3324698582"></trkpt><trkpt lat="52.4636867177" lon="17.3319010623"></trkpt><trkpt lat="52.4640562758" lon="17.3289613612"></trkpt><trkpt lat="52.4641840998" lon="17.3285179585"></trkpt><trkpt lat="52.4653228652" lon="17.3253305722"></trkpt><trkpt lat="52.4655147269" lon="17.3248942103"></trkpt><trkpt lat="52.4672250543" lon="17.3216578737"></trkpt><trkpt lat="52.4728842638" lon="17.3101237044"></trkpt><trkpt lat="52.4730346352" lon="17.3095047008"></trkpt><trkpt lat="52.4736880045" lon="17.3058843054"></trkpt><trkpt lat="52.4764914159" lon="17.2917097528"></trkpt><trkpt lat="52.4761951994" lon="17.2916451283"></trkpt><trkpt lat="52.476150943" lon="17.2911344189"></trkpt><trkpt lat="52.4762828741" lon="17.2906771023"></trkpt><trkpt lat="52.4765479937" lon="17.2902504634"></trkpt><trkpt lat="52.4766852893" lon="17.2896432783"></trkpt><trkpt lat="52.4768023007" lon="17.2887970414"></trkpt><trkpt lat="52.4769910611" lon="17.2878544964"></trkpt><trkpt lat="52.477464471" lon="17.2879171092"></trkpt><trkpt lat="52.4776546564" lon="17.2875806596"></trkpt><trkpt lat="52.4778519664" lon="17.2868471593"></trkpt><trkpt lat="52.4780108035" lon="17.2864071932"></trkpt><trkpt lat="52.4780574907" lon="17.2859203722"></trkpt><trkpt lat="52.4781967979" lon="17.2854765505"></trkpt><trkpt lat="52.4783851393" lon="17.2850253526"></trkpt><trkpt lat="52.4784759991" lon="17.2845960315"></trkpt><trkpt lat="52.4786155578" lon="17.2841406427"></trkpt><trkpt lat="52.4788017198" lon="17.283672262"></trkpt><trkpt lat="52.4793243315" lon="17.2818470187"></trkpt><trkpt lat="52.4793775566" lon="17.2812988423"></trkpt><trkpt lat="52.4790230021" lon="17.2805715445"></trkpt><trkpt lat="52.4791678414" lon="17.2810955811"></trkpt><trkpt lat="52.4792552646" lon="17.2806756478"></trkpt><trkpt lat="52.479133727" lon="17.2800629307"></trkpt><trkpt lat="52.4789099302" lon="17.2783586383"></trkpt><trkpt lat="52.4789064936" lon="17.2778565623"></trkpt><trkpt lat="52.4790613912" lon="17.2774299234"></trkpt><trkpt lat="52.4790335633" lon="17.2769286856"></trkpt><trkpt lat="52.4789807573" lon="17.2764879651"></trkpt><trkpt lat="52.4792641494" lon="17.2771631274"></trkpt></trkseg></trk></gpx>