<?xml version="1.0" encoding="UTF-8" standalone="no" ?><gpx xmlns="http://www.topografix.com/GPX/1/1" xmlns:gpxx="http://www.garmin.com/xmlschemas/GpxExtensions/v3" ><trk><trkseg><trkpt lat="50.2942272183" lon="16.8805720378"></trkpt><trkpt lat="50.293796137" lon="16.8806281127"></trkpt><trkpt lat="50.2934576757" lon="16.8804924097"></trkpt><trkpt lat="50.2932079788" lon="16.8801610731"></trkpt><trkpt lat="50.2930287737" lon="16.8797646929"></trkpt><trkpt lat="50.292718811" lon="16.8792015966"></trkpt><trkpt lat="50.292403819" lon="16.8788196333"></trkpt><trkpt lat="50.2922070958" lon="16.8783160485"></trkpt><trkpt lat="50.2920325007" lon="16.8779858015"></trkpt><trkpt lat="50.2917469293" lon="16.8777725659"></trkpt><trkpt lat="50.2913854178" lon="16.8775644433"></trkpt><trkpt lat="50.2910053823" lon="16.8775239587"></trkpt><trkpt lat="50.2900682017" lon="16.8770664744"></trkpt><trkpt lat="50.2902452275" lon="16.8766927253"></trkpt><trkpt lat="50.2910002694" lon="16.8753784429"></trkpt><trkpt lat="50.2911091503" lon="16.8749539834"></trkpt><trkpt lat="50.291298246" lon="16.8744426034"></trkpt><trkpt lat="50.2914446779" lon="16.8739267811"></trkpt><trkpt lat="50.2912163548" lon="16.8736561295"></trkpt><trkpt lat="50.2909412608" lon="16.873749001"></trkpt><trkpt lat="50.2899941895" lon="16.8739142921"></trkpt><trkpt lat="50.2866622992" lon="16.8740293756"></trkpt><trkpt lat="50.2843061462" lon="16.8744656537"></trkpt><trkpt lat="50.2844380774" lon="16.875041239"></trkpt><trkpt lat="50.2845048811" lon="16.8754634354"></trkpt><trkpt lat="50.2846474573" lon="16.8760484923"></trkpt><trkpt lat="50.2845135983" lon="16.8755874876"></trkpt><trkpt lat="50.2843737882" lon="16.8749538995"></trkpt><trkpt lat="50.283970451" lon="16.8740491569"></trkpt><trkpt lat="50.283705499" lon="16.8743146956"></trkpt><trkpt lat="50.2819707803" lon="16.8756725639"></trkpt><trkpt lat="50.2816009708" lon="16.8757997174"></trkpt><trkpt lat="50.2791890781" lon="16.8770320248"></trkpt><trkpt lat="50.2788823005" lon="16.8774363678"></trkpt><trkpt lat="50.2778685093" lon="16.8785436172"></trkpt><trkpt lat="50.2767337672" lon="16.880109692"></trkpt><trkpt lat="50.2764701564" lon="16.8805706128"></trkpt><trkpt lat="50.2762357984" lon="16.8808041327"></trkpt><trkpt lat="50.2747776825" lon="16.8825555313"></trkpt><trkpt lat="50.2744695637" lon="16.8830219004"></trkpt><trkpt lat="50.2737382427" lon="16.8837968074"></trkpt><trkpt lat="50.2731870487" lon="16.8833342101"></trkpt><trkpt lat="50.2726235334" lon="16.8829856906"></trkpt><trkpt lat="50.2723685559" lon="16.8827317189"></trkpt><trkpt lat="50.2721562423" lon="16.8824220076"></trkpt><trkpt lat="50.2719802223" lon="16.8820951134"></trkpt><trkpt lat="50.2717148513" lon="16.8817041814"></trkpt><trkpt lat="50.2714626398" lon="16.881426489"></trkpt><trkpt lat="50.2711562812" lon="16.8811744452"></trkpt><trkpt lat="50.2708686143" lon="16.8811580166"></trkpt><trkpt lat="50.2705248725" lon="16.8812488765"></trkpt><trkpt lat="50.2697364707" lon="16.8813316058"></trkpt><trkpt lat="50.2686899062" lon="16.8810539134"></trkpt><trkpt lat="50.2683992218" lon="16.880921647"></trkpt><trkpt lat="50.268071238" lon="16.8808799051"></trkpt><trkpt lat="50.267798407" lon="16.8807815015"></trkpt><trkpt lat="50.2672825847" lon="16.8808905501"></trkpt><trkpt lat="50.2659664582" lon="16.8803720456"></trkpt><trkpt lat="50.2656787913" lon="16.8800275493"></trkpt><trkpt lat="50.2632947266" lon="16.876567835"></trkpt><trkpt lat="50.2633995842" lon="16.8761107698"></trkpt><trkpt lat="50.2633521426" lon="16.8755900022"></trkpt><trkpt lat="50.263193557" lon="16.874540085"></trkpt><trkpt lat="50.2630627155" lon="16.874090815"></trkpt><trkpt lat="50.2623531036" lon="16.8708502036"></trkpt><trkpt lat="50.2627051435" lon="16.8708629441"></trkpt><trkpt lat="50.2629021183" lon="16.8705619499"></trkpt><trkpt lat="50.2626244258" lon="16.8707484473"></trkpt><trkpt lat="50.2622744814" lon="16.8709205277"></trkpt><trkpt lat="50.2619411331" lon="16.8705687393"></trkpt><trkpt lat="50.2617442422" lon="16.8700439483"></trkpt><trkpt lat="50.2613748517" lon="16.8688201904"></trkpt><trkpt lat="50.2608586941" lon="16.8674509227"></trkpt><trkpt lat="50.2607936505" lon="16.8668851443"></trkpt><trkpt lat="50.2609904576" lon="16.8665784504"></trkpt><trkpt lat="50.2609142661" lon="16.8660456967"></trkpt><trkpt lat="50.2609032858" lon="16.8656081613"></trkpt><trkpt lat="50.2608062234" lon="16.865111785"></trkpt><trkpt lat="50.2606505714" lon="16.8639166094"></trkpt><trkpt lat="50.2604407724" lon="16.8628782593"></trkpt><trkpt lat="50.2603183966" lon="16.8624590803"></trkpt><trkpt lat="50.2601466514" lon="16.8619882688"></trkpt><trkpt lat="50.2599080186" lon="16.8614628911"></trkpt><trkpt lat="50.2596432343" lon="16.8612278625"></trkpt><trkpt lat="50.2594110556" lon="16.8609688617"></trkpt><trkpt lat="50.2588070557" lon="16.8601603433"></trkpt><trkpt lat="50.258554928" lon="16.8597023562"></trkpt><trkpt lat="50.2584086638" lon="16.8593102507"></trkpt><trkpt lat="50.2582315542" lon="16.8589466438"></trkpt><trkpt lat="50.2579740621" lon="16.8586234376"></trkpt><trkpt lat="50.2569787111" lon="16.857127184"></trkpt><trkpt lat="50.2567621227" lon="16.856689984"></trkpt><trkpt lat="50.2566560078" lon="16.8562151492"></trkpt><trkpt lat="50.2563994378" lon="16.855906276"></trkpt><trkpt lat="50.2556423005" lon="16.855153162"></trkpt><trkpt lat="50.2553496044" lon="16.8549866136"></trkpt><trkpt lat="50.2550873347" lon="16.8547681812"></trkpt><trkpt lat="50.2544591948" lon="16.8543621618"></trkpt><trkpt lat="50.2541222423" lon="16.8540723156"></trkpt><trkpt lat="50.2497348189" lon="16.8511028588"></trkpt><trkpt lat="50.2494635805" lon="16.8511327822"></trkpt><trkpt lat="50.2473901492" lon="16.8517127261"></trkpt><trkpt lat="50.2470687032" lon="16.8520112056"></trkpt><trkpt lat="50.2468493488" lon="16.8523402791"></trkpt><trkpt lat="50.2465388831" lon="16.8524659239"></trkpt><trkpt lat="50.2462110668" lon="16.8525371701"></trkpt><trkpt lat="50.2458281815" lon="16.8526883796"></trkpt><trkpt lat="50.2448134683" lon="16.8529032916"></trkpt><trkpt lat="50.2445066068" lon="16.8528816663"></trkpt><trkpt lat="50.2437104098" lon="16.8530561775"></trkpt><trkpt lat="50.2434021235" lon="16.8532757834"></trkpt><trkpt lat="50.2427861374" lon="16.8536067009"></trkpt><trkpt lat="50.2425131388" lon="16.8535710778"></trkpt><trkpt lat="50.2421635296" lon="16.8534457684"></trkpt><trkpt lat="50.2419021819" lon="16.8532897811"></trkpt><trkpt lat="50.2416999266" lon="16.8529069796"></trkpt><trkpt lat="50.2413695119" lon="16.8525066599"></trkpt><trkpt lat="50.23918611" lon="16.8503776565"></trkpt><trkpt lat="50.2375879325" lon="16.8484360725"></trkpt><trkpt lat="50.2373653091" lon="16.8479460664"></trkpt><trkpt lat="50.2371980902" lon="16.8474175036"></trkpt><trkpt lat="50.2369424421" lon="16.8470296729"></trkpt><trkpt lat="50.2366576251" lon="16.8464670796"></trkpt><trkpt lat="50.23666366" lon="16.8459171429"></trkpt><trkpt lat="50.2366002928" lon="16.8454744946"></trkpt><trkpt lat="50.2364189923" lon="16.844654493"></trkpt><trkpt lat="50.2362331655" lon="16.8440965936"></trkpt><trkpt lat="50.2358791139" lon="16.8432314135"></trkpt><trkpt lat="50.2356476896" lon="16.8428313453"></trkpt><trkpt lat="50.2353087254" lon="16.8425293453"></trkpt><trkpt lat="50.2349331323" lon="16.8423263356"></trkpt><trkpt lat="50.2347125206" lon="16.842073705"></trkpt><trkpt lat="50.2344410308" lon="16.8419664167"></trkpt><trkpt lat="50.2341612428" lon="16.8420309573"></trkpt><trkpt lat="50.2337749209" lon="16.8420213182"></trkpt><trkpt lat="50.2335249726" lon="16.8418404367"></trkpt><trkpt lat="50.2331974916" lon="16.8417173903"></trkpt><trkpt lat="50.2328240778" lon="16.8417032249"></trkpt><trkpt lat="50.2324595489" lon="16.8418299593"></trkpt><trkpt lat="50.2317750826" lon="16.8419681769"></trkpt><trkpt lat="50.2314765193" lon="16.8419793248"></trkpt><trkpt lat="50.222484665" lon="16.8410397135"></trkpt><trkpt lat="50.2222181205" lon="16.8409555592"></trkpt><trkpt lat="50.2180441003" lon="16.8390272185"></trkpt><trkpt lat="50.2177500632" lon="16.8388229515"></trkpt><trkpt lat="50.2174857818" lon="16.8387349416"></trkpt><trkpt lat="50.2172094304" lon="16.8387719058"></trkpt><trkpt lat="50.2169505972" lon="16.8385916948"></trkpt><trkpt lat="50.216628816" lon="16.8385621905"></trkpt><trkpt lat="50.2163439151" lon="16.8384439219"></trkpt><trkpt lat="50.2161228843" lon="16.8381321989"></trkpt><trkpt lat="50.215972513" lon="16.8377556"></trkpt><trkpt lat="50.2158725169" lon="16.837250255"></trkpt><trkpt lat="50.2159497142" lon="16.8367890827"></trkpt><trkpt lat="50.2160472795" lon="16.8363648746"></trkpt><trkpt lat="50.2160187811" lon="16.8359392416"></trkpt><trkpt lat="50.2157476265" lon="16.8356461264"></trkpt><trkpt lat="50.2150462288" lon="16.8350362591"></trkpt><trkpt lat="50.2147434745" lon="16.8348281365"></trkpt><trkpt lat="50.212959554" lon="16.8332710303"></trkpt><trkpt lat="50.2099750936" lon="16.8312456273"></trkpt><trkpt lat="50.2097027656" lon="16.8312574457"></trkpt><trkpt lat="50.209424654" lon="16.8313896284"></trkpt><trkpt lat="50.2087434568" lon="16.8318211287"></trkpt><trkpt lat="50.2084750682" lon="16.8320758548"></trkpt><trkpt lat="50.2081663627" lon="16.8323196005"></trkpt></trkseg></trk></gpx>