<?xml version="1.0" encoding="UTF-8" standalone="no" ?><gpx xmlns="http://www.topografix.com/GPX/1/1" xmlns:gpxx="http://www.garmin.com/xmlschemas/GpxExtensions/v3" ><trk><trkseg><trkpt lat="53.873708" lon="16.32651"></trkpt><trkpt lat="53.873913" lon="16.326377"></trkpt><trkpt lat="53.874085" lon="16.326579"></trkpt><trkpt lat="53.87403" lon="16.326915"></trkpt><trkpt lat="53.873813" lon="16.32688"></trkpt><trkpt lat="53.873771" lon="16.327426"></trkpt><trkpt lat="53.873541" lon="16.32776"></trkpt><trkpt lat="53.871478" lon="16.3303"></trkpt><trkpt lat="53.870995" lon="16.329459"></trkpt><trkpt lat="53.8707" lon="16.328496"></trkpt><trkpt lat="53.86507" lon="16.313188"></trkpt><trkpt lat="53.864487" lon="16.312889"></trkpt><trkpt lat="53.842471" lon="16.304812"></trkpt><trkpt lat="53.842293" lon="16.304989"></trkpt><trkpt lat="53.841848" lon="16.304795"></trkpt><trkpt lat="53.84119" lon="16.304853"></trkpt><trkpt lat="53.840748" lon="16.304758"></trkpt><trkpt lat="53.840427" lon="16.304605"></trkpt><trkpt lat="53.839793" lon="16.304696"></trkpt><trkpt lat="53.836239" lon="16.304767"></trkpt><trkpt lat="53.836051" lon="16.304627"></trkpt><trkpt lat="53.835743" lon="16.304321"></trkpt><trkpt lat="53.835424" lon="16.304075"></trkpt><trkpt lat="53.835121" lon="16.30389"></trkpt><trkpt lat="53.834363" lon="16.303556"></trkpt><trkpt lat="53.8287" lon="16.29995"></trkpt><trkpt lat="53.82824" lon="16.299368"></trkpt><trkpt lat="53.81844" lon="16.284867"></trkpt><trkpt lat="53.818168" lon="16.28364"></trkpt><trkpt lat="53.817685" lon="16.281986"></trkpt><trkpt lat="53.817581" lon="16.282455"></trkpt><trkpt lat="53.817292" lon="16.283485"></trkpt><trkpt lat="53.803589" lon="16.324539"></trkpt><trkpt lat="53.803378" lon="16.325078"></trkpt><trkpt lat="53.801871" lon="16.328355"></trkpt><trkpt lat="53.801542" lon="16.328658"></trkpt><trkpt lat="53.801367" lon="16.329105"></trkpt><trkpt lat="53.801199" lon="16.32971"></trkpt><trkpt lat="53.801125" lon="16.330045"></trkpt><trkpt lat="53.8011" lon="16.330396"></trkpt><trkpt lat="53.800967" lon="16.330655"></trkpt><trkpt lat="53.800858" lon="16.331423"></trkpt><trkpt lat="53.80053" lon="16.33307"></trkpt><trkpt lat="53.800413" lon="16.333422"></trkpt><trkpt lat="53.800351" lon="16.333752"></trkpt><trkpt lat="53.800215" lon="16.334303"></trkpt><trkpt lat="53.799768" lon="16.335292"></trkpt><trkpt lat="53.799247" lon="16.335438"></trkpt><trkpt lat="53.79902" lon="16.335451"></trkpt><trkpt lat="53.798818" lon="16.335582"></trkpt><trkpt lat="53.796697" lon="16.336599"></trkpt><trkpt lat="53.796124" lon="16.336545"></trkpt><trkpt lat="53.788365" lon="16.334784"></trkpt><trkpt lat="53.788091" lon="16.334536"></trkpt><trkpt lat="53.787806" lon="16.334322"></trkpt><trkpt lat="53.779888" lon="16.329962"></trkpt><trkpt lat="53.77779" lon="16.331464"></trkpt><trkpt lat="53.777113" lon="16.33222"></trkpt><trkpt lat="53.776463" lon="16.332748"></trkpt><trkpt lat="53.775048" lon="16.334181"></trkpt><trkpt lat="53.774751" lon="16.335017"></trkpt><trkpt lat="53.774211" lon="16.335612"></trkpt><trkpt lat="53.773679" lon="16.335925"></trkpt><trkpt lat="53.773161" lon="16.336376"></trkpt><trkpt lat="53.77301" lon="16.336605"></trkpt><trkpt lat="53.772655" lon="16.337273"></trkpt><trkpt lat="53.771842" lon="16.338547"></trkpt><trkpt lat="53.771529" lon="16.338841"></trkpt><trkpt lat="53.766656" lon="16.342629"></trkpt><trkpt lat="53.765513" lon="16.343207"></trkpt><trkpt lat="53.762406" lon="16.345284"></trkpt><trkpt lat="53.761884" lon="16.346089"></trkpt><trkpt lat="53.760781" lon="16.347462"></trkpt><trkpt lat="53.760304" lon="16.34786"></trkpt><trkpt lat="53.754352" lon="16.353736"></trkpt><trkpt lat="53.753834" lon="16.354518"></trkpt><trkpt lat="53.75342" lon="16.355031"></trkpt><trkpt lat="53.752985" lon="16.355188"></trkpt><trkpt lat="53.752489" lon="16.355279"></trkpt><trkpt lat="53.744937" lon="16.355523"></trkpt><trkpt lat="53.744323" lon="16.355397"></trkpt><trkpt lat="53.7441" lon="16.355284"></trkpt><trkpt lat="53.74361" lon="16.355218"></trkpt><trkpt lat="53.743243" lon="16.355336"></trkpt><trkpt lat="53.742879" lon="16.355529"></trkpt><trkpt lat="53.741833" lon="16.355145"></trkpt><trkpt lat="53.740228" lon="16.354332"></trkpt><trkpt lat="53.740282" lon="16.353951"></trkpt><trkpt lat="53.740363" lon="16.353617"></trkpt><trkpt lat="53.740739" lon="16.351289"></trkpt><trkpt lat="53.740568" lon="16.35101"></trkpt><trkpt lat="53.740362" lon="16.350809"></trkpt><trkpt lat="53.73957" lon="16.349883"></trkpt><trkpt lat="53.739149" lon="16.348898"></trkpt><trkpt lat="53.735043" lon="16.337539"></trkpt><trkpt lat="53.734888" lon="16.336534"></trkpt><trkpt lat="53.734266" lon="16.333611"></trkpt><trkpt lat="53.733992" lon="16.332758"></trkpt><trkpt lat="53.733886" lon="16.332014"></trkpt><trkpt lat="53.733829" lon="16.331193"></trkpt><trkpt lat="53.733658" lon="16.329948"></trkpt><trkpt lat="53.73337" lon="16.329662"></trkpt><trkpt lat="53.733049" lon="16.329395"></trkpt><trkpt lat="53.730679" lon="16.327063"></trkpt><trkpt lat="53.730516" lon="16.326266"></trkpt><trkpt lat="53.730444" lon="16.32563"></trkpt><trkpt lat="53.730039" lon="16.32331"></trkpt><trkpt lat="53.729798" lon="16.322609"></trkpt><trkpt lat="53.729618" lon="16.32244"></trkpt><trkpt lat="53.729383" lon="16.321933"></trkpt><trkpt lat="53.729142" lon="16.321159"></trkpt><trkpt lat="53.725936" lon="16.312456"></trkpt><trkpt lat="53.72423" lon="16.306077"></trkpt><trkpt lat="53.723548" lon="16.303956"></trkpt><trkpt lat="53.723106" lon="16.302907"></trkpt><trkpt lat="53.722661" lon="16.30201"></trkpt><trkpt lat="53.722075" lon="16.301355"></trkpt><trkpt lat="53.72183" lon="16.301228"></trkpt><trkpt lat="53.721446" lon="16.301226"></trkpt><trkpt lat="53.720716" lon="16.301531"></trkpt><trkpt lat="53.720454" lon="16.301687"></trkpt><trkpt lat="53.717111" lon="16.300321"></trkpt><trkpt lat="53.716512" lon="16.300715"></trkpt><trkpt lat="53.714041" lon="16.301916"></trkpt><trkpt lat="53.713421" lon="16.302052"></trkpt><trkpt lat="53.709951" lon="16.300812"></trkpt><trkpt lat="53.709747" lon="16.300578"></trkpt><trkpt lat="53.709225" lon="16.300276"></trkpt><trkpt lat="53.708692" lon="16.300086"></trkpt><trkpt lat="53.706462" lon="16.299608"></trkpt><trkpt lat="53.706228" lon="16.300493"></trkpt><trkpt lat="53.706029" lon="16.300946"></trkpt><trkpt lat="53.705822" lon="16.301165"></trkpt><trkpt lat="53.705485" lon="16.301372"></trkpt><trkpt lat="53.704879" lon="16.301647"></trkpt><trkpt lat="53.704582" lon="16.301468"></trkpt><trkpt lat="53.704259" lon="16.301052"></trkpt><trkpt lat="53.704046" lon="16.30088"></trkpt><trkpt lat="53.702263" lon="16.299857"></trkpt><trkpt lat="53.701881" lon="16.300015"></trkpt><trkpt lat="53.701669" lon="16.300044"></trkpt><trkpt lat="53.701498" lon="16.300218"></trkpt><trkpt lat="53.701683" lon="16.299998"></trkpt><trkpt lat="53.701656" lon="16.29935"></trkpt><trkpt lat="53.701471" lon="16.297593"></trkpt><trkpt lat="53.70126" lon="16.296795"></trkpt><trkpt lat="53.701074" lon="16.296274"></trkpt><trkpt lat="53.700775" lon="16.296113"></trkpt><trkpt lat="53.700532" lon="16.296045"></trkpt><trkpt lat="53.699797" lon="16.296341"></trkpt><trkpt lat="53.699548" lon="16.296517"></trkpt><trkpt lat="53.698701" lon="16.296801"></trkpt><trkpt lat="53.698392" lon="16.296603"></trkpt><trkpt lat="53.698132" lon="16.296392"></trkpt><trkpt lat="53.697693" lon="16.295968"></trkpt><trkpt lat="53.6975" lon="16.29565"></trkpt><trkpt lat="53.697308" lon="16.295242"></trkpt><trkpt lat="53.697025" lon="16.294732"></trkpt><trkpt lat="53.696719" lon="16.294351"></trkpt><trkpt lat="53.695782" lon="16.293433"></trkpt><trkpt lat="53.695523" lon="16.293372"></trkpt><trkpt lat="53.694268" lon="16.292917"></trkpt><trkpt lat="53.693989" lon="16.292874"></trkpt><trkpt lat="53.693794" lon="16.292739"></trkpt><trkpt lat="53.693408" lon="16.292559"></trkpt><trkpt lat="53.687386" lon="16.290515"></trkpt><trkpt lat="53.683997" lon="16.2888"></trkpt><trkpt lat="53.683699" lon="16.288502"></trkpt><trkpt lat="53.683436" lon="16.288139"></trkpt><trkpt lat="53.683325" lon="16.287798"></trkpt><trkpt lat="53.683235" lon="16.287344"></trkpt><trkpt lat="53.682948" lon="16.286175"></trkpt><trkpt lat="53.682943" lon="16.285492"></trkpt><trkpt lat="53.682623" lon="16.280158"></trkpt><trkpt lat="53.682638" lon="16.279041"></trkpt><trkpt lat="53.682767" lon="16.277967"></trkpt><trkpt lat="53.682843" lon="16.275857"></trkpt><trkpt lat="53.682712" lon="16.2755"></trkpt><trkpt lat="53.682173" lon="16.274914"></trkpt><trkpt lat="53.681914" lon="16.274411"></trkpt><trkpt lat="53.681883" lon="16.273531"></trkpt><trkpt lat="53.681904" lon="16.273125"></trkpt><trkpt lat="53.681988" lon="16.272333"></trkpt><trkpt lat="53.681996" lon="16.271985"></trkpt><trkpt lat="53.682088" lon="16.271297"></trkpt><trkpt lat="53.6821" lon="16.270836"></trkpt><trkpt lat="53.681968" lon="16.269748"></trkpt><trkpt lat="53.681714" lon="16.268445"></trkpt><trkpt lat="53.681496" lon="16.268213"></trkpt><trkpt lat="53.680664" lon="16.267092"></trkpt><trkpt lat="53.680234" lon="16.266615"></trkpt><trkpt lat="53.679991" lon="16.266444"></trkpt><trkpt lat="53.679723" lon="16.266307"></trkpt><trkpt lat="53.67955" lon="16.266107"></trkpt><trkpt lat="53.679356" lon="16.265917"></trkpt><trkpt lat="53.679011" lon="16.265856"></trkpt><trkpt lat="53.678838" lon="16.265652"></trkpt><trkpt lat="53.678535" lon="16.264917"></trkpt><trkpt lat="53.677701" lon="16.262295"></trkpt><trkpt lat="53.677626" lon="16.261908"></trkpt><trkpt lat="53.677548" lon="16.261591"></trkpt><trkpt lat="53.677454" lon="16.261114"></trkpt><trkpt lat="53.677055" lon="16.25847"></trkpt><trkpt lat="53.676879" lon="16.256766"></trkpt><trkpt lat="53.676856" lon="16.255868"></trkpt><trkpt lat="53.676997" lon="16.250602"></trkpt><trkpt lat="53.67704" lon="16.249978"></trkpt><trkpt lat="53.676978" lon="16.249312"></trkpt><trkpt lat="53.676713" lon="16.248761"></trkpt><trkpt lat="53.676419" lon="16.248362"></trkpt><trkpt lat="53.672561" lon="16.244036"></trkpt><trkpt lat="53.672405" lon="16.243687"></trkpt><trkpt lat="53.672122" lon="16.242322"></trkpt><trkpt lat="53.671729" lon="16.239778"></trkpt><trkpt lat="53.671595" lon="16.238098"></trkpt><trkpt lat="53.671615" lon="16.23771"></trkpt><trkpt lat="53.671636" lon="16.234651"></trkpt><trkpt lat="53.671472" lon="16.233784"></trkpt><trkpt lat="53.671121" lon="16.230889"></trkpt><trkpt lat="53.671102" lon="16.229931"></trkpt><trkpt lat="53.670956" lon="16.228983"></trkpt><trkpt lat="53.669434" lon="16.221972"></trkpt><trkpt lat="53.669078" lon="16.221081"></trkpt><trkpt lat="53.66788" lon="16.218763"></trkpt><trkpt lat="53.667348" lon="16.218265"></trkpt><trkpt lat="53.665" lon="16.215434"></trkpt><trkpt lat="53.664639" lon="16.21461"></trkpt><trkpt lat="53.663694" lon="16.211846"></trkpt><trkpt lat="53.663597" lon="16.211185"></trkpt><trkpt lat="53.663032" lon="16.20835"></trkpt><trkpt lat="53.662799" lon="16.208163"></trkpt><trkpt lat="53.662487" lon="16.208038"></trkpt><trkpt lat="53.661867" lon="16.207876"></trkpt><trkpt lat="53.661421" lon="16.207855"></trkpt><trkpt lat="53.661093" lon="16.207798"></trkpt><trkpt lat="53.660494" lon="16.207582"></trkpt><trkpt lat="53.659239" lon="16.206912"></trkpt><trkpt lat="53.659115" lon="16.206533"></trkpt><trkpt lat="53.659082" lon="16.206106"></trkpt><trkpt lat="53.658565" lon="16.203466"></trkpt><trkpt lat="53.658433" lon="16.203191"></trkpt><trkpt lat="53.658263" lon="16.202898"></trkpt><trkpt lat="53.656568" lon="16.200469"></trkpt><trkpt lat="53.656407" lon="16.200163"></trkpt><trkpt lat="53.656132" lon="16.19934"></trkpt><trkpt lat="53.656007" lon="16.199048"></trkpt><trkpt lat="53.655833" lon="16.198875"></trkpt><trkpt lat="53.655539" lon="16.198783"></trkpt><trkpt lat="53.654992" lon="16.198409"></trkpt><trkpt lat="53.65337" lon="16.196908"></trkpt><trkpt lat="53.652818" lon="16.196184"></trkpt><trkpt lat="53.652339" lon="16.195388"></trkpt><trkpt lat="53.651896" lon="16.194293"></trkpt><trkpt lat="53.651161" lon="16.193005"></trkpt><trkpt lat="53.651068" lon="16.192656"></trkpt><trkpt lat="53.651185" lon="16.192029"></trkpt><trkpt lat="53.651357" lon="16.19078"></trkpt><trkpt lat="53.651165" lon="16.19038"></trkpt><trkpt lat="53.650904" lon="16.189741"></trkpt><trkpt lat="53.65062" lon="16.188685"></trkpt><trkpt lat="53.650316" lon="16.187765"></trkpt><trkpt lat="53.649978" lon="16.186549"></trkpt><trkpt lat="53.650044" lon="16.186197"></trkpt><trkpt lat="53.65053" lon="16.18429"></trkpt><trkpt lat="53.650744" lon="16.18394"></trkpt><trkpt lat="53.652127" lon="16.181322"></trkpt><trkpt lat="53.652245" lon="16.181037"></trkpt><trkpt lat="53.65585" lon="16.170713"></trkpt><trkpt lat="53.655693" lon="16.169843"></trkpt><trkpt lat="53.6555" lon="16.169012"></trkpt><trkpt lat="53.655013" lon="16.168225"></trkpt><trkpt lat="53.654752" lon="16.16771"></trkpt><trkpt lat="53.654702" lon="16.166524"></trkpt><trkpt lat="53.654836" lon="16.166049"></trkpt><trkpt lat="53.655177" lon="16.165426"></trkpt><trkpt lat="53.655782" lon="16.164079"></trkpt><trkpt lat="53.655756" lon="16.163725"></trkpt><trkpt lat="53.655656" lon="16.163391"></trkpt><trkpt lat="53.655292" lon="16.162529"></trkpt><trkpt lat="53.655257" lon="16.162117"></trkpt><trkpt lat="53.655379" lon="16.161466"></trkpt><trkpt lat="53.65573" lon="16.160096"></trkpt><trkpt lat="53.656077" lon="16.159594"></trkpt><trkpt lat="53.656341" lon="16.159265"></trkpt><trkpt lat="53.656529" lon="16.158935"></trkpt><trkpt lat="53.65675" lon="16.158464"></trkpt><trkpt lat="53.657405" lon="16.156474"></trkpt><trkpt lat="53.657354" lon="16.156133"></trkpt><trkpt lat="53.657088" lon="16.155479"></trkpt><trkpt lat="53.656461" lon="16.153678"></trkpt><trkpt lat="53.656498" lon="16.153161"></trkpt><trkpt lat="53.656573" lon="16.152817"></trkpt><trkpt lat="53.656753" lon="16.152185"></trkpt><trkpt lat="53.656952" lon="16.15129"></trkpt><trkpt lat="53.656899" lon="16.150964"></trkpt><trkpt lat="53.656861" lon="16.150489"></trkpt><trkpt lat="53.655622" lon="16.140525"></trkpt><trkpt lat="53.655402" lon="16.139921"></trkpt><trkpt lat="53.654156" lon="16.135782"></trkpt><trkpt lat="53.654163" lon="16.135427"></trkpt><trkpt lat="53.65402" lon="16.132913"></trkpt><trkpt lat="53.653881" lon="16.132129"></trkpt><trkpt lat="53.651651" lon="16.115362"></trkpt><trkpt lat="53.651589" lon="16.114572"></trkpt><trkpt lat="53.651591" lon="16.114228"></trkpt><trkpt lat="53.651547" lon="16.113553"></trkpt><trkpt lat="53.651156" lon="16.110017"></trkpt><trkpt lat="53.650834" lon="16.108709"></trkpt><trkpt lat="53.650702" lon="16.107965"></trkpt><trkpt lat="53.650712" lon="16.10751"></trkpt><trkpt lat="53.650647" lon="16.106294"></trkpt><trkpt lat="53.650482" lon="16.104919"></trkpt><trkpt lat="53.648764" lon="16.095391"></trkpt><trkpt lat="53.648505" lon="16.094459"></trkpt><trkpt lat="53.648501" lon="16.094088"></trkpt><trkpt lat="53.648556" lon="16.093705"></trkpt><trkpt lat="53.649197" lon="16.086965"></trkpt><trkpt lat="53.649533" lon="16.085309"></trkpt><trkpt lat="53.649643" lon="16.084941"></trkpt><trkpt lat="53.649449" lon="16.084608"></trkpt><trkpt lat="53.649811" lon="16.085032"></trkpt><trkpt lat="53.65012" lon="16.085015"></trkpt><trkpt lat="53.650317" lon="16.084768"></trkpt><trkpt lat="53.650998" lon="16.084115"></trkpt><trkpt lat="53.651085" lon="16.083777"></trkpt><trkpt lat="53.651021" lon="16.083031"></trkpt><trkpt lat="53.651141" lon="16.081846"></trkpt><trkpt lat="53.651396" lon="16.081113"></trkpt><trkpt lat="53.651656" lon="16.080705"></trkpt><trkpt lat="53.653079" lon="16.078102"></trkpt><trkpt lat="53.653174" lon="16.076999"></trkpt><trkpt lat="53.653532" lon="16.075827"></trkpt><trkpt lat="53.654151" lon="16.072699"></trkpt><trkpt lat="53.654186" lon="16.072152"></trkpt><trkpt lat="53.654628" lon="16.068672"></trkpt><trkpt lat="53.654843" lon="16.068187"></trkpt><trkpt lat="53.658519" lon="16.058402"></trkpt><trkpt lat="53.6584" lon="16.057588"></trkpt><trkpt lat="53.658366" lon="16.056941"></trkpt><trkpt lat="53.658485" lon="16.055807"></trkpt><trkpt lat="53.658668" lon="16.055087"></trkpt><trkpt lat="53.659003" lon="16.054083"></trkpt><trkpt lat="53.659494" lon="16.052152"></trkpt><trkpt lat="53.659396" lon="16.051774"></trkpt><trkpt lat="53.659251" lon="16.051033"></trkpt><trkpt lat="53.659281" lon="16.050651"></trkpt><trkpt lat="53.659394" lon="16.050316"></trkpt><trkpt lat="53.660011" lon="16.049254"></trkpt><trkpt lat="53.660318" lon="16.048622"></trkpt><trkpt lat="53.660475" lon="16.047394"></trkpt><trkpt lat="53.660635" lon="16.045251"></trkpt><trkpt lat="53.660473" lon="16.044353"></trkpt><trkpt lat="53.660448" lon="16.043333"></trkpt><trkpt lat="53.660476" lon="16.042063"></trkpt><trkpt lat="53.660559" lon="16.041712"></trkpt><trkpt lat="53.660667" lon="16.041416"></trkpt><trkpt lat="53.661448" lon="16.03887"></trkpt><trkpt lat="53.661563" lon="16.038298"></trkpt><trkpt lat="53.661694" lon="16.038007"></trkpt><trkpt lat="53.66211" lon="16.037571"></trkpt><trkpt lat="53.66365" lon="16.035184"></trkpt><trkpt lat="53.663488" lon="16.034643"></trkpt><trkpt lat="53.663382" lon="16.034344"></trkpt><trkpt lat="53.663209" lon="16.033954"></trkpt><trkpt lat="53.662795" lon="16.032688"></trkpt><trkpt lat="53.662838" lon="16.032014"></trkpt><trkpt lat="53.662976" lon="16.031453"></trkpt><trkpt lat="53.663091" lon="16.031097"></trkpt><trkpt lat="53.663233" lon="16.030766"></trkpt><trkpt lat="53.663558" lon="16.030357"></trkpt><trkpt lat="53.663999" lon="16.029902"></trkpt><trkpt lat="53.664448" lon="16.029354"></trkpt><trkpt lat="53.664776" lon="16.028889"></trkpt><trkpt lat="53.665131" lon="16.028279"></trkpt><trkpt lat="53.665402" lon="16.027527"></trkpt><trkpt lat="53.666549" lon="16.023717"></trkpt><trkpt lat="53.666064" lon="16.023846"></trkpt><trkpt lat="53.665483" lon="16.02383"></trkpt><trkpt lat="53.664874" lon="16.023517"></trkpt><trkpt lat="53.664013" lon="16.022941"></trkpt><trkpt lat="53.652428" lon="16.017018"></trkpt><trkpt lat="53.651692" lon="16.017286"></trkpt><trkpt lat="53.650547" lon="16.017422"></trkpt><trkpt lat="53.650385" lon="16.017643"></trkpt><trkpt lat="53.650366" lon="16.01802"></trkpt><trkpt lat="53.65037" lon="16.018374"></trkpt><trkpt lat="53.65035" lon="16.018864"></trkpt><trkpt lat="53.650271" lon="16.019679"></trkpt><trkpt lat="53.649985" lon="16.020908"></trkpt><trkpt lat="53.649942" lon="16.021309"></trkpt><trkpt lat="53.65002" lon="16.021945"></trkpt><trkpt lat="53.650166" lon="16.022422"></trkpt><trkpt lat="53.650414" lon="16.023495"></trkpt><trkpt lat="53.650381" lon="16.023143"></trkpt><trkpt lat="53.65023" lon="16.022616"></trkpt><trkpt lat="53.649958" lon="16.021174"></trkpt><trkpt lat="53.65002" lon="16.020818"></trkpt><trkpt lat="53.650229" lon="16.019899"></trkpt><trkpt lat="53.6503" lon="16.019203"></trkpt><trkpt lat="53.650346" lon="16.018232"></trkpt><trkpt lat="53.650223" lon="16.017391"></trkpt><trkpt lat="53.649994" lon="16.017314"></trkpt><trkpt lat="53.648202" lon="16.016428"></trkpt><trkpt lat="53.647595" lon="16.015714"></trkpt><trkpt lat="53.641514" lon="16.0069"></trkpt><trkpt lat="53.641124" lon="16.005569"></trkpt><trkpt lat="53.640868" lon="16.004386"></trkpt><trkpt lat="53.640695" lon="16.002821"></trkpt><trkpt lat="53.639729" lon="15.996638"></trkpt><trkpt lat="53.639621" lon="15.993508"></trkpt><trkpt lat="53.639708" lon="15.992463"></trkpt><trkpt lat="53.639742" lon="15.988772"></trkpt><trkpt lat="53.639464" lon="15.987358"></trkpt><trkpt lat="53.638914" lon="15.985185"></trkpt><trkpt lat="53.638586" lon="15.984277"></trkpt><trkpt lat="53.638531" lon="15.983937"></trkpt><trkpt lat="53.638539" lon="15.983585"></trkpt><trkpt lat="53.638609" lon="15.983261"></trkpt><trkpt lat="53.639202" lon="15.982282"></trkpt><trkpt lat="53.639616" lon="15.981817"></trkpt><trkpt lat="53.640823" lon="15.980213"></trkpt><trkpt lat="53.640799" lon="15.979858"></trkpt><trkpt lat="53.640468" lon="15.978957"></trkpt><trkpt lat="53.639512" lon="15.976769"></trkpt><trkpt lat="53.638116" lon="15.972997"></trkpt><trkpt lat="53.638459" lon="15.972329"></trkpt><trkpt lat="53.638559" lon="15.971927"></trkpt><trkpt lat="53.638651" lon="15.971246"></trkpt><trkpt lat="53.638778" lon="15.969738"></trkpt><trkpt lat="53.63879" lon="15.969144"></trkpt><trkpt lat="53.638634" lon="15.965076"></trkpt><trkpt lat="53.638433" lon="15.963998"></trkpt><trkpt lat="53.638025" lon="15.962533"></trkpt><trkpt lat="53.637449" lon="15.961391"></trkpt><trkpt lat="53.636565" lon="15.958864"></trkpt><trkpt lat="53.636342" lon="15.957085"></trkpt><trkpt lat="53.635804" lon="15.950176"></trkpt><trkpt lat="53.635969" lon="15.949098"></trkpt><trkpt lat="53.636266" lon="15.945776"></trkpt><trkpt lat="53.636096" lon="15.944546"></trkpt><trkpt lat="53.635866" lon="15.943662"></trkpt><trkpt lat="53.635603" lon="15.94289"></trkpt><trkpt lat="53.635207" lon="15.941912"></trkpt><trkpt lat="53.63473" lon="15.941286"></trkpt><trkpt lat="53.633903" lon="15.940592"></trkpt><trkpt lat="53.630846" lon="15.937261"></trkpt><trkpt lat="53.629054" lon="15.934505"></trkpt><trkpt lat="53.628852" lon="15.933409"></trkpt><trkpt lat="53.628168" lon="15.930547"></trkpt><trkpt lat="53.627793" lon="15.930082"></trkpt><trkpt lat="53.627098" lon="15.928775"></trkpt><trkpt lat="53.627254" lon="15.927919"></trkpt><trkpt lat="53.627277" lon="15.927573"></trkpt><trkpt lat="53.627178" lon="15.926832"></trkpt><trkpt lat="53.627006" lon="15.926188"></trkpt><trkpt lat="53.626715" lon="15.925312"></trkpt><trkpt lat="53.626521" lon="15.924305"></trkpt><trkpt lat="53.626325" lon="15.923517"></trkpt><trkpt lat="53.62611" lon="15.922805"></trkpt><trkpt lat="53.625778" lon="15.922332"></trkpt><trkpt lat="53.625325" lon="15.922185"></trkpt><trkpt lat="53.624728" lon="15.922283"></trkpt><trkpt lat="53.62416" lon="15.922684"></trkpt><trkpt lat="53.623334" lon="15.923522"></trkpt><trkpt lat="53.622507" lon="15.924108"></trkpt><trkpt lat="53.622709" lon="15.924119"></trkpt><trkpt lat="53.623461" lon="15.923427"></trkpt><trkpt lat="53.625066" lon="15.922264"></trkpt><trkpt lat="53.625611" lon="15.922293"></trkpt><trkpt lat="53.625762" lon="15.922053"></trkpt><trkpt lat="53.625695" lon="15.921707"></trkpt><trkpt lat="53.625584" lon="15.921399"></trkpt><trkpt lat="53.62487" lon="15.919737"></trkpt><trkpt lat="53.624732" lon="15.919342"></trkpt><trkpt lat="53.624748" lon="15.918955"></trkpt><trkpt lat="53.625125" lon="15.916027"></trkpt><trkpt lat="53.625332" lon="15.915982"></trkpt><trkpt lat="53.625566" lon="15.915982"></trkpt><trkpt lat="53.625785" lon="15.916094"></trkpt><trkpt lat="53.6261" lon="15.916152"></trkpt><trkpt lat="53.626425" lon="15.916036"></trkpt><trkpt lat="53.626566" lon="15.915797"></trkpt><trkpt lat="53.62674" lon="15.915563"></trkpt><trkpt lat="53.627131" lon="15.914907"></trkpt><trkpt lat="53.627518" lon="15.914399"></trkpt><trkpt lat="53.628326" lon="15.91356"></trkpt><trkpt lat="53.62853" lon="15.913443"></trkpt><trkpt lat="53.628885" lon="15.913365"></trkpt><trkpt lat="53.629055" lon="15.91317"></trkpt><trkpt lat="53.629162" lon="15.912838"></trkpt><trkpt lat="53.62921" lon="15.912444"></trkpt><trkpt lat="53.629353" lon="15.911787"></trkpt><trkpt lat="53.6296" lon="15.911219"></trkpt><trkpt lat="53.629771" lon="15.910574"></trkpt><trkpt lat="53.629906" lon="15.910211"></trkpt><trkpt lat="53.63009" lon="15.910005"></trkpt><trkpt lat="53.63053" lon="15.90959"></trkpt><trkpt lat="53.631029" lon="15.909271"></trkpt><trkpt lat="53.632276" lon="15.908707"></trkpt><trkpt lat="53.63246" lon="15.908502"></trkpt><trkpt lat="53.632755" lon="15.907981"></trkpt><trkpt lat="53.632897" lon="15.90768"></trkpt><trkpt lat="53.633098" lon="15.906984"></trkpt><trkpt lat="53.633199" lon="15.906458"></trkpt><trkpt lat="53.633479" lon="15.905425"></trkpt><trkpt lat="53.633756" lon="15.905054"></trkpt><trkpt lat="53.634133" lon="15.904424"></trkpt><trkpt lat="53.634152" lon="15.904061"></trkpt><trkpt lat="53.634154" lon="15.903662"></trkpt><trkpt lat="53.634073" lon="15.903302"></trkpt><trkpt lat="53.633863" lon="15.902536"></trkpt><trkpt lat="53.633686" lon="15.901684"></trkpt><trkpt lat="53.633763" lon="15.901022"></trkpt><trkpt lat="53.633777" lon="15.898358"></trkpt><trkpt lat="53.633629" lon="15.897781"></trkpt><trkpt lat="53.633525" lon="15.897153"></trkpt><trkpt lat="53.63354" lon="15.896668"></trkpt><trkpt lat="53.633496" lon="15.895208"></trkpt><trkpt lat="53.633317" lon="15.894715"></trkpt><trkpt lat="53.633146" lon="15.894317"></trkpt><trkpt lat="53.632965" lon="15.893822"></trkpt><trkpt lat="53.632739" lon="15.893309"></trkpt><trkpt lat="53.632453" lon="15.892752"></trkpt><trkpt lat="53.631466" lon="15.889681"></trkpt><trkpt lat="53.631529" lon="15.888987"></trkpt><trkpt lat="53.631583" lon="15.886548"></trkpt><trkpt lat="53.631386" lon="15.886214"></trkpt><trkpt lat="53.630119" lon="15.883695"></trkpt><trkpt lat="53.628497" lon="15.880917"></trkpt><trkpt lat="53.627999" lon="15.880834"></trkpt><trkpt lat="53.627786" lon="15.880744"></trkpt><trkpt lat="53.627463" lon="15.880513"></trkpt><trkpt lat="53.627154" lon="15.880108"></trkpt><trkpt lat="53.626916" lon="15.879694"></trkpt><trkpt lat="53.626646" lon="15.879068"></trkpt><trkpt lat="53.625511" lon="15.877158"></trkpt><trkpt lat="53.625188" lon="15.876427"></trkpt><trkpt lat="53.625054" lon="15.875867"></trkpt><trkpt lat="53.624986" lon="15.875505"></trkpt><trkpt lat="53.624856" lon="15.874488"></trkpt><trkpt lat="53.624766" lon="15.873323"></trkpt><trkpt lat="53.624453" lon="15.871345"></trkpt><trkpt lat="53.624202" lon="15.870887"></trkpt><trkpt lat="53.623666" lon="15.869572"></trkpt><trkpt lat="53.620711" lon="15.861065"></trkpt><trkpt lat="53.619345" lon="15.856115"></trkpt><trkpt lat="53.619142" lon="15.855111"></trkpt><trkpt lat="53.619043" lon="15.854762"></trkpt><trkpt lat="53.618765" lon="15.854191"></trkpt><trkpt lat="53.618168" lon="15.852718"></trkpt><trkpt lat="53.618069" lon="15.851754"></trkpt><trkpt lat="53.618028" lon="15.850392"></trkpt><trkpt lat="53.617947" lon="15.849539"></trkpt><trkpt lat="53.617777" lon="15.848723"></trkpt><trkpt lat="53.617504" lon="15.847837"></trkpt><trkpt lat="53.617071" lon="15.846861"></trkpt><trkpt lat="53.616661" lon="15.845782"></trkpt><trkpt lat="53.616334" lon="15.844705"></trkpt><trkpt lat="53.616036" lon="15.842996"></trkpt><trkpt lat="53.61547" lon="15.840434"></trkpt><trkpt lat="53.614987" lon="15.839102"></trkpt><trkpt lat="53.614545" lon="15.838079"></trkpt><trkpt lat="53.612285" lon="15.831996"></trkpt><trkpt lat="53.612606" lon="15.830752"></trkpt><trkpt lat="53.614059" lon="15.826119"></trkpt><trkpt lat="53.614044" lon="15.825552"></trkpt><trkpt lat="53.614082" lon="15.825091"></trkpt><trkpt lat="53.614085" lon="15.824672"></trkpt><trkpt lat="53.614128" lon="15.823948"></trkpt><trkpt lat="53.61431" lon="15.823108"></trkpt><trkpt lat="53.61458" lon="15.822297"></trkpt><trkpt lat="53.615249" lon="15.822284"></trkpt><trkpt lat="53.617576" lon="15.821921"></trkpt><trkpt lat="53.618167" lon="15.821184"></trkpt><trkpt lat="53.61825" lon="15.820852"></trkpt><trkpt lat="53.618238" lon="15.819851"></trkpt><trkpt lat="53.617553" lon="15.810973"></trkpt><trkpt lat="53.617296" lon="15.810228"></trkpt><trkpt lat="53.617249" lon="15.809812"></trkpt><trkpt lat="53.617253" lon="15.80924"></trkpt><trkpt lat="53.617331" lon="15.808683"></trkpt><trkpt lat="53.617306" lon="15.80809"></trkpt><trkpt lat="53.617365" lon="15.807299"></trkpt><trkpt lat="53.617745" lon="15.804948"></trkpt><trkpt lat="53.618121" lon="15.803845"></trkpt><trkpt lat="53.618585" lon="15.802687"></trkpt><trkpt lat="53.619975" lon="15.799698"></trkpt><trkpt lat="53.620214" lon="15.798988"></trkpt><trkpt lat="53.620343" lon="15.798359"></trkpt><trkpt lat="53.620591" lon="15.797599"></trkpt><trkpt lat="53.621518" lon="15.795176"></trkpt><trkpt lat="53.621904" lon="15.794777"></trkpt><trkpt lat="53.622356" lon="15.794074"></trkpt><trkpt lat="53.622683" lon="15.793349"></trkpt><trkpt lat="53.62275" lon="15.792964"></trkpt><trkpt lat="53.622779" lon="15.791488"></trkpt><trkpt lat="53.622605" lon="15.78868"></trkpt><trkpt lat="53.622439" lon="15.78823"></trkpt><trkpt lat="53.622005" lon="15.787238"></trkpt><trkpt lat="53.620684" lon="15.783725"></trkpt><trkpt lat="53.620334" lon="15.783032"></trkpt><trkpt lat="53.62042" lon="15.782406"></trkpt><trkpt lat="53.620541" lon="15.78177"></trkpt><trkpt lat="53.620687" lon="15.781321"></trkpt><trkpt lat="53.620814" lon="15.780748"></trkpt><trkpt lat="53.620743" lon="15.78023"></trkpt><trkpt lat="53.620723" lon="15.77967"></trkpt><trkpt lat="53.62075" lon="15.77858"></trkpt><trkpt lat="53.620707" lon="15.777656"></trkpt><trkpt lat="53.620714" lon="15.776783"></trkpt><trkpt lat="53.620987" lon="15.775817"></trkpt><trkpt lat="53.621074" lon="15.775318"></trkpt><trkpt lat="53.621122" lon="15.774646"></trkpt><trkpt lat="53.621407" lon="15.772237"></trkpt><trkpt lat="53.621574" lon="15.771757"></trkpt><trkpt lat="53.621754" lon="15.77025"></trkpt><trkpt lat="53.622233" lon="15.763149"></trkpt><trkpt lat="53.622208" lon="15.762324"></trkpt><trkpt lat="53.622267" lon="15.761367"></trkpt><trkpt lat="53.622503" lon="15.749068"></trkpt><trkpt lat="53.622317" lon="15.748941"></trkpt><trkpt lat="53.621959" lon="15.748841"></trkpt><trkpt lat="53.621529" lon="15.748778"></trkpt><trkpt lat="53.618982" lon="15.747853"></trkpt><trkpt lat="53.61812" lon="15.747003"></trkpt><trkpt lat="53.616329" lon="15.745772"></trkpt><trkpt lat="53.615548" lon="15.745507"></trkpt><trkpt lat="53.611049" lon="15.743299"></trkpt><trkpt lat="53.610728" lon="15.743071"></trkpt><trkpt lat="53.610351" lon="15.742695"></trkpt><trkpt lat="53.61049" lon="15.741603"></trkpt><trkpt lat="53.610526" lon="15.736087"></trkpt><trkpt lat="53.610151" lon="15.735439"></trkpt><trkpt lat="53.608185" lon="15.732705"></trkpt><trkpt lat="53.607722" lon="15.732245"></trkpt><trkpt lat="53.607591" lon="15.731981"></trkpt><trkpt lat="53.607494" lon="15.731681"></trkpt><trkpt lat="53.607345" lon="15.730606"></trkpt><trkpt lat="53.604779" lon="15.701148"></trkpt><trkpt lat="53.605108" lon="15.699981"></trkpt><trkpt lat="53.605407" lon="15.699116"></trkpt><trkpt lat="53.608607" lon="15.691378"></trkpt><trkpt lat="53.609227" lon="15.690327"></trkpt><trkpt lat="53.613606" lon="15.681668"></trkpt><trkpt lat="53.613972" lon="15.680413"></trkpt><trkpt lat="53.622162" lon="15.65678"></trkpt><trkpt lat="53.622738" lon="15.655696"></trkpt><trkpt lat="53.625539" lon="15.651119"></trkpt><trkpt lat="53.626056" lon="15.650434"></trkpt><trkpt lat="53.635754" lon="15.635468"></trkpt><trkpt lat="53.636168" lon="15.634214"></trkpt><trkpt lat="53.636842" lon="15.632566"></trkpt><trkpt lat="53.637174" lon="15.631884"></trkpt><trkpt lat="53.63737" lon="15.631704"></trkpt><trkpt lat="53.638995" lon="15.629689"></trkpt><trkpt lat="53.639267" lon="15.629047"></trkpt><trkpt lat="53.63908" lon="15.628164"></trkpt><trkpt lat="53.638801" lon="15.627276"></trkpt><trkpt lat="53.638312" lon="15.625284"></trkpt><trkpt lat="53.638532" lon="15.624105"></trkpt><trkpt lat="53.638713" lon="15.6234"></trkpt><trkpt lat="53.639153" lon="15.621212"></trkpt><trkpt lat="53.634342" lon="15.617655"></trkpt></trkseg></trk></gpx>