<?xml version="1.0" encoding="UTF-8" standalone="no" ?><gpx xmlns="http://www.topografix.com/GPX/1/1" xmlns:gpxx="http://www.garmin.com/xmlschemas/GpxExtensions/v3" ><trk><trkseg><trkpt lat="53.977444" lon="19.087387"></trkpt><trkpt lat="53.977775" lon="19.086926"></trkpt><trkpt lat="53.977631" lon="19.087211"></trkpt><trkpt lat="53.977724" lon="19.087567"></trkpt><trkpt lat="53.977935" lon="19.087742"></trkpt><trkpt lat="53.978604" lon="19.087735"></trkpt><trkpt lat="53.978623" lon="19.087317"></trkpt><trkpt lat="53.978183" lon="19.086553"></trkpt><trkpt lat="53.97722" lon="19.085718"></trkpt><trkpt lat="53.977034" lon="19.085841"></trkpt><trkpt lat="53.976524" lon="19.08627"></trkpt><trkpt lat="53.976323" lon="19.086404"></trkpt><trkpt lat="53.975511" lon="19.086682"></trkpt><trkpt lat="53.974959" lon="19.086779"></trkpt><trkpt lat="53.974207" lon="19.086527"></trkpt><trkpt lat="53.974014" lon="19.086284"></trkpt><trkpt lat="53.973584" lon="19.085497"></trkpt><trkpt lat="53.97334" lon="19.084799"></trkpt><trkpt lat="53.972968" lon="19.083324"></trkpt><trkpt lat="53.972948" lon="19.082517"></trkpt><trkpt lat="53.972905" lon="19.081962"></trkpt><trkpt lat="53.972714" lon="19.081166"></trkpt><trkpt lat="53.97252" lon="19.080747"></trkpt><trkpt lat="53.967355" lon="19.071086"></trkpt><trkpt lat="53.96696" lon="19.071459"></trkpt><trkpt lat="53.966757" lon="19.071587"></trkpt><trkpt lat="53.966441" lon="19.071611"></trkpt><trkpt lat="53.965724" lon="19.071188"></trkpt><trkpt lat="53.965518" lon="19.071165"></trkpt><trkpt lat="53.965245" lon="19.071442"></trkpt><trkpt lat="53.964965" lon="19.071795"></trkpt><trkpt lat="53.961767" lon="19.074618"></trkpt><trkpt lat="53.961524" lon="19.074518"></trkpt><trkpt lat="53.961091" lon="19.074118"></trkpt><trkpt lat="53.960654" lon="19.073806"></trkpt><trkpt lat="53.95943" lon="19.073142"></trkpt><trkpt lat="53.949504" lon="19.066359"></trkpt><trkpt lat="53.94915" lon="19.06589"></trkpt><trkpt lat="53.948789" lon="19.065333"></trkpt><trkpt lat="53.94833" lon="19.064905"></trkpt><trkpt lat="53.947799" lon="19.064599"></trkpt><trkpt lat="53.946851" lon="19.063599"></trkpt><trkpt lat="53.946217" lon="19.062397"></trkpt><trkpt lat="53.945686" lon="19.061845"></trkpt><trkpt lat="53.945084" lon="19.061401"></trkpt><trkpt lat="53.942641" lon="19.059221"></trkpt><trkpt lat="53.942394" lon="19.058957"></trkpt><trkpt lat="53.941988" lon="19.058354"></trkpt><trkpt lat="53.941499" lon="19.057517"></trkpt><trkpt lat="53.935147" lon="19.048117"></trkpt><trkpt lat="53.934494" lon="19.047613"></trkpt><trkpt lat="53.933885" lon="19.047025"></trkpt><trkpt lat="53.933706" lon="19.046821"></trkpt><trkpt lat="53.931465" lon="19.044705"></trkpt><trkpt lat="53.930947" lon="19.044705"></trkpt><trkpt lat="53.929525" lon="19.04428"></trkpt><trkpt lat="53.928826" lon="19.043848"></trkpt><trkpt lat="53.92834" lon="19.043619"></trkpt><trkpt lat="53.927897" lon="19.04328"></trkpt><trkpt lat="53.9273" lon="19.042642"></trkpt><trkpt lat="53.925877" lon="19.041621"></trkpt><trkpt lat="53.925482" lon="19.041483"></trkpt><trkpt lat="53.91979" lon="19.038532"></trkpt><trkpt lat="53.919593" lon="19.037604"></trkpt><trkpt lat="53.919541" lon="19.037122"></trkpt><trkpt lat="53.919087" lon="19.036994"></trkpt><trkpt lat="53.918872" lon="19.036813"></trkpt><trkpt lat="53.918646" lon="19.036764"></trkpt><trkpt lat="53.918295" lon="19.036407"></trkpt><trkpt lat="53.917896" lon="19.0361"></trkpt><trkpt lat="53.917324" lon="19.035805"></trkpt><trkpt lat="53.917153" lon="19.035592"></trkpt><trkpt lat="53.917015" lon="19.035911"></trkpt><trkpt lat="53.916669" lon="19.036487"></trkpt><trkpt lat="53.916484" lon="19.036729"></trkpt><trkpt lat="53.916284" lon="19.036952"></trkpt><trkpt lat="53.916094" lon="19.036844"></trkpt><trkpt lat="53.915748" lon="19.036306"></trkpt><trkpt lat="53.915581" lon="19.036089"></trkpt><trkpt lat="53.915667" lon="19.035781"></trkpt><trkpt lat="53.915565" lon="19.03544"></trkpt><trkpt lat="53.915515" lon="19.03507"></trkpt><trkpt lat="53.915228" lon="19.035134"></trkpt><trkpt lat="53.915002" lon="19.03536"></trkpt><trkpt lat="53.914818" lon="19.035579"></trkpt><trkpt lat="53.914704" lon="19.036027"></trkpt><trkpt lat="53.914614" lon="19.036535"></trkpt><trkpt lat="53.91457" lon="19.037125"></trkpt><trkpt lat="53.914499" lon="19.039572"></trkpt><trkpt lat="53.914536" lon="19.040171"></trkpt><trkpt lat="53.91483" lon="19.041036"></trkpt><trkpt lat="53.914984" lon="19.041644"></trkpt><trkpt lat="53.91501" lon="19.042019"></trkpt><trkpt lat="53.9152" lon="19.042304"></trkpt><trkpt lat="53.915246" lon="19.043034"></trkpt><trkpt lat="53.915156" lon="19.043698"></trkpt><trkpt lat="53.914936" lon="19.044327"></trkpt><trkpt lat="53.914618" lon="19.045068"></trkpt><trkpt lat="53.914459" lon="19.045299"></trkpt><trkpt lat="53.913892" lon="19.045789"></trkpt><trkpt lat="53.913696" lon="19.04567"></trkpt><trkpt lat="53.913618" lon="19.046046"></trkpt><trkpt lat="53.913493" lon="19.046473"></trkpt><trkpt lat="53.913069" lon="19.046838"></trkpt><trkpt lat="53.912468" lon="19.046922"></trkpt><trkpt lat="53.911385" lon="19.047219"></trkpt><trkpt lat="53.91105" lon="19.047446"></trkpt><trkpt lat="53.909329" lon="19.048116"></trkpt><trkpt lat="53.908724" lon="19.048037"></trkpt><trkpt lat="53.906364" lon="19.047369"></trkpt><trkpt lat="53.905982" lon="19.047117"></trkpt><trkpt lat="53.898066" lon="19.043166"></trkpt><trkpt lat="53.897332" lon="19.043171"></trkpt><trkpt lat="53.896694" lon="19.043014"></trkpt><trkpt lat="53.895927" lon="19.042615"></trkpt><trkpt lat="53.894936" lon="19.042229"></trkpt><trkpt lat="53.894571" lon="19.042242"></trkpt><trkpt lat="53.882937" lon="19.04405"></trkpt><trkpt lat="53.882463" lon="19.044466"></trkpt><trkpt lat="53.874065" lon="19.053717"></trkpt><trkpt lat="53.873769" lon="19.05456"></trkpt><trkpt lat="53.87324" lon="19.055652"></trkpt><trkpt lat="53.872755" lon="19.056103"></trkpt><trkpt lat="53.871813" lon="19.057281"></trkpt><trkpt lat="53.871494" lon="19.057801"></trkpt><trkpt lat="53.871253" lon="19.057997"></trkpt><trkpt lat="53.870886" lon="19.058161"></trkpt><trkpt lat="53.870684" lon="19.05788"></trkpt><trkpt lat="53.870517" lon="19.057573"></trkpt><trkpt lat="53.870217" lon="19.057137"></trkpt><trkpt lat="53.869845" lon="19.056285"></trkpt><trkpt lat="53.869192" lon="19.055388"></trkpt><trkpt lat="53.86869" lon="19.05484"></trkpt><trkpt lat="53.868314" lon="19.054595"></trkpt><trkpt lat="53.867526" lon="19.054238"></trkpt><trkpt lat="53.867225" lon="19.054237"></trkpt><trkpt lat="53.866794" lon="19.054392"></trkpt><trkpt lat="53.866017" lon="19.054777"></trkpt><trkpt lat="53.862452" lon="19.057054"></trkpt><trkpt lat="53.861944" lon="19.057666"></trkpt><trkpt lat="53.86155" lon="19.058389"></trkpt><trkpt lat="53.861045" lon="19.0591"></trkpt><trkpt lat="53.86022" lon="19.059843"></trkpt><trkpt lat="53.85993" lon="19.060265"></trkpt><trkpt lat="53.859664" lon="19.060949"></trkpt><trkpt lat="53.859439" lon="19.061725"></trkpt><trkpt lat="53.859369" lon="19.062062"></trkpt><trkpt lat="53.859194" lon="19.062224"></trkpt><trkpt lat="53.857907" lon="19.063629"></trkpt><trkpt lat="53.857467" lon="19.064031"></trkpt><trkpt lat="53.857202" lon="19.064318"></trkpt><trkpt lat="53.855354" lon="19.065999"></trkpt><trkpt lat="53.85498" lon="19.065873"></trkpt><trkpt lat="53.849295" lon="19.063195"></trkpt><trkpt lat="53.848687" lon="19.062781"></trkpt><trkpt lat="53.841558" lon="19.056761"></trkpt><trkpt lat="53.841457" lon="19.056392"></trkpt><trkpt lat="53.840862" lon="19.055646"></trkpt><trkpt lat="53.839657" lon="19.053424"></trkpt><trkpt lat="53.839574" lon="19.053009"></trkpt><trkpt lat="53.836143" lon="19.040162"></trkpt><trkpt lat="53.835535" lon="19.039234"></trkpt><trkpt lat="53.835099" lon="19.038447"></trkpt><trkpt lat="53.831219" lon="19.032609"></trkpt><trkpt lat="53.830705" lon="19.032705"></trkpt><trkpt lat="53.826659" lon="19.033996"></trkpt><trkpt lat="53.826188" lon="19.034327"></trkpt><trkpt lat="53.825606" lon="19.035052"></trkpt><trkpt lat="53.824809" lon="19.0359"></trkpt><trkpt lat="53.821331" lon="19.038556"></trkpt><trkpt lat="53.820805" lon="19.037868"></trkpt><trkpt lat="53.820574" lon="19.037755"></trkpt><trkpt lat="53.820342" lon="19.037825"></trkpt><trkpt lat="53.819873" lon="19.038403"></trkpt><trkpt lat="53.819528" lon="19.03895"></trkpt><trkpt lat="53.817997" lon="19.041784"></trkpt><trkpt lat="53.817876" lon="19.042148"></trkpt><trkpt lat="53.817561" lon="19.042676"></trkpt><trkpt lat="53.8173" lon="19.043202"></trkpt><trkpt lat="53.817132" lon="19.043429"></trkpt><trkpt lat="53.816723" lon="19.043897"></trkpt><trkpt lat="53.816005" lon="19.04447"></trkpt><trkpt lat="53.814426" lon="19.046002"></trkpt><trkpt lat="53.813617" lon="19.046973"></trkpt><trkpt lat="53.812329" lon="19.048971"></trkpt><trkpt lat="53.811842" lon="19.05"></trkpt><trkpt lat="53.806943" lon="19.058508"></trkpt><trkpt lat="53.806272" lon="19.058908"></trkpt><trkpt lat="53.800065" lon="19.060831"></trkpt><trkpt lat="53.7998" lon="19.059823"></trkpt><trkpt lat="53.79926" lon="19.056985"></trkpt><trkpt lat="53.799033" lon="19.055366"></trkpt><trkpt lat="53.798307" lon="19.051793"></trkpt><trkpt lat="53.797859" lon="19.050362"></trkpt><trkpt lat="53.793369" lon="19.038199"></trkpt><trkpt lat="53.792801" lon="19.037089"></trkpt><trkpt lat="53.79217" lon="19.036026"></trkpt><trkpt lat="53.79187" lon="19.035678"></trkpt><trkpt lat="53.791661" lon="19.035476"></trkpt><trkpt lat="53.778469" lon="19.020528"></trkpt><trkpt lat="53.77811" lon="19.019791"></trkpt><trkpt lat="53.777032" lon="19.018005"></trkpt><trkpt lat="53.776663" lon="19.017584"></trkpt><trkpt lat="53.774237" lon="19.014363"></trkpt><trkpt lat="53.773964" lon="19.013815"></trkpt><trkpt lat="53.772647" lon="19.011558"></trkpt><trkpt lat="53.772031" lon="19.012287"></trkpt><trkpt lat="53.771804" lon="19.0125"></trkpt><trkpt lat="53.770324" lon="19.013633"></trkpt><trkpt lat="53.769667" lon="19.014013"></trkpt><trkpt lat="53.768193" lon="19.014617"></trkpt><trkpt lat="53.767799" lon="19.014518"></trkpt><trkpt lat="53.767124" lon="19.014099"></trkpt><trkpt lat="53.766864" lon="19.013835"></trkpt><trkpt lat="53.766038" lon="19.013348"></trkpt><trkpt lat="53.765517" lon="19.013302"></trkpt><trkpt lat="53.765274" lon="19.013369"></trkpt><trkpt lat="53.764651" lon="19.013642"></trkpt><trkpt lat="53.764453" lon="19.013764"></trkpt><trkpt lat="53.76407" lon="19.013948"></trkpt><trkpt lat="53.763843" lon="19.014094"></trkpt><trkpt lat="53.762576" lon="19.015104"></trkpt><trkpt lat="53.761644" lon="19.015639"></trkpt><trkpt lat="53.761253" lon="19.015741"></trkpt><trkpt lat="53.760743" lon="19.015752"></trkpt><trkpt lat="53.76021" lon="19.015633"></trkpt><trkpt lat="53.75934" lon="19.015544"></trkpt><trkpt lat="53.758359" lon="19.015811"></trkpt><trkpt lat="53.757852" lon="19.016216"></trkpt><trkpt lat="53.756225" lon="19.017873"></trkpt><trkpt lat="53.755981" lon="19.018483"></trkpt><trkpt lat="53.755652" lon="19.018995"></trkpt><trkpt lat="53.755306" lon="19.019333"></trkpt><trkpt lat="53.753612" lon="19.0213"></trkpt><trkpt lat="53.753409" lon="19.021474"></trkpt><trkpt lat="53.753177" lon="19.02172"></trkpt><trkpt lat="53.752859" lon="19.021954"></trkpt><trkpt lat="53.752519" lon="19.022113"></trkpt><trkpt lat="53.752213" lon="19.022141"></trkpt><trkpt lat="53.751887" lon="19.022213"></trkpt><trkpt lat="53.751578" lon="19.022529"></trkpt><trkpt lat="53.751285" lon="19.02275"></trkpt><trkpt lat="53.750962" lon="19.022899"></trkpt><trkpt lat="53.74249" lon="19.025735"></trkpt><trkpt lat="53.741634" lon="19.025917"></trkpt><trkpt lat="53.736615" lon="19.027605"></trkpt><trkpt lat="53.736174" lon="19.027847"></trkpt><trkpt lat="53.729528" lon="19.033144"></trkpt><trkpt lat="53.72983" lon="19.033996"></trkpt><trkpt lat="53.730231" lon="19.036046"></trkpt><trkpt lat="53.730163" lon="19.037411"></trkpt><trkpt lat="53.729439" lon="19.042228"></trkpt><trkpt lat="53.729222" lon="19.042666"></trkpt><trkpt lat="53.729121" lon="19.042961"></trkpt><trkpt lat="53.727784" lon="19.046049"></trkpt><trkpt lat="53.727103" lon="19.046425"></trkpt><trkpt lat="53.726599" lon="19.046608"></trkpt><trkpt lat="53.720592" lon="19.049615"></trkpt><trkpt lat="53.720307" lon="19.050031"></trkpt><trkpt lat="53.719319" lon="19.051278"></trkpt><trkpt lat="53.719123" lon="19.051484"></trkpt><trkpt lat="53.715086" lon="19.054794"></trkpt><trkpt lat="53.714284" lon="19.05519"></trkpt><trkpt lat="53.713598" lon="19.055641"></trkpt><trkpt lat="53.713141" lon="19.056241"></trkpt><trkpt lat="53.712574" lon="19.057234"></trkpt><trkpt lat="53.709821" lon="19.062787"></trkpt><trkpt lat="53.709671" lon="19.063448"></trkpt><trkpt lat="53.709456" lon="19.064048"></trkpt><trkpt lat="53.70923" lon="19.064425"></trkpt><trkpt lat="53.708878" lon="19.064808"></trkpt><trkpt lat="53.708562" lon="19.065085"></trkpt><trkpt lat="53.706175" lon="19.067559"></trkpt><trkpt lat="53.705866" lon="19.067938"></trkpt><trkpt lat="53.702736" lon="19.071064"></trkpt><trkpt lat="53.702529" lon="19.070995"></trkpt><trkpt lat="53.701956" lon="19.070547"></trkpt><trkpt lat="53.701499" lon="19.069988"></trkpt><trkpt lat="53.701181" lon="19.069831"></trkpt><trkpt lat="53.701022" lon="19.069621"></trkpt><trkpt lat="53.700757" lon="19.070031"></trkpt><trkpt lat="53.700052" lon="19.070247"></trkpt><trkpt lat="53.697924" lon="19.071189"></trkpt><trkpt lat="53.69772" lon="19.071324"></trkpt><trkpt lat="53.697312" lon="19.07151"></trkpt><trkpt lat="53.693621" lon="19.069187"></trkpt><trkpt lat="53.693137" lon="19.06856"></trkpt><trkpt lat="53.692611" lon="19.068018"></trkpt><trkpt lat="53.692302" lon="19.06776"></trkpt><trkpt lat="53.692009" lon="19.067576"></trkpt><trkpt lat="53.691469" lon="19.067396"></trkpt><trkpt lat="53.69127" lon="19.067376"></trkpt><trkpt lat="53.690508" lon="19.067199"></trkpt><trkpt lat="53.690236" lon="19.067097"></trkpt><trkpt lat="53.687592" lon="19.066435"></trkpt><trkpt lat="53.68656" lon="19.065988"></trkpt><trkpt lat="53.676292" lon="19.059986"></trkpt><trkpt lat="53.676144" lon="19.059358"></trkpt><trkpt lat="53.675894" lon="19.058711"></trkpt><trkpt lat="53.675588" lon="19.058044"></trkpt><trkpt lat="53.675345" lon="19.05742"></trkpt><trkpt lat="53.675141" lon="19.056688"></trkpt><trkpt lat="53.674381" lon="19.053336"></trkpt><trkpt lat="53.674535" lon="19.052885"></trkpt><trkpt lat="53.674869" lon="19.052209"></trkpt><trkpt lat="53.675011" lon="19.051825"></trkpt><trkpt lat="53.674869" lon="19.051542"></trkpt><trkpt lat="53.674236" lon="19.050981"></trkpt><trkpt lat="53.672297" lon="19.049558"></trkpt><trkpt lat="53.671705" lon="19.049374"></trkpt><trkpt lat="53.669862" lon="19.048395"></trkpt><trkpt lat="53.66936" lon="19.047622"></trkpt><trkpt lat="53.661356" lon="19.036956"></trkpt><trkpt lat="53.661161" lon="19.03674"></trkpt><trkpt lat="53.659327" lon="19.035663"></trkpt><trkpt lat="53.659087" lon="19.03623"></trkpt><trkpt lat="53.658637" lon="19.037119"></trkpt><trkpt lat="53.658117" lon="19.037706"></trkpt><trkpt lat="53.657137" lon="19.039024"></trkpt><trkpt lat="53.656675" lon="19.039761"></trkpt><trkpt lat="53.656612" lon="19.040092"></trkpt><trkpt lat="53.65659" lon="19.04069"></trkpt><trkpt lat="53.656152" lon="19.042095"></trkpt><trkpt lat="53.655302" lon="19.044269"></trkpt><trkpt lat="53.654541" lon="19.044966"></trkpt><trkpt lat="53.645112" lon="19.051919"></trkpt><trkpt lat="53.644826" lon="19.051646"></trkpt><trkpt lat="53.644442" lon="19.05148"></trkpt><trkpt lat="53.643993" lon="19.051586"></trkpt><trkpt lat="53.63421" lon="19.055125"></trkpt><trkpt lat="53.633993" lon="19.055548"></trkpt><trkpt lat="53.633819" lon="19.055941"></trkpt><trkpt lat="53.632731" lon="19.058028"></trkpt><trkpt lat="53.632367" lon="19.058448"></trkpt><trkpt lat="53.629615" lon="19.06076"></trkpt><trkpt lat="53.628748" lon="19.06104"></trkpt><trkpt lat="53.625226" lon="19.062707"></trkpt><trkpt lat="53.624683" lon="19.063395"></trkpt><trkpt lat="53.62246" lon="19.065703"></trkpt><trkpt lat="53.622212" lon="19.065817"></trkpt><trkpt lat="53.620871" lon="19.066256"></trkpt><trkpt lat="53.61778" lon="19.06777"></trkpt><trkpt lat="53.61695" lon="19.068452"></trkpt><trkpt lat="53.61649" lon="19.068907"></trkpt><trkpt lat="53.616099" lon="19.069123"></trkpt><trkpt lat="53.615701" lon="19.069563"></trkpt><trkpt lat="53.614364" lon="19.071366"></trkpt><trkpt lat="53.612411" lon="19.073581"></trkpt><trkpt lat="53.611477" lon="19.074427"></trkpt><trkpt lat="53.611078" lon="19.073862"></trkpt><trkpt lat="53.610795" lon="19.07358"></trkpt><trkpt lat="53.609707" lon="19.072286"></trkpt><trkpt lat="53.607694" lon="19.070346"></trkpt><trkpt lat="53.606898" lon="19.070132"></trkpt><trkpt lat="53.605211" lon="19.069299"></trkpt><trkpt lat="53.604967" lon="19.068992"></trkpt><trkpt lat="53.604781" lon="19.068862"></trkpt><trkpt lat="53.604572" lon="19.068668"></trkpt><trkpt lat="53.604252" lon="19.068267"></trkpt><trkpt lat="53.602412" lon="19.066347"></trkpt><trkpt lat="53.602368" lon="19.065868"></trkpt><trkpt lat="53.602087" lon="19.065765"></trkpt><trkpt lat="53.600792" lon="19.06512"></trkpt><trkpt lat="53.600432" lon="19.064999"></trkpt><trkpt lat="53.597813" lon="19.06448"></trkpt><trkpt lat="53.59754" lon="19.064476"></trkpt><trkpt lat="53.595228" lon="19.064083"></trkpt><trkpt lat="53.59467" lon="19.063669"></trkpt><trkpt lat="53.594081" lon="19.063076"></trkpt><trkpt lat="53.593833" lon="19.062966"></trkpt><trkpt lat="53.593327" lon="19.062549"></trkpt><trkpt lat="53.592968" lon="19.062308"></trkpt><trkpt lat="53.592754" lon="19.062293"></trkpt><trkpt lat="53.592355" lon="19.062501"></trkpt><trkpt lat="53.592131" lon="19.062652"></trkpt><trkpt lat="53.591739" lon="19.062855"></trkpt><trkpt lat="53.588895" lon="19.064743"></trkpt><trkpt lat="53.588582" lon="19.065095"></trkpt><trkpt lat="53.58795" lon="19.065519"></trkpt><trkpt lat="53.587633" lon="19.06506"></trkpt><trkpt lat="53.586132" lon="19.062533"></trkpt><trkpt lat="53.585939" lon="19.062125"></trkpt><trkpt lat="53.585703" lon="19.06195"></trkpt><trkpt lat="53.585381" lon="19.061945"></trkpt><trkpt lat="53.5841" lon="19.062129"></trkpt><trkpt lat="53.58356" lon="19.062282"></trkpt><trkpt lat="53.582691" lon="19.06242"></trkpt><trkpt lat="53.581784" lon="19.06239"></trkpt><trkpt lat="53.577896" lon="19.061601"></trkpt><trkpt lat="53.577212" lon="19.061041"></trkpt><trkpt lat="53.576578" lon="19.060618"></trkpt><trkpt lat="53.576346" lon="19.060587"></trkpt><trkpt lat="53.576147" lon="19.060701"></trkpt><trkpt lat="53.575707" lon="19.06126"></trkpt><trkpt lat="53.57215" lon="19.065049"></trkpt><trkpt lat="53.571917" lon="19.06475"></trkpt><trkpt lat="53.571486" lon="19.064008"></trkpt><trkpt lat="53.571169" lon="19.063561"></trkpt><trkpt lat="53.570975" lon="19.063446"></trkpt><trkpt lat="53.570771" lon="19.063408"></trkpt><trkpt lat="53.570491" lon="19.063502"></trkpt><trkpt lat="53.569996" lon="19.06358"></trkpt><trkpt lat="53.569783" lon="19.063464"></trkpt><trkpt lat="53.569139" lon="19.062811"></trkpt><trkpt lat="53.566746" lon="19.061111"></trkpt><trkpt lat="53.566084" lon="19.06122"></trkpt><trkpt lat="53.563892" lon="19.061322"></trkpt><trkpt lat="53.563249" lon="19.060875"></trkpt><trkpt lat="53.561749" lon="19.060217"></trkpt><trkpt lat="53.561502" lon="19.060254"></trkpt><trkpt lat="53.561223" lon="19.06013"></trkpt><trkpt lat="53.559648" lon="19.059176"></trkpt><trkpt lat="53.559381" lon="19.058936"></trkpt><trkpt lat="53.557452" lon="19.057691"></trkpt><trkpt lat="53.557171" lon="19.058135"></trkpt><trkpt lat="53.556687" lon="19.058744"></trkpt><trkpt lat="53.556124" lon="19.059195"></trkpt><trkpt lat="53.548258" lon="19.064363"></trkpt><trkpt lat="53.54774" lon="19.064596"></trkpt><trkpt lat="53.527296" lon="19.076651"></trkpt><trkpt lat="53.526794" lon="19.077871"></trkpt><trkpt lat="53.523998" lon="19.083565"></trkpt><trkpt lat="53.523298" lon="19.084372"></trkpt><trkpt lat="53.523043" lon="19.084824"></trkpt><trkpt lat="53.522647" lon="19.085646"></trkpt><trkpt lat="53.522377" lon="19.085997"></trkpt><trkpt lat="53.521899" lon="19.086387"></trkpt><trkpt lat="53.521532" lon="19.086613"></trkpt><trkpt lat="53.520767" lon="19.086898"></trkpt><trkpt lat="53.520219" lon="19.087024"></trkpt><trkpt lat="53.519932" lon="19.08705"></trkpt><trkpt lat="53.519826" lon="19.086615"></trkpt><trkpt lat="53.519514" lon="19.086709"></trkpt><trkpt lat="53.519337" lon="19.086959"></trkpt><trkpt lat="53.519386" lon="19.087323"></trkpt><trkpt lat="53.519437" lon="19.088806"></trkpt><trkpt lat="53.519305" lon="19.089122"></trkpt><trkpt lat="53.519079" lon="19.089349"></trkpt><trkpt lat="53.518265" lon="19.089997"></trkpt><trkpt lat="53.517957" lon="19.090293"></trkpt><trkpt lat="53.517879" lon="19.090606"></trkpt><trkpt lat="53.517522" lon="19.090836"></trkpt><trkpt lat="53.517221" lon="19.090941"></trkpt><trkpt lat="53.516873" lon="19.090766"></trkpt><trkpt lat="53.51678" lon="19.090311"></trkpt><trkpt lat="53.516645" lon="19.089779"></trkpt><trkpt lat="53.516035" lon="19.090107"></trkpt><trkpt lat="53.515402" lon="19.090651"></trkpt><trkpt lat="53.510342" lon="19.09413"></trkpt><trkpt lat="53.510126" lon="19.093638"></trkpt><trkpt lat="53.50949" lon="19.092482"></trkpt><trkpt lat="53.509092" lon="19.092898"></trkpt><trkpt lat="53.505504" lon="19.095744"></trkpt><trkpt lat="53.505062" lon="19.095817"></trkpt><trkpt lat="53.499045" lon="19.095742"></trkpt><trkpt lat="53.499059" lon="19.095331"></trkpt><trkpt lat="53.498849" lon="19.093942"></trkpt><trkpt lat="53.498521" lon="19.093636"></trkpt><trkpt lat="53.498276" lon="19.093234"></trkpt><trkpt lat="53.498144" lon="19.092857"></trkpt><trkpt lat="53.498103" lon="19.09246"></trkpt><trkpt lat="53.498192" lon="19.092101"></trkpt><trkpt lat="53.498243" lon="19.091728"></trkpt><trkpt lat="53.498169" lon="19.091377"></trkpt><trkpt lat="53.497682" lon="19.088092"></trkpt><trkpt lat="53.497588" lon="19.086897"></trkpt><trkpt lat="53.496839" lon="19.08136"></trkpt><trkpt lat="53.496566" lon="19.082057"></trkpt><trkpt lat="53.496319" lon="19.082836"></trkpt><trkpt lat="53.495363" lon="19.085098"></trkpt><trkpt lat="53.494922" lon="19.085906"></trkpt><trkpt lat="53.494692" lon="19.086085"></trkpt><trkpt lat="53.494427" lon="19.086089"></trkpt><trkpt lat="53.493586" lon="19.085552"></trkpt><trkpt lat="53.493064" lon="19.084962"></trkpt><trkpt lat="53.492839" lon="19.084934"></trkpt><trkpt lat="53.492652" lon="19.085138"></trkpt><trkpt lat="53.492345" lon="19.085709"></trkpt><trkpt lat="53.492261" lon="19.086073"></trkpt><trkpt lat="53.492211" lon="19.086674"></trkpt><trkpt lat="53.492208" lon="19.087042"></trkpt><trkpt lat="53.492169" lon="19.087731"></trkpt><trkpt lat="53.49193" lon="19.089625"></trkpt><trkpt lat="53.491817" lon="19.090148"></trkpt><trkpt lat="53.491453" lon="19.091166"></trkpt><trkpt lat="53.491082" lon="19.091754"></trkpt><trkpt lat="53.4902" lon="19.093454"></trkpt><trkpt lat="53.489992" lon="19.093697"></trkpt><trkpt lat="53.489178" lon="19.09427"></trkpt><trkpt lat="53.487675" lon="19.095065"></trkpt><trkpt lat="53.470815" lon="19.107285"></trkpt><trkpt lat="53.470784" lon="19.107641"></trkpt><trkpt lat="53.470319" lon="19.110483"></trkpt><trkpt lat="53.470105" lon="19.110988"></trkpt><trkpt lat="53.469883" lon="19.111613"></trkpt><trkpt lat="53.470102" lon="19.111064"></trkpt><trkpt lat="53.47058" lon="19.109412"></trkpt><trkpt lat="53.47063" lon="19.10906"></trkpt><trkpt lat="53.470681" lon="19.108495"></trkpt><trkpt lat="53.470303" lon="19.108336"></trkpt><trkpt lat="53.470097" lon="19.108278"></trkpt><trkpt lat="53.468175" lon="19.107976"></trkpt><trkpt lat="53.467756" lon="19.108134"></trkpt><trkpt lat="53.467388" lon="19.108321"></trkpt><trkpt lat="53.467065" lon="19.108534"></trkpt><trkpt lat="53.466947" lon="19.108809"></trkpt><trkpt lat="53.466781" lon="19.109033"></trkpt><trkpt lat="53.466349" lon="19.10886"></trkpt><trkpt lat="53.466157" lon="19.108564"></trkpt><trkpt lat="53.46604" lon="19.108261"></trkpt><trkpt lat="53.46595" lon="19.107963"></trkpt><trkpt lat="53.465685" lon="19.107351"></trkpt><trkpt lat="53.46544" lon="19.106958"></trkpt><trkpt lat="53.465159" lon="19.106621"></trkpt><trkpt lat="53.464991" lon="19.10637"></trkpt><trkpt lat="53.464847" lon="19.106106"></trkpt><trkpt lat="53.464629" lon="19.105765"></trkpt><trkpt lat="53.464298" lon="19.105383"></trkpt><trkpt lat="53.463741" lon="19.10485"></trkpt><trkpt lat="53.462972" lon="19.104423"></trkpt><trkpt lat="53.458608" lon="19.102586"></trkpt><trkpt lat="53.45784" lon="19.102361"></trkpt><trkpt lat="53.457069" lon="19.102242"></trkpt><trkpt lat="53.449436" lon="19.101984"></trkpt><trkpt lat="53.448599" lon="19.102287"></trkpt><trkpt lat="53.446823" lon="19.10319"></trkpt><trkpt lat="53.446413" lon="19.104015"></trkpt><trkpt lat="53.446201" lon="19.104143"></trkpt><trkpt lat="53.445957" lon="19.104118"></trkpt><trkpt lat="53.445341" lon="19.103872"></trkpt><trkpt lat="53.445107" lon="19.103587"></trkpt><trkpt lat="53.444836" lon="19.103128"></trkpt><trkpt lat="53.444606" lon="19.103004"></trkpt><trkpt lat="53.444284" lon="19.102921"></trkpt><trkpt lat="53.444108" lon="19.102753"></trkpt><trkpt lat="53.44421" lon="19.102021"></trkpt><trkpt lat="53.444089" lon="19.101407"></trkpt><trkpt lat="53.443853" lon="19.100464"></trkpt><trkpt lat="53.442837" lon="19.097908"></trkpt><trkpt lat="53.442352" lon="19.097594"></trkpt><trkpt lat="53.440753" lon="19.096062"></trkpt><trkpt lat="53.440471" lon="19.095165"></trkpt><trkpt lat="53.440405" lon="19.094623"></trkpt><trkpt lat="53.440498" lon="19.093635"></trkpt><trkpt lat="53.440461" lon="19.092919"></trkpt><trkpt lat="53.440316" lon="19.092416"></trkpt><trkpt lat="53.440142" lon="19.09194"></trkpt><trkpt lat="53.439734" lon="19.09055"></trkpt><trkpt lat="53.439665" lon="19.090016"></trkpt><trkpt lat="53.438819" lon="19.085282"></trkpt><trkpt lat="53.438601" lon="19.084533"></trkpt><trkpt lat="53.432507" lon="19.067491"></trkpt><trkpt lat="53.432108" lon="19.066723"></trkpt><trkpt lat="53.431793" lon="19.065991"></trkpt><trkpt lat="53.422935" lon="19.048249"></trkpt><trkpt lat="53.422659" lon="19.048012"></trkpt><trkpt lat="53.422308" lon="19.047825"></trkpt><trkpt lat="53.421986" lon="19.047709"></trkpt><trkpt lat="53.419215" lon="19.046048"></trkpt><trkpt lat="53.419013" lon="19.045553"></trkpt><trkpt lat="53.418035" lon="19.044009"></trkpt><trkpt lat="53.417527" lon="19.043588"></trkpt><trkpt lat="53.412172" lon="19.039963"></trkpt><trkpt lat="53.411615" lon="19.039752"></trkpt><trkpt lat="53.407248" lon="19.038629"></trkpt><trkpt lat="53.403475" lon="19.038122"></trkpt><trkpt lat="53.386283" lon="19.038277"></trkpt><trkpt lat="53.385746" lon="19.038034"></trkpt><trkpt lat="53.385008" lon="19.037479"></trkpt><trkpt lat="53.384838" lon="19.037261"></trkpt><trkpt lat="53.384447" lon="19.036609"></trkpt><trkpt lat="53.384195" lon="19.035994"></trkpt><trkpt lat="53.382999" lon="19.033597"></trkpt><trkpt lat="53.383113" lon="19.033889"></trkpt><trkpt lat="53.383027" lon="19.034308"></trkpt><trkpt lat="53.383152" lon="19.033773"></trkpt><trkpt lat="53.382958" lon="19.033644"></trkpt><trkpt lat="53.382489" lon="19.033071"></trkpt><trkpt lat="53.382237" lon="19.032807"></trkpt><trkpt lat="53.382139" lon="19.032499"></trkpt><trkpt lat="53.381624" lon="19.032195"></trkpt><trkpt lat="53.380673" lon="19.031455"></trkpt><trkpt lat="53.380816" lon="19.030676"></trkpt><trkpt lat="53.380835" lon="19.030276"></trkpt><trkpt lat="53.380958" lon="19.029641"></trkpt><trkpt lat="53.381772" lon="19.024036"></trkpt><trkpt lat="53.381624" lon="19.023062"></trkpt><trkpt lat="53.381375" lon="19.021843"></trkpt><trkpt lat="53.378357" lon="19.00128"></trkpt><trkpt lat="53.378362" lon="19.000724"></trkpt><trkpt lat="53.378202" lon="19.00051"></trkpt><trkpt lat="53.377813" lon="19.000612"></trkpt><trkpt lat="53.37744" lon="19.000651"></trkpt><trkpt lat="53.376619" lon="19.000858"></trkpt><trkpt lat="53.374234" lon="19.001037"></trkpt><trkpt lat="53.373668" lon="19.000763"></trkpt><trkpt lat="53.373338" lon="19.000495"></trkpt><trkpt lat="53.372816" lon="19.000213"></trkpt><trkpt lat="53.363282" lon="18.996325"></trkpt><trkpt lat="53.362807" lon="18.996245"></trkpt><trkpt lat="53.359482" lon="18.995263"></trkpt><trkpt lat="53.359032" lon="18.994747"></trkpt><trkpt lat="53.358463" lon="18.993385"></trkpt><trkpt lat="53.356827" lon="18.990117"></trkpt><trkpt lat="53.356617" lon="18.990022"></trkpt><trkpt lat="53.35594" lon="18.990145"></trkpt><trkpt lat="53.355051" lon="18.990414"></trkpt><trkpt lat="53.354464" lon="18.990925"></trkpt><trkpt lat="53.352969" lon="18.992952"></trkpt><trkpt lat="53.352609" lon="18.993776"></trkpt><trkpt lat="53.346798" lon="19.005181"></trkpt><trkpt lat="53.346207" lon="19.006033"></trkpt><trkpt lat="53.346006" lon="19.006177"></trkpt><trkpt lat="53.345723" lon="19.006452"></trkpt><trkpt lat="53.345152" lon="19.006871"></trkpt><trkpt lat="53.337858" lon="19.010772"></trkpt><trkpt lat="53.337667" lon="19.010542"></trkpt><trkpt lat="53.337452" lon="19.0105"></trkpt><trkpt lat="53.336705" lon="19.0109"></trkpt><trkpt lat="53.336364" lon="19.011021"></trkpt><trkpt lat="53.336101" lon="19.010977"></trkpt><trkpt lat="53.335894" lon="19.010818"></trkpt><trkpt lat="53.335649" lon="19.010574"></trkpt><trkpt lat="53.335123" lon="19.009909"></trkpt><trkpt lat="53.333201" lon="19.008251"></trkpt><trkpt lat="53.332966" lon="19.00818"></trkpt><trkpt lat="53.332825" lon="19.007756"></trkpt><trkpt lat="53.332743" lon="19.007136"></trkpt><trkpt lat="53.332575" lon="19.006521"></trkpt><trkpt lat="53.332381" lon="19.006086"></trkpt><trkpt lat="53.332182" lon="19.005928"></trkpt><trkpt lat="53.331594" lon="19.005899"></trkpt><trkpt lat="53.330115" lon="19.006194"></trkpt><trkpt lat="53.329729" lon="19.006499"></trkpt><trkpt lat="53.32836" lon="19.007793"></trkpt><trkpt lat="53.328434" lon="19.008475"></trkpt><trkpt lat="53.329382" lon="19.023979"></trkpt><trkpt lat="53.329028" lon="19.025595"></trkpt><trkpt lat="53.328418" lon="19.030217"></trkpt><trkpt lat="53.328505" lon="19.031332"></trkpt><trkpt lat="53.328627" lon="19.034742"></trkpt><trkpt lat="53.328255" lon="19.059047"></trkpt><trkpt lat="53.327653" lon="19.05983"></trkpt><trkpt lat="53.326743" lon="19.061343"></trkpt><trkpt lat="53.325871" lon="19.063079"></trkpt><trkpt lat="53.32637" lon="19.063757"></trkpt><trkpt lat="53.327328" lon="19.064848"></trkpt><trkpt lat="53.327519" lon="19.0651"></trkpt><trkpt lat="53.327627" lon="19.065409"></trkpt><trkpt lat="53.327649" lon="19.066215"></trkpt><trkpt lat="53.327767" lon="19.066606"></trkpt><trkpt lat="53.328158" lon="19.067258"></trkpt><trkpt lat="53.329117" lon="19.068636"></trkpt><trkpt lat="53.329188" lon="19.068318"></trkpt><trkpt lat="53.329101" lon="19.068741"></trkpt><trkpt lat="53.328885" lon="19.069111"></trkpt><trkpt lat="53.328347" lon="19.069665"></trkpt><trkpt lat="53.328179" lon="19.069452"></trkpt><trkpt lat="53.328521" lon="19.069681"></trkpt><trkpt lat="53.328746" lon="19.069447"></trkpt><trkpt lat="53.329282" lon="19.068468"></trkpt><trkpt lat="53.329719" lon="19.067776"></trkpt><trkpt lat="53.329937" lon="19.067873"></trkpt><trkpt lat="53.330149" lon="19.067829"></trkpt><trkpt lat="53.329758" lon="19.067333"></trkpt><trkpt lat="53.329923" lon="19.067556"></trkpt><trkpt lat="53.329894" lon="19.067913"></trkpt><trkpt lat="53.329606" lon="19.067842"></trkpt><trkpt lat="53.329354" lon="19.068332"></trkpt><trkpt lat="53.328964" lon="19.069257"></trkpt><trkpt lat="53.329156" lon="19.069344"></trkpt><trkpt lat="53.329918" lon="19.070134"></trkpt><trkpt lat="53.330236" lon="19.070841"></trkpt><trkpt lat="53.330468" lon="19.071287"></trkpt><trkpt lat="53.331204" lon="19.072352"></trkpt><trkpt lat="53.331659" lon="19.072642"></trkpt><trkpt lat="53.332103" lon="19.072861"></trkpt><trkpt lat="53.332484" lon="19.072591"></trkpt><trkpt lat="53.332921" lon="19.072014"></trkpt><trkpt lat="53.333107" lon="19.071465"></trkpt><trkpt lat="53.33283" lon="19.071041"></trkpt><trkpt lat="53.332305" lon="19.070459"></trkpt><trkpt lat="53.329552" lon="19.067858"></trkpt><trkpt lat="53.329319" lon="19.068307"></trkpt><trkpt lat="53.32897" lon="19.068349"></trkpt></trkseg></trk></gpx>