<?xml version="1.0" encoding="UTF-8" standalone="no" ?><gpx xmlns="http://www.topografix.com/GPX/1/1" xmlns:gpxx="http://www.garmin.com/xmlschemas/GpxExtensions/v3" ><trk><trkseg><trkpt lat="50.7756858319" lon="15.7264578156"></trkpt><trkpt lat="50.7760814577" lon="15.7269366737"></trkpt><trkpt lat="50.776344901" lon="15.726820752"></trkpt><trkpt lat="50.7766971085" lon="15.7267389446"></trkpt><trkpt lat="50.7775275037" lon="15.7266664412"></trkpt><trkpt lat="50.7772690058" lon="15.7263339311"></trkpt><trkpt lat="50.7775348797" lon="15.7265011501"></trkpt><trkpt lat="50.7778350357" lon="15.7264436502"></trkpt><trkpt lat="50.7780626882" lon="15.7261815481"></trkpt><trkpt lat="50.7782729063" lon="15.7258732617"></trkpt><trkpt lat="50.7783266343" lon="15.7254442759"></trkpt><trkpt lat="50.7780334353" lon="15.7254106645"></trkpt><trkpt lat="50.7775503863" lon="15.7252565213"></trkpt><trkpt lat="50.7772919722" lon="15.725011602"></trkpt><trkpt lat="50.777107235" lon="15.7245360967"></trkpt><trkpt lat="50.7770800777" lon="15.7240263093"></trkpt><trkpt lat="50.7771172095" lon="15.7234936394"></trkpt><trkpt lat="50.777098015" lon="15.7220265549"></trkpt><trkpt lat="50.7770087477" lon="15.7216052804"></trkpt><trkpt lat="50.7769509126" lon="15.7211498078"></trkpt><trkpt lat="50.7769281976" lon="15.7205940038"></trkpt><trkpt lat="50.7767122798" lon="15.7202116214"></trkpt><trkpt lat="50.7764778379" lon="15.7197074499"></trkpt><trkpt lat="50.7763756625" lon="15.7192671485"></trkpt><trkpt lat="50.7763833739" lon="15.7187686767"></trkpt><trkpt lat="50.7763117086" lon="15.7179809455"></trkpt><trkpt lat="50.7761264686" lon="15.7176252175"></trkpt><trkpt lat="50.7743730582" lon="15.7149019372"></trkpt><trkpt lat="50.7740216888" lon="15.7147149369"></trkpt><trkpt lat="50.7736689784" lon="15.714766318"></trkpt><trkpt lat="50.7706542592" lon="15.7147446088"></trkpt><trkpt lat="50.770375561" lon="15.7145590335"></trkpt><trkpt lat="50.7700996287" lon="15.7142762281"></trkpt><trkpt lat="50.7698923443" lon="15.7138845418"></trkpt><trkpt lat="50.76881418" lon="15.7114298176"></trkpt><trkpt lat="50.7687120046" lon="15.7109570783"></trkpt><trkpt lat="50.7685226575" lon="15.7103047986"></trkpt><trkpt lat="50.7682675123" lon="15.7100181375"></trkpt><trkpt lat="50.7679919153" lon="15.7097910717"></trkpt><trkpt lat="50.7666795608" lon="15.7084259111"></trkpt><trkpt lat="50.7665435225" lon="15.7079514116"></trkpt><trkpt lat="50.7664063945" lon="15.7075772434"></trkpt><trkpt lat="50.7658404484" lon="15.7063359674"></trkpt><trkpt lat="50.7649482787" lon="15.7047149912"></trkpt><trkpt lat="50.7646078058" lon="15.7048254646"></trkpt><trkpt lat="50.7643120922" lon="15.7048705593"></trkpt><trkpt lat="50.7640468888" lon="15.7049618382"></trkpt><trkpt lat="50.7609441597" lon="15.7043352071"></trkpt><trkpt lat="50.760574434" lon="15.7043422479"></trkpt><trkpt lat="50.7594192401" lon="15.7041332871"></trkpt><trkpt lat="50.7591594011" lon="15.7039525732"></trkpt><trkpt lat="50.758819934" lon="15.7040877733"></trkpt><trkpt lat="50.7579939812" lon="15.7045446709"></trkpt><trkpt lat="50.7577577792" lon="15.7047594991"></trkpt><trkpt lat="50.7574213296" lon="15.7049811166"></trkpt><trkpt lat="50.7570964471" lon="15.7050045021"></trkpt><trkpt lat="50.7567521185" lon="15.7050806098"></trkpt><trkpt lat="50.7559421752" lon="15.7047777716"></trkpt><trkpt lat="50.755733382" lon="15.704486249"></trkpt><trkpt lat="50.7555348985" lon="15.7041418366"></trkpt><trkpt lat="50.7552805915" lon="15.7039650623"></trkpt><trkpt lat="50.7550143823" lon="15.7038770523"></trkpt><trkpt lat="50.7546247076" lon="15.7038109191"></trkpt><trkpt lat="50.7543706521" lon="15.7040188741"></trkpt><trkpt lat="50.7540279999" lon="15.7043643761"></trkpt><trkpt lat="50.7537766267" lon="15.7045419887"></trkpt><trkpt lat="50.753447637" lon="15.7046401408"></trkpt><trkpt lat="50.7531630713" lon="15.7046260592"></trkpt><trkpt lat="50.7528847083" lon="15.7045364566"></trkpt><trkpt lat="50.7526147272" lon="15.7044886798"></trkpt><trkpt lat="50.752334604" lon="15.7046686392"></trkpt><trkpt lat="50.7520806324" lon="15.7048776001"></trkpt><trkpt lat="50.7520294189" lon="15.7053218409"></trkpt><trkpt lat="50.7522293273" lon="15.7056692708"></trkpt><trkpt lat="50.7526777592" lon="15.7066486124"></trkpt><trkpt lat="50.7527378574" lon="15.7070817053"></trkpt><trkpt lat="50.752715813" lon="15.7075679395"></trkpt><trkpt lat="50.7526242826" lon="15.7080232445"></trkpt><trkpt lat="50.7522928622" lon="15.7092193421"></trkpt><trkpt lat="50.7519953884" lon="15.7093736529"></trkpt><trkpt lat="50.751245711" lon="15.7088499516"></trkpt><trkpt lat="50.7510419469" lon="15.7084370591"></trkpt></trkseg></trk></gpx>