<?xml version="1.0" encoding="UTF-8" standalone="no" ?><gpx xmlns="http://www.topografix.com/GPX/1/1" xmlns:gpxx="http://www.garmin.com/xmlschemas/GpxExtensions/v3" ><trk><trkseg><trkpt lat="52.3023436312" lon="16.2863526028"></trkpt><trkpt lat="52.3021381069" lon="16.286779996"></trkpt><trkpt lat="52.3018297367" lon="16.2865963485"></trkpt><trkpt lat="52.3015313409" lon="16.2862823624"></trkpt><trkpt lat="52.3012510501" lon="16.2861059234"></trkpt><trkpt lat="52.3009431828" lon="16.2858307455"></trkpt><trkpt lat="52.300655013" lon="16.2855154183"></trkpt><trkpt lat="52.3010439333" lon="16.28581197"></trkpt><trkpt lat="52.3013106454" lon="16.2861019"></trkpt><trkpt lat="52.3017198499" lon="16.2867030501"></trkpt><trkpt lat="52.3018457461" lon="16.2871792261"></trkpt><trkpt lat="52.3020619154" lon="16.288517816"></trkpt><trkpt lat="52.3020702973" lon="16.2890115101"></trkpt><trkpt lat="52.3020321596" lon="16.2895539869"></trkpt><trkpt lat="52.3020350933" lon="16.2902003154"></trkpt><trkpt lat="52.3020971194" lon="16.290637264"></trkpt><trkpt lat="52.3019684572" lon="16.2910462171"></trkpt><trkpt lat="52.3019683734" lon="16.2915241532"></trkpt><trkpt lat="52.301497478" lon="16.3000184577"></trkpt><trkpt lat="52.3012950551" lon="16.3003502134"></trkpt><trkpt lat="52.2982376721" lon="16.3044836652"></trkpt><trkpt lat="52.2979793418" lon="16.3046521414"></trkpt><trkpt lat="52.297740709" lon="16.3048637845"></trkpt><trkpt lat="52.2974716499" lon="16.3049268164"></trkpt><trkpt lat="52.2971590888" lon="16.305242395"></trkpt><trkpt lat="52.2965898737" lon="16.3056903239"></trkpt><trkpt lat="52.296266919" lon="16.3060319703"></trkpt><trkpt lat="52.2902079765" lon="16.3137869071"></trkpt><trkpt lat="52.2899857722" lon="16.3143020589"></trkpt><trkpt lat="52.2898549307" lon="16.3148213178"></trkpt><trkpt lat="52.2896608897" lon="16.3152056281"></trkpt><trkpt lat="52.2882459406" lon="16.3185759913"></trkpt><trkpt lat="52.283444535" lon="16.3310320023"></trkpt><trkpt lat="52.2831979394" lon="16.3313432224"></trkpt><trkpt lat="52.2829378489" lon="16.3315977808"></trkpt><trkpt lat="52.2782024927" lon="16.3372621033"></trkpt><trkpt lat="52.2780701425" lon="16.3376688771"></trkpt><trkpt lat="52.2779817134" lon="16.3381103519"></trkpt><trkpt lat="52.2778673843" lon="16.3385141082"></trkpt><trkpt lat="52.2776944656" lon="16.3393161725"></trkpt><trkpt lat="52.2775710002" lon="16.3397369441"></trkpt><trkpt lat="52.2774105705" lon="16.3401784189"></trkpt><trkpt lat="52.277120892" lon="16.3412514701"></trkpt><trkpt lat="52.2768783197" lon="16.3419484254"></trkpt><trkpt lat="52.2766374238" lon="16.34226216"></trkpt><trkpt lat="52.2762708832" lon="16.3424581289"></trkpt><trkpt lat="52.2691910248" lon="16.3475068845"></trkpt><trkpt lat="52.2691893484" lon="16.3480139896"></trkpt><trkpt lat="52.2688272502" lon="16.3535775617"></trkpt><trkpt lat="52.2684192192" lon="16.353736734"></trkpt><trkpt lat="52.2647330258" lon="16.354563022"></trkpt><trkpt lat="52.2557417583" lon="16.3527521957"></trkpt><trkpt lat="52.2554758005" lon="16.3532703649"></trkpt><trkpt lat="52.2506277915" lon="16.3647670671"></trkpt><trkpt lat="52.250584038" lon="16.3653763477"></trkpt><trkpt lat="52.2492134292" lon="16.3759589195"></trkpt><trkpt lat="52.2490633931" lon="16.376413554"></trkpt><trkpt lat="52.2488943301" lon="16.376763247"></trkpt><trkpt lat="52.2458058503" lon="16.3820867613"></trkpt><trkpt lat="52.2453824803" lon="16.3824575767"></trkpt><trkpt lat="52.240255354" lon="16.3879655767"></trkpt><trkpt lat="52.2400934156" lon="16.3884264138"></trkpt><trkpt lat="52.2388262395" lon="16.3913525362"></trkpt><trkpt lat="52.2384830844" lon="16.391852349"></trkpt><trkpt lat="52.2382353153" lon="16.3921007887"></trkpt><trkpt lat="52.2379305493" lon="16.3922396768"></trkpt><trkpt lat="52.2375125438" lon="16.3919616491"></trkpt><trkpt lat="52.2359185573" lon="16.3905638829"></trkpt><trkpt lat="52.2357137874" lon="16.3900943287"></trkpt><trkpt lat="52.235435592" lon="16.3905723486"></trkpt></trkseg></trk></gpx>