<?xml version="1.0" encoding="UTF-8" standalone="no" ?><gpx xmlns="http://www.topografix.com/GPX/1/1" xmlns:gpxx="http://www.garmin.com/xmlschemas/GpxExtensions/v3" ><trk><trkseg><trkpt lat="53.448579" lon="15.560467"></trkpt><trkpt lat="53.448531" lon="15.560054"></trkpt><trkpt lat="53.448403" lon="15.559523"></trkpt><trkpt lat="53.44808" lon="15.55992"></trkpt><trkpt lat="53.447843" lon="15.560322"></trkpt><trkpt lat="53.447549" lon="15.560744"></trkpt><trkpt lat="53.447187" lon="15.561008"></trkpt><trkpt lat="53.446748" lon="15.561165"></trkpt><trkpt lat="53.446455" lon="15.561005"></trkpt><trkpt lat="53.446238" lon="15.560755"></trkpt><trkpt lat="53.445327" lon="15.559428"></trkpt><trkpt lat="53.445189" lon="15.559127"></trkpt><trkpt lat="53.444885" lon="15.558326"></trkpt><trkpt lat="53.444298" lon="15.557205"></trkpt><trkpt lat="53.443974" lon="15.557136"></trkpt><trkpt lat="53.442035" lon="15.556371"></trkpt><trkpt lat="53.441778" lon="15.556003"></trkpt><trkpt lat="53.440607" lon="15.553871"></trkpt><trkpt lat="53.440417" lon="15.553357"></trkpt><trkpt lat="53.440302" lon="15.552962"></trkpt><trkpt lat="53.439826" lon="15.551859"></trkpt><trkpt lat="53.43963" lon="15.551495"></trkpt><trkpt lat="53.438927" lon="15.55054"></trkpt><trkpt lat="53.438427" lon="15.549961"></trkpt><trkpt lat="53.438247" lon="15.549795"></trkpt><trkpt lat="53.43774" lon="15.549425"></trkpt><trkpt lat="53.437561" lon="15.549153"></trkpt><trkpt lat="53.437749" lon="15.548479"></trkpt><trkpt lat="53.438159" lon="15.547791"></trkpt><trkpt lat="53.438519" lon="15.547085"></trkpt><trkpt lat="53.438673" lon="15.546531"></trkpt><trkpt lat="53.438644" lon="15.545949"></trkpt><trkpt lat="53.438556" lon="15.545287"></trkpt><trkpt lat="53.43856" lon="15.544898"></trkpt><trkpt lat="53.438646" lon="15.544507"></trkpt><trkpt lat="53.43871" lon="15.543731"></trkpt><trkpt lat="53.438797" lon="15.541548"></trkpt><trkpt lat="53.438863" lon="15.541172"></trkpt><trkpt lat="53.438905" lon="15.540589"></trkpt><trkpt lat="53.438919" lon="15.538595"></trkpt><trkpt lat="53.438885" lon="15.537835"></trkpt><trkpt lat="53.438714" lon="15.537631"></trkpt><trkpt lat="53.438181" lon="15.537712"></trkpt><trkpt lat="53.437136" lon="15.537711"></trkpt><trkpt lat="53.437061" lon="15.536831"></trkpt><trkpt lat="53.436342" lon="15.531448"></trkpt><trkpt lat="53.436123" lon="15.530622"></trkpt><trkpt lat="53.43584" lon="15.529851"></trkpt><trkpt lat="53.434801" lon="15.526518"></trkpt><trkpt lat="53.434757" lon="15.525793"></trkpt><trkpt lat="53.434766" lon="15.519811"></trkpt><trkpt lat="53.435105" lon="15.519034"></trkpt><trkpt lat="53.43527" lon="15.518747"></trkpt><trkpt lat="53.436439" lon="15.5162"></trkpt><trkpt lat="53.436544" lon="15.51532"></trkpt><trkpt lat="53.437055" lon="15.507591"></trkpt><trkpt lat="53.436965" lon="15.506624"></trkpt><trkpt lat="53.436928" lon="15.504218"></trkpt><trkpt lat="53.436972" lon="15.50342"></trkpt><trkpt lat="53.437076" lon="15.50259"></trkpt><trkpt lat="53.437234" lon="15.501982"></trkpt><trkpt lat="53.441144" lon="15.48753"></trkpt><trkpt lat="53.441602" lon="15.48492"></trkpt><trkpt lat="53.441719" lon="15.483779"></trkpt><trkpt lat="53.441866" lon="15.482994"></trkpt><trkpt lat="53.442002" lon="15.482706"></trkpt><trkpt lat="53.442182" lon="15.482494"></trkpt><trkpt lat="53.442968" lon="15.482032"></trkpt><trkpt lat="53.443471" lon="15.481844"></trkpt><trkpt lat="53.443929" lon="15.481729"></trkpt><trkpt lat="53.445696" lon="15.480947"></trkpt><trkpt lat="53.446145" lon="15.480338"></trkpt><trkpt lat="53.446346" lon="15.480011"></trkpt><trkpt lat="53.448178" lon="15.477801"></trkpt><trkpt lat="53.448514" lon="15.478318"></trkpt><trkpt lat="53.449081" lon="15.479344"></trkpt><trkpt lat="53.449524" lon="15.480366"></trkpt><trkpt lat="53.449803" lon="15.481199"></trkpt><trkpt lat="53.450234" lon="15.481736"></trkpt><trkpt lat="53.45057" lon="15.482029"></trkpt><trkpt lat="53.451862" lon="15.483367"></trkpt><trkpt lat="53.451636" lon="15.483624"></trkpt><trkpt lat="53.4513" lon="15.484121"></trkpt><trkpt lat="53.451208" lon="15.484653"></trkpt><trkpt lat="53.451171" lon="15.485357"></trkpt><trkpt lat="53.451204" lon="15.486178"></trkpt><trkpt lat="53.451326" lon="15.486867"></trkpt><trkpt lat="53.451388" lon="15.487351"></trkpt><trkpt lat="53.451421" lon="15.487764"></trkpt><trkpt lat="53.451477" lon="15.489356"></trkpt><trkpt lat="53.451442" lon="15.489798"></trkpt><trkpt lat="53.450637" lon="15.495268"></trkpt><trkpt lat="53.45058" lon="15.495951"></trkpt><trkpt lat="53.450613" lon="15.496394"></trkpt><trkpt lat="53.450777" lon="15.496926"></trkpt><trkpt lat="53.452303" lon="15.502909"></trkpt><trkpt lat="53.452419" lon="15.503189"></trkpt><trkpt lat="53.452792" lon="15.503518"></trkpt><trkpt lat="53.454307" lon="15.505311"></trkpt><trkpt lat="53.454427" lon="15.50621"></trkpt><trkpt lat="53.454904" lon="15.508421"></trkpt><trkpt lat="53.455143" lon="15.509072"></trkpt><trkpt lat="53.455503" lon="15.509885"></trkpt><trkpt lat="53.456477" lon="15.512638"></trkpt><trkpt lat="53.456553" lon="15.51318"></trkpt><trkpt lat="53.4565" lon="15.513644"></trkpt><trkpt lat="53.456546" lon="15.513987"></trkpt><trkpt lat="53.456836" lon="15.514242"></trkpt><trkpt lat="53.457158" lon="15.514385"></trkpt><trkpt lat="53.457487" lon="15.514373"></trkpt><trkpt lat="53.45782" lon="15.514818"></trkpt><trkpt lat="53.45803" lon="15.515144"></trkpt><trkpt lat="53.45837" lon="15.515557"></trkpt><trkpt lat="53.458423" lon="15.515926"></trkpt><trkpt lat="53.458382" lon="15.516319"></trkpt><trkpt lat="53.458414" lon="15.516706"></trkpt><trkpt lat="53.458556" lon="15.517"></trkpt><trkpt lat="53.459009" lon="15.517361"></trkpt><trkpt lat="53.459151" lon="15.517594"></trkpt><trkpt lat="53.459426" lon="15.517283"></trkpt><trkpt lat="53.459666" lon="15.517153"></trkpt><trkpt lat="53.459915" lon="15.516971"></trkpt><trkpt lat="53.461522" lon="15.516133"></trkpt><trkpt lat="53.461771" lon="15.516127"></trkpt><trkpt lat="53.462171" lon="15.516374"></trkpt><trkpt lat="53.462376" lon="15.516356"></trkpt><trkpt lat="53.462871" lon="15.516005"></trkpt><trkpt lat="53.463368" lon="15.515836"></trkpt><trkpt lat="53.46366" lon="15.515846"></trkpt><trkpt lat="53.463803" lon="15.515545"></trkpt><trkpt lat="53.463864" lon="15.515191"></trkpt><trkpt lat="53.464013" lon="15.514763"></trkpt><trkpt lat="53.464411" lon="15.51379"></trkpt><trkpt lat="53.464529" lon="15.513396"></trkpt><trkpt lat="53.464852" lon="15.513323"></trkpt><trkpt lat="53.465316" lon="15.513138"></trkpt><trkpt lat="53.465549" lon="15.512958"></trkpt><trkpt lat="53.465755" lon="15.51269"></trkpt><trkpt lat="53.466454" lon="15.511578"></trkpt><trkpt lat="53.466595" lon="15.511071"></trkpt><trkpt lat="53.466662" lon="15.510593"></trkpt><trkpt lat="53.466687" lon="15.510183"></trkpt><trkpt lat="53.466669" lon="15.509699"></trkpt><trkpt lat="53.466853" lon="15.50903"></trkpt><trkpt lat="53.466869" lon="15.508511"></trkpt><trkpt lat="53.467" lon="15.507812"></trkpt><trkpt lat="53.467158" lon="15.507337"></trkpt><trkpt lat="53.4675" lon="15.506475"></trkpt><trkpt lat="53.467635" lon="15.506205"></trkpt><trkpt lat="53.467811" lon="15.505925"></trkpt><trkpt lat="53.467939" lon="15.505628"></trkpt><trkpt lat="53.468198" lon="15.505156"></trkpt><trkpt lat="53.468449" lon="15.504764"></trkpt><trkpt lat="53.468762" lon="15.50415"></trkpt><trkpt lat="53.46893" lon="15.50391"></trkpt><trkpt lat="53.469539" lon="15.50289"></trkpt><trkpt lat="53.469842" lon="15.502871"></trkpt><trkpt lat="53.470035" lon="15.502679"></trkpt><trkpt lat="53.470167" lon="15.502379"></trkpt><trkpt lat="53.470521" lon="15.501777"></trkpt><trkpt lat="53.470679" lon="15.501544"></trkpt><trkpt lat="53.470884" lon="15.501186"></trkpt><trkpt lat="53.471628" lon="15.499638"></trkpt><trkpt lat="53.47174" lon="15.499277"></trkpt><trkpt lat="53.471932" lon="15.498967"></trkpt><trkpt lat="53.472092" lon="15.498647"></trkpt><trkpt lat="53.472359" lon="15.498188"></trkpt><trkpt lat="53.472564" lon="15.497926"></trkpt><trkpt lat="53.472878" lon="15.497606"></trkpt><trkpt lat="53.473074" lon="15.497369"></trkpt><trkpt lat="53.473354" lon="15.496964"></trkpt><trkpt lat="53.473857" lon="15.49634"></trkpt><trkpt lat="53.475365" lon="15.494033"></trkpt><trkpt lat="53.47605" lon="15.493133"></trkpt><trkpt lat="53.476726" lon="15.492599"></trkpt><trkpt lat="53.476957" lon="15.492533"></trkpt><trkpt lat="53.477664" lon="15.49243"></trkpt><trkpt lat="53.478727" lon="15.491774"></trkpt><trkpt lat="53.479095" lon="15.491335"></trkpt><trkpt lat="53.479197" lon="15.490838"></trkpt><trkpt lat="53.479119" lon="15.490334"></trkpt><trkpt lat="53.47909" lon="15.489303"></trkpt><trkpt lat="53.47929" lon="15.488691"></trkpt><trkpt lat="53.479465" lon="15.488391"></trkpt><trkpt lat="53.479689" lon="15.488113"></trkpt><trkpt lat="53.480412" lon="15.487005"></trkpt><trkpt lat="53.481184" lon="15.486246"></trkpt><trkpt lat="53.481434" lon="15.486245"></trkpt><trkpt lat="53.481729" lon="15.486062"></trkpt><trkpt lat="53.482047" lon="15.485958"></trkpt><trkpt lat="53.490639" lon="15.484184"></trkpt><trkpt lat="53.490708" lon="15.48475"></trkpt><trkpt lat="53.4909" lon="15.485304"></trkpt><trkpt lat="53.491088" lon="15.485594"></trkpt><trkpt lat="53.491302" lon="15.485829"></trkpt><trkpt lat="53.493132" lon="15.487432"></trkpt><trkpt lat="53.493333" lon="15.487547"></trkpt><trkpt lat="53.49378" lon="15.488074"></trkpt><trkpt lat="53.494177" lon="15.488634"></trkpt><trkpt lat="53.494107" lon="15.488951"></trkpt><trkpt lat="53.494088" lon="15.489707"></trkpt><trkpt lat="53.49401" lon="15.490345"></trkpt><trkpt lat="53.493929" lon="15.490693"></trkpt><trkpt lat="53.493755" lon="15.491238"></trkpt><trkpt lat="53.493726" lon="15.49157"></trkpt><trkpt lat="53.49373" lon="15.492025"></trkpt><trkpt lat="53.493821" lon="15.491113"></trkpt><trkpt lat="53.493979" lon="15.490591"></trkpt><trkpt lat="53.494076" lon="15.489998"></trkpt><trkpt lat="53.494136" lon="15.489451"></trkpt><trkpt lat="53.493991" lon="15.488283"></trkpt><trkpt lat="53.493629" lon="15.487852"></trkpt><trkpt lat="53.493053" lon="15.487432"></trkpt><trkpt lat="53.492806" lon="15.487349"></trkpt><trkpt lat="53.492572" lon="15.487231"></trkpt><trkpt lat="53.49205" lon="15.48669"></trkpt><trkpt lat="53.490864" lon="15.485158"></trkpt><trkpt lat="53.490721" lon="15.484787"></trkpt><trkpt lat="53.490691" lon="15.484373"></trkpt><trkpt lat="53.490396" lon="15.483993"></trkpt><trkpt lat="53.49018" lon="15.483786"></trkpt><trkpt lat="53.489998" lon="15.483176"></trkpt><trkpt lat="53.489917" lon="15.48274"></trkpt><trkpt lat="53.489719" lon="15.48196"></trkpt><trkpt lat="53.48955" lon="15.481134"></trkpt><trkpt lat="53.489602" lon="15.481494"></trkpt><trkpt lat="53.489697" lon="15.48187"></trkpt><trkpt lat="53.490647" lon="15.484174"></trkpt><trkpt lat="53.490737" lon="15.484806"></trkpt><trkpt lat="53.490931" lon="15.485308"></trkpt><trkpt lat="53.491243" lon="15.485749"></trkpt><trkpt lat="53.491526" lon="15.486071"></trkpt><trkpt lat="53.492633" lon="15.487735"></trkpt><trkpt lat="53.492593" lon="15.488332"></trkpt><trkpt lat="53.49249" lon="15.489264"></trkpt><trkpt lat="53.492368" lon="15.489594"></trkpt><trkpt lat="53.492103" lon="15.490474"></trkpt><trkpt lat="53.491574" lon="15.491535"></trkpt><trkpt lat="53.491233" lon="15.491988"></trkpt><trkpt lat="53.490749" lon="15.492539"></trkpt><trkpt lat="53.490963" lon="15.492325"></trkpt><trkpt lat="53.491174" lon="15.492024"></trkpt><trkpt lat="53.491942" lon="15.490711"></trkpt><trkpt lat="53.492165" lon="15.490054"></trkpt><trkpt lat="53.492491" lon="15.488905"></trkpt><trkpt lat="53.492537" lon="15.488452"></trkpt><trkpt lat="53.492588" lon="15.488123"></trkpt><trkpt lat="53.492617" lon="15.487705"></trkpt><trkpt lat="53.492703" lon="15.487366"></trkpt><trkpt lat="53.49299" lon="15.487445"></trkpt><trkpt lat="53.493468" lon="15.487745"></trkpt><trkpt lat="53.493733" lon="15.488028"></trkpt><trkpt lat="53.494045" lon="15.488418"></trkpt><trkpt lat="53.494223" lon="15.488573"></trkpt><trkpt lat="53.494427" lon="15.488544"></trkpt><trkpt lat="53.494804" lon="15.488302"></trkpt><trkpt lat="53.495307" lon="15.488514"></trkpt><trkpt lat="53.495573" lon="15.4888"></trkpt><trkpt lat="53.496176" lon="15.489346"></trkpt><trkpt lat="53.496825" lon="15.490087"></trkpt><trkpt lat="53.49886" lon="15.492066"></trkpt><trkpt lat="53.499529" lon="15.49183"></trkpt><trkpt lat="53.500271" lon="15.491751"></trkpt><trkpt lat="53.502273" lon="15.492283"></trkpt><trkpt lat="53.505905" lon="15.493736"></trkpt><trkpt lat="53.506155" lon="15.493959"></trkpt><trkpt lat="53.506471" lon="15.494358"></trkpt><trkpt lat="53.507009" lon="15.494882"></trkpt><trkpt lat="53.507436" lon="15.495421"></trkpt><trkpt lat="53.507728" lon="15.495594"></trkpt><trkpt lat="53.508059" lon="15.495673"></trkpt><trkpt lat="53.517311" lon="15.499061"></trkpt><trkpt lat="53.517873" lon="15.499929"></trkpt><trkpt lat="53.51977" lon="15.502457"></trkpt><trkpt lat="53.520442" lon="15.501788"></trkpt><trkpt lat="53.520893" lon="15.500936"></trkpt><trkpt lat="53.521163" lon="15.500057"></trkpt><trkpt lat="53.521609" lon="15.498859"></trkpt><trkpt lat="53.521746" lon="15.498593"></trkpt><trkpt lat="53.522773" lon="15.496884"></trkpt><trkpt lat="53.522975" lon="15.496823"></trkpt><trkpt lat="53.524685" lon="15.496074"></trkpt><trkpt lat="53.524483" lon="15.495621"></trkpt><trkpt lat="53.524404" lon="15.495315"></trkpt><trkpt lat="53.524244" lon="15.495002"></trkpt><trkpt lat="53.522581" lon="15.491109"></trkpt><trkpt lat="53.522328" lon="15.489818"></trkpt><trkpt lat="53.522278" lon="15.48902"></trkpt><trkpt lat="53.522268" lon="15.488191"></trkpt><trkpt lat="53.522232" lon="15.487671"></trkpt><trkpt lat="53.520534" lon="15.472643"></trkpt><trkpt lat="53.520159" lon="15.472031"></trkpt><trkpt lat="53.520003" lon="15.471531"></trkpt><trkpt lat="53.51985" lon="15.470732"></trkpt><trkpt lat="53.519781" lon="15.470162"></trkpt><trkpt lat="53.519635" lon="15.467832"></trkpt><trkpt lat="53.519634" lon="15.467197"></trkpt><trkpt lat="53.519927" lon="15.467636"></trkpt><trkpt lat="53.520114" lon="15.467509"></trkpt><trkpt lat="53.520492" lon="15.468552"></trkpt></trkseg></trk></gpx>