<?xml version="1.0" encoding="UTF-8" standalone="no" ?><gpx xmlns="http://www.topografix.com/GPX/1/1" xmlns:gpxx="http://www.garmin.com/xmlschemas/GpxExtensions/v3" ><trk><trkseg><trkpt lat="52.674461" lon="17.162094"></trkpt><trkpt lat="52.674438" lon="17.161679"></trkpt><trkpt lat="52.674123" lon="17.161483"></trkpt><trkpt lat="52.673709" lon="17.161332"></trkpt><trkpt lat="52.671818" lon="17.160198"></trkpt><trkpt lat="52.67157" lon="17.15961"></trkpt><trkpt lat="52.671292" lon="17.158835"></trkpt><trkpt lat="52.671178" lon="17.157808"></trkpt><trkpt lat="52.671052" lon="17.155795"></trkpt><trkpt lat="52.671203" lon="17.154882"></trkpt><trkpt lat="52.67132" lon="17.152829"></trkpt><trkpt lat="52.671009" lon="17.151803"></trkpt><trkpt lat="52.670626" lon="17.149941"></trkpt><trkpt lat="52.670889" lon="17.148805"></trkpt><trkpt lat="52.67108" lon="17.147713"></trkpt><trkpt lat="52.67117" lon="17.147332"></trkpt><trkpt lat="52.671252" lon="17.14688"></trkpt><trkpt lat="52.67137" lon="17.146605"></trkpt><trkpt lat="52.671693" lon="17.146825"></trkpt><trkpt lat="52.671959" lon="17.146962"></trkpt><trkpt lat="52.672304" lon="17.147093"></trkpt><trkpt lat="52.67358" lon="17.147745"></trkpt><trkpt lat="52.677228" lon="17.148876"></trkpt><trkpt lat="52.677437" lon="17.148733"></trkpt><trkpt lat="52.678175" lon="17.147855"></trkpt><trkpt lat="52.680091" lon="17.146231"></trkpt><trkpt lat="52.680595" lon="17.146207"></trkpt><trkpt lat="52.68667" lon="17.144721"></trkpt><trkpt lat="52.686965" lon="17.143982"></trkpt><trkpt lat="52.687508" lon="17.142836"></trkpt><trkpt lat="52.687789" lon="17.142386"></trkpt><trkpt lat="52.691464" lon="17.135616"></trkpt><trkpt lat="52.691743" lon="17.134996"></trkpt><trkpt lat="52.693818" lon="17.13102"></trkpt><trkpt lat="52.694231" lon="17.130374"></trkpt><trkpt lat="52.701456" lon="17.117"></trkpt><trkpt lat="52.701802" lon="17.115573"></trkpt><trkpt lat="52.703225" lon="17.111092"></trkpt><trkpt lat="52.703961" lon="17.110608"></trkpt><trkpt lat="52.704577" lon="17.110311"></trkpt><trkpt lat="52.705502" lon="17.109698"></trkpt><trkpt lat="52.705343" lon="17.109237"></trkpt><trkpt lat="52.705163" lon="17.1088"></trkpt><trkpt lat="52.704968" lon="17.108498"></trkpt><trkpt lat="52.704707" lon="17.108253"></trkpt><trkpt lat="52.704539" lon="17.107991"></trkpt><trkpt lat="52.704089" lon="17.107519"></trkpt><trkpt lat="52.704168" lon="17.10685"></trkpt><trkpt lat="52.704182" lon="17.106452"></trkpt><trkpt lat="52.704459" lon="17.107879"></trkpt><trkpt lat="52.70469" lon="17.108184"></trkpt><trkpt lat="52.705034" lon="17.108518"></trkpt><trkpt lat="52.705234" lon="17.108883"></trkpt><trkpt lat="52.705379" lon="17.109287"></trkpt><trkpt lat="52.705563" lon="17.109658"></trkpt><trkpt lat="52.705859" lon="17.10943"></trkpt><trkpt lat="52.706075" lon="17.109305"></trkpt><trkpt lat="52.706634" lon="17.109117"></trkpt><trkpt lat="52.70692" lon="17.109069"></trkpt><trkpt lat="52.707129" lon="17.108933"></trkpt><trkpt lat="52.709626" lon="17.106391"></trkpt><trkpt lat="52.709698" lon="17.105742"></trkpt><trkpt lat="52.709812" lon="17.103715"></trkpt><trkpt lat="52.709743" lon="17.103213"></trkpt><trkpt lat="52.709726" lon="17.10278"></trkpt><trkpt lat="52.709781" lon="17.103308"></trkpt><trkpt lat="52.709865" lon="17.103746"></trkpt><trkpt lat="52.709906" lon="17.104108"></trkpt><trkpt lat="52.70981" lon="17.104791"></trkpt><trkpt lat="52.70962" lon="17.107378"></trkpt><trkpt lat="52.709868" lon="17.107251"></trkpt><trkpt lat="52.711051" lon="17.106483"></trkpt><trkpt lat="52.711087" lon="17.106161"></trkpt><trkpt lat="52.711093" lon="17.10536"></trkpt><trkpt lat="52.711397" lon="17.102593"></trkpt><trkpt lat="52.711545" lon="17.102194"></trkpt><trkpt lat="52.712141" lon="17.100862"></trkpt><trkpt lat="52.712673" lon="17.099463"></trkpt><trkpt lat="52.712698" lon="17.099106"></trkpt><trkpt lat="52.712691" lon="17.098396"></trkpt><trkpt lat="52.712791" lon="17.097683"></trkpt><trkpt lat="52.712948" lon="17.097164"></trkpt><trkpt lat="52.713622" lon="17.095319"></trkpt><trkpt lat="52.713792" lon="17.09505"></trkpt><trkpt lat="52.713969" lon="17.094522"></trkpt><trkpt lat="52.713957" lon="17.094059"></trkpt><trkpt lat="52.713973" lon="17.09363"></trkpt><trkpt lat="52.713921" lon="17.093274"></trkpt><trkpt lat="52.713866" lon="17.092627"></trkpt><trkpt lat="52.713742" lon="17.092103"></trkpt><trkpt lat="52.713594" lon="17.091686"></trkpt><trkpt lat="52.713086" lon="17.090542"></trkpt><trkpt lat="52.712865" lon="17.090182"></trkpt><trkpt lat="52.712714" lon="17.089888"></trkpt><trkpt lat="52.711863" lon="17.088459"></trkpt><trkpt lat="52.711625" lon="17.088128"></trkpt><trkpt lat="52.711392" lon="17.087744"></trkpt><trkpt lat="52.702845" lon="17.075506"></trkpt><trkpt lat="52.702627" lon="17.07524"></trkpt><trkpt lat="52.701568" lon="17.074208"></trkpt><trkpt lat="52.701441" lon="17.074492"></trkpt><trkpt lat="52.701582" lon="17.074112"></trkpt><trkpt lat="52.7012" lon="17.07348"></trkpt><trkpt lat="52.70103" lon="17.073262"></trkpt><trkpt lat="52.700821" lon="17.073112"></trkpt><trkpt lat="52.700299" lon="17.072859"></trkpt><trkpt lat="52.70005" lon="17.072772"></trkpt><trkpt lat="52.694823" lon="17.069559"></trkpt><trkpt lat="52.694902" lon="17.068289"></trkpt><trkpt lat="52.695035" lon="17.061445"></trkpt><trkpt lat="52.695013" lon="17.061903"></trkpt><trkpt lat="52.694946" lon="17.06148"></trkpt><trkpt lat="52.694714" lon="17.061233"></trkpt><trkpt lat="52.694329" lon="17.061133"></trkpt><trkpt lat="52.694604" lon="17.061141"></trkpt><trkpt lat="52.694938" lon="17.061227"></trkpt><trkpt lat="52.695216" lon="17.062143"></trkpt><trkpt lat="52.695376" lon="17.062895"></trkpt><trkpt lat="52.695317" lon="17.063625"></trkpt><trkpt lat="52.695162" lon="17.063863"></trkpt><trkpt lat="52.694911" lon="17.06398"></trkpt><trkpt lat="52.69448" lon="17.064406"></trkpt><trkpt lat="52.694424" lon="17.064836"></trkpt><trkpt lat="52.694407" lon="17.065229"></trkpt><trkpt lat="52.693953" lon="17.070457"></trkpt><trkpt lat="52.693465" lon="17.070356"></trkpt><trkpt lat="52.688097" lon="17.068495"></trkpt><trkpt lat="52.687778" lon="17.06826"></trkpt><trkpt lat="52.685042" lon="17.065845"></trkpt><trkpt lat="52.684799" lon="17.065691"></trkpt><trkpt lat="52.684386" lon="17.065333"></trkpt><trkpt lat="52.681709" lon="17.063468"></trkpt><trkpt lat="52.681359" lon="17.063298"></trkpt><trkpt lat="52.679944" lon="17.062824"></trkpt><trkpt lat="52.679604" lon="17.062782"></trkpt><trkpt lat="52.671016" lon="17.060449"></trkpt><trkpt lat="52.671256" lon="17.059939"></trkpt><trkpt lat="52.671487" lon="17.059518"></trkpt><trkpt lat="52.671743" lon="17.059135"></trkpt><trkpt lat="52.67205" lon="17.058585"></trkpt><trkpt lat="52.672623" lon="17.057332"></trkpt><trkpt lat="52.672688" lon="17.056618"></trkpt><trkpt lat="52.672678" lon="17.056208"></trkpt><trkpt lat="52.672513" lon="17.055067"></trkpt><trkpt lat="52.672389" lon="17.052637"></trkpt><trkpt lat="52.672468" lon="17.051891"></trkpt><trkpt lat="52.672481" lon="17.051516"></trkpt><trkpt lat="52.672539" lon="17.05117"></trkpt><trkpt lat="52.67266" lon="17.050735"></trkpt><trkpt lat="52.672658" lon="17.050221"></trkpt><trkpt lat="52.672733" lon="17.049073"></trkpt><trkpt lat="52.672782" lon="17.048657"></trkpt><trkpt lat="52.672967" lon="17.048069"></trkpt><trkpt lat="52.673442" lon="17.047422"></trkpt><trkpt lat="52.673985" lon="17.046802"></trkpt><trkpt lat="52.676471" lon="17.043265"></trkpt><trkpt lat="52.676638" lon="17.042713"></trkpt><trkpt lat="52.67677" lon="17.0424"></trkpt><trkpt lat="52.676556" lon="17.042243"></trkpt><trkpt lat="52.676096" lon="17.042092"></trkpt><trkpt lat="52.674086" lon="17.041811"></trkpt><trkpt lat="52.673876" lon="17.041681"></trkpt><trkpt lat="52.673716" lon="17.041141"></trkpt><trkpt lat="52.673547" lon="17.040756"></trkpt><trkpt lat="52.673395" lon="17.040504"></trkpt><trkpt lat="52.673256" lon="17.040191"></trkpt><trkpt lat="52.673007" lon="17.039877"></trkpt><trkpt lat="52.672818" lon="17.039751"></trkpt><trkpt lat="52.672703" lon="17.039211"></trkpt><trkpt lat="52.672516" lon="17.038056"></trkpt><trkpt lat="52.672475" lon="17.037636"></trkpt><trkpt lat="52.672248" lon="17.036627"></trkpt><trkpt lat="52.672091" lon="17.036366"></trkpt><trkpt lat="52.670727" lon="17.033707"></trkpt><trkpt lat="52.67067" lon="17.033311"></trkpt><trkpt lat="52.67065" lon="17.032958"></trkpt><trkpt lat="52.670415" lon="17.031091"></trkpt><trkpt lat="52.670284" lon="17.030774"></trkpt><trkpt lat="52.668423" lon="17.025503"></trkpt><trkpt lat="52.668233" lon="17.025067"></trkpt><trkpt lat="52.667989" lon="17.02472"></trkpt><trkpt lat="52.667731" lon="17.024453"></trkpt><trkpt lat="52.667478" lon="17.024254"></trkpt><trkpt lat="52.66708" lon="17.024095"></trkpt><trkpt lat="52.666839" lon="17.024074"></trkpt><trkpt lat="52.666569" lon="17.024014"></trkpt><trkpt lat="52.666362" lon="17.024022"></trkpt><trkpt lat="52.665771" lon="17.023876"></trkpt><trkpt lat="52.665492" lon="17.023725"></trkpt><trkpt lat="52.665008" lon="17.023276"></trkpt><trkpt lat="52.66465" lon="17.023028"></trkpt><trkpt lat="52.664469" lon="17.023287"></trkpt><trkpt lat="52.664373" lon="17.023583"></trkpt><trkpt lat="52.664441" lon="17.024098"></trkpt><trkpt lat="52.664619" lon="17.024982"></trkpt><trkpt lat="52.664685" lon="17.025465"></trkpt><trkpt lat="52.664724" lon="17.026128"></trkpt><trkpt lat="52.664623" lon="17.026801"></trkpt><trkpt lat="52.664485" lon="17.027436"></trkpt><trkpt lat="52.664242" lon="17.028291"></trkpt><trkpt lat="52.66404" lon="17.028785"></trkpt><trkpt lat="52.663855" lon="17.029072"></trkpt><trkpt lat="52.663667" lon="17.029251"></trkpt><trkpt lat="52.663441" lon="17.029354"></trkpt><trkpt lat="52.663135" lon="17.029543"></trkpt><trkpt lat="52.661983" lon="17.030104"></trkpt><trkpt lat="52.659326" lon="17.031789"></trkpt><trkpt lat="52.659175" lon="17.03268"></trkpt><trkpt lat="52.658035" lon="17.037166"></trkpt><trkpt lat="52.657852" lon="17.037553"></trkpt><trkpt lat="52.657988" lon="17.037215"></trkpt><trkpt lat="52.658219" lon="17.036917"></trkpt><trkpt lat="52.658271" lon="17.036462"></trkpt><trkpt lat="52.657916" lon="17.03613"></trkpt><trkpt lat="52.657516" lon="17.036958"></trkpt><trkpt lat="52.656597" lon="17.038589"></trkpt><trkpt lat="52.6563" lon="17.038378"></trkpt><trkpt lat="52.655934" lon="17.037854"></trkpt><trkpt lat="52.65372" lon="17.035239"></trkpt><trkpt lat="52.653156" lon="17.034831"></trkpt><trkpt lat="52.65284" lon="17.034739"></trkpt><trkpt lat="52.652549" lon="17.034507"></trkpt><trkpt lat="52.652225" lon="17.034309"></trkpt><trkpt lat="52.650135" lon="17.033568"></trkpt><trkpt lat="52.649639" lon="17.033868"></trkpt><trkpt lat="52.647515" lon="17.034879"></trkpt><trkpt lat="52.64664" lon="17.035176"></trkpt><trkpt lat="52.644637" lon="17.035574"></trkpt><trkpt lat="52.64417" lon="17.035594"></trkpt><trkpt lat="52.644253" lon="17.035963"></trkpt><trkpt lat="52.644426" lon="17.036553"></trkpt><trkpt lat="52.645" lon="17.038051"></trkpt><trkpt lat="52.645415" lon="17.038358"></trkpt><trkpt lat="52.648001" lon="17.040964"></trkpt><trkpt lat="52.648273" lon="17.041519"></trkpt><trkpt lat="52.648438" lon="17.041808"></trkpt><trkpt lat="52.648738" lon="17.042241"></trkpt><trkpt lat="52.649059" lon="17.042411"></trkpt><trkpt lat="52.649144" lon="17.04203"></trkpt><trkpt lat="52.649074" lon="17.042431"></trkpt><trkpt lat="52.648776" lon="17.042282"></trkpt><trkpt lat="52.648549" lon="17.041996"></trkpt><trkpt lat="52.648197" lon="17.041343"></trkpt><trkpt lat="52.647183" lon="17.039715"></trkpt><trkpt lat="52.646887" lon="17.039481"></trkpt><trkpt lat="52.646568" lon="17.039284"></trkpt><trkpt lat="52.646319" lon="17.039062"></trkpt><trkpt lat="52.644543" lon="17.036925"></trkpt><trkpt lat="52.644284" lon="17.036014"></trkpt><trkpt lat="52.644135" lon="17.035605"></trkpt><trkpt lat="52.643752" lon="17.035598"></trkpt><trkpt lat="52.640663" lon="17.036259"></trkpt><trkpt lat="52.640628" lon="17.036649"></trkpt><trkpt lat="52.64045" lon="17.040675"></trkpt><trkpt lat="52.640465" lon="17.043649"></trkpt><trkpt lat="52.64052" lon="17.044512"></trkpt><trkpt lat="52.642164" lon="17.058816"></trkpt><trkpt lat="52.642324" lon="17.059069"></trkpt><trkpt lat="52.642638" lon="17.059498"></trkpt><trkpt lat="52.643124" lon="17.059867"></trkpt><trkpt lat="52.643448" lon="17.060065"></trkpt><trkpt lat="52.643812" lon="17.060342"></trkpt><trkpt lat="52.644989" lon="17.061409"></trkpt><trkpt lat="52.645397" lon="17.061655"></trkpt><trkpt lat="52.645648" lon="17.061739"></trkpt><trkpt lat="52.646118" lon="17.06196"></trkpt><trkpt lat="52.646019" lon="17.062523"></trkpt><trkpt lat="52.64588" lon="17.063019"></trkpt><trkpt lat="52.645744" lon="17.063422"></trkpt><trkpt lat="52.644093" lon="17.069277"></trkpt><trkpt lat="52.644072" lon="17.069629"></trkpt><trkpt lat="52.644079" lon="17.069991"></trkpt><trkpt lat="52.644038" lon="17.071694"></trkpt><trkpt lat="52.644002" lon="17.072018"></trkpt><trkpt lat="52.642104" lon="17.084122"></trkpt><trkpt lat="52.641996" lon="17.084598"></trkpt><trkpt lat="52.641872" lon="17.085045"></trkpt><trkpt lat="52.637744" lon="17.097086"></trkpt><trkpt lat="52.637256" lon="17.097691"></trkpt><trkpt lat="52.637137" lon="17.097959"></trkpt><trkpt lat="52.636908" lon="17.098636"></trkpt><trkpt lat="52.633148" lon="17.107628"></trkpt><trkpt lat="52.632639" lon="17.108427"></trkpt><trkpt lat="52.632444" lon="17.108501"></trkpt><trkpt lat="52.631984" lon="17.108107"></trkpt><trkpt lat="52.631729" lon="17.108118"></trkpt><trkpt lat="52.631343" lon="17.108269"></trkpt><trkpt lat="52.631127" lon="17.108226"></trkpt><trkpt lat="52.63073" lon="17.107924"></trkpt><trkpt lat="52.630259" lon="17.107489"></trkpt><trkpt lat="52.619254" lon="17.096081"></trkpt><trkpt lat="52.618115" lon="17.095268"></trkpt><trkpt lat="52.617582" lon="17.094972"></trkpt><trkpt lat="52.613967" lon="17.094056"></trkpt><trkpt lat="52.614005" lon="17.094387"></trkpt><trkpt lat="52.61377" lon="17.094591"></trkpt><trkpt lat="52.613665" lon="17.095158"></trkpt></trkseg></trk></gpx>