<?xml version="1.0" encoding="UTF-8" standalone="no" ?><gpx xmlns="http://www.topografix.com/GPX/1/1" xmlns:gpxx="http://www.garmin.com/xmlschemas/GpxExtensions/v3" ><trk><trkseg><trkpt lat="51.892458" lon="17.733752"></trkpt><trkpt lat="51.892165" lon="17.734266"></trkpt><trkpt lat="51.891972" lon="17.734748"></trkpt><trkpt lat="51.890991" lon="17.737743"></trkpt><trkpt lat="51.890923" lon="17.737304"></trkpt><trkpt lat="51.890743" lon="17.737044"></trkpt><trkpt lat="51.887537" lon="17.73157"></trkpt><trkpt lat="51.887662" lon="17.730863"></trkpt><trkpt lat="51.887758" lon="17.730045"></trkpt><trkpt lat="51.887566" lon="17.729822"></trkpt><trkpt lat="51.887186" lon="17.729526"></trkpt><trkpt lat="51.8867" lon="17.729225"></trkpt><trkpt lat="51.886172" lon="17.728816"></trkpt><trkpt lat="51.886022" lon="17.728596"></trkpt><trkpt lat="51.885877" lon="17.72826"></trkpt><trkpt lat="51.885786" lon="17.727856"></trkpt><trkpt lat="51.88577" lon="17.727122"></trkpt><trkpt lat="51.885836" lon="17.726481"></trkpt><trkpt lat="51.885911" lon="17.725056"></trkpt><trkpt lat="51.88587" lon="17.72467"></trkpt><trkpt lat="51.885726" lon="17.723731"></trkpt><trkpt lat="51.876417" lon="17.677224"></trkpt><trkpt lat="51.876262" lon="17.676725"></trkpt><trkpt lat="51.874318" lon="17.668923"></trkpt><trkpt lat="51.874231" lon="17.668058"></trkpt><trkpt lat="51.874172" lon="17.666737"></trkpt><trkpt lat="51.874301" lon="17.666009"></trkpt><trkpt lat="51.874428" lon="17.66479"></trkpt><trkpt lat="51.8744" lon="17.66446"></trkpt><trkpt lat="51.874301" lon="17.663772"></trkpt><trkpt lat="51.87265" lon="17.64706"></trkpt><trkpt lat="51.866847" lon="17.606757"></trkpt><trkpt lat="51.86666" lon="17.606389"></trkpt><trkpt lat="51.866484" lon="17.605859"></trkpt><trkpt lat="51.866371" lon="17.605308"></trkpt><trkpt lat="51.86629" lon="17.604732"></trkpt><trkpt lat="51.86619" lon="17.603475"></trkpt><trkpt lat="51.866392" lon="17.603271"></trkpt><trkpt lat="51.866525" lon="17.603001"></trkpt><trkpt lat="51.866696" lon="17.602834"></trkpt><trkpt lat="51.866963" lon="17.602508"></trkpt><trkpt lat="51.866944" lon="17.602039"></trkpt><trkpt lat="51.866823" lon="17.600832"></trkpt><trkpt lat="51.866731" lon="17.600534"></trkpt><trkpt lat="51.866621" lon="17.600068"></trkpt><trkpt lat="51.866424" lon="17.599711"></trkpt><trkpt lat="51.866203" lon="17.599742"></trkpt><trkpt lat="51.865963" lon="17.599806"></trkpt><trkpt lat="51.864602" lon="17.600342"></trkpt><trkpt lat="51.86434" lon="17.600515"></trkpt><trkpt lat="51.863005" lon="17.601041"></trkpt><trkpt lat="51.831398" lon="17.588076"></trkpt><trkpt lat="51.831076" lon="17.587733"></trkpt><trkpt lat="51.810648" lon="17.562379"></trkpt><trkpt lat="51.810311" lon="17.561638"></trkpt><trkpt lat="51.793033" lon="17.528949"></trkpt><trkpt lat="51.792748" lon="17.528828"></trkpt><trkpt lat="51.786766" lon="17.525025"></trkpt><trkpt lat="51.78661" lon="17.524584"></trkpt><trkpt lat="51.781332" lon="17.506855"></trkpt><trkpt lat="51.781443" lon="17.506153"></trkpt><trkpt lat="51.781425" lon="17.505773"></trkpt><trkpt lat="51.781302" lon="17.505412"></trkpt><trkpt lat="51.781086" lon="17.505268"></trkpt><trkpt lat="51.780889" lon="17.505232"></trkpt><trkpt lat="51.772686" lon="17.502594"></trkpt><trkpt lat="51.77218" lon="17.50208"></trkpt><trkpt lat="51.74349" lon="17.476088"></trkpt><trkpt lat="51.743135" lon="17.475877"></trkpt><trkpt lat="51.741457" lon="17.474509"></trkpt><trkpt lat="51.740913" lon="17.47386"></trkpt><trkpt lat="51.739224" lon="17.471468"></trkpt><trkpt lat="51.739399" lon="17.471179"></trkpt><trkpt lat="51.739569" lon="17.470849"></trkpt><trkpt lat="51.740433" lon="17.469501"></trkpt><trkpt lat="51.740742" lon="17.469233"></trkpt><trkpt lat="51.741179" lon="17.468992"></trkpt><trkpt lat="51.741524" lon="17.468708"></trkpt><trkpt lat="51.741741" lon="17.468485"></trkpt><trkpt lat="51.742337" lon="17.46776"></trkpt><trkpt lat="51.742466" lon="17.467141"></trkpt><trkpt lat="51.742496" lon="17.466759"></trkpt><trkpt lat="51.74269" lon="17.460203"></trkpt><trkpt lat="51.742622" lon="17.459707"></trkpt><trkpt lat="51.741018" lon="17.451126"></trkpt><trkpt lat="51.740475" lon="17.448953"></trkpt><trkpt lat="51.740285" lon="17.44862"></trkpt><trkpt lat="51.739547" lon="17.447125"></trkpt><trkpt lat="51.739435" lon="17.446442"></trkpt><trkpt lat="51.738657" lon="17.442846"></trkpt><trkpt lat="51.738505" lon="17.442347"></trkpt><trkpt lat="51.73768" lon="17.440071"></trkpt><trkpt lat="51.737464" lon="17.439841"></trkpt><trkpt lat="51.73697" lon="17.439403"></trkpt><trkpt lat="51.736709" lon="17.439085"></trkpt><trkpt lat="51.736483" lon="17.438737"></trkpt><trkpt lat="51.736046" lon="17.438262"></trkpt><trkpt lat="51.735683" lon="17.438157"></trkpt><trkpt lat="51.734625" lon="17.43771"></trkpt><trkpt lat="51.734364" lon="17.437532"></trkpt><trkpt lat="51.733935" lon="17.437026"></trkpt><trkpt lat="51.734083" lon="17.436771"></trkpt><trkpt lat="51.734229" lon="17.436377"></trkpt><trkpt lat="51.734551" lon="17.435326"></trkpt><trkpt lat="51.734694" lon="17.43438"></trkpt><trkpt lat="51.734884" lon="17.432294"></trkpt><trkpt lat="51.734765" lon="17.43183"></trkpt><trkpt lat="51.734587" lon="17.430963"></trkpt><trkpt lat="51.734613" lon="17.431315"></trkpt><trkpt lat="51.734699" lon="17.431722"></trkpt><trkpt lat="51.734824" lon="17.432058"></trkpt><trkpt lat="51.734961" lon="17.431116"></trkpt><trkpt lat="51.734951" lon="17.430526"></trkpt><trkpt lat="51.735129" lon="17.427694"></trkpt><trkpt lat="51.735246" lon="17.427212"></trkpt><trkpt lat="51.735389" lon="17.426826"></trkpt><trkpt lat="51.735634" lon="17.426272"></trkpt><trkpt lat="51.736422" lon="17.424934"></trkpt><trkpt lat="51.736726" lon="17.424329"></trkpt><trkpt lat="51.736996" lon="17.423694"></trkpt><trkpt lat="51.746778" lon="17.396228"></trkpt><trkpt lat="51.746841" lon="17.395739"></trkpt><trkpt lat="51.748157" lon="17.388352"></trkpt><trkpt lat="51.748363" lon="17.387967"></trkpt><trkpt lat="51.74846" lon="17.387659"></trkpt><trkpt lat="51.748445" lon="17.387304"></trkpt><trkpt lat="51.748323" lon="17.386432"></trkpt><trkpt lat="51.748144" lon="17.385527"></trkpt><trkpt lat="51.748001" lon="17.385271"></trkpt><trkpt lat="51.747811" lon="17.385046"></trkpt><trkpt lat="51.747567" lon="17.384537"></trkpt><trkpt lat="51.747435" lon="17.384175"></trkpt><trkpt lat="51.747371" lon="17.383866"></trkpt><trkpt lat="51.737176" lon="17.333736"></trkpt><trkpt lat="51.736931" lon="17.333038"></trkpt><trkpt lat="51.73407" lon="17.323196"></trkpt><trkpt lat="51.73399" lon="17.322364"></trkpt><trkpt lat="51.733179" lon="17.316744"></trkpt><trkpt lat="51.733009" lon="17.316323"></trkpt><trkpt lat="51.732841" lon="17.315981"></trkpt><trkpt lat="51.732622" lon="17.315669"></trkpt><trkpt lat="51.732613" lon="17.316269"></trkpt><trkpt lat="51.732677" lon="17.316597"></trkpt><trkpt lat="51.732626" lon="17.316269"></trkpt><trkpt lat="51.732644" lon="17.315794"></trkpt><trkpt lat="51.732465" lon="17.315439"></trkpt><trkpt lat="51.73245" lon="17.315053"></trkpt><trkpt lat="51.732579" lon="17.314653"></trkpt><trkpt lat="51.732941" lon="17.314504"></trkpt><trkpt lat="51.733659" lon="17.314419"></trkpt><trkpt lat="51.733786" lon="17.314709"></trkpt><trkpt lat="51.734031" lon="17.314922"></trkpt><trkpt lat="51.734384" lon="17.31497"></trkpt><trkpt lat="51.735671" lon="17.314948"></trkpt><trkpt lat="51.735888" lon="17.31502"></trkpt><trkpt lat="51.736237" lon="17.315091"></trkpt><trkpt lat="51.740328" lon="17.315416"></trkpt><trkpt lat="51.741642" lon="17.315109"></trkpt><trkpt lat="51.742092" lon="17.314851"></trkpt><trkpt lat="51.742447" lon="17.314595"></trkpt><trkpt lat="51.7427" lon="17.314357"></trkpt><trkpt lat="51.746409" lon="17.310272"></trkpt><trkpt lat="51.746314" lon="17.309918"></trkpt><trkpt lat="51.737592" lon="17.282835"></trkpt><trkpt lat="51.733443" lon="17.272071"></trkpt><trkpt lat="51.733054" lon="17.272015"></trkpt><trkpt lat="51.732319" lon="17.271801"></trkpt><trkpt lat="51.731475" lon="17.271721"></trkpt><trkpt lat="51.727484" lon="17.270684"></trkpt><trkpt lat="51.727287" lon="17.270521"></trkpt><trkpt lat="51.722795" lon="17.265986"></trkpt><trkpt lat="51.722646" lon="17.265673"></trkpt><trkpt lat="51.722351" lon="17.264883"></trkpt><trkpt lat="51.722093" lon="17.263913"></trkpt><trkpt lat="51.715868" lon="17.233788"></trkpt><trkpt lat="51.716033" lon="17.232918"></trkpt><trkpt lat="51.71608" lon="17.232468"></trkpt><trkpt lat="51.716087" lon="17.232014"></trkpt><trkpt lat="51.716059" lon="17.23155"></trkpt><trkpt lat="51.715943" lon="17.23086"></trkpt><trkpt lat="51.715727" lon="17.229973"></trkpt><trkpt lat="51.715646" lon="17.229535"></trkpt><trkpt lat="51.715633" lon="17.229102"></trkpt><trkpt lat="51.715658" lon="17.228685"></trkpt><trkpt lat="51.71562" lon="17.226643"></trkpt><trkpt lat="51.71526" lon="17.22661"></trkpt><trkpt lat="51.714039" lon="17.226357"></trkpt><trkpt lat="51.713888" lon="17.226108"></trkpt><trkpt lat="51.713721" lon="17.225678"></trkpt><trkpt lat="51.713519" lon="17.225537"></trkpt><trkpt lat="51.713292" lon="17.225596"></trkpt><trkpt lat="51.713119" lon="17.225878"></trkpt><trkpt lat="51.713175" lon="17.225568"></trkpt><trkpt lat="51.713394" lon="17.225492"></trkpt><trkpt lat="51.713088" lon="17.225363"></trkpt><trkpt lat="51.712933" lon="17.225139"></trkpt><trkpt lat="51.712672" lon="17.224976"></trkpt><trkpt lat="51.712521" lon="17.224736"></trkpt><trkpt lat="51.712383" lon="17.224232"></trkpt><trkpt lat="51.71046" lon="17.218625"></trkpt><trkpt lat="51.710123" lon="17.21852"></trkpt><trkpt lat="51.694008" lon="17.211515"></trkpt><trkpt lat="51.693625" lon="17.210917"></trkpt><trkpt lat="51.69349" lon="17.210639"></trkpt><trkpt lat="51.693268" lon="17.210766"></trkpt><trkpt lat="51.693155" lon="17.211029"></trkpt><trkpt lat="51.693285" lon="17.21077"></trkpt><trkpt lat="51.693481" lon="17.210657"></trkpt><trkpt lat="51.693703" lon="17.211078"></trkpt><trkpt lat="51.693965" lon="17.211469"></trkpt><trkpt lat="51.694404" lon="17.212024"></trkpt><trkpt lat="51.69474" lon="17.212209"></trkpt><trkpt lat="51.695563" lon="17.212771"></trkpt><trkpt lat="51.701266" lon="17.215849"></trkpt><trkpt lat="51.701749" lon="17.215992"></trkpt><trkpt lat="51.710794" lon="17.217139"></trkpt><trkpt lat="51.71064" lon="17.216265"></trkpt><trkpt lat="51.710435" lon="17.214045"></trkpt><trkpt lat="51.710501" lon="17.213283"></trkpt><trkpt lat="51.710541" lon="17.211747"></trkpt><trkpt lat="51.7105" lon="17.210877"></trkpt><trkpt lat="51.709434" lon="17.199198"></trkpt><trkpt lat="51.709339" lon="17.198591"></trkpt><trkpt lat="51.70699" lon="17.187277"></trkpt><trkpt lat="51.706824" lon="17.187031"></trkpt><trkpt lat="51.70072" lon="17.175958"></trkpt><trkpt lat="51.701038" lon="17.175353"></trkpt><trkpt lat="51.701161" lon="17.175061"></trkpt><trkpt lat="51.701021" lon="17.174625"></trkpt><trkpt lat="51.700842" lon="17.174359"></trkpt><trkpt lat="51.699271" lon="17.172487"></trkpt><trkpt lat="51.698815" lon="17.172941"></trkpt><trkpt lat="51.698517" lon="17.172887"></trkpt><trkpt lat="51.698172" lon="17.172473"></trkpt><trkpt lat="51.685874" lon="17.159773"></trkpt><trkpt lat="51.685382" lon="17.159541"></trkpt><trkpt lat="51.685109" lon="17.159517"></trkpt><trkpt lat="51.684836" lon="17.159623"></trkpt><trkpt lat="51.684359" lon="17.159958"></trkpt><trkpt lat="51.682503" lon="17.160979"></trkpt><trkpt lat="51.681783" lon="17.160757"></trkpt><trkpt lat="51.660037" lon="17.151116"></trkpt><trkpt lat="51.66007" lon="17.150289"></trkpt><trkpt lat="51.662569" lon="17.120541"></trkpt><trkpt lat="51.662664" lon="17.120011"></trkpt><trkpt lat="51.664048" lon="17.109122"></trkpt><trkpt lat="51.66371" lon="17.108106"></trkpt><trkpt lat="51.662553" lon="17.103779"></trkpt><trkpt lat="51.662649" lon="17.102998"></trkpt><trkpt lat="51.662781" lon="17.10127"></trkpt><trkpt lat="51.662664" lon="17.100929"></trkpt><trkpt lat="51.66233" lon="17.100254"></trkpt><trkpt lat="51.658076" lon="17.090286"></trkpt><trkpt lat="51.658119" lon="17.08985"></trkpt><trkpt lat="51.658289" lon="17.08654"></trkpt><trkpt lat="51.658213" lon="17.085823"></trkpt><trkpt lat="51.655878" lon="17.045983"></trkpt><trkpt lat="51.656051" lon="17.044996"></trkpt><trkpt lat="51.657001" lon="17.036675"></trkpt><trkpt lat="51.656636" lon="17.036446"></trkpt><trkpt lat="51.655257" lon="17.03533"></trkpt><trkpt lat="51.655293" lon="17.034948"></trkpt><trkpt lat="51.655479" lon="17.034209"></trkpt><trkpt lat="51.655744" lon="17.033481"></trkpt><trkpt lat="51.656811" lon="17.031005"></trkpt><trkpt lat="51.657254" lon="17.030659"></trkpt><trkpt lat="51.657842" lon="17.029967"></trkpt><trkpt lat="51.658084" lon="17.029185"></trkpt><trkpt lat="51.662696" lon="17.010871"></trkpt><trkpt lat="51.662769" lon="17.009962"></trkpt><trkpt lat="51.663493" lon="16.986598"></trkpt><trkpt lat="51.66343" lon="16.986229"></trkpt><trkpt lat="51.660613" lon="16.973377"></trkpt><trkpt lat="51.660367" lon="16.972734"></trkpt><trkpt lat="51.655206" lon="16.956352"></trkpt><trkpt lat="51.65526" lon="16.955805"></trkpt><trkpt lat="51.655247" lon="16.955485"></trkpt><trkpt lat="51.655412" lon="16.955189"></trkpt><trkpt lat="51.655181" lon="16.955135"></trkpt><trkpt lat="51.655125" lon="16.954684"></trkpt><trkpt lat="51.654882" lon="16.954404"></trkpt><trkpt lat="51.654568" lon="16.954494"></trkpt><trkpt lat="51.654239" lon="16.954491"></trkpt><trkpt lat="51.653771" lon="16.954391"></trkpt><trkpt lat="51.650341" lon="16.953041"></trkpt><trkpt lat="51.649865" lon="16.952348"></trkpt><trkpt lat="51.646903" lon="16.946841"></trkpt><trkpt lat="51.646785" lon="16.94587"></trkpt><trkpt lat="51.644789" lon="16.934573"></trkpt><trkpt lat="51.644691" lon="16.934252"></trkpt><trkpt lat="51.643698" lon="16.930304"></trkpt><trkpt lat="51.637965" lon="16.911486"></trkpt><trkpt lat="51.636979" lon="16.908897"></trkpt><trkpt lat="51.636909" lon="16.908478"></trkpt><trkpt lat="51.636571" lon="16.907755"></trkpt><trkpt lat="51.636276" lon="16.907221"></trkpt><trkpt lat="51.636001" lon="16.906794"></trkpt><trkpt lat="51.635769" lon="16.906535"></trkpt><trkpt lat="51.635614" lon="16.906253"></trkpt><trkpt lat="51.635342" lon="16.905855"></trkpt><trkpt lat="51.627721" lon="16.896258"></trkpt><trkpt lat="51.627605" lon="16.895987"></trkpt><trkpt lat="51.62758" lon="16.895468"></trkpt><trkpt lat="51.627533" lon="16.895139"></trkpt><trkpt lat="51.627394" lon="16.894431"></trkpt><trkpt lat="51.627154" lon="16.893696"></trkpt><trkpt lat="51.619677" lon="16.874257"></trkpt><trkpt lat="51.619328" lon="16.873543"></trkpt><trkpt lat="51.615312" lon="16.866893"></trkpt><trkpt lat="51.614663" lon="16.866773"></trkpt><trkpt lat="51.611501" lon="16.865788"></trkpt><trkpt lat="51.61144" lon="16.865211"></trkpt><trkpt lat="51.61156" lon="16.864166"></trkpt><trkpt lat="51.612031" lon="16.85718"></trkpt><trkpt lat="51.611985" lon="16.856187"></trkpt><trkpt lat="51.611617" lon="16.853552"></trkpt><trkpt lat="51.611251" lon="16.853497"></trkpt><trkpt lat="51.609601" lon="16.853009"></trkpt><trkpt lat="51.609601" lon="16.853533"></trkpt><trkpt lat="51.609641" lon="16.853941"></trkpt><trkpt lat="51.609687" lon="16.854824"></trkpt><trkpt lat="51.609657" lon="16.855258"></trkpt><trkpt lat="51.609673" lon="16.855728"></trkpt><trkpt lat="51.609664" lon="16.856531"></trkpt><trkpt lat="51.609625" lon="16.857011"></trkpt><trkpt lat="51.609621" lon="16.857341"></trkpt><trkpt lat="51.609581" lon="16.857731"></trkpt><trkpt lat="51.609569" lon="16.858087"></trkpt><trkpt lat="51.609511" lon="16.858707"></trkpt><trkpt lat="51.609327" lon="16.858828"></trkpt><trkpt lat="51.609468" lon="16.85908"></trkpt><trkpt lat="51.60949" lon="16.859415"></trkpt><trkpt lat="51.609445" lon="16.860033"></trkpt><trkpt lat="51.609281" lon="16.861315"></trkpt><trkpt lat="51.609024" lon="16.861267"></trkpt><trkpt lat="51.608902" lon="16.860914"></trkpt><trkpt lat="51.608951" lon="16.860301"></trkpt><trkpt lat="51.608958" lon="16.859946"></trkpt><trkpt lat="51.608989" lon="16.859504"></trkpt><trkpt lat="51.609114" lon="16.858593"></trkpt><trkpt lat="51.609371" lon="16.858659"></trkpt><trkpt lat="51.60947" lon="16.85825"></trkpt><trkpt lat="51.609506" lon="16.857754"></trkpt><trkpt lat="51.609572" lon="16.857407"></trkpt><trkpt lat="51.609678" lon="16.85658"></trkpt><trkpt lat="51.609657" lon="16.856086"></trkpt><trkpt lat="51.609666" lon="16.855753"></trkpt><trkpt lat="51.609623" lon="16.853371"></trkpt><trkpt lat="51.609585" lon="16.852987"></trkpt><trkpt lat="51.609571" lon="16.852551"></trkpt><trkpt lat="51.609204" lon="16.848292"></trkpt><trkpt lat="51.609274" lon="16.847082"></trkpt><trkpt lat="51.609453" lon="16.846514"></trkpt><trkpt lat="51.610203" lon="16.843648"></trkpt><trkpt lat="51.61019" lon="16.843298"></trkpt><trkpt lat="51.609859" lon="16.839711"></trkpt><trkpt lat="51.608663" lon="16.840456"></trkpt></trkseg></trk></gpx>