<?xml version="1.0" encoding="UTF-8" standalone="no" ?><gpx xmlns="http://www.topografix.com/GPX/1/1" xmlns:gpxx="http://www.garmin.com/xmlschemas/GpxExtensions/v3" ><trk><trkseg><trkpt lat="50.8782828413" lon="15.871501537"></trkpt><trkpt lat="50.8782781474" lon="15.8710732218"></trkpt><trkpt lat="50.8780705277" lon="15.8707833756"></trkpt><trkpt lat="50.8777895663" lon="15.8705101255"></trkpt><trkpt lat="50.8778192382" lon="15.8700336982"></trkpt><trkpt lat="50.8778199926" lon="15.8693940751"></trkpt><trkpt lat="50.877541462" lon="15.8690572903"></trkpt><trkpt lat="50.8772056829" lon="15.8690220024"></trkpt><trkpt lat="50.8768222947" lon="15.8691434562"></trkpt><trkpt lat="50.8765730169" lon="15.8693638165"></trkpt><trkpt lat="50.8762920555" lon="15.8694143593"></trkpt><trkpt lat="50.8759341482" lon="15.8692991082"></trkpt><trkpt lat="50.8756062482" lon="15.8692675084"></trkpt><trkpt lat="50.8754862193" lon="15.8697376493"></trkpt><trkpt lat="50.8752957825" lon="15.8701906912"></trkpt><trkpt lat="50.8750216942" lon="15.8706624247"></trkpt><trkpt lat="50.874679042" lon="15.8709220961"></trkpt><trkpt lat="50.8742704242" lon="15.8711108565"></trkpt><trkpt lat="50.8740119264" lon="15.8712719567"></trkpt><trkpt lat="50.8737496566" lon="15.8715874515"></trkpt><trkpt lat="50.8734489139" lon="15.8718422614"></trkpt><trkpt lat="50.8731893264" lon="15.8721741848"></trkpt><trkpt lat="50.8728442434" lon="15.8723294176"></trkpt><trkpt lat="50.8725202829" lon="15.8726454154"></trkpt><trkpt lat="50.8722116612" lon="15.8726825472"></trkpt><trkpt lat="50.871952828" lon="15.8724405617"></trkpt><trkpt lat="50.8716323879" lon="15.8722855803"></trkpt><trkpt lat="50.8712666854" lon="15.8722799644"></trkpt><trkpt lat="50.8700502198" lon="15.8725915197"></trkpt><trkpt lat="50.869720811" lon="15.8728046715"></trkpt><trkpt lat="50.8694107644" lon="15.8728642669"></trkpt><trkpt lat="50.8690461516" lon="15.8728517778"></trkpt><trkpt lat="50.8687288966" lon="15.8727397118"></trkpt><trkpt lat="50.8682741784" lon="15.8724038489"></trkpt><trkpt lat="50.8680473641" lon="15.8719837479"></trkpt><trkpt lat="50.8679016866" lon="15.8716110885"></trkpt><trkpt lat="50.8675644826" lon="15.8709184919"></trkpt><trkpt lat="50.8672094252" lon="15.8704149071"></trkpt><trkpt lat="50.8668975346" lon="15.8697727695"></trkpt><trkpt lat="50.8668444771" lon="15.8692529239"></trkpt><trkpt lat="50.8668744005" lon="15.8687777538"></trkpt><trkpt lat="50.8670014702" lon="15.8680534735"></trkpt><trkpt lat="50.8673068229" lon="15.8676702529"></trkpt><trkpt lat="50.867798673" lon="15.8672939055"></trkpt><trkpt lat="50.8680165187" lon="15.8668496646"></trkpt><trkpt lat="50.8682574145" lon="15.8664471656"></trkpt><trkpt lat="50.8685118891" lon="15.8661947027"></trkpt><trkpt lat="50.8687575627" lon="15.8658074588"></trkpt><trkpt lat="50.8689849637" lon="15.8655332867"></trkpt><trkpt lat="50.8690882288" lon="15.866158409"></trkpt><trkpt lat="50.8690878935" lon="15.866603069"></trkpt><trkpt lat="50.8689971175" lon="15.8673295286"></trkpt><trkpt lat="50.8688297309" lon="15.8677210473"></trkpt><trkpt lat="50.8691096026" lon="15.8677851688"></trkpt><trkpt lat="50.8690816071" lon="15.868319096"></trkpt><trkpt lat="50.8693942521" lon="15.8682637755"></trkpt><trkpt lat="50.8693338186" lon="15.8686879836"></trkpt><trkpt lat="50.8695764747" lon="15.8690218348"></trkpt><trkpt lat="50.8695048932" lon="15.869449228"></trkpt><trkpt lat="50.8695808332" lon="15.8689938392"></trkpt><trkpt lat="50.8693246823" lon="15.8687485009"></trkpt><trkpt lat="50.8693931624" lon="15.8683265559"></trkpt><trkpt lat="50.8691587206" lon="15.8685575612"></trkpt><trkpt lat="50.8692018036" lon="15.8680175152"></trkpt><trkpt lat="50.8689166512" lon="15.8681572415"></trkpt><trkpt lat="50.8689828683" lon="15.8676420059"></trkpt><trkpt lat="50.8689842932" lon="15.8669302147"></trkpt><trkpt lat="50.869074231" lon="15.8656885196"></trkpt><trkpt lat="50.8687209338" lon="15.8659763541"></trkpt><trkpt lat="50.8685757592" lon="15.8663656097"></trkpt><trkpt lat="50.8683269843" lon="15.8666834515"></trkpt><trkpt lat="50.8680980746" lon="15.8670969307"></trkpt><trkpt lat="50.8677607868" lon="15.8675592765"></trkpt><trkpt lat="50.8673450444" lon="15.8679969795"></trkpt><trkpt lat="50.8670502529" lon="15.868249191"></trkpt><trkpt lat="50.8670357522" lon="15.868757721"></trkpt><trkpt lat="50.8670515101" lon="15.869275555"></trkpt><trkpt lat="50.8670952637" lon="15.8697284292"></trkpt><trkpt lat="50.866989065" lon="15.8702082094"></trkpt><trkpt lat="50.8672776539" lon="15.8704595827"></trkpt><trkpt lat="50.8674754668" lon="15.8708196692"></trkpt><trkpt lat="50.8677397482" lon="15.8713960927"></trkpt><trkpt lat="50.8679404948" lon="15.871723406"></trkpt><trkpt lat="50.8681083843" lon="15.8722201176"></trkpt><trkpt lat="50.8682911936" lon="15.8725455869"></trkpt><trkpt lat="50.868586991" lon="15.8727849741"></trkpt><trkpt lat="50.8689193334" lon="15.8728434797"></trkpt><trkpt lat="50.8694186434" lon="15.8728317451"></trkpt><trkpt lat="50.8698147722" lon="15.8727526199"></trkpt><trkpt lat="50.8701031096" lon="15.872419104"></trkpt><trkpt lat="50.8704656269" lon="15.8722791262"></trkpt><trkpt lat="50.8708353527" lon="15.8722203691"></trkpt><trkpt lat="50.8721868508" lon="15.8726691362"></trkpt><trkpt lat="50.8725056145" lon="15.8725148253"></trkpt><trkpt lat="50.8727752604" lon="15.8722542319"></trkpt><trkpt lat="50.8730650228" lon="15.8720341232"></trkpt><trkpt lat="50.8742099069" lon="15.8713554405"></trkpt><trkpt lat="50.8745906968" lon="15.871006418"></trkpt><trkpt lat="50.8747836482" lon="15.8706903365"></trkpt><trkpt lat="50.8750558924" lon="15.8703628555"></trkpt><trkpt lat="50.8752771746" lon="15.8699770365"></trkpt><trkpt lat="50.8754087705" lon="15.8695685863"></trkpt><trkpt lat="50.8756805956" lon="15.8707470819"></trkpt><trkpt lat="50.8759229165" lon="15.8710289653"></trkpt><trkpt lat="50.8760820888" lon="15.8713968471"></trkpt><trkpt lat="50.8763629664" lon="15.8713473938"></trkpt><trkpt lat="50.8767496236" lon="15.871185204"></trkpt><trkpt lat="50.8770367038" lon="15.87099066"></trkpt><trkpt lat="50.8773350157" lon="15.8711312246"></trkpt><trkpt lat="50.877280198" lon="15.87159927"></trkpt><trkpt lat="50.8771685511" lon="15.8722084668"></trkpt><trkpt lat="50.8773828764" lon="15.8725163341"></trkpt><trkpt lat="50.8778199926" lon="15.8730368502"></trkpt><trkpt lat="50.8780577872" lon="15.8726577368"></trkpt><trkpt lat="50.8782825898" lon="15.8723849058"></trkpt><trkpt lat="50.8782635629" lon="15.8717271779"></trkpt><trkpt lat="50.8785489667" lon="15.8715775609"></trkpt><trkpt lat="50.8789273258" lon="15.8715406805"></trkpt><trkpt lat="50.8791699819" lon="15.8710492495"></trkpt><trkpt lat="50.8792869933" lon="15.8706032485"></trkpt><trkpt lat="50.8794598281" lon="15.8701043576"></trkpt><trkpt lat="50.8797627501" lon="15.8702480234"></trkpt><trkpt lat="50.8800022211" lon="15.8706854749"></trkpt><trkpt lat="50.8801582921" lon="15.8710713778"></trkpt><trkpt lat="50.8803665824" lon="15.8713735454"></trkpt><trkpt lat="50.8805491403" lon="15.8716996014"></trkpt><trkpt lat="50.8807524852" lon="15.8720040321"></trkpt><trkpt lat="50.8809248172" lon="15.8723402303"></trkpt><trkpt lat="50.8812274877" lon="15.873061996"></trkpt><trkpt lat="50.8813912701" lon="15.8735766448"></trkpt><trkpt lat="50.8816596586" lon="15.8737037983"></trkpt><trkpt lat="50.8819754049" lon="15.8734559454"></trkpt><trkpt lat="50.8823034726" lon="15.8731185738"></trkpt><trkpt lat="50.8828157745" lon="15.872452464"></trkpt><trkpt lat="50.8830295969" lon="15.8719998412"></trkpt><trkpt lat="50.8832293376" lon="15.8716461249"></trkpt><trkpt lat="50.8833459299" lon="15.8711781632"></trkpt><trkpt lat="50.8836780209" lon="15.8710603137"></trkpt></trkseg></trk></gpx>