<?xml version="1.0" encoding="UTF-8" standalone="no" ?><gpx xmlns="http://www.topografix.com/GPX/1/1" xmlns:gpxx="http://www.garmin.com/xmlschemas/GpxExtensions/v3" ><trk><trkseg><trkpt lat="54.274952" lon="18.41462"></trkpt><trkpt lat="54.274811" lon="18.414871"></trkpt><trkpt lat="54.274738" lon="18.415247"></trkpt><trkpt lat="54.274606" lon="18.416155"></trkpt><trkpt lat="54.273724" lon="18.419927"></trkpt><trkpt lat="54.273426" lon="18.419665"></trkpt><trkpt lat="54.273114" lon="18.41946"></trkpt><trkpt lat="54.266807" lon="18.41437"></trkpt><trkpt lat="54.266663" lon="18.414123"></trkpt><trkpt lat="54.265255" lon="18.411331"></trkpt><trkpt lat="54.264729" lon="18.410474"></trkpt><trkpt lat="54.264492" lon="18.410568"></trkpt><trkpt lat="54.264369" lon="18.410275"></trkpt><trkpt lat="54.264364" lon="18.409921"></trkpt><trkpt lat="54.264433" lon="18.409196"></trkpt><trkpt lat="54.264444" lon="18.408793"></trkpt><trkpt lat="54.264501" lon="18.408093"></trkpt><trkpt lat="54.264432" lon="18.407342"></trkpt><trkpt lat="54.264163" lon="18.405416"></trkpt><trkpt lat="54.263979" lon="18.404424"></trkpt><trkpt lat="54.263836" lon="18.403865"></trkpt><trkpt lat="54.260353" lon="18.386786"></trkpt><trkpt lat="54.260392" lon="18.386197"></trkpt><trkpt lat="54.26047" lon="18.385773"></trkpt><trkpt lat="54.260504" lon="18.385244"></trkpt><trkpt lat="54.260458" lon="18.384712"></trkpt><trkpt lat="54.260537" lon="18.383228"></trkpt><trkpt lat="54.260526" lon="18.382788"></trkpt><trkpt lat="54.260218" lon="18.381965"></trkpt><trkpt lat="54.259687" lon="18.381222"></trkpt><trkpt lat="54.259408" lon="18.380505"></trkpt><trkpt lat="54.259322" lon="18.380023"></trkpt><trkpt lat="54.25922" lon="18.379604"></trkpt><trkpt lat="54.259167" lon="18.379213"></trkpt><trkpt lat="54.259164" lon="18.378393"></trkpt><trkpt lat="54.258919" lon="18.373555"></trkpt><trkpt lat="54.258827" lon="18.373192"></trkpt><trkpt lat="54.258577" lon="18.372457"></trkpt><trkpt lat="54.25832" lon="18.371368"></trkpt><trkpt lat="54.258257" lon="18.371034"></trkpt><trkpt lat="54.258109" lon="18.370721"></trkpt><trkpt lat="54.257761" lon="18.370489"></trkpt><trkpt lat="54.257269" lon="18.370313"></trkpt><trkpt lat="54.255441" lon="18.370431"></trkpt><trkpt lat="54.254688" lon="18.370274"></trkpt><trkpt lat="54.254444" lon="18.370181"></trkpt><trkpt lat="54.254216" lon="18.369979"></trkpt><trkpt lat="54.253929" lon="18.369587"></trkpt><trkpt lat="54.253317" lon="18.368978"></trkpt><trkpt lat="54.253115" lon="18.368932"></trkpt><trkpt lat="54.252841" lon="18.368778"></trkpt><trkpt lat="54.252642" lon="18.368558"></trkpt><trkpt lat="54.252236" lon="18.367943"></trkpt><trkpt lat="54.252062" lon="18.367578"></trkpt><trkpt lat="54.249906" lon="18.364134"></trkpt><trkpt lat="54.249728" lon="18.363899"></trkpt><trkpt lat="54.249511" lon="18.363457"></trkpt><trkpt lat="54.249261" lon="18.36311"></trkpt><trkpt lat="54.248969" lon="18.362643"></trkpt><trkpt lat="54.248793" lon="18.362009"></trkpt><trkpt lat="54.248621" lon="18.361643"></trkpt><trkpt lat="54.248406" lon="18.361326"></trkpt><trkpt lat="54.246664" lon="18.358295"></trkpt><trkpt lat="54.246695" lon="18.357959"></trkpt><trkpt lat="54.246712" lon="18.357591"></trkpt><trkpt lat="54.246877" lon="18.355974"></trkpt><trkpt lat="54.247166" lon="18.355607"></trkpt><trkpt lat="54.247484" lon="18.355355"></trkpt><trkpt lat="54.247699" lon="18.355215"></trkpt><trkpt lat="54.24892" lon="18.354201"></trkpt><trkpt lat="54.249064" lon="18.353883"></trkpt><trkpt lat="54.24915" lon="18.35332"></trkpt><trkpt lat="54.248993" lon="18.352642"></trkpt><trkpt lat="54.24856" lon="18.351097"></trkpt><trkpt lat="54.248393" lon="18.350832"></trkpt><trkpt lat="54.248415" lon="18.350123"></trkpt><trkpt lat="54.248394" lon="18.349669"></trkpt><trkpt lat="54.248233" lon="18.348487"></trkpt><trkpt lat="54.248051" lon="18.348211"></trkpt><trkpt lat="54.246695" lon="18.345296"></trkpt><trkpt lat="54.246603" lon="18.344359"></trkpt><trkpt lat="54.246242" lon="18.343332"></trkpt><trkpt lat="54.245198" lon="18.339828"></trkpt><trkpt lat="54.243307" lon="18.332006"></trkpt><trkpt lat="54.243266" lon="18.331455"></trkpt><trkpt lat="54.243253" lon="18.33039"></trkpt><trkpt lat="54.243306" lon="18.328801"></trkpt><trkpt lat="54.243333" lon="18.328462"></trkpt><trkpt lat="54.243529" lon="18.326912"></trkpt><trkpt lat="54.243634" lon="18.326393"></trkpt><trkpt lat="54.244094" lon="18.323195"></trkpt><trkpt lat="54.24407" lon="18.322656"></trkpt><trkpt lat="54.244138" lon="18.319755"></trkpt><trkpt lat="54.244266" lon="18.319113"></trkpt><trkpt lat="54.245027" lon="18.314083"></trkpt><trkpt lat="54.245003" lon="18.31315"></trkpt><trkpt lat="54.245023" lon="18.312187"></trkpt><trkpt lat="54.244833" lon="18.306827"></trkpt><trkpt lat="54.244726" lon="18.306414"></trkpt><trkpt lat="54.244487" lon="18.305245"></trkpt><trkpt lat="54.244475" lon="18.303966"></trkpt><trkpt lat="54.244355" lon="18.303182"></trkpt><trkpt lat="54.244329" lon="18.30278"></trkpt><trkpt lat="54.244319" lon="18.301245"></trkpt><trkpt lat="54.244247" lon="18.300058"></trkpt><trkpt lat="54.244114" lon="18.299535"></trkpt><trkpt lat="54.243209" lon="18.296636"></trkpt><trkpt lat="54.242996" lon="18.296431"></trkpt><trkpt lat="54.242743" lon="18.296267"></trkpt><trkpt lat="54.242088" lon="18.296006"></trkpt><trkpt lat="54.241761" lon="18.295977"></trkpt><trkpt lat="54.240556" lon="18.29569"></trkpt><trkpt lat="54.239506" lon="18.296187"></trkpt><trkpt lat="54.237521" lon="18.29658"></trkpt><trkpt lat="54.23738" lon="18.296334"></trkpt><trkpt lat="54.237259" lon="18.295313"></trkpt><trkpt lat="54.236913" lon="18.29419"></trkpt><trkpt lat="54.236711" lon="18.293169"></trkpt><trkpt lat="54.236672" lon="18.292816"></trkpt><trkpt lat="54.2363" lon="18.286578"></trkpt><trkpt lat="54.236365" lon="18.285286"></trkpt><trkpt lat="54.236262" lon="18.277288"></trkpt><trkpt lat="54.236109" lon="18.276169"></trkpt><trkpt lat="54.23583" lon="18.274785"></trkpt><trkpt lat="54.234426" lon="18.269631"></trkpt><trkpt lat="54.234158" lon="18.269399"></trkpt><trkpt lat="54.23364" lon="18.269249"></trkpt><trkpt lat="54.233224" lon="18.269057"></trkpt><trkpt lat="54.232944" lon="18.269008"></trkpt><trkpt lat="54.232915" lon="18.26862"></trkpt><trkpt lat="54.23277" lon="18.26822"></trkpt><trkpt lat="54.232694" lon="18.266832"></trkpt><trkpt lat="54.232613" lon="18.266063"></trkpt><trkpt lat="54.232472" lon="18.265785"></trkpt><trkpt lat="54.232275" lon="18.265691"></trkpt><trkpt lat="54.229032" lon="18.264656"></trkpt><trkpt lat="54.22784" lon="18.264036"></trkpt><trkpt lat="54.227566" lon="18.263818"></trkpt><trkpt lat="54.227323" lon="18.263432"></trkpt><trkpt lat="54.227072" lon="18.262948"></trkpt><trkpt lat="54.226851" lon="18.262633"></trkpt><trkpt lat="54.226477" lon="18.262417"></trkpt><trkpt lat="54.226179" lon="18.262352"></trkpt><trkpt lat="54.22583" lon="18.262339"></trkpt><trkpt lat="54.225524" lon="18.262268"></trkpt><trkpt lat="54.224753" lon="18.261897"></trkpt><trkpt lat="54.224132" lon="18.261779"></trkpt><trkpt lat="54.223517" lon="18.261587"></trkpt><trkpt lat="54.221739" lon="18.260588"></trkpt><trkpt lat="54.221558" lon="18.260362"></trkpt><trkpt lat="54.22141" lon="18.260067"></trkpt><trkpt lat="54.221306" lon="18.259722"></trkpt><trkpt lat="54.22107" lon="18.258431"></trkpt><trkpt lat="54.220982" lon="18.25772"></trkpt><trkpt lat="54.220837" lon="18.257282"></trkpt><trkpt lat="54.22072" lon="18.256981"></trkpt><trkpt lat="54.22075" lon="18.256605"></trkpt><trkpt lat="54.22107" lon="18.256229"></trkpt><trkpt lat="54.222183" lon="18.255184"></trkpt><trkpt lat="54.222531" lon="18.255075"></trkpt><trkpt lat="54.223184" lon="18.255071"></trkpt><trkpt lat="54.223816" lon="18.254845"></trkpt><trkpt lat="54.224406" lon="18.254504"></trkpt><trkpt lat="54.224693" lon="18.254395"></trkpt><trkpt lat="54.224986" lon="18.254454"></trkpt><trkpt lat="54.225382" lon="18.254472"></trkpt><trkpt lat="54.225574" lon="18.254313"></trkpt><trkpt lat="54.225733" lon="18.254098"></trkpt><trkpt lat="54.22636" lon="18.253108"></trkpt><trkpt lat="54.226458" lon="18.252666"></trkpt><trkpt lat="54.22645" lon="18.25229"></trkpt><trkpt lat="54.226373" lon="18.251817"></trkpt><trkpt lat="54.226348" lon="18.25126"></trkpt><trkpt lat="54.226376" lon="18.250754"></trkpt><trkpt lat="54.22643" lon="18.250278"></trkpt><trkpt lat="54.226517" lon="18.249957"></trkpt><trkpt lat="54.226781" lon="18.249307"></trkpt><trkpt lat="54.228606" lon="18.243771"></trkpt><trkpt lat="54.228561" lon="18.24301"></trkpt><trkpt lat="54.228467" lon="18.237753"></trkpt><trkpt lat="54.228676" lon="18.236979"></trkpt><trkpt lat="54.229375" lon="18.233755"></trkpt><trkpt lat="54.229334" lon="18.232634"></trkpt><trkpt lat="54.229398" lon="18.232303"></trkpt><trkpt lat="54.229824" lon="18.231074"></trkpt><trkpt lat="54.231311" lon="18.227415"></trkpt><trkpt lat="54.23167" lon="18.226934"></trkpt><trkpt lat="54.231828" lon="18.226638"></trkpt><trkpt lat="54.231922" lon="18.226235"></trkpt><trkpt lat="54.232053" lon="18.225017"></trkpt><trkpt lat="54.232225" lon="18.224129"></trkpt><trkpt lat="54.235341" lon="18.211385"></trkpt><trkpt lat="54.235529" lon="18.210814"></trkpt><trkpt lat="54.238733" lon="18.202519"></trkpt><trkpt lat="54.238702" lon="18.202176"></trkpt><trkpt lat="54.238399" lon="18.201535"></trkpt><trkpt lat="54.238183" lon="18.200795"></trkpt><trkpt lat="54.238341" lon="18.200335"></trkpt><trkpt lat="54.23851" lon="18.199944"></trkpt><trkpt lat="54.240592" lon="18.195812"></trkpt><trkpt lat="54.241388" lon="18.1954"></trkpt><trkpt lat="54.24199" lon="18.195243"></trkpt><trkpt lat="54.242407" lon="18.194698"></trkpt><trkpt lat="54.242525" lon="18.19432"></trkpt><trkpt lat="54.242921" lon="18.193376"></trkpt><trkpt lat="54.244654" lon="18.188064"></trkpt><trkpt lat="54.245242" lon="18.185294"></trkpt><trkpt lat="54.245301" lon="18.184494"></trkpt><trkpt lat="54.245277" lon="18.184116"></trkpt><trkpt lat="54.24527" lon="18.183436"></trkpt><trkpt lat="54.245358" lon="18.183093"></trkpt><trkpt lat="54.245452" lon="18.182168"></trkpt><trkpt lat="54.24565" lon="18.181038"></trkpt><trkpt lat="54.245773" lon="18.18067"></trkpt><trkpt lat="54.245909" lon="18.179649"></trkpt><trkpt lat="54.245984" lon="18.178575"></trkpt><trkpt lat="54.245957" lon="18.17808"></trkpt><trkpt lat="54.246039" lon="18.177492"></trkpt><trkpt lat="54.246214" lon="18.177148"></trkpt><trkpt lat="54.246956" lon="18.175892"></trkpt><trkpt lat="54.247179" lon="18.175967"></trkpt><trkpt lat="54.2474" lon="18.176079"></trkpt><trkpt lat="54.248559" lon="18.17648"></trkpt><trkpt lat="54.248864" lon="18.176258"></trkpt><trkpt lat="54.249134" lon="18.176005"></trkpt><trkpt lat="54.250515" lon="18.175197"></trkpt><trkpt lat="54.251362" lon="18.174814"></trkpt><trkpt lat="54.251746" lon="18.174689"></trkpt><trkpt lat="54.252058" lon="18.174706"></trkpt><trkpt lat="54.253543" lon="18.174311"></trkpt><trkpt lat="54.25373" lon="18.173887"></trkpt><trkpt lat="54.253916" lon="18.173265"></trkpt><trkpt lat="54.254134" lon="18.172746"></trkpt><trkpt lat="54.254467" lon="18.172602"></trkpt><trkpt lat="54.254673" lon="18.172583"></trkpt><trkpt lat="54.254895" lon="18.172635"></trkpt><trkpt lat="54.255512" lon="18.173456"></trkpt><trkpt lat="54.255697" lon="18.173617"></trkpt><trkpt lat="54.255913" lon="18.173613"></trkpt><trkpt lat="54.256172" lon="18.173473"></trkpt><trkpt lat="54.256072" lon="18.173144"></trkpt><trkpt lat="54.255911" lon="18.172914"></trkpt><trkpt lat="54.255798" lon="18.172621"></trkpt><trkpt lat="54.255737" lon="18.172235"></trkpt><trkpt lat="54.255472" lon="18.169661"></trkpt><trkpt lat="54.255375" lon="18.169308"></trkpt><trkpt lat="54.255227" lon="18.168965"></trkpt><trkpt lat="54.253541" lon="18.164284"></trkpt><trkpt lat="54.253384" lon="18.163935"></trkpt><trkpt lat="54.252839" lon="18.163358"></trkpt><trkpt lat="54.252677" lon="18.163131"></trkpt><trkpt lat="54.252341" lon="18.16226"></trkpt><trkpt lat="54.252183" lon="18.160742"></trkpt><trkpt lat="54.252055" lon="18.160015"></trkpt><trkpt lat="54.251721" lon="18.158572"></trkpt><trkpt lat="54.251563" lon="18.158015"></trkpt><trkpt lat="54.251392" lon="18.157591"></trkpt><trkpt lat="54.249281" lon="18.151323"></trkpt><trkpt lat="54.249281" lon="18.150836"></trkpt><trkpt lat="54.249333" lon="18.149961"></trkpt><trkpt lat="54.249547" lon="18.14786"></trkpt><trkpt lat="54.249769" lon="18.146657"></trkpt><trkpt lat="54.250001" lon="18.146146"></trkpt><trkpt lat="54.251179" lon="18.14294"></trkpt><trkpt lat="54.25142" lon="18.14185"></trkpt><trkpt lat="54.251866" lon="18.140969"></trkpt><trkpt lat="54.252195" lon="18.140407"></trkpt><trkpt lat="54.252222" lon="18.140057"></trkpt><trkpt lat="54.252066" lon="18.139337"></trkpt><trkpt lat="54.251813" lon="18.137783"></trkpt><trkpt lat="54.251798" lon="18.137036"></trkpt><trkpt lat="54.251736" lon="18.136321"></trkpt><trkpt lat="54.251598" lon="18.13549"></trkpt><trkpt lat="54.251222" lon="18.133797"></trkpt><trkpt lat="54.250996" lon="18.133075"></trkpt><trkpt lat="54.250757" lon="18.131815"></trkpt><trkpt lat="54.250529" lon="18.129808"></trkpt><trkpt lat="54.249823" lon="18.12629"></trkpt><trkpt lat="54.249207" lon="18.125398"></trkpt><trkpt lat="54.248645" lon="18.124461"></trkpt><trkpt lat="54.248545" lon="18.12403"></trkpt><trkpt lat="54.248517" lon="18.123526"></trkpt><trkpt lat="54.248551" lon="18.123096"></trkpt><trkpt lat="54.248613" lon="18.122735"></trkpt><trkpt lat="54.248715" lon="18.121885"></trkpt><trkpt lat="54.248661" lon="18.121472"></trkpt><trkpt lat="54.248529" lon="18.121047"></trkpt><trkpt lat="54.248496" lon="18.120563"></trkpt><trkpt lat="54.248602" lon="18.120139"></trkpt><trkpt lat="54.248735" lon="18.119853"></trkpt><trkpt lat="54.24882" lon="18.119532"></trkpt><trkpt lat="54.248569" lon="18.118713"></trkpt><trkpt lat="54.248401" lon="18.118014"></trkpt><trkpt lat="54.248741" lon="18.117773"></trkpt><trkpt lat="54.251169" lon="18.116425"></trkpt><trkpt lat="54.251806" lon="18.116572"></trkpt><trkpt lat="54.252023" lon="18.116703"></trkpt><trkpt lat="54.25221" lon="18.116858"></trkpt><trkpt lat="54.252807" lon="18.117495"></trkpt><trkpt lat="54.253016" lon="18.11765"></trkpt><trkpt lat="54.25325" lon="18.117699"></trkpt><trkpt lat="54.253472" lon="18.117608"></trkpt><trkpt lat="54.253648" lon="18.117387"></trkpt><trkpt lat="54.254077" lon="18.116349"></trkpt><trkpt lat="54.254659" lon="18.115209"></trkpt><trkpt lat="54.254905" lon="18.11484"></trkpt><trkpt lat="54.2551" lon="18.114453"></trkpt><trkpt lat="54.255036" lon="18.114813"></trkpt><trkpt lat="54.255151" lon="18.114491"></trkpt><trkpt lat="54.255525" lon="18.114172"></trkpt><trkpt lat="54.255893" lon="18.113441"></trkpt><trkpt lat="54.256142" lon="18.113116"></trkpt><trkpt lat="54.256641" lon="18.112188"></trkpt><trkpt lat="54.257058" lon="18.11127"></trkpt><trkpt lat="54.257163" lon="18.110616"></trkpt><trkpt lat="54.257096" lon="18.11001"></trkpt><trkpt lat="54.25693" lon="18.109253"></trkpt><trkpt lat="54.256905" lon="18.108894"></trkpt><trkpt lat="54.25696" lon="18.108434"></trkpt><trkpt lat="54.257149" lon="18.107481"></trkpt><trkpt lat="54.25717" lon="18.106743"></trkpt><trkpt lat="54.257103" lon="18.106025"></trkpt><trkpt lat="54.257034" lon="18.105701"></trkpt><trkpt lat="54.257105" lon="18.105036"></trkpt><trkpt lat="54.257463" lon="18.102661"></trkpt><trkpt lat="54.257784" lon="18.101747"></trkpt><trkpt lat="54.258131" lon="18.101072"></trkpt><trkpt lat="54.258341" lon="18.100913"></trkpt><trkpt lat="54.259073" lon="18.100946"></trkpt><trkpt lat="54.259639" lon="18.100749"></trkpt><trkpt lat="54.260133" lon="18.100663"></trkpt><trkpt lat="54.260611" lon="18.100819"></trkpt><trkpt lat="54.261711" lon="18.101013"></trkpt><trkpt lat="54.261962" lon="18.100834"></trkpt><trkpt lat="54.26266" lon="18.09988"></trkpt><trkpt lat="54.262834" lon="18.099517"></trkpt><trkpt lat="54.262934" lon="18.099223"></trkpt><trkpt lat="54.263235" lon="18.098514"></trkpt><trkpt lat="54.263536" lon="18.097625"></trkpt><trkpt lat="54.263612" lon="18.097238"></trkpt><trkpt lat="54.263708" lon="18.096576"></trkpt><trkpt lat="54.264495" lon="18.092569"></trkpt><trkpt lat="54.264634" lon="18.092276"></trkpt><trkpt lat="54.265124" lon="18.091826"></trkpt><trkpt lat="54.265332" lon="18.091791"></trkpt><trkpt lat="54.266206" lon="18.092172"></trkpt><trkpt lat="54.266831" lon="18.092665"></trkpt><trkpt lat="54.267412" lon="18.09327"></trkpt><trkpt lat="54.267646" lon="18.093446"></trkpt><trkpt lat="54.268436" lon="18.093618"></trkpt><trkpt lat="54.268967" lon="18.093403"></trkpt><trkpt lat="54.269475" lon="18.093101"></trkpt><trkpt lat="54.271078" lon="18.092433"></trkpt><trkpt lat="54.273893" lon="18.093996"></trkpt><trkpt lat="54.274163" lon="18.094202"></trkpt><trkpt lat="54.274362" lon="18.094257"></trkpt><trkpt lat="54.274109" lon="18.093347"></trkpt><trkpt lat="54.273915" lon="18.092877"></trkpt><trkpt lat="54.272945" lon="18.089774"></trkpt><trkpt lat="54.272874" lon="18.088865"></trkpt><trkpt lat="54.272361" lon="18.085816"></trkpt><trkpt lat="54.272222" lon="18.08549"></trkpt><trkpt lat="54.271781" lon="18.084626"></trkpt><trkpt lat="54.271194" lon="18.0839"></trkpt><trkpt lat="54.270042" lon="18.082238"></trkpt><trkpt lat="54.269963" lon="18.081832"></trkpt><trkpt lat="54.269853" lon="18.080542"></trkpt><trkpt lat="54.265746" lon="18.049523"></trkpt><trkpt lat="54.265317" lon="18.048536"></trkpt><trkpt lat="54.262844" lon="18.043721"></trkpt><trkpt lat="54.262361" lon="18.043391"></trkpt><trkpt lat="54.260688" lon="18.04193"></trkpt><trkpt lat="54.260421" lon="18.041387"></trkpt><trkpt lat="54.260226" lon="18.040607"></trkpt><trkpt lat="54.260067" lon="18.039663"></trkpt><trkpt lat="54.255219" lon="18.017061"></trkpt><trkpt lat="54.254885" lon="18.016527"></trkpt><trkpt lat="54.251545" lon="18.010284"></trkpt><trkpt lat="54.234669" lon="17.983276"></trkpt><trkpt lat="54.234071" lon="17.98261"></trkpt><trkpt lat="54.23374" lon="17.982122"></trkpt><trkpt lat="54.225661" lon="17.972076"></trkpt><trkpt lat="54.224982" lon="17.971536"></trkpt><trkpt lat="54.222624" lon="17.969297"></trkpt><trkpt lat="54.222423" lon="17.969047"></trkpt><trkpt lat="54.212371" lon="17.958307"></trkpt><trkpt lat="54.211694" lon="17.957923"></trkpt><trkpt lat="54.210416" lon="17.957384"></trkpt><trkpt lat="54.209765" lon="17.957341"></trkpt><trkpt lat="54.207456" lon="17.956702"></trkpt><trkpt lat="54.207044" lon="17.956367"></trkpt><trkpt lat="54.206231" lon="17.955442"></trkpt><trkpt lat="54.206197" lon="17.955088"></trkpt><trkpt lat="54.206488" lon="17.95408"></trkpt><trkpt lat="54.206765" lon="17.953581"></trkpt><trkpt lat="54.206615" lon="17.953173"></trkpt><trkpt lat="54.206795" lon="17.953338"></trkpt><trkpt lat="54.207005" lon="17.953272"></trkpt><trkpt lat="54.207244" lon="17.952854"></trkpt><trkpt lat="54.207334" lon="17.952531"></trkpt><trkpt lat="54.207296" lon="17.951827"></trkpt><trkpt lat="54.207291" lon="17.951052"></trkpt><trkpt lat="54.207375" lon="17.950294"></trkpt><trkpt lat="54.207509" lon="17.949473"></trkpt><trkpt lat="54.208514" lon="17.944647"></trkpt><trkpt lat="54.20946" lon="17.938598"></trkpt><trkpt lat="54.209439" lon="17.937774"></trkpt><trkpt lat="54.209486" lon="17.935019"></trkpt><trkpt lat="54.210179" lon="17.927025"></trkpt><trkpt lat="54.2105" lon="17.925816"></trkpt><trkpt lat="54.210629" lon="17.925221"></trkpt><trkpt lat="54.21067" lon="17.924722"></trkpt><trkpt lat="54.21146" lon="17.904764"></trkpt><trkpt lat="54.211191" lon="17.904672"></trkpt><trkpt lat="54.202726" lon="17.900652"></trkpt><trkpt lat="54.2028" lon="17.89978"></trkpt><trkpt lat="54.203251" lon="17.896861"></trkpt><trkpt lat="54.204583" lon="17.884295"></trkpt><trkpt lat="54.204504" lon="17.883976"></trkpt><trkpt lat="54.204352" lon="17.88358"></trkpt><trkpt lat="54.20382" lon="17.881516"></trkpt><trkpt lat="54.203742" lon="17.880938"></trkpt><trkpt lat="54.203594" lon="17.878837"></trkpt><trkpt lat="54.203627" lon="17.878149"></trkpt><trkpt lat="54.203563" lon="17.877795"></trkpt><trkpt lat="54.203521" lon="17.877318"></trkpt><trkpt lat="54.203566" lon="17.876778"></trkpt><trkpt lat="54.203589" lon="17.875816"></trkpt><trkpt lat="54.203625" lon="17.875372"></trkpt><trkpt lat="54.203798" lon="17.874785"></trkpt><trkpt lat="54.204083" lon="17.873514"></trkpt><trkpt lat="54.204142" lon="17.873015"></trkpt><trkpt lat="54.204415" lon="17.87169"></trkpt><trkpt lat="54.204596" lon="17.871037"></trkpt><trkpt lat="54.206032" lon="17.864361"></trkpt><trkpt lat="54.207778" lon="17.853191"></trkpt><trkpt lat="54.207591" lon="17.852698"></trkpt><trkpt lat="54.20654" lon="17.850498"></trkpt><trkpt lat="54.206162" lon="17.849973"></trkpt><trkpt lat="54.206071" lon="17.849641"></trkpt><trkpt lat="54.206031" lon="17.848958"></trkpt><trkpt lat="54.206025" lon="17.848171"></trkpt><trkpt lat="54.206061" lon="17.847775"></trkpt><trkpt lat="54.206125" lon="17.847425"></trkpt><trkpt lat="54.206048" lon="17.847812"></trkpt><trkpt lat="54.206009" lon="17.848509"></trkpt><trkpt lat="54.206008" lon="17.848881"></trkpt><trkpt lat="54.206042" lon="17.849294"></trkpt><trkpt lat="54.206148" lon="17.849934"></trkpt><trkpt lat="54.20626" lon="17.850434"></trkpt><trkpt lat="54.206101" lon="17.850677"></trkpt><trkpt lat="54.20585" lon="17.850756"></trkpt><trkpt lat="54.204839" lon="17.849929"></trkpt><trkpt lat="54.204979" lon="17.849364"></trkpt><trkpt lat="54.20587" lon="17.844866"></trkpt><trkpt lat="54.205832" lon="17.844447"></trkpt><trkpt lat="54.205692" lon="17.843545"></trkpt><trkpt lat="54.19739" lon="17.79549"></trkpt><trkpt lat="54.197416" lon="17.795014"></trkpt><trkpt lat="54.197399" lon="17.79445"></trkpt><trkpt lat="54.197308" lon="17.79324"></trkpt><trkpt lat="54.196174" lon="17.783999"></trkpt><trkpt lat="54.195975" lon="17.783106"></trkpt><trkpt lat="54.195628" lon="17.781051"></trkpt><trkpt lat="54.195576" lon="17.780185"></trkpt><trkpt lat="54.195577" lon="17.779618"></trkpt><trkpt lat="54.195489" lon="17.777434"></trkpt><trkpt lat="54.195144" lon="17.777415"></trkpt><trkpt lat="54.19277" lon="17.776985"></trkpt><trkpt lat="54.192113" lon="17.776726"></trkpt><trkpt lat="54.185747" lon="17.77338"></trkpt><trkpt lat="54.185029" lon="17.772746"></trkpt><trkpt lat="54.176384" lon="17.766646"></trkpt><trkpt lat="54.175851" lon="17.766815"></trkpt><trkpt lat="54.166435" lon="17.7686"></trkpt><trkpt lat="54.166435" lon="17.76787"></trkpt><trkpt lat="54.16638" lon="17.767519"></trkpt><trkpt lat="54.166136" lon="17.766368"></trkpt><trkpt lat="54.165956" lon="17.765175"></trkpt><trkpt lat="54.16598" lon="17.764715"></trkpt><trkpt lat="54.165965" lon="17.763201"></trkpt><trkpt lat="54.165849" lon="17.762776"></trkpt><trkpt lat="54.165655" lon="17.761859"></trkpt><trkpt lat="54.165612" lon="17.761404"></trkpt><trkpt lat="54.165528" lon="17.760835"></trkpt><trkpt lat="54.164901" lon="17.754812"></trkpt><trkpt lat="54.164907" lon="17.754358"></trkpt><trkpt lat="54.165334" lon="17.74649"></trkpt><trkpt lat="54.165413" lon="17.746097"></trkpt><trkpt lat="54.165481" lon="17.745557"></trkpt><trkpt lat="54.165509" lon="17.745131"></trkpt><trkpt lat="54.165522" lon="17.743173"></trkpt><trkpt lat="54.165469" lon="17.742256"></trkpt><trkpt lat="54.165411" lon="17.738202"></trkpt><trkpt lat="54.165579" lon="17.737707"></trkpt><trkpt lat="54.165712" lon="17.737149"></trkpt><trkpt lat="54.165915" lon="17.736509"></trkpt><trkpt lat="54.166094" lon="17.736163"></trkpt><trkpt lat="54.166367" lon="17.735799"></trkpt><trkpt lat="54.16677" lon="17.735434"></trkpt><trkpt lat="54.16703" lon="17.734947"></trkpt><trkpt lat="54.16714" lon="17.734591"></trkpt><trkpt lat="54.167275" lon="17.733894"></trkpt><trkpt lat="54.167375" lon="17.733001"></trkpt><trkpt lat="54.167242" lon="17.732681"></trkpt><trkpt lat="54.166861" lon="17.732035"></trkpt><trkpt lat="54.156859" lon="17.712196"></trkpt><trkpt lat="54.156697" lon="17.711428"></trkpt><trkpt lat="54.155618" lon="17.707312"></trkpt><trkpt lat="54.155275" lon="17.706524"></trkpt><trkpt lat="54.154851" lon="17.705102"></trkpt><trkpt lat="54.15472" lon="17.704076"></trkpt><trkpt lat="54.154314" lon="17.701792"></trkpt><trkpt lat="54.154027" lon="17.700586"></trkpt><trkpt lat="54.152329" lon="17.694785"></trkpt><trkpt lat="54.151787" lon="17.694016"></trkpt><trkpt lat="54.150713" lon="17.692242"></trkpt><trkpt lat="54.150518" lon="17.691459"></trkpt><trkpt lat="54.150311" lon="17.690406"></trkpt><trkpt lat="54.149939" lon="17.688886"></trkpt><trkpt lat="54.149755" lon="17.688695"></trkpt><trkpt lat="54.149514" lon="17.688672"></trkpt><trkpt lat="54.149116" lon="17.688569"></trkpt><trkpt lat="54.148765" lon="17.688262"></trkpt><trkpt lat="54.148659" lon="17.687716"></trkpt><trkpt lat="54.148569" lon="17.687083"></trkpt><trkpt lat="54.148352" lon="17.687037"></trkpt><trkpt lat="54.148017" lon="17.687187"></trkpt><trkpt lat="54.148216" lon="17.687175"></trkpt><trkpt lat="54.148492" lon="17.68699"></trkpt><trkpt lat="54.148635" lon="17.686583"></trkpt><trkpt lat="54.148786" lon="17.68544"></trkpt><trkpt lat="54.148772" lon="17.684758"></trkpt><trkpt lat="54.148444" lon="17.683953"></trkpt><trkpt lat="54.148209" lon="17.683531"></trkpt><trkpt lat="54.146507" lon="17.680899"></trkpt><trkpt lat="54.146278" lon="17.680592"></trkpt><trkpt lat="54.140293" lon="17.673704"></trkpt><trkpt lat="54.140204" lon="17.673072"></trkpt><trkpt lat="54.140276" lon="17.672657"></trkpt><trkpt lat="54.146003" lon="17.646591"></trkpt><trkpt lat="54.14641" lon="17.64583"></trkpt><trkpt lat="54.147336" lon="17.64364"></trkpt><trkpt lat="54.147776" lon="17.642111"></trkpt><trkpt lat="54.148191" lon="17.640969"></trkpt><trkpt lat="54.148689" lon="17.63934"></trkpt><trkpt lat="54.14871" lon="17.638765"></trkpt><trkpt lat="54.148533" lon="17.637709"></trkpt><trkpt lat="54.147477" lon="17.633253"></trkpt><trkpt lat="54.147117" lon="17.632553"></trkpt><trkpt lat="54.146876" lon="17.63167"></trkpt><trkpt lat="54.146777" lon="17.630548"></trkpt><trkpt lat="54.146424" lon="17.628194"></trkpt><trkpt lat="54.146226" lon="17.627378"></trkpt><trkpt lat="54.14613" lon="17.626808"></trkpt><trkpt lat="54.146159" lon="17.626393"></trkpt><trkpt lat="54.146549" lon="17.625269"></trkpt><trkpt lat="54.146738" lon="17.624525"></trkpt><trkpt lat="54.146814" lon="17.623712"></trkpt><trkpt lat="54.146845" lon="17.622925"></trkpt><trkpt lat="54.147375" lon="17.616847"></trkpt><trkpt lat="54.147433" lon="17.616438"></trkpt><trkpt lat="54.147985" lon="17.61368"></trkpt><trkpt lat="54.148385" lon="17.612664"></trkpt><trkpt lat="54.150491" lon="17.60629"></trkpt><trkpt lat="54.15059" lon="17.605634"></trkpt><trkpt lat="54.150706" lon="17.605058"></trkpt><trkpt lat="54.150736" lon="17.60471"></trkpt><trkpt lat="54.150874" lon="17.60381"></trkpt><trkpt lat="54.151883" lon="17.598719"></trkpt><trkpt lat="54.15212" lon="17.598105"></trkpt><trkpt lat="54.156212" lon="17.585489"></trkpt><trkpt lat="54.156497" lon="17.58395"></trkpt><trkpt lat="54.156661" lon="17.583497"></trkpt><trkpt lat="54.157199" lon="17.58264"></trkpt><trkpt lat="54.158726" lon="17.579713"></trkpt><trkpt lat="54.158892" lon="17.578653"></trkpt><trkpt lat="54.158876" lon="17.577291"></trkpt><trkpt lat="54.158617" lon="17.574705"></trkpt><trkpt lat="54.158336" lon="17.572997"></trkpt><trkpt lat="54.157943" lon="17.569693"></trkpt><trkpt lat="54.158079" lon="17.56859"></trkpt><trkpt lat="54.15818" lon="17.568016"></trkpt><trkpt lat="54.159488" lon="17.562152"></trkpt><trkpt lat="54.159736" lon="17.561423"></trkpt><trkpt lat="54.160491" lon="17.558598"></trkpt><trkpt lat="54.160679" lon="17.557529"></trkpt><trkpt lat="54.161231" lon="17.55157"></trkpt><trkpt lat="54.161127" lon="17.550946"></trkpt><trkpt lat="54.160844" lon="17.546075"></trkpt><trkpt lat="54.161084" lon="17.545122"></trkpt><trkpt lat="54.161124" lon="17.544325"></trkpt><trkpt lat="54.161105" lon="17.543258"></trkpt><trkpt lat="54.161031" lon="17.542559"></trkpt><trkpt lat="54.160966" lon="17.542188"></trkpt><trkpt lat="54.160626" lon="17.539217"></trkpt><trkpt lat="54.160792" lon="17.538221"></trkpt><trkpt lat="54.161023" lon="17.537356"></trkpt><trkpt lat="54.162627" lon="17.52927"></trkpt><trkpt lat="54.162756" lon="17.527573"></trkpt><trkpt lat="54.163148" lon="17.524285"></trkpt><trkpt lat="54.163226" lon="17.524699"></trkpt><trkpt lat="54.163381" lon="17.525207"></trkpt><trkpt lat="54.164426" lon="17.527495"></trkpt><trkpt lat="54.164883" lon="17.527854"></trkpt><trkpt lat="54.16504" lon="17.52812"></trkpt><trkpt lat="54.165212" lon="17.528683"></trkpt><trkpt lat="54.166088" lon="17.532304"></trkpt><trkpt lat="54.166173" lon="17.532875"></trkpt><trkpt lat="54.167519" lon="17.53914"></trkpt><trkpt lat="54.167767" lon="17.539559"></trkpt><trkpt lat="54.168207" lon="17.540196"></trkpt><trkpt lat="54.168337" lon="17.540482"></trkpt><trkpt lat="54.168679" lon="17.541133"></trkpt><trkpt lat="54.169088" lon="17.541412"></trkpt><trkpt lat="54.169692" lon="17.540836"></trkpt></trkseg></trk></gpx>