<?xml version="1.0" encoding="UTF-8" standalone="no" ?><gpx xmlns="http://www.topografix.com/GPX/1/1" xmlns:gpxx="http://www.garmin.com/xmlschemas/GpxExtensions/v3" ><trk><trkseg><trkpt lat="51.892778" lon="17.732041"></trkpt><trkpt lat="51.892641" lon="17.732405"></trkpt><trkpt lat="51.892569" lon="17.732806"></trkpt><trkpt lat="51.892681" lon="17.733173"></trkpt><trkpt lat="51.892573" lon="17.733484"></trkpt><trkpt lat="51.89285" lon="17.7333"></trkpt><trkpt lat="51.893281" lon="17.733358"></trkpt><trkpt lat="51.902884" lon="17.735863"></trkpt><trkpt lat="51.903379" lon="17.73621"></trkpt><trkpt lat="51.904986" lon="17.737113"></trkpt><trkpt lat="51.90536" lon="17.737135"></trkpt><trkpt lat="51.905834" lon="17.737307"></trkpt><trkpt lat="51.90611" lon="17.737451"></trkpt><trkpt lat="51.906416" lon="17.737573"></trkpt><trkpt lat="51.915787" lon="17.738969"></trkpt><trkpt lat="51.91613" lon="17.738015"></trkpt><trkpt lat="51.916331" lon="17.737072"></trkpt><trkpt lat="51.916463" lon="17.73683"></trkpt><trkpt lat="51.91667" lon="17.736754"></trkpt><trkpt lat="51.917316" lon="17.736817"></trkpt><trkpt lat="51.917526" lon="17.736894"></trkpt><trkpt lat="51.918169" lon="17.737016"></trkpt><trkpt lat="51.925151" lon="17.737542"></trkpt><trkpt lat="51.925909" lon="17.737351"></trkpt><trkpt lat="51.926765" lon="17.737373"></trkpt><trkpt lat="51.93026" lon="17.737888"></trkpt><trkpt lat="51.930578" lon="17.738695"></trkpt><trkpt lat="51.931074" lon="17.739714"></trkpt><trkpt lat="51.931244" lon="17.740169"></trkpt><trkpt lat="51.93149" lon="17.7406"></trkpt><trkpt lat="51.931858" lon="17.741153"></trkpt><trkpt lat="51.932143" lon="17.741158"></trkpt><trkpt lat="51.932494" lon="17.741055"></trkpt><trkpt lat="51.93274" lon="17.741174"></trkpt><trkpt lat="51.932887" lon="17.741447"></trkpt><trkpt lat="51.933192" lon="17.742284"></trkpt><trkpt lat="51.933317" lon="17.742548"></trkpt><trkpt lat="51.933524" lon="17.742765"></trkpt><trkpt lat="51.934165" lon="17.743256"></trkpt><trkpt lat="51.934812" lon="17.743996"></trkpt><trkpt lat="51.935532" lon="17.745433"></trkpt><trkpt lat="51.9357" lon="17.746655"></trkpt><trkpt lat="51.935954" lon="17.747837"></trkpt><trkpt lat="51.939563" lon="17.76033"></trkpt><trkpt lat="51.939817" lon="17.760311"></trkpt><trkpt lat="51.940206" lon="17.76044"></trkpt><trkpt lat="51.940398" lon="17.760902"></trkpt><trkpt lat="51.940455" lon="17.761284"></trkpt><trkpt lat="51.940483" lon="17.762079"></trkpt><trkpt lat="51.940859" lon="17.762226"></trkpt><trkpt lat="51.941613" lon="17.762331"></trkpt><trkpt lat="51.942202" lon="17.762624"></trkpt><trkpt lat="51.942296" lon="17.763143"></trkpt><trkpt lat="51.942432" lon="17.763411"></trkpt><trkpt lat="51.942785" lon="17.76389"></trkpt><trkpt lat="51.947111" lon="17.768721"></trkpt><trkpt lat="51.947371" lon="17.768094"></trkpt><trkpt lat="51.947822" lon="17.766484"></trkpt><trkpt lat="51.947766" lon="17.766053"></trkpt><trkpt lat="51.947863" lon="17.765573"></trkpt><trkpt lat="51.948512" lon="17.764667"></trkpt><trkpt lat="51.949093" lon="17.764346"></trkpt><trkpt lat="51.949673" lon="17.764192"></trkpt><trkpt lat="51.949979" lon="17.76415"></trkpt><trkpt lat="51.950164" lon="17.764736"></trkpt><trkpt lat="51.960946" lon="17.79899"></trkpt><trkpt lat="51.961245" lon="17.799763"></trkpt><trkpt lat="51.967635" lon="17.819223"></trkpt><trkpt lat="51.96785" lon="17.820388"></trkpt><trkpt lat="51.96801" lon="17.822994"></trkpt><trkpt lat="51.96775" lon="17.823264"></trkpt><trkpt lat="51.961568" lon="17.831112"></trkpt><trkpt lat="51.96197" lon="17.831842"></trkpt><trkpt lat="51.978373" lon="17.860578"></trkpt><trkpt lat="51.979318" lon="17.863593"></trkpt><trkpt lat="51.979204" lon="17.863863"></trkpt><trkpt lat="51.97924" lon="17.864664"></trkpt><trkpt lat="51.979347" lon="17.865615"></trkpt><trkpt lat="51.979305" lon="17.866271"></trkpt><trkpt lat="51.979345" lon="17.86715"></trkpt><trkpt lat="51.97947" lon="17.868541"></trkpt><trkpt lat="51.979556" lon="17.869107"></trkpt><trkpt lat="51.979611" lon="17.870002"></trkpt><trkpt lat="51.979579" lon="17.870942"></trkpt><trkpt lat="51.979449" lon="17.871671"></trkpt><trkpt lat="51.979487" lon="17.87204"></trkpt><trkpt lat="51.979666" lon="17.872266"></trkpt><trkpt lat="51.980595" lon="17.873234"></trkpt><trkpt lat="51.998508" lon="17.888947"></trkpt><trkpt lat="51.999041" lon="17.888259"></trkpt><trkpt lat="52.007324" lon="17.875883"></trkpt><trkpt lat="52.007648" lon="17.874719"></trkpt><trkpt lat="52.007786" lon="17.874393"></trkpt><trkpt lat="52.00827" lon="17.873623"></trkpt><trkpt lat="52.011887" lon="17.869454"></trkpt><trkpt lat="52.012323" lon="17.869882"></trkpt><trkpt lat="52.016078" lon="17.874194"></trkpt><trkpt lat="52.016276" lon="17.874729"></trkpt><trkpt lat="52.016616" lon="17.875245"></trkpt><trkpt lat="52.017031" lon="17.875775"></trkpt><trkpt lat="52.019972" lon="17.880243"></trkpt><trkpt lat="52.020087" lon="17.880905"></trkpt><trkpt lat="52.020208" lon="17.88139"></trkpt><trkpt lat="52.021668" lon="17.886228"></trkpt><trkpt lat="52.022293" lon="17.88774"></trkpt><trkpt lat="52.022637" lon="17.888145"></trkpt><trkpt lat="52.027185" lon="17.894925"></trkpt><trkpt lat="52.027119" lon="17.895783"></trkpt><trkpt lat="52.02698" lon="17.901362"></trkpt><trkpt lat="52.027109" lon="17.902096"></trkpt><trkpt lat="52.027774" lon="17.904775"></trkpt><trkpt lat="52.028131" lon="17.905297"></trkpt><trkpt lat="52.028343" lon="17.905539"></trkpt><trkpt lat="52.029331" lon="17.906845"></trkpt><trkpt lat="52.029579" lon="17.907406"></trkpt><trkpt lat="52.031346" lon="17.910843"></trkpt><trkpt lat="52.031554" lon="17.91134"></trkpt><trkpt lat="52.032151" lon="17.91303"></trkpt><trkpt lat="52.033528" lon="17.916293"></trkpt><trkpt lat="52.033682" lon="17.91653"></trkpt><trkpt lat="52.034098" lon="17.917275"></trkpt><trkpt lat="52.034668" lon="17.917915"></trkpt><trkpt lat="52.035145" lon="17.918358"></trkpt><trkpt lat="52.037084" lon="17.92055"></trkpt><trkpt lat="52.037457" lon="17.921058"></trkpt><trkpt lat="52.038086" lon="17.921654"></trkpt><trkpt lat="52.040853" lon="17.92352"></trkpt><trkpt lat="52.041059" lon="17.923465"></trkpt><trkpt lat="52.050762" lon="17.919651"></trkpt><trkpt lat="52.051312" lon="17.919194"></trkpt><trkpt lat="52.055394" lon="17.916397"></trkpt><trkpt lat="52.055985" lon="17.916365"></trkpt><trkpt lat="52.063834" lon="17.914986"></trkpt><trkpt lat="52.064352" lon="17.914561"></trkpt><trkpt lat="52.06592" lon="17.913846"></trkpt><trkpt lat="52.066119" lon="17.913885"></trkpt><trkpt lat="52.069516" lon="17.914997"></trkpt><trkpt lat="52.069802" lon="17.915932"></trkpt><trkpt lat="52.072636" lon="17.927308"></trkpt><trkpt lat="52.072759" lon="17.928138"></trkpt><trkpt lat="52.075273" lon="17.953254"></trkpt><trkpt lat="52.075187" lon="17.954316"></trkpt><trkpt lat="52.075184" lon="17.957011"></trkpt><trkpt lat="52.075278" lon="17.958122"></trkpt><trkpt lat="52.075298" lon="17.959142"></trkpt><trkpt lat="52.075342" lon="17.959518"></trkpt><trkpt lat="52.075405" lon="17.959879"></trkpt><trkpt lat="52.075463" lon="17.960868"></trkpt><trkpt lat="52.075662" lon="17.96249"></trkpt><trkpt lat="52.075875" lon="17.962586"></trkpt><trkpt lat="52.07689" lon="17.963202"></trkpt><trkpt lat="52.077258" lon="17.964586"></trkpt><trkpt lat="52.077567" lon="17.965368"></trkpt><trkpt lat="52.078325" lon="17.967836"></trkpt><trkpt lat="52.078352" lon="17.968991"></trkpt><trkpt lat="52.078245" lon="17.970544"></trkpt><trkpt lat="52.078316" lon="17.971154"></trkpt><trkpt lat="52.078772" lon="17.972135"></trkpt><trkpt lat="52.080562" lon="17.976914"></trkpt><trkpt lat="52.080974" lon="17.978276"></trkpt><trkpt lat="52.089608" lon="18.002212"></trkpt><trkpt lat="52.089901" lon="18.002598"></trkpt><trkpt lat="52.09004" lon="18.002901"></trkpt><trkpt lat="52.090427" lon="18.004118"></trkpt><trkpt lat="52.090947" lon="18.00498"></trkpt><trkpt lat="52.09147" lon="18.005723"></trkpt><trkpt lat="52.092571" lon="18.007667"></trkpt><trkpt lat="52.092628" lon="18.008016"></trkpt><trkpt lat="52.092719" lon="18.008813"></trkpt><trkpt lat="52.092743" lon="18.009556"></trkpt><trkpt lat="52.092884" lon="18.011054"></trkpt><trkpt lat="52.093497" lon="18.011016"></trkpt><trkpt lat="52.100473" lon="18.009786"></trkpt><trkpt lat="52.10133" lon="18.009325"></trkpt><trkpt lat="52.111853" lon="18.002074"></trkpt><trkpt lat="52.112449" lon="18.001074"></trkpt><trkpt lat="52.112687" lon="18.000909"></trkpt><trkpt lat="52.113564" lon="18.000654"></trkpt><trkpt lat="52.117708" lon="17.998684"></trkpt><trkpt lat="52.118128" lon="17.99774"></trkpt><trkpt lat="52.11893" lon="17.99664"></trkpt><trkpt lat="52.119706" lon="17.995751"></trkpt><trkpt lat="52.119924" lon="17.995818"></trkpt><trkpt lat="52.12041" lon="17.996249"></trkpt><trkpt lat="52.121238" lon="17.997117"></trkpt><trkpt lat="52.121608" lon="17.997131"></trkpt><trkpt lat="52.1221" lon="17.997411"></trkpt><trkpt lat="52.122587" lon="17.997775"></trkpt><trkpt lat="52.122868" lon="17.998142"></trkpt><trkpt lat="52.123227" lon="17.998989"></trkpt><trkpt lat="52.123414" lon="18.000043"></trkpt><trkpt lat="52.125527" lon="18.008357"></trkpt><trkpt lat="52.126073" lon="18.009115"></trkpt><trkpt lat="52.129345" lon="18.013006"></trkpt><trkpt lat="52.130145" lon="18.013675"></trkpt><trkpt lat="52.13136" lon="18.014497"></trkpt><trkpt lat="52.131606" lon="18.014722"></trkpt><trkpt lat="52.132147" lon="18.015104"></trkpt><trkpt lat="52.136373" lon="18.018681"></trkpt><trkpt lat="52.137075" lon="18.01976"></trkpt><trkpt lat="52.142848" lon="18.030304"></trkpt><trkpt lat="52.143104" lon="18.031427"></trkpt><trkpt lat="52.145179" lon="18.038388"></trkpt><trkpt lat="52.145837" lon="18.038887"></trkpt><trkpt lat="52.147013" lon="18.039968"></trkpt><trkpt lat="52.147809" lon="18.040853"></trkpt><trkpt lat="52.148168" lon="18.041791"></trkpt><trkpt lat="52.148332" lon="18.042031"></trkpt><trkpt lat="52.148634" lon="18.042218"></trkpt><trkpt lat="52.150001" lon="18.043515"></trkpt><trkpt lat="52.150266" lon="18.043947"></trkpt><trkpt lat="52.150595" lon="18.044621"></trkpt><trkpt lat="52.151039" lon="18.045325"></trkpt><trkpt lat="52.153438" lon="18.049708"></trkpt><trkpt lat="52.153512" lon="18.050667"></trkpt><trkpt lat="52.153593" lon="18.050986"></trkpt><trkpt lat="52.154161" lon="18.05193"></trkpt><trkpt lat="52.164633" lon="18.072181"></trkpt><trkpt lat="52.165017" lon="18.073278"></trkpt><trkpt lat="52.170694" lon="18.087094"></trkpt><trkpt lat="52.17134" lon="18.088005"></trkpt><trkpt lat="52.18745" lon="18.114168"></trkpt><trkpt lat="52.188086" lon="18.115762"></trkpt><trkpt lat="52.188268" lon="18.116062"></trkpt><trkpt lat="52.189055" lon="18.11669"></trkpt><trkpt lat="52.191829" lon="18.119377"></trkpt><trkpt lat="52.1926" lon="18.120798"></trkpt><trkpt lat="52.195267" lon="18.126641"></trkpt><trkpt lat="52.195544" lon="18.127482"></trkpt><trkpt lat="52.195574" lon="18.127855"></trkpt><trkpt lat="52.195509" lon="18.12864"></trkpt><trkpt lat="52.195525" lon="18.129471"></trkpt><trkpt lat="52.195609" lon="18.129908"></trkpt><trkpt lat="52.19591" lon="18.130889"></trkpt><trkpt lat="52.196318" lon="18.132531"></trkpt><trkpt lat="52.196219" lon="18.133578"></trkpt><trkpt lat="52.196215" lon="18.133918"></trkpt><trkpt lat="52.196246" lon="18.134283"></trkpt><trkpt lat="52.196427" lon="18.135622"></trkpt><trkpt lat="52.196685" lon="18.136896"></trkpt><trkpt lat="52.196971" lon="18.137895"></trkpt><trkpt lat="52.197345" lon="18.138865"></trkpt><trkpt lat="52.199367" lon="18.14509"></trkpt><trkpt lat="52.199705" lon="18.146592"></trkpt><trkpt lat="52.199698" lon="18.147413"></trkpt><trkpt lat="52.19962" lon="18.148394"></trkpt><trkpt lat="52.19897" lon="18.167188"></trkpt><trkpt lat="52.199072" lon="18.168513"></trkpt><trkpt lat="52.20224" lon="18.206827"></trkpt><trkpt lat="52.202897" lon="18.224653"></trkpt><trkpt lat="52.202851" lon="18.225172"></trkpt><trkpt lat="52.203119" lon="18.225325"></trkpt><trkpt lat="52.203488" lon="18.225366"></trkpt><trkpt lat="52.205193" lon="18.225761"></trkpt><trkpt lat="52.20733" lon="18.225935"></trkpt><trkpt lat="52.210356" lon="18.226622"></trkpt><trkpt lat="52.210972" lon="18.227001"></trkpt><trkpt lat="52.220721" lon="18.234536"></trkpt><trkpt lat="52.220998" lon="18.235029"></trkpt><trkpt lat="52.225973" lon="18.245903"></trkpt><trkpt lat="52.225893" lon="18.24631"></trkpt><trkpt lat="52.225358" lon="18.249909"></trkpt><trkpt lat="52.225601" lon="18.249952"></trkpt><trkpt lat="52.231096" lon="18.251612"></trkpt><trkpt lat="52.231029" lon="18.252095"></trkpt><trkpt lat="52.231255" lon="18.252319"></trkpt><trkpt lat="52.231488" lon="18.252439"></trkpt></trkseg></trk></gpx>