<?xml version="1.0" encoding="UTF-8" standalone="no" ?><gpx xmlns="http://www.topografix.com/GPX/1/1" xmlns:gpxx="http://www.garmin.com/xmlschemas/GpxExtensions/v3" ><trk><trkseg><trkpt lat="52.569524" lon="17.81669"></trkpt><trkpt lat="52.569641" lon="17.817088"></trkpt><trkpt lat="52.56971" lon="17.817507"></trkpt><trkpt lat="52.569753" lon="17.817892"></trkpt><trkpt lat="52.569471" lon="17.817992"></trkpt><trkpt lat="52.56943" lon="17.818415"></trkpt><trkpt lat="52.569495" lon="17.818785"></trkpt><trkpt lat="52.569755" lon="17.821267"></trkpt><trkpt lat="52.569394" lon="17.821513"></trkpt><trkpt lat="52.568411" lon="17.822335"></trkpt><trkpt lat="52.568086" lon="17.822671"></trkpt><trkpt lat="52.56738" lon="17.823532"></trkpt><trkpt lat="52.56552" lon="17.825421"></trkpt><trkpt lat="52.565037" lon="17.82529"></trkpt><trkpt lat="52.562989" lon="17.824465"></trkpt><trkpt lat="52.562631" lon="17.824181"></trkpt><trkpt lat="52.562388" lon="17.823934"></trkpt><trkpt lat="52.562103" lon="17.823574"></trkpt><trkpt lat="52.561904" lon="17.82318"></trkpt><trkpt lat="52.561397" lon="17.822311"></trkpt><trkpt lat="52.56094" lon="17.821758"></trkpt><trkpt lat="52.559872" lon="17.820081"></trkpt><trkpt lat="52.559623" lon="17.819625"></trkpt><trkpt lat="52.559383" lon="17.819293"></trkpt><trkpt lat="52.559067" lon="17.819225"></trkpt><trkpt lat="52.558014" lon="17.818855"></trkpt><trkpt lat="52.557711" lon="17.818612"></trkpt><trkpt lat="52.557054" lon="17.818188"></trkpt><trkpt lat="52.555036" lon="17.817263"></trkpt><trkpt lat="52.554631" lon="17.817254"></trkpt><trkpt lat="52.554313" lon="17.817204"></trkpt><trkpt lat="52.552323" lon="17.816591"></trkpt><trkpt lat="52.551981" lon="17.816406"></trkpt><trkpt lat="52.55132" lon="17.816194"></trkpt><trkpt lat="52.550779" lon="17.815925"></trkpt><trkpt lat="52.549191" lon="17.815334"></trkpt><trkpt lat="52.548968" lon="17.815319"></trkpt><trkpt lat="52.54819" lon="17.815125"></trkpt><trkpt lat="52.548021" lon="17.814905"></trkpt><trkpt lat="52.54766" lon="17.814342"></trkpt><trkpt lat="52.547481" lon="17.813923"></trkpt><trkpt lat="52.547357" lon="17.813576"></trkpt><trkpt lat="52.546222" lon="17.811061"></trkpt><trkpt lat="52.546036" lon="17.810817"></trkpt><trkpt lat="52.540601" lon="17.804691"></trkpt><trkpt lat="52.540383" lon="17.80456"></trkpt><trkpt lat="52.53813" lon="17.80258"></trkpt><trkpt lat="52.537851" lon="17.802084"></trkpt><trkpt lat="52.534781" lon="17.797492"></trkpt><trkpt lat="52.53446" lon="17.797515"></trkpt><trkpt lat="52.534225" lon="17.797465"></trkpt><trkpt lat="52.53401" lon="17.797323"></trkpt><trkpt lat="52.533457" lon="17.796864"></trkpt><trkpt lat="52.532576" lon="17.795848"></trkpt><trkpt lat="52.532263" lon="17.795339"></trkpt><trkpt lat="52.532058" lon="17.795115"></trkpt><trkpt lat="52.531451" lon="17.794573"></trkpt><trkpt lat="52.528399" lon="17.792318"></trkpt><trkpt lat="52.528119" lon="17.792197"></trkpt><trkpt lat="52.525767" lon="17.790879"></trkpt><trkpt lat="52.522753" lon="17.788746"></trkpt><trkpt lat="52.522338" lon="17.788379"></trkpt><trkpt lat="52.519641" lon="17.785573"></trkpt><trkpt lat="52.519278" lon="17.785054"></trkpt><trkpt lat="52.518926" lon="17.784658"></trkpt><trkpt lat="52.518611" lon="17.784364"></trkpt><trkpt lat="52.506835" lon="17.775116"></trkpt><trkpt lat="52.506631" lon="17.775087"></trkpt><trkpt lat="52.506245" lon="17.774898"></trkpt><trkpt lat="52.50577" lon="17.774579"></trkpt><trkpt lat="52.504156" lon="17.773748"></trkpt><trkpt lat="52.503762" lon="17.773618"></trkpt><trkpt lat="52.501163" lon="17.772442"></trkpt><trkpt lat="52.500614" lon="17.772114"></trkpt><trkpt lat="52.500307" lon="17.771998"></trkpt><trkpt lat="52.500091" lon="17.771955"></trkpt><trkpt lat="52.499787" lon="17.771939"></trkpt><trkpt lat="52.493865" lon="17.77092"></trkpt><trkpt lat="52.493677" lon="17.770805"></trkpt><trkpt lat="52.482843" lon="17.765772"></trkpt><trkpt lat="52.482508" lon="17.765788"></trkpt><trkpt lat="52.482063" lon="17.765539"></trkpt><trkpt lat="52.481653" lon="17.765419"></trkpt><trkpt lat="52.481088" lon="17.765343"></trkpt><trkpt lat="52.478186" lon="17.764477"></trkpt><trkpt lat="52.477602" lon="17.764107"></trkpt><trkpt lat="52.476476" lon="17.763575"></trkpt><trkpt lat="52.475825" lon="17.763377"></trkpt><trkpt lat="52.47526" lon="17.763135"></trkpt><trkpt lat="52.474839" lon="17.762822"></trkpt><trkpt lat="52.474498" lon="17.762431"></trkpt><trkpt lat="52.474112" lon="17.761628"></trkpt><trkpt lat="52.472453" lon="17.758979"></trkpt><trkpt lat="52.471879" lon="17.758716"></trkpt><trkpt lat="52.470924" lon="17.758408"></trkpt><trkpt lat="52.470481" lon="17.758458"></trkpt><trkpt lat="52.47016" lon="17.758609"></trkpt><trkpt lat="52.469746" lon="17.758697"></trkpt><trkpt lat="52.469582" lon="17.758452"></trkpt><trkpt lat="52.469393" lon="17.758236"></trkpt><trkpt lat="52.469089" lon="17.758099"></trkpt><trkpt lat="52.467793" lon="17.757749"></trkpt><trkpt lat="52.466506" lon="17.75828"></trkpt><trkpt lat="52.466241" lon="17.758711"></trkpt><trkpt lat="52.464596" lon="17.760864"></trkpt><trkpt lat="52.464295" lon="17.761378"></trkpt><trkpt lat="52.463689" lon="17.762265"></trkpt><trkpt lat="52.463189" lon="17.762552"></trkpt><trkpt lat="52.462653" lon="17.762776"></trkpt><trkpt lat="52.461452" lon="17.76313"></trkpt><trkpt lat="52.460399" lon="17.763181"></trkpt><trkpt lat="52.459757" lon="17.762936"></trkpt><trkpt lat="52.459725" lon="17.76261"></trkpt><trkpt lat="52.45958" lon="17.761598"></trkpt><trkpt lat="52.459468" lon="17.761152"></trkpt><trkpt lat="52.459277" lon="17.76065"></trkpt><trkpt lat="52.459025" lon="17.760093"></trkpt><trkpt lat="52.457714" lon="17.756602"></trkpt><trkpt lat="52.457592" lon="17.755737"></trkpt><trkpt lat="52.450269" lon="17.706479"></trkpt><trkpt lat="52.45023" lon="17.70607"></trkpt><trkpt lat="52.449828" lon="17.697362"></trkpt><trkpt lat="52.450202" lon="17.697398"></trkpt><trkpt lat="52.451698" lon="17.696964"></trkpt><trkpt lat="52.451638" lon="17.696279"></trkpt><trkpt lat="52.451533" lon="17.695542"></trkpt><trkpt lat="52.451426" lon="17.695107"></trkpt><trkpt lat="52.451172" lon="17.693738"></trkpt><trkpt lat="52.449889" lon="17.688268"></trkpt><trkpt lat="52.449755" lon="17.687895"></trkpt><trkpt lat="52.449325" lon="17.686185"></trkpt><trkpt lat="52.449263" lon="17.685434"></trkpt><trkpt lat="52.44829" lon="17.660533"></trkpt><trkpt lat="52.448306" lon="17.660077"></trkpt><trkpt lat="52.448233" lon="17.65406"></trkpt><trkpt lat="52.448024" lon="17.653035"></trkpt><trkpt lat="52.439977" lon="17.622831"></trkpt><trkpt lat="52.439403" lon="17.62344"></trkpt><trkpt lat="52.43365" lon="17.62793"></trkpt><trkpt lat="52.433386" lon="17.62699"></trkpt><trkpt lat="52.430848" lon="17.615443"></trkpt><trkpt lat="52.430873" lon="17.614922"></trkpt><trkpt lat="52.430688" lon="17.604112"></trkpt><trkpt lat="52.430271" lon="17.603908"></trkpt><trkpt lat="52.427886" lon="17.60235"></trkpt><trkpt lat="52.426513" lon="17.601259"></trkpt><trkpt lat="52.42628" lon="17.600863"></trkpt><trkpt lat="52.426196" lon="17.600529"></trkpt><trkpt lat="52.426065" lon="17.599407"></trkpt><trkpt lat="52.421908" lon="17.573756"></trkpt><trkpt lat="52.421834" lon="17.573431"></trkpt><trkpt lat="52.421459" lon="17.572096"></trkpt><trkpt lat="52.421479" lon="17.571713"></trkpt><trkpt lat="52.421372" lon="17.571226"></trkpt><trkpt lat="52.417492" lon="17.556939"></trkpt><trkpt lat="52.417256" lon="17.556548"></trkpt><trkpt lat="52.416632" lon="17.555261"></trkpt><trkpt lat="52.416652" lon="17.554778"></trkpt><trkpt lat="52.417023" lon="17.551581"></trkpt><trkpt lat="52.417171" lon="17.550939"></trkpt><trkpt lat="52.417377" lon="17.550317"></trkpt><trkpt lat="52.41766" lon="17.549229"></trkpt><trkpt lat="52.417686" lon="17.54872"></trkpt><trkpt lat="52.418202" lon="17.543414"></trkpt><trkpt lat="52.418462" lon="17.542731"></trkpt><trkpt lat="52.425051" lon="17.522334"></trkpt><trkpt lat="52.425215" lon="17.521465"></trkpt><trkpt lat="52.428538" lon="17.497752"></trkpt><trkpt lat="52.428445" lon="17.496993"></trkpt><trkpt lat="52.427897" lon="17.489494"></trkpt><trkpt lat="52.428101" lon="17.489457"></trkpt><trkpt lat="52.428826" lon="17.489424"></trkpt><trkpt lat="52.43176" lon="17.488897"></trkpt><trkpt lat="52.431829" lon="17.488333"></trkpt><trkpt lat="52.432225" lon="17.485977"></trkpt><trkpt lat="52.432372" lon="17.485704"></trkpt><trkpt lat="52.432515" lon="17.485357"></trkpt><trkpt lat="52.433095" lon="17.484215"></trkpt><trkpt lat="52.434976" lon="17.479644"></trkpt><trkpt lat="52.435074" lon="17.478909"></trkpt><trkpt lat="52.441716" lon="17.428968"></trkpt><trkpt lat="52.442309" lon="17.422164"></trkpt><trkpt lat="52.442141" lon="17.421493"></trkpt><trkpt lat="52.441429" lon="17.417726"></trkpt><trkpt lat="52.441593" lon="17.416886"></trkpt><trkpt lat="52.443446" lon="17.409532"></trkpt><trkpt lat="52.443749" lon="17.408915"></trkpt><trkpt lat="52.456018" lon="17.379743"></trkpt><trkpt lat="52.456155" lon="17.378938"></trkpt><trkpt lat="52.459973" lon="17.34829"></trkpt><trkpt lat="52.459809" lon="17.347195"></trkpt><trkpt lat="52.459415" lon="17.342932"></trkpt><trkpt lat="52.459487" lon="17.342014"></trkpt><trkpt lat="52.459716" lon="17.340225"></trkpt><trkpt lat="52.45992" lon="17.339576"></trkpt><trkpt lat="52.460679" lon="17.337597"></trkpt><trkpt lat="52.461262" lon="17.336998"></trkpt><trkpt lat="52.463255" lon="17.334404"></trkpt><trkpt lat="52.463491" lon="17.33367"></trkpt><trkpt lat="52.463677" lon="17.332715"></trkpt><trkpt lat="52.463752" lon="17.331702"></trkpt><trkpt lat="52.464235" lon="17.32858"></trkpt><trkpt lat="52.46455" lon="17.327535"></trkpt><trkpt lat="52.465118" lon="17.325965"></trkpt><trkpt lat="52.465892" lon="17.324193"></trkpt><trkpt lat="52.466426" lon="17.323139"></trkpt><trkpt lat="52.467745" lon="17.320888"></trkpt><trkpt lat="52.469188" lon="17.317941"></trkpt><trkpt lat="52.469441" lon="17.317104"></trkpt><trkpt lat="52.469827" lon="17.316049"></trkpt><trkpt lat="52.470185" lon="17.315424"></trkpt><trkpt lat="52.470632" lon="17.314756"></trkpt><trkpt lat="52.47267" lon="17.311066"></trkpt><trkpt lat="52.472966" lon="17.310103"></trkpt><trkpt lat="52.473193" lon="17.309117"></trkpt><trkpt lat="52.473377" lon="17.308102"></trkpt><trkpt lat="52.476099" lon="17.287538"></trkpt><trkpt lat="52.475754" lon="17.287431"></trkpt><trkpt lat="52.475363" lon="17.28726"></trkpt><trkpt lat="52.471076" lon="17.284634"></trkpt><trkpt lat="52.470819" lon="17.28425"></trkpt><trkpt lat="52.470461" lon="17.283482"></trkpt><trkpt lat="52.470328" lon="17.283151"></trkpt><trkpt lat="52.462752" lon="17.266974"></trkpt><trkpt lat="52.462288" lon="17.266373"></trkpt><trkpt lat="52.460805" lon="17.264124"></trkpt><trkpt lat="52.460658" lon="17.263568"></trkpt><trkpt lat="52.458992" lon="17.258598"></trkpt><trkpt lat="52.458763" lon="17.258385"></trkpt><trkpt lat="52.455187" lon="17.254315"></trkpt><trkpt lat="52.455076" lon="17.254027"></trkpt><trkpt lat="52.454069" lon="17.251868"></trkpt><trkpt lat="52.453742" lon="17.251542"></trkpt><trkpt lat="52.453259" lon="17.250946"></trkpt><trkpt lat="52.45311" lon="17.25071"></trkpt><trkpt lat="52.451208" lon="17.248141"></trkpt><trkpt lat="52.450985" lon="17.248064"></trkpt><trkpt lat="52.449429" lon="17.247278"></trkpt><trkpt lat="52.449191" lon="17.247008"></trkpt><trkpt lat="52.444915" lon="17.242949"></trkpt><trkpt lat="52.44468" lon="17.242913"></trkpt><trkpt lat="52.444459" lon="17.242846"></trkpt><trkpt lat="52.444254" lon="17.242758"></trkpt><trkpt lat="52.444049" lon="17.242711"></trkpt><trkpt lat="52.443988" lon="17.242342"></trkpt><trkpt lat="52.444095" lon="17.242022"></trkpt><trkpt lat="52.444708" lon="17.239827"></trkpt><trkpt lat="52.445251" lon="17.237454"></trkpt><trkpt lat="52.445463" lon="17.236255"></trkpt><trkpt lat="52.445512" lon="17.23577"></trkpt><trkpt lat="52.446656" lon="17.211671"></trkpt><trkpt lat="52.446292" lon="17.211478"></trkpt><trkpt lat="52.445814" lon="17.211115"></trkpt><trkpt lat="52.44577" lon="17.210765"></trkpt><trkpt lat="52.445836" lon="17.210353"></trkpt><trkpt lat="52.446105" lon="17.209177"></trkpt><trkpt lat="52.446166" lon="17.208708"></trkpt><trkpt lat="52.44613" lon="17.208138"></trkpt><trkpt lat="52.446007" lon="17.207708"></trkpt><trkpt lat="52.445931" lon="17.207371"></trkpt><trkpt lat="52.445825" lon="17.207083"></trkpt><trkpt lat="52.445744" lon="17.206516"></trkpt><trkpt lat="52.445627" lon="17.205952"></trkpt><trkpt lat="52.443873" lon="17.194899"></trkpt><trkpt lat="52.443874" lon="17.194498"></trkpt><trkpt lat="52.442868" lon="17.169877"></trkpt><trkpt lat="52.442637" lon="17.169563"></trkpt><trkpt lat="52.442369" lon="17.169314"></trkpt><trkpt lat="52.427665" lon="17.157876"></trkpt><trkpt lat="52.427117" lon="17.157849"></trkpt><trkpt lat="52.423792" lon="17.157138"></trkpt><trkpt lat="52.423802" lon="17.156762"></trkpt><trkpt lat="52.423742" lon="17.154959"></trkpt><trkpt lat="52.423575" lon="17.154311"></trkpt><trkpt lat="52.413064" lon="17.12118"></trkpt><trkpt lat="52.412891" lon="17.121003"></trkpt><trkpt lat="52.412627" lon="17.120676"></trkpt><trkpt lat="52.412617" lon="17.120099"></trkpt><trkpt lat="52.412703" lon="17.119481"></trkpt><trkpt lat="52.413035" lon="17.112809"></trkpt><trkpt lat="52.41286" lon="17.112472"></trkpt><trkpt lat="52.407424" lon="17.100092"></trkpt><trkpt lat="52.407616" lon="17.099221"></trkpt><trkpt lat="52.409332" lon="17.08932"></trkpt><trkpt lat="52.409356" lon="17.088398"></trkpt><trkpt lat="52.409272" lon="17.084362"></trkpt><trkpt lat="52.408881" lon="17.084299"></trkpt><trkpt lat="52.408667" lon="17.084296"></trkpt><trkpt lat="52.40652" lon="17.084008"></trkpt><trkpt lat="52.406083" lon="17.083873"></trkpt><trkpt lat="52.40173" lon="17.081671"></trkpt><trkpt lat="52.401772" lon="17.081083"></trkpt><trkpt lat="52.402218" lon="17.077279"></trkpt><trkpt lat="52.402397" lon="17.076483"></trkpt><trkpt lat="52.402671" lon="17.074813"></trkpt><trkpt lat="52.402592" lon="17.074038"></trkpt><trkpt lat="52.401413" lon="17.066951"></trkpt><trkpt lat="52.401162" lon="17.066419"></trkpt><trkpt lat="52.40088" lon="17.065955"></trkpt><trkpt lat="52.397629" lon="17.059441"></trkpt><trkpt lat="52.397448" lon="17.058401"></trkpt><trkpt lat="52.397321" lon="17.05705"></trkpt><trkpt lat="52.397175" lon="17.056808"></trkpt><trkpt lat="52.397157" lon="17.056426"></trkpt><trkpt lat="52.397176" lon="17.055989"></trkpt><trkpt lat="52.397349" lon="17.054395"></trkpt><trkpt lat="52.397418" lon="17.054074"></trkpt><trkpt lat="52.398606" lon="17.046057"></trkpt><trkpt lat="52.398446" lon="17.045607"></trkpt><trkpt lat="52.398336" lon="17.045222"></trkpt><trkpt lat="52.397915" lon="17.044036"></trkpt><trkpt lat="52.397604" lon="17.043317"></trkpt><trkpt lat="52.393687" lon="17.035896"></trkpt><trkpt lat="52.393332" lon="17.035744"></trkpt><trkpt lat="52.390492" lon="17.034118"></trkpt><trkpt lat="52.390369" lon="17.033862"></trkpt><trkpt lat="52.390425" lon="17.033526"></trkpt><trkpt lat="52.390549" lon="17.033102"></trkpt><trkpt lat="52.39037" lon="17.032607"></trkpt><trkpt lat="52.390031" lon="17.03213"></trkpt><trkpt lat="52.387479" lon="17.027996"></trkpt><trkpt lat="52.387305" lon="17.027564"></trkpt><trkpt lat="52.387482" lon="17.027263"></trkpt><trkpt lat="52.387664" lon="17.027059"></trkpt><trkpt lat="52.39068" lon="17.023121"></trkpt><trkpt lat="52.390886" lon="17.022375"></trkpt><trkpt lat="52.391019" lon="17.021647"></trkpt><trkpt lat="52.391061" lon="17.021099"></trkpt><trkpt lat="52.391065" lon="17.020486"></trkpt><trkpt lat="52.391017" lon="17.019636"></trkpt><trkpt lat="52.390599" lon="17.01551"></trkpt><trkpt lat="52.390579" lon="17.015143"></trkpt><trkpt lat="52.390765" lon="17.015026"></trkpt><trkpt lat="52.391225" lon="17.014913"></trkpt><trkpt lat="52.391434" lon="17.014898"></trkpt><trkpt lat="52.391632" lon="17.014846"></trkpt><trkpt lat="52.392639" lon="17.014304"></trkpt><trkpt lat="52.392612" lon="17.013914"></trkpt><trkpt lat="52.392503" lon="17.013307"></trkpt><trkpt lat="52.391742" lon="17.00763"></trkpt><trkpt lat="52.391764" lon="17.00727"></trkpt><trkpt lat="52.391772" lon="17.006747"></trkpt><trkpt lat="52.391865" lon="17.006205"></trkpt><trkpt lat="52.39185" lon="17.005748"></trkpt><trkpt lat="52.391927" lon="17.000464"></trkpt><trkpt lat="52.392052" lon="17.000064"></trkpt><trkpt lat="52.392529" lon="16.998008"></trkpt><trkpt lat="52.393767" lon="16.990889"></trkpt><trkpt lat="52.393533" lon="16.990497"></trkpt><trkpt lat="52.393661" lon="16.990231"></trkpt><trkpt lat="52.393946" lon="16.989838"></trkpt><trkpt lat="52.394502" lon="16.988917"></trkpt><trkpt lat="52.39463" lon="16.98854"></trkpt><trkpt lat="52.394705" lon="16.988194"></trkpt><trkpt lat="52.395593" lon="16.982877"></trkpt><trkpt lat="52.395313" lon="16.982652"></trkpt><trkpt lat="52.392174" lon="16.980563"></trkpt><trkpt lat="52.391738" lon="16.980506"></trkpt><trkpt lat="52.391512" lon="16.980449"></trkpt><trkpt lat="52.391034" lon="16.980385"></trkpt><trkpt lat="52.390579" lon="16.980151"></trkpt><trkpt lat="52.390573" lon="16.979757"></trkpt><trkpt lat="52.390353" lon="16.979723"></trkpt><trkpt lat="52.390095" lon="16.979567"></trkpt><trkpt lat="52.389842" lon="16.979357"></trkpt><trkpt lat="52.389576" lon="16.979071"></trkpt><trkpt lat="52.386069" lon="16.974483"></trkpt><trkpt lat="52.38598" lon="16.974132"></trkpt><trkpt lat="52.385859" lon="16.973756"></trkpt><trkpt lat="52.38577" lon="16.973391"></trkpt><trkpt lat="52.385725" lon="16.973056"></trkpt><trkpt lat="52.385594" lon="16.972788"></trkpt><trkpt lat="52.385414" lon="16.972104"></trkpt><trkpt lat="52.385282" lon="16.971762"></trkpt><trkpt lat="52.384958" lon="16.971049"></trkpt><trkpt lat="52.384744" lon="16.970654"></trkpt><trkpt lat="52.384423" lon="16.969895"></trkpt><trkpt lat="52.384122" lon="16.969647"></trkpt><trkpt lat="52.38384" lon="16.969342"></trkpt><trkpt lat="52.380539" lon="16.965154"></trkpt><trkpt lat="52.380415" lon="16.964893"></trkpt><trkpt lat="52.3803" lon="16.964579"></trkpt><trkpt lat="52.380109" lon="16.964352"></trkpt><trkpt lat="52.379958" lon="16.963966"></trkpt><trkpt lat="52.379843" lon="16.963443"></trkpt><trkpt lat="52.379643" lon="16.96302"></trkpt><trkpt lat="52.379518" lon="16.96257"></trkpt><trkpt lat="52.379381" lon="16.962188"></trkpt><trkpt lat="52.379218" lon="16.96152"></trkpt><trkpt lat="52.379033" lon="16.96045"></trkpt><trkpt lat="52.379011" lon="16.960097"></trkpt><trkpt lat="52.378937" lon="16.959621"></trkpt><trkpt lat="52.378961" lon="16.959258"></trkpt><trkpt lat="52.37883" lon="16.958918"></trkpt><trkpt lat="52.377872" lon="16.956928"></trkpt><trkpt lat="52.377642" lon="16.956696"></trkpt><trkpt lat="52.377447" lon="16.956443"></trkpt><trkpt lat="52.377195" lon="16.956054"></trkpt><trkpt lat="52.377015" lon="16.95568"></trkpt><trkpt lat="52.376947" lon="16.955205"></trkpt><trkpt lat="52.377024" lon="16.954856"></trkpt><trkpt lat="52.37714" lon="16.954531"></trkpt><trkpt lat="52.377242" lon="16.954089"></trkpt><trkpt lat="52.377891" lon="16.951859"></trkpt><trkpt lat="52.378003" lon="16.951382"></trkpt><trkpt lat="52.378053" lon="16.951018"></trkpt><trkpt lat="52.378293" lon="16.949744"></trkpt><trkpt lat="52.378474" lon="16.949142"></trkpt><trkpt lat="52.379623" lon="16.946197"></trkpt><trkpt lat="52.380019" lon="16.945455"></trkpt><trkpt lat="52.380241" lon="16.94496"></trkpt><trkpt lat="52.380451" lon="16.9443"></trkpt><trkpt lat="52.380577" lon="16.944035"></trkpt><trkpt lat="52.380628" lon="16.943668"></trkpt><trkpt lat="52.380776" lon="16.943416"></trkpt><trkpt lat="52.380868" lon="16.942976"></trkpt><trkpt lat="52.380927" lon="16.942572"></trkpt><trkpt lat="52.380957" lon="16.942233"></trkpt><trkpt lat="52.381058" lon="16.941788"></trkpt><trkpt lat="52.38143" lon="16.939714"></trkpt></trkseg></trk></gpx>