<?xml version="1.0" encoding="UTF-8" standalone="no" ?><gpx xmlns="http://www.topografix.com/GPX/1/1" xmlns:gpxx="http://www.garmin.com/xmlschemas/GpxExtensions/v3" ><trk><trkseg><trkpt lat="50.7510763966" lon="15.7085768692"></trkpt><trkpt lat="50.7508493308" lon="15.7088493649"></trkpt><trkpt lat="50.7508114446" lon="15.7093058433"></trkpt><trkpt lat="50.7506830338" lon="15.7101826742"></trkpt><trkpt lat="50.7505661901" lon="15.7105756178"></trkpt><trkpt lat="50.7503709756" lon="15.7109253109"></trkpt><trkpt lat="50.7501343545" lon="15.711133182"></trkpt><trkpt lat="50.7498471066" lon="15.7112449128"></trkpt><trkpt lat="50.7495653909" lon="15.7111973874"></trkpt><trkpt lat="50.749268923" lon="15.7110749278"></trkpt><trkpt lat="50.7490551006" lon="15.7107425854"></trkpt><trkpt lat="50.7488952577" lon="15.7103730273"></trkpt><trkpt lat="50.7477692328" lon="15.7082521543"></trkpt><trkpt lat="50.7475353777" lon="15.7080153655"></trkpt><trkpt lat="50.7455585059" lon="15.7063920423"></trkpt><trkpt lat="50.745287938" lon="15.7062622067"></trkpt><trkpt lat="50.7450223994" lon="15.7060859352"></trkpt><trkpt lat="50.7430886943" lon="15.7051098626"></trkpt><trkpt lat="50.7427812461" lon="15.7050528657"></trkpt><trkpt lat="50.7424819283" lon="15.7050407957"></trkpt><trkpt lat="50.7422111928" lon="15.7051773369"></trkpt><trkpt lat="50.7416535448" lon="15.7055708673"></trkpt><trkpt lat="50.7414443325" lon="15.7058644854"></trkpt><trkpt lat="50.7412653789" lon="15.7061980013"></trkpt><trkpt lat="50.7411511336" lon="15.706603853"></trkpt><trkpt lat="50.7411909476" lon="15.7070983853"></trkpt><trkpt lat="50.7412756048" lon="15.7077008765"></trkpt><trkpt lat="50.7413013373" lon="15.7081330474"></trkpt><trkpt lat="50.741496468" lon="15.70978445"></trkpt><trkpt lat="50.7415762637" lon="15.7102131005"></trkpt><trkpt lat="50.7416290697" lon="15.7106368057"></trkpt><trkpt lat="50.7417454943" lon="15.7110573258"></trkpt><trkpt lat="50.7418733183" lon="15.7116929255"></trkpt><trkpt lat="50.7420251146" lon="15.712841833"></trkpt><trkpt lat="50.7419954427" lon="15.713278614"></trkpt><trkpt lat="50.7419333328" lon="15.7137353439"></trkpt><trkpt lat="50.7397161517" lon="15.727704959"></trkpt><trkpt lat="50.7395343482" lon="15.7282114774"></trkpt><trkpt lat="50.7396026608" lon="15.7286765054"></trkpt><trkpt lat="50.7393470965" lon="15.7288395334"></trkpt><trkpt lat="50.7391891815" lon="15.7292307168"></trkpt><trkpt lat="50.7383086625" lon="15.731028216"></trkpt><trkpt lat="50.7380764" lon="15.7313106023"></trkpt><trkpt lat="50.736829089" lon="15.7331252843"></trkpt><trkpt lat="50.7367098145" lon="15.7335230056"></trkpt><trkpt lat="50.7367195375" lon="15.733971186"></trkpt><trkpt lat="50.7367618661" lon="15.7344313525"></trkpt><trkpt lat="50.7365014404" lon="15.7345852442"></trkpt><trkpt lat="50.7362372428" lon="15.7344913669"></trkpt><trkpt lat="50.7363025378" lon="15.7349177543"></trkpt><trkpt lat="50.7363276836" lon="15.7353563793"></trkpt><trkpt lat="50.7363281865" lon="15.7357847784"></trkpt><trkpt lat="50.7362785656" lon="15.7362179551"></trkpt><trkpt lat="50.7363679167" lon="15.7366613578"></trkpt><trkpt lat="50.7364688348" lon="15.7374050841"></trkpt><trkpt lat="50.7364270091" lon="15.7378382608"></trkpt><trkpt lat="50.7364160288" lon="15.7382961642"></trkpt><trkpt lat="50.7363487221" lon="15.7391099632"></trkpt><trkpt lat="50.7361674216" lon="15.7394953631"></trkpt><trkpt lat="50.7361485623" lon="15.7401083317"></trkpt><trkpt lat="50.7364037912" lon="15.7402893808"></trkpt><trkpt lat="50.7361572795" lon="15.7400534302"></trkpt><trkpt lat="50.7358612306" lon="15.7396925893"></trkpt><trkpt lat="50.7361228298" lon="15.7398570422"></trkpt><trkpt lat="50.7362678368" lon="15.7394918427"></trkpt><trkpt lat="50.7363215648" lon="15.7390372083"></trkpt><trkpt lat="50.7364098262" lon="15.738550052"></trkpt><trkpt lat="50.7364166994" lon="15.7380537596"></trkpt><trkpt lat="50.7364503108" lon="15.7375927549"></trkpt><trkpt lat="50.7364457846" lon="15.7371248771"></trkpt><trkpt lat="50.7363783941" lon="15.736683486"></trkpt><trkpt lat="50.7362396736" lon="15.7360580284"></trkpt><trkpt lat="50.7363162842" lon="15.7356331497"></trkpt><trkpt lat="50.7363138534" lon="15.7351782639"></trkpt><trkpt lat="50.7362245023" lon="15.7347679697"></trkpt><trkpt lat="50.7365233172" lon="15.7346259803"></trkpt><trkpt lat="50.7366048731" lon="15.7341513131"></trkpt><trkpt lat="50.7368043624" lon="15.7335610595"></trkpt><trkpt lat="50.7368040271" lon="15.733089745"></trkpt><trkpt lat="50.7369506266" lon="15.7327009086"></trkpt><trkpt lat="50.737200994" lon="15.732380636"></trkpt><trkpt lat="50.7390718348" lon="15.7294386718"></trkpt><trkpt lat="50.7390153408" lon="15.7289525215"></trkpt><trkpt lat="50.7387419231" lon="15.7288247813"></trkpt><trkpt lat="50.7390015107" lon="15.7289572153"></trkpt><trkpt lat="50.7393273991" lon="15.7292066608"></trkpt><trkpt lat="50.7390095573" lon="15.7289354224"></trkpt><trkpt lat="50.7387468684" lon="15.7288308162"></trkpt><trkpt lat="50.7390301768" lon="15.7289097738"></trkpt><trkpt lat="50.739254225" lon="15.7291604765"></trkpt><trkpt lat="50.7393908501" lon="15.7287475839"></trkpt><trkpt lat="50.7395428978" lon="15.7281675562"></trkpt><trkpt lat="50.7396818697" lon="15.7277513947"></trkpt><trkpt lat="50.7397752441" lon="15.7271836884"></trkpt><trkpt lat="50.7398068439" lon="15.7267371006"></trkpt><trkpt lat="50.7399363443" lon="15.7258254848"></trkpt><trkpt lat="50.7400587201" lon="15.7254247461"></trkpt><trkpt lat="50.7406120934" lon="15.7230634801"></trkpt><trkpt lat="50.7409917098" lon="15.7208316308"></trkpt><trkpt lat="50.7410174422" lon="15.720366938"></trkpt><trkpt lat="50.7411119062" lon="15.7198848948"></trkpt><trkpt lat="50.7411657181" lon="15.7194631174"></trkpt><trkpt lat="50.7411806379" lon="15.7189581078"></trkpt><trkpt lat="50.7412731741" lon="15.7183857076"></trkpt><trkpt lat="50.7413730863" lon="15.7179679535"></trkpt><trkpt lat="50.7414058596" lon="15.7174918614"></trkpt><trkpt lat="50.7415983919" lon="15.7160051633"></trkpt><trkpt lat="50.7418785989" lon="15.7117597293"></trkpt><trkpt lat="50.741722947" lon="15.7111668773"></trkpt><trkpt lat="50.7414633594" lon="15.7098149601"></trkpt><trkpt lat="50.7412955537" lon="15.7084879372"></trkpt><trkpt lat="50.741162952" lon="15.7064335328"></trkpt><trkpt lat="50.7413940411" lon="15.7060150243"></trkpt><trkpt lat="50.7416205201" lon="15.7056894712"></trkpt><trkpt lat="50.7419370208" lon="15.7053663488"></trkpt><trkpt lat="50.7422693633" lon="15.7051678654"></trkpt><trkpt lat="50.7426411845" lon="15.705083292"></trkpt><trkpt lat="50.7446084172" lon="15.7058210671"></trkpt><trkpt lat="50.7448701002" lon="15.7060287707"></trkpt><trkpt lat="50.7452389877" lon="15.706198588"></trkpt><trkpt lat="50.7464998774" lon="15.7069802005"></trkpt><trkpt lat="50.7468250114" lon="15.7072872296"></trkpt><trkpt lat="50.7484406233" lon="15.7091550529"></trkpt><trkpt lat="50.748609351" lon="15.7095381059"></trkpt><trkpt lat="50.7487688586" lon="15.7099784911"></trkpt><trkpt lat="50.7489473093" lon="15.7103731949"></trkpt><trkpt lat="50.7493384089" lon="15.7110432442"></trkpt><trkpt lat="50.7496979088" lon="15.7112446614"></trkpt><trkpt lat="50.7500017527" lon="15.7111868262"></trkpt><trkpt lat="50.7502726559" lon="15.7110582478"></trkpt><trkpt lat="50.7504886575" lon="15.7107694913"></trkpt><trkpt lat="50.7506596483" lon="15.7103811577"></trkpt><trkpt lat="50.7507841196" lon="15.7098829374"></trkpt><trkpt lat="50.7508256938" lon="15.7093875669"></trkpt><trkpt lat="50.7509391848" lon="15.7086507976"></trkpt><trkpt lat="50.750933066" lon="15.70804202"></trkpt><trkpt lat="50.7506257854" lon="15.7078367472"></trkpt><trkpt lat="50.7504029106" lon="15.7075479906"></trkpt><trkpt lat="50.7502176706" lon="15.7071849704"></trkpt><trkpt lat="50.749940481" lon="15.7067343593"></trkpt><trkpt lat="50.7494539116" lon="15.7060717698"></trkpt><trkpt lat="50.7491745427" lon="15.7058174629"></trkpt><trkpt lat="50.7488845289" lon="15.7054873835"></trkpt><trkpt lat="50.7486809324" lon="15.7051035762"></trkpt><trkpt lat="50.7485293038" lon="15.7047423162"></trkpt><trkpt lat="50.7483355142" lon="15.7044180203"></trkpt><trkpt lat="50.7485578861" lon="15.7047204394"></trkpt><trkpt lat="50.7487138733" lon="15.7051639259"></trkpt><trkpt lat="50.7489471417" lon="15.7054972742"></trkpt><trkpt lat="50.7491839305" lon="15.7057461329"></trkpt><trkpt lat="50.7499896828" lon="15.7067815494"></trkpt><trkpt lat="50.7502506115" lon="15.7071900833"></trkpt><trkpt lat="50.7504707202" lon="15.7076069154"></trkpt><trkpt lat="50.7507173158" lon="15.707888715"></trkpt><trkpt lat="50.7510477304" lon="15.7084193733"></trkpt></trkseg></trk></gpx>