<?xml version="1.0" encoding="UTF-8" standalone="no" ?><gpx xmlns="http://www.topografix.com/GPX/1/1" xmlns:gpxx="http://www.garmin.com/xmlschemas/GpxExtensions/v3" ><trk><trkseg><trkpt lat="53.169343" lon="15.41973"></trkpt><trkpt lat="53.169637" lon="15.419801"></trkpt><trkpt lat="53.170143" lon="15.419281"></trkpt><trkpt lat="53.170356" lon="15.419316"></trkpt><trkpt lat="53.170652" lon="15.418929"></trkpt><trkpt lat="53.171191" lon="15.418568"></trkpt><trkpt lat="53.17421" lon="15.415993"></trkpt><trkpt lat="53.174608" lon="15.415209"></trkpt><trkpt lat="53.180538" lon="15.405137"></trkpt><trkpt lat="53.181098" lon="15.404354"></trkpt><trkpt lat="53.181767" lon="15.403589"></trkpt><trkpt lat="53.189287" lon="15.396342"></trkpt><trkpt lat="53.189808" lon="15.396183"></trkpt><trkpt lat="53.206938" lon="15.392805"></trkpt><trkpt lat="53.208569" lon="15.392767"></trkpt><trkpt lat="53.20909" lon="15.392572"></trkpt><trkpt lat="53.219217" lon="15.387268"></trkpt><trkpt lat="53.219768" lon="15.386075"></trkpt><trkpt lat="53.223908" lon="15.379859"></trkpt><trkpt lat="53.224545" lon="15.379847"></trkpt><trkpt lat="53.226792" lon="15.380373"></trkpt><trkpt lat="53.227433" lon="15.380684"></trkpt><trkpt lat="53.227862" lon="15.380816"></trkpt><trkpt lat="53.22829" lon="15.381144"></trkpt><trkpt lat="53.228633" lon="15.381296"></trkpt><trkpt lat="53.233663" lon="15.382878"></trkpt><trkpt lat="53.236427" lon="15.38338"></trkpt><trkpt lat="53.236608" lon="15.383539"></trkpt><trkpt lat="53.236828" lon="15.383581"></trkpt><trkpt lat="53.246633" lon="15.384296"></trkpt><trkpt lat="53.251377" lon="15.383111"></trkpt><trkpt lat="53.251453" lon="15.382659"></trkpt><trkpt lat="53.251591" lon="15.382355"></trkpt><trkpt lat="53.252235" lon="15.380624"></trkpt><trkpt lat="53.252426" lon="15.379972"></trkpt><trkpt lat="53.252612" lon="15.379143"></trkpt><trkpt lat="53.252709" lon="15.378834"></trkpt><trkpt lat="53.252931" lon="15.378834"></trkpt><trkpt lat="53.253232" lon="15.378548"></trkpt><trkpt lat="53.253708" lon="15.378348"></trkpt><trkpt lat="53.254102" lon="15.378046"></trkpt><trkpt lat="53.254314" lon="15.377913"></trkpt><trkpt lat="53.255214" lon="15.377205"></trkpt><trkpt lat="53.255432" lon="15.37699"></trkpt><trkpt lat="53.256032" lon="15.376288"></trkpt><trkpt lat="53.25633" lon="15.375998"></trkpt><trkpt lat="53.257786" lon="15.374829"></trkpt><trkpt lat="53.258441" lon="15.374434"></trkpt><trkpt lat="53.258712" lon="15.374461"></trkpt><trkpt lat="53.262439" lon="15.373483"></trkpt><trkpt lat="53.26278" lon="15.373274"></trkpt><trkpt lat="53.267163" lon="15.369893"></trkpt><trkpt lat="53.267449" lon="15.369498"></trkpt><trkpt lat="53.268309" lon="15.368479"></trkpt><trkpt lat="53.268424" lon="15.368193"></trkpt><trkpt lat="53.27231" lon="15.359857"></trkpt><trkpt lat="53.272578" lon="15.359487"></trkpt><trkpt lat="53.272959" lon="15.359632"></trkpt><trkpt lat="53.273126" lon="15.359872"></trkpt><trkpt lat="53.273375" lon="15.360314"></trkpt><trkpt lat="53.273904" lon="15.361092"></trkpt><trkpt lat="53.274188" lon="15.361196"></trkpt><trkpt lat="53.274541" lon="15.361221"></trkpt><trkpt lat="53.291397" lon="15.363797"></trkpt><trkpt lat="53.293253" lon="15.364344"></trkpt><trkpt lat="53.299402" lon="15.367039"></trkpt><trkpt lat="53.29989" lon="15.367351"></trkpt><trkpt lat="53.300547" lon="15.36793"></trkpt><trkpt lat="53.301015" lon="15.368422"></trkpt><trkpt lat="53.302138" lon="15.369427"></trkpt><trkpt lat="53.302391" lon="15.369472"></trkpt><trkpt lat="53.305767" lon="15.368451"></trkpt><trkpt lat="53.305875" lon="15.368141"></trkpt><trkpt lat="53.306046" lon="15.367804"></trkpt><trkpt lat="53.306576" lon="15.367977"></trkpt><trkpt lat="53.307172" lon="15.368284"></trkpt><trkpt lat="53.30737" lon="15.368542"></trkpt><trkpt lat="53.307887" lon="15.369067"></trkpt><trkpt lat="53.308303" lon="15.369211"></trkpt><trkpt lat="53.308493" lon="15.369305"></trkpt><trkpt lat="53.308882" lon="15.369828"></trkpt><trkpt lat="53.30915" lon="15.370276"></trkpt><trkpt lat="53.309583" lon="15.370636"></trkpt><trkpt lat="53.309946" lon="15.370785"></trkpt><trkpt lat="53.312397" lon="15.372139"></trkpt><trkpt lat="53.312755" lon="15.37256"></trkpt><trkpt lat="53.319436" lon="15.382174"></trkpt><trkpt lat="53.319557" lon="15.383115"></trkpt><trkpt lat="53.31971" lon="15.383927"></trkpt><trkpt lat="53.31986" lon="15.384367"></trkpt><trkpt lat="53.319683" lon="15.383788"></trkpt><trkpt lat="53.319561" lon="15.383129"></trkpt><trkpt lat="53.319299" lon="15.383112"></trkpt><trkpt lat="53.319065" lon="15.383388"></trkpt><trkpt lat="53.319228" lon="15.383114"></trkpt><trkpt lat="53.31946" lon="15.382915"></trkpt><trkpt lat="53.31958" lon="15.383326"></trkpt><trkpt lat="53.319657" lon="15.383735"></trkpt><trkpt lat="53.319852" lon="15.384328"></trkpt><trkpt lat="53.32023" lon="15.385211"></trkpt><trkpt lat="53.321313" lon="15.387371"></trkpt><trkpt lat="53.321771" lon="15.387634"></trkpt><trkpt lat="53.32258" lon="15.387992"></trkpt><trkpt lat="53.339083" lon="15.394755"></trkpt><trkpt lat="53.33988" lon="15.394968"></trkpt><trkpt lat="53.340364" lon="15.395287"></trkpt><trkpt lat="53.340776" lon="15.395454"></trkpt><trkpt lat="53.341407" lon="15.395626"></trkpt><trkpt lat="53.341649" lon="15.395642"></trkpt><trkpt lat="53.342626" lon="15.395326"></trkpt><trkpt lat="53.343407" lon="15.39496"></trkpt><trkpt lat="53.344225" lon="15.394464"></trkpt><trkpt lat="53.34593" lon="15.393691"></trkpt><trkpt lat="53.346698" lon="15.394209"></trkpt><trkpt lat="53.348093" lon="15.395475"></trkpt><trkpt lat="53.34828" lon="15.395827"></trkpt><trkpt lat="53.348585" lon="15.396949"></trkpt><trkpt lat="53.348741" lon="15.397961"></trkpt><trkpt lat="53.35206" lon="15.413756"></trkpt><trkpt lat="53.352619" lon="15.414512"></trkpt><trkpt lat="53.353762" lon="15.416573"></trkpt><trkpt lat="53.354147" lon="15.417695"></trkpt><trkpt lat="53.354368" lon="15.41887"></trkpt><trkpt lat="53.354907" lon="15.420431"></trkpt><trkpt lat="53.355041" lon="15.420703"></trkpt><trkpt lat="53.355848" lon="15.422793"></trkpt><trkpt lat="53.356043" lon="15.423791"></trkpt><trkpt lat="53.356401" lon="15.42525"></trkpt><trkpt lat="53.356524" lon="15.425664"></trkpt><trkpt lat="53.357919" lon="15.429305"></trkpt><trkpt lat="53.358432" lon="15.429093"></trkpt><trkpt lat="53.359026" lon="15.428948"></trkpt><trkpt lat="53.360344" lon="15.428966"></trkpt><trkpt lat="53.360536" lon="15.4292"></trkpt><trkpt lat="53.360852" lon="15.429436"></trkpt><trkpt lat="53.361857" lon="15.430353"></trkpt><trkpt lat="53.362091" lon="15.430609"></trkpt><trkpt lat="53.362342" lon="15.430837"></trkpt><trkpt lat="53.362923" lon="15.430842"></trkpt><trkpt lat="53.366091" lon="15.429577"></trkpt><trkpt lat="53.366163" lon="15.429178"></trkpt><trkpt lat="53.366439" lon="15.429339"></trkpt><trkpt lat="53.366203" lon="15.429202"></trkpt><trkpt lat="53.366449" lon="15.429324"></trkpt><trkpt lat="53.366825" lon="15.429602"></trkpt><trkpt lat="53.374493" lon="15.436953"></trkpt><trkpt lat="53.374543" lon="15.437676"></trkpt><trkpt lat="53.374536" lon="15.438427"></trkpt><trkpt lat="53.374681" lon="15.439961"></trkpt><trkpt lat="53.375" lon="15.44043"></trkpt><trkpt lat="53.375604" lon="15.441479"></trkpt><trkpt lat="53.376303" lon="15.442354"></trkpt><trkpt lat="53.376564" lon="15.442525"></trkpt><trkpt lat="53.37688" lon="15.442782"></trkpt><trkpt lat="53.377319" lon="15.443232"></trkpt><trkpt lat="53.377688" lon="15.44369"></trkpt><trkpt lat="53.378741" lon="15.444774"></trkpt><trkpt lat="53.378998" lon="15.444959"></trkpt><trkpt lat="53.381955" lon="15.446511"></trkpt><trkpt lat="53.382341" lon="15.446401"></trkpt><trkpt lat="53.383311" lon="15.447181"></trkpt><trkpt lat="53.383788" lon="15.448153"></trkpt><trkpt lat="53.385307" lon="15.450819"></trkpt><trkpt lat="53.385539" lon="15.450847"></trkpt><trkpt lat="53.385872" lon="15.450711"></trkpt><trkpt lat="53.38622" lon="15.450517"></trkpt><trkpt lat="53.386401" lon="15.450353"></trkpt><trkpt lat="53.386604" lon="15.450249"></trkpt><trkpt lat="53.387954" lon="15.449979"></trkpt><trkpt lat="53.388266" lon="15.450507"></trkpt><trkpt lat="53.388488" lon="15.451236"></trkpt><trkpt lat="53.388885" lon="15.452965"></trkpt><trkpt lat="53.388938" lon="15.453452"></trkpt><trkpt lat="53.389433" lon="15.456679"></trkpt><trkpt lat="53.38937" lon="15.457408"></trkpt><trkpt lat="53.389304" lon="15.459515"></trkpt><trkpt lat="53.389395" lon="15.459835"></trkpt><trkpt lat="53.389459" lon="15.460438"></trkpt><trkpt lat="53.389556" lon="15.460928"></trkpt><trkpt lat="53.38971" lon="15.4622"></trkpt><trkpt lat="53.389598" lon="15.462841"></trkpt><trkpt lat="53.389358" lon="15.46356"></trkpt><trkpt lat="53.389046" lon="15.464722"></trkpt><trkpt lat="53.389128" lon="15.465214"></trkpt><trkpt lat="53.3896" lon="15.46743"></trkpt><trkpt lat="53.389991" lon="15.470076"></trkpt><trkpt lat="53.390228" lon="15.471061"></trkpt><trkpt lat="53.390709" lon="15.472435"></trkpt><trkpt lat="53.391252" lon="15.473068"></trkpt><trkpt lat="53.391433" lon="15.473232"></trkpt><trkpt lat="53.391871" lon="15.473889"></trkpt><trkpt lat="53.392006" lon="15.474566"></trkpt><trkpt lat="53.392035" lon="15.474914"></trkpt><trkpt lat="53.392094" lon="15.475295"></trkpt><trkpt lat="53.3924" lon="15.476778"></trkpt><trkpt lat="53.392676" lon="15.477371"></trkpt><trkpt lat="53.393038" lon="15.478446"></trkpt><trkpt lat="53.393015" lon="15.478961"></trkpt><trkpt lat="53.392868" lon="15.479354"></trkpt><trkpt lat="53.392708" lon="15.47963"></trkpt><trkpt lat="53.392571" lon="15.479968"></trkpt><trkpt lat="53.392252" lon="15.480997"></trkpt><trkpt lat="53.392175" lon="15.481424"></trkpt><trkpt lat="53.391605" lon="15.483869"></trkpt><trkpt lat="53.391155" lon="15.485263"></trkpt><trkpt lat="53.390624" lon="15.486662"></trkpt><trkpt lat="53.390076" lon="15.487828"></trkpt><trkpt lat="53.389739" lon="15.488671"></trkpt><trkpt lat="53.389559" lon="15.489282"></trkpt><trkpt lat="53.389377" lon="15.489789"></trkpt><trkpt lat="53.389165" lon="15.490603"></trkpt><trkpt lat="53.389463" lon="15.491024"></trkpt><trkpt lat="53.389762" lon="15.490968"></trkpt><trkpt lat="53.389558" lon="15.490994"></trkpt><trkpt lat="53.389048" lon="15.49147"></trkpt><trkpt lat="53.388983" lon="15.491992"></trkpt><trkpt lat="53.388877" lon="15.495437"></trkpt><trkpt lat="53.389098" lon="15.495919"></trkpt><trkpt lat="53.389215" lon="15.496572"></trkpt><trkpt lat="53.389345" lon="15.497123"></trkpt><trkpt lat="53.390456" lon="15.500835"></trkpt><trkpt lat="53.390872" lon="15.501679"></trkpt><trkpt lat="53.39104" lon="15.501898"></trkpt><trkpt lat="53.391356" lon="15.502139"></trkpt><trkpt lat="53.391964" lon="15.502782"></trkpt><trkpt lat="53.392176" lon="15.502858"></trkpt><trkpt lat="53.392716" lon="15.503155"></trkpt><trkpt lat="53.393137" lon="15.503489"></trkpt><trkpt lat="53.394097" lon="15.504398"></trkpt><trkpt lat="53.394289" lon="15.504716"></trkpt><trkpt lat="53.394505" lon="15.504993"></trkpt><trkpt lat="53.394883" lon="15.505363"></trkpt><trkpt lat="53.39528" lon="15.506091"></trkpt><trkpt lat="53.397658" lon="15.511325"></trkpt><trkpt lat="53.397865" lon="15.512104"></trkpt><trkpt lat="53.39853" lon="15.513738"></trkpt><trkpt lat="53.39872" lon="15.514057"></trkpt><trkpt lat="53.399132" lon="15.515213"></trkpt><trkpt lat="53.399346" lon="15.516171"></trkpt><trkpt lat="53.399589" lon="15.517042"></trkpt><trkpt lat="53.400125" lon="15.517699"></trkpt><trkpt lat="53.400362" lon="15.518117"></trkpt><trkpt lat="53.400493" lon="15.518541"></trkpt><trkpt lat="53.400633" lon="15.51883"></trkpt><trkpt lat="53.40091" lon="15.518968"></trkpt><trkpt lat="53.401138" lon="15.518799"></trkpt><trkpt lat="53.401281" lon="15.518519"></trkpt><trkpt lat="53.40203" lon="15.517385"></trkpt><trkpt lat="53.402321" lon="15.517438"></trkpt><trkpt lat="53.402563" lon="15.517863"></trkpt><trkpt lat="53.402754" lon="15.51851"></trkpt><trkpt lat="53.403536" lon="15.52075"></trkpt><trkpt lat="53.403948" lon="15.522366"></trkpt><trkpt lat="53.403984" lon="15.522727"></trkpt><trkpt lat="53.404554" lon="15.526706"></trkpt><trkpt lat="53.404555" lon="15.527053"></trkpt><trkpt lat="53.40447" lon="15.527375"></trkpt><trkpt lat="53.404186" lon="15.528237"></trkpt><trkpt lat="53.404138" lon="15.528613"></trkpt><trkpt lat="53.404142" lon="15.528975"></trkpt><trkpt lat="53.404174" lon="15.529343"></trkpt><trkpt lat="53.404199" lon="15.530139"></trkpt><trkpt lat="53.404128" lon="15.530475"></trkpt><trkpt lat="53.404009" lon="15.531234"></trkpt><trkpt lat="53.404088" lon="15.531912"></trkpt><trkpt lat="53.404131" lon="15.533701"></trkpt><trkpt lat="53.404013" lon="15.534445"></trkpt><trkpt lat="53.403195" lon="15.542362"></trkpt><trkpt lat="53.403256" lon="15.542685"></trkpt><trkpt lat="53.403764" lon="15.546267"></trkpt><trkpt lat="53.40352" lon="15.547175"></trkpt><trkpt lat="53.40329" lon="15.548277"></trkpt><trkpt lat="53.403499" lon="15.548122"></trkpt><trkpt lat="53.406017" lon="15.545618"></trkpt><trkpt lat="53.406237" lon="15.545037"></trkpt><trkpt lat="53.406587" lon="15.54459"></trkpt><trkpt lat="53.40679" lon="15.544418"></trkpt><trkpt lat="53.406437" lon="15.544734"></trkpt><trkpt lat="53.406284" lon="15.544987"></trkpt><trkpt lat="53.406084" lon="15.545546"></trkpt><trkpt lat="53.405865" lon="15.546275"></trkpt><trkpt lat="53.40572" lon="15.546873"></trkpt><trkpt lat="53.405489" lon="15.548989"></trkpt><trkpt lat="53.405607" lon="15.549439"></trkpt><trkpt lat="53.405714" lon="15.54997"></trkpt><trkpt lat="53.406049" lon="15.551239"></trkpt><trkpt lat="53.406275" lon="15.551419"></trkpt><trkpt lat="53.406663" lon="15.551834"></trkpt><trkpt lat="53.412251" lon="15.556732"></trkpt><trkpt lat="53.413563" lon="15.55823"></trkpt><trkpt lat="53.413739" lon="15.558593"></trkpt><trkpt lat="53.414042" lon="15.559353"></trkpt><trkpt lat="53.41421" lon="15.559593"></trkpt><trkpt lat="53.4144" lon="15.55974"></trkpt><trkpt lat="53.414603" lon="15.559805"></trkpt><trkpt lat="53.414847" lon="15.559682"></trkpt><trkpt lat="53.415034" lon="15.559406"></trkpt><trkpt lat="53.415184" lon="15.558832"></trkpt><trkpt lat="53.41535" lon="15.558604"></trkpt><trkpt lat="53.415607" lon="15.558734"></trkpt><trkpt lat="53.416171" lon="15.558921"></trkpt><trkpt lat="53.417019" lon="15.55969"></trkpt><trkpt lat="53.417353" lon="15.560477"></trkpt><trkpt lat="53.417505" lon="15.560929"></trkpt><trkpt lat="53.417559" lon="15.561292"></trkpt><trkpt lat="53.417595" lon="15.561804"></trkpt><trkpt lat="53.417846" lon="15.562495"></trkpt><trkpt lat="53.418082" lon="15.562967"></trkpt><trkpt lat="53.418499" lon="15.563935"></trkpt><trkpt lat="53.418671" lon="15.56426"></trkpt><trkpt lat="53.419102" lon="15.564968"></trkpt><trkpt lat="53.419429" lon="15.564765"></trkpt><trkpt lat="53.421206" lon="15.563276"></trkpt><trkpt lat="53.421401" lon="15.562713"></trkpt><trkpt lat="53.421711" lon="15.562171"></trkpt><trkpt lat="53.42236" lon="15.560752"></trkpt><trkpt lat="53.422377" lon="15.560112"></trkpt><trkpt lat="53.422257" lon="15.559635"></trkpt><trkpt lat="53.421998" lon="15.558345"></trkpt><trkpt lat="53.421871" lon="15.557053"></trkpt><trkpt lat="53.421946" lon="15.556462"></trkpt><trkpt lat="53.422015" lon="15.556132"></trkpt><trkpt lat="53.422357" lon="15.555666"></trkpt><trkpt lat="53.422961" lon="15.555064"></trkpt><trkpt lat="53.426892" lon="15.551787"></trkpt><trkpt lat="53.427169" lon="15.551603"></trkpt><trkpt lat="53.428234" lon="15.551048"></trkpt><trkpt lat="53.429336" lon="15.550613"></trkpt><trkpt lat="53.429562" lon="15.550492"></trkpt><trkpt lat="53.429864" lon="15.550272"></trkpt><trkpt lat="53.430105" lon="15.549931"></trkpt><trkpt lat="53.430436" lon="15.549864"></trkpt><trkpt lat="53.433983" lon="15.548365"></trkpt><trkpt lat="53.434159" lon="15.548151"></trkpt><trkpt lat="53.434366" lon="15.548013"></trkpt><trkpt lat="53.43481" lon="15.548064"></trkpt><trkpt lat="53.435546" lon="15.548354"></trkpt><trkpt lat="53.435839" lon="15.548523"></trkpt><trkpt lat="53.436042" lon="15.548607"></trkpt><trkpt lat="53.436159" lon="15.549157"></trkpt><trkpt lat="53.43607" lon="15.550107"></trkpt><trkpt lat="53.435982" lon="15.550522"></trkpt><trkpt lat="53.436348" lon="15.550903"></trkpt><trkpt lat="53.436678" lon="15.551193"></trkpt><trkpt lat="53.436932" lon="15.551565"></trkpt><trkpt lat="53.442353" lon="15.558431"></trkpt><trkpt lat="53.442671" lon="15.558385"></trkpt><trkpt lat="53.442993" lon="15.55825"></trkpt><trkpt lat="53.443386" lon="15.558262"></trkpt><trkpt lat="53.443599" lon="15.558297"></trkpt><trkpt lat="53.444532" lon="15.558622"></trkpt><trkpt lat="53.444926" lon="15.559007"></trkpt><trkpt lat="53.445068" lon="15.559325"></trkpt><trkpt lat="53.445211" lon="15.559745"></trkpt><trkpt lat="53.445497" lon="15.560342"></trkpt><trkpt lat="53.445773" lon="15.560586"></trkpt><trkpt lat="53.446033" lon="15.560724"></trkpt><trkpt lat="53.446452" lon="15.561013"></trkpt><trkpt lat="53.446689" lon="15.56114"></trkpt><trkpt lat="53.447015" lon="15.561058"></trkpt><trkpt lat="53.447396" lon="15.560847"></trkpt><trkpt lat="53.447642" lon="15.56055"></trkpt><trkpt lat="53.447863" lon="15.560716"></trkpt><trkpt lat="53.448107" lon="15.560433"></trkpt><trkpt lat="53.448234" lon="15.56011"></trkpt><trkpt lat="53.448484" lon="15.55986"></trkpt><trkpt lat="53.448512" lon="15.560341"></trkpt></trkseg></trk></gpx>