<?xml version="1.0" encoding="UTF-8" standalone="no" ?><gpx xmlns="http://www.topografix.com/GPX/1/1" xmlns:gpxx="http://www.garmin.com/xmlschemas/GpxExtensions/v3" ><trk><trkseg><trkpt lat="50.8108733967" lon="15.9422283713"></trkpt><trkpt lat="50.8111796714" lon="15.9423349053"></trkpt><trkpt lat="50.8114654943" lon="15.9425679222"></trkpt><trkpt lat="50.8125439938" lon="15.9432454314"></trkpt><trkpt lat="50.8128998056" lon="15.9432388097"></trkpt><trkpt lat="50.8133520093" lon="15.9434496146"></trkpt><trkpt lat="50.8137776423" lon="15.9434792027"></trkpt><trkpt lat="50.8140688296" lon="15.9431273304"></trkpt><trkpt lat="50.8143927902" lon="15.9429038689"></trkpt><trkpt lat="50.8146876656" lon="15.9428055491"></trkpt><trkpt lat="50.8155851159" lon="15.9426350612"></trkpt><trkpt lat="50.8160689194" lon="15.942628691"></trkpt><trkpt lat="50.8164021" lon="15.9427789785"></trkpt><trkpt lat="50.8167062793" lon="15.9428550024"></trkpt><trkpt lat="50.8175829425" lon="15.9429508913"></trkpt><trkpt lat="50.8181489725" lon="15.9431449324"></trkpt><trkpt lat="50.8185755275" lon="15.943193296"></trkpt><trkpt lat="50.8188780304" lon="15.9431095608"></trkpt><trkpt lat="50.8191509452" lon="15.9428757895"></trkpt><trkpt lat="50.8193946909" lon="15.9426018689"></trkpt><trkpt lat="50.819578087" lon="15.9420797601"></trkpt><trkpt lat="50.8198055718" lon="15.9417871479"></trkpt><trkpt lat="50.8200644888" lon="15.9415483475"></trkpt><trkpt lat="50.8203220647" lon="15.9414044302"></trkpt><trkpt lat="50.8205788024" lon="15.9411708266"></trkpt><trkpt lat="50.8211439103" lon="15.9407571796"></trkpt><trkpt lat="50.8217626624" lon="15.9404089954"></trkpt><trkpt lat="50.8220334817" lon="15.9403809998"></trkpt><trkpt lat="50.8229953889" lon="15.9400397725"></trkpt><trkpt lat="50.8231061976" lon="15.9395560529"></trkpt><trkpt lat="50.8232919406" lon="15.9389471076"></trkpt><trkpt lat="50.8235201798" lon="15.9385288507"></trkpt><trkpt lat="50.8237409592" lon="15.9382167924"></trkpt><trkpt lat="50.8239610679" lon="15.9379641619"></trkpt><trkpt lat="50.8242258523" lon="15.937832566"></trkpt><trkpt lat="50.8245179616" lon="15.9378469829"></trkpt><trkpt lat="50.8248565905" lon="15.9380473942"></trkpt><trkpt lat="50.8251119871" lon="15.9382610489"></trkpt><trkpt lat="50.8254635241" lon="15.9386348817"></trkpt><trkpt lat="50.8257328346" lon="15.9387226403"></trkpt><trkpt lat="50.8259464055" lon="15.9383571893"></trkpt><trkpt lat="50.8261253592" lon="15.9379875474"></trkpt><trkpt lat="50.8262848668" lon="15.9375874791"></trkpt><trkpt lat="50.8266775589" lon="15.9368182719"></trkpt><trkpt lat="50.8270423394" lon="15.9367632866"></trkpt><trkpt lat="50.8273515478" lon="15.9370905161"></trkpt><trkpt lat="50.8278967906" lon="15.9377884772"></trkpt><trkpt lat="50.8282167278" lon="15.9380276129"></trkpt><trkpt lat="50.8284489065" lon="15.9382553492"></trkpt><trkpt lat="50.8287394233" lon="15.9384431038"></trkpt><trkpt lat="50.8289653156" lon="15.9382020403"></trkpt><trkpt lat="50.8291808143" lon="15.9377665166"></trkpt><trkpt lat="50.8293535654" lon="15.9373035841"></trkpt><trkpt lat="50.829754388" lon="15.9366787132"></trkpt><trkpt lat="50.8299988881" lon="15.9364927188"></trkpt><trkpt lat="50.8301724773" lon="15.9359939955"></trkpt><trkpt lat="50.8304414526" lon="15.9357303008"></trkpt><trkpt lat="50.8307694364" lon="15.9355573822"></trkpt><trkpt lat="50.8337727562" lon="15.9344284236"></trkpt><trkpt lat="50.8339977264" lon="15.9349386301"></trkpt><trkpt lat="50.8340829704" lon="15.9354006406"></trkpt><trkpt lat="50.8342760894" lon="15.9357679356"></trkpt><trkpt lat="50.834701471" lon="15.9363788925"></trkpt><trkpt lat="50.8349577058" lon="15.9366052877"></trkpt><trkpt lat="50.8351849392" lon="15.9368863329"></trkpt><trkpt lat="50.8354221471" lon="15.9371082019"></trkpt><trkpt lat="50.8358729258" lon="15.9376239404"></trkpt><trkpt lat="50.8361525461" lon="15.9378264472"></trkpt><trkpt lat="50.8364192583" lon="15.9381824266"></trkpt><trkpt lat="50.8367378544" lon="15.9384210594"></trkpt><trkpt lat="50.8369904011" lon="15.9386654757"></trkpt><trkpt lat="50.8372168802" lon="15.93903956"></trkpt><trkpt lat="50.8373978455" lon="15.9394184221"></trkpt><trkpt lat="50.8375063073" lon="15.9398878925"></trkpt><trkpt lat="50.8377642184" lon="15.940208165"></trkpt><trkpt lat="50.8380026836" lon="15.9404238313"></trkpt><trkpt lat="50.8381662145" lon="15.9407700878"></trkpt><trkpt lat="50.8381001651" lon="15.9412513766"></trkpt><trkpt lat="50.838020537" lon="15.942470273"></trkpt><trkpt lat="50.8380385581" lon="15.9428995941"></trkpt><trkpt lat="50.8380276617" lon="15.9434574936"></trkpt><trkpt lat="50.8380927891" lon="15.9439444821"></trkpt><trkpt lat="50.8384145703" lon="15.9442209173"></trkpt><trkpt lat="50.838683378" lon="15.9441593103"></trkpt><trkpt lat="50.8390630782" lon="15.9440069273"></trkpt><trkpt lat="50.8397335466" lon="15.9436270595"></trkpt><trkpt lat="50.8404251374" lon="15.9433798771"></trkpt><trkpt lat="50.8407670353" lon="15.9434254747"></trkpt><trkpt lat="50.8410823625" lon="15.9432912804"></trkpt><trkpt lat="50.8413894754" lon="15.9432578366"></trkpt><trkpt lat="50.8417141903" lon="15.9431601036"></trkpt><trkpt lat="50.8421793859" lon="15.943129845"></trkpt><trkpt lat="50.842548525" lon="15.9430327825"></trkpt><trkpt lat="50.8431764133" lon="15.9432963096"></trkpt><trkpt lat="50.8436035551" lon="15.943390606"></trkpt><trkpt lat="50.8439371549" lon="15.9435745887"></trkpt><trkpt lat="50.8445549849" lon="15.9438057616"></trkpt><trkpt lat="50.8448923565" lon="15.9440889023"></trkpt><trkpt lat="50.8451879025" lon="15.9442049917"></trkpt><trkpt lat="50.8455054928" lon="15.9442213364"></trkpt><trkpt lat="50.84589215" lon="15.9443119448"></trkpt><trkpt lat="50.8478367515" lon="15.9441624116"></trkpt><trkpt lat="50.8481029607" lon="15.9442520142"></trkpt><trkpt lat="50.8483798988" lon="15.9442772437"></trkpt><trkpt lat="50.8487356268" lon="15.9440582246"></trkpt><trkpt lat="50.8490211144" lon="15.9439753275"></trkpt><trkpt lat="50.8513427339" lon="15.9436391294"></trkpt><trkpt lat="50.8525755443" lon="15.9436408058"></trkpt><trkpt lat="50.8528528176" lon="15.9435606748"></trkpt><trkpt lat="50.8539989591" lon="15.9430580959"></trkpt><trkpt lat="50.854253266" lon="15.9428264201"></trkpt><trkpt lat="50.8545470517" lon="15.9429347143"></trkpt><trkpt lat="50.8548705094" lon="15.9427048825"></trkpt><trkpt lat="50.85525834" lon="15.9428331256"></trkpt><trkpt lat="50.8557979669" lon="15.9429207165"></trkpt><trkpt lat="50.8564858697" lon="15.9426776413"></trkpt><trkpt lat="50.8567362372" lon="15.9425102547"></trkpt><trkpt lat="50.8570166118" lon="15.9424186405"></trkpt><trkpt lat="50.8586054016" lon="15.9421598073"></trkpt><trkpt lat="50.8589037135" lon="15.942315124"></trkpt><trkpt lat="50.8597394731" lon="15.9428845905"></trkpt><trkpt lat="50.8615474496" lon="15.9437826276"></trkpt><trkpt lat="50.861894628" lon="15.9437954519"></trkpt><trkpt lat="50.8621587418" lon="15.9439179953"></trkpt><trkpt lat="50.862452779" lon="15.9438500181"></trkpt><trkpt lat="50.8636043686" lon="15.943898214"></trkpt><trkpt lat="50.8639115654" lon="15.943631921"></trkpt><trkpt lat="50.8642175887" lon="15.9432962257"></trkpt><trkpt lat="50.8644747455" lon="15.9431357123"></trkpt><trkpt lat="50.8648471534" lon="15.9428295214"></trkpt><trkpt lat="50.8651454654" lon="15.9427410085"></trkpt><trkpt lat="50.8653615508" lon="15.9431016818"></trkpt><trkpt lat="50.8655210584" lon="15.9434538055"></trkpt><trkpt lat="50.8659020998" lon="15.9446103405"></trkpt><trkpt lat="50.8660787065" lon="15.9449776355"></trkpt><trkpt lat="50.8663474303" lon="15.945133958"></trkpt><trkpt lat="50.86681908" lon="15.9455046896"></trkpt><trkpt lat="50.8674961701" lon="15.9461885691"></trkpt><trkpt lat="50.8677234035" lon="15.9464818519"></trkpt><trkpt lat="50.8680803049" lon="15.94681344"></trkpt><trkpt lat="50.868410971" lon="15.9470586106"></trkpt><trkpt lat="50.8695317153" lon="15.9477009159"></trkpt><trkpt lat="50.8698374871" lon="15.9477098007"></trkpt><trkpt lat="50.8716310468" lon="15.9474036098"></trkpt><trkpt lat="50.8718965016" lon="15.947248796"></trkpt><trkpt lat="50.8721835818" lon="15.9469925612"></trkpt><trkpt lat="50.8724673931" lon="15.9466365818"></trkpt><trkpt lat="50.8726322651" lon="15.946291415"></trkpt><trkpt lat="50.8728295751" lon="15.9459503554"></trkpt><trkpt lat="50.8730604127" lon="15.9457251336"></trkpt><trkpt lat="50.8733443916" lon="15.9456228744"></trkpt><trkpt lat="50.8739716932" lon="15.9453032725"></trkpt><trkpt lat="50.8743268345" lon="15.9450529888"></trkpt><trkpt lat="50.8745699096" lon="15.9448287729"></trkpt><trkpt lat="50.8748688083" lon="15.9447586164"></trkpt><trkpt lat="50.8751957864" lon="15.9448832553"></trkpt><trkpt lat="50.8768947981" lon="15.9452764504"></trkpt><trkpt lat="50.8775391988" lon="15.9449861012"></trkpt><trkpt lat="50.8778373431" lon="15.9445774835"></trkpt><trkpt lat="50.8778551128" lon="15.9440667741"></trkpt><trkpt lat="50.8777028136" lon="15.9436859004"></trkpt><trkpt lat="50.8774487581" lon="15.9431787953"></trkpt><trkpt lat="50.8773452416" lon="15.9426637273"></trkpt><trkpt lat="50.8769219555" lon="15.9392110538"></trkpt><trkpt lat="50.8771658689" lon="15.9389195312"></trkpt><trkpt lat="50.877458062" lon="15.9389567468"></trkpt><trkpt lat="50.8777505066" lon="15.9390600119"></trkpt><trkpt lat="50.8774385322" lon="15.9389476944"></trkpt><trkpt lat="50.8770477679" lon="15.9391661268"></trkpt><trkpt lat="50.8770170901" lon="15.938708391"></trkpt><trkpt lat="50.8770179283" lon="15.9380991105"></trkpt><trkpt lat="50.8770882525" lon="15.9374505188"></trkpt><trkpt lat="50.8771747537" lon="15.9369702358"></trkpt><trkpt lat="50.8786878549" lon="15.9308690485"></trkpt><trkpt lat="50.8788854163" lon="15.9304036852"></trkpt><trkpt lat="50.8790899348" lon="15.9300325345"></trkpt><trkpt lat="50.8792629372" lon="15.9293313883"></trkpt><trkpt lat="50.8798075095" lon="15.9263296612"></trkpt><trkpt lat="50.8798756544" lon="15.9257575125"></trkpt><trkpt lat="50.8798120357" lon="15.9252595436"></trkpt><trkpt lat="50.8796583954" lon="15.924770711"></trkpt><trkpt lat="50.8787687402" lon="15.9207898099"></trkpt><trkpt lat="50.878820708" lon="15.9203146398"></trkpt><trkpt lat="50.8786455262" lon="15.9192230646"></trkpt></trkseg></trk></gpx>