<?xml version="1.0" encoding="UTF-8" standalone="no" ?><gpx xmlns="http://www.topografix.com/GPX/1/1" xmlns:gpxx="http://www.garmin.com/xmlschemas/GpxExtensions/v3" ><trk><trkseg><trkpt lat="52.4174649641" lon="16.9103583042"></trkpt><trkpt lat="52.4179671239" lon="16.9075719081"></trkpt><trkpt lat="52.422677502" lon="16.889371695"></trkpt><trkpt lat="52.4237797223" lon="16.887989603"></trkpt><trkpt lat="52.4248626642" lon="16.8869790807"></trkpt><trkpt lat="52.4264593329" lon="16.885881722"></trkpt><trkpt lat="52.4276717752" lon="16.8857434206"></trkpt><trkpt lat="52.44953488" lon="16.8783178926"></trkpt><trkpt lat="52.4516194593" lon="16.8759750668"></trkpt><trkpt lat="52.4929018412" lon="16.8380606174"></trkpt><trkpt lat="52.4950657133" lon="16.8366985582"></trkpt><trkpt lat="52.5078917015" lon="16.8307790067"></trkpt><trkpt lat="52.5101897679" lon="16.8305527791"></trkpt><trkpt lat="52.6048961375" lon="16.8206987623"></trkpt><trkpt lat="52.6605074666" lon="16.8361801375"></trkpt><trkpt lat="52.6623721048" lon="16.8397197314"></trkpt><trkpt lat="52.728940174" lon="16.9498477969"></trkpt><trkpt lat="52.7389873937" lon="16.9638143945"></trkpt><trkpt lat="52.7406853158" lon="16.9655693974"></trkpt><trkpt lat="52.7423497941" lon="16.9668917265"></trkpt><trkpt lat="52.7439071517" lon="16.9678008277"></trkpt><trkpt lat="52.7485995088" lon="16.9697342813"></trkpt><trkpt lat="52.7707431559" lon="16.9748137984"></trkpt><trkpt lat="52.7753014024" lon="16.9749648403"></trkpt><trkpt lat="52.7772113029" lon="16.9754466321"></trkpt><trkpt lat="52.7799736429" lon="16.9756297767"></trkpt><trkpt lat="52.8741745837" lon="16.9718765281"></trkpt><trkpt lat="52.8790801764" lon="16.9707260281"></trkpt><trkpt lat="52.9057187028" lon="16.9604783971"></trkpt><trkpt lat="52.9067215137" lon="16.9584945682"></trkpt><trkpt lat="52.910488341" lon="16.9522671495"></trkpt><trkpt lat="52.917214483" lon="16.9433353934"></trkpt><trkpt lat="52.9184732772" lon="16.9421309978"></trkpt><trkpt lat="52.9197232705" lon="16.9406767376"></trkpt><trkpt lat="52.9388865642" lon="16.9223307632"></trkpt><trkpt lat="52.9588606395" lon="16.9070075545"></trkpt><trkpt lat="52.9602041747" lon="16.9068313669"></trkpt><trkpt lat="52.9630475678" lon="16.9079843815"></trkpt><trkpt lat="52.9643201083" lon="16.9089158624"></trkpt><trkpt lat="52.9710202664" lon="16.9126819354"></trkpt><trkpt lat="52.971889805" lon="16.912785368"></trkpt><trkpt lat="53.0236296169" lon="16.8985993322"></trkpt><trkpt lat="53.0255537666" lon="16.896284502"></trkpt><trkpt lat="53.0302157812" lon="16.8888468202"></trkpt><trkpt lat="53.0315955263" lon="16.8853137642"></trkpt><trkpt lat="53.0527375359" lon="16.8427056167"></trkpt><trkpt lat="53.0542259105" lon="16.8426921219"></trkpt><trkpt lat="53.0591083691" lon="16.8415754009"></trkpt><trkpt lat="53.0601611361" lon="16.840460524"></trkpt><trkpt lat="53.0609650444" lon="16.8391215149"></trkpt><trkpt lat="53.0615921784" lon="16.8374133669"></trkpt><trkpt lat="53.0619556177" lon="16.8357197195"></trkpt><trkpt lat="53.0621503294" lon="16.8339818157"></trkpt><trkpt lat="53.0639037397" lon="16.8239220232"></trkpt><trkpt lat="53.0643498246" lon="16.8226079084"></trkpt><trkpt lat="53.0649973266" lon="16.8213258125"></trkpt><trkpt lat="53.0659498461" lon="16.82004028"></trkpt><trkpt lat="53.0674123205" lon="16.8185749557"></trkpt><trkpt lat="53.1046622526" lon="16.7889529746"></trkpt><trkpt lat="53.1049686112" lon="16.7890794575"></trkpt><trkpt lat="53.1155203376" lon="16.7915173341"></trkpt><trkpt lat="53.1175106205" lon="16.7915232014"></trkpt><trkpt lat="53.1191022601" lon="16.7919706274"></trkpt><trkpt lat="53.1225077435" lon="16.7923004553"></trkpt><trkpt lat="53.1236527953" lon="16.791789243"></trkpt><trkpt lat="53.125055423" lon="16.7907684948"></trkpt><trkpt lat="53.1262885686" lon="16.7893750034"></trkpt><trkpt lat="53.1276362948" lon="16.7872905079"></trkpt><trkpt lat="53.1402982492" lon="16.7638521083"></trkpt><trkpt lat="53.140668394" lon="16.7616231088"></trkpt><trkpt lat="53.142283503" lon="16.7469754815"></trkpt><trkpt lat="53.1425026897" lon="16.7472565267"></trkpt><trkpt lat="53.1424887758" lon="16.747711245"></trkpt><trkpt lat="53.1418695208" lon="16.7546983156"></trkpt><trkpt lat="53.141657291" lon="16.7556104343"></trkpt><trkpt lat="53.1417846959" lon="16.7545832321"></trkpt><trkpt lat="53.1418976001" lon="16.7516217381"></trkpt><trkpt lat="53.1414050795" lon="16.7527113855"></trkpt><trkpt lat="53.1407225411" lon="16.7533639167"></trkpt><trkpt lat="53.1398677547" lon="16.7538164556"></trkpt><trkpt lat="53.1335680839" lon="16.7560298648"></trkpt><trkpt lat="53.132662084" lon="16.7559693474"></trkpt><trkpt lat="53.1019593403" lon="16.7491069995"></trkpt><trkpt lat="53.1010430306" lon="16.7484508641"></trkpt><trkpt lat="53.0655825511" lon="16.729101995"></trkpt><trkpt lat="53.0627751164" lon="16.7269458342"></trkpt><trkpt lat="53.0612278171" lon="16.7254666798"></trkpt><trkpt lat="53.0530531146" lon="16.7151774745"></trkpt><trkpt lat="53.0528198462" lon="16.7133538239"></trkpt><trkpt lat="53.0530619156" lon="16.7119385395"></trkpt><trkpt lat="53.0532096885" lon="16.708915187"></trkpt><trkpt lat="53.0529332533" lon="16.7073170934"></trkpt><trkpt lat="53.0526030064" lon="16.7037975322"></trkpt><trkpt lat="53.0526194349" lon="16.7027268279"></trkpt><trkpt lat="53.0524773616" lon="16.7019458022"></trkpt><trkpt lat="53.0519464519" lon="16.7001910508"></trkpt><trkpt lat="53.0512431264" lon="16.6985018458"></trkpt><trkpt lat="53.0502677243" lon="16.6971756611"></trkpt><trkpt lat="53.0490828585" lon="16.6959896218"></trkpt><trkpt lat="53.041287018" lon="16.6859838087"></trkpt><trkpt lat="53.0408074055" lon="16.6846633237"></trkpt><trkpt lat="53.04042276" lon="16.6842495091"></trkpt><trkpt lat="53.0396374594" lon="16.6832197085"></trkpt><trkpt lat="53.0398795288" lon="16.6834268253"></trkpt><trkpt lat="53.0394974817" lon="16.6834083851"></trkpt><trkpt lat="53.0397850648" lon="16.6833055392"></trkpt><trkpt lat="53.0395213701" lon="16.6834421642"></trkpt><trkpt lat="53.039542241" lon="16.6840098705"></trkpt><trkpt lat="53.0397331808" lon="16.6836787015"></trkpt><trkpt lat="53.0415586755" lon="16.6878031846"></trkpt><trkpt lat="53.0417625234" lon="16.6886431351"></trkpt><trkpt lat="53.0419752561" lon="16.6892106738"></trkpt><trkpt lat="53.0425588042" lon="16.6901729163"></trkpt><trkpt lat="53.042922914" lon="16.6905386187"></trkpt><trkpt lat="53.0439125653" lon="16.691248063"></trkpt><trkpt lat="53.044231832" lon="16.6917968262"></trkpt><trkpt lat="53.0447147973" lon="16.6923044343"></trkpt><trkpt lat="53.0526989792" lon="16.7031864077"></trkpt><trkpt lat="53.0528004002" lon="16.7058780883"></trkpt><trkpt lat="53.0531003885" lon="16.7075737473"></trkpt><trkpt lat="53.0534214154" lon="16.710867919"></trkpt><trkpt lat="53.0531707965" lon="16.7127576191"></trkpt><trkpt lat="53.0531121232" lon="16.7143150605"></trkpt><trkpt lat="53.0533101875" lon="16.7157005891"></trkpt><trkpt lat="53.0537847709" lon="16.7170984391"></trkpt><trkpt lat="53.0542651378" lon="16.7182461731"></trkpt><trkpt lat="53.0548797827" lon="16.7192085832"></trkpt><trkpt lat="53.0555731338" lon="16.7200401518"></trkpt><trkpt lat="53.0564896949" lon="16.7214499041"></trkpt><trkpt lat="53.0575582199" lon="16.7226579878"></trkpt><trkpt lat="53.0594128836" lon="16.7243780382"></trkpt><trkpt lat="53.0664112698" lon="16.7294388637"></trkpt><trkpt lat="53.068033671" lon="16.7298051529"></trkpt><trkpt lat="53.0741754267" lon="16.7322312109"></trkpt><trkpt lat="53.0760903563" lon="16.7333595827"></trkpt><trkpt lat="53.1284295581" lon="16.7554344982"></trkpt><trkpt lat="53.1296085566" lon="16.7554794252"></trkpt><trkpt lat="53.139858786" lon="16.753547648"></trkpt><trkpt lat="53.1401840877" lon="16.753535578"></trkpt><trkpt lat="53.1411018223" lon="16.7528496869"></trkpt><trkpt lat="53.1416956801" lon="16.7518892884"></trkpt><trkpt lat="53.1420506537" lon="16.7507278919"></trkpt><trkpt lat="53.1422405876" lon="16.7492893059"></trkpt><trkpt lat="53.1422678288" lon="16.7478992511"></trkpt><trkpt lat="53.1423663162" lon="16.7469727993"></trkpt><trkpt lat="53.1423440203" lon="16.7461379617"></trkpt><trkpt lat="53.14242105" lon="16.7437857483"></trkpt><trkpt lat="53.1425809767" lon="16.7426033132"></trkpt><trkpt lat="53.142717937" lon="16.738812346"></trkpt><trkpt lat="53.1425277516" lon="16.7370543256"></trkpt><trkpt lat="53.1421317905" lon="16.7351433355"></trkpt><trkpt lat="53.1415325683" lon="16.7330284975"></trkpt><trkpt lat="53.1394216698" lon="16.7271905858"></trkpt><trkpt lat="53.1384328566" lon="16.7258574441"></trkpt><trkpt lat="53.1346717291" lon="16.7216353957"></trkpt><trkpt lat="53.1332096737" lon="16.7195510678"></trkpt><trkpt lat="53.1327236071" lon="16.718528308"></trkpt><trkpt lat="53.1322404742" lon="16.716752518"></trkpt><trkpt lat="53.1319993269" lon="16.7147789989"></trkpt><trkpt lat="53.1320473552" lon="16.7128295358"></trkpt><trkpt lat="53.1322231237" lon="16.7110048793"></trkpt><trkpt lat="53.132574074" lon="16.7093036044"></trkpt><trkpt lat="53.1329423748" lon="16.7080872227"></trkpt><trkpt lat="53.133535143" lon="16.7070047837"></trkpt><trkpt lat="53.1341058668" lon="16.7063951679"></trkpt><trkpt lat="53.1365143228" lon="16.7043818347"></trkpt><trkpt lat="53.1377384998" lon="16.7038003821"></trkpt><trkpt lat="53.1388791092" lon="16.7034802772"></trkpt><trkpt lat="53.1418102607" lon="16.7020701058"></trkpt><trkpt lat="53.1427657977" lon="16.7011366133"></trkpt><trkpt lat="53.143213978" lon="16.7005963996"></trkpt><trkpt lat="53.1438282877" lon="16.699177511"></trkpt><trkpt lat="53.1439797487" lon="16.6972037405"></trkpt><trkpt lat="53.144006487" lon="16.6956229135"></trkpt><trkpt lat="53.1439252663" lon="16.6936809942"></trkpt><trkpt lat="53.1445597764" lon="16.66203361"></trkpt><trkpt lat="53.1452077813" lon="16.6588457208"></trkpt><trkpt lat="53.1484252587" lon="16.6354221571"></trkpt><trkpt lat="53.1491989922" lon="16.6325281374"></trkpt><trkpt lat="53.1497486774" lon="16.6314941458"></trkpt><trkpt lat="53.1504530087" lon="16.6306982003"></trkpt><trkpt lat="53.1512383092" lon="16.6300763469"></trkpt><trkpt lat="53.1524050701" lon="16.6294196248"></trkpt><trkpt lat="53.1546924915" lon="16.6277347784"></trkpt><trkpt lat="53.1554321945" lon="16.6269609611"></trkpt><trkpt lat="53.1561941095" lon="16.625971226"></trkpt><trkpt lat="53.1612778176" lon="16.6205607913"></trkpt><trkpt lat="53.1628240272" lon="16.6199365072"></trkpt><trkpt lat="53.1639808137" lon="16.6192113049"></trkpt><trkpt lat="53.164578611" lon="16.618224252"></trkpt><trkpt lat="53.1651669368" lon="16.616873676"></trkpt><trkpt lat="53.1655135285" lon="16.6154262051"></trkpt><trkpt lat="53.16566105" lon="16.6137798317"></trkpt><trkpt lat="53.1669036672" lon="16.6064127255"></trkpt><trkpt lat="53.1675915699" lon="16.6041755956"></trkpt><trkpt lat="53.1713758316" lon="16.5943056531"></trkpt><trkpt lat="53.1722591165" lon="16.5929855034"></trkpt><trkpt lat="53.1729621906" lon="16.5915397089"></trkpt><trkpt lat="53.1736346707" lon="16.5897324868"></trkpt><trkpt lat="53.1755532883" lon="16.5856708679"></trkpt><trkpt lat="53.1764027942" lon="16.5848877467"></trkpt><trkpt lat="53.1772534736" lon="16.5843352117"></trkpt><trkpt lat="53.1790409144" lon="16.5826938674"></trkpt><trkpt lat="53.1797946151" lon="16.5814923216"></trkpt><trkpt lat="53.2218397502" lon="16.5270125493"></trkpt><trkpt lat="53.2223038562" lon="16.5268110484"></trkpt><trkpt lat="53.2317039091" lon="16.5212126914"></trkpt><trkpt lat="53.2332834788" lon="16.5197135881"></trkpt><trkpt lat="53.2373724226" lon="16.5168446302"></trkpt><trkpt lat="53.240626445" lon="16.5151617955"></trkpt><trkpt lat="53.2525295857" lon="16.5064566862"></trkpt><trkpt lat="53.2542613707" lon="16.5040521696"></trkpt><trkpt lat="53.2717173547" lon="16.4853141736"></trkpt><trkpt lat="53.2725008111" lon="16.4853972383"></trkpt><trkpt lat="53.2735377364" lon="16.4850392472"></trkpt><trkpt lat="53.2739301771" lon="16.4849696774"></trkpt><trkpt lat="53.2741577458" lon="16.4847051445"></trkpt><trkpt lat="53.2746290602" lon="16.4844005462"></trkpt><trkpt lat="53.2753455453" lon="16.4841566328"></trkpt><trkpt lat="53.2784145791" lon="16.482436331"></trkpt><trkpt lat="53.278698558" lon="16.4819944371"></trkpt><trkpt lat="53.2800051291" lon="16.4789004251"></trkpt><trkpt lat="53.2803955581" lon="16.4768248983"></trkpt><trkpt lat="53.2803722564" lon="16.4751691371"></trkpt><trkpt lat="53.2800847571" lon="16.4733089413"></trkpt><trkpt lat="53.2681880705" lon="16.4179728739"></trkpt><trkpt lat="53.2671720162" lon="16.4153000526"></trkpt><trkpt lat="53.2284037024" lon="16.3311352674"></trkpt><trkpt lat="53.2269905973" lon="16.3273000438"></trkpt><trkpt lat="53.2265857514" lon="16.3253623992"></trkpt><trkpt lat="53.2264024392" lon="16.3235731982"></trkpt><trkpt lat="53.2263767067" lon="16.3212967571"></trkpt><trkpt lat="53.2265484519" lon="16.3192353118"></trkpt><trkpt lat="53.226909712" lon="16.3174708374"></trkpt><trkpt lat="53.2278388459" lon="16.3101953454"></trkpt><trkpt lat="53.2278202381" lon="16.3076708"></trkpt><trkpt lat="53.2289719116" lon="16.2873738538"></trkpt><trkpt lat="53.228684999" lon="16.244186433"></trkpt><trkpt lat="53.2277404424" lon="16.2410614081"></trkpt><trkpt lat="53.2274032384" lon="16.2386144791"></trkpt><trkpt lat="53.2260334678" lon="16.2175274547"></trkpt><trkpt lat="53.2263327856" lon="16.2137588672"></trkpt><trkpt lat="53.226084765" lon="16.2089919951"></trkpt><trkpt lat="53.2255810965" lon="16.206659982"></trkpt><trkpt lat="53.2246486936" lon="16.2036714144"></trkpt><trkpt lat="53.2194108423" lon="16.1815048847"></trkpt><trkpt lat="53.2191769034" lon="16.1781131476"></trkpt><trkpt lat="53.2189741451" lon="16.1765630823"></trkpt><trkpt lat="53.2189802639" lon="16.1755799688"></trkpt><trkpt lat="53.218838023" lon="16.1728085764"></trkpt><trkpt lat="53.2188911643" lon="16.1595376767"></trkpt><trkpt lat="53.2195657399" lon="16.1550389417"></trkpt><trkpt lat="53.2203313429" lon="16.1456103064"></trkpt><trkpt lat="53.2250397932" lon="16.1117094476"></trkpt><trkpt lat="53.2256153785" lon="16.0997017007"></trkpt><trkpt lat="53.2255068328" lon="16.0964387935"></trkpt><trkpt lat="53.2262126729" lon="16.0657456052"></trkpt><trkpt lat="53.2265552413" lon="16.0627532657"></trkpt><trkpt lat="53.2271606661" lon="16.0600993037"></trkpt><trkpt lat="53.2283310313" lon="16.0561437998"></trkpt><trkpt lat="53.2318683621" lon="16.0480296146"></trkpt><trkpt lat="53.2341180649" lon="16.0447765142"></trkpt><trkpt lat="53.2396150846" lon="16.0340780206"></trkpt><trkpt lat="53.2401913404" lon="16.0311122518"></trkpt><trkpt lat="53.2404948492" lon="16.0278333351"></trkpt><trkpt lat="53.2426381018" lon="16.0152406991"></trkpt><trkpt lat="53.2436490431" lon="16.0123609286"></trkpt><trkpt lat="53.2524884306" lon="15.9801109694"></trkpt><trkpt lat="53.2529262174" lon="15.976918051"></trkpt><trkpt lat="53.2673793845" lon="15.9035574552"></trkpt><trkpt lat="53.2688587904" lon="15.9008708876"></trkpt><trkpt lat="53.2773297094" lon="15.8822296187"></trkpt><trkpt lat="53.2775476389" lon="15.8816404548"></trkpt><trkpt lat="53.2776612137" lon="15.8810639475"></trkpt><trkpt lat="53.2778165303" lon="15.8804612886"></trkpt><trkpt lat="53.2792019751" lon="15.8720250707"></trkpt><trkpt lat="53.2788790204" lon="15.8697518148"></trkpt><trkpt lat="53.2782751881" lon="15.8679023478"></trkpt><trkpt lat="53.277191408" lon="15.8654221427"></trkpt><trkpt lat="53.2746290602" lon="15.856812587"></trkpt><trkpt lat="53.2747951057" lon="15.8549746871"></trkpt><trkpt lat="53.2752779033" lon="15.8530092984"></trkpt><trkpt lat="53.2816610578" lon="15.8329998516"></trkpt><trkpt lat="53.2822151855" lon="15.8330627158"></trkpt><trkpt lat="53.288401952" lon="15.8308189642"></trkpt><trkpt lat="53.2892181817" lon="15.8275484294"></trkpt><trkpt lat="53.2904747128" lon="15.8236444741"></trkpt><trkpt lat="53.3058281802" lon="15.7626180165"></trkpt><trkpt lat="53.3056926448" lon="15.7609557174"></trkpt><trkpt lat="53.3054457977" lon="15.7594290376"></trkpt><trkpt lat="53.3045376185" lon="15.7563910168"></trkpt><trkpt lat="53.3036233205" lon="15.7545898296"></trkpt><trkpt lat="53.3027429692" lon="15.7525088545"></trkpt><trkpt lat="53.2926012855" lon="15.722461408"></trkpt><trkpt lat="53.2911534794" lon="15.7220588252"></trkpt><trkpt lat="53.2923174743" lon="15.7206529286"></trkpt><trkpt lat="53.291633008" lon="15.7169871032"></trkpt><trkpt lat="53.2900391892" lon="15.7028055098"></trkpt><trkpt lat="53.289865097" lon="15.6986402906"></trkpt><trkpt lat="53.2890621945" lon="15.6902527716"></trkpt><trkpt lat="53.2887883577" lon="15.6887428556"></trkpt><trkpt lat="53.2878335752" lon="15.6796106882"></trkpt><trkpt lat="53.2882420253" lon="15.6763026863"></trkpt><trkpt lat="53.2900422905" lon="15.6664670259"></trkpt><trkpt lat="53.291534856" lon="15.6541483104"></trkpt><trkpt lat="53.2913341094" lon="15.6521301158"></trkpt><trkpt lat="53.2892232109" lon="15.6389611401"></trkpt><trkpt lat="53.2879257761" lon="15.6248150859"></trkpt><trkpt lat="53.2860904746" lon="15.6133245863"></trkpt><trkpt lat="53.2853690442" lon="15.6101486832"></trkpt><trkpt lat="53.2836976089" lon="15.6054336112"></trkpt><trkpt lat="53.2821414247" lon="15.6028026156"></trkpt><trkpt lat="53.2797911391" lon="15.5976900738"></trkpt><trkpt lat="53.2784403116" lon="15.5936518405"></trkpt><trkpt lat="53.2724318281" lon="15.5712581612"></trkpt><trkpt lat="53.2719189394" lon="15.5681158695"></trkpt><trkpt lat="53.2708062418" lon="15.5520346016"></trkpt><trkpt lat="53.2716730982" lon="15.5505367555"></trkpt><trkpt lat="53.2728758175" lon="15.5492737703"></trkpt><trkpt lat="53.2741056103" lon="15.5485205725"></trkpt><trkpt lat="53.2758711744" lon="15.5481809378"></trkpt><trkpt lat="53.2779603638" lon="15.5474533048"></trkpt><trkpt lat="53.2790103648" lon="15.5465891305"></trkpt><trkpt lat="53.2798665762" lon="15.5453588348"></trkpt><trkpt lat="53.2805480249" lon="15.5434899218"></trkpt><trkpt lat="53.2811869774" lon="15.5408255663"></trkpt><trkpt lat="53.2900562044" lon="15.511956783"></trkpt><trkpt lat="53.2918240316" lon="15.5091294833"></trkpt><trkpt lat="53.3003537916" lon="15.4921908304"></trkpt><trkpt lat="53.3010086697" lon="15.4893585853"></trkpt><trkpt lat="53.3016943932" lon="15.4874076135"></trkpt><trkpt lat="53.3025437314" lon="15.4859524313"></trkpt><trkpt lat="53.3031001221" lon="15.4852486867"></trkpt><trkpt lat="53.3046620898" lon="15.4837086797"></trkpt><trkpt lat="53.3086419851" lon="15.480564544"></trkpt><trkpt lat="53.3099470474" lon="15.4801967461"></trkpt><trkpt lat="53.3140145335" lon="15.4778504837"></trkpt><trkpt lat="53.3154863957" lon="15.4753429536"></trkpt><trkpt lat="53.3164907992" lon="15.4731676821"></trkpt><trkpt lat="53.3168517239" lon="15.4714415967"></trkpt><trkpt lat="53.3169669751" lon="15.4693209752"></trkpt><trkpt lat="53.3168025222" lon="15.4667634889"></trkpt><trkpt lat="53.3121763822" lon="15.4353376385"></trkpt><trkpt lat="53.31146501" lon="15.4333933722"></trkpt><trkpt lat="53.3104969002" lon="15.4312082939"></trkpt><trkpt lat="53.3099535853" lon="15.428994298"></trkpt><trkpt lat="53.3096995298" lon="15.4271656182"></trkpt><trkpt lat="53.3085119817" lon="15.4121627659"></trkpt><trkpt lat="53.308504438" lon="15.4073345382"></trkpt><trkpt lat="53.3076054789" lon="15.4011359531"></trkpt><trkpt lat="53.3053278644" lon="15.3749523126"></trkpt><trkpt lat="53.3056223206" lon="15.3724317905"></trkpt><trkpt lat="53.3100301959" lon="15.3471415769"></trkpt><trkpt lat="53.310641991" lon="15.3451429959"></trkpt><trkpt lat="53.3182344865" lon="15.3136723023"></trkpt><trkpt lat="53.3188690804" lon="15.3098971769"></trkpt><trkpt lat="53.3463639859" lon="15.1571213175"></trkpt><trkpt lat="53.3465181291" lon="15.156516647"></trkpt><trkpt lat="53.3522021491" lon="15.1269597933"></trkpt><trkpt lat="53.3515344467" lon="15.1249076519"></trkpt><trkpt lat="53.3507198934" lon="15.1229778863"></trkpt><trkpt lat="53.3252150193" lon="15.0495967548"></trkpt><trkpt lat="53.3257020917" lon="15.0471089222"></trkpt><trkpt lat="53.3262319118" lon="15.0452462118"></trkpt><trkpt lat="53.326873295" lon="15.043558348"></trkpt><trkpt lat="53.3274321165" lon="15.0423867255"></trkpt><trkpt lat="53.3280848153" lon="15.041248966"></trkpt><trkpt lat="53.3284182474" lon="15.0407684315"></trkpt><trkpt lat="53.3307154756" lon="15.0381980371"></trkpt><trkpt lat="53.3399513271" lon="15.0311040133"></trkpt></trkseg></trk></gpx>