<?xml version="1.0" encoding="UTF-8" standalone="no" ?><gpx xmlns="http://www.topografix.com/GPX/1/1" xmlns:gpxx="http://www.garmin.com/xmlschemas/GpxExtensions/v3" ><trk><trkseg><trkpt lat="54.33503" lon="18.934202"></trkpt><trkpt lat="54.335336" lon="18.934323"></trkpt><trkpt lat="54.335626" lon="18.934389"></trkpt><trkpt lat="54.337184" lon="18.935004"></trkpt><trkpt lat="54.337223" lon="18.935511"></trkpt><trkpt lat="54.337161" lon="18.936065"></trkpt><trkpt lat="54.337127" lon="18.937036"></trkpt><trkpt lat="54.337213" lon="18.937589"></trkpt><trkpt lat="54.337502" lon="18.937848"></trkpt><trkpt lat="54.337874" lon="18.937978"></trkpt><trkpt lat="54.338192" lon="18.938028"></trkpt><trkpt lat="54.338689" lon="18.938192"></trkpt><trkpt lat="54.34213" lon="18.938793"></trkpt><trkpt lat="54.34303" lon="18.939099"></trkpt><trkpt lat="54.345083" lon="18.940209"></trkpt><trkpt lat="54.345332" lon="18.940456"></trkpt><trkpt lat="54.345607" lon="18.940601"></trkpt><trkpt lat="54.346285" lon="18.940843"></trkpt><trkpt lat="54.35518" lon="18.944497"></trkpt><trkpt lat="54.355449" lon="18.944662"></trkpt><trkpt lat="54.355745" lon="18.944777"></trkpt><trkpt lat="54.356064" lon="18.944966"></trkpt><trkpt lat="54.36232" lon="18.947566"></trkpt><trkpt lat="54.36236" lon="18.947092"></trkpt><trkpt lat="54.362424" lon="18.946629"></trkpt><trkpt lat="54.362543" lon="18.946147"></trkpt><trkpt lat="54.36267" lon="18.945738"></trkpt><trkpt lat="54.362824" lon="18.945345"></trkpt><trkpt lat="54.363035" lon="18.944923"></trkpt><trkpt lat="54.363274" lon="18.944348"></trkpt><trkpt lat="54.363143" lon="18.943909"></trkpt><trkpt lat="54.362896" lon="18.94366"></trkpt><trkpt lat="54.362681" lon="18.94337"></trkpt><trkpt lat="54.362394" lon="18.943177"></trkpt><trkpt lat="54.362057" lon="18.943477"></trkpt><trkpt lat="54.361833" lon="18.943748"></trkpt><trkpt lat="54.361566" lon="18.943941"></trkpt><trkpt lat="54.361349" lon="18.944289"></trkpt><trkpt lat="54.360985" lon="18.945074"></trkpt><trkpt lat="54.360886" lon="18.945523"></trkpt><trkpt lat="54.360726" lon="18.946088"></trkpt><trkpt lat="54.360688" lon="18.946558"></trkpt><trkpt lat="54.360449" lon="18.946908"></trkpt><trkpt lat="54.360277" lon="18.947271"></trkpt><trkpt lat="54.360001" lon="18.947229"></trkpt><trkpt lat="54.359721" lon="18.947094"></trkpt><trkpt lat="54.351187" lon="18.942109"></trkpt><trkpt lat="54.350753" lon="18.941928"></trkpt><trkpt lat="54.345108" lon="18.938645"></trkpt><trkpt lat="54.34512" lon="18.937991"></trkpt><trkpt lat="54.34504" lon="18.936711"></trkpt><trkpt lat="54.344722" lon="18.936608"></trkpt><trkpt lat="54.344356" lon="18.936554"></trkpt><trkpt lat="54.343668" lon="18.936347"></trkpt><trkpt lat="54.34329" lon="18.936559"></trkpt><trkpt lat="54.343011" lon="18.936768"></trkpt><trkpt lat="54.342729" lon="18.936767"></trkpt><trkpt lat="54.342216" lon="18.936668"></trkpt><trkpt lat="54.339807" lon="18.936609"></trkpt><trkpt lat="54.339415" lon="18.936682"></trkpt><trkpt lat="54.337215" lon="18.936682"></trkpt><trkpt lat="54.337112" lon="18.936044"></trkpt><trkpt lat="54.337183" lon="18.935539"></trkpt><trkpt lat="54.337169" lon="18.935034"></trkpt><trkpt lat="54.336805" lon="18.934787"></trkpt><trkpt lat="54.334887" lon="18.93422"></trkpt></trkseg></trk></gpx>