<?xml version="1.0" encoding="UTF-8" standalone="no" ?><gpx xmlns="http://www.topografix.com/GPX/1/1" xmlns:gpxx="http://www.garmin.com/xmlschemas/GpxExtensions/v3" ><trk><trkseg><trkpt lat="49.5927050058" lon="17.2789469641"></trkpt><trkpt lat="49.5926441532" lon="17.2777949553"></trkpt><trkpt lat="49.5928941853" lon="17.2774937097"></trkpt><trkpt lat="49.5931424573" lon="17.2770395782"></trkpt><trkpt lat="49.5932107698" lon="17.2765413579"></trkpt><trkpt lat="49.5932229236" lon="17.2761236038"></trkpt><trkpt lat="49.5933298767" lon="17.2756845597"></trkpt><trkpt lat="49.5933789108" lon="17.2749760374"></trkpt><trkpt lat="49.5934979338" lon="17.2744850256"></trkpt><trkpt lat="49.5937464572" lon="17.2737587336"></trkpt><trkpt lat="49.5938421786" lon="17.2733213659"></trkpt><trkpt lat="49.593996238" lon="17.2729233932"></trkpt><trkpt lat="49.5941169374" lon="17.2724406794"></trkpt><trkpt lat="49.5945738349" lon="17.271047188"></trkpt><trkpt lat="49.5947895013" lon="17.2701903898"></trkpt><trkpt lat="49.5948534552" lon="17.269784119"></trkpt><trkpt lat="49.595017489" lon="17.2692594118"></trkpt><trkpt lat="49.59513098" lon="17.2686763667"></trkpt><trkpt lat="49.59523567" lon="17.2682737838"></trkpt><trkpt lat="49.5953914057" lon="17.2678291239"></trkpt><trkpt lat="49.5966653712" lon="17.2632664349"></trkpt><trkpt lat="49.5970713906" lon="17.2612334881"></trkpt><trkpt lat="49.5973372646" lon="17.2611142974"></trkpt><trkpt lat="49.5976614766" lon="17.2611937579"></trkpt><trkpt lat="49.5979435276" lon="17.2615533415"></trkpt><trkpt lat="49.5976850297" lon="17.2616827581"></trkpt><trkpt lat="49.59757003" lon="17.2612536885"></trkpt><trkpt lat="49.5971669443" lon="17.2611383535"></trkpt><trkpt lat="49.5971103664" lon="17.2607293166"></trkpt><trkpt lat="49.5970078558" lon="17.2602246422"></trkpt><trkpt lat="49.5968392957" lon="17.2597502265"></trkpt><trkpt lat="49.5967502799" lon="17.259259969"></trkpt><trkpt lat="49.5966449194" lon="17.2588318214"></trkpt><trkpt lat="49.5963966474" lon="17.2580486163"></trkpt><trkpt lat="49.5961503871" lon="17.2569732182"></trkpt><trkpt lat="49.5953478198" lon="17.2542992234"></trkpt><trkpt lat="49.5950364321" lon="17.2539167572"></trkpt><trkpt lat="49.5948162396" lon="17.2535272501"></trkpt><trkpt lat="49.5945524611" lon="17.2532922216"></trkpt><trkpt lat="49.5942448452" lon="17.2528712824"></trkpt><trkpt lat="49.5939741936" lon="17.2526582982"></trkpt><trkpt lat="49.5937387459" lon="17.2521658614"></trkpt><trkpt lat="49.5935273543" lon="17.2518761829"></trkpt><trkpt lat="49.5934041403" lon="17.2515046131"></trkpt><trkpt lat="49.5934894681" lon="17.2509954125"></trkpt><trkpt lat="49.5936102513" lon="17.2506021336"></trkpt><trkpt lat="49.5935197268" lon="17.2501297295"></trkpt><trkpt lat="49.5937144384" lon="17.2505779937"></trkpt><trkpt lat="49.5937977545" lon="17.2512176167"></trkpt><trkpt lat="49.5940349624" lon="17.2506778222"></trkpt><trkpt lat="49.5943109784" lon="17.2505102679"></trkpt><trkpt lat="49.5942611061" lon="17.2509602085"></trkpt><trkpt lat="49.5943021774" lon="17.2514461912"></trkpt><trkpt lat="49.5941526443" lon="17.2517967224"></trkpt><trkpt lat="49.5938959904" lon="17.2520939447"></trkpt><trkpt lat="49.5935997739" lon="17.2519045975"></trkpt><trkpt lat="49.5932936668" lon="17.2518217005"></trkpt><trkpt lat="49.5928635076" lon="17.2519991454"></trkpt><trkpt lat="49.5925293211" lon="17.2521889955"></trkpt><trkpt lat="49.5923287421" lon="17.2525285464"></trkpt><trkpt lat="49.592056917" lon="17.2528122738"></trkpt><trkpt lat="49.5915073156" lon="17.253242014"></trkpt><trkpt lat="49.5904864836" lon="17.2542253789"></trkpt><trkpt lat="49.5902591664" lon="17.2544949409"></trkpt><trkpt lat="49.5898905303" lon="17.2544598207"></trkpt><trkpt lat="49.5891406853" lon="17.2547292989"></trkpt><trkpt lat="49.5888943411" lon="17.2552624717"></trkpt><trkpt lat="49.5888320636" lon="17.2558711655"></trkpt><trkpt lat="49.5888149645" lon="17.2564014047"></trkpt><trkpt lat="49.588857796" lon="17.2568559553"></trkpt><trkpt lat="49.5890526753" lon="17.2580356244"></trkpt><trkpt lat="49.5911782421" lon="17.2717674449"></trkpt><trkpt lat="49.591334397" lon="17.2724789847"></trkpt><trkpt lat="49.5914608799" lon="17.272873437"></trkpt><trkpt lat="49.5928005595" lon="17.2783539444"></trkpt></trkseg></trk></gpx>