<?xml version="1.0" encoding="UTF-8" standalone="no" ?><gpx xmlns="http://www.topografix.com/GPX/1/1" xmlns:gpxx="http://www.garmin.com/xmlschemas/GpxExtensions/v3" ><trk><trkseg><trkpt lat="53.634241" lon="15.617404"></trkpt><trkpt lat="53.633891" lon="15.616989"></trkpt><trkpt lat="53.633591" lon="15.616699"></trkpt><trkpt lat="53.633767" lon="15.61572"></trkpt><trkpt lat="53.633812" lon="15.615238"></trkpt><trkpt lat="53.634669" lon="15.611794"></trkpt><trkpt lat="53.63505" lon="15.611937"></trkpt><trkpt lat="53.635392" lon="15.612307"></trkpt><trkpt lat="53.635598" lon="15.612595"></trkpt><trkpt lat="53.635983" lon="15.61285"></trkpt><trkpt lat="53.638237" lon="15.614012"></trkpt><trkpt lat="53.638048" lon="15.613383"></trkpt><trkpt lat="53.637805" lon="15.612399"></trkpt><trkpt lat="53.637309" lon="15.609842"></trkpt><trkpt lat="53.637234" lon="15.609212"></trkpt><trkpt lat="53.636166" lon="15.602656"></trkpt><trkpt lat="53.63604" lon="15.602079"></trkpt><trkpt lat="53.635941" lon="15.601464"></trkpt><trkpt lat="53.635501" lon="15.599357"></trkpt><trkpt lat="53.633451" lon="15.591574"></trkpt><trkpt lat="53.633177" lon="15.59084"></trkpt><trkpt lat="53.63287" lon="15.590137"></trkpt><trkpt lat="53.632212" lon="15.588322"></trkpt><trkpt lat="53.632152" lon="15.587397"></trkpt><trkpt lat="53.632095" lon="15.583773"></trkpt><trkpt lat="53.63201" lon="15.583214"></trkpt><trkpt lat="53.631864" lon="15.582855"></trkpt><trkpt lat="53.631663" lon="15.582559"></trkpt><trkpt lat="53.630784" lon="15.581539"></trkpt><trkpt lat="53.628605" lon="15.579374"></trkpt><trkpt lat="53.627774" lon="15.578272"></trkpt><trkpt lat="53.62766" lon="15.577965"></trkpt><trkpt lat="53.627501" lon="15.577224"></trkpt><trkpt lat="53.626865" lon="15.573401"></trkpt><trkpt lat="53.626685" lon="15.572563"></trkpt><trkpt lat="53.626258" lon="15.571569"></trkpt><trkpt lat="53.625743" lon="15.570922"></trkpt><trkpt lat="53.624492" lon="15.569067"></trkpt><trkpt lat="53.624074" lon="15.568294"></trkpt><trkpt lat="53.622396" lon="15.565626"></trkpt><trkpt lat="53.622221" lon="15.565438"></trkpt><trkpt lat="53.621554" lon="15.564545"></trkpt><trkpt lat="53.621449" lon="15.563909"></trkpt><trkpt lat="53.621437" lon="15.563561"></trkpt><trkpt lat="53.62138" lon="15.563066"></trkpt><trkpt lat="53.621271" lon="15.562583"></trkpt><trkpt lat="53.621098" lon="15.562266"></trkpt><trkpt lat="53.620613" lon="15.561651"></trkpt><trkpt lat="53.618013" lon="15.557569"></trkpt><trkpt lat="53.617845" lon="15.556774"></trkpt><trkpt lat="53.617792" lon="15.556129"></trkpt><trkpt lat="53.617789" lon="15.555733"></trkpt><trkpt lat="53.618007" lon="15.55287"></trkpt><trkpt lat="53.618369" lon="15.552329"></trkpt><trkpt lat="53.618618" lon="15.551867"></trkpt><trkpt lat="53.61867" lon="15.551502"></trkpt><trkpt lat="53.618728" lon="15.550854"></trkpt><trkpt lat="53.61871" lon="15.550288"></trkpt><trkpt lat="53.618603" lon="15.549752"></trkpt><trkpt lat="53.617551" lon="15.542638"></trkpt><trkpt lat="53.617485" lon="15.541853"></trkpt><trkpt lat="53.617011" lon="15.538321"></trkpt><trkpt lat="53.616783" lon="15.537716"></trkpt><trkpt lat="53.615897" lon="15.534925"></trkpt><trkpt lat="53.616264" lon="15.53466"></trkpt><trkpt lat="53.623304" lon="15.530538"></trkpt><trkpt lat="53.623717" lon="15.530359"></trkpt><trkpt lat="53.629786" lon="15.528997"></trkpt><trkpt lat="53.629956" lon="15.529587"></trkpt><trkpt lat="53.633291" lon="15.539328"></trkpt><trkpt lat="53.633553" lon="15.539822"></trkpt><trkpt lat="53.633751" lon="15.540133"></trkpt><trkpt lat="53.633993" lon="15.540373"></trkpt><trkpt lat="53.635211" lon="15.541071"></trkpt><trkpt lat="53.635497" lon="15.540485"></trkpt><trkpt lat="53.635636" lon="15.540243"></trkpt><trkpt lat="53.636165" lon="15.539755"></trkpt><trkpt lat="53.636561" lon="15.539631"></trkpt><trkpt lat="53.637208" lon="15.539217"></trkpt><trkpt lat="53.637986" lon="15.538972"></trkpt><trkpt lat="53.638384" lon="15.539006"></trkpt><trkpt lat="53.63881" lon="15.538768"></trkpt><trkpt lat="53.639017" lon="15.538492"></trkpt><trkpt lat="53.639171" lon="15.538217"></trkpt><trkpt lat="53.63936" lon="15.537677"></trkpt><trkpt lat="53.639445" lon="15.537213"></trkpt><trkpt lat="53.639362" lon="15.536774"></trkpt><trkpt lat="53.6392" lon="15.536197"></trkpt><trkpt lat="53.6391" lon="15.535535"></trkpt><trkpt lat="53.639093" lon="15.534948"></trkpt><trkpt lat="53.639175" lon="15.534082"></trkpt><trkpt lat="53.639272" lon="15.533433"></trkpt><trkpt lat="53.639377" lon="15.532928"></trkpt><trkpt lat="53.643115" lon="15.520074"></trkpt><trkpt lat="53.643309" lon="15.520002"></trkpt><trkpt lat="53.643367" lon="15.519072"></trkpt><trkpt lat="53.643342" lon="15.518367"></trkpt><trkpt lat="53.643398" lon="15.51731"></trkpt><trkpt lat="53.643487" lon="15.516835"></trkpt><trkpt lat="53.643594" lon="15.516506"></trkpt><trkpt lat="53.643115" lon="15.515866"></trkpt><trkpt lat="53.642558" lon="15.51566"></trkpt><trkpt lat="53.636841" lon="15.512595"></trkpt><trkpt lat="53.635854" lon="15.511743"></trkpt><trkpt lat="53.62849" lon="15.504238"></trkpt><trkpt lat="53.628129" lon="15.503612"></trkpt><trkpt lat="53.624046" lon="15.49524"></trkpt><trkpt lat="53.623687" lon="15.494127"></trkpt><trkpt lat="53.623038" lon="15.492412"></trkpt><trkpt lat="53.622782" lon="15.4922"></trkpt><trkpt lat="53.622578" lon="15.49191"></trkpt><trkpt lat="53.622075" lon="15.490437"></trkpt><trkpt lat="53.621657" lon="15.489569"></trkpt><trkpt lat="53.617574" lon="15.482948"></trkpt><trkpt lat="53.616781" lon="15.482718"></trkpt><trkpt lat="53.616285" lon="15.482373"></trkpt><trkpt lat="53.61617" lon="15.481927"></trkpt><trkpt lat="53.616294" lon="15.481652"></trkpt><trkpt lat="53.616487" lon="15.48157"></trkpt><trkpt lat="53.616973" lon="15.480997"></trkpt><trkpt lat="53.641095" lon="15.451983"></trkpt><trkpt lat="53.644219" lon="15.447615"></trkpt><trkpt lat="53.644362" lon="15.447289"></trkpt><trkpt lat="53.644504" lon="15.446734"></trkpt><trkpt lat="53.644643" lon="15.445765"></trkpt><trkpt lat="53.644673" lon="15.444544"></trkpt><trkpt lat="53.644396" lon="15.433592"></trkpt><trkpt lat="53.643859" lon="15.432272"></trkpt><trkpt lat="53.634798" lon="15.406199"></trkpt><trkpt lat="53.635101" lon="15.405705"></trkpt><trkpt lat="53.635517" lon="15.405318"></trkpt><trkpt lat="53.636435" lon="15.404624"></trkpt><trkpt lat="53.637691" lon="15.403413"></trkpt><trkpt lat="53.637993" lon="15.402992"></trkpt><trkpt lat="53.638073" lon="15.402647"></trkpt><trkpt lat="53.637998" lon="15.40164"></trkpt><trkpt lat="53.637811" lon="15.400481"></trkpt><trkpt lat="53.636762" lon="15.390798"></trkpt><trkpt lat="53.63676" lon="15.389574"></trkpt><trkpt lat="53.636934" lon="15.386022"></trkpt><trkpt lat="53.637026" lon="15.385099"></trkpt><trkpt lat="53.637277" lon="15.383543"></trkpt><trkpt lat="53.637503" lon="15.381388"></trkpt><trkpt lat="53.63751" lon="15.380332"></trkpt><trkpt lat="53.637448" lon="15.37886"></trkpt><trkpt lat="53.637257" lon="15.377686"></trkpt><trkpt lat="53.63672" lon="15.375772"></trkpt><trkpt lat="53.636503" lon="15.375683"></trkpt><trkpt lat="53.6347" lon="15.374701"></trkpt><trkpt lat="53.63465" lon="15.374365"></trkpt><trkpt lat="53.63479" lon="15.373225"></trkpt><trkpt lat="53.635607" lon="15.362797"></trkpt><trkpt lat="53.635077" lon="15.361548"></trkpt><trkpt lat="53.633549" lon="15.359496"></trkpt><trkpt lat="53.633075" lon="15.359873"></trkpt><trkpt lat="53.632633" lon="15.360141"></trkpt><trkpt lat="53.632421" lon="15.360043"></trkpt><trkpt lat="53.631985" lon="15.360331"></trkpt><trkpt lat="53.631756" lon="15.359693"></trkpt><trkpt lat="53.631438" lon="15.358946"></trkpt><trkpt lat="53.630907" lon="15.357899"></trkpt><trkpt lat="53.630432" lon="15.35757"></trkpt><trkpt lat="53.629951" lon="15.357371"></trkpt><trkpt lat="53.627684" lon="15.355964"></trkpt><trkpt lat="53.627075" lon="15.355242"></trkpt><trkpt lat="53.621177" lon="15.347121"></trkpt><trkpt lat="53.620789" lon="15.346238"></trkpt><trkpt lat="53.612328" lon="15.329585"></trkpt><trkpt lat="53.611774" lon="15.329308"></trkpt><trkpt lat="53.611196" lon="15.329439"></trkpt><trkpt lat="53.609661" lon="15.3294"></trkpt><trkpt lat="53.608855" lon="15.329536"></trkpt><trkpt lat="53.60853" lon="15.329655"></trkpt><trkpt lat="53.596121" lon="15.33242"></trkpt><trkpt lat="53.594884" lon="15.331975"></trkpt><trkpt lat="53.594475" lon="15.331426"></trkpt><trkpt lat="53.590626" lon="15.327198"></trkpt><trkpt lat="53.590136" lon="15.326934"></trkpt><trkpt lat="53.586036" lon="15.32414"></trkpt><trkpt lat="53.585425" lon="15.323621"></trkpt><trkpt lat="53.584655" lon="15.322745"></trkpt><trkpt lat="53.584069" lon="15.321695"></trkpt><trkpt lat="53.583715" lon="15.32072"></trkpt><trkpt lat="53.582481" lon="15.315435"></trkpt><trkpt lat="53.582622" lon="15.315106"></trkpt><trkpt lat="53.582758" lon="15.314857"></trkpt><trkpt lat="53.582927" lon="15.31466"></trkpt><trkpt lat="53.583719" lon="15.314124"></trkpt><trkpt lat="53.584424" lon="15.313439"></trkpt><trkpt lat="53.584664" lon="15.313137"></trkpt><trkpt lat="53.585132" lon="15.312135"></trkpt><trkpt lat="53.586374" lon="15.309851"></trkpt><trkpt lat="53.586829" lon="15.310377"></trkpt><trkpt lat="53.587206" lon="15.310712"></trkpt><trkpt lat="53.587426" lon="15.310475"></trkpt><trkpt lat="53.587479" lon="15.310103"></trkpt><trkpt lat="53.587537" lon="15.30943"></trkpt><trkpt lat="53.587793" lon="15.309229"></trkpt><trkpt lat="53.587566" lon="15.308781"></trkpt><trkpt lat="53.587138" lon="15.30821"></trkpt><trkpt lat="53.585827" lon="15.305963"></trkpt><trkpt lat="53.586093" lon="15.305276"></trkpt><trkpt lat="53.586879" lon="15.302836"></trkpt><trkpt lat="53.587026" lon="15.302013"></trkpt><trkpt lat="53.587288" lon="15.299635"></trkpt><trkpt lat="53.587292" lon="15.298738"></trkpt><trkpt lat="53.587376" lon="15.297102"></trkpt><trkpt lat="53.587387" lon="15.294995"></trkpt><trkpt lat="53.587251" lon="15.294268"></trkpt><trkpt lat="53.587162" lon="15.293151"></trkpt><trkpt lat="53.586967" lon="15.292004"></trkpt><trkpt lat="53.585262" lon="15.284401"></trkpt><trkpt lat="53.58504" lon="15.284096"></trkpt><trkpt lat="53.583153" lon="15.281012"></trkpt><trkpt lat="53.582983" lon="15.280691"></trkpt><trkpt lat="53.580929" lon="15.277632"></trkpt><trkpt lat="53.580258" lon="15.277089"></trkpt><trkpt lat="53.579702" lon="15.276394"></trkpt><trkpt lat="53.579271" lon="15.275739"></trkpt><trkpt lat="53.576737" lon="15.27123"></trkpt><trkpt lat="53.576465" lon="15.270182"></trkpt><trkpt lat="53.576277" lon="15.269112"></trkpt><trkpt lat="53.576197" lon="15.268491"></trkpt><trkpt lat="53.575816" lon="15.262462"></trkpt><trkpt lat="53.575863" lon="15.261287"></trkpt><trkpt lat="53.575845" lon="15.251314"></trkpt><trkpt lat="53.575614" lon="15.250221"></trkpt><trkpt lat="53.5755" lon="15.24927"></trkpt><trkpt lat="53.567857" lon="15.203702"></trkpt><trkpt lat="53.567591" lon="15.202979"></trkpt><trkpt lat="53.565282" lon="15.197882"></trkpt><trkpt lat="53.565127" lon="15.197644"></trkpt><trkpt lat="53.565073" lon="15.197281"></trkpt><trkpt lat="53.565059" lon="15.196043"></trkpt><trkpt lat="53.564327" lon="15.182769"></trkpt><trkpt lat="53.564322" lon="15.182333"></trkpt><trkpt lat="53.564527" lon="15.181821"></trkpt><trkpt lat="53.564838" lon="15.181436"></trkpt><trkpt lat="53.569882" lon="15.173947"></trkpt><trkpt lat="53.570037" lon="15.172773"></trkpt><trkpt lat="53.57034" lon="15.17131"></trkpt><trkpt lat="53.570562" lon="15.170868"></trkpt><trkpt lat="53.572182" lon="15.166466"></trkpt><trkpt lat="53.572255" lon="15.165274"></trkpt><trkpt lat="53.572372" lon="15.1642"></trkpt><trkpt lat="53.57259" lon="15.16349"></trkpt><trkpt lat="53.572874" lon="15.16286"></trkpt><trkpt lat="53.573245" lon="15.161882"></trkpt><trkpt lat="53.573315" lon="15.161066"></trkpt><trkpt lat="53.573336" lon="15.160289"></trkpt><trkpt lat="53.573317" lon="15.159613"></trkpt><trkpt lat="53.573445" lon="15.150443"></trkpt><trkpt lat="53.573592" lon="15.149325"></trkpt><trkpt lat="53.574159" lon="15.146942"></trkpt><trkpt lat="53.574505" lon="15.146113"></trkpt><trkpt lat="53.576779" lon="15.139505"></trkpt><trkpt lat="53.576924" lon="15.138814"></trkpt><trkpt lat="53.577021" lon="15.138122"></trkpt><trkpt lat="53.577211" lon="15.137336"></trkpt><trkpt lat="53.577346" lon="15.136574"></trkpt><trkpt lat="53.57712" lon="15.136252"></trkpt><trkpt lat="53.576832" lon="15.136119"></trkpt><trkpt lat="53.576463" lon="15.135819"></trkpt><trkpt lat="53.576246" lon="15.135512"></trkpt><trkpt lat="53.575834" lon="15.135427"></trkpt><trkpt lat="53.572961" lon="15.134356"></trkpt><trkpt lat="53.57222" lon="15.133926"></trkpt><trkpt lat="53.570672" lon="15.132733"></trkpt><trkpt lat="53.567428" lon="15.13073"></trkpt><trkpt lat="53.566402" lon="15.130406"></trkpt><trkpt lat="53.536951" lon="15.120729"></trkpt><trkpt lat="53.536754" lon="15.120611"></trkpt><trkpt lat="53.53255" lon="15.117337"></trkpt><trkpt lat="53.531815" lon="15.116482"></trkpt><trkpt lat="53.507929" lon="15.086371"></trkpt><trkpt lat="53.507522" lon="15.085299"></trkpt><trkpt lat="53.49844" lon="15.065682"></trkpt><trkpt lat="53.497612" lon="15.065871"></trkpt><trkpt lat="53.495435" lon="15.066041"></trkpt><trkpt lat="53.494604" lon="15.065835"></trkpt><trkpt lat="53.493717" lon="15.065438"></trkpt><trkpt lat="53.492823" lon="15.064877"></trkpt><trkpt lat="53.490234" lon="15.063907"></trkpt><trkpt lat="53.48934" lon="15.063999"></trkpt><trkpt lat="53.484826" lon="15.06287"></trkpt><trkpt lat="53.483975" lon="15.062228"></trkpt><trkpt lat="53.478363" lon="15.058831"></trkpt><trkpt lat="53.478166" lon="15.058798"></trkpt><trkpt lat="53.477091" lon="15.058749"></trkpt><trkpt lat="53.476568" lon="15.058836"></trkpt><trkpt lat="53.447159" lon="15.064747"></trkpt><trkpt lat="53.445695" lon="15.06522"></trkpt><trkpt lat="53.444784" lon="15.065787"></trkpt><trkpt lat="53.437866" lon="15.0711"></trkpt><trkpt lat="53.437142" lon="15.072107"></trkpt><trkpt lat="53.434766" lon="15.074448"></trkpt><trkpt lat="53.434688" lon="15.074023"></trkpt><trkpt lat="53.434471" lon="15.073449"></trkpt><trkpt lat="53.434174" lon="15.073353"></trkpt><trkpt lat="53.434094" lon="15.072951"></trkpt><trkpt lat="53.434094" lon="15.072588"></trkpt><trkpt lat="53.433898" lon="15.068285"></trkpt><trkpt lat="53.433751" lon="15.066772"></trkpt><trkpt lat="53.433342" lon="15.063947"></trkpt><trkpt lat="53.431646" lon="15.055055"></trkpt><trkpt lat="53.431422" lon="15.055107"></trkpt><trkpt lat="53.424997" lon="15.055345"></trkpt><trkpt lat="53.424805" lon="15.055223"></trkpt><trkpt lat="53.424671" lon="15.054978"></trkpt><trkpt lat="53.42432" lon="15.0546"></trkpt><trkpt lat="53.423281" lon="15.053682"></trkpt><trkpt lat="53.423003" lon="15.053729"></trkpt><trkpt lat="53.422425" lon="15.053906"></trkpt><trkpt lat="53.421983" lon="15.05398"></trkpt><trkpt lat="53.421453" lon="15.054192"></trkpt><trkpt lat="53.420948" lon="15.054506"></trkpt><trkpt lat="53.419874" lon="15.055027"></trkpt><trkpt lat="53.419675" lon="15.054847"></trkpt><trkpt lat="53.41909" lon="15.054079"></trkpt><trkpt lat="53.407699" lon="15.036842"></trkpt><trkpt lat="53.407124" lon="15.035769"></trkpt><trkpt lat="53.404886" lon="15.030008"></trkpt><trkpt lat="53.404872" lon="15.029337"></trkpt><trkpt lat="53.40479" lon="15.028608"></trkpt><trkpt lat="53.404502" lon="15.028628"></trkpt><trkpt lat="53.404094" lon="15.028712"></trkpt><trkpt lat="53.399035" lon="15.030487"></trkpt><trkpt lat="53.398715" lon="15.031122"></trkpt><trkpt lat="53.398555" lon="15.031723"></trkpt><trkpt lat="53.398414" lon="15.032085"></trkpt><trkpt lat="53.398255" lon="15.032308"></trkpt><trkpt lat="53.397573" lon="15.032764"></trkpt><trkpt lat="53.396869" lon="15.032913"></trkpt><trkpt lat="53.384911" lon="15.033919"></trkpt><trkpt lat="53.369992" lon="15.030726"></trkpt><trkpt lat="53.369787" lon="15.030328"></trkpt><trkpt lat="53.369554" lon="15.030152"></trkpt><trkpt lat="53.36931" lon="15.030186"></trkpt><trkpt lat="53.368492" lon="15.030705"></trkpt><trkpt lat="53.368026" lon="15.031525"></trkpt><trkpt lat="53.3679" lon="15.031806"></trkpt><trkpt lat="53.365977" lon="15.0355"></trkpt><trkpt lat="53.365591" lon="15.035989"></trkpt><trkpt lat="53.36543" lon="15.036286"></trkpt><trkpt lat="53.364152" lon="15.038014"></trkpt><trkpt lat="53.363945" lon="15.038162"></trkpt><trkpt lat="53.362639" lon="15.039443"></trkpt><trkpt lat="53.362161" lon="15.040022"></trkpt><trkpt lat="53.360623" lon="15.041567"></trkpt><trkpt lat="53.358051" lon="15.044693"></trkpt><trkpt lat="53.357749" lon="15.045343"></trkpt><trkpt lat="53.357376" lon="15.046028"></trkpt><trkpt lat="53.350054" lon="15.057511"></trkpt><trkpt lat="53.349677" lon="15.057731"></trkpt><trkpt lat="53.349049" lon="15.057861"></trkpt><trkpt lat="53.345698" lon="15.057689"></trkpt><trkpt lat="53.345073" lon="15.056651"></trkpt><trkpt lat="53.344521" lon="15.055584"></trkpt><trkpt lat="53.343817" lon="15.053981"></trkpt><trkpt lat="53.343496" lon="15.053025"></trkpt><trkpt lat="53.343232" lon="15.052405"></trkpt><trkpt lat="53.342599" lon="15.051119"></trkpt><trkpt lat="53.342151" lon="15.050698"></trkpt><trkpt lat="53.341834" lon="15.050669"></trkpt><trkpt lat="53.341643" lon="15.050536"></trkpt><trkpt lat="53.341321" lon="15.049961"></trkpt><trkpt lat="53.340699" lon="15.048672"></trkpt><trkpt lat="53.340587" lon="15.047636"></trkpt><trkpt lat="53.340348" lon="15.046298"></trkpt><trkpt lat="53.340069" lon="15.045196"></trkpt><trkpt lat="53.339785" lon="15.044954"></trkpt><trkpt lat="53.339529" lon="15.044632"></trkpt><trkpt lat="53.339256" lon="15.043955"></trkpt><trkpt lat="53.339222" lon="15.043612"></trkpt><trkpt lat="53.339049" lon="15.042709"></trkpt><trkpt lat="53.33882" lon="15.042664"></trkpt><trkpt lat="53.338796" lon="15.043129"></trkpt><trkpt lat="53.338859" lon="15.043555"></trkpt><trkpt lat="53.338612" lon="15.04401"></trkpt><trkpt lat="53.338191" lon="15.044294"></trkpt><trkpt lat="53.337939" lon="15.044512"></trkpt><trkpt lat="53.337755" lon="15.044702"></trkpt><trkpt lat="53.337414" lon="15.044943"></trkpt><trkpt lat="53.337198" lon="15.045187"></trkpt><trkpt lat="53.336968" lon="15.045521"></trkpt><trkpt lat="53.336803" lon="15.045966"></trkpt><trkpt lat="53.336481" lon="15.046411"></trkpt><trkpt lat="53.336696" lon="15.046267"></trkpt><trkpt lat="53.336837" lon="15.046017"></trkpt><trkpt lat="53.337075" lon="15.045522"></trkpt><trkpt lat="53.337163" lon="15.045214"></trkpt><trkpt lat="53.337298" lon="15.044963"></trkpt><trkpt lat="53.337644" lon="15.044671"></trkpt><trkpt lat="53.338078" lon="15.044395"></trkpt><trkpt lat="53.338432" lon="15.044106"></trkpt><trkpt lat="53.339127" lon="15.043431"></trkpt><trkpt lat="53.339047" lon="15.042757"></trkpt><trkpt lat="53.338949" lon="15.041316"></trkpt><trkpt lat="53.338935" lon="15.040198"></trkpt><trkpt lat="53.338843" lon="15.038814"></trkpt><trkpt lat="53.338916" lon="15.038413"></trkpt><trkpt lat="53.339067" lon="15.038196"></trkpt><trkpt lat="53.339292" lon="15.037971"></trkpt><trkpt lat="53.339672" lon="15.037744"></trkpt><trkpt lat="53.339806" lon="15.037426"></trkpt><trkpt lat="53.339728" lon="15.037106"></trkpt><trkpt lat="53.339548" lon="15.036788"></trkpt><trkpt lat="53.339368" lon="15.035969"></trkpt><trkpt lat="53.339172" lon="15.034831"></trkpt><trkpt lat="53.338992" lon="15.034188"></trkpt><trkpt lat="53.338714" lon="15.032931"></trkpt><trkpt lat="53.338778" lon="15.0326"></trkpt><trkpt lat="53.339003" lon="15.032171"></trkpt><trkpt lat="53.339277" lon="15.031949"></trkpt><trkpt lat="53.339643" lon="15.031533"></trkpt><trkpt lat="53.339407" lon="15.031417"></trkpt><trkpt lat="53.339234" lon="15.031664"></trkpt><trkpt lat="53.339269" lon="15.030865"></trkpt></trkseg></trk></gpx>