<?xml version="1.0" encoding="UTF-8" standalone="no" ?><gpx xmlns="http://www.topografix.com/GPX/1/1" xmlns:gpxx="http://www.garmin.com/xmlschemas/GpxExtensions/v3" ><trk><trkseg><trkpt lat="50.23978" lon="16.632265"></trkpt><trkpt lat="50.239739" lon="16.632711"></trkpt><trkpt lat="50.239612" lon="16.633139"></trkpt><trkpt lat="50.23952" lon="16.63364"></trkpt><trkpt lat="50.239473" lon="16.634062"></trkpt><trkpt lat="50.239356" lon="16.6346"></trkpt><trkpt lat="50.239227" lon="16.635655"></trkpt><trkpt lat="50.239124" lon="16.636061"></trkpt><trkpt lat="50.239408" lon="16.636253"></trkpt><trkpt lat="50.239673" lon="16.636625"></trkpt><trkpt lat="50.239704" lon="16.637354"></trkpt><trkpt lat="50.239857" lon="16.637959"></trkpt><trkpt lat="50.240179" lon="16.638088"></trkpt><trkpt lat="50.240469" lon="16.638315"></trkpt><trkpt lat="50.241366" lon="16.638839"></trkpt><trkpt lat="50.241657" lon="16.638916"></trkpt><trkpt lat="50.241786" lon="16.638496"></trkpt><trkpt lat="50.242139" lon="16.636956"></trkpt><trkpt lat="50.242451" lon="16.636118"></trkpt><trkpt lat="50.242688" lon="16.636463"></trkpt><trkpt lat="50.242691" lon="16.636923"></trkpt><trkpt lat="50.242952" lon="16.637217"></trkpt><trkpt lat="50.243449" lon="16.637673"></trkpt><trkpt lat="50.243508" lon="16.638215"></trkpt><trkpt lat="50.243697" lon="16.639251"></trkpt><trkpt lat="50.245255" lon="16.652218"></trkpt><trkpt lat="50.245166" lon="16.652668"></trkpt><trkpt lat="50.245054" lon="16.653061"></trkpt><trkpt lat="50.244861" lon="16.653401"></trkpt><trkpt lat="50.244548" lon="16.653834"></trkpt><trkpt lat="50.244074" lon="16.65438"></trkpt><trkpt lat="50.243934" lon="16.654795"></trkpt><trkpt lat="50.243742" lon="16.655093"></trkpt><trkpt lat="50.237009" lon="16.664689"></trkpt><trkpt lat="50.236673" lon="16.665262"></trkpt><trkpt lat="50.236431" lon="16.665547"></trkpt><trkpt lat="50.235985" lon="16.666175"></trkpt><trkpt lat="50.235603" lon="16.666835"></trkpt><trkpt lat="50.235661" lon="16.667279"></trkpt><trkpt lat="50.235794" lon="16.667742"></trkpt><trkpt lat="50.236691" lon="16.670127"></trkpt><trkpt lat="50.236875" lon="16.670487"></trkpt><trkpt lat="50.237064" lon="16.671137"></trkpt><trkpt lat="50.237157" lon="16.67172"></trkpt><trkpt lat="50.238631" lon="16.678138"></trkpt><trkpt lat="50.238845" lon="16.678652"></trkpt><trkpt lat="50.239394" lon="16.679692"></trkpt><trkpt lat="50.239696" lon="16.68"></trkpt><trkpt lat="50.239959" lon="16.680367"></trkpt><trkpt lat="50.240156" lon="16.680796"></trkpt><trkpt lat="50.240766" lon="16.681884"></trkpt><trkpt lat="50.240975" lon="16.682194"></trkpt><trkpt lat="50.242234" lon="16.684455"></trkpt><trkpt lat="50.242422" lon="16.685038"></trkpt><trkpt lat="50.242628" lon="16.685527"></trkpt><trkpt lat="50.242836" lon="16.685856"></trkpt><trkpt lat="50.244282" lon="16.688675"></trkpt><trkpt lat="50.244574" lon="16.689451"></trkpt><trkpt lat="50.244627" lon="16.689888"></trkpt><trkpt lat="50.24464" lon="16.69059"></trkpt><trkpt lat="50.244439" lon="16.691184"></trkpt><trkpt lat="50.244229" lon="16.69158"></trkpt><trkpt lat="50.244426" lon="16.692013"></trkpt><trkpt lat="50.244804" lon="16.692167"></trkpt><trkpt lat="50.24517" lon="16.692198"></trkpt><trkpt lat="50.245888" lon="16.692012"></trkpt><trkpt lat="50.246148" lon="16.691826"></trkpt><trkpt lat="50.246615" lon="16.691583"></trkpt><trkpt lat="50.246951" lon="16.691508"></trkpt><trkpt lat="50.247474" lon="16.691466"></trkpt><trkpt lat="50.247859" lon="16.691577"></trkpt><trkpt lat="50.248048" lon="16.692076"></trkpt><trkpt lat="50.248069" lon="16.692628"></trkpt><trkpt lat="50.248058" lon="16.693159"></trkpt><trkpt lat="50.247988" lon="16.693804"></trkpt><trkpt lat="50.247986" lon="16.694287"></trkpt><trkpt lat="50.248024" lon="16.694768"></trkpt><trkpt lat="50.248136" lon="16.694171"></trkpt><trkpt lat="50.2482" lon="16.694685"></trkpt><trkpt lat="50.247901" lon="16.694548"></trkpt><trkpt lat="50.248132" lon="16.694939"></trkpt><trkpt lat="50.248204" lon="16.694442"></trkpt><trkpt lat="50.248079" lon="16.694973"></trkpt><trkpt lat="50.247779" lon="16.695176"></trkpt><trkpt lat="50.247711" lon="16.695622"></trkpt><trkpt lat="50.247707" lon="16.696068"></trkpt><trkpt lat="50.247671" lon="16.696548"></trkpt><trkpt lat="50.247609" lon="16.697"></trkpt><trkpt lat="50.247481" lon="16.69757"></trkpt><trkpt lat="50.247381" lon="16.698271"></trkpt><trkpt lat="50.247311" lon="16.699193"></trkpt><trkpt lat="50.247115" lon="16.700603"></trkpt><trkpt lat="50.246852" lon="16.701596"></trkpt><trkpt lat="50.246609" lon="16.70196"></trkpt><trkpt lat="50.246379" lon="16.70242"></trkpt><trkpt lat="50.246196" lon="16.702905"></trkpt><trkpt lat="50.245813" lon="16.704284"></trkpt><trkpt lat="50.245819" lon="16.704725"></trkpt><trkpt lat="50.245642" lon="16.705203"></trkpt><trkpt lat="50.244" lon="16.708847"></trkpt><trkpt lat="50.243759" lon="16.7092"></trkpt><trkpt lat="50.243238" lon="16.710122"></trkpt><trkpt lat="50.24308" lon="16.710572"></trkpt><trkpt lat="50.241288" lon="16.714497"></trkpt><trkpt lat="50.241006" lon="16.714615"></trkpt><trkpt lat="50.240708" lon="16.71469"></trkpt><trkpt lat="50.238838" lon="16.71544"></trkpt><trkpt lat="50.238626" lon="16.715979"></trkpt><trkpt lat="50.238133" lon="16.716999"></trkpt><trkpt lat="50.237922" lon="16.717347"></trkpt><trkpt lat="50.237319" lon="16.718545"></trkpt><trkpt lat="50.237163" lon="16.718982"></trkpt><trkpt lat="50.236579" lon="16.720224"></trkpt><trkpt lat="50.236219" lon="16.720425"></trkpt><trkpt lat="50.235877" lon="16.720478"></trkpt><trkpt lat="50.235138" lon="16.720853"></trkpt><trkpt lat="50.234966" lon="16.721266"></trkpt><trkpt lat="50.234069" lon="16.72399"></trkpt><trkpt lat="50.234237" lon="16.724362"></trkpt><trkpt lat="50.234147" lon="16.72487"></trkpt><trkpt lat="50.233641" lon="16.729265"></trkpt><trkpt lat="50.232001" lon="16.743114"></trkpt><trkpt lat="50.231712" lon="16.743495"></trkpt><trkpt lat="50.231631" lon="16.743927"></trkpt><trkpt lat="50.231678" lon="16.744492"></trkpt><trkpt lat="50.231685" lon="16.744983"></trkpt><trkpt lat="50.231743" lon="16.745759"></trkpt><trkpt lat="50.231683" lon="16.746286"></trkpt><trkpt lat="50.231597" lon="16.746768"></trkpt><trkpt lat="50.2315" lon="16.747948"></trkpt><trkpt lat="50.231679" lon="16.748285"></trkpt><trkpt lat="50.231681" lon="16.748708"></trkpt><trkpt lat="50.231753" lon="16.749185"></trkpt><trkpt lat="50.231785" lon="16.749836"></trkpt><trkpt lat="50.231505" lon="16.750045"></trkpt><trkpt lat="50.231156" lon="16.750061"></trkpt><trkpt lat="50.230857" lon="16.750119"></trkpt><trkpt lat="50.230796" lon="16.750605"></trkpt><trkpt lat="50.23056" lon="16.750887"></trkpt><trkpt lat="50.230293" lon="16.750967"></trkpt><trkpt lat="50.229966" lon="16.750992"></trkpt><trkpt lat="50.229599" lon="16.751073"></trkpt><trkpt lat="50.229193" lon="16.751419"></trkpt><trkpt lat="50.229068" lon="16.751832"></trkpt><trkpt lat="50.22882" lon="16.752912"></trkpt><trkpt lat="50.228841" lon="16.753481"></trkpt><trkpt lat="50.228924" lon="16.75408"></trkpt><trkpt lat="50.22896" lon="16.754603"></trkpt><trkpt lat="50.228962" lon="16.755055"></trkpt><trkpt lat="50.228909" lon="16.755569"></trkpt><trkpt lat="50.228765" lon="16.760217"></trkpt><trkpt lat="50.228932" lon="16.760581"></trkpt><trkpt lat="50.229222" lon="16.760585"></trkpt><trkpt lat="50.229081" lon="16.761015"></trkpt><trkpt lat="50.228665" lon="16.761624"></trkpt><trkpt lat="50.228486" lon="16.76209"></trkpt><trkpt lat="50.228474" lon="16.762681"></trkpt><trkpt lat="50.228395" lon="16.763312"></trkpt><trkpt lat="50.228493" lon="16.763708"></trkpt><trkpt lat="50.228467" lon="16.764292"></trkpt><trkpt lat="50.228585" lon="16.764792"></trkpt><trkpt lat="50.228677" lon="16.76547"></trkpt><trkpt lat="50.228682" lon="16.76608"></trkpt><trkpt lat="50.228522" lon="16.766442"></trkpt><trkpt lat="50.228308" lon="16.766819"></trkpt><trkpt lat="50.228199" lon="16.767211"></trkpt><trkpt lat="50.228238" lon="16.767771"></trkpt><trkpt lat="50.228127" lon="16.767221"></trkpt><trkpt lat="50.228304" lon="16.766701"></trkpt><trkpt lat="50.228552" lon="16.766333"></trkpt><trkpt lat="50.228644" lon="16.765921"></trkpt><trkpt lat="50.228676" lon="16.765445"></trkpt><trkpt lat="50.228595" lon="16.765011"></trkpt><trkpt lat="50.228708" lon="16.764195"></trkpt><trkpt lat="50.228458" lon="16.763997"></trkpt><trkpt lat="50.228337" lon="16.764687"></trkpt><trkpt lat="50.22846" lon="16.764308"></trkpt><trkpt lat="50.228448" lon="16.763788"></trkpt><trkpt lat="50.228176" lon="16.763427"></trkpt><trkpt lat="50.227828" lon="16.763087"></trkpt><trkpt lat="50.228153" lon="16.763561"></trkpt><trkpt lat="50.228349" lon="16.763909"></trkpt><trkpt lat="50.228454" lon="16.764439"></trkpt><trkpt lat="50.22868" lon="16.764183"></trkpt><trkpt lat="50.228997" lon="16.76408"></trkpt><trkpt lat="50.228667" lon="16.764102"></trkpt><trkpt lat="50.228482" lon="16.76445"></trkpt><trkpt lat="50.228541" lon="16.764891"></trkpt><trkpt lat="50.228531" lon="16.765397"></trkpt><trkpt lat="50.228656" lon="16.765927"></trkpt><trkpt lat="50.228609" lon="16.766351"></trkpt><trkpt lat="50.228485" lon="16.76687"></trkpt><trkpt lat="50.228435" lon="16.767364"></trkpt><trkpt lat="50.228241" lon="16.767691"></trkpt><trkpt lat="50.227966" lon="16.7678"></trkpt><trkpt lat="50.227751" lon="16.768179"></trkpt><trkpt lat="50.227554" lon="16.768655"></trkpt><trkpt lat="50.227363" lon="16.768986"></trkpt><trkpt lat="50.227563" lon="16.768588"></trkpt><trkpt lat="50.228114" lon="16.767649"></trkpt></trkseg></trk></gpx>