<?xml version="1.0" encoding="UTF-8" standalone="no" ?><gpx xmlns="http://www.topografix.com/GPX/1/1" xmlns:gpxx="http://www.garmin.com/xmlschemas/GpxExtensions/v3" ><trk><trkseg><trkpt lat="50.0708039012" lon="17.2386848275"></trkpt><trkpt lat="50.0710126106" lon="17.2380535863"></trkpt><trkpt lat="50.0728521869" lon="17.2336322162"></trkpt><trkpt lat="50.0731293764" lon="17.2332486603"></trkpt><trkpt lat="50.0753234234" lon="17.2296156082"></trkpt><trkpt lat="50.0754744653" lon="17.2292633168"></trkpt><trkpt lat="50.0759412535" lon="17.2278999165"></trkpt><trkpt lat="50.0760125834" lon="17.2273773886"></trkpt><trkpt lat="50.0761435926" lon="17.2268883046"></trkpt><trkpt lat="50.0768961199" lon="17.2246618196"></trkpt><trkpt lat="50.0771077629" lon="17.2238571569"></trkpt><trkpt lat="50.0771439727" lon="17.2234202083"></trkpt><trkpt lat="50.0771516003" lon="17.2228597943"></trkpt><trkpt lat="50.0771115348" lon="17.2224364243"></trkpt><trkpt lat="50.0770620815" lon="17.2207787354"></trkpt><trkpt lat="50.0771240238" lon="17.2203495819"></trkpt><trkpt lat="50.0773166399" lon="17.2199741565"></trkpt><trkpt lat="50.0775442086" lon="17.2197115514"></trkpt><trkpt lat="50.0778327137" lon="17.2195666283"></trkpt><trkpt lat="50.0781128369" lon="17.2195705678"></trkpt><trkpt lat="50.0783761125" lon="17.2197605018"></trkpt><trkpt lat="50.0787916034" lon="17.220179094"></trkpt><trkpt lat="50.0792977028" lon="17.2204577923"></trkpt><trkpt lat="50.0795701984" lon="17.2207732871"></trkpt><trkpt lat="50.0798709411" lon="17.2208482213"></trkpt><trkpt lat="50.0801389106" lon="17.221029941"></trkpt><trkpt lat="50.0804236438" lon="17.2210344672"></trkpt><trkpt lat="50.0815414544" lon="17.2208574414"></trkpt><trkpt lat="50.0827830657" lon="17.2208354808"></trkpt><trkpt lat="50.0830869097" lon="17.2210715152"></trkpt><trkpt lat="50.0833832938" lon="17.2213658039"></trkpt><trkpt lat="50.0836117845" lon="17.2217620164"></trkpt><trkpt lat="50.083771795" lon="17.2222534474"></trkpt><trkpt lat="50.0838757306" lon="17.2226582933"></trkpt><trkpt lat="50.0839251" lon="17.2230760474"></trkpt><trkpt lat="50.0839100126" lon="17.2235867567"></trkpt><trkpt lat="50.0838549435" lon="17.2241055127"></trkpt><trkpt lat="50.0838336535" lon="17.2251292784"></trkpt><trkpt lat="50.0838795863" lon="17.2255831584"></trkpt><trkpt lat="50.0839841086" lon="17.2260702308"></trkpt><trkpt lat="50.0849356223" lon="17.2325633559"></trkpt><trkpt lat="50.0847815629" lon="17.2329469118"></trkpt><trkpt lat="50.0845974963" lon="17.2333265282"></trkpt><trkpt lat="50.084359115" lon="17.2336335573"></trkpt><trkpt lat="50.0841129385" lon="17.233861126"></trkpt><trkpt lat="50.0838121958" lon="17.2339357249"></trkpt><trkpt lat="50.0832111295" lon="17.2336652409"></trkpt><trkpt lat="50.0829878356" lon="17.2332872171"></trkpt><trkpt lat="50.0828680582" lon="17.2328952793"></trkpt><trkpt lat="50.0828445051" lon="17.2323957179"></trkpt><trkpt lat="50.0829037651" lon="17.2319745272"></trkpt><trkpt lat="50.0830603391" lon="17.2312003747"></trkpt><trkpt lat="50.0829257257" lon="17.2320962325"></trkpt><trkpt lat="50.0830842275" lon="17.2314877901"></trkpt><trkpt lat="50.0831659511" lon="17.2319173627"></trkpt><trkpt lat="50.0829152483" lon="17.2320949752"></trkpt><trkpt lat="50.0831602514" lon="17.2318828292"></trkpt><trkpt lat="50.0829086266" lon="17.2315353155"></trkpt><trkpt lat="50.0827297568" lon="17.2309892345"></trkpt><trkpt lat="50.0828529708" lon="17.2305537947"></trkpt><trkpt lat="50.0828815531" lon="17.2300024331"></trkpt><trkpt lat="50.0828759372" lon="17.230452206"></trkpt><trkpt lat="50.0827073772" lon="17.23092461"></trkpt><trkpt lat="50.0829235464" lon="17.2313987743"></trkpt><trkpt lat="50.0829826389" lon="17.2318699211"></trkpt><trkpt lat="50.0829177629" lon="17.2325346898"></trkpt><trkpt lat="50.0830295775" lon="17.2331957705"></trkpt><trkpt lat="50.0832441542" lon="17.2336060647"></trkpt><trkpt lat="50.0835318211" lon="17.2338144388"></trkpt><trkpt lat="50.0838066638" lon="17.2338777222"></trkpt><trkpt lat="50.0842580292" lon="17.2336742096"></trkpt><trkpt lat="50.0844933931" lon="17.2334095091"></trkpt><trkpt lat="50.0846822374" lon="17.233046405"></trkpt><trkpt lat="50.084896395" lon="17.232522117"></trkpt><trkpt lat="50.0850686431" lon="17.2319613677"></trkpt><trkpt lat="50.085084904" lon="17.2313776519"></trkpt><trkpt lat="50.0850300025" lon="17.2308652662"></trkpt><trkpt lat="50.0849067047" lon="17.2301858291"></trkpt><trkpt lat="50.0847839098" lon="17.2296826635"></trkpt><trkpt lat="50.0838246848" lon="17.2241329215"></trkpt><trkpt lat="50.0838948414" lon="17.2235743515"></trkpt><trkpt lat="50.0838955957" lon="17.2231347207"></trkpt><trkpt lat="50.0838455558" lon="17.2225660086"></trkpt><trkpt lat="50.0838347431" lon="17.2221412975"></trkpt><trkpt lat="50.0836163945" lon="17.2218861524"></trkpt><trkpt lat="50.0834187493" lon="17.2215643711"></trkpt><trkpt lat="50.0831012428" lon="17.2211933881"></trkpt><trkpt lat="50.0828031823" lon="17.2209736146"></trkpt><trkpt lat="50.082446197" lon="17.2208790667"></trkpt><trkpt lat="50.0821651518" lon="17.2208814975"></trkpt><trkpt lat="50.0818213262" lon="17.2209482174"></trkpt><trkpt lat="50.0798497349" lon="17.2210495546"></trkpt><trkpt lat="50.0794572942" lon="17.2208353132"></trkpt><trkpt lat="50.0790378638" lon="17.2205150407"></trkpt><trkpt lat="50.0787936151" lon="17.2202810179"></trkpt><trkpt lat="50.078024324" lon="17.2196993139"></trkpt><trkpt lat="50.0776567776" lon="17.2197940294"></trkpt><trkpt lat="50.0773567893" lon="17.2201504279"></trkpt><trkpt lat="50.0772011373" lon="17.2205267753"></trkpt><trkpt lat="50.077110948" lon="17.2210826632"></trkpt><trkpt lat="50.0771369319" lon="17.2216217034"></trkpt><trkpt lat="50.0772023946" lon="17.2221066803"></trkpt><trkpt lat="50.0772071723" lon="17.222589897"></trkpt><trkpt lat="50.0771253649" lon="17.2241083626"></trkpt><trkpt lat="50.077021597" lon="17.2245003842"></trkpt><trkpt lat="50.0768238679" lon="17.2249950003"></trkpt><trkpt lat="50.0761672296" lon="17.2271187231"></trkpt><trkpt lat="50.0760621205" lon="17.2276005987"></trkpt><trkpt lat="50.0759151857" lon="17.2279656306"></trkpt><trkpt lat="50.0758211408" lon="17.2286237776"></trkpt><trkpt lat="50.0756685063" lon="17.2290181462"></trkpt><trkpt lat="50.0747957826" lon="17.230859315"></trkpt><trkpt lat="50.0738566741" lon="17.2325087897"></trkpt><trkpt lat="50.0736016966" lon="17.2328457423"></trkpt><trkpt lat="50.0721474364" lon="17.2351666074"></trkpt><trkpt lat="50.071963286" lon="17.2355742194"></trkpt><trkpt lat="50.0718071312" lon="17.2360161133"></trkpt><trkpt lat="50.0705552101" lon="17.2405713424"></trkpt><trkpt lat="50.0704971235" lon="17.2411761805"></trkpt><trkpt lat="50.0702580716" lon="17.2417550348"></trkpt></trkseg></trk></gpx>