<?xml version="1.0" encoding="UTF-8" standalone="no" ?><gpx xmlns="http://www.topografix.com/GPX/1/1" xmlns:gpxx="http://www.garmin.com/xmlschemas/GpxExtensions/v3" ><trk><trkseg><trkpt lat="52.5084276404" lon="16.9907253329"></trkpt><trkpt lat="52.5082009938" lon="16.990967067"></trkpt><trkpt lat="52.5077903643" lon="16.9911561627"></trkpt><trkpt lat="52.5043735653" lon="16.9933174364"></trkpt><trkpt lat="52.5041184202" lon="16.9937298261"></trkpt><trkpt lat="52.5005349051" lon="17.0006861351"></trkpt><trkpt lat="52.5008177944" lon="17.000812199"></trkpt><trkpt lat="52.50101435" lon="17.0011168811"></trkpt><trkpt lat="52.5011828262" lon="17.0014864393"></trkpt><trkpt lat="52.5014562439" lon="17.0022178441"></trkpt><trkpt lat="52.5012148451" lon="17.0025372785"></trkpt><trkpt lat="52.5008581113" lon="17.0023213606"></trkpt><trkpt lat="52.5006201491" lon="17.0019032713"></trkpt><trkpt lat="52.5004567858" lon="17.0015305281"></trkpt><trkpt lat="52.500113463" lon="17.0008781645"></trkpt><trkpt lat="52.4999644328" lon="17.0004727319"></trkpt><trkpt lat="52.5002316479" lon="17.0000764355"></trkpt><trkpt lat="52.5008891243" lon="16.9989049807"></trkpt><trkpt lat="52.5052427687" lon="16.9924594648"></trkpt><trkpt lat="52.5084196776" lon="16.9907624647"></trkpt></trkseg></trk></gpx>