<?xml version="1.0" encoding="UTF-8" standalone="no" ?><gpx xmlns="http://www.topografix.com/GPX/1/1" xmlns:gpxx="http://www.garmin.com/xmlschemas/GpxExtensions/v3" ><trk><trkseg><trkpt lat="52.5111030601" lon="15.2318864688"></trkpt><trkpt lat="52.510782117" lon="15.2319191583"></trkpt><trkpt lat="52.511044303" lon="15.2317972854"></trkpt><trkpt lat="52.5114711095" lon="15.2320826054"></trkpt><trkpt lat="52.5111188181" lon="15.2318775002"></trkpt><trkpt lat="52.5107667781" lon="15.2319469023"></trkpt><trkpt lat="52.5105532072" lon="15.2323345654"></trkpt><trkpt lat="52.5105437357" lon="15.2328100707"></trkpt><trkpt lat="52.5104522891" lon="15.2334030066"></trkpt><trkpt lat="52.5097763725" lon="15.24119935"></trkpt><trkpt lat="52.5100193638" lon="15.2415062953"></trkpt><trkpt lat="52.5103183463" lon="15.2417546511"></trkpt><trkpt lat="52.5106064323" lon="15.2421166655"></trkpt><trkpt lat="52.5109246932" lon="15.242438782"></trkpt><trkpt lat="52.5114141125" lon="15.2430471405"></trkpt><trkpt lat="52.5115956645" lon="15.2434135973"></trkpt><trkpt lat="52.5118584372" lon="15.2438264899"></trkpt><trkpt lat="52.5142906141" lon="15.24697138"></trkpt><trkpt lat="52.5146149099" lon="15.2469422948"></trkpt><trkpt lat="52.5147910137" lon="15.2473224141"></trkpt><trkpt lat="52.515354529" lon="15.2483212855"></trkpt><trkpt lat="52.5155898929" lon="15.2485809568"></trkpt><trkpt lat="52.5158573594" lon="15.2484051045"></trkpt><trkpt lat="52.5160505623" lon="15.2479167748"></trkpt><trkpt lat="52.5163828209" lon="15.247577643"></trkpt><trkpt lat="52.5161156897" lon="15.2476662397"></trkpt><trkpt lat="52.5160994288" lon="15.2472184785"></trkpt><trkpt lat="52.5163879339" lon="15.2474635653"></trkpt><trkpt lat="52.5166639499" lon="15.247373376"></trkpt><trkpt lat="52.516871402" lon="15.2469839528"></trkpt><trkpt lat="52.5171519443" lon="15.2462283242"></trkpt><trkpt lat="52.5169052649" lon="15.2456956543"></trkpt><trkpt lat="52.5165412389" lon="15.2455373202"></trkpt><trkpt lat="52.5166247226" lon="15.2451064065"></trkpt><trkpt lat="52.5168485194" lon="15.2446390316"></trkpt><trkpt lat="52.5172122102" lon="15.2440094668"></trkpt><trkpt lat="52.5174805988" lon="15.2434188779"></trkpt><trkpt lat="52.5174537767" lon="15.2428742219"></trkpt><trkpt lat="52.5174761564" lon="15.2422180865"></trkpt><trkpt lat="52.5175872166" lon="15.2417927049"></trkpt><trkpt lat="52.5174722169" lon="15.2423117124"></trkpt><trkpt lat="52.5175053254" lon="15.2427828591"></trkpt><trkpt lat="52.517489735" lon="15.2434643079"></trkpt><trkpt lat="52.5172951911" lon="15.2439155057"></trkpt><trkpt lat="52.5170136429" lon="15.2443217766"></trkpt><trkpt lat="52.5166176818" lon="15.2450033091"></trkpt><trkpt lat="52.5165721681" lon="15.2454721928"></trkpt><trkpt lat="52.5169389602" lon="15.2457679901"></trkpt><trkpt lat="52.5171463285" lon="15.2461025957"></trkpt><trkpt lat="52.5170618389" lon="15.2466664463"></trkpt><trkpt lat="52.5168511178" lon="15.2470305562"></trkpt><trkpt lat="52.5163591839" lon="15.2481120732"></trkpt><trkpt lat="52.5166759361" lon="15.2482974809"></trkpt><trkpt lat="52.5169453304" lon="15.2483389713"></trkpt><trkpt lat="52.5166079588" lon="15.2483616024"></trkpt><trkpt lat="52.5162867643" lon="15.2481657173"></trkpt><trkpt lat="52.5164460205" lon="15.2476677485"></trkpt><trkpt lat="52.5161591917" lon="15.2473105956"></trkpt><trkpt lat="52.5147872418" lon="15.2452631481"></trkpt><trkpt lat="52.5146632735" lon="15.2448179852"></trkpt><trkpt lat="52.5144743454" lon="15.2442817949"></trkpt><trkpt lat="52.5141981617" lon="15.2436656412"></trkpt><trkpt lat="52.5141447689" lon="15.243213689"></trkpt><trkpt lat="52.5139424298" lon="15.242724102"></trkpt><trkpt lat="52.5137276016" lon="15.2423960343"></trkpt><trkpt lat="52.5132339913" lon="15.2414352167"></trkpt><trkpt lat="52.5131024793" lon="15.2408536803"></trkpt><trkpt lat="52.5125975534" lon="15.2394284215"></trkpt><trkpt lat="52.5122569967" lon="15.2395358775"></trkpt><trkpt lat="52.5119586848" lon="15.239781132"></trkpt><trkpt lat="52.5118775479" lon="15.2402081061"></trkpt><trkpt lat="52.5120477844" lon="15.2405693661"></trkpt><trkpt lat="52.5121775363" lon="15.2410656586"></trkpt><trkpt lat="52.5123775285" lon="15.2415549941"></trkpt><trkpt lat="52.5125929434" lon="15.2419405617"></trkpt><trkpt lat="52.5127666164" lon="15.2423293982"></trkpt><trkpt lat="52.5128889084" lon="15.242792163"></trkpt><trkpt lat="52.5130485836" lon="15.2432477195"></trkpt><trkpt lat="52.5128170755" lon="15.2436367236"></trkpt><trkpt lat="52.5125057716" lon="15.2438177727"></trkpt><trkpt lat="52.5121904444" lon="15.2440916933"></trkpt><trkpt lat="52.5118799787" lon="15.2440150827"></trkpt><trkpt lat="52.5115975086" lon="15.2438130789"></trkpt><trkpt lat="52.5113321375" lon="15.2435141802"></trkpt><trkpt lat="52.5111011323" lon="15.2429986093"></trkpt><trkpt lat="52.5108570512" lon="15.2426147182"></trkpt><trkpt lat="52.5103235431" lon="15.2414041199"></trkpt><trkpt lat="52.5105802808" lon="15.2409243397"></trkpt><trkpt lat="52.5110987853" lon="15.2401883248"></trkpt><trkpt lat="52.5114201475" lon="15.2400062699"></trkpt><trkpt lat="52.5117208902" lon="15.2399651147"></trkpt><trkpt lat="52.5119262468" lon="15.2396657132"></trkpt><trkpt lat="52.5116770528" lon="15.2393822372"></trkpt><trkpt lat="52.511464823" lon="15.2398696449"></trkpt><trkpt lat="52.5112230889" lon="15.2401102055"></trkpt><trkpt lat="52.5109173171" lon="15.2403198369"></trkpt><trkpt lat="52.5106705539" lon="15.2407995332"></trkpt><trkpt lat="52.5104743335" lon="15.2411158662"></trkpt><trkpt lat="52.5102849025" lon="15.2415362187"></trkpt><trkpt lat="52.5099681504" lon="15.2413394116"></trkpt><trkpt lat="52.5096321199" lon="15.24100204"></trkpt><trkpt lat="52.509401869" lon="15.2407117747"></trkpt><trkpt lat="52.5094087422" lon="15.2402278874"></trkpt><trkpt lat="52.5091272779" lon="15.2403910831"></trkpt><trkpt lat="52.5091018807" lon="15.2399488539"></trkpt><trkpt lat="52.5091865379" lon="15.2394848317"></trkpt><trkpt lat="52.510453295" lon="15.2346963342"></trkpt><trkpt lat="52.5108851306" lon="15.2347441111"></trkpt><trkpt lat="52.510548681" lon="15.2347892057"></trkpt><trkpt lat="52.5103473477" lon="15.234247148"></trkpt><trkpt lat="52.5103869103" lon="15.2336993068"></trkpt><trkpt lat="52.5104730763" lon="15.2331740968"></trkpt><trkpt lat="52.5105121359" lon="15.2327151038"></trkpt><trkpt lat="52.5106543768" lon="15.2318943478"></trkpt><trkpt lat="52.5109286327" lon="15.2318588085"></trkpt><trkpt lat="52.511059558" lon="15.2312040143"></trkpt><trkpt lat="52.5108890701" lon="15.2317573037"></trkpt><trkpt lat="52.510583885" lon="15.2318774164"></trkpt><trkpt lat="52.5108377729" lon="15.2317179926"></trkpt><trkpt lat="52.5105882436" lon="15.2320416179"></trkpt><trkpt lat="52.5108836219" lon="15.2314981353"></trkpt></trkseg></trk></gpx>