<?xml version="1.0" encoding="UTF-8" standalone="no" ?><gpx xmlns="http://www.topografix.com/GPX/1/1" xmlns:gpxx="http://www.garmin.com/xmlschemas/GpxExtensions/v3" ><trk><trkseg><trkpt lat="52.396849" lon="17.159249"></trkpt><trkpt lat="52.397027" lon="17.159102"></trkpt><trkpt lat="52.397246" lon="17.159187"></trkpt><trkpt lat="52.397591" lon="17.15915"></trkpt><trkpt lat="52.397872" lon="17.158836"></trkpt><trkpt lat="52.398085" lon="17.158639"></trkpt><trkpt lat="52.398335" lon="17.158618"></trkpt><trkpt lat="52.399285" lon="17.158811"></trkpt><trkpt lat="52.400035" lon="17.159054"></trkpt><trkpt lat="52.400351" lon="17.159111"></trkpt><trkpt lat="52.401846" lon="17.159109"></trkpt><trkpt lat="52.402408" lon="17.15888"></trkpt><trkpt lat="52.415952" lon="17.155183"></trkpt><trkpt lat="52.416485" lon="17.155257"></trkpt><trkpt lat="52.422311" lon="17.156821"></trkpt><trkpt lat="52.422828" lon="17.157227"></trkpt><trkpt lat="52.423417" lon="17.157497"></trkpt><trkpt lat="52.424023" lon="17.157612"></trkpt><trkpt lat="52.432054" lon="17.160189"></trkpt><trkpt lat="52.432473" lon="17.160625"></trkpt><trkpt lat="52.441864" lon="17.168939"></trkpt><trkpt lat="52.442999" lon="17.170568"></trkpt><trkpt lat="52.44308" lon="17.170882"></trkpt><trkpt lat="52.443432" lon="17.171695"></trkpt><trkpt lat="52.443663" lon="17.172131"></trkpt><trkpt lat="52.443758" lon="17.172445"></trkpt><trkpt lat="52.444099" lon="17.172442"></trkpt><trkpt lat="52.444335" lon="17.172316"></trkpt><trkpt lat="52.446007" lon="17.171201"></trkpt><trkpt lat="52.446161" lon="17.170892"></trkpt><trkpt lat="52.44613" lon="17.170465"></trkpt><trkpt lat="52.44593" lon="17.169963"></trkpt><trkpt lat="52.445491" lon="17.168272"></trkpt><trkpt lat="52.445798" lon="17.168002"></trkpt><trkpt lat="52.446186" lon="17.167718"></trkpt><trkpt lat="52.447531" lon="17.166513"></trkpt><trkpt lat="52.44765" lon="17.165916"></trkpt><trkpt lat="52.447716" lon="17.165427"></trkpt><trkpt lat="52.447898" lon="17.164438"></trkpt><trkpt lat="52.448052" lon="17.163997"></trkpt><trkpt lat="52.448352" lon="17.163527"></trkpt><trkpt lat="52.448855" lon="17.162902"></trkpt><trkpt lat="52.451214" lon="17.160441"></trkpt><trkpt lat="52.451553" lon="17.160519"></trkpt><trkpt lat="52.451803" lon="17.160647"></trkpt><trkpt lat="52.452262" lon="17.161034"></trkpt><trkpt lat="52.456273" lon="17.165044"></trkpt><trkpt lat="52.456364" lon="17.165365"></trkpt><trkpt lat="52.456551" lon="17.165886"></trkpt><trkpt lat="52.456719" lon="17.166143"></trkpt><trkpt lat="52.456933" lon="17.166325"></trkpt><trkpt lat="52.457224" lon="17.166468"></trkpt><trkpt lat="52.457531" lon="17.166578"></trkpt><trkpt lat="52.461939" lon="17.168704"></trkpt><trkpt lat="52.461888" lon="17.169063"></trkpt><trkpt lat="52.46107" lon="17.173231"></trkpt><trkpt lat="52.460849" lon="17.174059"></trkpt><trkpt lat="52.460755" lon="17.174645"></trkpt><trkpt lat="52.460681" lon="17.175354"></trkpt><trkpt lat="52.46057" lon="17.178731"></trkpt><trkpt lat="52.460849" lon="17.178754"></trkpt><trkpt lat="52.461048" lon="17.178807"></trkpt><trkpt lat="52.465383" lon="17.179454"></trkpt><trkpt lat="52.465452" lon="17.178898"></trkpt><trkpt lat="52.466981" lon="17.16993"></trkpt><trkpt lat="52.467205" lon="17.169986"></trkpt><trkpt lat="52.467804" lon="17.170235"></trkpt><trkpt lat="52.468064" lon="17.170301"></trkpt><trkpt lat="52.468691" lon="17.170552"></trkpt><trkpt lat="52.469036" lon="17.170777"></trkpt><trkpt lat="52.469389" lon="17.170845"></trkpt><trkpt lat="52.469441" lon="17.171294"></trkpt><trkpt lat="52.469464" lon="17.17185"></trkpt><trkpt lat="52.469802" lon="17.171883"></trkpt><trkpt lat="52.470082" lon="17.171949"></trkpt><trkpt lat="52.470275" lon="17.172117"></trkpt><trkpt lat="52.470503" lon="17.172178"></trkpt><trkpt lat="52.470895" lon="17.172226"></trkpt><trkpt lat="52.472845" lon="17.172708"></trkpt><trkpt lat="52.472845" lon="17.173074"></trkpt><trkpt lat="52.472813" lon="17.173514"></trkpt><trkpt lat="52.472806" lon="17.174224"></trkpt><trkpt lat="52.472979" lon="17.178134"></trkpt><trkpt lat="52.473309" lon="17.178718"></trkpt><trkpt lat="52.473972" lon="17.180119"></trkpt><trkpt lat="52.474061" lon="17.18066"></trkpt><trkpt lat="52.474083" lon="17.181359"></trkpt><trkpt lat="52.474051" lon="17.182468"></trkpt><trkpt lat="52.474093" lon="17.182908"></trkpt><trkpt lat="52.474277" lon="17.183148"></trkpt><trkpt lat="52.474869" lon="17.184043"></trkpt><trkpt lat="52.475831" lon="17.185734"></trkpt><trkpt lat="52.475753" lon="17.186283"></trkpt><trkpt lat="52.475725" lon="17.186715"></trkpt><trkpt lat="52.47576" lon="17.187245"></trkpt><trkpt lat="52.475859" lon="17.187706"></trkpt><trkpt lat="52.475898" lon="17.188155"></trkpt><trkpt lat="52.475949" lon="17.188509"></trkpt><trkpt lat="52.476156" lon="17.189576"></trkpt><trkpt lat="52.476274" lon="17.190054"></trkpt><trkpt lat="52.476327" lon="17.190434"></trkpt><trkpt lat="52.476324" lon="17.191013"></trkpt><trkpt lat="52.476516" lon="17.191129"></trkpt><trkpt lat="52.476746" lon="17.191171"></trkpt><trkpt lat="52.476966" lon="17.191255"></trkpt><trkpt lat="52.47708" lon="17.190848"></trkpt><trkpt lat="52.476903" lon="17.190387"></trkpt><trkpt lat="52.476684" lon="17.190128"></trkpt><trkpt lat="52.47651" lon="17.189885"></trkpt><trkpt lat="52.47629" lon="17.189658"></trkpt><trkpt lat="52.476305" lon="17.190221"></trkpt><trkpt lat="52.476279" lon="17.190881"></trkpt><trkpt lat="52.476212" lon="17.191428"></trkpt><trkpt lat="52.476185" lon="17.191789"></trkpt><trkpt lat="52.476186" lon="17.194092"></trkpt><trkpt lat="52.476497" lon="17.194129"></trkpt><trkpt lat="52.479535" lon="17.193334"></trkpt><trkpt lat="52.479462" lon="17.192937"></trkpt><trkpt lat="52.479086" lon="17.190177"></trkpt><trkpt lat="52.479076" lon="17.189804"></trkpt><trkpt lat="52.479121" lon="17.187052"></trkpt><trkpt lat="52.479374" lon="17.187313"></trkpt><trkpt lat="52.491644" lon="17.199004"></trkpt><trkpt lat="52.491989" lon="17.19915"></trkpt><trkpt lat="52.505529" lon="17.206436"></trkpt><trkpt lat="52.505839" lon="17.20675"></trkpt><trkpt lat="52.506068" lon="17.207159"></trkpt><trkpt lat="52.506448" lon="17.207745"></trkpt><trkpt lat="52.506537" lon="17.208093"></trkpt><trkpt lat="52.506466" lon="17.208654"></trkpt><trkpt lat="52.506458" lon="17.20922"></trkpt><trkpt lat="52.506416" lon="17.209902"></trkpt><trkpt lat="52.506448" lon="17.210641"></trkpt><trkpt lat="52.50643" lon="17.211111"></trkpt><trkpt lat="52.506379" lon="17.21158"></trkpt><trkpt lat="52.506326" lon="17.213401"></trkpt><trkpt lat="52.506638" lon="17.213518"></trkpt><trkpt lat="52.506899" lon="17.21358"></trkpt><trkpt lat="52.507185" lon="17.213832"></trkpt><trkpt lat="52.507806" lon="17.214517"></trkpt><trkpt lat="52.507678" lon="17.215035"></trkpt><trkpt lat="52.507761" lon="17.21535"></trkpt><trkpt lat="52.507995" lon="17.215909"></trkpt><trkpt lat="52.516343" lon="17.234837"></trkpt><trkpt lat="52.522259" lon="17.250537"></trkpt><trkpt lat="52.522002" lon="17.250984"></trkpt><trkpt lat="52.521066" lon="17.253063"></trkpt><trkpt lat="52.521258" lon="17.253517"></trkpt><trkpt lat="52.521528" lon="17.253922"></trkpt><trkpt lat="52.521848" lon="17.254316"></trkpt><trkpt lat="52.523574" lon="17.256779"></trkpt><trkpt lat="52.534392" lon="17.269689"></trkpt><trkpt lat="52.534446" lon="17.269167"></trkpt><trkpt lat="52.537032" lon="17.253175"></trkpt><trkpt lat="52.537399" lon="17.252622"></trkpt><trkpt lat="52.538467" lon="17.251319"></trkpt><trkpt lat="52.53895" lon="17.250525"></trkpt><trkpt lat="52.539083" lon="17.250254"></trkpt><trkpt lat="52.539321" lon="17.250043"></trkpt><trkpt lat="52.539572" lon="17.249887"></trkpt><trkpt lat="52.539838" lon="17.249611"></trkpt><trkpt lat="52.540559" lon="17.249159"></trkpt><trkpt lat="52.540831" lon="17.249068"></trkpt><trkpt lat="52.547964" lon="17.245736"></trkpt><trkpt lat="52.54822" lon="17.245441"></trkpt><trkpt lat="52.552497" lon="17.24125"></trkpt><trkpt lat="52.552798" lon="17.241214"></trkpt><trkpt lat="52.554182" lon="17.240885"></trkpt><trkpt lat="52.554188" lon="17.240395"></trkpt><trkpt lat="52.554243" lon="17.239816"></trkpt><trkpt lat="52.554336" lon="17.239406"></trkpt><trkpt lat="52.554506" lon="17.239165"></trkpt><trkpt lat="52.554929" lon="17.238817"></trkpt><trkpt lat="52.555235" lon="17.238614"></trkpt><trkpt lat="52.555612" lon="17.238274"></trkpt><trkpt lat="52.555819" lon="17.237899"></trkpt><trkpt lat="52.556008" lon="17.237296"></trkpt><trkpt lat="52.556108" lon="17.236794"></trkpt><trkpt lat="52.556161" lon="17.236413"></trkpt><trkpt lat="52.556537" lon="17.234548"></trkpt><trkpt lat="52.556703" lon="17.234112"></trkpt><trkpt lat="52.557295" lon="17.232802"></trkpt><trkpt lat="52.557513" lon="17.232554"></trkpt><trkpt lat="52.557723" lon="17.232275"></trkpt><trkpt lat="52.557995" lon="17.23224"></trkpt><trkpt lat="52.561546" lon="17.232204"></trkpt><trkpt lat="52.561767" lon="17.232273"></trkpt><trkpt lat="52.575692" lon="17.237603"></trkpt><trkpt lat="52.578103" lon="17.238053"></trkpt><trkpt lat="52.578279" lon="17.2379"></trkpt><trkpt lat="52.57888" lon="17.237282"></trkpt><trkpt lat="52.579168" lon="17.237071"></trkpt><trkpt lat="52.579417" lon="17.236972"></trkpt><trkpt lat="52.580901" lon="17.236195"></trkpt><trkpt lat="52.583291" lon="17.234542"></trkpt><trkpt lat="52.583481" lon="17.234237"></trkpt><trkpt lat="52.584932" lon="17.231483"></trkpt><trkpt lat="52.585244" lon="17.230725"></trkpt><trkpt lat="52.589549" lon="17.221696"></trkpt><trkpt lat="52.590062" lon="17.221187"></trkpt><trkpt lat="52.593932" lon="17.216667"></trkpt><trkpt lat="52.594012" lon="17.216352"></trkpt><trkpt lat="52.599454" lon="17.199968"></trkpt><trkpt lat="52.59973" lon="17.199946"></trkpt><trkpt lat="52.603026" lon="17.199037"></trkpt><trkpt lat="52.603487" lon="17.198618"></trkpt><trkpt lat="52.611774" lon="17.189783"></trkpt><trkpt lat="52.611941" lon="17.189566"></trkpt><trkpt lat="52.612871" lon="17.188625"></trkpt><trkpt lat="52.614025" lon="17.187242"></trkpt><trkpt lat="52.614235" lon="17.186884"></trkpt><trkpt lat="52.616061" lon="17.183237"></trkpt><trkpt lat="52.616183" lon="17.182812"></trkpt><trkpt lat="52.616414" lon="17.181834"></trkpt><trkpt lat="52.61668" lon="17.180987"></trkpt><trkpt lat="52.616835" lon="17.180768"></trkpt><trkpt lat="52.617056" lon="17.180607"></trkpt><trkpt lat="52.617299" lon="17.180533"></trkpt><trkpt lat="52.617561" lon="17.180349"></trkpt><trkpt lat="52.617751" lon="17.179906"></trkpt><trkpt lat="52.617829" lon="17.179308"></trkpt><trkpt lat="52.618344" lon="17.176786"></trkpt><trkpt lat="52.618551" lon="17.176096"></trkpt><trkpt lat="52.620817" lon="17.16989"></trkpt><trkpt lat="52.621215" lon="17.169582"></trkpt><trkpt lat="52.62157" lon="17.169365"></trkpt><trkpt lat="52.621931" lon="17.169215"></trkpt><trkpt lat="52.622129" lon="17.169045"></trkpt><trkpt lat="52.622486" lon="17.168829"></trkpt><trkpt lat="52.622745" lon="17.168581"></trkpt><trkpt lat="52.622968" lon="17.168303"></trkpt><trkpt lat="52.623306" lon="17.167815"></trkpt><trkpt lat="52.623432" lon="17.167485"></trkpt><trkpt lat="52.623559" lon="17.166877"></trkpt><trkpt lat="52.623692" lon="17.166044"></trkpt><trkpt lat="52.624155" lon="17.163875"></trkpt><trkpt lat="52.62448" lon="17.163112"></trkpt><trkpt lat="52.628393" lon="17.152236"></trkpt><trkpt lat="52.628452" lon="17.151627"></trkpt><trkpt lat="52.628632" lon="17.150384"></trkpt><trkpt lat="52.628771" lon="17.149933"></trkpt><trkpt lat="52.631547" lon="17.142302"></trkpt><trkpt lat="52.632077" lon="17.142362"></trkpt><trkpt lat="52.632748" lon="17.142627"></trkpt><trkpt lat="52.633096" lon="17.142713"></trkpt><trkpt lat="52.633867" lon="17.143021"></trkpt><trkpt lat="52.634011" lon="17.143287"></trkpt><trkpt lat="52.634196" lon="17.14353"></trkpt><trkpt lat="52.634386" lon="17.143743"></trkpt></trkseg></trk></gpx>