<?xml version="1.0" encoding="UTF-8" standalone="no" ?><gpx xmlns="http://www.topografix.com/GPX/1/1" xmlns:gpxx="http://www.garmin.com/xmlschemas/GpxExtensions/v3" ><trk><trkseg><trkpt lat="52.663344" lon="16.079296"></trkpt><trkpt lat="52.662878" lon="16.079378"></trkpt><trkpt lat="52.662262" lon="16.079567"></trkpt><trkpt lat="52.661335" lon="16.079702"></trkpt><trkpt lat="52.659484" lon="16.080388"></trkpt><trkpt lat="52.659278" lon="16.081111"></trkpt><trkpt lat="52.659074" lon="16.081213"></trkpt><trkpt lat="52.658805" lon="16.081271"></trkpt><trkpt lat="52.65842" lon="16.081431"></trkpt><trkpt lat="52.658371" lon="16.081927"></trkpt><trkpt lat="52.658003" lon="16.081909"></trkpt><trkpt lat="52.656997" lon="16.081728"></trkpt><trkpt lat="52.657036" lon="16.081377"></trkpt><trkpt lat="52.656796" lon="16.081315"></trkpt><trkpt lat="52.65602" lon="16.081217"></trkpt><trkpt lat="52.655213" lon="16.081019"></trkpt><trkpt lat="52.653826" lon="16.080991"></trkpt><trkpt lat="52.652768" lon="16.080842"></trkpt><trkpt lat="52.651638" lon="16.080541"></trkpt><trkpt lat="52.651684" lon="16.080097"></trkpt><trkpt lat="52.651608" lon="16.079725"></trkpt><trkpt lat="52.651292" lon="16.079708"></trkpt><trkpt lat="52.650962" lon="16.079769"></trkpt><trkpt lat="52.650889" lon="16.080077"></trkpt><trkpt lat="52.650955" lon="16.08085"></trkpt><trkpt lat="52.650968" lon="16.081336"></trkpt><trkpt lat="52.650463" lon="16.081512"></trkpt><trkpt lat="52.650207" lon="16.081835"></trkpt><trkpt lat="52.650069" lon="16.082097"></trkpt><trkpt lat="52.649721" lon="16.08164"></trkpt><trkpt lat="52.649864" lon="16.08192"></trkpt><trkpt lat="52.650037" lon="16.082143"></trkpt><trkpt lat="52.650326" lon="16.08167"></trkpt><trkpt lat="52.65076" lon="16.081479"></trkpt><trkpt lat="52.651573" lon="16.081002"></trkpt><trkpt lat="52.651621" lon="16.080665"></trkpt><trkpt lat="52.652148" lon="16.080756"></trkpt><trkpt lat="52.653851" lon="16.080782"></trkpt><trkpt lat="52.653877" lon="16.0794"></trkpt><trkpt lat="52.653769" lon="16.077918"></trkpt><trkpt lat="52.653715" lon="16.077538"></trkpt><trkpt lat="52.653831" lon="16.077224"></trkpt><trkpt lat="52.654225" lon="16.0764"></trkpt><trkpt lat="52.654389" lon="16.076146"></trkpt><trkpt lat="52.654521" lon="16.075867"></trkpt><trkpt lat="52.654777" lon="16.075078"></trkpt><trkpt lat="52.654929" lon="16.074803"></trkpt><trkpt lat="52.655237" lon="16.074544"></trkpt><trkpt lat="52.655454" lon="16.074311"></trkpt><trkpt lat="52.655694" lon="16.073703"></trkpt><trkpt lat="52.655811" lon="16.073296"></trkpt><trkpt lat="52.655776" lon="16.072728"></trkpt><trkpt lat="52.655617" lon="16.07142"></trkpt><trkpt lat="52.655539" lon="16.07027"></trkpt><trkpt lat="52.655603" lon="16.069343"></trkpt><trkpt lat="52.655622" lon="16.068258"></trkpt><trkpt lat="52.655555" lon="16.067795"></trkpt><trkpt lat="52.65548" lon="16.06747"></trkpt><trkpt lat="52.655287" lon="16.066364"></trkpt><trkpt lat="52.655162" lon="16.065201"></trkpt><trkpt lat="52.654768" lon="16.064802"></trkpt><trkpt lat="52.654893" lon="16.064367"></trkpt><trkpt lat="52.655013" lon="16.064068"></trkpt><trkpt lat="52.655339" lon="16.063046"></trkpt><trkpt lat="52.655146" lon="16.062851"></trkpt><trkpt lat="52.654952" lon="16.062621"></trkpt><trkpt lat="52.654396" lon="16.062064"></trkpt><trkpt lat="52.654752" lon="16.062393"></trkpt><trkpt lat="52.654948" lon="16.062536"></trkpt><trkpt lat="52.655227" lon="16.061781"></trkpt><trkpt lat="52.655169" lon="16.06144"></trkpt><trkpt lat="52.65495" lon="16.061178"></trkpt><trkpt lat="52.654733" lon="16.06096"></trkpt><trkpt lat="52.654372" lon="16.060666"></trkpt><trkpt lat="52.654182" lon="16.060764"></trkpt><trkpt lat="52.654567" lon="16.060815"></trkpt><trkpt lat="52.654886" lon="16.061136"></trkpt><trkpt lat="52.65529" lon="16.061471"></trkpt><trkpt lat="52.655594" lon="16.060764"></trkpt><trkpt lat="52.655698" lon="16.060252"></trkpt><trkpt lat="52.656299" lon="16.055186"></trkpt><trkpt lat="52.655945" lon="16.05518"></trkpt><trkpt lat="52.655482" lon="16.055298"></trkpt><trkpt lat="52.655196" lon="16.055291"></trkpt><trkpt lat="52.655099" lon="16.054703"></trkpt><trkpt lat="52.65509" lon="16.054354"></trkpt><trkpt lat="52.654962" lon="16.05402"></trkpt><trkpt lat="52.654999" lon="16.053565"></trkpt><trkpt lat="52.654985" lon="16.053216"></trkpt><trkpt lat="52.65489" lon="16.052275"></trkpt><trkpt lat="52.654694" lon="16.052159"></trkpt><trkpt lat="52.654517" lon="16.051983"></trkpt><trkpt lat="52.654206" lon="16.051743"></trkpt><trkpt lat="52.653905" lon="16.051643"></trkpt><trkpt lat="52.653624" lon="16.051487"></trkpt><trkpt lat="52.653478" lon="16.051245"></trkpt><trkpt lat="52.653378" lon="16.050948"></trkpt><trkpt lat="52.653103" lon="16.050913"></trkpt><trkpt lat="52.652276" lon="16.051118"></trkpt><trkpt lat="52.65196" lon="16.051307"></trkpt><trkpt lat="52.651629" lon="16.051306"></trkpt><trkpt lat="52.651296" lon="16.051068"></trkpt><trkpt lat="52.650959" lon="16.050771"></trkpt><trkpt lat="52.650834" lon="16.050502"></trkpt><trkpt lat="52.65079" lon="16.049849"></trkpt><trkpt lat="52.650702" lon="16.049202"></trkpt><trkpt lat="52.650686" lon="16.048838"></trkpt><trkpt lat="52.650705" lon="16.048151"></trkpt><trkpt lat="52.650939" lon="16.047391"></trkpt><trkpt lat="52.651157" lon="16.046894"></trkpt><trkpt lat="52.650935" lon="16.046654"></trkpt><trkpt lat="52.650938" lon="16.046092"></trkpt><trkpt lat="52.651062" lon="16.045569"></trkpt><trkpt lat="52.65106" lon="16.045203"></trkpt><trkpt lat="52.651153" lon="16.044527"></trkpt><trkpt lat="52.651025" lon="16.044115"></trkpt><trkpt lat="52.650886" lon="16.043833"></trkpt><trkpt lat="52.650781" lon="16.043519"></trkpt><trkpt lat="52.650654" lon="16.043238"></trkpt><trkpt lat="52.650697" lon="16.042886"></trkpt><trkpt lat="52.650679" lon="16.042337"></trkpt><trkpt lat="52.650558" lon="16.041688"></trkpt><trkpt lat="52.650439" lon="16.04125"></trkpt><trkpt lat="52.650406" lon="16.040778"></trkpt><trkpt lat="52.650509" lon="16.040226"></trkpt><trkpt lat="52.650872" lon="16.038747"></trkpt><trkpt lat="52.651017" lon="16.038369"></trkpt><trkpt lat="52.651224" lon="16.038019"></trkpt><trkpt lat="52.650878" lon="16.037575"></trkpt><trkpt lat="52.650662" lon="16.037436"></trkpt><trkpt lat="52.645597" lon="16.034999"></trkpt><trkpt lat="52.645198" lon="16.034983"></trkpt><trkpt lat="52.644904" lon="16.034844"></trkpt><trkpt lat="52.64472" lon="16.034629"></trkpt><trkpt lat="52.64451" lon="16.034146"></trkpt><trkpt lat="52.644373" lon="16.033678"></trkpt><trkpt lat="52.64404" lon="16.032222"></trkpt><trkpt lat="52.64448" lon="16.031946"></trkpt><trkpt lat="52.645666" lon="16.031362"></trkpt><trkpt lat="52.645886" lon="16.031209"></trkpt><trkpt lat="52.651765" lon="16.027897"></trkpt><trkpt lat="52.653411" lon="16.026635"></trkpt><trkpt lat="52.65574" lon="16.025209"></trkpt><trkpt lat="52.65605" lon="16.02515"></trkpt><trkpt lat="52.656352" lon="16.025132"></trkpt><trkpt lat="52.657097" lon="16.025274"></trkpt><trkpt lat="52.657296" lon="16.025083"></trkpt><trkpt lat="52.657533" lon="16.025102"></trkpt><trkpt lat="52.660384" lon="16.024511"></trkpt><trkpt lat="52.66064" lon="16.024383"></trkpt><trkpt lat="52.661914" lon="16.023937"></trkpt><trkpt lat="52.662331" lon="16.023916"></trkpt><trkpt lat="52.66381" lon="16.023654"></trkpt><trkpt lat="52.664065" lon="16.02355"></trkpt><trkpt lat="52.664755" lon="16.023354"></trkpt><trkpt lat="52.665287" lon="16.023722"></trkpt><trkpt lat="52.665564" lon="16.023813"></trkpt><trkpt lat="52.665874" lon="16.023811"></trkpt><trkpt lat="52.66614" lon="16.023771"></trkpt><trkpt lat="52.667188" lon="16.023459"></trkpt><trkpt lat="52.667424" lon="16.023341"></trkpt><trkpt lat="52.668349" lon="16.023065"></trkpt><trkpt lat="52.668519" lon="16.023247"></trkpt><trkpt lat="52.668762" lon="16.023437"></trkpt><trkpt lat="52.669199" lon="16.023877"></trkpt><trkpt lat="52.669379" lon="16.024121"></trkpt><trkpt lat="52.669771" lon="16.024575"></trkpt><trkpt lat="52.670046" lon="16.02512"></trkpt><trkpt lat="52.670173" lon="16.025488"></trkpt><trkpt lat="52.670349" lon="16.025873"></trkpt><trkpt lat="52.670608" lon="16.026264"></trkpt><trkpt lat="52.671202" lon="16.027632"></trkpt><trkpt lat="52.671294" lon="16.028079"></trkpt><trkpt lat="52.671348" lon="16.028495"></trkpt><trkpt lat="52.671453" lon="16.028905"></trkpt><trkpt lat="52.671544" lon="16.029428"></trkpt><trkpt lat="52.671574" lon="16.030002"></trkpt><trkpt lat="52.671451" lon="16.030346"></trkpt><trkpt lat="52.671746" lon="16.030803"></trkpt><trkpt lat="52.671939" lon="16.031056"></trkpt><trkpt lat="52.67234" lon="16.03172"></trkpt><trkpt lat="52.672539" lon="16.032113"></trkpt><trkpt lat="52.672724" lon="16.032366"></trkpt><trkpt lat="52.672952" lon="16.032729"></trkpt><trkpt lat="52.673194" lon="16.032982"></trkpt><trkpt lat="52.673425" lon="16.033182"></trkpt><trkpt lat="52.674824" lon="16.034625"></trkpt><trkpt lat="52.675008" lon="16.03555"></trkpt><trkpt lat="52.675522" lon="16.039173"></trkpt><trkpt lat="52.675543" lon="16.0396"></trkpt><trkpt lat="52.675368" lon="16.040294"></trkpt><trkpt lat="52.67524" lon="16.040698"></trkpt><trkpt lat="52.67494" lon="16.041895"></trkpt><trkpt lat="52.674879" lon="16.042383"></trkpt><trkpt lat="52.674794" lon="16.042874"></trkpt><trkpt lat="52.674718" lon="16.043187"></trkpt><trkpt lat="52.674498" lon="16.043729"></trkpt><trkpt lat="52.673096" lon="16.046681"></trkpt><trkpt lat="52.672846" lon="16.047129"></trkpt><trkpt lat="52.672291" lon="16.047971"></trkpt><trkpt lat="52.672105" lon="16.048491"></trkpt><trkpt lat="52.671837" lon="16.048969"></trkpt><trkpt lat="52.666926" lon="16.057838"></trkpt><trkpt lat="52.664582" lon="16.062744"></trkpt><trkpt lat="52.664402" lon="16.063484"></trkpt><trkpt lat="52.664342" lon="16.063843"></trkpt><trkpt lat="52.664228" lon="16.064819"></trkpt><trkpt lat="52.664244" lon="16.06543"></trkpt><trkpt lat="52.664311" lon="16.066128"></trkpt><trkpt lat="52.664381" lon="16.06656"></trkpt><trkpt lat="52.664439" lon="16.067134"></trkpt><trkpt lat="52.664348" lon="16.067749"></trkpt><trkpt lat="52.664085" lon="16.068371"></trkpt><trkpt lat="52.663734" lon="16.068965"></trkpt><trkpt lat="52.662977" lon="16.070669"></trkpt><trkpt lat="52.662784" lon="16.071581"></trkpt><trkpt lat="52.662628" lon="16.071868"></trkpt><trkpt lat="52.662136" lon="16.07248"></trkpt><trkpt lat="52.658729" lon="16.075829"></trkpt><trkpt lat="52.658208" lon="16.076013"></trkpt><trkpt lat="52.657667" lon="16.0763"></trkpt><trkpt lat="52.657122" lon="16.076751"></trkpt><trkpt lat="52.656458" lon="16.077414"></trkpt><trkpt lat="52.656399" lon="16.077727"></trkpt><trkpt lat="52.656494" lon="16.078464"></trkpt><trkpt lat="52.656919" lon="16.080715"></trkpt><trkpt lat="52.656985" lon="16.081196"></trkpt><trkpt lat="52.656154" lon="16.081227"></trkpt><trkpt lat="52.655663" lon="16.081115"></trkpt><trkpt lat="52.655456" lon="16.081031"></trkpt><trkpt lat="52.65515" lon="16.080983"></trkpt><trkpt lat="52.653826" lon="16.081033"></trkpt><trkpt lat="52.652814" lon="16.080854"></trkpt><trkpt lat="52.65166" lon="16.08051"></trkpt><trkpt lat="52.65172" lon="16.08004"></trkpt><trkpt lat="52.651635" lon="16.079701"></trkpt><trkpt lat="52.651448" lon="16.079586"></trkpt><trkpt lat="52.651175" lon="16.079626"></trkpt><trkpt lat="52.650925" lon="16.079813"></trkpt><trkpt lat="52.650973" lon="16.080661"></trkpt><trkpt lat="52.651066" lon="16.081375"></trkpt><trkpt lat="52.65152" lon="16.081188"></trkpt><trkpt lat="52.651621" lon="16.080779"></trkpt><trkpt lat="52.652244" lon="16.08081"></trkpt><trkpt lat="52.652693" lon="16.080914"></trkpt><trkpt lat="52.658483" lon="16.081403"></trkpt><trkpt lat="52.659012" lon="16.081249"></trkpt><trkpt lat="52.65934" lon="16.08108"></trkpt><trkpt lat="52.659431" lon="16.080742"></trkpt><trkpt lat="52.659773" lon="16.080116"></trkpt><trkpt lat="52.660184" lon="16.080007"></trkpt><trkpt lat="52.660552" lon="16.07986"></trkpt><trkpt lat="52.660961" lon="16.079775"></trkpt><trkpt lat="52.661716" lon="16.079736"></trkpt><trkpt lat="52.662031" lon="16.079676"></trkpt><trkpt lat="52.662836" lon="16.079412"></trkpt><trkpt lat="52.663056" lon="16.079374"></trkpt><trkpt lat="52.664384" lon="16.078841"></trkpt></trkseg></trk></gpx>