<?xml version="1.0" encoding="UTF-8" standalone="no" ?><gpx xmlns="http://www.topografix.com/GPX/1/1" xmlns:gpxx="http://www.garmin.com/xmlschemas/GpxExtensions/v3" ><trk><trkseg><trkpt lat="52.4628599267" lon="16.9585722685"></trkpt><trkpt lat="52.4624557514" lon="16.9590557367"></trkpt><trkpt lat="52.4621882848" lon="16.9589288346"></trkpt><trkpt lat="52.4607234634" lon="16.9586088974"></trkpt><trkpt lat="52.4606729206" lon="16.9590981491"></trkpt><trkpt lat="52.4606063683" lon="16.9606633857"></trkpt><trkpt lat="52.4606848229" lon="16.9611051958"></trkpt><trkpt lat="52.4615524337" lon="16.9646663312"></trkpt><trkpt lat="52.4617918208" lon="16.9651093986"></trkpt><trkpt lat="52.4627203681" lon="16.96725877"></trkpt><trkpt lat="52.4628679734" lon="16.9678384624"></trkpt><trkpt lat="52.4629389681" lon="16.9684209209"></trkpt><trkpt lat="52.4630553927" lon="16.9689175487"></trkpt><trkpt lat="52.4630637746" lon="16.9695245661"></trkpt><trkpt lat="52.4630331807" lon="16.9700351916"></trkpt><trkpt lat="52.4629154988" lon="16.9704394508"></trkpt><trkpt lat="52.4628804624" lon="16.970952088"></trkpt><trkpt lat="52.4627243914" lon="16.9713726919"></trkpt><trkpt lat="52.462605536" lon="16.9718702417"></trkpt><trkpt lat="52.4624255765" lon="16.9723469205"></trkpt><trkpt lat="52.4620611314" lon="16.9735466223"></trkpt><trkpt lat="52.4616059102" lon="16.9755017851"></trkpt><trkpt lat="52.4619027134" lon="16.9756528269"></trkpt><trkpt lat="52.4635852966" lon="16.9750658423"></trkpt><trkpt lat="52.4638774898" lon="16.9750162214"></trkpt><trkpt lat="52.4648749363" lon="16.9750208315"></trkpt><trkpt lat="52.465193281" lon="16.9750807621"></trkpt><trkpt lat="52.4671708234" lon="16.9750980288"></trkpt><trkpt lat="52.4672439974" lon="16.974597713"></trkpt><trkpt lat="52.4675444048" lon="16.9743895903"></trkpt><trkpt lat="52.4678276293" lon="16.9742927793"></trkpt><trkpt lat="52.467547087" lon="16.9744133111"></trkpt><trkpt lat="52.4675037526" lon="16.9748966955"></trkpt><trkpt lat="52.4676384497" lon="16.9752825145"></trkpt><trkpt lat="52.4673897587" lon="16.9750445522"></trkpt><trkpt lat="52.4672393873" lon="16.9745845534"></trkpt><trkpt lat="52.467548931" lon="16.9743813761"></trkpt><trkpt lat="52.467838442" lon="16.9742490258"></trkpt><trkpt lat="52.4683257658" lon="16.9742134027"></trkpt><trkpt lat="52.4686701782" lon="16.9743206073"></trkpt><trkpt lat="52.4689765368" lon="16.9743475132"></trkpt><trkpt lat="52.4693205301" lon="16.9742520433"></trkpt><trkpt lat="52.4695554748" lon="16.9744868204"></trkpt><trkpt lat="52.4698200915" lon="16.9743771851"></trkpt><trkpt lat="52.4701399449" lon="16.9744451623"></trkpt><trkpt lat="52.4703186471" lon="16.974065965"></trkpt><trkpt lat="52.4706830923" lon="16.9739057031"></trkpt><trkpt lat="52.4709342979" lon="16.973739909"></trkpt><trkpt lat="52.4716196023" lon="16.9731556065"></trkpt><trkpt lat="52.472849898" lon="16.9718122389"></trkpt><trkpt lat="52.4727677554" lon="16.9712342229"></trkpt><trkpt lat="52.4727439508" lon="16.9707210828"></trkpt><trkpt lat="52.4726764765" lon="16.9702372793"></trkpt><trkpt lat="52.4725595489" lon="16.9698166754"></trkpt><trkpt lat="52.4723837804" lon="16.9693431817"></trkpt><trkpt lat="52.4723672681" lon="16.968892822"></trkpt><trkpt lat="52.4724159669" lon="16.968355123"></trkpt><trkpt lat="52.4725136161" lon="16.9678970519"></trkpt><trkpt lat="52.4726203177" lon="16.9671699218"></trkpt><trkpt lat="52.4727215711" lon="16.9659173302"></trkpt><trkpt lat="52.4723958503" lon="16.9659429789"></trkpt><trkpt lat="52.4662541784" lon="16.9645630661"></trkpt><trkpt lat="52.4662373308" lon="16.9641131256"></trkpt><trkpt lat="52.466253927" lon="16.9631769508"></trkpt><trkpt lat="52.466198355" lon="16.9620706234"></trkpt><trkpt lat="52.465920914" lon="16.9617606606"></trkpt><trkpt lat="52.4638219178" lon="16.9598373491"></trkpt><trkpt lat="52.4632592406" lon="16.9594458304"></trkpt><trkpt lat="52.462944584" lon="16.9592990633"></trkpt><trkpt lat="52.4627585057" lon="16.958941156"></trkpt><trkpt lat="52.4628194422" lon="16.9584268425"></trkpt></trkseg></trk></gpx>