<?xml version="1.0" encoding="UTF-8" standalone="no" ?><gpx xmlns="http://www.topografix.com/GPX/1/1" xmlns:gpxx="http://www.garmin.com/xmlschemas/GpxExtensions/v3" ><trk><trkseg><trkpt lat="49.2916525248" lon="22.1108205244"></trkpt><trkpt lat="49.2929408234" lon="22.1119324677"></trkpt><trkpt lat="49.2932148278" lon="22.1120244171"></trkpt><trkpt lat="49.2934768461" lon="22.1121845115"></trkpt><trkpt lat="49.2937667761" lon="22.1124091465"></trkpt><trkpt lat="49.2939807661" lon="22.1126831509"></trkpt><trkpt lat="49.2942169681" lon="22.1128911898"></trkpt><trkpt lat="49.2943669204" lon="22.1132879052"></trkpt><trkpt lat="49.2945757974" lon="22.1135896537"></trkpt><trkpt lat="49.29484603" lon="22.1138475649"></trkpt><trkpt lat="49.295135038" lon="22.1139970981"></trkpt><trkpt lat="49.2953910213" lon="22.1142118424"></trkpt><trkpt lat="49.2955820449" lon="22.1145207155"></trkpt><trkpt lat="49.2957024928" lon="22.1149502043"></trkpt><trkpt lat="49.2957478389" lon="22.115387572"></trkpt><trkpt lat="49.2958489247" lon="22.1158489119"></trkpt><trkpt lat="49.2960018106" lon="22.1163039654"></trkpt><trkpt lat="49.2964719515" lon="22.1172729973"></trkpt><trkpt lat="49.296733886" lon="22.117379196"></trkpt><trkpt lat="49.2970497161" lon="22.1175679564"></trkpt><trkpt lat="49.2973512132" lon="22.1178122051"></trkpt><trkpt lat="49.2976207752" lon="22.1179002989"></trkpt><trkpt lat="49.2988907173" lon="22.1177474968"></trkpt><trkpt lat="49.2992777936" lon="22.1178698726"></trkpt><trkpt lat="49.2995900195" lon="22.1178804338"></trkpt><trkpt lat="49.2998884153" lon="22.1178191621"></trkpt><trkpt lat="49.3002647627" lon="22.1176564693"></trkpt><trkpt lat="49.3007601332" lon="22.1175135579"></trkpt><trkpt lat="49.3010802381" lon="22.1173149906"></trkpt><trkpt lat="49.301703684" lon="22.1170283295"></trkpt><trkpt lat="49.3020210229" lon="22.1169987414"></trkpt><trkpt lat="49.3025786709" lon="22.1171441674"></trkpt><trkpt lat="49.3028341513" lon="22.1173232887"></trkpt><trkpt lat="49.3034410011" lon="22.11761171"></trkpt><trkpt lat="49.3038456794" lon="22.1177405398"></trkpt><trkpt lat="49.3042162433" lon="22.1179172304"></trkpt><trkpt lat="49.3045033235" lon="22.1181434579"></trkpt><trkpt lat="49.3047541939" lon="22.1183901373"></trkpt><trkpt lat="49.3052786496" lon="22.1190202888"></trkpt><trkpt lat="49.3054491375" lon="22.1193572413"></trkpt><trkpt lat="49.3064755853" lon="22.1210305206"></trkpt><trkpt lat="49.3068386894" lon="22.1210720949"></trkpt><trkpt lat="49.3071521726" lon="22.1211632062"></trkpt><trkpt lat="49.3076207209" lon="22.1212173533"></trkpt><trkpt lat="49.3078909535" lon="22.1211487893"></trkpt><trkpt lat="49.3086598255" lon="22.1210869309"></trkpt><trkpt lat="49.309874028" lon="22.1208115015"></trkpt><trkpt lat="49.310163036" lon="22.1203792468"></trkpt><trkpt lat="49.3102531414" lon="22.1199649293"></trkpt><trkpt lat="49.3103890959" lon="22.1195475105"></trkpt><trkpt lat="49.3106153235" lon="22.119318014"></trkpt><trkpt lat="49.3108664453" lon="22.1191648766"></trkpt><trkpt lat="49.311228795" lon="22.1188829932"></trkpt><trkpt lat="49.311387632" lon="22.1193470992"></trkpt><trkpt lat="49.3114722893" lon="22.1197753306"></trkpt><trkpt lat="49.311634982" lon="22.1201479062"></trkpt><trkpt lat="49.3118107505" lon="22.1204654127"></trkpt><trkpt lat="49.3120935559" lon="22.1206638962"></trkpt><trkpt lat="49.3123142514" lon="22.1209317818"></trkpt><trkpt lat="49.3124683946" lon="22.1214122325"></trkpt><trkpt lat="49.3125521298" lon="22.121841386"></trkpt><trkpt lat="49.3125997391" lon="22.1222593915"></trkpt><trkpt lat="49.3127941992" lon="22.1227633953"></trkpt><trkpt lat="49.3132474087" lon="22.1242691204"></trkpt><trkpt lat="49.313402893" lon="22.1249868628"></trkpt><trkpt lat="49.3135903124" lon="22.1262773406"></trkpt><trkpt lat="49.3139497284" lon="22.1278456785"></trkpt><trkpt lat="49.3141040392" lon="22.1287851222"></trkpt><trkpt lat="49.3140602857" lon="22.129207151"></trkpt><trkpt lat="49.314049473" lon="22.1296428423"></trkpt><trkpt lat="49.3140952382" lon="22.1300797909"></trkpt><trkpt lat="49.3141287658" lon="22.1309847012"></trkpt><trkpt lat="49.3140638899" lon="22.131484095"></trkpt><trkpt lat="49.3140477128" lon="22.1319602709"></trkpt><trkpt lat="49.314080989" lon="22.1324439067"></trkpt><trkpt lat="49.3140814081" lon="22.1329190768"></trkpt><trkpt lat="49.3141135108" lon="22.1334213205"></trkpt><trkpt lat="49.3142441008" lon="22.1338043734"></trkpt><trkpt lat="49.3144525588" lon="22.1342072915"></trkpt><trkpt lat="49.3145509623" lon="22.1345968824"></trkpt><trkpt lat="49.3149831332" lon="22.1368997265"></trkpt><trkpt lat="49.3149439897" lon="22.137376992"></trkpt><trkpt lat="49.3149727397" lon="22.1378747933"></trkpt><trkpt lat="49.3150553014" lon="22.1383407433"></trkpt><trkpt lat="49.315081453" lon="22.1388351917"></trkpt><trkpt lat="49.3149416428" lon="22.1392814443"></trkpt><trkpt lat="49.3152165692" lon="22.1394202486"></trkpt><trkpt lat="49.315257892" lon="22.1398532577"></trkpt><trkpt lat="49.3153438065" lon="22.1403355524"></trkpt><trkpt lat="49.3154830299" lon="22.1408360358"></trkpt><trkpt lat="49.3156922422" lon="22.1426779591"></trkpt><trkpt lat="49.3155431282" lon="22.1431472618"></trkpt><trkpt lat="49.3152555451" lon="22.1437817719"></trkpt><trkpt lat="49.3150071055" lon="22.1444489714"></trkpt><trkpt lat="49.3149388768" lon="22.1449524723"></trkpt><trkpt lat="49.3148062751" lon="22.1454541292"></trkpt><trkpt lat="49.314805856" lon="22.1459075902"></trkpt><trkpt lat="49.3148860708" lon="22.1464280225"></trkpt><trkpt lat="49.3147887569" lon="22.1468218043"></trkpt><trkpt lat="49.3144749384" lon="22.1475906763"></trkpt><trkpt lat="49.3142701685" lon="22.1479604021"></trkpt><trkpt lat="49.3141075596" lon="22.1484794933"></trkpt><trkpt lat="49.3139047176" lon="22.1487938985"></trkpt><trkpt lat="49.3137709424" lon="22.149311481"></trkpt><trkpt lat="49.3134396896" lon="22.1502158884"></trkpt><trkpt lat="49.3132938445" lon="22.1507277712"></trkpt><trkpt lat="49.313274147" lon="22.151204031"></trkpt><trkpt lat="49.3132289685" lon="22.1516323462"></trkpt><trkpt lat="49.3132030685" lon="22.1522857156"></trkpt><trkpt lat="49.3133378495" lon="22.152759796"></trkpt><trkpt lat="49.3134038989" lon="22.1531871893"></trkpt><trkpt lat="49.3135787454" lon="22.153761182"></trkpt><trkpt lat="49.3138116784" lon="22.1541198436"></trkpt><trkpt lat="49.3140138499" lon="22.1545818541"></trkpt><trkpt lat="49.3141410034" lon="22.1550366562"></trkpt><trkpt lat="49.3143080547" lon="22.1553639695"></trkpt><trkpt lat="49.314493211" lon="22.1560532972"></trkpt><trkpt lat="49.3143390678" lon="22.1565254498"></trkpt><trkpt lat="49.3145095557" lon="22.1569149569"></trkpt><trkpt lat="49.3147408124" lon="22.1572004445"></trkpt><trkpt lat="49.3150543794" lon="22.1574866027"></trkpt><trkpt lat="49.3150796928" lon="22.1580522973"></trkpt><trkpt lat="49.3149774335" lon="22.1640047897"></trkpt><trkpt lat="49.3147080392" lon="22.1644507907"></trkpt><trkpt lat="49.3146440014" lon="22.1649525315"></trkpt><trkpt lat="49.314546939" lon="22.1653782483"></trkpt><trkpt lat="49.3144456856" lon="22.1660019457"></trkpt><trkpt lat="49.3144243956" lon="22.1665369626"></trkpt><trkpt lat="49.3142925482" lon="22.1669753361"></trkpt><trkpt lat="49.3142280914" lon="22.1674163081"></trkpt><trkpt lat="49.3140664045" lon="22.1677738801"></trkpt><trkpt lat="49.3139276002" lon="22.1673182398"></trkpt><trkpt lat="49.3140778039" lon="22.1676625684"></trkpt><trkpt lat="49.3137260992" lon="22.1675868798"></trkpt><trkpt lat="49.3139758799" lon="22.167820232"></trkpt><trkpt lat="49.3141089845" lon="22.1673326567"></trkpt><trkpt lat="49.3142809812" lon="22.1670109592"></trkpt><trkpt lat="49.314294057" lon="22.1665806323"></trkpt><trkpt lat="49.3144432548" lon="22.166182911"></trkpt><trkpt lat="49.3145200331" lon="22.1656973474"></trkpt><trkpt lat="49.314884143" lon="22.1642725077"></trkpt><trkpt lat="49.3151116278" lon="22.1640199609"></trkpt><trkpt lat="49.3153877277" lon="22.1642172709"></trkpt><trkpt lat="49.3156691082" lon="22.1641326137"></trkpt><trkpt lat="49.3156564515" lon="22.1635974292"></trkpt><trkpt lat="49.315527454" lon="22.1631941758"></trkpt><trkpt lat="49.3153003883" lon="22.16281984"></trkpt><trkpt lat="49.3150838837" lon="22.1623931173"></trkpt><trkpt lat="49.3150727358" lon="22.1617524046"></trkpt><trkpt lat="49.3146273214" lon="22.1570323035"></trkpt><trkpt lat="49.3143715058" lon="22.156382706"></trkpt><trkpt lat="49.3144655507" lon="22.1559479367"></trkpt><trkpt lat="49.3143362179" lon="22.155567063"></trkpt><trkpt lat="49.3141677417" lon="22.1552357264"></trkpt><trkpt lat="49.313912848" lon="22.1546149626"></trkpt><trkpt lat="49.3131714687" lon="22.1523720492"></trkpt><trkpt lat="49.3131802697" lon="22.1519194264"></trkpt><trkpt lat="49.3132402003" lon="22.1513621975"></trkpt><trkpt lat="49.3132431339" lon="22.1507728659"></trkpt><trkpt lat="49.3133537751" lon="22.1502997912"></trkpt><trkpt lat="49.31351915" lon="22.1498578135"></trkpt><trkpt lat="49.3147087097" lon="22.1472724993"></trkpt><trkpt lat="49.3147349451" lon="22.1467231493"></trkpt><trkpt lat="49.3148542196" lon="22.1462520026"></trkpt><trkpt lat="49.3147999886" lon="22.1456443146"></trkpt><trkpt lat="49.3148987275" lon="22.1452158317"></trkpt><trkpt lat="49.3149665371" lon="22.1447974071"></trkpt><trkpt lat="49.3152068462" lon="22.143767355"></trkpt><trkpt lat="49.3154747318" lon="22.1432423126"></trkpt><trkpt lat="49.3155849539" lon="22.1428588405"></trkpt><trkpt lat="49.3156592175" lon="22.1424011886"></trkpt><trkpt lat="49.315683106" lon="22.1419473086"></trkpt><trkpt lat="49.3156565353" lon="22.1415035706"></trkpt><trkpt lat="49.3154448923" lon="22.1409719065"></trkpt><trkpt lat="49.3153405376" lon="22.140472848"></trkpt><trkpt lat="49.3151154835" lon="22.1389109641"></trkpt><trkpt lat="49.3150028307" lon="22.1373077575"></trkpt><trkpt lat="49.3150355201" lon="22.1368533745"></trkpt><trkpt lat="49.314991096" lon="22.1364183538"></trkpt><trkpt lat="49.3148726597" lon="22.1357048023"></trkpt><trkpt lat="49.314535372" lon="22.1344787814"></trkpt><trkpt lat="49.3143119942" lon="22.1339114942"></trkpt><trkpt lat="49.3140214775" lon="22.1329898201"></trkpt><trkpt lat="49.3140192982" lon="22.1325509436"></trkpt><trkpt lat="49.313972611" lon="22.1321162581"></trkpt><trkpt lat="49.3140275124" lon="22.1316912957"></trkpt><trkpt lat="49.3141082302" lon="22.1302518714"></trkpt><trkpt lat="49.3140268419" lon="22.1298221312"></trkpt><trkpt lat="49.3140415102" lon="22.1294043772"></trkpt><trkpt lat="49.3140084017" lon="22.1285048313"></trkpt><trkpt lat="49.3138993531" lon="22.1280101314"></trkpt><trkpt lat="49.3116779812" lon="22.1202887222"></trkpt><trkpt lat="49.3115304597" lon="22.1199349221"></trkpt><trkpt lat="49.3114105985" lon="22.1193255577"></trkpt><trkpt lat="49.3112924974" lon="22.1189013496"></trkpt><trkpt lat="49.3109612446" lon="22.1191046108"></trkpt><trkpt lat="49.3106018286" lon="22.1193993185"></trkpt><trkpt lat="49.3102671392" lon="22.1198415477"></trkpt><trkpt lat="49.3101864215" lon="22.1202453878"></trkpt><trkpt lat="49.3099741917" lon="22.1206641477"></trkpt><trkpt lat="49.3097010255" lon="22.1209255792"></trkpt><trkpt lat="49.3093172181" lon="22.1210478712"></trkpt><trkpt lat="49.3087804411" lon="22.1211347077"></trkpt><trkpt lat="49.3079989962" lon="22.121154489"></trkpt><trkpt lat="49.3076070584" lon="22.1212512162"></trkpt><trkpt lat="49.3072806671" lon="22.1212409902"></trkpt><trkpt lat="49.3067806028" lon="22.1211514715"></trkpt><trkpt lat="49.3064537924" lon="22.1210466139"></trkpt><trkpt lat="49.3061515409" lon="22.1209053788"></trkpt><trkpt lat="49.3059635349" lon="22.1205276903"></trkpt><trkpt lat="49.3045526091" lon="22.1182459686"></trkpt><trkpt lat="49.3042098731" lon="22.1179918293"></trkpt><trkpt lat="49.3038475234" lon="22.1177864727"></trkpt><trkpt lat="49.3034966569" lon="22.1176796872"></trkpt><trkpt lat="49.302832894" lon="22.1173790284"></trkpt><trkpt lat="49.3025113642" lon="22.1171376295"></trkpt><trkpt lat="49.3022440653" lon="22.1170465183"></trkpt><trkpt lat="49.3018924445" lon="22.1170315146"></trkpt><trkpt lat="49.3011959922" lon="22.1172404755"></trkpt><trkpt lat="49.3009521626" lon="22.1175153181"></trkpt><trkpt lat="49.3005728815" lon="22.1175423916"></trkpt><trkpt lat="49.3001721427" lon="22.1177157294"></trkpt><trkpt lat="49.2998113018" lon="22.1178111993"></trkpt><trkpt lat="49.2993943859" lon="22.1178531926"></trkpt><trkpt lat="49.2990709282" lon="22.1177598182"></trkpt><trkpt lat="49.2981225997" lon="22.1176248696"></trkpt><trkpt lat="49.2978402134" lon="22.1178008057"></trkpt><trkpt lat="49.2975025065" lon="22.1178773325"></trkpt><trkpt lat="49.2971692421" lon="22.1177429706"></trkpt><trkpt lat="49.2969197966" lon="22.1175462473"></trkpt><trkpt lat="49.2960624956" lon="22.116673775"></trkpt><trkpt lat="49.2959396169" lon="22.116162898"></trkpt><trkpt lat="49.295793185" lon="22.1157247759"></trkpt><trkpt lat="49.2957159039" lon="22.1153244562"></trkpt><trkpt lat="49.2956533749" lon="22.1147823147"></trkpt><trkpt lat="49.295448605" lon="22.1143959928"></trkpt><trkpt lat="49.295194298" lon="22.1140903886"></trkpt><trkpt lat="49.2949282564" lon="22.1139279474"></trkpt><trkpt lat="49.2945860233" lon="22.1136268694"></trkpt><trkpt lat="49.2943560239" lon="22.1133087762"></trkpt><trkpt lat="49.2941157985" lon="22.1129120607"></trkpt><trkpt lat="49.2938792612" lon="22.1126188617"></trkpt><trkpt lat="49.2936027423" lon="22.112335721"></trkpt><trkpt lat="49.293249445" lon="22.1120956633"></trkpt><trkpt lat="49.2929763626" lon="22.1119727008"></trkpt><trkpt lat="49.2927160207" lon="22.1118153725"></trkpt><trkpt lat="49.2923173774" lon="22.1114711277"></trkpt><trkpt lat="49.289591331" lon="22.1101881098"></trkpt></trkseg></trk></gpx>