<?xml version="1.0" encoding="UTF-8" standalone="no" ?><gpx xmlns="http://www.topografix.com/GPX/1/1" xmlns:gpxx="http://www.garmin.com/xmlschemas/GpxExtensions/v3" ><trk><trkseg><trkpt lat="53.4009621106" lon="20.9528897703"></trkpt><trkpt lat="53.4017681144" lon="20.9531019162"></trkpt><trkpt lat="53.4027777147" lon="20.9531815443"></trkpt><trkpt lat="53.4065766446" lon="20.9542484768"></trkpt><trkpt lat="53.4075909387" lon="20.9553523734"></trkpt><trkpt lat="53.4088197257" lon="20.9570911992"></trkpt><trkpt lat="53.4308471996" lon="20.9829863347"></trkpt><trkpt lat="53.4326417651" lon="20.9846997634"></trkpt><trkpt lat="53.4484686423" lon="20.9960291628"></trkpt><trkpt lat="53.4502086416" lon="20.9963252954"></trkpt><trkpt lat="53.4626222402" lon="20.9965368547"></trkpt><trkpt lat="53.4637979697" lon="20.9955187049"></trkpt><trkpt lat="53.4690913931" lon="20.989848515"></trkpt><trkpt lat="53.4870195296" lon="20.9663221892"></trkpt><trkpt lat="53.4886414278" lon="20.9629211482"></trkpt><trkpt lat="53.4908395819" lon="20.9590710048"></trkpt><trkpt lat="53.4920212626" lon="20.9581279568"></trkpt><trkpt lat="53.4924267791" lon="20.9579460695"></trkpt><trkpt lat="53.494136855" lon="20.9577756654"></trkpt><trkpt lat="53.5143432766" lon="20.9641235322"></trkpt><trkpt lat="53.5158091877" lon="20.9655090608"></trkpt><trkpt lat="53.5246438812" lon="20.9714982659"></trkpt><trkpt lat="53.5267639998" lon="20.9718391579"></trkpt><trkpt lat="53.5590858757" lon="20.9820640739"></trkpt><trkpt lat="53.5599808954" lon="20.983261345"></trkpt><trkpt lat="53.5613793321" lon="20.9859137144"></trkpt><trkpt lat="53.5617227387" lon="20.9873440862"></trkpt><trkpt lat="53.5617806576" lon="20.9889773838"></trkpt><trkpt lat="53.5615668353" lon="20.9906097595"></trkpt><trkpt lat="53.5606478434" lon="20.995333381"></trkpt><trkpt lat="53.56020201" lon="20.9970443789"></trkpt><trkpt lat="53.560183486" lon="20.9975214768"></trkpt><trkpt lat="53.5599443503" lon="20.9978183638"></trkpt><trkpt lat="53.5599475354" lon="20.9971681796"></trkpt><trkpt lat="53.5628481768" lon="20.9838866349"></trkpt><trkpt lat="53.5780546255" lon="20.9307275992"></trkpt><trkpt lat="53.5788354836" lon="20.9286643099"></trkpt><trkpt lat="53.579449961" lon="20.9262104239"></trkpt><trkpt lat="53.5797082912" lon="20.9239940811"></trkpt><trkpt lat="53.5821873229" lon="20.9114339668"></trkpt><trkpt lat="53.5903518833" lon="20.888848342"></trkpt><trkpt lat="53.5912382696" lon="20.8873005398"></trkpt><trkpt lat="53.5925740097" lon="20.8859731816"></trkpt><trkpt lat="53.5966601875" lon="20.8828238491"></trkpt><trkpt lat="53.5981912259" lon="20.8808319736"></trkpt><trkpt lat="53.5986793879" lon="20.8792457823"></trkpt><trkpt lat="53.5989548173" lon="20.877272347"></trkpt><trkpt lat="53.5989522189" lon="20.8747380786"></trkpt><trkpt lat="53.5991724953" lon="20.8730893582"></trkpt><trkpt lat="53.5994262993" lon="20.8722072467"></trkpt><trkpt lat="53.6002541799" lon="20.8706893679"></trkpt><trkpt lat="53.6016326677" lon="20.8686966542"></trkpt><trkpt lat="53.6096330266" lon="20.8535324503"></trkpt><trkpt lat="53.6103805248" lon="20.8489933144"></trkpt><trkpt lat="53.6118071247" lon="20.8235378936"></trkpt><trkpt lat="53.6153438687" lon="20.7919160742"></trkpt><trkpt lat="53.6167443171" lon="20.7862112671"></trkpt><trkpt lat="53.6179567594" lon="20.784862116"></trkpt><trkpt lat="53.6317226104" lon="20.7660472579"></trkpt><trkpt lat="53.6327319592" lon="20.7639190927"></trkpt><trkpt lat="53.6341557093" lon="20.7594958786"></trkpt><trkpt lat="53.6343930848" lon="20.7573362812"></trkpt><trkpt lat="53.6350004375" lon="20.7551194355"></trkpt><trkpt lat="53.6359868199" lon="20.753274411"></trkpt><trkpt lat="53.6384658515" lon="20.7496657502"></trkpt><trkpt lat="53.640019102" lon="20.7481201272"></trkpt><trkpt lat="53.6738031171" lon="20.7064018026"></trkpt><trkpt lat="53.6744763516" lon="20.7049669046"></trkpt><trkpt lat="53.6746901739" lon="20.7046882901"></trkpt><trkpt lat="53.6749423016" lon="20.7044615597"></trkpt><trkpt lat="53.6761420034" lon="20.7038283907"></trkpt><trkpt lat="53.6777426954" lon="20.7033001631"></trkpt><trkpt lat="53.6808754317" lon="20.7014796138"></trkpt><trkpt lat="53.6816479079" lon="20.7003208995"></trkpt><trkpt lat="53.6827295925" lon="20.698150238"></trkpt><trkpt lat="53.6835153122" lon="20.6957177259"></trkpt><trkpt lat="53.6886224058" lon="20.6827771571"></trkpt><trkpt lat="53.689569477" lon="20.6813527364"></trkpt><trkpt lat="53.690417977" lon="20.6797639467"></trkpt><trkpt lat="53.705332987" lon="20.6456506066"></trkpt><trkpt lat="53.7059305329" lon="20.6434656959"></trkpt><trkpt lat="53.7123142742" lon="20.6253891997"></trkpt><trkpt lat="53.7139408663" lon="20.6238464266"></trkpt><trkpt lat="53.7145560142" lon="20.6225618161"></trkpt><trkpt lat="53.7149352115" lon="20.6209442765"></trkpt><trkpt lat="53.7150224671" lon="20.6204484031"></trkpt><trkpt lat="53.7151001673" lon="20.6197116338"></trkpt><trkpt lat="53.7157699652" lon="20.6182929128"></trkpt><trkpt lat="53.7210817449" lon="20.6091324985"></trkpt><trkpt lat="53.7230105884" lon="20.6041602697"></trkpt><trkpt lat="53.7229569443" lon="20.6022900995"></trkpt><trkpt lat="53.7232356425" lon="20.5969286151"></trkpt><trkpt lat="53.7238105573" lon="20.5959232897"></trkpt><trkpt lat="53.7249848619" lon="20.5946779065"></trkpt><trkpt lat="53.7304577418" lon="20.5866014399"></trkpt><trkpt lat="53.7305652816" lon="20.5838878825"></trkpt><trkpt lat="53.7314199843" lon="20.5757646449"></trkpt><trkpt lat="53.7321541552" lon="20.5739472806"></trkpt><trkpt lat="53.7332056649" lon="20.5723581556"></trkpt><trkpt lat="53.7373898271" lon="20.5674926285"></trkpt><trkpt lat="53.7395999674" lon="20.566340955"></trkpt><trkpt lat="53.7407107372" lon="20.5651689973"></trkpt><trkpt lat="53.748802878" lon="20.5587019399"></trkpt><trkpt lat="53.7507896405" lon="20.5581893865"></trkpt><trkpt lat="53.7556228135" lon="20.5559302121"></trkpt><trkpt lat="53.7568405364" lon="20.5544509739"></trkpt><trkpt lat="53.7879062165" lon="20.5088074878"></trkpt><trkpt lat="53.7874069065" lon="20.5071454402"></trkpt><trkpt lat="53.7870775815" lon="20.5055103824"></trkpt><trkpt lat="53.772198027" lon="20.4490161035"></trkpt><trkpt lat="53.7710808031" lon="20.4462685995"></trkpt><trkpt lat="53.7696871441" lon="20.4436109494"></trkpt><trkpt lat="53.7676365953" lon="20.4405256547"></trkpt><trkpt lat="53.7661391683" lon="20.4387618508"></trkpt><trkpt lat="53.7648701482" lon="20.4375841934"></trkpt><trkpt lat="53.7616530899" lon="20.4352348298"></trkpt><trkpt lat="53.7572645769" lon="20.4333681799"></trkpt><trkpt lat="53.7551833503" lon="20.4347332567"></trkpt><trkpt lat="53.7533517368" lon="20.4366016667"></trkpt><trkpt lat="53.7465888821" lon="20.4420473054"></trkpt><trkpt lat="53.7456018291" lon="20.4423422646"></trkpt><trkpt lat="53.7320177816" lon="20.4490852542"></trkpt><trkpt lat="53.7308671977" lon="20.4502574634"></trkpt><trkpt lat="53.7294865306" lon="20.4510612879"></trkpt><trkpt lat="53.7291339878" lon="20.4510795604"></trkpt><trkpt lat="53.7273291126" lon="20.4505113512"></trkpt><trkpt lat="53.7249376718" lon="20.4501365963"></trkpt><trkpt lat="53.6548139155" lon="20.4293470457"></trkpt><trkpt lat="53.6546388175" lon="20.4277192801"></trkpt><trkpt lat="53.6547424179" lon="20.4257382173"></trkpt><trkpt lat="53.654547371" lon="20.4111884069"></trkpt><trkpt lat="53.6539441254" lon="20.4098041356"></trkpt><trkpt lat="53.6527036875" lon="20.4093436338"></trkpt><trkpt lat="53.6515186541" lon="20.4083353747"></trkpt><trkpt lat="53.6428378522" lon="20.3987039812"></trkpt><trkpt lat="53.6413743719" lon="20.3961537872"></trkpt><trkpt lat="53.6173684336" lon="20.3613819648"></trkpt><trkpt lat="53.6158418376" lon="20.3601886332"></trkpt><trkpt lat="53.6148552876" lon="20.3590608481"></trkpt><trkpt lat="53.6142768525" lon="20.3576536942"></trkpt><trkpt lat="53.6137519777" lon="20.3555237688"></trkpt><trkpt lat="53.6137076374" lon="20.3533271234"></trkpt><trkpt lat="53.6132870335" lon="20.3485314175"></trkpt><trkpt lat="53.6094010156" lon="20.3229321633"></trkpt><trkpt lat="53.6078623496" lon="20.319925826"></trkpt><trkpt lat="53.5979455523" lon="20.3038077615"></trkpt><trkpt lat="53.595900787" lon="20.302394405"></trkpt><trkpt lat="53.5740472376" lon="20.291580325"></trkpt><trkpt lat="53.5731756873" lon="20.2929530293"></trkpt><trkpt lat="53.572493149" lon="20.2946326789"></trkpt><trkpt lat="53.5722913966" lon="20.2960765455"></trkpt><trkpt lat="53.5722602997" lon="20.2984026913"></trkpt><trkpt lat="53.5719239339" lon="20.3014067654"></trkpt><trkpt lat="53.5710040201" lon="20.3034438193"></trkpt><trkpt lat="53.5664082225" lon="20.3118367866"></trkpt><trkpt lat="53.5651608277" lon="20.312613789"></trkpt><trkpt lat="53.5577037837" lon="20.3189266194"></trkpt><trkpt lat="53.5563718155" lon="20.3212562855"></trkpt><trkpt lat="53.5524961911" lon="20.3260770533"></trkpt><trkpt lat="53.5514274985" lon="20.3262752015"></trkpt><trkpt lat="53.5432817135" lon="20.3262748662"></trkpt><trkpt lat="53.5410881694" lon="20.3276331536"></trkpt><trkpt lat="53.5381764639" lon="20.3287217952"></trkpt><trkpt lat="53.5357785691" lon="20.3286155965"></trkpt><trkpt lat="53.5309129581" lon="20.3297137097"></trkpt><trkpt lat="53.5291573685" lon="20.3313252144"></trkpt><trkpt lat="53.5276991688" lon="20.3329571709"></trkpt><trkpt lat="53.5203450546" lon="20.3396813013"></trkpt><trkpt lat="53.5162610561" lon="20.3445093613"></trkpt><trkpt lat="53.5146290995" lon="20.3470656741"></trkpt><trkpt lat="53.5136292223" lon="20.3496629745"></trkpt><trkpt lat="53.5047061834" lon="20.3683101106"></trkpt><trkpt lat="53.5036130156" lon="20.3688447084"></trkpt><trkpt lat="53.5033240914" lon="20.3688368294"></trkpt><trkpt lat="53.502254812" lon="20.3686210793"></trkpt><trkpt lat="53.4989820141" lon="20.3666829318"></trkpt><trkpt lat="53.4975484572" lon="20.3667650744"></trkpt><trkpt lat="53.4966567904" lon="20.3672662284"></trkpt><trkpt lat="53.4957730025" lon="20.3683045786"></trkpt><trkpt lat="53.4875660297" lon="20.3757922165"></trkpt><trkpt lat="53.4844026994" lon="20.3778463695"></trkpt><trkpt lat="53.4827636182" lon="20.3777753748"></trkpt><trkpt lat="53.4807357844" lon="20.3772567026"></trkpt><trkpt lat="53.4656892624" lon="20.376479784"></trkpt><trkpt lat="53.4646138642" lon="20.3783090506"></trkpt><trkpt lat="53.4638587385" lon="20.3805745952"></trkpt><trkpt lat="53.4628587775" lon="20.3829821292"></trkpt><trkpt lat="53.4617389552" lon="20.3845146764"></trkpt><trkpt lat="53.4607183747" lon="20.3850015812"></trkpt><trkpt lat="53.4595642705" lon="20.3848305903"></trkpt><trkpt lat="53.4584954102" lon="20.3842185438"></trkpt><trkpt lat="53.4571260586" lon="20.3831166588"></trkpt><trkpt lat="53.4529505298" lon="20.3805395588"></trkpt><trkpt lat="53.451861972" lon="20.3804481961"></trkpt><trkpt lat="53.4367768094" lon="20.3843970783"></trkpt><trkpt lat="53.4340302274" lon="20.3869234677"></trkpt><trkpt lat="53.4021038935" lon="20.4097395949"></trkpt><trkpt lat="53.400220396" lon="20.4100427683"></trkpt><trkpt lat="53.3468638826" lon="20.3925411031"></trkpt><trkpt lat="53.3469645493" lon="20.389288757"></trkpt><trkpt lat="53.3462047298" lon="20.3698993195"></trkpt><trkpt lat="53.3453330956" lon="20.3677302506"></trkpt><trkpt lat="53.3439223375" lon="20.3648576047"></trkpt><trkpt lat="53.3154160716" lon="20.3163732402"></trkpt><trkpt lat="53.3141226601" lon="20.3153738659"></trkpt><trkpt lat="53.2829465903" lon="20.2853368968"></trkpt><trkpt lat="53.2825060375" lon="20.2826742176"></trkpt><trkpt lat="53.2796422765" lon="20.2563647646"></trkpt><trkpt lat="53.2763213664" lon="20.2395015489"></trkpt><trkpt lat="53.2749827765" lon="20.2370503452"></trkpt><trkpt lat="53.2568388898" lon="20.1668259222"></trkpt><trkpt lat="53.2560159545" lon="20.165272085"></trkpt><trkpt lat="53.2517200615" lon="20.1587127429"></trkpt><trkpt lat="53.2505059429" lon="20.1583234873"></trkpt><trkpt lat="53.2494452968" lon="20.1584464498"></trkpt><trkpt lat="53.2485725731" lon="20.1588050276"></trkpt><trkpt lat="53.2478212193" lon="20.159496367"></trkpt><trkpt lat="53.247007085" lon="20.1607382298"></trkpt><trkpt lat="53.2461892627" lon="20.1624519099"></trkpt><trkpt lat="53.2453641482" lon="20.1637342572"></trkpt><trkpt lat="53.2443400472" lon="20.1646144409"></trkpt><trkpt lat="53.2429292891" lon="20.1652260683"></trkpt><trkpt lat="53.24224893" lon="20.1656465046"></trkpt><trkpt lat="53.2429901417" lon="20.1652851608"></trkpt><trkpt lat="53.2459384762" lon="20.1630672254"></trkpt><trkpt lat="53.2466361858" lon="20.161868697"></trkpt><trkpt lat="53.2473140303" lon="20.1604132634"></trkpt><trkpt lat="53.2479548268" lon="20.1586659718"></trkpt><trkpt lat="53.2484703977" lon="20.156493634"></trkpt><trkpt lat="53.2487490959" lon="20.1544056181"></trkpt><trkpt lat="53.2488140557" lon="20.1524616871"></trkpt><trkpt lat="53.2564081438" lon="20.0340475235"></trkpt><trkpt lat="53.2573812827" lon="20.0319273211"></trkpt><trkpt lat="53.260711832" lon="20.0231498759"></trkpt><trkpt lat="53.2664130349" lon="20.0045214314"></trkpt><trkpt lat="53.2667892147" lon="20.0020967983"></trkpt><trkpt lat="53.2669248339" lon="19.999675015"></trkpt><trkpt lat="53.2668043021" lon="19.9972040299"></trkpt><trkpt lat="53.2587963156" lon="19.8788904492"></trkpt><trkpt lat="53.2589600142" lon="19.8770963028"></trkpt><trkpt lat="53.2592155784" lon="19.8698775563"></trkpt><trkpt lat="53.2600534335" lon="19.8608549405"></trkpt><trkpt lat="53.2602328062" lon="19.8598875012"></trkpt><trkpt lat="53.2603562716" lon="19.8587367497"></trkpt><trkpt lat="53.260242613" lon="19.8593922984"></trkpt><trkpt lat="53.259188924" lon="19.8695381731"></trkpt><trkpt lat="53.2590329368" lon="19.8733022343"></trkpt><trkpt lat="53.2597974502" lon="19.9088926334"></trkpt><trkpt lat="53.2601778209" lon="19.911401337"></trkpt><trkpt lat="53.2607871015" lon="19.9181448296"></trkpt><trkpt lat="53.2628557552" lon="19.9319087528"></trkpt><trkpt lat="53.2630388159" lon="19.9325789697"></trkpt><trkpt lat="53.2624550164" lon="19.9370126612"></trkpt><trkpt lat="53.2623271924" lon="19.9405706115"></trkpt><trkpt lat="53.2624276076" lon="19.9444594793"></trkpt><trkpt lat="53.2654988207" lon="19.9830242805"></trkpt><trkpt lat="53.2659847196" lon="20.0062364526"></trkpt><trkpt lat="53.2651881035" lon="20.0087978784"></trkpt><trkpt lat="53.2500239834" lon="20.0704725925"></trkpt><trkpt lat="53.2499325369" lon="20.0734541193"></trkpt><trkpt lat="53.2496870309" lon="20.0760163832"></trkpt><trkpt lat="53.2492385153" lon="20.0782560278"></trkpt><trkpt lat="53.2479474507" lon="20.0877089705"></trkpt><trkpt lat="53.2480450161" lon="20.0902195182"></trkpt><trkpt lat="53.2464401331" lon="20.1621736307"></trkpt><trkpt lat="53.2457468659" lon="20.1633286569"></trkpt><trkpt lat="53.2449102681" lon="20.1642429549"></trkpt><trkpt lat="53.2437194511" lon="20.1649689954"></trkpt><trkpt lat="53.24097706" lon="20.1661455631"></trkpt><trkpt lat="53.2372969016" lon="20.1687390078"></trkpt></trkseg></trk></gpx>