<?xml version="1.0" encoding="UTF-8" standalone="no" ?><gpx xmlns="http://www.topografix.com/GPX/1/1" xmlns:gpxx="http://www.garmin.com/xmlschemas/GpxExtensions/v3" ><trk><trkseg><trkpt lat="52.999894" lon="18.615767"></trkpt><trkpt lat="52.999671" lon="18.61544"></trkpt><trkpt lat="52.999517" lon="18.614721"></trkpt><trkpt lat="52.998506" lon="18.60563"></trkpt><trkpt lat="52.998743" lon="18.605542"></trkpt><trkpt lat="52.999149" lon="18.605241"></trkpt><trkpt lat="53.000459" lon="18.604463"></trkpt><trkpt lat="53.008163" lon="18.600927"></trkpt><trkpt lat="53.008143" lon="18.601322"></trkpt><trkpt lat="53.007917" lon="18.601547"></trkpt><trkpt lat="53.00763" lon="18.601574"></trkpt><trkpt lat="53.007484" lon="18.601902"></trkpt><trkpt lat="53.007463" lon="18.602259"></trkpt><trkpt lat="53.007508" lon="18.603162"></trkpt><trkpt lat="53.007594" lon="18.603683"></trkpt><trkpt lat="53.007691" lon="18.60403"></trkpt><trkpt lat="53.007829" lon="18.604399"></trkpt><trkpt lat="53.008051" lon="18.605143"></trkpt><trkpt lat="53.008125" lon="18.606289"></trkpt><trkpt lat="53.008337" lon="18.607644"></trkpt><trkpt lat="53.008395" lon="18.608426"></trkpt><trkpt lat="53.008402" lon="18.609334"></trkpt><trkpt lat="53.008387" lon="18.609698"></trkpt><trkpt lat="53.008478" lon="18.610016"></trkpt><trkpt lat="53.008602" lon="18.610676"></trkpt><trkpt lat="53.00893" lon="18.612025"></trkpt><trkpt lat="53.008986" lon="18.612437"></trkpt><trkpt lat="53.009142" lon="18.613143"></trkpt><trkpt lat="53.009235" lon="18.613487"></trkpt><trkpt lat="53.009481" lon="18.614628"></trkpt><trkpt lat="53.009698" lon="18.615387"></trkpt><trkpt lat="53.010669" lon="18.618206"></trkpt><trkpt lat="53.010844" lon="18.618843"></trkpt><trkpt lat="53.010866" lon="18.619175"></trkpt><trkpt lat="53.010934" lon="18.619797"></trkpt><trkpt lat="53.011103" lon="18.620407"></trkpt><trkpt lat="53.011317" lon="18.621379"></trkpt><trkpt lat="53.012684" lon="18.625952"></trkpt><trkpt lat="53.012963" lon="18.626459"></trkpt><trkpt lat="53.015649" lon="18.632147"></trkpt><trkpt lat="53.015885" lon="18.633178"></trkpt><trkpt lat="53.016767" lon="18.636196"></trkpt><trkpt lat="53.016986" lon="18.636703"></trkpt><trkpt lat="53.021238" lon="18.648409"></trkpt><trkpt lat="53.02125" lon="18.648828"></trkpt><trkpt lat="53.021229" lon="18.649233"></trkpt><trkpt lat="53.02138" lon="18.650356"></trkpt><trkpt lat="53.027648" lon="18.685239"></trkpt><trkpt lat="53.028036" lon="18.686921"></trkpt><trkpt lat="53.028296" lon="18.68678"></trkpt><trkpt lat="53.028997" lon="18.686492"></trkpt><trkpt lat="53.029667" lon="18.686559"></trkpt><trkpt lat="53.030305" lon="18.686932"></trkpt><trkpt lat="53.030871" lon="18.687501"></trkpt><trkpt lat="53.047056" lon="18.706602"></trkpt><trkpt lat="53.047182" lon="18.707353"></trkpt><trkpt lat="53.047365" lon="18.708107"></trkpt><trkpt lat="53.047413" lon="18.708473"></trkpt><trkpt lat="53.047391" lon="18.70887"></trkpt><trkpt lat="53.047323" lon="18.709245"></trkpt><trkpt lat="53.047223" lon="18.709577"></trkpt><trkpt lat="53.047192" lon="18.709933"></trkpt><trkpt lat="53.047106" lon="18.710373"></trkpt><trkpt lat="53.046947" lon="18.71147"></trkpt><trkpt lat="53.046994" lon="18.711853"></trkpt><trkpt lat="53.046969" lon="18.712249"></trkpt><trkpt lat="53.046747" lon="18.712795"></trkpt><trkpt lat="53.046449" lon="18.713391"></trkpt><trkpt lat="53.046182" lon="18.713737"></trkpt><trkpt lat="53.04636" lon="18.714046"></trkpt><trkpt lat="53.04658" lon="18.714518"></trkpt><trkpt lat="53.046894" lon="18.715069"></trkpt><trkpt lat="53.048583" lon="18.71761"></trkpt><trkpt lat="53.048832" lon="18.717604"></trkpt><trkpt lat="53.051147" lon="18.717964"></trkpt><trkpt lat="53.051309" lon="18.718167"></trkpt><trkpt lat="53.05141" lon="18.718588"></trkpt><trkpt lat="53.05339" lon="18.725137"></trkpt><trkpt lat="53.053518" lon="18.72577"></trkpt><trkpt lat="53.053002" lon="18.726454"></trkpt><trkpt lat="53.052463" lon="18.727296"></trkpt><trkpt lat="53.05159" lon="18.728249"></trkpt><trkpt lat="53.050824" lon="18.72875"></trkpt><trkpt lat="53.050566" lon="18.728744"></trkpt><trkpt lat="53.049939" lon="18.728437"></trkpt><trkpt lat="53.049641" lon="18.728501"></trkpt><trkpt lat="53.049367" lon="18.72865"></trkpt><trkpt lat="53.049024" lon="18.728903"></trkpt><trkpt lat="53.048334" lon="18.729559"></trkpt><trkpt lat="53.048122" lon="18.729795"></trkpt><trkpt lat="53.046491" lon="18.732255"></trkpt><trkpt lat="53.046201" lon="18.733024"></trkpt><trkpt lat="53.045739" lon="18.734014"></trkpt><trkpt lat="53.044853" lon="18.736264"></trkpt><trkpt lat="53.042553" lon="18.741162"></trkpt><trkpt lat="53.042809" lon="18.741023"></trkpt><trkpt lat="53.043055" lon="18.741766"></trkpt><trkpt lat="53.043183" lon="18.742241"></trkpt><trkpt lat="53.044598" lon="18.746213"></trkpt><trkpt lat="53.044978" lon="18.746988"></trkpt><trkpt lat="53.047332" lon="18.750983"></trkpt><trkpt lat="53.04763" lon="18.751834"></trkpt><trkpt lat="53.047892" lon="18.752822"></trkpt><trkpt lat="53.048078" lon="18.753381"></trkpt><trkpt lat="53.048421" lon="18.754143"></trkpt><trkpt lat="53.049735" lon="18.757547"></trkpt><trkpt lat="53.049972" lon="18.758504"></trkpt><trkpt lat="53.051439" lon="18.766419"></trkpt><trkpt lat="53.051433" lon="18.767878"></trkpt><trkpt lat="53.051385" lon="18.768529"></trkpt><trkpt lat="53.051317" lon="18.769057"></trkpt><trkpt lat="53.05122" lon="18.7696"></trkpt><trkpt lat="53.051102" lon="18.77049"></trkpt><trkpt lat="53.051111" lon="18.771298"></trkpt><trkpt lat="53.051209" lon="18.771694"></trkpt><trkpt lat="53.051611" lon="18.77257"></trkpt><trkpt lat="53.052199" lon="18.773636"></trkpt><trkpt lat="53.05339" lon="18.776165"></trkpt><trkpt lat="53.053632" lon="18.777005"></trkpt><trkpt lat="53.055122" lon="18.78109"></trkpt><trkpt lat="53.057204" lon="18.787847"></trkpt><trkpt lat="53.060124" lon="18.795673"></trkpt><trkpt lat="53.06076" lon="18.796485"></trkpt><trkpt lat="53.062791" lon="18.799494"></trkpt><trkpt lat="53.069108" lon="18.810582"></trkpt><trkpt lat="53.069432" lon="18.811986"></trkpt><trkpt lat="53.069607" lon="18.812953"></trkpt><trkpt lat="53.06975" lon="18.813385"></trkpt><trkpt lat="53.069836" lon="18.81403"></trkpt><trkpt lat="53.070201" lon="18.818878"></trkpt><trkpt lat="53.070164" lon="18.820516"></trkpt><trkpt lat="53.070216" lon="18.821911"></trkpt><trkpt lat="53.070348" lon="18.823037"></trkpt><trkpt lat="53.074126" lon="18.846102"></trkpt><trkpt lat="53.074239" lon="18.846378"></trkpt><trkpt lat="53.074303" lon="18.846694"></trkpt><trkpt lat="53.074299" lon="18.847114"></trkpt><trkpt lat="53.074249" lon="18.847486"></trkpt><trkpt lat="53.074006" lon="18.848169"></trkpt><trkpt lat="53.073919" lon="18.848619"></trkpt><trkpt lat="53.070349" lon="18.872829"></trkpt><trkpt lat="53.069996" lon="18.876274"></trkpt><trkpt lat="53.069974" lon="18.876796"></trkpt><trkpt lat="53.069703" lon="18.879037"></trkpt><trkpt lat="53.069462" lon="18.879946"></trkpt><trkpt lat="53.069178" lon="18.881262"></trkpt><trkpt lat="53.068997" lon="18.882642"></trkpt><trkpt lat="53.068763" lon="18.886113"></trkpt><trkpt lat="53.068839" lon="18.886941"></trkpt><trkpt lat="53.068974" lon="18.887717"></trkpt><trkpt lat="53.069097" lon="18.887977"></trkpt><trkpt lat="53.069153" lon="18.888334"></trkpt><trkpt lat="53.069318" lon="18.888744"></trkpt><trkpt lat="53.070686" lon="18.892808"></trkpt><trkpt lat="53.071033" lon="18.894096"></trkpt><trkpt lat="53.071121" lon="18.8945"></trkpt><trkpt lat="53.071251" lon="18.895549"></trkpt><trkpt lat="53.071378" lon="18.897223"></trkpt><trkpt lat="53.071283" lon="18.897735"></trkpt><trkpt lat="53.071334" lon="18.898801"></trkpt><trkpt lat="53.071446" lon="18.899227"></trkpt><trkpt lat="53.071499" lon="18.899591"></trkpt><trkpt lat="53.071497" lon="18.90024"></trkpt><trkpt lat="53.07146" lon="18.900799"></trkpt><trkpt lat="53.071401" lon="18.901263"></trkpt><trkpt lat="53.071319" lon="18.901651"></trkpt><trkpt lat="53.071106" lon="18.902225"></trkpt><trkpt lat="53.070521" lon="18.903537"></trkpt><trkpt lat="53.064396" lon="18.915396"></trkpt><trkpt lat="53.064206" lon="18.916143"></trkpt><trkpt lat="53.06406" lon="18.917372"></trkpt><trkpt lat="53.064049" lon="18.917746"></trkpt><trkpt lat="53.064069" lon="18.918587"></trkpt><trkpt lat="53.063949" lon="18.92426"></trkpt><trkpt lat="53.063795" lon="18.92461"></trkpt><trkpt lat="53.063633" lon="18.92504"></trkpt><trkpt lat="53.064337" lon="18.925112"></trkpt><trkpt lat="53.065167" lon="18.925312"></trkpt><trkpt lat="53.065363" lon="18.925474"></trkpt><trkpt lat="53.065532" lon="18.925731"></trkpt><trkpt lat="53.065911" lon="18.926919"></trkpt><trkpt lat="53.073613" lon="18.955917"></trkpt><trkpt lat="53.073657" lon="18.957156"></trkpt><trkpt lat="53.073814" lon="18.95839"></trkpt><trkpt lat="53.07402" lon="18.959555"></trkpt><trkpt lat="53.074474" lon="18.961118"></trkpt><trkpt lat="53.074487" lon="18.960771"></trkpt><trkpt lat="53.074536" lon="18.961094"></trkpt><trkpt lat="53.074375" lon="18.961299"></trkpt><trkpt lat="53.074474" lon="18.961701"></trkpt><trkpt lat="53.076827" lon="18.96949"></trkpt><trkpt lat="53.0772" lon="18.970444"></trkpt><trkpt lat="53.077629" lon="18.971318"></trkpt><trkpt lat="53.080404" lon="18.976157"></trkpt><trkpt lat="53.080846" lon="18.976786"></trkpt><trkpt lat="53.092832" lon="18.996683"></trkpt><trkpt lat="53.093079" lon="18.997662"></trkpt><trkpt lat="53.099429" lon="19.01811"></trkpt><trkpt lat="53.100113" lon="19.019362"></trkpt><trkpt lat="53.100811" lon="19.020377"></trkpt><trkpt lat="53.101568" lon="19.021257"></trkpt><trkpt lat="53.103741" lon="19.023379"></trkpt><trkpt lat="53.104143" lon="19.023558"></trkpt><trkpt lat="53.105982" lon="19.024958"></trkpt><trkpt lat="53.106451" lon="19.02579"></trkpt><trkpt lat="53.106705" lon="19.02651"></trkpt><trkpt lat="53.106966" lon="19.028276"></trkpt><trkpt lat="53.107657" lon="19.031611"></trkpt><trkpt lat="53.108042" lon="19.032643"></trkpt><trkpt lat="53.11579" lon="19.050314"></trkpt><trkpt lat="53.115935" lon="19.050036"></trkpt><trkpt lat="53.115965" lon="19.049624"></trkpt><trkpt lat="53.116225" lon="19.048707"></trkpt><trkpt lat="53.116339" lon="19.048377"></trkpt><trkpt lat="53.11627" lon="19.04775"></trkpt><trkpt lat="53.116347" lon="19.046824"></trkpt><trkpt lat="53.116685" lon="19.046692"></trkpt><trkpt lat="53.116241" lon="19.046632"></trkpt><trkpt lat="53.115867" lon="19.046923"></trkpt><trkpt lat="53.115615" lon="19.047255"></trkpt><trkpt lat="53.115193" lon="19.048108"></trkpt><trkpt lat="53.115226" lon="19.048478"></trkpt><trkpt lat="53.115367" lon="19.049212"></trkpt><trkpt lat="53.115214" lon="19.048623"></trkpt><trkpt lat="53.115102" lon="19.048303"></trkpt><trkpt lat="53.114902" lon="19.04838"></trkpt><trkpt lat="53.115137" lon="19.048284"></trkpt><trkpt lat="53.115283" lon="19.047771"></trkpt><trkpt lat="53.115513" lon="19.047366"></trkpt><trkpt lat="53.115711" lon="19.047154"></trkpt><trkpt lat="53.116363" lon="19.046615"></trkpt><trkpt lat="53.116671" lon="19.046532"></trkpt><trkpt lat="53.116355" lon="19.046784"></trkpt><trkpt lat="53.116169" lon="19.047045"></trkpt><trkpt lat="53.116162" lon="19.047401"></trkpt><trkpt lat="53.116298" lon="19.048178"></trkpt><trkpt lat="53.116259" lon="19.048562"></trkpt><trkpt lat="53.116086" lon="19.048884"></trkpt><trkpt lat="53.115966" lon="19.04923"></trkpt><trkpt lat="53.11588" lon="19.050513"></trkpt><trkpt lat="53.115875" lon="19.05133"></trkpt><trkpt lat="53.116084" lon="19.052624"></trkpt><trkpt lat="53.116171" lon="19.053393"></trkpt><trkpt lat="53.116141" lon="19.053855"></trkpt><trkpt lat="53.116019" lon="19.054287"></trkpt><trkpt lat="53.115701" lon="19.05497"></trkpt><trkpt lat="53.11551" lon="19.05513"></trkpt><trkpt lat="53.115319" lon="19.055042"></trkpt><trkpt lat="53.114965" lon="19.054219"></trkpt><trkpt lat="53.113438" lon="19.051501"></trkpt><trkpt lat="53.113228" lon="19.051372"></trkpt><trkpt lat="53.112639" lon="19.051374"></trkpt><trkpt lat="53.112297" lon="19.051518"></trkpt><trkpt lat="53.111856" lon="19.051762"></trkpt><trkpt lat="53.111476" lon="19.052243"></trkpt><trkpt lat="53.111031" lon="19.053022"></trkpt><trkpt lat="53.107585" lon="19.060858"></trkpt><trkpt lat="53.107669" lon="19.061676"></trkpt><trkpt lat="53.10903" lon="19.070808"></trkpt><trkpt lat="53.109592" lon="19.07066"></trkpt><trkpt lat="53.110697" lon="19.070535"></trkpt><trkpt lat="53.111199" lon="19.071341"></trkpt><trkpt lat="53.11522" lon="19.078866"></trkpt><trkpt lat="53.11553" lon="19.079601"></trkpt><trkpt lat="53.116408" lon="19.081364"></trkpt><trkpt lat="53.116593" lon="19.08183"></trkpt><trkpt lat="53.116669" lon="19.082207"></trkpt><trkpt lat="53.116743" lon="19.082839"></trkpt><trkpt lat="53.116871" lon="19.083403"></trkpt><trkpt lat="53.117667" lon="19.087861"></trkpt><trkpt lat="53.117786" lon="19.088778"></trkpt><trkpt lat="53.11783" lon="19.08932"></trkpt><trkpt lat="53.117845" lon="19.08977"></trkpt><trkpt lat="53.118217" lon="19.093059"></trkpt><trkpt lat="53.118416" lon="19.09313"></trkpt><trkpt lat="53.11819" lon="19.093103"></trkpt><trkpt lat="53.117953" lon="19.093177"></trkpt><trkpt lat="53.117983" lon="19.09371"></trkpt><trkpt lat="53.118138" lon="19.095109"></trkpt><trkpt lat="53.118606" lon="19.098046"></trkpt><trkpt lat="53.118649" lon="19.098875"></trkpt><trkpt lat="53.118754" lon="19.099684"></trkpt><trkpt lat="53.118885" lon="19.10039"></trkpt><trkpt lat="53.119219" lon="19.101606"></trkpt><trkpt lat="53.119393" lon="19.101961"></trkpt><trkpt lat="53.11974" lon="19.102476"></trkpt><trkpt lat="53.119944" lon="19.10294"></trkpt><trkpt lat="53.120158" lon="19.103287"></trkpt><trkpt lat="53.120571" lon="19.103867"></trkpt><trkpt lat="53.121111" lon="19.104822"></trkpt><trkpt lat="53.121341" lon="19.105719"></trkpt><trkpt lat="53.121936" lon="19.107471"></trkpt><trkpt lat="53.122199" lon="19.108448"></trkpt><trkpt lat="53.123619" lon="19.114938"></trkpt><trkpt lat="53.124084" lon="19.117649"></trkpt><trkpt lat="53.124017" lon="19.11836"></trkpt><trkpt lat="53.124044" lon="19.119107"></trkpt><trkpt lat="53.12399" lon="19.119593"></trkpt><trkpt lat="53.123769" lon="19.12033"></trkpt><trkpt lat="53.123627" lon="19.120938"></trkpt><trkpt lat="53.123484" lon="19.121733"></trkpt><trkpt lat="53.123158" lon="19.124288"></trkpt><trkpt lat="53.123092" lon="19.125132"></trkpt><trkpt lat="53.122349" lon="19.130944"></trkpt><trkpt lat="53.122161" lon="19.131171"></trkpt><trkpt lat="53.121614" lon="19.13195"></trkpt><trkpt lat="53.121508" lon="19.132423"></trkpt><trkpt lat="53.121432" lon="19.133009"></trkpt><trkpt lat="53.12143" lon="19.133509"></trkpt><trkpt lat="53.121539" lon="19.134161"></trkpt><trkpt lat="53.12223" lon="19.136851"></trkpt><trkpt lat="53.122354" lon="19.137131"></trkpt><trkpt lat="53.122505" lon="19.137777"></trkpt><trkpt lat="53.122759" lon="19.138624"></trkpt><trkpt lat="53.123206" lon="19.139096"></trkpt><trkpt lat="53.123436" lon="19.139441"></trkpt><trkpt lat="53.123554" lon="19.13992"></trkpt><trkpt lat="53.123624" lon="19.140331"></trkpt><trkpt lat="53.123666" lon="19.140799"></trkpt><trkpt lat="53.123678" lon="19.141141"></trkpt><trkpt lat="53.12383" lon="19.143052"></trkpt><trkpt lat="53.124234" lon="19.153957"></trkpt><trkpt lat="53.124168" lon="19.154431"></trkpt><trkpt lat="53.122794" lon="19.169154"></trkpt><trkpt lat="53.122918" lon="19.169572"></trkpt><trkpt lat="53.123008" lon="19.170257"></trkpt><trkpt lat="53.123345" lon="19.17206"></trkpt><trkpt lat="53.123758" lon="19.172499"></trkpt><trkpt lat="53.124009" lon="19.172821"></trkpt><trkpt lat="53.124137" lon="19.173192"></trkpt><trkpt lat="53.124226" lon="19.173594"></trkpt><trkpt lat="53.124517" lon="19.174539"></trkpt><trkpt lat="53.135988" lon="19.20562"></trkpt><trkpt lat="53.136635" lon="19.206686"></trkpt><trkpt lat="53.138936" lon="19.211332"></trkpt><trkpt lat="53.13935" lon="19.212732"></trkpt><trkpt lat="53.1415" lon="19.218789"></trkpt><trkpt lat="53.141747" lon="19.21845"></trkpt><trkpt lat="53.142117" lon="19.218074"></trkpt><trkpt lat="53.142331" lon="19.217945"></trkpt><trkpt lat="53.142544" lon="19.217895"></trkpt><trkpt lat="53.145609" lon="19.216305"></trkpt><trkpt lat="53.145876" lon="19.215865"></trkpt><trkpt lat="53.146335" lon="19.21527"></trkpt><trkpt lat="53.146729" lon="19.216403"></trkpt><trkpt lat="53.160347" lon="19.260005"></trkpt><trkpt lat="53.165134" lon="19.278607"></trkpt><trkpt lat="53.165111" lon="19.279107"></trkpt><trkpt lat="53.165115" lon="19.279502"></trkpt><trkpt lat="53.165203" lon="19.279995"></trkpt><trkpt lat="53.165406" lon="19.280504"></trkpt><trkpt lat="53.165707" lon="19.281108"></trkpt><trkpt lat="53.167811" lon="19.286246"></trkpt><trkpt lat="53.167902" lon="19.287655"></trkpt><trkpt lat="53.169785" lon="19.305066"></trkpt><trkpt lat="53.170111" lon="19.305499"></trkpt><trkpt lat="53.171304" lon="19.307366"></trkpt><trkpt lat="53.171482" lon="19.308295"></trkpt><trkpt lat="53.172343" lon="19.31419"></trkpt><trkpt lat="53.172445" lon="19.315352"></trkpt><trkpt lat="53.172575" lon="19.316248"></trkpt><trkpt lat="53.172935" lon="19.321506"></trkpt><trkpt lat="53.173234" lon="19.323114"></trkpt><trkpt lat="53.173428" lon="19.323797"></trkpt><trkpt lat="53.175299" lon="19.328709"></trkpt><trkpt lat="53.175718" lon="19.329071"></trkpt><trkpt lat="53.176188" lon="19.329874"></trkpt><trkpt lat="53.176416" lon="19.330455"></trkpt><trkpt lat="53.177058" lon="19.332401"></trkpt><trkpt lat="53.177284" lon="19.333656"></trkpt><trkpt lat="53.177726" lon="19.335596"></trkpt><trkpt lat="53.181572" lon="19.349224"></trkpt><trkpt lat="53.182171" lon="19.350849"></trkpt><trkpt lat="53.182566" lon="19.35215"></trkpt><trkpt lat="53.18286" lon="19.352963"></trkpt><trkpt lat="53.183612" lon="19.354537"></trkpt><trkpt lat="53.18394" lon="19.354961"></trkpt><trkpt lat="53.184141" lon="19.355292"></trkpt><trkpt lat="53.18426" lon="19.35558"></trkpt><trkpt lat="53.18436" lon="19.355895"></trkpt><trkpt lat="53.184434" lon="19.356237"></trkpt><trkpt lat="53.18447" lon="19.356603"></trkpt><trkpt lat="53.184445" lon="19.356965"></trkpt><trkpt lat="53.184373" lon="19.3573"></trkpt><trkpt lat="53.184275" lon="19.357603"></trkpt><trkpt lat="53.183881" lon="19.359885"></trkpt><trkpt lat="53.18418" lon="19.361762"></trkpt><trkpt lat="53.18512" lon="19.369998"></trkpt><trkpt lat="53.185167" lon="19.370741"></trkpt><trkpt lat="53.187256" lon="19.389884"></trkpt><trkpt lat="53.187863" lon="19.389766"></trkpt><trkpt lat="53.188565" lon="19.389428"></trkpt><trkpt lat="53.204198" lon="19.383943"></trkpt><trkpt lat="53.204892" lon="19.384074"></trkpt><trkpt lat="53.234584" lon="19.390674"></trkpt><trkpt lat="53.234969" lon="19.390694"></trkpt><trkpt lat="53.235186" lon="19.390851"></trkpt><trkpt lat="53.235385" lon="19.390822"></trkpt><trkpt lat="53.235591" lon="19.390969"></trkpt><trkpt lat="53.235802" lon="19.391156"></trkpt><trkpt lat="53.236179" lon="19.391347"></trkpt><trkpt lat="53.23717" lon="19.391983"></trkpt><trkpt lat="53.237465" lon="19.392074"></trkpt><trkpt lat="53.237918" lon="19.39233"></trkpt><trkpt lat="53.254343" lon="19.404604"></trkpt><trkpt lat="53.254387" lon="19.404933"></trkpt><trkpt lat="53.254527" lon="19.405232"></trkpt><trkpt lat="53.254753" lon="19.405291"></trkpt><trkpt lat="53.254932" lon="19.40512"></trkpt><trkpt lat="53.255019" lon="19.404492"></trkpt><trkpt lat="53.254949" lon="19.404149"></trkpt><trkpt lat="53.254903" lon="19.403292"></trkpt><trkpt lat="53.255078" lon="19.40311"></trkpt><trkpt lat="53.25532" lon="19.402774"></trkpt><trkpt lat="53.255541" lon="19.402567"></trkpt><trkpt lat="53.25559" lon="19.401753"></trkpt><trkpt lat="53.255411" lon="19.401348"></trkpt><trkpt lat="53.255504" lon="19.400785"></trkpt><trkpt lat="53.255681" lon="19.400363"></trkpt><trkpt lat="53.25612" lon="19.399657"></trkpt><trkpt lat="53.256592" lon="19.399351"></trkpt><trkpt lat="53.257541" lon="19.398442"></trkpt><trkpt lat="53.257747" lon="19.397909"></trkpt><trkpt lat="53.258079" lon="19.397327"></trkpt><trkpt lat="53.258679" lon="19.396459"></trkpt><trkpt lat="53.258875" lon="19.396291"></trkpt><trkpt lat="53.259333" lon="19.396055"></trkpt><trkpt lat="53.259737" lon="19.395969"></trkpt><trkpt lat="53.259893" lon="19.396297"></trkpt><trkpt lat="53.25991" lon="19.39686"></trkpt><trkpt lat="53.260133" lon="19.399519"></trkpt><trkpt lat="53.260422" lon="19.399768"></trkpt><trkpt lat="53.261017" lon="19.400519"></trkpt><trkpt lat="53.261535" lon="19.40128"></trkpt><trkpt lat="53.26174" lon="19.401377"></trkpt><trkpt lat="53.262424" lon="19.401378"></trkpt><trkpt lat="53.262634" lon="19.401527"></trkpt><trkpt lat="53.262799" lon="19.401819"></trkpt><trkpt lat="53.262913" lon="19.402168"></trkpt><trkpt lat="53.263152" lon="19.402069"></trkpt><trkpt lat="53.262981" lon="19.401583"></trkpt><trkpt lat="53.263146" lon="19.401904"></trkpt><trkpt lat="53.263122" lon="19.402308"></trkpt><trkpt lat="53.263061" lon="19.40265"></trkpt><trkpt lat="53.263203" lon="19.403127"></trkpt><trkpt lat="53.263374" lon="19.403578"></trkpt><trkpt lat="53.263712" lon="19.404018"></trkpt><trkpt lat="53.264293" lon="19.404647"></trkpt><trkpt lat="53.264989" lon="19.40553"></trkpt><trkpt lat="53.265186" lon="19.405731"></trkpt><trkpt lat="53.265403" lon="19.405622"></trkpt><trkpt lat="53.265629" lon="19.405844"></trkpt><trkpt lat="53.266002" lon="19.405875"></trkpt><trkpt lat="53.266315" lon="19.406028"></trkpt><trkpt lat="53.278654" lon="19.410451"></trkpt><trkpt lat="53.279166" lon="19.410505"></trkpt><trkpt lat="53.279698" lon="19.410649"></trkpt><trkpt lat="53.282454" lon="19.410617"></trkpt><trkpt lat="53.282163" lon="19.409858"></trkpt><trkpt lat="53.281169" lon="19.406784"></trkpt><trkpt lat="53.281316" lon="19.406517"></trkpt><trkpt lat="53.281506" lon="19.406253"></trkpt><trkpt lat="53.281407" lon="19.405535"></trkpt></trkseg></trk></gpx>