<?xml version="1.0" encoding="UTF-8" standalone="no" ?><gpx xmlns="http://www.topografix.com/GPX/1/1" xmlns:gpxx="http://www.garmin.com/xmlschemas/GpxExtensions/v3" ><trk><trkseg><trkpt lat="50.7136634365" lon="23.239742266"></trkpt><trkpt lat="50.7135879993" lon="23.2392271981"></trkpt><trkpt lat="50.7135673799" lon="23.2384020835"></trkpt><trkpt lat="50.7128525712" lon="23.231619196"></trkpt><trkpt lat="50.7123465557" lon="23.2288644835"></trkpt><trkpt lat="50.7061132696" lon="23.1779076252"></trkpt><trkpt lat="50.7068792917" lon="23.1772588659"></trkpt><trkpt lat="50.707874056" lon="23.1768893916"></trkpt><trkpt lat="50.7097554579" lon="23.1756559946"></trkpt><trkpt lat="50.7103623915" lon="23.1745313946"></trkpt><trkpt lat="50.7107343804" lon="23.1731591094"></trkpt><trkpt lat="50.7195079699" lon="23.1304210424"></trkpt><trkpt lat="50.7185205817" lon="23.1291025691"></trkpt><trkpt lat="50.7131945528" lon="23.119621966"></trkpt><trkpt lat="50.7126834244" lon="23.1178766862"></trkpt><trkpt lat="50.7120191585" lon="23.1161098648"></trkpt><trkpt lat="50.71148674" lon="23.1142219249"></trkpt><trkpt lat="50.7111211214" lon="23.1121588871"></trkpt><trkpt lat="50.7094171643" lon="23.0976083223"></trkpt><trkpt lat="50.7092488557" lon="23.0941163376"></trkpt><trkpt lat="50.7079383451" lon="23.0825343914"></trkpt><trkpt lat="50.706902761" lon="23.0791950412"></trkpt><trkpt lat="50.6980834901" lon="23.0423628632"></trkpt><trkpt lat="50.6977671571" lon="23.038232429"></trkpt><trkpt lat="50.6932118442" lon="23.0041481741"></trkpt><trkpt lat="50.6920591649" lon="23.0027493183"></trkpt><trkpt lat="50.6912371516" lon="23.0020801071"></trkpt><trkpt lat="50.6837991346" lon="22.9946394078"></trkpt><trkpt lat="50.6828600261" lon="22.9933951143"></trkpt><trkpt lat="50.6821360812" lon="22.9920115974"></trkpt><trkpt lat="50.6814681273" lon="22.9900083225"></trkpt><trkpt lat="50.6749073602" lon="22.97519641"></trkpt><trkpt lat="50.6732349191" lon="22.9736362025"></trkpt><trkpt lat="50.6716899667" lon="22.9729199689"></trkpt><trkpt lat="50.657109227" lon="22.9637312237"></trkpt><trkpt lat="50.6561857928" lon="22.9610294849"></trkpt><trkpt lat="50.6551417429" lon="22.9591449816"></trkpt><trkpt lat="50.6543074921" lon="22.9583154246"></trkpt><trkpt lat="50.6531103048" lon="22.9577587824"></trkpt><trkpt lat="50.6518301368" lon="22.9575959221"></trkpt><trkpt lat="50.6463189516" lon="22.9591448139"></trkpt><trkpt lat="50.6452038232" lon="22.9592975322"></trkpt><trkpt lat="50.6412054878" lon="22.960734861"></trkpt><trkpt lat="50.6401095539" lon="22.9619260971"></trkpt><trkpt lat="50.6384448241" lon="22.9642283544"></trkpt><trkpt lat="50.637180917" lon="22.966441093"></trkpt><trkpt lat="50.6349236704" lon="22.9690647963"></trkpt><trkpt lat="50.6335601024" lon="22.9693880863"></trkpt><trkpt lat="50.6319876574" lon="22.9693834763"></trkpt><trkpt lat="50.6296709832" lon="22.9698293936"></trkpt><trkpt lat="50.6284670904" lon="22.9707561806"></trkpt><trkpt lat="50.5906428304" lon="22.9929383006"></trkpt><trkpt lat="50.5878772214" lon="22.9919685982"></trkpt><trkpt lat="50.5710724276" lon="23.0006959196"></trkpt><trkpt lat="50.5693621002" lon="23.0024865456"></trkpt><trkpt lat="50.5672528781" lon="23.0055169389"></trkpt><trkpt lat="50.5655727256" lon="23.0073861033"></trkpt><trkpt lat="50.5645747762" lon="23.0079752672"></trkpt><trkpt lat="50.5631438177" lon="23.0084553827"></trkpt><trkpt lat="50.5611752439" lon="23.0081808753"></trkpt><trkpt lat="50.5602602754" lon="23.0097295996"></trkpt><trkpt lat="50.5588191748" lon="23.0087233521"></trkpt><trkpt lat="50.5563372932" lon="23.0094967503"></trkpt><trkpt lat="50.5549189076" lon="23.0095975846"></trkpt><trkpt lat="50.5459802784" lon="23.0209815502"></trkpt><trkpt lat="50.5459893309" lon="23.0227828212"></trkpt><trkpt lat="50.5463134591" lon="23.0250515509"></trkpt><trkpt lat="50.5463157222" lon="23.0268721003"></trkpt><trkpt lat="50.5415909272" lon="23.0276607536"></trkpt><trkpt lat="50.5404485576" lon="23.0292927101"></trkpt><trkpt lat="50.5391505361" lon="23.0307459645"></trkpt><trkpt lat="50.5377889797" lon="23.03196528"></trkpt><trkpt lat="50.5220324267" lon="23.0412743893"></trkpt><trkpt lat="50.5206598062" lon="23.0409276299"></trkpt><trkpt lat="50.5192324519" lon="23.0400974862"></trkpt><trkpt lat="50.5179075245" lon="23.0395503156"></trkpt><trkpt lat="50.516339941" lon="23.0394554324"></trkpt><trkpt lat="50.5130795483" lon="23.0402203649"></trkpt><trkpt lat="50.5112991482" lon="23.0409372691"></trkpt><trkpt lat="50.5107420031" lon="23.0420500506"></trkpt><trkpt lat="50.5092679616" lon="23.0459851027"></trkpt><trkpt lat="50.499753328" lon="23.062794758"></trkpt><trkpt lat="50.4993780702" lon="23.065834539"></trkpt><trkpt lat="50.4988326598" lon="23.0681689829"></trkpt><trkpt lat="50.4976529907" lon="23.0709491763"></trkpt><trkpt lat="50.4965879861" lon="23.0716682598"></trkpt><trkpt lat="50.493663121" lon="23.0745008402"></trkpt><trkpt lat="50.4926708713" lon="23.0767297558"></trkpt><trkpt lat="50.4902871419" lon="23.0810793769"></trkpt><trkpt lat="50.489676185" lon="23.0816516094"></trkpt><trkpt lat="50.4850264918" lon="23.0879908428"></trkpt><trkpt lat="50.4840401933" lon="23.0903634243"></trkpt><trkpt lat="50.4832100496" lon="23.0935751181"></trkpt><trkpt lat="50.4829455167" lon="23.0981449317"></trkpt><trkpt lat="50.4822490644" lon="23.1028512027"></trkpt><trkpt lat="50.4815754946" lon="23.105815798"></trkpt><trkpt lat="50.4494547006" lon="23.1413188577"></trkpt><trkpt lat="50.4487924464" lon="23.1414273195"></trkpt><trkpt lat="50.447769016" lon="23.1421966106"></trkpt><trkpt lat="50.4466195218" lon="23.1433450989"></trkpt><trkpt lat="50.4450826161" lon="23.1454010122"></trkpt><trkpt lat="50.4439464491" lon="23.1472923886"></trkpt><trkpt lat="50.4420526419" lon="23.1510959286"></trkpt><trkpt lat="50.4410751443" lon="23.1534924824"></trkpt><trkpt lat="50.4402389657" lon="23.1547675375"></trkpt><trkpt lat="50.4339585733" lon="23.1663527526"></trkpt><trkpt lat="50.4326882958" lon="23.1692352053"></trkpt><trkpt lat="50.4184058681" lon="23.209683001"></trkpt><trkpt lat="50.4180778004" lon="23.2120865956"></trkpt><trkpt lat="50.4051269218" lon="23.271320248"></trkpt><trkpt lat="50.4039081931" lon="23.2730273064"></trkpt><trkpt lat="50.4048597068" lon="23.2761541754"></trkpt><trkpt lat="50.4046274442" lon="23.2786848396"></trkpt><trkpt lat="50.4042211734" lon="23.2924837992"></trkpt><trkpt lat="50.405271342" lon="23.2993697841"></trkpt><trkpt lat="50.4050163645" lon="23.3188207448"></trkpt><trkpt lat="50.4047385044" lon="23.322327733"></trkpt><trkpt lat="50.4038848914" lon="23.3280015271"></trkpt><trkpt lat="50.403076373" lon="23.3309876639"></trkpt><trkpt lat="50.4021052457" lon="23.336006999"></trkpt><trkpt lat="50.4020510986" lon="23.3373121452"></trkpt><trkpt lat="50.401759157" lon="23.3402943425"></trkpt><trkpt lat="50.3995423112" lon="23.3528796025"></trkpt><trkpt lat="50.3987660632" lon="23.3541246504"></trkpt><trkpt lat="50.3974844702" lon="23.3555385936"></trkpt><trkpt lat="50.380446827" lon="23.4047968592"></trkpt><trkpt lat="50.3802887443" lon="23.4066138044"></trkpt><trkpt lat="50.3803485073" lon="23.4080965631"></trkpt><trkpt lat="50.380676575" lon="23.4091526829"></trkpt><trkpt lat="50.3814149369" lon="23.4108110424"></trkpt><trkpt lat="50.381879881" lon="23.4123785421"></trkpt><trkpt lat="50.3819436673" lon="23.4128578193"></trkpt><trkpt lat="50.3819548152" lon="23.4145794623"></trkpt><trkpt lat="50.3830038942" lon="23.4301627614"></trkpt><trkpt lat="50.3832232486" lon="23.4318653774"></trkpt><trkpt lat="50.383311091" lon="23.4336614516"></trkpt><trkpt lat="50.3831789084" lon="23.4368546214"></trkpt><trkpt lat="50.3829982784" lon="23.4378097393"></trkpt><trkpt lat="50.3824766725" lon="23.4391934238"></trkpt><trkpt lat="50.3815180343" lon="23.4412793443"></trkpt><trkpt lat="50.3775114845" lon="23.4485245775"></trkpt><trkpt lat="50.3767562751" lon="23.4496575594"></trkpt><trkpt lat="50.3769648168" lon="23.4493670426"></trkpt><trkpt lat="50.3766793292" lon="23.4498676937"></trkpt><trkpt lat="50.3763823584" lon="23.4502250142"></trkpt><trkpt lat="50.3766049817" lon="23.4499766584"></trkpt><trkpt lat="50.3758940287" lon="23.4510214627"></trkpt><trkpt lat="50.3704125993" lon="23.460966507"></trkpt><trkpt lat="50.3696039133" lon="23.4635980055"></trkpt><trkpt lat="50.3684467915" lon="23.4659588523"></trkpt><trkpt lat="50.367055228" lon="23.4674597159"></trkpt><trkpt lat="50.3661580291" lon="23.4690708015"></trkpt><trkpt lat="50.365851419" lon="23.470376702"></trkpt><trkpt lat="50.3659341484" lon="23.4712019004"></trkpt><trkpt lat="50.3657419514" lon="23.4716977738"></trkpt><trkpt lat="50.3662904631" lon="23.4725015983"></trkpt><trkpt lat="50.3664139286" lon="23.4729832225"></trkpt><trkpt lat="50.3670228738" lon="23.4742356464"></trkpt><trkpt lat="50.3678336553" lon="23.4752268903"></trkpt><trkpt lat="50.3690668847" lon="23.475919906"></trkpt><trkpt lat="50.3619571868" lon="23.4804605506"></trkpt><trkpt lat="50.3603979852" lon="23.4836530499"></trkpt><trkpt lat="50.3591365926" lon="23.4869460482"></trkpt><trkpt lat="50.3578942269" lon="23.4912660811"></trkpt><trkpt lat="50.3543320857" lon="23.4998975135"></trkpt><trkpt lat="50.3530504927" lon="23.5017481539"></trkpt><trkpt lat="50.3477822989" lon="23.5109814908"></trkpt><trkpt lat="50.3473244794" lon="23.5126504116"></trkpt><trkpt lat="50.347073609" lon="23.5146416165"></trkpt><trkpt lat="50.3444873728" lon="23.5269497707"></trkpt><trkpt lat="50.3431170993" lon="23.5278150346"></trkpt><trkpt lat="50.3374999668" lon="23.5323311202"></trkpt><trkpt lat="50.3352014814" lon="23.5346537456"></trkpt><trkpt lat="50.3342689946" lon="23.5353127308"></trkpt><trkpt lat="50.3271618113" lon="23.5418584105"></trkpt><trkpt lat="50.326579269" lon="23.542711772"></trkpt><trkpt lat="50.3258235566" lon="23.5434754472"></trkpt><trkpt lat="50.3243754152" lon="23.5440546367"></trkpt><trkpt lat="50.3226033971" lon="23.5452648159"></trkpt><trkpt lat="50.3215893544" lon="23.5466508474"></trkpt><trkpt lat="50.3113466688" lon="23.5566266533"></trkpt><trkpt lat="50.3098603897" lon="23.5584710073"></trkpt><trkpt lat="50.2985296492" lon="23.5756611172"></trkpt><trkpt lat="50.2984645218" lon="23.5763456672"></trkpt><trkpt lat="50.2983978018" lon="23.5767814424"></trkpt><trkpt lat="50.2983405534" lon="23.5774805769"></trkpt><trkpt lat="50.2983641066" lon="23.5770433769"></trkpt><trkpt lat="50.2982905973" lon="23.5765786003"></trkpt><trkpt lat="50.2982977219" lon="23.5770068318"></trkpt><trkpt lat="50.2981821354" lon="23.5778416693"></trkpt><trkpt lat="50.2963914257" lon="23.5836970992"></trkpt><trkpt lat="50.2956832387" lon="23.5838484764"></trkpt><trkpt lat="50.2931879461" lon="23.5829123016"></trkpt><trkpt lat="50.2865703497" lon="23.5815801658"></trkpt><trkpt lat="50.283992663" lon="23.5816260986"></trkpt><trkpt lat="50.2822561003" lon="23.5813260265"></trkpt><trkpt lat="50.2794331592" lon="23.5803131573"></trkpt><trkpt lat="50.2782024443" lon="23.57936332"></trkpt><trkpt lat="50.2771790978" lon="23.5781419091"></trkpt><trkpt lat="50.2757306211" lon="23.5757837445"></trkpt><trkpt lat="50.2718309406" lon="23.5708332248"></trkpt><trkpt lat="50.2705099527" lon="23.5697711539"></trkpt><trkpt lat="50.2617256343" lon="23.5603239108"></trkpt><trkpt lat="50.2613679785" lon="23.5584156029"></trkpt><trkpt lat="50.2613203693" lon="23.5565751046"></trkpt><trkpt lat="50.2614915278" lon="23.5551285557"></trkpt><trkpt lat="50.2617078647" lon="23.5515931528"></trkpt><trkpt lat="50.2616940346" lon="23.5473912209"></trkpt><trkpt lat="50.2612671442" lon="23.5456240643"></trkpt><trkpt lat="50.2605346497" lon="23.5438110586"></trkpt><trkpt lat="50.2591367997" lon="23.5410635546"></trkpt><trkpt lat="50.2583763935" lon="23.5406911466"></trkpt><trkpt lat="50.2554395422" lon="23.5399581492"></trkpt><trkpt lat="50.250607878" lon="23.5401895735"></trkpt><trkpt lat="50.250008991" lon="23.539811885"></trkpt><trkpt lat="50.2490242012" lon="23.5387707688"></trkpt><trkpt lat="50.2481410839" lon="23.5376473423"></trkpt><trkpt lat="50.2462466061" lon="23.5346293543"></trkpt><trkpt lat="50.2458011918" lon="23.5330793727"></trkpt><trkpt lat="50.245029889" lon="23.5310800374"></trkpt><trkpt lat="50.2443020046" lon="23.5295431316"></trkpt><trkpt lat="50.2406476624" lon="23.5191339813"></trkpt><trkpt lat="50.2410338167" lon="23.5175912082"></trkpt><trkpt lat="50.2485828102" lon="23.4772148263"></trkpt><trkpt lat="50.2484176029" lon="23.475986626"></trkpt><trkpt lat="50.2473747265" lon="23.4719836805"></trkpt><trkpt lat="50.2467012405" lon="23.4711725637"></trkpt><trkpt lat="50.245562559" lon="23.4703057911"></trkpt><trkpt lat="50.2348069847" lon="23.4640834853"></trkpt><trkpt lat="50.2340572234" lon="23.4641718306"></trkpt><trkpt lat="50.231152894" lon="23.4633443691"></trkpt><trkpt lat="50.2299671061" lon="23.4624363575"></trkpt><trkpt lat="50.2279433794" lon="23.4612503182"></trkpt><trkpt lat="50.2268229704" lon="23.4613383282"></trkpt><trkpt lat="50.226125177" lon="23.4617082216"></trkpt><trkpt lat="50.2254611626" lon="23.4625146445"></trkpt><trkpt lat="50.2215150464" lon="23.4656971693"></trkpt><trkpt lat="50.2207518741" lon="23.4652478155"></trkpt><trkpt lat="50.2202318609" lon="23.4646433964"></trkpt><trkpt lat="50.2197754662" lon="23.4637309425"></trkpt><trkpt lat="50.2193822712" lon="23.462648252"></trkpt><trkpt lat="50.2189635951" lon="23.4611175489"></trkpt><trkpt lat="50.218734853" lon="23.4597013425"></trkpt><trkpt lat="50.2186115552" lon="23.4584727231"></trkpt><trkpt lat="50.2171279583" lon="23.4512243047"></trkpt><trkpt lat="50.2163750958" lon="23.4497968666"></trkpt><trkpt lat="50.2144609205" lon="23.4450600017"></trkpt><trkpt lat="50.2144167479" lon="23.4436413646"></trkpt><trkpt lat="50.2147427201" lon="23.4418343101"></trkpt><trkpt lat="50.215302296" lon="23.4398528282"></trkpt><trkpt lat="50.2194301318" lon="23.4198552836"></trkpt><trkpt lat="50.2189952787" lon="23.4166285023"></trkpt><trkpt lat="50.2188264672" lon="23.4130801912"></trkpt><trkpt lat="50.2149559557" lon="23.383760713"></trkpt><trkpt lat="50.2139348723" lon="23.3813810907"></trkpt><trkpt lat="50.2091954928" lon="23.3725992031"></trkpt><trkpt lat="50.2080685459" lon="23.3710951544"></trkpt><trkpt lat="50.2070421819" lon="23.3700955287"></trkpt><trkpt lat="50.2059851401" lon="23.3695851546"></trkpt><trkpt lat="50.204444211" lon="23.3694197796"></trkpt><trkpt lat="50.1976964436" lon="23.3671964798"></trkpt><trkpt lat="50.1962690055" lon="23.3646310307"></trkpt><trkpt lat="50.1953925099" lon="23.3623395022"></trkpt><trkpt lat="50.1947887614" lon="23.3602347225"></trkpt><trkpt lat="50.1944467798" lon="23.3586774487"></trkpt><trkpt lat="50.1943483762" lon="23.356403606"></trkpt></trkseg><trkseg><trkpt lat="50.1945601869" lon="23.3580127638"></trkpt><trkpt lat="50.1944826543" lon="23.3573930059"></trkpt><trkpt lat="50.1944658067" lon="23.3569361083"></trkpt><trkpt lat="50.1943416707" lon="23.3560912963"></trkpt><trkpt lat="50.1942746993" lon="23.354774164"></trkpt><trkpt lat="50.1928155776" lon="23.3432131726"></trkpt><trkpt lat="50.1918852702" lon="23.339233445"></trkpt><trkpt lat="50.1896934863" lon="23.3320981823"></trkpt><trkpt lat="50.179131953" lon="23.2871343847"></trkpt><trkpt lat="50.1786592975" lon="23.2829976641"></trkpt><trkpt lat="50.1783549506" lon="23.2737961784"></trkpt><trkpt lat="50.1794746891" lon="23.2402341161"></trkpt><trkpt lat="50.1803647634" lon="23.2385938615"></trkpt><trkpt lat="50.1876807399" lon="23.2210845686"></trkpt><trkpt lat="50.1881784573" lon="23.2188605145"></trkpt><trkpt lat="50.1900737733" lon="23.2061755937"></trkpt><trkpt lat="50.1903296728" lon="23.2023275457"></trkpt><trkpt lat="50.1904756017" lon="23.1814493146"></trkpt><trkpt lat="50.189941423" lon="23.1798945554"></trkpt><trkpt lat="50.1733018365" lon="23.1416571513"></trkpt><trkpt lat="50.1706697512" lon="23.13766242"></trkpt><trkpt lat="50.1663855929" lon="23.1292413734"></trkpt><trkpt lat="50.166212758" lon="23.1280492991"></trkpt><trkpt lat="50.1627763454" lon="23.0831448454"></trkpt><trkpt lat="50.1610152237" lon="23.0811961368"></trkpt><trkpt lat="50.1607040036" lon="23.0759354029"></trkpt><trkpt lat="50.15539499" lon="23.0343495961"></trkpt><trkpt lat="50.1543652732" lon="23.0332395807"></trkpt><trkpt lat="50.1534314454" lon="23.0327589624"></trkpt><trkpt lat="50.1518876664" lon="23.0327561125"></trkpt><trkpt lat="50.1326957904" lon="23.0297408905"></trkpt><trkpt lat="50.1308544539" lon="23.0288431887"></trkpt><trkpt lat="50.0789128058" lon="22.9841513"></trkpt><trkpt lat="50.0666323118" lon="22.9710519779"></trkpt><trkpt lat="50.0659570657" lon="22.9691152554"></trkpt><trkpt lat="50.0655740127" lon="22.966978373"></trkpt><trkpt lat="50.0648451224" lon="22.96444159"></trkpt><trkpt lat="50.0513624121" lon="22.9024368804"></trkpt><trkpt lat="50.0512294751" lon="22.8989201691"></trkpt><trkpt lat="50.0444963761" lon="22.8279551212"></trkpt><trkpt lat="50.0432825089" lon="22.8237040713"></trkpt><trkpt lat="50.0411292817" lon="22.8183467779"></trkpt><trkpt lat="50.039697485" lon="22.8158898745"></trkpt><trkpt lat="49.9892914016" lon="22.7434227057"></trkpt><trkpt lat="49.9884651136" lon="22.7425329667"></trkpt><trkpt lat="49.9875634722" lon="22.741106702"></trkpt><trkpt lat="49.9865249544" lon="22.7389925346"></trkpt><trkpt lat="49.9863328412" lon="22.7376855444"></trkpt><trkpt lat="49.986128239" lon="22.7350019105"></trkpt><trkpt lat="49.9860182684" lon="22.7249270305"></trkpt><trkpt lat="49.9864773452" lon="22.7237083018"></trkpt><trkpt lat="49.9871258531" lon="22.7227711212"></trkpt><trkpt lat="49.9883715715" lon="22.72128677"></trkpt><trkpt lat="49.9890066683" lon="22.7203656826"></trkpt><trkpt lat="49.9887294788" lon="22.7203495055"></trkpt><trkpt lat="49.989009602" lon="22.7204500884"></trkpt><trkpt lat="49.9885766767" lon="22.721045455"></trkpt><trkpt lat="49.9862476811" lon="22.7236782108"></trkpt><trkpt lat="49.9676630739" lon="22.7492954861"></trkpt><trkpt lat="49.9652161449" lon="22.753868904"></trkpt><trkpt lat="49.9603601731" lon="22.7650793642"></trkpt><trkpt lat="49.9585908372" lon="22.7705254219"></trkpt><trkpt lat="49.9294553418" lon="22.8389092628"></trkpt><trkpt lat="49.9243530259" lon="22.8412980214"></trkpt><trkpt lat="49.8668858595" lon="22.8594557382"></trkpt><trkpt lat="49.865216855" lon="22.8585111815"></trkpt><trkpt lat="49.8027126677" lon="22.7985328808"></trkpt><trkpt lat="49.8017974477" lon="22.7939332277"></trkpt><trkpt lat="49.8000002839" lon="22.7873479016"></trkpt><trkpt lat="49.7981911339" lon="22.7835913841"></trkpt><trkpt lat="49.7888562921" lon="22.7679160517"></trkpt><trkpt lat="49.7878855839" lon="22.7681865357"></trkpt><trkpt lat="49.7870877106" lon="22.7688385639"></trkpt><trkpt lat="49.786156062" lon="22.7699967753"></trkpt><trkpt lat="49.7840878274" lon="22.7733208705"></trkpt><trkpt lat="49.7837624419" lon="22.7747844346"></trkpt><trkpt lat="49.7836831491" lon="22.7764243539"></trkpt><trkpt lat="49.7837476898" lon="22.7792134322"></trkpt><trkpt lat="49.7834620345" lon="22.7790478896"></trkpt><trkpt lat="49.7836415749" lon="22.7793651447"></trkpt><trkpt lat="49.7834819835" lon="22.7788498253"></trkpt><trkpt lat="49.7833688278" lon="22.7793482132"></trkpt><trkpt lat="49.7836075444" lon="22.7790649887"></trkpt><trkpt lat="49.7836067062" lon="22.7795782126"></trkpt><trkpt lat="49.7848680988" lon="22.7989887726"></trkpt><trkpt lat="49.7848365828" lon="22.8009492997"></trkpt><trkpt lat="49.7869952582" lon="22.8422156721"></trkpt><trkpt lat="49.7883232869" lon="22.8407472465"></trkpt><trkpt lat="49.8002357315" lon="22.8241768107"></trkpt><trkpt lat="49.8020800017" lon="22.8203213867"></trkpt><trkpt lat="49.8031564057" lon="22.8185657132"></trkpt><trkpt lat="49.804285951" lon="22.817250425"></trkpt><trkpt lat="49.80562496" lon="22.8160724323"></trkpt><trkpt lat="49.8132568505" lon="22.8112793248"></trkpt><trkpt lat="49.8145572189" lon="22.8118615318"></trkpt><trkpt lat="49.8155759554" lon="22.8128144704"></trkpt><trkpt lat="49.8162284028" lon="22.8137054667"></trkpt><trkpt lat="49.816885544" lon="22.8149751574"></trkpt><trkpt lat="49.8174312897" lon="22.8165548109"></trkpt><trkpt lat="49.8184289038" lon="22.820410151"></trkpt><trkpt lat="49.8199435137" lon="22.8247886058"></trkpt><trkpt lat="49.8204654548" lon="22.825756548"></trkpt><trkpt lat="49.8253413755" lon="22.8330055531"></trkpt><trkpt lat="49.826278137" lon="22.8334628697"></trkpt><trkpt lat="49.8313797824" lon="22.8367814329"></trkpt><trkpt lat="49.8320030607" lon="22.83707086"></trkpt><trkpt lat="49.8322858661" lon="22.8372554295"></trkpt><trkpt lat="49.8325612955" lon="22.8375048749"></trkpt><trkpt lat="49.8322900571" lon="22.8373895399"></trkpt><trkpt lat="49.8319995403" lon="22.8371805791"></trkpt><trkpt lat="49.8316645995" lon="22.8370599635"></trkpt><trkpt lat="49.8313016631" lon="22.8368199058"></trkpt><trkpt lat="49.8224907741" lon="22.8294525482"></trkpt><trkpt lat="49.8217369057" lon="22.8280841187"></trkpt><trkpt lat="49.8183589149" lon="22.8199379146"></trkpt><trkpt lat="49.8176357243" lon="22.8167461697"></trkpt><trkpt lat="49.8152941559" lon="22.8098068759"></trkpt><trkpt lat="49.8143381998" lon="22.8090002015"></trkpt><trkpt lat="49.8133372329" lon="22.8085872252"></trkpt><trkpt lat="49.8121058475" lon="22.8085461538"></trkpt><trkpt lat="49.8053277377" lon="22.8068070766"></trkpt><trkpt lat="49.804330878" lon="22.8054942191"></trkpt><trkpt lat="49.8036674503" lon="22.8040251229"></trkpt><trkpt lat="49.8031873349" lon="22.8020469937"></trkpt><trkpt lat="49.8024305329" lon="22.7978114504"></trkpt><trkpt lat="49.798089629" lon="22.7835634723"></trkpt><trkpt lat="49.7957018763" lon="22.7785382699"></trkpt><trkpt lat="49.7894918919" lon="22.7680364996"></trkpt><trkpt lat="49.7892113496" lon="22.7680536825"></trkpt><trkpt lat="49.7874962445" lon="22.7685920522"></trkpt><trkpt lat="49.7865659371" lon="22.769510122"></trkpt><trkpt lat="49.7856501304" lon="22.7707127575"></trkpt><trkpt lat="49.7839799523" lon="22.7741556242"></trkpt><trkpt lat="49.7838017531" lon="22.775430344"></trkpt><trkpt lat="49.7837895993" lon="22.7771609556"></trkpt><trkpt lat="49.7838716581" lon="22.7785842866"></trkpt><trkpt lat="49.7835809737" lon="22.7786815166"></trkpt><trkpt lat="49.7843339201" lon="22.8144694772"></trkpt><trkpt lat="49.792032782" lon="22.9041393287"></trkpt><trkpt lat="49.7933059931" lon="22.9077443015"></trkpt><trkpt lat="49.7996784188" lon="22.9307489377"></trkpt><trkpt lat="49.8001448717" lon="22.9335518461"></trkpt><trkpt lat="49.8007425014" lon="22.9352547135"></trkpt><trkpt lat="49.8020222504" lon="22.9380960949"></trkpt><trkpt lat="49.8037320748" lon="22.9431753606"></trkpt><trkpt lat="49.8044938222" lon="22.9460740741"></trkpt><trkpt lat="49.804375302" lon="22.9464748129"></trkpt><trkpt lat="49.804197941" lon="22.946081534"></trkpt><trkpt lat="49.8043370806" lon="22.9457058571"></trkpt><trkpt lat="49.8043983523" lon="22.9461351782"></trkpt><trkpt lat="49.8046711832" lon="22.9461229406"></trkpt><trkpt lat="49.8044983484" lon="22.9456446692"></trkpt><trkpt lat="49.7990455851" lon="22.9265780188"></trkpt><trkpt lat="49.7989108879" lon="22.9256438557"></trkpt><trkpt lat="49.7984354664" lon="22.9234721884"></trkpt><trkpt lat="49.7976071667" lon="22.9208291229"></trkpt><trkpt lat="49.784973124" lon="22.8674636409"></trkpt><trkpt lat="49.7851369902" lon="22.8650924843"></trkpt><trkpt lat="49.7851153649" lon="22.8461481258"></trkpt><trkpt lat="49.7847230919" lon="22.8403308336"></trkpt><trkpt lat="49.7844795138" lon="22.8104050085"></trkpt><trkpt lat="49.7832291853" lon="22.7912237775"></trkpt><trkpt lat="49.782843031" lon="22.7920426894"></trkpt><trkpt lat="49.7822438926" lon="22.7927405667"></trkpt><trkpt lat="49.7813897766" lon="22.7932596579"></trkpt><trkpt lat="49.7808933165" lon="22.7936654259"></trkpt><trkpt lat="49.7816213686" lon="22.7931858972"></trkpt><trkpt lat="49.7828501556" lon="22.7921081521"></trkpt><trkpt lat="49.7832930554" lon="22.7910978813"></trkpt><trkpt lat="49.7835513018" lon="22.789890971"></trkpt><trkpt lat="49.7836639546" lon="22.7889080252"></trkpt><trkpt lat="49.7837044392" lon="22.7873274498"></trkpt><trkpt lat="49.7825425398" lon="22.7783749066"></trkpt><trkpt lat="49.783803178" lon="22.7785455622"></trkpt><trkpt lat="49.9796574935" lon="22.7316690143"></trkpt><trkpt lat="49.9819343537" lon="22.7289238572"></trkpt><trkpt lat="50.0090336334" lon="22.6886180509"></trkpt><trkpt lat="50.0093228091" lon="22.6863680966"></trkpt><trkpt lat="50.01475906" lon="22.6584175508"></trkpt><trkpt lat="50.0156197138" lon="22.6562283654"></trkpt><trkpt lat="50.0167537853" lon="22.6542901341"></trkpt><trkpt lat="50.0184406433" lon="22.6519849431"></trkpt><trkpt lat="50.0597930141" lon="22.5839284994"></trkpt><trkpt lat="50.0608995929" lon="22.5782854669"></trkpt><trkpt lat="50.0673066359" lon="22.5278383959"></trkpt><trkpt lat="50.0662329979" lon="22.5236051995"></trkpt><trkpt lat="50.0655631162" lon="22.5145478826"></trkpt><trkpt lat="50.0836697873" lon="22.3637611326"></trkpt><trkpt lat="50.0836246088" lon="22.3526303843"></trkpt><trkpt lat="50.0819350686" lon="22.2253915854"></trkpt><trkpt lat="50.0818961766" lon="22.2258381732"></trkpt><trkpt lat="50.0818952546" lon="22.2268865816"></trkpt><trkpt lat="50.0818369165" lon="22.2263160255"></trkpt><trkpt lat="50.0818212423" lon="22.2255175654"></trkpt><trkpt lat="50.0770153105" lon="22.1624803729"></trkpt><trkpt lat="50.0763058662" lon="22.1582037583"></trkpt><trkpt lat="50.0687695295" lon="22.1324170008"></trkpt><trkpt lat="50.0684634224" lon="22.1325027477"></trkpt><trkpt lat="50.0713850185" lon="22.1279144939"></trkpt><trkpt lat="50.0702345185" lon="22.1207664907"></trkpt><trkpt lat="50.0686528534" lon="22.1174413059"></trkpt><trkpt lat="50.0431603007" lon="22.0060311444"></trkpt></trkseg></trk></gpx>