<?xml version="1.0" encoding="UTF-8" standalone="no" ?><gpx xmlns="http://www.topografix.com/GPX/1/1" xmlns:gpxx="http://www.garmin.com/xmlschemas/GpxExtensions/v3" ><trk><trkseg><trkpt lat="52.259759" lon="15.895622"></trkpt><trkpt lat="52.259916" lon="15.895856"></trkpt><trkpt lat="52.260023" lon="15.896156"></trkpt><trkpt lat="52.260224" lon="15.896416"></trkpt><trkpt lat="52.26044" lon="15.896083"></trkpt><trkpt lat="52.26056" lon="15.89574"></trkpt><trkpt lat="52.260753" lon="15.895073"></trkpt><trkpt lat="52.260787" lon="15.894561"></trkpt><trkpt lat="52.260839" lon="15.894206"></trkpt><trkpt lat="52.260934" lon="15.89388"></trkpt><trkpt lat="52.261051" lon="15.893306"></trkpt><trkpt lat="52.260903" lon="15.893884"></trkpt><trkpt lat="52.259755" lon="15.900203"></trkpt><trkpt lat="52.259755" lon="15.900877"></trkpt><trkpt lat="52.259894" lon="15.901209"></trkpt><trkpt lat="52.260311" lon="15.9006"></trkpt><trkpt lat="52.260441" lon="15.900356"></trkpt><trkpt lat="52.265986" lon="15.891322"></trkpt><trkpt lat="52.266232" lon="15.891012"></trkpt><trkpt lat="52.267886" lon="15.888601"></trkpt><trkpt lat="52.269582" lon="15.886466"></trkpt><trkpt lat="52.270059" lon="15.886049"></trkpt><trkpt lat="52.27044" lon="15.885889"></trkpt><trkpt lat="52.279758" lon="15.883172"></trkpt><trkpt lat="52.280035" lon="15.883216"></trkpt><trkpt lat="52.281892" lon="15.882632"></trkpt><trkpt lat="52.282273" lon="15.882429"></trkpt><trkpt lat="52.31733" lon="15.868386"></trkpt><trkpt lat="52.317596" lon="15.8687"></trkpt><trkpt lat="52.318007" lon="15.869412"></trkpt><trkpt lat="52.318576" lon="15.870222"></trkpt><trkpt lat="52.318771" lon="15.870327"></trkpt><trkpt lat="52.323291" lon="15.872038"></trkpt><trkpt lat="52.323732" lon="15.872062"></trkpt><trkpt lat="52.334859" lon="15.87396"></trkpt><trkpt lat="52.335435" lon="15.874146"></trkpt><trkpt lat="52.338123" lon="15.874669"></trkpt><trkpt lat="52.346672" lon="15.875324"></trkpt><trkpt lat="52.352154" lon="15.874131"></trkpt><trkpt lat="52.352608" lon="15.873918"></trkpt><trkpt lat="52.352989" lon="15.873966"></trkpt><trkpt lat="52.353587" lon="15.874193"></trkpt><trkpt lat="52.360288" lon="15.875713"></trkpt><trkpt lat="52.360844" lon="15.875361"></trkpt><trkpt lat="52.364915" lon="15.873538"></trkpt><trkpt lat="52.365025" lon="15.873896"></trkpt><trkpt lat="52.366166" lon="15.877013"></trkpt><trkpt lat="52.366327" lon="15.877242"></trkpt><trkpt lat="52.366638" lon="15.877762"></trkpt><trkpt lat="52.366744" lon="15.878057"></trkpt><trkpt lat="52.367426" lon="15.879657"></trkpt><trkpt lat="52.367584" lon="15.879947"></trkpt><trkpt lat="52.36788" lon="15.880381"></trkpt><trkpt lat="52.368189" lon="15.880772"></trkpt><trkpt lat="52.368414" lon="15.880982"></trkpt><trkpt lat="52.368643" lon="15.881243"></trkpt><trkpt lat="52.368905" lon="15.881619"></trkpt><trkpt lat="52.369093" lon="15.881839"></trkpt><trkpt lat="52.369363" lon="15.881638"></trkpt><trkpt lat="52.369557" lon="15.881553"></trkpt><trkpt lat="52.369782" lon="15.881507"></trkpt><trkpt lat="52.369885" lon="15.881798"></trkpt><trkpt lat="52.370029" lon="15.882415"></trkpt><trkpt lat="52.370145" lon="15.883074"></trkpt><trkpt lat="52.370221" lon="15.883757"></trkpt><trkpt lat="52.370139" lon="15.884104"></trkpt><trkpt lat="52.369968" lon="15.885029"></trkpt><trkpt lat="52.369934" lon="15.885488"></trkpt><trkpt lat="52.369916" lon="15.886165"></trkpt><trkpt lat="52.369944" lon="15.886508"></trkpt><trkpt lat="52.369899" lon="15.887552"></trkpt><trkpt lat="52.369602" lon="15.887579"></trkpt><trkpt lat="52.369063" lon="15.887745"></trkpt><trkpt lat="52.368754" lon="15.888185"></trkpt><trkpt lat="52.367902" lon="15.889228"></trkpt><trkpt lat="52.366316" lon="15.891728"></trkpt><trkpt lat="52.366074" lon="15.89231"></trkpt><trkpt lat="52.365856" lon="15.892642"></trkpt><trkpt lat="52.365551" lon="15.892943"></trkpt><trkpt lat="52.365176" lon="15.893222"></trkpt><trkpt lat="52.364644" lon="15.893539"></trkpt><trkpt lat="52.364205" lon="15.893617"></trkpt><trkpt lat="52.363858" lon="15.893599"></trkpt><trkpt lat="52.362896" lon="15.893426"></trkpt><trkpt lat="52.362543" lon="15.893209"></trkpt><trkpt lat="52.361016" lon="15.892512"></trkpt><trkpt lat="52.360858" lon="15.892736"></trkpt><trkpt lat="52.36075" lon="15.89305"></trkpt><trkpt lat="52.360033" lon="15.89555"></trkpt><trkpt lat="52.359527" lon="15.897796"></trkpt><trkpt lat="52.35944" lon="15.898384"></trkpt><trkpt lat="52.359182" lon="15.899615"></trkpt><trkpt lat="52.359039" lon="15.900159"></trkpt><trkpt lat="52.358934" lon="15.90046"></trkpt><trkpt lat="52.358795" lon="15.900792"></trkpt><trkpt lat="52.358526" lon="15.901564"></trkpt><trkpt lat="52.356368" lon="15.909028"></trkpt><trkpt lat="52.356344" lon="15.909385"></trkpt><trkpt lat="52.356294" lon="15.909715"></trkpt><trkpt lat="52.356177" lon="15.910995"></trkpt><trkpt lat="52.35607" lon="15.91171"></trkpt><trkpt lat="52.355955" lon="15.912127"></trkpt><trkpt lat="52.355825" lon="15.912746"></trkpt><trkpt lat="52.355723" lon="15.913038"></trkpt><trkpt lat="52.355535" lon="15.913457"></trkpt><trkpt lat="52.355007" lon="15.914882"></trkpt><trkpt lat="52.354995" lon="15.915269"></trkpt><trkpt lat="52.355091" lon="15.923325"></trkpt><trkpt lat="52.355147" lon="15.923645"></trkpt><trkpt lat="52.35528" lon="15.924013"></trkpt><trkpt lat="52.355341" lon="15.924462"></trkpt><trkpt lat="52.355368" lon="15.924808"></trkpt><trkpt lat="52.355356" lon="15.92524"></trkpt><trkpt lat="52.355214" lon="15.926989"></trkpt><trkpt lat="52.355258" lon="15.927387"></trkpt><trkpt lat="52.355224" lon="15.927761"></trkpt><trkpt lat="52.35529" lon="15.928148"></trkpt><trkpt lat="52.354933" lon="15.928001"></trkpt><trkpt lat="52.354955" lon="15.928386"></trkpt><trkpt lat="52.354844" lon="15.928683"></trkpt><trkpt lat="52.354767" lon="15.929034"></trkpt><trkpt lat="52.354543" lon="15.929859"></trkpt><trkpt lat="52.354301" lon="15.931015"></trkpt><trkpt lat="52.354383" lon="15.931359"></trkpt><trkpt lat="52.354539" lon="15.931866"></trkpt><trkpt lat="52.354735" lon="15.932205"></trkpt><trkpt lat="52.354926" lon="15.932466"></trkpt><trkpt lat="52.355224" lon="15.932954"></trkpt><trkpt lat="52.355664" lon="15.933578"></trkpt><trkpt lat="52.356735" lon="15.935326"></trkpt><trkpt lat="52.356891" lon="15.935711"></trkpt><trkpt lat="52.356991" lon="15.936118"></trkpt><trkpt lat="52.357117" lon="15.936763"></trkpt><trkpt lat="52.357012" lon="15.936428"></trkpt><trkpt lat="52.356956" lon="15.936078"></trkpt><trkpt lat="52.35705" lon="15.936532"></trkpt><trkpt lat="52.357113" lon="15.937114"></trkpt><trkpt lat="52.357208" lon="15.937427"></trkpt><trkpt lat="52.357419" lon="15.937687"></trkpt><trkpt lat="52.357652" lon="15.937793"></trkpt><trkpt lat="52.357922" lon="15.937771"></trkpt><trkpt lat="52.358186" lon="15.937664"></trkpt><trkpt lat="52.358466" lon="15.937603"></trkpt><trkpt lat="52.35895" lon="15.937779"></trkpt><trkpt lat="52.359127" lon="15.938013"></trkpt><trkpt lat="52.359494" lon="15.938604"></trkpt><trkpt lat="52.359504" lon="15.939247"></trkpt><trkpt lat="52.359624" lon="15.939984"></trkpt><trkpt lat="52.359846" lon="15.940405"></trkpt><trkpt lat="52.360041" lon="15.940615"></trkpt><trkpt lat="52.361828" lon="15.942255"></trkpt><trkpt lat="52.361985" lon="15.942506"></trkpt><trkpt lat="52.362086" lon="15.943139"></trkpt><trkpt lat="52.362182" lon="15.943551"></trkpt><trkpt lat="52.362314" lon="15.943837"></trkpt><trkpt lat="52.362546" lon="15.944131"></trkpt><trkpt lat="52.362802" lon="15.94436"></trkpt><trkpt lat="52.363082" lon="15.944676"></trkpt><trkpt lat="52.363321" lon="15.944901"></trkpt><trkpt lat="52.363739" lon="15.945233"></trkpt><trkpt lat="52.363944" lon="15.945321"></trkpt><trkpt lat="52.36432" lon="15.945397"></trkpt><trkpt lat="52.364634" lon="15.945282"></trkpt><trkpt lat="52.364862" lon="15.945152"></trkpt><trkpt lat="52.365194" lon="15.945119"></trkpt><trkpt lat="52.365396" lon="15.945324"></trkpt><trkpt lat="52.365677" lon="15.945873"></trkpt><trkpt lat="52.366344" lon="15.947393"></trkpt><trkpt lat="52.366471" lon="15.948055"></trkpt><trkpt lat="52.366488" lon="15.94856"></trkpt><trkpt lat="52.366963" lon="15.952736"></trkpt><trkpt lat="52.367168" lon="15.952814"></trkpt><trkpt lat="52.370213" lon="15.954347"></trkpt><trkpt lat="52.37048" lon="15.954689"></trkpt><trkpt lat="52.371075" lon="15.955581"></trkpt><trkpt lat="52.371254" lon="15.956038"></trkpt><trkpt lat="52.371643" lon="15.95671"></trkpt><trkpt lat="52.371842" lon="15.956586"></trkpt><trkpt lat="52.37205" lon="15.956624"></trkpt><trkpt lat="52.372244" lon="15.956753"></trkpt><trkpt lat="52.372387" lon="15.956985"></trkpt><trkpt lat="52.372527" lon="15.957313"></trkpt><trkpt lat="52.372751" lon="15.957127"></trkpt><trkpt lat="52.373019" lon="15.957002"></trkpt><trkpt lat="52.373605" lon="15.956813"></trkpt><trkpt lat="52.373818" lon="15.957088"></trkpt><trkpt lat="52.374176" lon="15.95769"></trkpt><trkpt lat="52.37468" lon="15.958396"></trkpt><trkpt lat="52.374987" lon="15.958562"></trkpt><trkpt lat="52.375715" lon="15.959067"></trkpt><trkpt lat="52.375719" lon="15.959409"></trkpt><trkpt lat="52.375855" lon="15.959102"></trkpt><trkpt lat="52.37603" lon="15.958923"></trkpt><trkpt lat="52.376269" lon="15.958736"></trkpt><trkpt lat="52.376743" lon="15.958474"></trkpt><trkpt lat="52.376948" lon="15.95839"></trkpt><trkpt lat="52.377247" lon="15.958305"></trkpt><trkpt lat="52.377515" lon="15.958276"></trkpt><trkpt lat="52.378509" lon="15.958504"></trkpt><trkpt lat="52.380807" lon="15.959388"></trkpt><trkpt lat="52.381173" lon="15.959621"></trkpt><trkpt lat="52.384397" lon="15.962144"></trkpt><trkpt lat="52.384616" lon="15.962387"></trkpt><trkpt lat="52.385016" lon="15.962739"></trkpt><trkpt lat="52.385324" lon="15.962943"></trkpt><trkpt lat="52.385641" lon="15.963075"></trkpt><trkpt lat="52.386009" lon="15.963164"></trkpt><trkpt lat="52.389919" lon="15.963561"></trkpt><trkpt lat="52.390142" lon="15.963418"></trkpt><trkpt lat="52.390592" lon="15.963065"></trkpt><trkpt lat="52.40182" lon="15.952619"></trkpt><trkpt lat="52.402287" lon="15.952039"></trkpt><trkpt lat="52.406263" lon="15.947801"></trkpt><trkpt lat="52.40644" lon="15.947643"></trkpt><trkpt lat="52.412896" lon="15.94284"></trkpt><trkpt lat="52.413155" lon="15.942883"></trkpt><trkpt lat="52.413469" lon="15.942985"></trkpt><trkpt lat="52.413684" lon="15.943088"></trkpt><trkpt lat="52.414036" lon="15.943333"></trkpt><trkpt lat="52.422982" lon="15.950845"></trkpt><trkpt lat="52.4233" lon="15.95117"></trkpt><trkpt lat="52.43232" lon="15.958975"></trkpt><trkpt lat="52.432557" lon="15.959028"></trkpt><trkpt lat="52.437588" lon="15.960959"></trkpt><trkpt lat="52.437601" lon="15.961449"></trkpt><trkpt lat="52.43803" lon="15.967507"></trkpt><trkpt lat="52.438033" lon="15.967906"></trkpt><trkpt lat="52.43806" lon="15.968422"></trkpt><trkpt lat="52.442191" lon="16.011543"></trkpt><trkpt lat="52.442333" lon="16.012025"></trkpt><trkpt lat="52.445045" lon="16.023164"></trkpt><trkpt lat="52.444982" lon="16.023789"></trkpt><trkpt lat="52.444979" lon="16.024351"></trkpt><trkpt lat="52.444943" lon="16.024975"></trkpt><trkpt lat="52.445006" lon="16.025593"></trkpt><trkpt lat="52.445062" lon="16.025928"></trkpt><trkpt lat="52.445421" lon="16.027488"></trkpt><trkpt lat="52.445584" lon="16.02799"></trkpt><trkpt lat="52.445745" lon="16.028301"></trkpt><trkpt lat="52.445928" lon="16.02859"></trkpt><trkpt lat="52.446247" lon="16.029182"></trkpt><trkpt lat="52.446394" lon="16.029562"></trkpt><trkpt lat="52.446607" lon="16.030259"></trkpt><trkpt lat="52.446874" lon="16.030996"></trkpt><trkpt lat="52.447007" lon="16.03131"></trkpt><trkpt lat="52.4471" lon="16.031652"></trkpt><trkpt lat="52.447541" lon="16.032997"></trkpt><trkpt lat="52.447704" lon="16.033302"></trkpt><trkpt lat="52.44834" lon="16.034309"></trkpt><trkpt lat="52.448641" lon="16.034709"></trkpt><trkpt lat="52.453236" lon="16.041809"></trkpt><trkpt lat="52.453415" lon="16.042287"></trkpt><trkpt lat="52.453537" lon="16.042555"></trkpt><trkpt lat="52.453713" lon="16.042848"></trkpt><trkpt lat="52.454003" lon="16.043442"></trkpt><trkpt lat="52.454381" lon="16.044061"></trkpt><trkpt lat="52.456478" lon="16.047041"></trkpt><trkpt lat="52.456797" lon="16.047605"></trkpt><trkpt lat="52.457" lon="16.048174"></trkpt><trkpt lat="52.457095" lon="16.048502"></trkpt><trkpt lat="52.457171" lon="16.048993"></trkpt><trkpt lat="52.45823" lon="16.05416"></trkpt><trkpt lat="52.45839" lon="16.054533"></trkpt><trkpt lat="52.459451" lon="16.056669"></trkpt><trkpt lat="52.4596" lon="16.056897"></trkpt><trkpt lat="52.460283" lon="16.058155"></trkpt><trkpt lat="52.460385" lon="16.058624"></trkpt><trkpt lat="52.460595" lon="16.05992"></trkpt><trkpt lat="52.462975" lon="16.071105"></trkpt><trkpt lat="52.463136" lon="16.071521"></trkpt><trkpt lat="52.46499" lon="16.077357"></trkpt><trkpt lat="52.465034" lon="16.07807"></trkpt><trkpt lat="52.465008" lon="16.082117"></trkpt><trkpt lat="52.464859" lon="16.082598"></trkpt><trkpt lat="52.464679" lon="16.082972"></trkpt><trkpt lat="52.46448" lon="16.083083"></trkpt><trkpt lat="52.464232" lon="16.083106"></trkpt><trkpt lat="52.463275" lon="16.083368"></trkpt><trkpt lat="52.462948" lon="16.083842"></trkpt><trkpt lat="52.456823" lon="16.09413"></trkpt><trkpt lat="52.45666" lon="16.094495"></trkpt><trkpt lat="52.44893" lon="16.115099"></trkpt><trkpt lat="52.448988" lon="16.115487"></trkpt><trkpt lat="52.449552" lon="16.121424"></trkpt><trkpt lat="52.44957" lon="16.122414"></trkpt><trkpt lat="52.449364" lon="16.127012"></trkpt><trkpt lat="52.449237" lon="16.127757"></trkpt><trkpt lat="52.449209" lon="16.128173"></trkpt><trkpt lat="52.448473" lon="16.133543"></trkpt><trkpt lat="52.448123" lon="16.133945"></trkpt><trkpt lat="52.4479" lon="16.134365"></trkpt><trkpt lat="52.447652" lon="16.135132"></trkpt><trkpt lat="52.44698" lon="16.137638"></trkpt><trkpt lat="52.446934" lon="16.13827"></trkpt><trkpt lat="52.446828" lon="16.139114"></trkpt><trkpt lat="52.446686" lon="16.139846"></trkpt><trkpt lat="52.446654" lon="16.140425"></trkpt><trkpt lat="52.446658" lon="16.141116"></trkpt><trkpt lat="52.446145" lon="16.153546"></trkpt><trkpt lat="52.446066" lon="16.154267"></trkpt><trkpt lat="52.445599" lon="16.161395"></trkpt><trkpt lat="52.445632" lon="16.16226"></trkpt><trkpt lat="52.445963" lon="16.16632"></trkpt><trkpt lat="52.44604" lon="16.166816"></trkpt><trkpt lat="52.448359" lon="16.177891"></trkpt><trkpt lat="52.448587" lon="16.177969"></trkpt><trkpt lat="52.448812" lon="16.178734"></trkpt><trkpt lat="52.448901" lon="16.179167"></trkpt><trkpt lat="52.448791" lon="16.179555"></trkpt><trkpt lat="52.448591" lon="16.179655"></trkpt><trkpt lat="52.448347" lon="16.179813"></trkpt><trkpt lat="52.448409" lon="16.18037"></trkpt><trkpt lat="52.44851" lon="16.180898"></trkpt><trkpt lat="52.448589" lon="16.181216"></trkpt><trkpt lat="52.448817" lon="16.181246"></trkpt><trkpt lat="52.449118" lon="16.18109"></trkpt><trkpt lat="52.449347" lon="16.181002"></trkpt><trkpt lat="52.449473" lon="16.181395"></trkpt><trkpt lat="52.449577" lon="16.181879"></trkpt><trkpt lat="52.450272" lon="16.184441"></trkpt><trkpt lat="52.450376" lon="16.184736"></trkpt><trkpt lat="52.450505" lon="16.185256"></trkpt><trkpt lat="52.450758" lon="16.186584"></trkpt><trkpt lat="52.450766" lon="16.187015"></trkpt><trkpt lat="52.450714" lon="16.187562"></trkpt><trkpt lat="52.450593" lon="16.188206"></trkpt><trkpt lat="52.450193" lon="16.189823"></trkpt><trkpt lat="52.449849" lon="16.190388"></trkpt><trkpt lat="52.449352" lon="16.191528"></trkpt><trkpt lat="52.449325" lon="16.192062"></trkpt><trkpt lat="52.449243" lon="16.192404"></trkpt><trkpt lat="52.449199" lon="16.192723"></trkpt><trkpt lat="52.449374" lon="16.192959"></trkpt><trkpt lat="52.449442" lon="16.193449"></trkpt><trkpt lat="52.449499" lon="16.194473"></trkpt><trkpt lat="52.4494" lon="16.194926"></trkpt><trkpt lat="52.449391" lon="16.195376"></trkpt><trkpt lat="52.449264" lon="16.196906"></trkpt><trkpt lat="52.449162" lon="16.19762"></trkpt><trkpt lat="52.44363" lon="16.226734"></trkpt><trkpt lat="52.443492" lon="16.227299"></trkpt><trkpt lat="52.440342" lon="16.237746"></trkpt><trkpt lat="52.440582" lon="16.237581"></trkpt><trkpt lat="52.440403" lon="16.237947"></trkpt><trkpt lat="52.438555" lon="16.241212"></trkpt><trkpt lat="52.438049" lon="16.241905"></trkpt><trkpt lat="52.434986" lon="16.246801"></trkpt><trkpt lat="52.434897" lon="16.247177"></trkpt><trkpt lat="52.434936" lon="16.247562"></trkpt><trkpt lat="52.438608" lon="16.310944"></trkpt><trkpt lat="52.43938" lon="16.317834"></trkpt><trkpt lat="52.439575" lon="16.318278"></trkpt><trkpt lat="52.440076" lon="16.319249"></trkpt><trkpt lat="52.440292" lon="16.319374"></trkpt><trkpt lat="52.440476" lon="16.319526"></trkpt><trkpt lat="52.440256" lon="16.319367"></trkpt><trkpt lat="52.440378" lon="16.319895"></trkpt><trkpt lat="52.440545" lon="16.320244"></trkpt><trkpt lat="52.447998" lon="16.338321"></trkpt><trkpt lat="52.44818" lon="16.338942"></trkpt><trkpt lat="52.449779" lon="16.346442"></trkpt><trkpt lat="52.449663" lon="16.346899"></trkpt><trkpt lat="52.449494" lon="16.347754"></trkpt><trkpt lat="52.449656" lon="16.348183"></trkpt><trkpt lat="52.450063" lon="16.348265"></trkpt><trkpt lat="52.451116" lon="16.348762"></trkpt><trkpt lat="52.451113" lon="16.349197"></trkpt><trkpt lat="52.450962" lon="16.352229"></trkpt><trkpt lat="52.450959" lon="16.35272"></trkpt><trkpt lat="52.450988" lon="16.353224"></trkpt><trkpt lat="52.451071" lon="16.353969"></trkpt><trkpt lat="52.45122" lon="16.354655"></trkpt><trkpt lat="52.451494" lon="16.355352"></trkpt><trkpt lat="52.452485" lon="16.358317"></trkpt><trkpt lat="52.45251" lon="16.358833"></trkpt><trkpt lat="52.45254" lon="16.364106"></trkpt><trkpt lat="52.454993" lon="16.414361"></trkpt><trkpt lat="52.455268" lon="16.415253"></trkpt><trkpt lat="52.463435" lon="16.448026"></trkpt><trkpt lat="52.463177" lon="16.448169"></trkpt><trkpt lat="52.462968" lon="16.448427"></trkpt><trkpt lat="52.454261" lon="16.460842"></trkpt><trkpt lat="52.454078" lon="16.461143"></trkpt><trkpt lat="52.453961" lon="16.4615"></trkpt><trkpt lat="52.45398" lon="16.461851"></trkpt><trkpt lat="52.454075" lon="16.462626"></trkpt><trkpt lat="52.454495" lon="16.46823"></trkpt><trkpt lat="52.454479" lon="16.468796"></trkpt><trkpt lat="52.454448" lon="16.469177"></trkpt><trkpt lat="52.45268" lon="16.482811"></trkpt><trkpt lat="52.45244" lon="16.483623"></trkpt><trkpt lat="52.450187" lon="16.489661"></trkpt><trkpt lat="52.450011" lon="16.489828"></trkpt><trkpt lat="52.449865" lon="16.490227"></trkpt><trkpt lat="52.449831" lon="16.490587"></trkpt><trkpt lat="52.449786" lon="16.491514"></trkpt><trkpt lat="52.449835" lon="16.492115"></trkpt><trkpt lat="52.449857" lon="16.493033"></trkpt><trkpt lat="52.449829" lon="16.493365"></trkpt><trkpt lat="52.449632" lon="16.498212"></trkpt><trkpt lat="52.449661" lon="16.498891"></trkpt><trkpt lat="52.450183" lon="16.504144"></trkpt><trkpt lat="52.450284" lon="16.504464"></trkpt><trkpt lat="52.452132" lon="16.511491"></trkpt><trkpt lat="52.452276" lon="16.512334"></trkpt><trkpt lat="52.452553" lon="16.515563"></trkpt><trkpt lat="52.452394" lon="16.516455"></trkpt><trkpt lat="52.451754" lon="16.519264"></trkpt><trkpt lat="52.451464" lon="16.51945"></trkpt><trkpt lat="52.451265" lon="16.51953"></trkpt><trkpt lat="52.44282" lon="16.524108"></trkpt><trkpt lat="52.442421" lon="16.524471"></trkpt><trkpt lat="52.434195" lon="16.530222"></trkpt><trkpt lat="52.433866" lon="16.529919"></trkpt><trkpt lat="52.432865" lon="16.52872"></trkpt><trkpt lat="52.43294" lon="16.528338"></trkpt><trkpt lat="52.432788" lon="16.528585"></trkpt><trkpt lat="52.432695" lon="16.528877"></trkpt><trkpt lat="52.432905" lon="16.529157"></trkpt><trkpt lat="52.433152" lon="16.529382"></trkpt><trkpt lat="52.433214" lon="16.529718"></trkpt><trkpt lat="52.433149" lon="16.530098"></trkpt><trkpt lat="52.431803" lon="16.540838"></trkpt><trkpt lat="52.431945" lon="16.541468"></trkpt><trkpt lat="52.434964" lon="16.552337"></trkpt><trkpt lat="52.43532" lon="16.553105"></trkpt><trkpt lat="52.439834" lon="16.561445"></trkpt><trkpt lat="52.440252" lon="16.561772"></trkpt><trkpt lat="52.458374" lon="16.578682"></trkpt><trkpt lat="52.458187" lon="16.579354"></trkpt><trkpt lat="52.458094" lon="16.579787"></trkpt><trkpt lat="52.458024" lon="16.580204"></trkpt><trkpt lat="52.457922" lon="16.580525"></trkpt><trkpt lat="52.457771" lon="16.580912"></trkpt><trkpt lat="52.457531" lon="16.581273"></trkpt><trkpt lat="52.457357" lon="16.581434"></trkpt><trkpt lat="52.457123" lon="16.581566"></trkpt><trkpt lat="52.456686" lon="16.581675"></trkpt><trkpt lat="52.456282" lon="16.581991"></trkpt><trkpt lat="52.456417" lon="16.582514"></trkpt><trkpt lat="52.456442" lon="16.582876"></trkpt><trkpt lat="52.456439" lon="16.583311"></trkpt><trkpt lat="52.456236" lon="16.586722"></trkpt><trkpt lat="52.455983" lon="16.587043"></trkpt><trkpt lat="52.440919" lon="16.609266"></trkpt><trkpt lat="52.440726" lon="16.610073"></trkpt><trkpt lat="52.440179" lon="16.613044"></trkpt><trkpt lat="52.440178" lon="16.613707"></trkpt><trkpt lat="52.440407" lon="16.617373"></trkpt><trkpt lat="52.440792" lon="16.617322"></trkpt><trkpt lat="52.441415" lon="16.617586"></trkpt><trkpt lat="52.44148" lon="16.618049"></trkpt><trkpt lat="52.441518" lon="16.61854"></trkpt><trkpt lat="52.441541" lon="16.619557"></trkpt><trkpt lat="52.441223" lon="16.619784"></trkpt><trkpt lat="52.440782" lon="16.619843"></trkpt><trkpt lat="52.438988" lon="16.620332"></trkpt><trkpt lat="52.438553" lon="16.620616"></trkpt><trkpt lat="52.437878" lon="16.621154"></trkpt><trkpt lat="52.437689" lon="16.621392"></trkpt><trkpt lat="52.437009" lon="16.622457"></trkpt><trkpt lat="52.436821" lon="16.623"></trkpt><trkpt lat="52.436713" lon="16.623414"></trkpt><trkpt lat="52.436632" lon="16.623814"></trkpt><trkpt lat="52.436491" lon="16.624897"></trkpt><trkpt lat="52.434039" lon="16.638503"></trkpt><trkpt lat="52.433734" lon="16.638992"></trkpt><trkpt lat="52.429123" lon="16.645332"></trkpt><trkpt lat="52.428874" lon="16.64542"></trkpt><trkpt lat="52.428707" lon="16.645652"></trkpt><trkpt lat="52.428692" lon="16.645983"></trkpt><trkpt lat="52.428492" lon="16.645822"></trkpt><trkpt lat="52.428266" lon="16.645784"></trkpt><trkpt lat="52.428166" lon="16.646102"></trkpt><trkpt lat="52.428188" lon="16.646524"></trkpt><trkpt lat="52.428275" lon="16.646908"></trkpt><trkpt lat="52.428469" lon="16.647342"></trkpt><trkpt lat="52.428919" lon="16.64852"></trkpt><trkpt lat="52.429028" lon="16.648969"></trkpt><trkpt lat="52.429375" lon="16.650071"></trkpt><trkpt lat="52.429518" lon="16.650452"></trkpt><trkpt lat="52.429613" lon="16.650972"></trkpt><trkpt lat="52.429762" lon="16.651532"></trkpt><trkpt lat="52.43" lon="16.651906"></trkpt><trkpt lat="52.430234" lon="16.652428"></trkpt><trkpt lat="52.430535" lon="16.653219"></trkpt><trkpt lat="52.430727" lon="16.653834"></trkpt><trkpt lat="52.430771" lon="16.654195"></trkpt><trkpt lat="52.431508" lon="16.658577"></trkpt><trkpt lat="52.431851" lon="16.660107"></trkpt><trkpt lat="52.431962" lon="16.660883"></trkpt><trkpt lat="52.431974" lon="16.661326"></trkpt><trkpt lat="52.432041" lon="16.662169"></trkpt><trkpt lat="52.432111" lon="16.662568"></trkpt><trkpt lat="52.432173" lon="16.663084"></trkpt><trkpt lat="52.432318" lon="16.663853"></trkpt><trkpt lat="52.432327" lon="16.664404"></trkpt><trkpt lat="52.432248" lon="16.664801"></trkpt><trkpt lat="52.432205" lon="16.665179"></trkpt><trkpt lat="52.432195" lon="16.665533"></trkpt><trkpt lat="52.432213" lon="16.665878"></trkpt><trkpt lat="52.432278" lon="16.666397"></trkpt><trkpt lat="52.432351" lon="16.667457"></trkpt><trkpt lat="52.432314" lon="16.668084"></trkpt><trkpt lat="52.43233" lon="16.668885"></trkpt><trkpt lat="52.432432" lon="16.669369"></trkpt><trkpt lat="52.432516" lon="16.669687"></trkpt><trkpt lat="52.432674" lon="16.670556"></trkpt><trkpt lat="52.432682" lon="16.671127"></trkpt><trkpt lat="52.432615" lon="16.671722"></trkpt><trkpt lat="52.432486" lon="16.672514"></trkpt><trkpt lat="52.432373" lon="16.67283"></trkpt><trkpt lat="52.432272" lon="16.673199"></trkpt><trkpt lat="52.432275" lon="16.673548"></trkpt><trkpt lat="52.432325" lon="16.673967"></trkpt><trkpt lat="52.432399" lon="16.674299"></trkpt><trkpt lat="52.432521" lon="16.675149"></trkpt><trkpt lat="52.432515" lon="16.675505"></trkpt><trkpt lat="52.432453" lon="16.676141"></trkpt><trkpt lat="52.432463" lon="16.676544"></trkpt><trkpt lat="52.432545" lon="16.677014"></trkpt><trkpt lat="52.432587" lon="16.677364"></trkpt><trkpt lat="52.432717" lon="16.678126"></trkpt><trkpt lat="52.43279" lon="16.67843"></trkpt><trkpt lat="52.432895" lon="16.679363"></trkpt><trkpt lat="52.432864" lon="16.679905"></trkpt><trkpt lat="52.432817" lon="16.680333"></trkpt><trkpt lat="52.432844" lon="16.680903"></trkpt><trkpt lat="52.432993" lon="16.682489"></trkpt><trkpt lat="52.433072" lon="16.682871"></trkpt><trkpt lat="52.43309" lon="16.683276"></trkpt><trkpt lat="52.433166" lon="16.68406"></trkpt><trkpt lat="52.433221" lon="16.685181"></trkpt><trkpt lat="52.433165" lon="16.685638"></trkpt><trkpt lat="52.433092" lon="16.686017"></trkpt><trkpt lat="52.432899" lon="16.686555"></trkpt><trkpt lat="52.432766" lon="16.687055"></trkpt><trkpt lat="52.432681" lon="16.687596"></trkpt><trkpt lat="52.432453" lon="16.68858"></trkpt><trkpt lat="52.432351" lon="16.689151"></trkpt><trkpt lat="52.432235" lon="16.690242"></trkpt><trkpt lat="52.432311" lon="16.690796"></trkpt><trkpt lat="52.432271" lon="16.691115"></trkpt><trkpt lat="52.432236" lon="16.691779"></trkpt><trkpt lat="52.432482" lon="16.691937"></trkpt><trkpt lat="52.43281" lon="16.692059"></trkpt><trkpt lat="52.433924" lon="16.692857"></trkpt><trkpt lat="52.433886" lon="16.693318"></trkpt><trkpt lat="52.433504" lon="16.696211"></trkpt><trkpt lat="52.433218" lon="16.697582"></trkpt><trkpt lat="52.43309" lon="16.698007"></trkpt><trkpt lat="52.432943" lon="16.698629"></trkpt><trkpt lat="52.432914" lon="16.699034"></trkpt><trkpt lat="52.432899" lon="16.699706"></trkpt><trkpt lat="52.433103" lon="16.700185"></trkpt><trkpt lat="52.433365" lon="16.700445"></trkpt><trkpt lat="52.433716" lon="16.700961"></trkpt><trkpt lat="52.433573" lon="16.701226"></trkpt><trkpt lat="52.433357" lon="16.701951"></trkpt><trkpt lat="52.433275" lon="16.702335"></trkpt><trkpt lat="52.433104" lon="16.702823"></trkpt><trkpt lat="52.43297" lon="16.703065"></trkpt><trkpt lat="52.423765" lon="16.722589"></trkpt><trkpt lat="52.423683" lon="16.723337"></trkpt><trkpt lat="52.418166" lon="16.758751"></trkpt><trkpt lat="52.417789" lon="16.759279"></trkpt><trkpt lat="52.41315" lon="16.766956"></trkpt><trkpt lat="52.4132" lon="16.767344"></trkpt><trkpt lat="52.414944" lon="16.788072"></trkpt><trkpt lat="52.414924" lon="16.788545"></trkpt><trkpt lat="52.414786" lon="16.790088"></trkpt><trkpt lat="52.414603" lon="16.790303"></trkpt><trkpt lat="52.414511" lon="16.790681"></trkpt><trkpt lat="52.414618" lon="16.790957"></trkpt><trkpt lat="52.414584" lon="16.791682"></trkpt><trkpt lat="52.411864" lon="16.856299"></trkpt><trkpt lat="52.411872" lon="16.865724"></trkpt><trkpt lat="52.411929" lon="16.866369"></trkpt><trkpt lat="52.412035" lon="16.869195"></trkpt><trkpt lat="52.412029" lon="16.869624"></trkpt><trkpt lat="52.411949" lon="16.870582"></trkpt><trkpt lat="52.41187" lon="16.871084"></trkpt><trkpt lat="52.411814" lon="16.871614"></trkpt><trkpt lat="52.411709" lon="16.873408"></trkpt><trkpt lat="52.411544" lon="16.87497"></trkpt><trkpt lat="52.411271" lon="16.876573"></trkpt><trkpt lat="52.411052" lon="16.87757"></trkpt><trkpt lat="52.410993" lon="16.878039"></trkpt><trkpt lat="52.411014" lon="16.878447"></trkpt><trkpt lat="52.410942" lon="16.878962"></trkpt><trkpt lat="52.409132" lon="16.888356"></trkpt><trkpt lat="52.408672" lon="16.888294"></trkpt><trkpt lat="52.40587" lon="16.888261"></trkpt><trkpt lat="52.40545" lon="16.888325"></trkpt><trkpt lat="52.404811" lon="16.888502"></trkpt><trkpt lat="52.404543" lon="16.888737"></trkpt><trkpt lat="52.404185" lon="16.888841"></trkpt><trkpt lat="52.403025" lon="16.888974"></trkpt><trkpt lat="52.402909" lon="16.888639"></trkpt><trkpt lat="52.402737" lon="16.888385"></trkpt><trkpt lat="52.402516" lon="16.888432"></trkpt><trkpt lat="52.402294" lon="16.888574"></trkpt><trkpt lat="52.40208" lon="16.888677"></trkpt><trkpt lat="52.401862" lon="16.888815"></trkpt><trkpt lat="52.401323" lon="16.88899"></trkpt><trkpt lat="52.400986" lon="16.889025"></trkpt><trkpt lat="52.398202" lon="16.88838"></trkpt><trkpt lat="52.396719" lon="16.887857"></trkpt><trkpt lat="52.393704" lon="16.886411"></trkpt><trkpt lat="52.393517" lon="16.886294"></trkpt><trkpt lat="52.393089" lon="16.886144"></trkpt><trkpt lat="52.392877" lon="16.886444"></trkpt><trkpt lat="52.392585" lon="16.887239"></trkpt></trkseg></trk></gpx>