<?xml version="1.0" encoding="UTF-8" standalone="no" ?><gpx xmlns="http://www.topografix.com/GPX/1/1" xmlns:gpxx="http://www.garmin.com/xmlschemas/GpxExtensions/v3" ><trk><trkseg><trkpt lat="53.1645304151" lon="18.8728590589"></trkpt><trkpt lat="53.1646703091" lon="18.8733361568"></trkpt><trkpt lat="53.1649194192" lon="18.873819625"></trkpt><trkpt lat="53.1650731433" lon="18.8742098864"></trkpt><trkpt lat="53.1652619876" lon="18.8745374512"></trkpt><trkpt lat="53.1654748879" lon="18.8750721328"></trkpt><trkpt lat="53.1666762661" lon="18.8775539305"></trkpt><trkpt lat="53.1664212048" lon="18.8773960155"></trkpt><trkpt lat="53.1661732681" lon="18.8768882398"></trkpt><trkpt lat="53.1646071095" lon="18.8726480864"></trkpt><trkpt lat="53.1648374442" lon="18.8723553903"></trkpt><trkpt lat="53.1648140587" lon="18.8718759455"></trkpt><trkpt lat="53.1646316685" lon="18.8713519927"></trkpt><trkpt lat="53.1644123979" lon="18.8710022159"></trkpt><trkpt lat="53.1643761881" lon="18.8704209309"></trkpt><trkpt lat="53.1643263996" lon="18.8697036076"></trkpt></trkseg></trk></gpx>