<?xml version="1.0" encoding="UTF-8" standalone="no" ?><gpx xmlns="http://www.topografix.com/GPX/1/1" xmlns:gpxx="http://www.garmin.com/xmlschemas/GpxExtensions/v3" ><trk><trkseg><trkpt lat="53.7865439896" lon="20.502411928"></trkpt><trkpt lat="53.7873910647" lon="20.5181203689"></trkpt><trkpt lat="53.7863146607" lon="20.5195864476"></trkpt><trkpt lat="53.7833304517" lon="20.5219848454"></trkpt><trkpt lat="53.781100614" lon="20.522264801"></trkpt><trkpt lat="53.779618945" lon="20.5227803718"></trkpt><trkpt lat="53.7792768795" lon="20.5230316613"></trkpt><trkpt lat="53.7781310733" lon="20.5240953248"></trkpt><trkpt lat="53.7756114732" lon="20.5272394605"></trkpt><trkpt lat="53.7745022122" lon="20.5291534681"></trkpt><trkpt lat="53.7736430671" lon="20.531320693"></trkpt><trkpt lat="53.7707610335" lon="20.5370307807"></trkpt><trkpt lat="53.7694132235" lon="20.5386937503"></trkpt><trkpt lat="53.7500277255" lon="20.5584785622"></trkpt><trkpt lat="53.7487105932" lon="20.5588555802"></trkpt><trkpt lat="53.7460629176" lon="20.559210889"></trkpt><trkpt lat="53.7452029344" lon="20.5598341674"></trkpt><trkpt lat="53.743797373" lon="20.5614597537"></trkpt><trkpt lat="53.7374116201" lon="20.567374276"></trkpt><trkpt lat="53.7356070802" lon="20.5684238579"></trkpt><trkpt lat="53.7348182593" lon="20.5695244018"></trkpt><trkpt lat="53.7315125205" lon="20.5751164723"></trkpt><trkpt lat="53.7310427986" lon="20.5769417156"></trkpt><trkpt lat="53.7308650184" lon="20.5781253241"></trkpt><trkpt lat="53.7306713965" lon="20.5804238934"></trkpt><trkpt lat="53.7291844469" lon="20.5905712768"></trkpt><trkpt lat="53.7279737648" lon="20.5914755166"></trkpt><trkpt lat="53.7269748095" lon="20.5924927443"></trkpt><trkpt lat="53.7229265179" lon="20.59771928"></trkpt><trkpt lat="53.7227023859" lon="20.5994195491"></trkpt><trkpt lat="53.7227363326" lon="20.6017308589"></trkpt><trkpt lat="53.7225701194" lon="20.6056415197"></trkpt><trkpt lat="53.7220119685" lon="20.6077990215"></trkpt><trkpt lat="53.7217849866" lon="20.608431017"></trkpt><trkpt lat="53.7207444571" lon="20.6099492311"></trkpt><trkpt lat="53.7142697722" lon="20.6231423467"></trkpt><trkpt lat="53.712426424" lon="20.625485424"></trkpt><trkpt lat="53.7109930348" lon="20.626843879"></trkpt><trkpt lat="53.7100418564" lon="20.6281435769"></trkpt><trkpt lat="53.7094123755" lon="20.6298245676"></trkpt><trkpt lat="53.7091703061" lon="20.6307323277"></trkpt><trkpt lat="53.6959191039" lon="20.6702791527"></trkpt><trkpt lat="53.6956835724" lon="20.6706212182"></trkpt><trkpt lat="53.6951254215" lon="20.6716609094"></trkpt><trkpt lat="53.6779554281" lon="20.7121272292"></trkpt><trkpt lat="53.6783013493" lon="20.7136095688"></trkpt><trkpt lat="53.6782443523" lon="20.71438062"></trkpt><trkpt lat="53.6531353556" lon="20.7343600597"></trkpt><trkpt lat="53.6518898886" lon="20.7350423466"></trkpt><trkpt lat="53.6506606825" lon="20.7359646074"></trkpt><trkpt lat="53.6497741286" lon="20.736923581"></trkpt><trkpt lat="53.648635447" lon="20.7384746522"></trkpt><trkpt lat="53.6415299401" lon="20.7465154957"></trkpt><trkpt lat="53.6338739097" lon="20.7578576356"></trkpt><trkpt lat="53.6337363627" lon="20.7599604875"></trkpt><trkpt lat="53.633194305" lon="20.762667926"></trkpt><trkpt lat="53.6327174585" lon="20.7637216151"></trkpt><trkpt lat="53.6269436684" lon="20.7742913626"></trkpt><trkpt lat="53.625281956" lon="20.7762189489"></trkpt><trkpt lat="53.6153362412" lon="20.7909374032"></trkpt><trkpt lat="53.6150813475" lon="20.7927459665"></trkpt><trkpt lat="53.6147656851" lon="20.7938574906"></trkpt><trkpt lat="53.6139979865" lon="20.7941837143"></trkpt><trkpt lat="53.6133170407" lon="20.796352867"></trkpt><trkpt lat="53.6124508549" lon="20.8016485535"></trkpt><trkpt lat="53.61245865" lon="20.8043108974"></trkpt><trkpt lat="53.6122512817" lon="20.8064221311"></trkpt><trkpt lat="53.611907037" lon="20.8172304276"></trkpt><trkpt lat="53.612230327" lon="20.8315325528"></trkpt><trkpt lat="53.6126580555" lon="20.834833933"></trkpt><trkpt lat="53.6127329897" lon="20.8374145534"></trkpt><trkpt lat="53.6124581471" lon="20.8410510421"></trkpt><trkpt lat="53.6117588449" lon="20.8439934254"></trkpt><trkpt lat="53.6061523575" lon="20.862310566"></trkpt><trkpt lat="53.6040764954" lon="20.8652918413"></trkpt><trkpt lat="53.5986404121" lon="20.87499029"></trkpt><trkpt lat="53.5986294318" lon="20.8776667155"></trkpt><trkpt lat="53.5984206386" lon="20.8798492793"></trkpt><trkpt lat="53.5979296267" lon="20.8812992647"></trkpt><trkpt lat="53.5971812066" lon="20.8825329971"></trkpt><trkpt lat="53.5962244961" lon="20.8833474666"></trkpt><trkpt lat="53.5950695537" lon="20.8839967288"></trkpt><trkpt lat="53.5930952802" lon="20.8856082335"></trkpt><trkpt lat="53.5921650566" lon="20.8865630999"></trkpt><trkpt lat="53.5900549125" lon="20.8893248532"></trkpt><trkpt lat="53.5896082409" lon="20.8908042591"></trkpt><trkpt lat="53.5563672055" lon="21.0327403061"></trkpt><trkpt lat="53.5562130623" lon="21.0363418423"></trkpt><trkpt lat="53.5563765094" lon="21.0460034106"></trkpt><trkpt lat="53.5566969495" lon="21.0492544994"></trkpt><trkpt lat="53.5569671821" lon="21.0560342018"></trkpt><trkpt lat="53.5567889828" lon="21.0588305723"></trkpt><trkpt lat="53.5557603557" lon="21.1804305296"></trkpt><trkpt lat="53.5563916806" lon="21.1844303738"></trkpt><trkpt lat="53.5567469057" lon="21.1879076902"></trkpt><trkpt lat="53.558449354" lon="21.1979169399"></trkpt><trkpt lat="53.5672436468" lon="21.2752489652"></trkpt><trkpt lat="53.5671984684" lon="21.2791977637"></trkpt><trkpt lat="53.5676121153" lon="21.2893240247"></trkpt><trkpt lat="53.5677714553" lon="21.2900480535"></trkpt><trkpt lat="53.5716702137" lon="21.3033187017"></trkpt><trkpt lat="53.5865668673" lon="21.3441881072"></trkpt><trkpt lat="53.5893507488" lon="21.3502754644"></trkpt><trkpt lat="53.5908782668" lon="21.3545754645"></trkpt><trkpt lat="53.6512345914" lon="21.5429579839"></trkpt><trkpt lat="53.6530113034" lon="21.546049146"></trkpt><trkpt lat="53.6539028026" lon="21.547942115"></trkpt><trkpt lat="53.6542415153" lon="21.5502814204"></trkpt><trkpt lat="53.6543409247" lon="21.5522219148"></trkpt><trkpt lat="53.6540533416" lon="21.5542608965"></trkpt><trkpt lat="53.6539351568" lon="21.5547337197"></trkpt><trkpt lat="53.6532698013" lon="21.556446813"></trkpt><trkpt lat="53.6520250048" lon="21.55853156"></trkpt><trkpt lat="53.6494484078" lon="21.5621094592"></trkpt><trkpt lat="53.6384297255" lon="21.5808667336"></trkpt><trkpt lat="53.6383936834" lon="21.5831387322"></trkpt><trkpt lat="53.6386024766" lon="21.585622374"></trkpt><trkpt lat="53.6390527524" lon="21.5882467479"></trkpt><trkpt lat="53.6396334507" lon="21.5948790126"></trkpt><trkpt lat="53.6393705104" lon="21.6935644392"></trkpt><trkpt lat="53.6397068761" lon="21.6975619365"></trkpt><trkpt lat="53.6397881806" lon="21.7031049728"></trkpt><trkpt lat="53.6367250979" lon="21.7528529093"></trkpt><trkpt lat="53.6362916697" lon="21.7544786632"></trkpt><trkpt lat="53.6358267255" lon="21.7573729344"></trkpt><trkpt lat="53.6319047492" lon="21.7943457607"></trkpt><trkpt lat="53.6319697089" lon="21.7947948631"></trkpt><trkpt lat="53.632014636" lon="21.7972510122"></trkpt><trkpt lat="53.6314402241" lon="21.813129019"></trkpt><trkpt lat="53.6308618728" lon="21.8156113196"></trkpt><trkpt lat="53.626022581" lon="21.8461227883"></trkpt><trkpt lat="53.6244902015" lon="21.8611675501"></trkpt><trkpt lat="53.6151726265" lon="21.9200867135"></trkpt><trkpt lat="53.6147509329" lon="21.9216739107"></trkpt><trkpt lat="53.6130124424" lon="21.9323005714"></trkpt><trkpt lat="53.6133166216" lon="21.9341919478"></trkpt><trkpt lat="53.6138996668" lon="21.9365885854"></trkpt><trkpt lat="53.6145081092" lon="21.9402611163"></trkpt><trkpt lat="53.6144304089" lon="21.942049982"></trkpt><trkpt lat="53.6150435451" lon="21.9632837735"></trkpt><trkpt lat="53.6158290971" lon="21.965031065"></trkpt><trkpt lat="53.6164171714" lon="21.9661257416"></trkpt><trkpt lat="53.6170903221" lon="21.9689062703"></trkpt><trkpt lat="53.6175446212" lon="21.9701104984"></trkpt><trkpt lat="53.6181886028" lon="21.9724036194"></trkpt><trkpt lat="53.619206585" lon="21.9779487513"></trkpt><trkpt lat="53.6191845406" lon="21.9808778912"></trkpt><trkpt lat="53.6203419138" lon="22.0035281405"></trkpt><trkpt lat="53.6199819949" lon="22.0245336089"></trkpt><trkpt lat="53.6192262825" lon="22.0259447861"></trkpt><trkpt lat="53.6182031035" lon="22.0274930075"></trkpt><trkpt lat="53.6156941485" lon="22.0326888654"></trkpt><trkpt lat="53.6157451104" lon="22.0342335664"></trkpt><trkpt lat="53.6160084698" lon="22.0362151321"></trkpt><trkpt lat="53.6164691392" lon="22.0509025734"></trkpt><trkpt lat="53.6163236294" lon="22.0518463757"></trkpt><trkpt lat="53.6147870589" lon="22.0673299301"></trkpt><trkpt lat="53.6146214325" lon="22.078572996"></trkpt><trkpt lat="53.6152980197" lon="22.0799700078"></trkpt><trkpt lat="53.6171957664" lon="22.0827523805"></trkpt><trkpt lat="53.6326887924" lon="22.1013489738"></trkpt><trkpt lat="53.6345836893" lon="22.1031736303"></trkpt><trkpt lat="53.6445718165" lon="22.1105206199"></trkpt><trkpt lat="53.6468843836" lon="22.1077882033"></trkpt><trkpt lat="53.6586531624" lon="22.0969473012"></trkpt><trkpt lat="53.6606955808" lon="22.0962044969"></trkpt><trkpt lat="53.6618238688" lon="22.0961758308"></trkpt><trkpt lat="53.6637311708" lon="22.0966869593"></trkpt><trkpt lat="53.6801053025" lon="22.1052929107"></trkpt><trkpt lat="53.6810867395" lon="22.1067866497"></trkpt><trkpt lat="53.683828041" lon="22.1099493094"></trkpt><trkpt lat="53.6854976323" lon="22.1113127097"></trkpt><trkpt lat="53.6992621422" lon="22.1263956092"></trkpt><trkpt lat="53.6989424564" lon="22.1286301408"></trkpt><trkpt lat="53.6994664092" lon="22.1315369848"></trkpt><trkpt lat="53.7000586744" lon="22.1334047243"></trkpt><trkpt lat="53.7009165622" lon="22.135320073"></trkpt><trkpt lat="53.7017466221" lon="22.1367667057"></trkpt><trkpt lat="53.7031164765" lon="22.1387314238"></trkpt><trkpt lat="53.7059549242" lon="22.1438973583"></trkpt><trkpt lat="53.7067244668" lon="22.1475452464"></trkpt><trkpt lat="53.7079146132" lon="22.1517265588"></trkpt><trkpt lat="53.712724233" lon="22.1647356078"></trkpt><trkpt lat="53.7137055025" lon="22.1664831508"></trkpt><trkpt lat="53.7267667707" lon="22.1846690308"></trkpt><trkpt lat="53.7280932069" lon="22.1842638496"></trkpt><trkpt lat="53.7306934409" lon="22.1840774361"></trkpt><trkpt lat="53.7314913142" lon="22.184641622"></trkpt><trkpt lat="53.7323601823" lon="22.1857177746"></trkpt><trkpt lat="53.7403849326" lon="22.2085415293"></trkpt><trkpt lat="53.7402610481" lon="22.2106914036"></trkpt><trkpt lat="53.7367188558" lon="22.2422206029"></trkpt><trkpt lat="53.7361378223" lon="22.2448749002"></trkpt><trkpt lat="53.7353888992" lon="22.250390863"></trkpt><trkpt lat="53.7347600888" lon="22.2581547685"></trkpt><trkpt lat="53.7350388709" lon="22.2602302115"></trkpt><trkpt lat="53.7356927432" lon="22.2624751367"></trkpt><trkpt lat="53.7366962247" lon="22.2649847623"></trkpt><trkpt lat="53.740845602" lon="22.2731489874"></trkpt><trkpt lat="53.7441163883" lon="22.2818577848"></trkpt><trkpt lat="53.7448451109" lon="22.2856006399"></trkpt><trkpt lat="53.7501296494" lon="22.3056038003"></trkpt><trkpt lat="53.7518587522" lon="22.3052214179"></trkpt><trkpt lat="53.7642240711" lon="22.3109039292"></trkpt><trkpt lat="53.7716097012" lon="22.323031202"></trkpt><trkpt lat="53.7735066097" lon="22.3271566071"></trkpt><trkpt lat="53.774406407" lon="22.3299503792"></trkpt><trkpt lat="53.7750956509" lon="22.3315374926"></trkpt><trkpt lat="53.7759921793" lon="22.3324673809"></trkpt><trkpt lat="53.7775571644" lon="22.3333012126"></trkpt><trkpt lat="53.7955092732" lon="22.3570547719"></trkpt><trkpt lat="53.7960801646" lon="22.3583512846"></trkpt><trkpt lat="53.8028047979" lon="22.370816851"></trkpt><trkpt lat="53.8035085425" lon="22.3712817114"></trkpt><trkpt lat="53.8045535982" lon="22.3716805223"></trkpt><trkpt lat="53.8058812916" lon="22.3718091007"></trkpt><trkpt lat="53.8111722842" lon="22.3703752086"></trkpt><trkpt lat="53.8189971261" lon="22.366716424"></trkpt><trkpt lat="53.824106399" lon="22.3632646725"></trkpt><trkpt lat="53.8248876762" lon="22.3625836428"></trkpt><trkpt lat="53.8260390982" lon="22.3617978394"></trkpt><trkpt lat="53.8269774523" lon="22.3608792666"></trkpt><trkpt lat="53.8307902962" lon="22.3584508616"></trkpt><trkpt lat="53.8319359347" lon="22.3586925119"></trkpt><trkpt lat="53.8330731913" lon="22.359526176"></trkpt><trkpt lat="53.8341581449" lon="22.3608091101"></trkpt><trkpt lat="53.8350783102" lon="22.3624710739"></trkpt><trkpt lat="53.8357471861" lon="22.3644440901"></trkpt><trkpt lat="53.8409163058" lon="22.3833873589"></trkpt><trkpt lat="53.8454549387" lon="22.395707164"></trkpt><trkpt lat="53.8464271557" lon="22.3969928641"></trkpt><trkpt lat="53.8496791665" lon="22.4022379238"></trkpt><trkpt lat="53.8987487555" lon="22.4675441813"></trkpt><trkpt lat="53.9004845638" lon="22.4688108545"></trkpt><trkpt lat="53.9036530908" lon="22.4721333571"></trkpt><trkpt lat="53.9046403114" lon="22.4739380646"></trkpt><trkpt lat="53.9198631048" lon="22.4952768814"></trkpt><trkpt lat="53.9219612628" lon="22.4963930994"></trkpt><trkpt lat="53.9517401531" lon="22.5074840337"></trkpt><trkpt lat="53.9557011891" lon="22.508331947"></trkpt><trkpt lat="53.9571254421" lon="22.5083094835"></trkpt><trkpt lat="54.0329665784" lon="22.4956392311"></trkpt><trkpt lat="54.0336049441" lon="22.4952483829"></trkpt><trkpt lat="54.0333130024" lon="22.4952277634"></trkpt><trkpt lat="54.0330961626" lon="22.495567482"></trkpt><trkpt lat="54.0324106906" lon="22.4960294925"></trkpt><trkpt lat="54.0257571358" lon="22.5017040409"></trkpt><trkpt lat="54.0248440951" lon="22.5033649988"></trkpt><trkpt lat="54.0241913963" lon="22.5052324031"></trkpt><trkpt lat="54.0233184211" lon="22.5085850805"></trkpt><trkpt lat="54.0194907412" lon="22.5285324175"></trkpt><trkpt lat="54.0189806186" lon="22.5335520878"></trkpt><trkpt lat="54.0175919887" lon="22.5398296304"></trkpt><trkpt lat="54.0166981425" lon="22.541265199"></trkpt><trkpt lat="53.9977938496" lon="22.5661164522"></trkpt><trkpt lat="53.99629483" lon="22.5668724999"></trkpt><trkpt lat="53.9860953111" lon="22.5750720128"></trkpt><trkpt lat="53.9848446473" lon="22.5775773637"></trkpt><trkpt lat="53.9819315169" lon="22.5849226769"></trkpt><trkpt lat="53.9819758572" lon="22.5869731419"></trkpt><trkpt lat="53.9822361991" lon="22.5888516102"></trkpt><trkpt lat="53.9828963578" lon="22.5916433707"></trkpt><trkpt lat="53.9866600838" lon="22.6128101069"></trkpt><trkpt lat="53.9867120516" lon="22.6162079629"></trkpt><trkpt lat="53.9866199344" lon="22.6185382158"></trkpt><trkpt lat="53.9829130378" lon="22.6502753701"></trkpt><trkpt lat="53.9816670679" lon="22.6522871107"></trkpt><trkpt lat="53.9726140257" lon="22.6699779555"></trkpt><trkpt lat="53.9717268012" lon="22.6722906902"></trkpt><trkpt lat="53.9712471049" lon="22.6740939729"></trkpt><trkpt lat="53.970942758" lon="22.6761941426"></trkpt><trkpt lat="53.9709179476" lon="22.6784144249"></trkpt><trkpt lat="53.9710763656" lon="22.6816758234"></trkpt><trkpt lat="53.9735217858" lon="22.7049120516"></trkpt><trkpt lat="53.9743693639" lon="22.706051236"></trkpt><trkpt lat="53.9751758706" lon="22.7068910189"></trkpt><trkpt lat="53.9779931959" lon="22.7091075294"></trkpt><trkpt lat="53.9788232557" lon="22.7088513784"></trkpt><trkpt lat="53.9796214644" lon="22.7082275134"></trkpt><trkpt lat="53.9819486998" lon="22.7068167552"></trkpt><trkpt lat="53.9831335656" lon="22.7069417294"></trkpt><trkpt lat="53.9861015975" lon="22.7077282872"></trkpt><trkpt lat="53.9870952722" lon="22.7086591814"></trkpt><trkpt lat="53.9939296246" lon="22.716519814"></trkpt><trkpt lat="53.9944105782" lon="22.717678193"></trkpt><trkpt lat="53.9973636903" lon="22.7264981344"></trkpt><trkpt lat="53.9976431429" lon="22.7281272411"></trkpt><trkpt lat="53.9977646805" lon="22.7292989474"></trkpt><trkpt lat="53.9977552928" lon="22.7303566597"></trkpt><trkpt lat="53.9976209309" lon="22.7314929105"></trkpt><trkpt lat="53.997399481" lon="22.7325926162"></trkpt><trkpt lat="53.9969372191" lon="22.7340821642"></trkpt><trkpt lat="53.9959728811" lon="22.7393493522"></trkpt><trkpt lat="53.9959713724" lon="22.7417091094"></trkpt><trkpt lat="53.9947678149" lon="22.7615580428"></trkpt><trkpt lat="53.994257357" lon="22.7640572749"></trkpt><trkpt lat="53.9934253693" lon="22.7701981086"></trkpt><trkpt lat="53.993324535" lon="22.7722826879"></trkpt><trkpt lat="53.9935675263" lon="22.7756564878"></trkpt><trkpt lat="53.9939671755" lon="22.7770083211"></trkpt><trkpt lat="53.994585257" lon="22.7785275411"></trkpt><trkpt lat="53.9954292309" lon="22.7801436558"></trkpt><trkpt lat="53.9966917131" lon="22.7821334358"></trkpt><trkpt lat="53.9974099584" lon="22.7828893997"></trkpt><trkpt lat="53.9982097596" lon="22.7834146935"></trkpt><trkpt lat="53.9989574254" lon="22.7836089022"></trkpt><trkpt lat="54.0053317789" lon="22.7830737177"></trkpt><trkpt lat="54.0059096273" lon="22.7839637082"></trkpt><trkpt lat="54.0064925887" lon="22.7852219157"></trkpt><trkpt lat="54.0081846435" lon="22.7880991716"></trkpt><trkpt lat="54.0093032923" lon="22.7894892264"></trkpt><trkpt lat="54.0120431688" lon="22.7938095946"></trkpt><trkpt lat="54.0126588196" lon="22.7956658509"></trkpt><trkpt lat="54.0151395276" lon="22.8009009361"></trkpt><trkpt lat="54.0158577729" lon="22.8020932619"></trkpt><trkpt lat="54.0166484378" lon="22.8039748315"></trkpt><trkpt lat="54.0221293643" lon="22.8144410625"></trkpt><trkpt lat="54.0229761042" lon="22.815160146"></trkpt><trkpt lat="54.0244971681" lon="22.8170102835"></trkpt><trkpt lat="54.0248823166" lon="22.8182436805"></trkpt><trkpt lat="54.0251956321" lon="22.8200193867"></trkpt><trkpt lat="54.0262452979" lon="22.8231599182"></trkpt><trkpt lat="54.0271269903" lon="22.8246033657"></trkpt><trkpt lat="54.0289723501" lon="22.8303089272"></trkpt><trkpt lat="54.0323614888" lon="22.8388947621"></trkpt><trkpt lat="54.0331638046" lon="22.8405412193"></trkpt><trkpt lat="54.0338581614" lon="22.8424436599"></trkpt><trkpt lat="54.0342729818" lon="22.8438427672"></trkpt><trkpt lat="54.0458826721" lon="22.8750250395"></trkpt><trkpt lat="54.0471570566" lon="22.8768088762"></trkpt><trkpt lat="54.0480382461" lon="22.8777110204"></trkpt><trkpt lat="54.0489045158" lon="22.8782590292"></trkpt><trkpt lat="54.0523533337" lon="22.8815925121"></trkpt><trkpt lat="54.0530605987" lon="22.8838008083"></trkpt><trkpt lat="54.0567975864" lon="22.893018052"></trkpt><trkpt lat="54.0575646982" lon="22.8942303266"></trkpt><trkpt lat="54.061802756" lon="22.9026324302"></trkpt><trkpt lat="54.0621819533" lon="22.9042038694"></trkpt><trkpt lat="54.0737654921" lon="22.9390657973"></trkpt><trkpt lat="54.0767859109" lon="22.9399474058"></trkpt><trkpt lat="54.0890791453" lon="22.9458859842"></trkpt><trkpt lat="54.0904536098" lon="22.9469072353"></trkpt><trkpt lat="54.1025952995" lon="22.9524565581"></trkpt><trkpt lat="54.1031564679" lon="22.9513242468"></trkpt><trkpt lat="54.1027081199" lon="22.9526968673"></trkpt><trkpt lat="54.1019130964" lon="22.9561303463"></trkpt><trkpt lat="54.1020208877" lon="22.957802536"></trkpt><trkpt lat="54.1024615243" lon="22.9598423559"></trkpt><trkpt lat="54.1031775903" lon="22.9616779089"></trkpt><trkpt lat="54.1041032877" lon="22.9629983101"></trkpt><trkpt lat="54.1050591599" lon="22.9636709578"></trkpt><trkpt lat="54.1061486397" lon="22.9638493247"></trkpt><trkpt lat="54.1105904616" lon="22.963805655"></trkpt><trkpt lat="54.1117162351" lon="22.9649272375"></trkpt><trkpt lat="54.11259952" lon="22.9663065635"></trkpt><trkpt lat="54.1134169232" lon="22.9681468941"></trkpt><trkpt lat="54.1139413789" lon="22.9700434674"></trkpt><trkpt lat="54.1141593922" lon="22.9716714844"></trkpt><trkpt lat="54.1142282076" lon="22.9733175226"></trkpt><trkpt lat="54.1140759923" lon="22.9751527403"></trkpt><trkpt lat="54.1137834638" lon="22.9770979285"></trkpt><trkpt lat="54.1136641055" lon="22.9790674243"></trkpt><trkpt lat="54.1137761716" lon="22.980923513"></trkpt><trkpt lat="54.114011284" lon="22.9826611653"></trkpt><trkpt lat="54.1143743042" lon="22.9844274838"></trkpt><trkpt lat="54.1205940954" lon="23.0077778734"></trkpt><trkpt lat="54.1214693338" lon="23.0097750295"></trkpt><trkpt lat="54.1241043527" lon="23.017087318"></trkpt><trkpt lat="54.1285466775" lon="23.0270932149"></trkpt><trkpt lat="54.130526986" lon="23.0307335593"></trkpt><trkpt lat="54.1317623947" lon="23.0319061037"></trkpt><trkpt lat="54.1331027448" lon="23.0326168891"></trkpt><trkpt lat="54.134542672" lon="23.0328432843"></trkpt><trkpt lat="54.1604917031" lon="23.0416157842"></trkpt><trkpt lat="54.1612067632" lon="23.0431064218"></trkpt><trkpt lat="54.1617001221" lon="23.0447164178"></trkpt><trkpt lat="54.1642055567" lon="23.050717609"></trkpt><trkpt lat="54.1652890015" lon="23.0527291819"></trkpt><trkpt lat="54.1778507084" lon="23.0827912129"></trkpt><trkpt lat="54.1780256387" lon="23.0857098754"></trkpt><trkpt lat="54.1794464551" lon="23.0982778687"></trkpt><trkpt lat="54.1797487065" lon="23.1000700034"></trkpt><trkpt lat="54.1802067775" lon="23.1019990146"></trkpt><trkpt lat="54.1809965204" lon="23.1035369262"></trkpt><trkpt lat="54.1821366269" lon="23.1051734928"></trkpt><trkpt lat="54.1833563615" lon="23.1065841671"></trkpt><trkpt lat="54.1882085614" lon="23.1138469186"></trkpt><trkpt lat="54.1893953551" lon="23.1163357571"></trkpt><trkpt lat="54.1922255047" lon="23.1234765518"></trkpt><trkpt lat="54.1928341985" lon="23.1246919278"></trkpt><trkpt lat="54.1941334773" lon="23.1267577317"></trkpt><trkpt lat="54.1955501866" lon="23.1284429971"></trkpt><trkpt lat="54.1993182711" lon="23.1338362489"></trkpt><trkpt lat="54.2002036516" lon="23.1360226683"></trkpt><trkpt lat="54.2008189671" lon="23.138080677"></trkpt><trkpt lat="54.2011007667" lon="23.1401427928"></trkpt><trkpt lat="54.2027152888" lon="23.1475323625"></trkpt><trkpt lat="54.2039408069" lon="23.1506029889"></trkpt><trkpt lat="54.205087116" lon="23.1528314855"></trkpt><trkpt lat="54.2060262244" lon="23.1541126594"></trkpt><trkpt lat="54.21343063" lon="23.16632987"></trkpt><trkpt lat="54.2138078995" lon="23.1672961358"></trkpt><trkpt lat="54.214471411" lon="23.1696527079"></trkpt><trkpt lat="54.2145838123" lon="23.1713968143"></trkpt><trkpt lat="54.2158204783" lon="23.181356946"></trkpt><trkpt lat="54.2168041784" lon="23.1832931656"></trkpt><trkpt lat="54.2178230826" lon="23.1845770217"></trkpt><trkpt lat="54.2190709803" lon="23.1857386697"></trkpt><trkpt lat="54.2286110111" lon="23.1969428435"></trkpt><trkpt lat="54.2292451859" lon="23.1982841156"></trkpt><trkpt lat="54.2321040016" lon="23.2028033026"></trkpt><trkpt lat="54.2329876218" lon="23.2035328634"></trkpt><trkpt lat="54.2274035141" lon="23.1944700982"></trkpt><trkpt lat="54.2260068376" lon="23.1930608489"></trkpt><trkpt lat="54.2152396124" lon="23.1789690256"></trkpt><trkpt lat="54.2148710601" lon="23.1767006312"></trkpt><trkpt lat="54.2147108819" lon="23.1740968768"></trkpt><trkpt lat="54.2137665767" lon="23.1668958161"></trkpt><trkpt lat="54.2130314" lon="23.1652075332"></trkpt><trkpt lat="54.2121026851" lon="23.1636878103"></trkpt><trkpt lat="54.210947575" lon="23.1613291427"></trkpt><trkpt lat="54.2071525007" lon="23.1551213376"></trkpt><trkpt lat="54.2057609372" lon="23.153297184"></trkpt><trkpt lat="54.2037652899" lon="23.1497782934"></trkpt><trkpt lat="54.2031115014" lon="23.1477820594"></trkpt><trkpt lat="54.2010268383" lon="23.1387937255"></trkpt><trkpt lat="54.1998919286" lon="23.1349953823"></trkpt><trkpt lat="54.1988690011" lon="23.1327819731"></trkpt><trkpt lat="54.1980238538" lon="23.1314826105"></trkpt><trkpt lat="54.1950002499" lon="23.1276671682"></trkpt><trkpt lat="54.191946052" lon="23.1224252935"></trkpt><trkpt lat="54.190834444" lon="23.1191777252"></trkpt><trkpt lat="54.190090131" lon="23.117390452"></trkpt><trkpt lat="54.1853842791" lon="23.1085213926"></trkpt><trkpt lat="54.1843688115" lon="23.1074476708"></trkpt><trkpt lat="54.1811459698" lon="23.1032721419"></trkpt><trkpt lat="54.1803413909" lon="23.1014959328"></trkpt><trkpt lat="54.1798761953" lon="23.0996877886"></trkpt><trkpt lat="54.1795018595" lon="23.0977997649"></trkpt><trkpt lat="54.1789477319" lon="23.0959782936"></trkpt><trkpt lat="54.178365441" lon="23.0919941235"></trkpt><trkpt lat="54.178309869" lon="23.0897014216"></trkpt><trkpt lat="54.1762611642" lon="23.0703340285"></trkpt><trkpt lat="54.1752655618" lon="23.0680684"></trkpt><trkpt lat="54.1740226932" lon="23.0660729203"></trkpt><trkpt lat="54.1727216542" lon="23.064382961"></trkpt><trkpt lat="54.1674242076" lon="23.0561344139"></trkpt><trkpt lat="54.1658979468" lon="23.0532957986"></trkpt><trkpt lat="54.1608872451" lon="23.0419219751"></trkpt><trkpt lat="54.1600364819" lon="23.0405533779"></trkpt><trkpt lat="54.1589932702" lon="23.0393848568"></trkpt><trkpt lat="54.1578848474" lon="23.0386046693"></trkpt><trkpt lat="54.1567661986" lon="23.0380794592"></trkpt><trkpt lat="54.1395933554" lon="23.0328809191"></trkpt><trkpt lat="54.1379707865" lon="23.0327877123"></trkpt><trkpt lat="54.1307700612" lon="23.0309530813"></trkpt><trkpt lat="54.1299539153" lon="23.0298716482"></trkpt><trkpt lat="54.1290284693" lon="23.0280459858"></trkpt><trkpt lat="54.1235648096" lon="23.0149695463"></trkpt><trkpt lat="54.1229736339" lon="23.0131755676"></trkpt><trkpt lat="54.1219874192" lon="23.010892421"></trkpt><trkpt lat="54.1159867309" lon="22.993649086"></trkpt><trkpt lat="54.1156856529" lon="22.9914071783"></trkpt><trkpt lat="54.1138144769" lon="22.981974436"></trkpt><trkpt lat="54.1136998124" lon="22.9755742662"></trkpt><trkpt lat="54.105251357" lon="22.9466563649"></trkpt><trkpt lat="54.1055976134" lon="22.9460844677"></trkpt></trkseg></trk></gpx>