<?xml version="1.0" encoding="UTF-8" standalone="no" ?><gpx xmlns="http://www.topografix.com/GPX/1/1" xmlns:gpxx="http://www.garmin.com/xmlschemas/GpxExtensions/v3" ><trk><trkseg><trkpt lat="49.3965877499" lon="22.0780249871"></trkpt><trkpt lat="49.396348279" lon="22.0777863543"></trkpt><trkpt lat="49.3964289129" lon="22.0773854479"></trkpt><trkpt lat="49.396720184" lon="22.0772701129"></trkpt><trkpt lat="49.397225529" lon="22.0769761596"></trkpt><trkpt lat="49.3974745553" lon="22.0766770095"></trkpt><trkpt lat="49.3977080751" lon="22.0762953814"></trkpt><trkpt lat="49.3975083344" lon="22.0765872393"></trkpt><trkpt lat="49.397140285" lon="22.0770364255"></trkpt><trkpt lat="49.3968771771" lon="22.0772284549"></trkpt><trkpt lat="49.3965936173" lon="22.0772458892"></trkpt><trkpt lat="49.3963755202" lon="22.0775379986"></trkpt><trkpt lat="49.3964303378" lon="22.0780151803"></trkpt><trkpt lat="49.3967853952" lon="22.0780091453"></trkpt></trkseg></trk></gpx>