<?xml version="1.0" encoding="UTF-8" standalone="no" ?><gpx xmlns="http://www.topografix.com/GPX/1/1" xmlns:gpxx="http://www.garmin.com/xmlschemas/GpxExtensions/v3" ><trk><trkseg><trkpt lat="52.4713363778" lon="17.2136528604"></trkpt><trkpt lat="52.4710964039" lon="17.2142954171"></trkpt><trkpt lat="52.4708952382" lon="17.2146322019"></trkpt><trkpt lat="52.4704786576" lon="17.2155174986"></trkpt><trkpt lat="52.4703512527" lon="17.2161173914"></trkpt><trkpt lat="52.4701044895" lon="17.2169257421"></trkpt><trkpt lat="52.4698533677" lon="17.2172165941"></trkpt><trkpt lat="52.4697589874" lon="17.2177547961"></trkpt><trkpt lat="52.4696182553" lon="17.2189886123"></trkpt><trkpt lat="52.4698807765" lon="17.2193896864"></trkpt><trkpt lat="52.4702594709" lon="17.220183704"></trkpt><trkpt lat="52.4702199921" lon="17.2206810024"></trkpt><trkpt lat="52.4702288769" lon="17.2211736906"></trkpt><trkpt lat="52.4702900648" lon="17.2216655407"></trkpt><trkpt lat="52.4702857062" lon="17.2221298981"></trkpt><trkpt lat="52.4703652505" lon="17.2228655778"></trkpt><trkpt lat="52.4704995286" lon="17.223336054"></trkpt><trkpt lat="52.4707397539" lon="17.2235527262"></trkpt><trkpt lat="52.4707740359" lon="17.2230806574"></trkpt><trkpt lat="52.4708612915" lon="17.2224987019"></trkpt><trkpt lat="52.4710365571" lon="17.2221107874"></trkpt><trkpt lat="52.4712497927" lon="17.2224841174"></trkpt><trkpt lat="52.4715228751" lon="17.2228310443"></trkpt><trkpt lat="52.4717636872" lon="17.2232774645"></trkpt><trkpt lat="52.4718467519" lon="17.2238076199"></trkpt><trkpt lat="52.4718773458" lon="17.2243122105"></trkpt><trkpt lat="52.4721558765" lon="17.2245935071"></trkpt><trkpt lat="52.4724771548" lon="17.22456811"></trkpt><trkpt lat="52.4721579719" lon="17.224607002"></trkpt><trkpt lat="52.4718600791" lon="17.2248440422"></trkpt><trkpt lat="52.4718787707" lon="17.2252978384"></trkpt><trkpt lat="52.4718112126" lon="17.2271831799"></trkpt><trkpt lat="52.4714550655" lon="17.2273204755"></trkpt><trkpt lat="52.4712168518" lon="17.2275707591"></trkpt><trkpt lat="52.4709151033" lon="17.2276732698"></trkpt><trkpt lat="52.4706364889" lon="17.2275344655"></trkpt><trkpt lat="52.470332142" lon="17.2272754647"></trkpt><trkpt lat="52.4693020061" lon="17.2266977839"></trkpt><trkpt lat="52.4690949731" lon="17.2270425316"></trkpt><trkpt lat="52.4688447732" lon="17.2272612993"></trkpt><trkpt lat="52.4686147738" lon="17.2275104094"></trkpt><trkpt lat="52.4683113489" lon="17.2276598588"></trkpt><trkpt lat="52.46798479" lon="17.2275592759"></trkpt><trkpt lat="52.4678758252" lon="17.2271011211"></trkpt><trkpt lat="52.4678801" lon="17.2266249452"></trkpt><trkpt lat="52.4682190642" lon="17.226477759"></trkpt><trkpt lat="52.4691274948" lon="17.2259026766"></trkpt><trkpt lat="52.4693820532" lon="17.2256135009"></trkpt><trkpt lat="52.4695681315" lon="17.2251388337"></trkpt><trkpt lat="52.469580872" lon="17.2246199939"></trkpt><trkpt lat="52.4697130546" lon="17.2240214422"></trkpt><trkpt lat="52.4700200837" lon="17.2238219529"></trkpt><trkpt lat="52.4702505022" lon="17.2235812247"></trkpt><trkpt lat="52.4705832638" lon="17.2234999202"></trkpt><trkpt lat="52.4707381614" lon="17.2231355589"></trkpt><trkpt lat="52.4708231539" lon="17.2225637455"></trkpt><trkpt lat="52.4709493015" lon="17.2219547164"></trkpt><trkpt lat="52.471148707" lon="17.2206172999"></trkpt><trkpt lat="52.471317267" lon="17.2201583907"></trkpt><trkpt lat="52.4714327697" lon="17.2197514493"></trkpt><trkpt lat="52.4714919459" lon="17.2192553245"></trkpt><trkpt lat="52.4715812132" lon="17.2188208904"></trkpt><trkpt lat="52.4717366975" lon="17.2175692208"></trkpt><trkpt lat="52.4716987275" lon="17.2171052825"></trkpt><trkpt lat="52.47178372" lon="17.2165789828"></trkpt><trkpt lat="52.4717514496" lon="17.2160406131"></trkpt><trkpt lat="52.4716600031" lon="17.215308873"></trkpt><trkpt lat="52.4716245476" lon="17.2147670668"></trkpt><trkpt lat="52.4716545548" lon="17.213439038"></trkpt><trkpt lat="52.4717172515" lon="17.2143066488"></trkpt></trkseg></trk></gpx>