<?xml version="1.0" encoding="UTF-8" standalone="no" ?><gpx xmlns="http://www.topografix.com/GPX/1/1" xmlns:gpxx="http://www.garmin.com/xmlschemas/GpxExtensions/v3" ><trk><trkseg><trkpt lat="49.4229575526" lon="22.0565562509"></trkpt><trkpt lat="49.4226547144" lon="22.056227345"></trkpt><trkpt lat="49.4223304186" lon="22.0560349803"></trkpt><trkpt lat="49.4220937975" lon="22.0557607245"></trkpt><trkpt lat="49.4210819341" lon="22.0543114096"></trkpt><trkpt lat="49.4213500712" lon="22.0540556777"></trkpt><trkpt lat="49.4216363132" lon="22.0538648218"></trkpt><trkpt lat="49.4219090603" lon="22.0536282007"></trkpt><trkpt lat="49.4221300911" lon="22.0533668529"></trkpt><trkpt lat="49.4224433228" lon="22.0530721452"></trkpt><trkpt lat="49.4227010664" lon="22.0527696423"></trkpt><trkpt lat="49.422977753" lon="22.0525461808"></trkpt><trkpt lat="49.4232844468" lon="22.0522099826"></trkpt><trkpt lat="49.4236871134" lon="22.0516497362"></trkpt><trkpt lat="49.4238634687" lon="22.0512078423"></trkpt><trkpt lat="49.4240853377" lon="22.0507584885"></trkpt><trkpt lat="49.424905926" lon="22.0493810903"></trkpt><trkpt lat="49.4266126491" lon="22.0470174775"></trkpt><trkpt lat="49.4268888328" lon="22.0469021425"></trkpt><trkpt lat="49.4272096921" lon="22.0468460675"></trkpt><trkpt lat="49.4274536055" lon="22.0466096979"></trkpt><trkpt lat="49.4281562604" lon="22.0457886066"></trkpt><trkpt lat="49.4283884391" lon="22.0453871135"></trkpt><trkpt lat="49.4283186179" lon="22.0449682698"></trkpt><trkpt lat="49.4281964935" lon="22.0445030741"></trkpt><trkpt lat="49.428177299" lon="22.0439767744"></trkpt><trkpt lat="49.4280881155" lon="22.0430338942"></trkpt><trkpt lat="49.4281456154" lon="22.0425922517"></trkpt><trkpt lat="49.4281345513" lon="22.0420716517"></trkpt><trkpt lat="49.4282600284" lon="22.0416358765"></trkpt><trkpt lat="49.428310236" lon="22.0410804916"></trkpt><trkpt lat="49.4284590147" lon="22.0406262763"></trkpt><trkpt lat="49.4285742659" lon="22.0400464162"></trkpt><trkpt lat="49.4287820533" lon="22.0397144929"></trkpt><trkpt lat="49.4289290719" lon="22.0391957369"></trkpt><trkpt lat="49.4290888309" lon="22.0387581177"></trkpt><trkpt lat="49.4292733166" lon="22.0384515077"></trkpt><trkpt lat="49.4293977879" lon="22.0380687062"></trkpt><trkpt lat="49.429615885" lon="22.0375928655"></trkpt><trkpt lat="49.4298351556" lon="22.0372691564"></trkpt><trkpt lat="49.4300250057" lon="22.0368559286"></trkpt><trkpt lat="49.430312505" lon="22.0366164576"></trkpt><trkpt lat="49.4306721725" lon="22.0362337399"></trkpt><trkpt lat="49.4308724161" lon="22.0357815363"></trkpt><trkpt lat="49.4311594125" lon="22.035243921"></trkpt><trkpt lat="49.4317109417" lon="22.0339829475"></trkpt><trkpt lat="49.4318184815" lon="22.0335946139"></trkpt><trkpt lat="49.4320375007" lon="22.0331590902"></trkpt><trkpt lat="49.432409741" lon="22.0325692557"></trkpt><trkpt lat="49.4326478709" lon="22.0323096681"></trkpt><trkpt lat="49.4324032031" lon="22.0325139351"></trkpt><trkpt lat="49.4321841002" lon="22.0328876842"></trkpt><trkpt lat="49.431694597" lon="22.0340278745"></trkpt><trkpt lat="49.4303764589" lon="22.0365628973"></trkpt><trkpt lat="49.4300090801" lon="22.0369257499"></trkpt><trkpt lat="49.4298281148" lon="22.0372790471"></trkpt><trkpt lat="49.4295717124" lon="22.0375856571"></trkpt><trkpt lat="49.4294350035" lon="22.0379978791"></trkpt><trkpt lat="49.4291796908" lon="22.0385772362"></trkpt><trkpt lat="49.429079527" lon="22.0389861055"></trkpt><trkpt lat="49.4288854022" lon="22.039318867"></trkpt><trkpt lat="49.4287890103" lon="22.039707955"></trkpt><trkpt lat="49.4285433367" lon="22.0400925167"></trkpt><trkpt lat="49.4284016825" lon="22.0404818561"></trkpt><trkpt lat="49.4283119123" lon="22.0409504883"></trkpt><trkpt lat="49.4282565918" lon="22.0415106509"></trkpt><trkpt lat="49.4281203859" lon="22.0420884993"></trkpt><trkpt lat="49.4281110819" lon="22.0425052475"></trkpt><trkpt lat="49.4281892851" lon="22.044427637"></trkpt><trkpt lat="49.4282710925" lon="22.0448651724"></trkpt><trkpt lat="49.4282795582" lon="22.0455987565"></trkpt><trkpt lat="49.4281146862" lon="22.0459393132"></trkpt><trkpt lat="49.4279082399" lon="22.0462346077"></trkpt><trkpt lat="49.4276665058" lon="22.0464696363"></trkpt><trkpt lat="49.4273983687" lon="22.0466449857"></trkpt><trkpt lat="49.4271257892" lon="22.0469081774"></trkpt><trkpt lat="49.4268079475" lon="22.0469530206"></trkpt><trkpt lat="49.4265113957" lon="22.0471271966"></trkpt><trkpt lat="49.4260766264" lon="22.0474747103"></trkpt><trkpt lat="49.425884597" lon="22.0478005987"></trkpt><trkpt lat="49.4216173701" lon="22.053838335"></trkpt><trkpt lat="49.4212791603" lon="22.0541007724"></trkpt><trkpt lat="49.4210353307" lon="22.0543399081"></trkpt><trkpt lat="49.4207473285" lon="22.0542980824"></trkpt><trkpt lat="49.4228992146" lon="22.0566129964"></trkpt></trkseg></trk></gpx>