<?xml version="1.0" encoding="UTF-8" standalone="no" ?><gpx xmlns="http://www.topografix.com/GPX/1/1" xmlns:gpxx="http://www.garmin.com/xmlschemas/GpxExtensions/v3" ><trk><trkseg><trkpt lat="52.5541855395" lon="17.2401285265"></trkpt><trkpt lat="52.5542290416" lon="17.2396856267"></trkpt><trkpt lat="52.5543850288" lon="17.239321433"></trkpt><trkpt lat="52.5547054689" lon="17.2389849834"></trkpt><trkpt lat="52.5549862627" lon="17.2387792077"></trkpt><trkpt lat="52.555817496" lon="17.2379017901"></trkpt><trkpt lat="52.5559575576" lon="17.2373805195"></trkpt><trkpt lat="52.556050932" lon="17.2369275615"></trkpt><trkpt lat="52.5561174005" lon="17.2364580072"></trkpt><trkpt lat="52.5562049076" lon="17.2360203881"></trkpt><trkpt lat="52.5562952645" lon="17.2353608999"></trkpt><trkpt lat="52.556484025" lon="17.2347461712"></trkpt><trkpt lat="52.5568856858" lon="17.2337169573"></trkpt><trkpt lat="52.5567001943" lon="17.2341769561"></trkpt><trkpt lat="52.5568894576" lon="17.2335413564"></trkpt><trkpt lat="52.5570534915" lon="17.2331383545"></trkpt><trkpt lat="52.5572705828" lon="17.2328226082"></trkpt><trkpt lat="52.5575279072" lon="17.23251516"></trkpt><trkpt lat="52.5576262269" lon="17.2320635431"></trkpt><trkpt lat="52.5577003229" lon="17.2315204795"></trkpt><trkpt lat="52.5587264355" lon="17.2270079982"></trkpt><trkpt lat="52.5589500647" lon="17.2272789013"></trkpt><trkpt lat="52.5632091612" lon="17.2315316275"></trkpt><trkpt lat="52.5655369833" lon="17.233352093"></trkpt><trkpt lat="52.5658661406" lon="17.2334556933"></trkpt><trkpt lat="52.5661660451" lon="17.2332207486"></trkpt><trkpt lat="52.5661491137" lon="17.2327092849"></trkpt><trkpt lat="52.5661681406" lon="17.2321860027"></trkpt><trkpt lat="52.5661465991" lon="17.2316752933"></trkpt><trkpt lat="52.5660089683" lon="17.2305110469"></trkpt><trkpt lat="52.5659653824" lon="17.2298193723"></trkpt><trkpt lat="52.5661011692" lon="17.2294061445"></trkpt><trkpt lat="52.5661546458" lon="17.2289598919"></trkpt><trkpt lat="52.5662562344" lon="17.2285408806"></trkpt><trkpt lat="52.56631759" lon="17.2280551493"></trkpt><trkpt lat="52.5662719086" lon="17.2271177173"></trkpt><trkpt lat="52.5663718209" lon="17.2278260719"></trkpt><trkpt lat="52.5663281512" lon="17.228279449"></trkpt><trkpt lat="52.5662056077" lon="17.2290707007"></trkpt><trkpt lat="52.5660351198" lon="17.2298389021"></trkpt><trkpt lat="52.5660590921" lon="17.2303474322"></trkpt><trkpt lat="52.5661844853" lon="17.2308140527"></trkpt><trkpt lat="52.5662061106" lon="17.2312734649"></trkpt><trkpt lat="52.5661789533" lon="17.2317227349"></trkpt><trkpt lat="52.5661994889" lon="17.23219648"></trkpt><trkpt lat="52.5661612675" lon="17.2349801101"></trkpt><trkpt lat="52.565865973" lon="17.2393146437"></trkpt><trkpt lat="52.5654912181" lon="17.2395098582"></trkpt><trkpt lat="52.5630033016" lon="17.241217168"></trkpt><trkpt lat="52.5628436264" lon="17.2417085152"></trkpt><trkpt lat="52.5630203169" lon="17.2411222849"></trkpt><trkpt lat="52.5632901303" lon="17.2408683132"></trkpt><trkpt lat="52.5635503046" lon="17.2407069616"></trkpt><trkpt lat="52.5662724953" lon="17.239557635"></trkpt><trkpt lat="52.5662839785" lon="17.240023585"></trkpt><trkpt lat="52.5663825497" lon="17.2411195189"></trkpt><trkpt lat="52.5663934462" lon="17.2416456509"></trkpt><trkpt lat="52.5665485952" lon="17.2434568964"></trkpt><trkpt lat="52.5665629283" lon="17.244086042"></trkpt><trkpt lat="52.5664286502" lon="17.2461406142"></trkpt><trkpt lat="52.5661885086" lon="17.2463524248"></trkpt><trkpt lat="52.5630289502" lon="17.2498333454"></trkpt><trkpt lat="52.5628520083" lon="17.2502525244"></trkpt><trkpt lat="52.5583856273" lon="17.2589782532"></trkpt><trkpt lat="52.5581061747" lon="17.2587895766"></trkpt><trkpt lat="52.5556930248" lon="17.2565412987"></trkpt><trkpt lat="52.5558071863" lon="17.2559158411"></trkpt><trkpt lat="52.5558238663" lon="17.2553450335"></trkpt><trkpt lat="52.5557245407" lon="17.2526162211"></trkpt><trkpt lat="52.5543722883" lon="17.2489732783"></trkpt></trkseg></trk></gpx>