<?xml version="1.0" encoding="UTF-8" standalone="no" ?><gpx xmlns="http://www.topografix.com/GPX/1/1" xmlns:gpxx="http://www.garmin.com/xmlschemas/GpxExtensions/v3" ><trk><trkseg><trkpt lat="53.143856" lon="16.743954"></trkpt><trkpt lat="53.144112" lon="16.743921"></trkpt><trkpt lat="53.144529" lon="16.744062"></trkpt><trkpt lat="53.144616" lon="16.744491"></trkpt><trkpt lat="53.144877" lon="16.744955"></trkpt><trkpt lat="53.145818" lon="16.746357"></trkpt><trkpt lat="53.145999" lon="16.746587"></trkpt><trkpt lat="53.146098" lon="16.747097"></trkpt><trkpt lat="53.146144" lon="16.747807"></trkpt><trkpt lat="53.146151" lon="16.748257"></trkpt><trkpt lat="53.146358" lon="16.749826"></trkpt><trkpt lat="53.146627" lon="16.750317"></trkpt><trkpt lat="53.147153" lon="16.751726"></trkpt><trkpt lat="53.146986" lon="16.751951"></trkpt><trkpt lat="53.146845" lon="16.752184"></trkpt><trkpt lat="53.14666" lon="16.752614"></trkpt><trkpt lat="53.146772" lon="16.752897"></trkpt><trkpt lat="53.146822" lon="16.753274"></trkpt><trkpt lat="53.146861" lon="16.753819"></trkpt><trkpt lat="53.147206" lon="16.756467"></trkpt><trkpt lat="53.147509" lon="16.756429"></trkpt><trkpt lat="53.14841" lon="16.756205"></trkpt><trkpt lat="53.148481" lon="16.75681"></trkpt><trkpt lat="53.148502" lon="16.757189"></trkpt><trkpt lat="53.148835" lon="16.760247"></trkpt><trkpt lat="53.149066" lon="16.760701"></trkpt><trkpt lat="53.149445" lon="16.76116"></trkpt><trkpt lat="53.150704" lon="16.762398"></trkpt><trkpt lat="53.150904" lon="16.762296"></trkpt><trkpt lat="53.152047" lon="16.761868"></trkpt><trkpt lat="53.152193" lon="16.762129"></trkpt><trkpt lat="53.15243" lon="16.762166"></trkpt><trkpt lat="53.152671" lon="16.76199"></trkpt><trkpt lat="53.152989" lon="16.762075"></trkpt><trkpt lat="53.157733" lon="16.763924"></trkpt><trkpt lat="53.15797" lon="16.76406"></trkpt><trkpt lat="53.159587" lon="16.764682"></trkpt><trkpt lat="53.160014" lon="16.764916"></trkpt><trkpt lat="53.160296" lon="16.765175"></trkpt><trkpt lat="53.160514" lon="16.765805"></trkpt><trkpt lat="53.161085" lon="16.767818"></trkpt><trkpt lat="53.166711" lon="16.791875"></trkpt><trkpt lat="53.166918" lon="16.793004"></trkpt><trkpt lat="53.16825" lon="16.798521"></trkpt><trkpt lat="53.168371" lon="16.798858"></trkpt><trkpt lat="53.168861" lon="16.800553"></trkpt><trkpt lat="53.168977" lon="16.801278"></trkpt><trkpt lat="53.181457" lon="16.874112"></trkpt><trkpt lat="53.181609" lon="16.874581"></trkpt><trkpt lat="53.182561" lon="16.878141"></trkpt><trkpt lat="53.182639" lon="16.878672"></trkpt><trkpt lat="53.182639" lon="16.879052"></trkpt><trkpt lat="53.182663" lon="16.879474"></trkpt><trkpt lat="53.18292" lon="16.882018"></trkpt><trkpt lat="53.182986" lon="16.882468"></trkpt><trkpt lat="53.183024" lon="16.882874"></trkpt><trkpt lat="53.183086" lon="16.883313"></trkpt><trkpt lat="53.183194" lon="16.883876"></trkpt><trkpt lat="53.185639" lon="16.900748"></trkpt><trkpt lat="53.185657" lon="16.90108"></trkpt><trkpt lat="53.186569" lon="16.910253"></trkpt><trkpt lat="53.186688" lon="16.910655"></trkpt><trkpt lat="53.186847" lon="16.911368"></trkpt><trkpt lat="53.188515" lon="16.920964"></trkpt><trkpt lat="53.188702" lon="16.922483"></trkpt><trkpt lat="53.189279" lon="16.929741"></trkpt><trkpt lat="53.189614" lon="16.932288"></trkpt><trkpt lat="53.190222" lon="16.935599"></trkpt><trkpt lat="53.191974" lon="16.948682"></trkpt><trkpt lat="53.192027" lon="16.949559"></trkpt><trkpt lat="53.192139" lon="16.955683"></trkpt><trkpt lat="53.192121" lon="16.956021"></trkpt><trkpt lat="53.192063" lon="16.956402"></trkpt><trkpt lat="53.192014" lon="16.956889"></trkpt><trkpt lat="53.191987" lon="16.957467"></trkpt><trkpt lat="53.191983" lon="16.958596"></trkpt><trkpt lat="53.192111" lon="16.959187"></trkpt><trkpt lat="53.192368" lon="16.96002"></trkpt><trkpt lat="53.197776" lon="16.981128"></trkpt><trkpt lat="53.19771" lon="16.981519"></trkpt><trkpt lat="53.197227" lon="16.985713"></trkpt><trkpt lat="53.197275" lon="16.986051"></trkpt><trkpt lat="53.198357" lon="16.997307"></trkpt><trkpt lat="53.199174" lon="17.013026"></trkpt><trkpt lat="53.199117" lon="17.013491"></trkpt><trkpt lat="53.19901" lon="17.013943"></trkpt><trkpt lat="53.197895" lon="17.019907"></trkpt><trkpt lat="53.198447" lon="17.020284"></trkpt><trkpt lat="53.198875" lon="17.020637"></trkpt><trkpt lat="53.199032" lon="17.020917"></trkpt><trkpt lat="53.199082" lon="17.021295"></trkpt><trkpt lat="53.199064" lon="17.021788"></trkpt><trkpt lat="53.198998" lon="17.022266"></trkpt><trkpt lat="53.198893" lon="17.022614"></trkpt><trkpt lat="53.198767" lon="17.022935"></trkpt><trkpt lat="53.198551" lon="17.023387"></trkpt><trkpt lat="53.1982" lon="17.024277"></trkpt><trkpt lat="53.198334" lon="17.023971"></trkpt><trkpt lat="53.198484" lon="17.024227"></trkpt><trkpt lat="53.198435" lon="17.024688"></trkpt><trkpt lat="53.198071" lon="17.030679"></trkpt><trkpt lat="53.198096" lon="17.0311"></trkpt><trkpt lat="53.19816" lon="17.031588"></trkpt><trkpt lat="53.19834" lon="17.032577"></trkpt><trkpt lat="53.198763" lon="17.035734"></trkpt><trkpt lat="53.199002" lon="17.037048"></trkpt><trkpt lat="53.199223" lon="17.037846"></trkpt><trkpt lat="53.200103" lon="17.04051"></trkpt><trkpt lat="53.200318" lon="17.040985"></trkpt><trkpt lat="53.201266" lon="17.043453"></trkpt><trkpt lat="53.201406" lon="17.043991"></trkpt><trkpt lat="53.201483" lon="17.044491"></trkpt><trkpt lat="53.20485" lon="17.060941"></trkpt><trkpt lat="53.205137" lon="17.061532"></trkpt><trkpt lat="53.211219" lon="17.072371"></trkpt><trkpt lat="53.211615" lon="17.072603"></trkpt><trkpt lat="53.211832" lon="17.07295"></trkpt><trkpt lat="53.212043" lon="17.073386"></trkpt><trkpt lat="53.213596" lon="17.076023"></trkpt><trkpt lat="53.213793" lon="17.075973"></trkpt><trkpt lat="53.213563" lon="17.076208"></trkpt><trkpt lat="53.21348" lon="17.076583"></trkpt><trkpt lat="53.213457" lon="17.076916"></trkpt><trkpt lat="53.213454" lon="17.077257"></trkpt><trkpt lat="53.213492" lon="17.077587"></trkpt><trkpt lat="53.213489" lon="17.077947"></trkpt><trkpt lat="53.213524" lon="17.078745"></trkpt><trkpt lat="53.213666" lon="17.079586"></trkpt><trkpt lat="53.214667" lon="17.084181"></trkpt><trkpt lat="53.214973" lon="17.084628"></trkpt><trkpt lat="53.217066" lon="17.088267"></trkpt><trkpt lat="53.217287" lon="17.088825"></trkpt><trkpt lat="53.21825" lon="17.090819"></trkpt><trkpt lat="53.21842" lon="17.091008"></trkpt><trkpt lat="53.223691" lon="17.09783"></trkpt><trkpt lat="53.223688" lon="17.098288"></trkpt><trkpt lat="53.223811" lon="17.10108"></trkpt><trkpt lat="53.223861" lon="17.101417"></trkpt><trkpt lat="53.223981" lon="17.101968"></trkpt><trkpt lat="53.22407" lon="17.102506"></trkpt><trkpt lat="53.224247" lon="17.10332"></trkpt><trkpt lat="53.224779" lon="17.105304"></trkpt><trkpt lat="53.224898" lon="17.106072"></trkpt><trkpt lat="53.224885" lon="17.10673"></trkpt><trkpt lat="53.22373" lon="17.12428"></trkpt><trkpt lat="53.223553" lon="17.12485"></trkpt><trkpt lat="53.223039" lon="17.12718"></trkpt><trkpt lat="53.223274" lon="17.12771"></trkpt><trkpt lat="53.224772" lon="17.130628"></trkpt><trkpt lat="53.230611" lon="17.140513"></trkpt><trkpt lat="53.236026" lon="17.148359"></trkpt><trkpt lat="53.236484" lon="17.148473"></trkpt><trkpt lat="53.242492" lon="17.149224"></trkpt><trkpt lat="53.248752" lon="17.149188"></trkpt><trkpt lat="53.249317" lon="17.149304"></trkpt><trkpt lat="53.254999" lon="17.151286"></trkpt><trkpt lat="53.255179" lon="17.151465"></trkpt><trkpt lat="53.257557" lon="17.154454"></trkpt><trkpt lat="53.257679" lon="17.155196"></trkpt><trkpt lat="53.264137" lon="17.185515"></trkpt><trkpt lat="53.264535" lon="17.186532"></trkpt><trkpt lat="53.266875" lon="17.193755"></trkpt><trkpt lat="53.267907" lon="17.197699"></trkpt><trkpt lat="53.268087" lon="17.198878"></trkpt><trkpt lat="53.26807" lon="17.199476"></trkpt><trkpt lat="53.268018" lon="17.199914"></trkpt><trkpt lat="53.266219" lon="17.210492"></trkpt><trkpt lat="53.266093" lon="17.210934"></trkpt><trkpt lat="53.264608" lon="17.217388"></trkpt><trkpt lat="53.264463" lon="17.218226"></trkpt><trkpt lat="53.263754" lon="17.221446"></trkpt><trkpt lat="53.259621" lon="17.245312"></trkpt><trkpt lat="53.259566" lon="17.246128"></trkpt><trkpt lat="53.259453" lon="17.251638"></trkpt><trkpt lat="53.259591" lon="17.252273"></trkpt><trkpt lat="53.259589" lon="17.252641"></trkpt><trkpt lat="53.259555" lon="17.253244"></trkpt><trkpt lat="53.259557" lon="17.253766"></trkpt><trkpt lat="53.259419" lon="17.256809"></trkpt><trkpt lat="53.259327" lon="17.257179"></trkpt><trkpt lat="53.259181" lon="17.257581"></trkpt><trkpt lat="53.259318" lon="17.25786"></trkpt><trkpt lat="53.259527" lon="17.258108"></trkpt><trkpt lat="53.25999" lon="17.258452"></trkpt><trkpt lat="53.260276" lon="17.258392"></trkpt><trkpt lat="53.260529" lon="17.258191"></trkpt><trkpt lat="53.260629" lon="17.257894"></trkpt><trkpt lat="53.260861" lon="17.257589"></trkpt><trkpt lat="53.261188" lon="17.257087"></trkpt><trkpt lat="53.261337" lon="17.256645"></trkpt><trkpt lat="53.261573" lon="17.25629"></trkpt><trkpt lat="53.26177" lon="17.255924"></trkpt><trkpt lat="53.261328" lon="17.25559"></trkpt><trkpt lat="53.260996" lon="17.255545"></trkpt><trkpt lat="53.260264" lon="17.255341"></trkpt><trkpt lat="53.260495" lon="17.255469"></trkpt><trkpt lat="53.260751" lon="17.255572"></trkpt><trkpt lat="53.26106" lon="17.255588"></trkpt><trkpt lat="53.261299" lon="17.255652"></trkpt><trkpt lat="53.260848" lon="17.255523"></trkpt><trkpt lat="53.260723" lon="17.25584"></trkpt><trkpt lat="53.260734" lon="17.256276"></trkpt><trkpt lat="53.260686" lon="17.257743"></trkpt><trkpt lat="53.260369" lon="17.257672"></trkpt><trkpt lat="53.26013" lon="17.257587"></trkpt><trkpt lat="53.259227" lon="17.257452"></trkpt><trkpt lat="53.259291" lon="17.257877"></trkpt><trkpt lat="53.259453" lon="17.258116"></trkpt><trkpt lat="53.259737" lon="17.258749"></trkpt><trkpt lat="53.259728" lon="17.259198"></trkpt><trkpt lat="53.259819" lon="17.259579"></trkpt><trkpt lat="53.259996" lon="17.259789"></trkpt><trkpt lat="53.260192" lon="17.260085"></trkpt><trkpt lat="53.260174" lon="17.260681"></trkpt><trkpt lat="53.259998" lon="17.260945"></trkpt><trkpt lat="53.259774" lon="17.26112"></trkpt><trkpt lat="53.259597" lon="17.261345"></trkpt><trkpt lat="53.259428" lon="17.261758"></trkpt><trkpt lat="53.259367" lon="17.262112"></trkpt><trkpt lat="53.259368" lon="17.262509"></trkpt><trkpt lat="53.25939" lon="17.262858"></trkpt><trkpt lat="53.260423" lon="17.272469"></trkpt><trkpt lat="53.260769" lon="17.27292"></trkpt><trkpt lat="53.265202" lon="17.277817"></trkpt><trkpt lat="53.268053" lon="17.281508"></trkpt><trkpt lat="53.27239" lon="17.286202"></trkpt><trkpt lat="53.272947" lon="17.286568"></trkpt><trkpt lat="53.275792" lon="17.287869"></trkpt><trkpt lat="53.276454" lon="17.287885"></trkpt><trkpt lat="53.280654" lon="17.288483"></trkpt><trkpt lat="53.281144" lon="17.288977"></trkpt><trkpt lat="53.296441" lon="17.301874"></trkpt><trkpt lat="53.296724" lon="17.30188"></trkpt><trkpt lat="53.304938" lon="17.303078"></trkpt><trkpt lat="53.305377" lon="17.303744"></trkpt><trkpt lat="53.30586" lon="17.304281"></trkpt><trkpt lat="53.307904" lon="17.306224"></trkpt><trkpt lat="53.308964" lon="17.307031"></trkpt><trkpt lat="53.309332" lon="17.307532"></trkpt><trkpt lat="53.309335" lon="17.308035"></trkpt><trkpt lat="53.309252" lon="17.308756"></trkpt><trkpt lat="53.309121" lon="17.30943"></trkpt><trkpt lat="53.308668" lon="17.311296"></trkpt><trkpt lat="53.308545" lon="17.311928"></trkpt><trkpt lat="53.308493" lon="17.31251"></trkpt><trkpt lat="53.30643" lon="17.327876"></trkpt><trkpt lat="53.306176" lon="17.328706"></trkpt><trkpt lat="53.30312" lon="17.34081"></trkpt><trkpt lat="53.303022" lon="17.34148"></trkpt><trkpt lat="53.302827" lon="17.341993"></trkpt><trkpt lat="53.302518" lon="17.342606"></trkpt><trkpt lat="53.302207" lon="17.343058"></trkpt><trkpt lat="53.298945" lon="17.348515"></trkpt><trkpt lat="53.298826" lon="17.348794"></trkpt><trkpt lat="53.298699" lon="17.349151"></trkpt><trkpt lat="53.298477" lon="17.349214"></trkpt><trkpt lat="53.298257" lon="17.34902"></trkpt><trkpt lat="53.298008" lon="17.3491"></trkpt><trkpt lat="53.298142" lon="17.349842"></trkpt><trkpt lat="53.298426" lon="17.351044"></trkpt><trkpt lat="53.298491" lon="17.351449"></trkpt><trkpt lat="53.298539" lon="17.352025"></trkpt><trkpt lat="53.298697" lon="17.352744"></trkpt><trkpt lat="53.298885" lon="17.352884"></trkpt><trkpt lat="53.299004" lon="17.35317"></trkpt><trkpt lat="53.299204" lon="17.353521"></trkpt><trkpt lat="53.299512" lon="17.353932"></trkpt><trkpt lat="53.300783" lon="17.355923"></trkpt><trkpt lat="53.300946" lon="17.35634"></trkpt><trkpt lat="53.301746" lon="17.358834"></trkpt><trkpt lat="53.301838" lon="17.359365"></trkpt><trkpt lat="53.301997" lon="17.360688"></trkpt><trkpt lat="53.30199" lon="17.361097"></trkpt><trkpt lat="53.302219" lon="17.360876"></trkpt><trkpt lat="53.302383" lon="17.360584"></trkpt><trkpt lat="53.30237" lon="17.360177"></trkpt><trkpt lat="53.30245" lon="17.359764"></trkpt><trkpt lat="53.302365" lon="17.360157"></trkpt><trkpt lat="53.302401" lon="17.360624"></trkpt><trkpt lat="53.302228" lon="17.360884"></trkpt><trkpt lat="53.302044" lon="17.361047"></trkpt><trkpt lat="53.301926" lon="17.361441"></trkpt><trkpt lat="53.300989" lon="17.365422"></trkpt><trkpt lat="53.301005" lon="17.365834"></trkpt><trkpt lat="53.301057" lon="17.366171"></trkpt><trkpt lat="53.30128" lon="17.366974"></trkpt><trkpt lat="53.301557" lon="17.367787"></trkpt><trkpt lat="53.308301" lon="17.392206"></trkpt><trkpt lat="53.308211" lon="17.393273"></trkpt><trkpt lat="53.308009" lon="17.398111"></trkpt><trkpt lat="53.308112" lon="17.399027"></trkpt><trkpt lat="53.308303" lon="17.399804"></trkpt><trkpt lat="53.311641" lon="17.410946"></trkpt><trkpt lat="53.31202" lon="17.411648"></trkpt><trkpt lat="53.313354" lon="17.414668"></trkpt><trkpt lat="53.313446" lon="17.415168"></trkpt><trkpt lat="53.31355" lon="17.416334"></trkpt><trkpt lat="53.314707" lon="17.42501"></trkpt><trkpt lat="53.314882" lon="17.425905"></trkpt><trkpt lat="53.3153" lon="17.429066"></trkpt><trkpt lat="53.315479" lon="17.429826"></trkpt><trkpt lat="53.315591" lon="17.430202"></trkpt><trkpt lat="53.316204" lon="17.431939"></trkpt><trkpt lat="53.324166" lon="17.45123"></trkpt><trkpt lat="53.324355" lon="17.451534"></trkpt><trkpt lat="53.324635" lon="17.451632"></trkpt><trkpt lat="53.32495" lon="17.451613"></trkpt><trkpt lat="53.325374" lon="17.451532"></trkpt><trkpt lat="53.327154" lon="17.45246"></trkpt><trkpt lat="53.327175" lon="17.452837"></trkpt><trkpt lat="53.327313" lon="17.45313"></trkpt><trkpt lat="53.327572" lon="17.453258"></trkpt><trkpt lat="53.330213" lon="17.45492"></trkpt><trkpt lat="53.330226" lon="17.455378"></trkpt><trkpt lat="53.330267" lon="17.455958"></trkpt><trkpt lat="53.330367" lon="17.456512"></trkpt><trkpt lat="53.330504" lon="17.456822"></trkpt><trkpt lat="53.330689" lon="17.456956"></trkpt><trkpt lat="53.331109" lon="17.457203"></trkpt><trkpt lat="53.333312" lon="17.458854"></trkpt><trkpt lat="53.333552" lon="17.459283"></trkpt><trkpt lat="53.33937" lon="17.471657"></trkpt><trkpt lat="53.339518" lon="17.472422"></trkpt><trkpt lat="53.33976" lon="17.473158"></trkpt><trkpt lat="53.339891" lon="17.473465"></trkpt><trkpt lat="53.343604" lon="17.480918"></trkpt><trkpt lat="53.344168" lon="17.481251"></trkpt><trkpt lat="53.345303" lon="17.482097"></trkpt><trkpt lat="53.345964" lon="17.482693"></trkpt><trkpt lat="53.349099" lon="17.486027"></trkpt><trkpt lat="53.34937" lon="17.486453"></trkpt><trkpt lat="53.350751" lon="17.489004"></trkpt><trkpt lat="53.350574" lon="17.489317"></trkpt><trkpt lat="53.350536" lon="17.489668"></trkpt><trkpt lat="53.35037" lon="17.490102"></trkpt><trkpt lat="53.350249" lon="17.490374"></trkpt><trkpt lat="53.350488" lon="17.489939"></trkpt><trkpt lat="53.350453" lon="17.48949"></trkpt><trkpt lat="53.350199" lon="17.48901"></trkpt><trkpt lat="53.35005" lon="17.488667"></trkpt><trkpt lat="53.349902" lon="17.488429"></trkpt><trkpt lat="53.349685" lon="17.488282"></trkpt><trkpt lat="53.349248" lon="17.488347"></trkpt><trkpt lat="53.348944" lon="17.488561"></trkpt><trkpt lat="53.348642" lon="17.488619"></trkpt><trkpt lat="53.348722" lon="17.48824"></trkpt><trkpt lat="53.34875" lon="17.485956"></trkpt><trkpt lat="53.349195" lon="17.485988"></trkpt><trkpt lat="53.348963" lon="17.486255"></trkpt><trkpt lat="53.348896" lon="17.486606"></trkpt><trkpt lat="53.348846" lon="17.486061"></trkpt><trkpt lat="53.349074" lon="17.486067"></trkpt><trkpt lat="53.34929" lon="17.48639"></trkpt><trkpt lat="53.349859" lon="17.48739"></trkpt><trkpt lat="53.350075" lon="17.487626"></trkpt><trkpt lat="53.350126" lon="17.4873"></trkpt><trkpt lat="53.350299" lon="17.487544"></trkpt><trkpt lat="53.351509" lon="17.489003"></trkpt><trkpt lat="53.351853" lon="17.489329"></trkpt><trkpt lat="53.352127" lon="17.489538"></trkpt><trkpt lat="53.354184" lon="17.491453"></trkpt><trkpt lat="53.354252" lon="17.491975"></trkpt><trkpt lat="53.354745" lon="17.498463"></trkpt><trkpt lat="53.35462" lon="17.499383"></trkpt><trkpt lat="53.353261" lon="17.505871"></trkpt><trkpt lat="53.352937" lon="17.50662"></trkpt><trkpt lat="53.35197" lon="17.509239"></trkpt><trkpt lat="53.351889" lon="17.509815"></trkpt><trkpt lat="53.351503" lon="17.513862"></trkpt><trkpt lat="53.35151" lon="17.514799"></trkpt><trkpt lat="53.351411" lon="17.517122"></trkpt><trkpt lat="53.351321" lon="17.517659"></trkpt><trkpt lat="53.349403" lon="17.526295"></trkpt><trkpt lat="53.349109" lon="17.526965"></trkpt><trkpt lat="53.348707" lon="17.528072"></trkpt><trkpt lat="53.348668" lon="17.528427"></trkpt><trkpt lat="53.348655" lon="17.52915"></trkpt><trkpt lat="53.348942" lon="17.538097"></trkpt><trkpt lat="53.349094" lon="17.53835"></trkpt><trkpt lat="53.349394" lon="17.539008"></trkpt><trkpt lat="53.34955" lon="17.539579"></trkpt><trkpt lat="53.350507" lon="17.542497"></trkpt><trkpt lat="53.350772" lon="17.543174"></trkpt><trkpt lat="53.358186" lon="17.565414"></trkpt><trkpt lat="53.358154" lon="17.565775"></trkpt><trkpt lat="53.357448" lon="17.571125"></trkpt><trkpt lat="53.352745" lon="17.597624"></trkpt><trkpt lat="53.352503" lon="17.597549"></trkpt><trkpt lat="53.351621" lon="17.597426"></trkpt><trkpt lat="53.351405" lon="17.597813"></trkpt><trkpt lat="53.350229" lon="17.599568"></trkpt><trkpt lat="53.349993" lon="17.599571"></trkpt><trkpt lat="53.349738" lon="17.599782"></trkpt><trkpt lat="53.349515" lon="17.600189"></trkpt><trkpt lat="53.349252" lon="17.600811"></trkpt><trkpt lat="53.34916" lon="17.601156"></trkpt><trkpt lat="53.348708" lon="17.602425"></trkpt><trkpt lat="53.348276" lon="17.60302"></trkpt><trkpt lat="53.347781" lon="17.603523"></trkpt><trkpt lat="53.347329" lon="17.6041"></trkpt><trkpt lat="53.347169" lon="17.604568"></trkpt><trkpt lat="53.346763" lon="17.606097"></trkpt><trkpt lat="53.346762" lon="17.606529"></trkpt><trkpt lat="53.346708" lon="17.607475"></trkpt><trkpt lat="53.346566" lon="17.607709"></trkpt><trkpt lat="53.346377" lon="17.607909"></trkpt><trkpt lat="53.345021" lon="17.60958"></trkpt><trkpt lat="53.344751" lon="17.610387"></trkpt><trkpt lat="53.344282" lon="17.612111"></trkpt><trkpt lat="53.344485" lon="17.612356"></trkpt><trkpt lat="53.344826" lon="17.612587"></trkpt><trkpt lat="53.344972" lon="17.612929"></trkpt><trkpt lat="53.344933" lon="17.613265"></trkpt><trkpt lat="53.343981" lon="17.626379"></trkpt><trkpt lat="53.344082" lon="17.627361"></trkpt><trkpt lat="53.344611" lon="17.630638"></trkpt><trkpt lat="53.344796" lon="17.631393"></trkpt><trkpt lat="53.346399" lon="17.639641"></trkpt><trkpt lat="53.346238" lon="17.640245"></trkpt><trkpt lat="53.345964" lon="17.641058"></trkpt><trkpt lat="53.345187" lon="17.642888"></trkpt><trkpt lat="53.344785" lon="17.643321"></trkpt><trkpt lat="53.344596" lon="17.643607"></trkpt><trkpt lat="53.344462" lon="17.643883"></trkpt><trkpt lat="53.340032" lon="17.651562"></trkpt><trkpt lat="53.339612" lon="17.652014"></trkpt><trkpt lat="53.338541" lon="17.652876"></trkpt><trkpt lat="53.337542" lon="17.653949"></trkpt><trkpt lat="53.337304" lon="17.654297"></trkpt><trkpt lat="53.333802" lon="17.658116"></trkpt><trkpt lat="53.333308" lon="17.657755"></trkpt><trkpt lat="53.332824" lon="17.657491"></trkpt><trkpt lat="53.332371" lon="17.657305"></trkpt><trkpt lat="53.330131" lon="17.656714"></trkpt><trkpt lat="53.329815" lon="17.65697"></trkpt><trkpt lat="53.329654" lon="17.657187"></trkpt><trkpt lat="53.323523" lon="17.664302"></trkpt><trkpt lat="53.323118" lon="17.664636"></trkpt><trkpt lat="53.320355" lon="17.667339"></trkpt><trkpt lat="53.320206" lon="17.668329"></trkpt><trkpt lat="53.319564" lon="17.671304"></trkpt><trkpt lat="53.319299" lon="17.671152"></trkpt><trkpt lat="53.319562" lon="17.671367"></trkpt><trkpt lat="53.319876" lon="17.671551"></trkpt><trkpt lat="53.320368" lon="17.671912"></trkpt><trkpt lat="53.320524" lon="17.672229"></trkpt><trkpt lat="53.32048" lon="17.672976"></trkpt><trkpt lat="53.320465" lon="17.674471"></trkpt><trkpt lat="53.320677" lon="17.67471"></trkpt><trkpt lat="53.320726" lon="17.67505"></trkpt><trkpt lat="53.320606" lon="17.675484"></trkpt><trkpt lat="53.320311" lon="17.67638"></trkpt><trkpt lat="53.318566" lon="17.6807"></trkpt><trkpt lat="53.318221" lon="17.681181"></trkpt><trkpt lat="53.316731" lon="17.683637"></trkpt><trkpt lat="53.316528" lon="17.684147"></trkpt><trkpt lat="53.315963" lon="17.685827"></trkpt><trkpt lat="53.314501" lon="17.691459"></trkpt><trkpt lat="53.314456" lon="17.692099"></trkpt><trkpt lat="53.314445" lon="17.69269"></trkpt><trkpt lat="53.314364" lon="17.693335"></trkpt><trkpt lat="53.314342" lon="17.693687"></trkpt><trkpt lat="53.313857" lon="17.698033"></trkpt><trkpt lat="53.313423" lon="17.69865"></trkpt><trkpt lat="53.299559" lon="17.721447"></trkpt><trkpt lat="53.299773" lon="17.721964"></trkpt><trkpt lat="53.300926" lon="17.724183"></trkpt><trkpt lat="53.301137" lon="17.724448"></trkpt><trkpt lat="53.306082" lon="17.731811"></trkpt><trkpt lat="53.306378" lon="17.732791"></trkpt><trkpt lat="53.306528" lon="17.733488"></trkpt><trkpt lat="53.306603" lon="17.734415"></trkpt><trkpt lat="53.306576" lon="17.735266"></trkpt><trkpt lat="53.306072" lon="17.741858"></trkpt><trkpt lat="53.306026" lon="17.742215"></trkpt><trkpt lat="53.305808" lon="17.744802"></trkpt><trkpt lat="53.304886" lon="17.750865"></trkpt><trkpt lat="53.304753" lon="17.751121"></trkpt><trkpt lat="53.304449" lon="17.751926"></trkpt><trkpt lat="53.299718" lon="17.766785"></trkpt><trkpt lat="53.299575" lon="17.767755"></trkpt><trkpt lat="53.298257" lon="17.773756"></trkpt><trkpt lat="53.298024" lon="17.773718"></trkpt><trkpt lat="53.29298" lon="17.773514"></trkpt><trkpt lat="53.292593" lon="17.773711"></trkpt><trkpt lat="53.287293" lon="17.775672"></trkpt><trkpt lat="53.286966" lon="17.775652"></trkpt><trkpt lat="53.284606" lon="17.776275"></trkpt><trkpt lat="53.28436" lon="17.776508"></trkpt><trkpt lat="53.284013" lon="17.776759"></trkpt><trkpt lat="53.28359" lon="17.776927"></trkpt><trkpt lat="53.283309" lon="17.776987"></trkpt><trkpt lat="53.281495" lon="17.777135"></trkpt><trkpt lat="53.281035" lon="17.777003"></trkpt><trkpt lat="53.280624" lon="17.776823"></trkpt><trkpt lat="53.280414" lon="17.776695"></trkpt><trkpt lat="53.274763" lon="17.772454"></trkpt><trkpt lat="53.274535" lon="17.772235"></trkpt><trkpt lat="53.255842" lon="17.751185"></trkpt><trkpt lat="53.255271" lon="17.750727"></trkpt><trkpt lat="53.255014" lon="17.750691"></trkpt><trkpt lat="53.254785" lon="17.750763"></trkpt><trkpt lat="53.25455" lon="17.750982"></trkpt><trkpt lat="53.254402" lon="17.751221"></trkpt><trkpt lat="53.254116" lon="17.751912"></trkpt><trkpt lat="53.252823" lon="17.755875"></trkpt><trkpt lat="53.252902" lon="17.756226"></trkpt><trkpt lat="53.254986" lon="17.763816"></trkpt><trkpt lat="53.255114" lon="17.764193"></trkpt><trkpt lat="53.255397" lon="17.764859"></trkpt><trkpt lat="53.255732" lon="17.765067"></trkpt><trkpt lat="53.255944" lon="17.765165"></trkpt><trkpt lat="53.255718" lon="17.765246"></trkpt><trkpt lat="53.255366" lon="17.765021"></trkpt><trkpt lat="53.255361" lon="17.765423"></trkpt><trkpt lat="53.255383" lon="17.766015"></trkpt><trkpt lat="53.255364" lon="17.766575"></trkpt><trkpt lat="53.254979" lon="17.771557"></trkpt><trkpt lat="53.254902" lon="17.771944"></trkpt><trkpt lat="53.254914" lon="17.772563"></trkpt><trkpt lat="53.25504" lon="17.772831"></trkpt><trkpt lat="53.255281" lon="17.773869"></trkpt><trkpt lat="53.255112" lon="17.774345"></trkpt><trkpt lat="53.252987" lon="17.779084"></trkpt><trkpt lat="53.252748" lon="17.778859"></trkpt><trkpt lat="53.244643" lon="17.772449"></trkpt><trkpt lat="53.2439" lon="17.772071"></trkpt><trkpt lat="53.243777" lon="17.772335"></trkpt><trkpt lat="53.239763" lon="17.779427"></trkpt><trkpt lat="53.239576" lon="17.77961"></trkpt><trkpt lat="53.239151" lon="17.780235"></trkpt><trkpt lat="53.238943" lon="17.780625"></trkpt><trkpt lat="53.23372" lon="17.78884"></trkpt><trkpt lat="53.233481" lon="17.789053"></trkpt><trkpt lat="53.233137" lon="17.789422"></trkpt><trkpt lat="53.232726" lon="17.790056"></trkpt><trkpt lat="53.23219" lon="17.791014"></trkpt><trkpt lat="53.231497" lon="17.792456"></trkpt><trkpt lat="53.231398" lon="17.792773"></trkpt><trkpt lat="53.229947" lon="17.796666"></trkpt><trkpt lat="53.229584" lon="17.79736"></trkpt><trkpt lat="53.229076" lon="17.798572"></trkpt><trkpt lat="53.226606" lon="17.805444"></trkpt><trkpt lat="53.226371" lon="17.806221"></trkpt><trkpt lat="53.226217" lon="17.80701"></trkpt><trkpt lat="53.225153" lon="17.811381"></trkpt><trkpt lat="53.224926" lon="17.8117"></trkpt><trkpt lat="53.221977" lon="17.815232"></trkpt><trkpt lat="53.221721" lon="17.815479"></trkpt><trkpt lat="53.214029" lon="17.824373"></trkpt><trkpt lat="53.213822" lon="17.824983"></trkpt><trkpt lat="53.213611" lon="17.825912"></trkpt><trkpt lat="53.212524" lon="17.829791"></trkpt><trkpt lat="53.212359" lon="17.830122"></trkpt><trkpt lat="53.210013" lon="17.836072"></trkpt><trkpt lat="53.210003" lon="17.836585"></trkpt><trkpt lat="53.210089" lon="17.838051"></trkpt><trkpt lat="53.210265" lon="17.838218"></trkpt><trkpt lat="53.210114" lon="17.837973"></trkpt><trkpt lat="53.209917" lon="17.838109"></trkpt><trkpt lat="53.209827" lon="17.838776"></trkpt><trkpt lat="53.209554" lon="17.84027"></trkpt><trkpt lat="53.209394" lon="17.840746"></trkpt><trkpt lat="53.209208" lon="17.84117"></trkpt><trkpt lat="53.208962" lon="17.841966"></trkpt><trkpt lat="53.20891" lon="17.842407"></trkpt><trkpt lat="53.208754" lon="17.844874"></trkpt><trkpt lat="53.208793" lon="17.845257"></trkpt><trkpt lat="53.20894" lon="17.847826"></trkpt><trkpt lat="53.210226" lon="17.860427"></trkpt><trkpt lat="53.210307" lon="17.860761"></trkpt><trkpt lat="53.210308" lon="17.861246"></trkpt><trkpt lat="53.210182" lon="17.861534"></trkpt><trkpt lat="53.20987" lon="17.861608"></trkpt><trkpt lat="53.209797" lon="17.862137"></trkpt><trkpt lat="53.209786" lon="17.862558"></trkpt><trkpt lat="53.21001" lon="17.870355"></trkpt><trkpt lat="53.210285" lon="17.870894"></trkpt><trkpt lat="53.210361" lon="17.871301"></trkpt><trkpt lat="53.210348" lon="17.871835"></trkpt><trkpt lat="53.210287" lon="17.87271"></trkpt><trkpt lat="53.209984" lon="17.875256"></trkpt><trkpt lat="53.209915" lon="17.875585"></trkpt><trkpt lat="53.209849" lon="17.876244"></trkpt><trkpt lat="53.209803" lon="17.877043"></trkpt><trkpt lat="53.209732" lon="17.881889"></trkpt><trkpt lat="53.209764" lon="17.882218"></trkpt><trkpt lat="53.209773" lon="17.884437"></trkpt><trkpt lat="53.209583" lon="17.884738"></trkpt><trkpt lat="53.209406" lon="17.884933"></trkpt><trkpt lat="53.2081" lon="17.886154"></trkpt><trkpt lat="53.207834" lon="17.886298"></trkpt><trkpt lat="53.207623" lon="17.886451"></trkpt><trkpt lat="53.207128" lon="17.886881"></trkpt><trkpt lat="53.206907" lon="17.88717"></trkpt><trkpt lat="53.206621" lon="17.887718"></trkpt><trkpt lat="53.206494" lon="17.888056"></trkpt><trkpt lat="53.206395" lon="17.888773"></trkpt><trkpt lat="53.206179" lon="17.8897"></trkpt><trkpt lat="53.205944" lon="17.890373"></trkpt><trkpt lat="53.205023" lon="17.893545"></trkpt><trkpt lat="53.205012" lon="17.894101"></trkpt><trkpt lat="53.205032" lon="17.894441"></trkpt><trkpt lat="53.205069" lon="17.89477"></trkpt><trkpt lat="53.20529" lon="17.895537"></trkpt><trkpt lat="53.20554" lon="17.896259"></trkpt><trkpt lat="53.205619" lon="17.896642"></trkpt><trkpt lat="53.205572" lon="17.897088"></trkpt><trkpt lat="53.205439" lon="17.897372"></trkpt><trkpt lat="53.205207" lon="17.897548"></trkpt><trkpt lat="53.205" lon="17.897493"></trkpt><trkpt lat="53.204799" lon="17.897317"></trkpt><trkpt lat="53.203345" lon="17.896355"></trkpt><trkpt lat="53.203118" lon="17.896716"></trkpt><trkpt lat="53.202791" lon="17.897403"></trkpt><trkpt lat="53.202643" lon="17.897985"></trkpt><trkpt lat="53.201341" lon="17.9044"></trkpt><trkpt lat="53.201511" lon="17.905183"></trkpt><trkpt lat="53.201743" lon="17.906542"></trkpt><trkpt lat="53.201657" lon="17.90704"></trkpt><trkpt lat="53.201491" lon="17.90743"></trkpt><trkpt lat="53.20131" lon="17.907706"></trkpt><trkpt lat="53.201132" lon="17.907892"></trkpt><trkpt lat="53.200244" lon="17.908994"></trkpt><trkpt lat="53.200137" lon="17.909334"></trkpt><trkpt lat="53.200082" lon="17.909755"></trkpt><trkpt lat="53.200116" lon="17.910404"></trkpt><trkpt lat="53.200189" lon="17.910931"></trkpt><trkpt lat="53.201721" lon="17.928257"></trkpt><trkpt lat="53.201458" lon="17.928391"></trkpt><trkpt lat="53.190364" lon="17.935776"></trkpt><trkpt lat="53.190454" lon="17.936265"></trkpt><trkpt lat="53.190499" lon="17.936611"></trkpt><trkpt lat="53.190784" lon="17.938111"></trkpt><trkpt lat="53.190841" lon="17.938569"></trkpt><trkpt lat="53.190864" lon="17.938912"></trkpt><trkpt lat="53.191013" lon="17.940232"></trkpt><trkpt lat="53.191123" lon="17.942287"></trkpt><trkpt lat="53.190923" lon="17.942556"></trkpt><trkpt lat="53.190334" lon="17.943613"></trkpt><trkpt lat="53.190335" lon="17.944002"></trkpt><trkpt lat="53.190273" lon="17.944641"></trkpt><trkpt lat="53.190062" lon="17.944684"></trkpt><trkpt lat="53.189592" lon="17.944716"></trkpt><trkpt lat="53.186673" lon="17.9453"></trkpt><trkpt lat="53.186649" lon="17.94578"></trkpt><trkpt lat="53.18666" lon="17.946231"></trkpt><trkpt lat="53.186617" lon="17.946593"></trkpt><trkpt lat="53.186652" lon="17.946968"></trkpt><trkpt lat="53.186728" lon="17.948519"></trkpt><trkpt lat="53.186661" lon="17.948985"></trkpt><trkpt lat="53.186517" lon="17.949546"></trkpt><trkpt lat="53.18629" lon="17.950759"></trkpt><trkpt lat="53.186449" lon="17.951167"></trkpt><trkpt lat="53.186655" lon="17.951331"></trkpt><trkpt lat="53.187171" lon="17.952026"></trkpt><trkpt lat="53.187213" lon="17.952388"></trkpt><trkpt lat="53.187167" lon="17.952774"></trkpt><trkpt lat="53.187054" lon="17.953123"></trkpt><trkpt lat="53.185597" lon="17.959086"></trkpt><trkpt lat="53.185894" lon="17.959377"></trkpt><trkpt lat="53.192723" lon="17.964944"></trkpt><trkpt lat="53.193068" lon="17.964971"></trkpt><trkpt lat="53.19378" lon="17.965156"></trkpt><trkpt lat="53.194228" lon="17.965487"></trkpt><trkpt lat="53.194511" lon="17.965759"></trkpt><trkpt lat="53.194638" lon="17.966054"></trkpt><trkpt lat="53.195648" lon="17.968889"></trkpt><trkpt lat="53.195438" lon="17.96921"></trkpt><trkpt lat="53.195227" lon="17.969612"></trkpt><trkpt lat="53.194988" lon="17.969962"></trkpt><trkpt lat="53.19468" lon="17.970217"></trkpt><trkpt lat="53.194356" lon="17.970292"></trkpt><trkpt lat="53.193585" lon="17.970355"></trkpt><trkpt lat="53.192218" lon="17.970721"></trkpt><trkpt lat="53.191718" lon="17.970751"></trkpt><trkpt lat="53.191068" lon="17.970574"></trkpt><trkpt lat="53.190726" lon="17.970376"></trkpt><trkpt lat="53.188619" lon="17.969515"></trkpt><trkpt lat="53.188499" lon="17.969183"></trkpt><trkpt lat="53.188255" lon="17.969086"></trkpt><trkpt lat="53.187918" lon="17.968878"></trkpt><trkpt lat="53.187556" lon="17.968558"></trkpt><trkpt lat="53.187208" lon="17.968191"></trkpt><trkpt lat="53.186999" lon="17.968044"></trkpt><trkpt lat="53.186744" lon="17.968082"></trkpt><trkpt lat="53.186343" lon="17.967962"></trkpt><trkpt lat="53.186077" lon="17.967845"></trkpt><trkpt lat="53.185841" lon="17.967835"></trkpt><trkpt lat="53.18481" lon="17.9676"></trkpt><trkpt lat="53.184431" lon="17.967449"></trkpt><trkpt lat="53.184127" lon="17.967374"></trkpt><trkpt lat="53.182878" lon="17.967225"></trkpt><trkpt lat="53.182707" lon="17.967416"></trkpt><trkpt lat="53.182556" lon="17.967667"></trkpt><trkpt lat="53.182247" lon="17.967969"></trkpt><trkpt lat="53.18199" lon="17.967987"></trkpt><trkpt lat="53.173524" lon="17.96963"></trkpt><trkpt lat="53.172968" lon="17.969878"></trkpt><trkpt lat="53.172585" lon="17.969988"></trkpt><trkpt lat="53.172214" lon="17.970032"></trkpt><trkpt lat="53.167903" lon="17.971249"></trkpt><trkpt lat="53.167623" lon="17.971565"></trkpt><trkpt lat="53.166402" lon="17.972702"></trkpt><trkpt lat="53.166158" lon="17.97283"></trkpt><trkpt lat="53.165108" lon="17.973223"></trkpt><trkpt lat="53.16477" lon="17.973253"></trkpt><trkpt lat="53.16442" lon="17.973347"></trkpt><trkpt lat="53.164189" lon="17.973464"></trkpt><trkpt lat="53.162904" lon="17.974317"></trkpt><trkpt lat="53.162368" lon="17.974595"></trkpt><trkpt lat="53.161961" lon="17.974613"></trkpt><trkpt lat="53.160281" lon="17.974307"></trkpt><trkpt lat="53.159831" lon="17.973863"></trkpt><trkpt lat="53.158123" lon="17.97185"></trkpt><trkpt lat="53.1559" lon="17.969735"></trkpt><trkpt lat="53.155614" lon="17.969655"></trkpt><trkpt lat="53.155365" lon="17.969458"></trkpt><trkpt lat="53.155013" lon="17.969061"></trkpt><trkpt lat="53.154797" lon="17.968923"></trkpt><trkpt lat="53.154458" lon="17.968947"></trkpt><trkpt lat="53.154222" lon="17.96908"></trkpt><trkpt lat="53.153725" lon="17.96964"></trkpt><trkpt lat="53.152356" lon="17.970949"></trkpt><trkpt lat="53.152123" lon="17.971043"></trkpt><trkpt lat="53.151769" lon="17.971108"></trkpt><trkpt lat="53.150159" lon="17.971013"></trkpt><trkpt lat="53.149929" lon="17.971064"></trkpt><trkpt lat="53.148584" lon="17.971563"></trkpt><trkpt lat="53.148401" lon="17.971807"></trkpt><trkpt lat="53.147901" lon="17.972187"></trkpt><trkpt lat="53.147638" lon="17.971927"></trkpt><trkpt lat="53.147349" lon="17.971746"></trkpt><trkpt lat="53.146917" lon="17.971676"></trkpt><trkpt lat="53.143514" lon="17.971618"></trkpt><trkpt lat="53.143224" lon="17.971896"></trkpt><trkpt lat="53.137403" lon="17.978514"></trkpt><trkpt lat="53.137105" lon="17.978981"></trkpt><trkpt lat="53.136449" lon="17.980164"></trkpt><trkpt lat="53.135495" lon="17.982193"></trkpt><trkpt lat="53.135106" lon="17.982848"></trkpt><trkpt lat="53.134916" lon="17.983048"></trkpt><trkpt lat="53.131924" lon="17.986756"></trkpt><trkpt lat="53.131751" lon="17.98733"></trkpt><trkpt lat="53.131698" lon="17.987738"></trkpt><trkpt lat="53.131595" lon="17.988033"></trkpt><trkpt lat="53.131385" lon="17.988507"></trkpt><trkpt lat="53.13127" lon="17.988978"></trkpt><trkpt lat="53.131204" lon="17.989339"></trkpt><trkpt lat="53.131213" lon="17.988877"></trkpt><trkpt lat="53.131324" lon="17.98852"></trkpt><trkpt lat="53.131519" lon="17.988113"></trkpt><trkpt lat="53.131738" lon="17.988186"></trkpt><trkpt lat="53.132113" lon="17.988394"></trkpt><trkpt lat="53.1323" lon="17.988546"></trkpt><trkpt lat="53.132445" lon="17.988863"></trkpt><trkpt lat="53.132576" lon="17.989199"></trkpt><trkpt lat="53.133053" lon="17.990647"></trkpt><trkpt lat="53.133127" lon="17.991056"></trkpt><trkpt lat="53.133349" lon="17.991695"></trkpt><trkpt lat="53.133521" lon="17.992078"></trkpt><trkpt lat="53.133684" lon="17.992504"></trkpt><trkpt lat="53.133815" lon="17.992789"></trkpt><trkpt lat="53.134038" lon="17.992579"></trkpt><trkpt lat="53.134243" lon="17.992209"></trkpt><trkpt lat="53.134576" lon="17.992145"></trkpt></trkseg></trk></gpx>