<?xml version="1.0" encoding="UTF-8" standalone="no" ?><gpx xmlns="http://www.topografix.com/GPX/1/1" xmlns:gpxx="http://www.garmin.com/xmlschemas/GpxExtensions/v3" ><trk><trkseg><trkpt lat="52.705391" lon="16.384339"></trkpt><trkpt lat="52.705541" lon="16.383691"></trkpt><trkpt lat="52.705624" lon="16.382921"></trkpt><trkpt lat="52.705762" lon="16.380549"></trkpt><trkpt lat="52.705244" lon="16.380701"></trkpt><trkpt lat="52.705044" lon="16.380861"></trkpt><trkpt lat="52.704857" lon="16.381329"></trkpt><trkpt lat="52.704789" lon="16.382"></trkpt><trkpt lat="52.704016" lon="16.386205"></trkpt><trkpt lat="52.703626" lon="16.386589"></trkpt><trkpt lat="52.703039" lon="16.386772"></trkpt><trkpt lat="52.702325" lon="16.386798"></trkpt><trkpt lat="52.691172" lon="16.388609"></trkpt><trkpt lat="52.690633" lon="16.389318"></trkpt><trkpt lat="52.690006" lon="16.389639"></trkpt><trkpt lat="52.689159" lon="16.389752"></trkpt><trkpt lat="52.68295" lon="16.387432"></trkpt><trkpt lat="52.682437" lon="16.386309"></trkpt><trkpt lat="52.673069" lon="16.368585"></trkpt><trkpt lat="52.672133" lon="16.368074"></trkpt><trkpt lat="52.664983" lon="16.365183"></trkpt><trkpt lat="52.664823" lon="16.364978"></trkpt><trkpt lat="52.664411" lon="16.364658"></trkpt><trkpt lat="52.662304" lon="16.362579"></trkpt><trkpt lat="52.662413" lon="16.362252"></trkpt><trkpt lat="52.662551" lon="16.361387"></trkpt><trkpt lat="52.662781" lon="16.36027"></trkpt><trkpt lat="52.663009" lon="16.358773"></trkpt><trkpt lat="52.662939" lon="16.357763"></trkpt><trkpt lat="52.662679" lon="16.355461"></trkpt><trkpt lat="52.662519" lon="16.35526"></trkpt><trkpt lat="52.649566" lon="16.336436"></trkpt><trkpt lat="52.649861" lon="16.335546"></trkpt><trkpt lat="52.64995" lon="16.334846"></trkpt><trkpt lat="52.650096" lon="16.334049"></trkpt><trkpt lat="52.650248" lon="16.333527"></trkpt><trkpt lat="52.650807" lon="16.331007"></trkpt><trkpt lat="52.650932" lon="16.329869"></trkpt><trkpt lat="52.650857" lon="16.328676"></trkpt><trkpt lat="52.650876" lon="16.326051"></trkpt><trkpt lat="52.6509" lon="16.325712"></trkpt><trkpt lat="52.650992" lon="16.325051"></trkpt><trkpt lat="52.651088" lon="16.323949"></trkpt><trkpt lat="52.650938" lon="16.323277"></trkpt><trkpt lat="52.650662" lon="16.322592"></trkpt><trkpt lat="52.650462" lon="16.321174"></trkpt><trkpt lat="52.650227" lon="16.319969"></trkpt><trkpt lat="52.649798" lon="16.318578"></trkpt><trkpt lat="52.648872" lon="16.316107"></trkpt><trkpt lat="52.648393" lon="16.315923"></trkpt><trkpt lat="52.647745" lon="16.315953"></trkpt><trkpt lat="52.626226" lon="16.315647"></trkpt><trkpt lat="52.625322" lon="16.315891"></trkpt><trkpt lat="52.622638" lon="16.317027"></trkpt><trkpt lat="52.622098" lon="16.317624"></trkpt><trkpt lat="52.621965" lon="16.317947"></trkpt><trkpt lat="52.621765" lon="16.318664"></trkpt><trkpt lat="52.621287" lon="16.320091"></trkpt><trkpt lat="52.620779" lon="16.320857"></trkpt><trkpt lat="52.620052" lon="16.321477"></trkpt><trkpt lat="52.61695" lon="16.323574"></trkpt><trkpt lat="52.616407" lon="16.323741"></trkpt><trkpt lat="52.610112" lon="16.324528"></trkpt><trkpt lat="52.609857" lon="16.323224"></trkpt><trkpt lat="52.607236" lon="16.312494"></trkpt><trkpt lat="52.606629" lon="16.3122"></trkpt><trkpt lat="52.606393" lon="16.31201"></trkpt><trkpt lat="52.606327" lon="16.311595"></trkpt><trkpt lat="52.606365" lon="16.311239"></trkpt><trkpt lat="52.606142" lon="16.311121"></trkpt><trkpt lat="52.606059" lon="16.310816"></trkpt><trkpt lat="52.606204" lon="16.311103"></trkpt><trkpt lat="52.606296" lon="16.31174"></trkpt><trkpt lat="52.606181" lon="16.312007"></trkpt><trkpt lat="52.605774" lon="16.311873"></trkpt><trkpt lat="52.605358" lon="16.311805"></trkpt><trkpt lat="52.60525" lon="16.312148"></trkpt><trkpt lat="52.604946" lon="16.312214"></trkpt><trkpt lat="52.605182" lon="16.312359"></trkpt><trkpt lat="52.605031" lon="16.313044"></trkpt><trkpt lat="52.602559" lon="16.322161"></trkpt><trkpt lat="52.602368" lon="16.322273"></trkpt><trkpt lat="52.601614" lon="16.322124"></trkpt><trkpt lat="52.595115" lon="16.322005"></trkpt><trkpt lat="52.594537" lon="16.323033"></trkpt><trkpt lat="52.590216" lon="16.331919"></trkpt><trkpt lat="52.589918" lon="16.33269"></trkpt><trkpt lat="52.585021" lon="16.342849"></trkpt><trkpt lat="52.583907" lon="16.343308"></trkpt><trkpt lat="52.568853" lon="16.352096"></trkpt><trkpt lat="52.568465" lon="16.353012"></trkpt><trkpt lat="52.561071" lon="16.367465"></trkpt><trkpt lat="52.560426" lon="16.367947"></trkpt><trkpt lat="52.558247" lon="16.370668"></trkpt><trkpt lat="52.558364" lon="16.372152"></trkpt><trkpt lat="52.558514" lon="16.376738"></trkpt><trkpt lat="52.558498" lon="16.377163"></trkpt><trkpt lat="52.557693" lon="16.376796"></trkpt><trkpt lat="52.557007" lon="16.376371"></trkpt><trkpt lat="52.556697" lon="16.376221"></trkpt><trkpt lat="52.556214" lon="16.376061"></trkpt><trkpt lat="52.552935" lon="16.375367"></trkpt><trkpt lat="52.552669" lon="16.375274"></trkpt><trkpt lat="52.552221" lon="16.37521"></trkpt><trkpt lat="52.551646" lon="16.37506"></trkpt><trkpt lat="52.547129" lon="16.373294"></trkpt><trkpt lat="52.546246" lon="16.372578"></trkpt><trkpt lat="52.540015" lon="16.368891"></trkpt><trkpt lat="52.539184" lon="16.369204"></trkpt><trkpt lat="52.518514" lon="16.375813"></trkpt><trkpt lat="52.510623" lon="16.374273"></trkpt><trkpt lat="52.509791" lon="16.374546"></trkpt><trkpt lat="52.508957" lon="16.375106"></trkpt><trkpt lat="52.493399" lon="16.38776"></trkpt><trkpt lat="52.493158" lon="16.387907"></trkpt><trkpt lat="52.492316" lon="16.388153"></trkpt><trkpt lat="52.47106" lon="16.39448"></trkpt><trkpt lat="52.450582" lon="16.40276"></trkpt><trkpt lat="52.45004" lon="16.403419"></trkpt><trkpt lat="52.448323" lon="16.405168"></trkpt><trkpt lat="52.448124" lon="16.405319"></trkpt><trkpt lat="52.447491" lon="16.405636"></trkpt><trkpt lat="52.443424" lon="16.408409"></trkpt><trkpt lat="52.443012" lon="16.408758"></trkpt><trkpt lat="52.441569" lon="16.409774"></trkpt><trkpt lat="52.441184" lon="16.409879"></trkpt><trkpt lat="52.440972" lon="16.409772"></trkpt><trkpt lat="52.440317" lon="16.409151"></trkpt><trkpt lat="52.439713" lon="16.408294"></trkpt><trkpt lat="52.438821" lon="16.40722"></trkpt><trkpt lat="52.437567" lon="16.40818"></trkpt><trkpt lat="52.434001" lon="16.410023"></trkpt><trkpt lat="52.433254" lon="16.409835"></trkpt><trkpt lat="52.423994" lon="16.408583"></trkpt><trkpt lat="52.423304" lon="16.408761"></trkpt><trkpt lat="52.404311" lon="16.416293"></trkpt><trkpt lat="52.403805" lon="16.416864"></trkpt><trkpt lat="52.403346" lon="16.417468"></trkpt><trkpt lat="52.392688" lon="16.428933"></trkpt><trkpt lat="52.392251" lon="16.428094"></trkpt><trkpt lat="52.391749" lon="16.427617"></trkpt><trkpt lat="52.391106" lon="16.427427"></trkpt><trkpt lat="52.388348" lon="16.427721"></trkpt><trkpt lat="52.388066" lon="16.427396"></trkpt><trkpt lat="52.387293" lon="16.42552"></trkpt><trkpt lat="52.379154" lon="16.410837"></trkpt><trkpt lat="52.378501" lon="16.411673"></trkpt><trkpt lat="52.377542" lon="16.413306"></trkpt><trkpt lat="52.377095" lon="16.414261"></trkpt><trkpt lat="52.375933" lon="16.41717"></trkpt><trkpt lat="52.36834" lon="16.431954"></trkpt><trkpt lat="52.367689" lon="16.431111"></trkpt><trkpt lat="52.367033" lon="16.429627"></trkpt><trkpt lat="52.366959" lon="16.429313"></trkpt><trkpt lat="52.367031" lon="16.429717"></trkpt><trkpt lat="52.36698" lon="16.430079"></trkpt><trkpt lat="52.366765" lon="16.429927"></trkpt><trkpt lat="52.366324" lon="16.429388"></trkpt><trkpt lat="52.362386" lon="16.425406"></trkpt><trkpt lat="52.361686" lon="16.424899"></trkpt><trkpt lat="52.359931" lon="16.423094"></trkpt><trkpt lat="52.359149" lon="16.421897"></trkpt><trkpt lat="52.353757" lon="16.411949"></trkpt><trkpt lat="52.353329" lon="16.410692"></trkpt><trkpt lat="52.351621" lon="16.40643"></trkpt><trkpt lat="52.350802" lon="16.405916"></trkpt><trkpt lat="52.345525" lon="16.401823"></trkpt><trkpt lat="52.345319" lon="16.401838"></trkpt><trkpt lat="52.344869" lon="16.40218"></trkpt><trkpt lat="52.340643" lon="16.406"></trkpt><trkpt lat="52.340641" lon="16.406375"></trkpt><trkpt lat="52.340453" lon="16.40663"></trkpt><trkpt lat="52.339674" lon="16.407076"></trkpt><trkpt lat="52.326482" lon="16.412369"></trkpt><trkpt lat="52.326001" lon="16.412116"></trkpt><trkpt lat="52.325418" lon="16.411966"></trkpt><trkpt lat="52.325222" lon="16.411796"></trkpt><trkpt lat="52.325072" lon="16.411539"></trkpt><trkpt lat="52.325054" lon="16.411186"></trkpt><trkpt lat="52.32517" lon="16.410375"></trkpt><trkpt lat="52.325249" lon="16.410076"></trkpt><trkpt lat="52.325473" lon="16.40957"></trkpt><trkpt lat="52.325549" lon="16.409262"></trkpt><trkpt lat="52.325564" lon="16.408867"></trkpt><trkpt lat="52.326132" lon="16.40425"></trkpt><trkpt lat="52.32622" lon="16.403915"></trkpt><trkpt lat="52.326153" lon="16.403243"></trkpt><trkpt lat="52.325737" lon="16.400359"></trkpt><trkpt lat="52.325135" lon="16.400514"></trkpt><trkpt lat="52.320624" lon="16.40226"></trkpt><trkpt lat="52.317798" lon="16.403007"></trkpt><trkpt lat="52.317566" lon="16.403022"></trkpt><trkpt lat="52.31742" lon="16.403295"></trkpt><trkpt lat="52.317184" lon="16.403374"></trkpt><trkpt lat="52.31612" lon="16.403466"></trkpt><trkpt lat="52.312" lon="16.404451"></trkpt><trkpt lat="52.311257" lon="16.405427"></trkpt><trkpt lat="52.310485" lon="16.406258"></trkpt><trkpt lat="52.309833" lon="16.402447"></trkpt></trkseg></trk></gpx>