<?xml version="1.0" encoding="UTF-8" standalone="no" ?><gpx xmlns="http://www.topografix.com/GPX/1/1" xmlns:gpxx="http://www.garmin.com/xmlschemas/GpxExtensions/v3" ><trk><trkseg><trkpt lat="49.4352527149" lon="21.8216436077"></trkpt><trkpt lat="49.4354644418" lon="21.8219017703"></trkpt><trkpt lat="49.4353027549" lon="21.8215604592"></trkpt><trkpt lat="49.4348708354" lon="21.8216679152"></trkpt><trkpt lat="49.4341558591" lon="21.8223349471"></trkpt><trkpt lat="49.4335494284" lon="21.8233557791"></trkpt><trkpt lat="49.4321649056" lon="21.8266393058"></trkpt><trkpt lat="49.4318292104" lon="21.8280166201"></trkpt><trkpt lat="49.4317220058" lon="21.8300134409"></trkpt><trkpt lat="49.4314754941" lon="21.831354294"></trkpt><trkpt lat="49.4308034331" lon="21.833585389"></trkpt><trkpt lat="49.4298033882" lon="21.8379397038"></trkpt><trkpt lat="49.4298190624" lon="21.8384227529"></trkpt><trkpt lat="49.4298779033" lon="21.8389063049"></trkpt><trkpt lat="49.4302653987" lon="21.8464129698"></trkpt><trkpt lat="49.4291166589" lon="21.8491958454"></trkpt><trkpt lat="49.428526992" lon="21.8513758108"></trkpt><trkpt lat="49.4284211285" lon="21.8520464469"></trkpt><trkpt lat="49.4284275826" lon="21.8524787016"></trkpt><trkpt lat="49.428472342" lon="21.8529392034"></trkpt><trkpt lat="49.4278379995" lon="21.8601499032"></trkpt><trkpt lat="49.4275144581" lon="21.8611748423"></trkpt><trkpt lat="49.4225047622" lon="21.8732786458"></trkpt><trkpt lat="49.4222990703" lon="21.8736877665"></trkpt><trkpt lat="49.4216071442" lon="21.8762243818"></trkpt><trkpt lat="49.4212688506" lon="21.8784215301"></trkpt><trkpt lat="49.4203180075" lon="21.8826997373"></trkpt><trkpt lat="49.4195050467" lon="21.8901935779"></trkpt><trkpt lat="49.4196989201" lon="21.8914128095"></trkpt><trkpt lat="49.4197577611" lon="21.893811794"></trkpt><trkpt lat="49.419712415" lon="21.8948542513"></trkpt><trkpt lat="49.4198261574" lon="21.9015768729"></trkpt><trkpt lat="49.4210737199" lon="21.9041325152"></trkpt><trkpt lat="49.4227263797" lon="21.9083030149"></trkpt><trkpt lat="49.4226723164" lon="21.9089272991"></trkpt><trkpt lat="49.4224121422" lon="21.9105724152"></trkpt><trkpt lat="49.4218767062" lon="21.9122002646"></trkpt><trkpt lat="49.4189640786" lon="21.9181082491"></trkpt><trkpt lat="49.4179159217" lon="21.9189166836"></trkpt><trkpt lat="49.417323824" lon="21.9195176661"></trkpt><trkpt lat="49.4171391707" lon="21.9198381901"></trkpt><trkpt lat="49.4170020428" lon="21.9202221651"></trkpt><trkpt lat="49.4169063214" lon="21.9206415117"></trkpt><trkpt lat="49.4149845187" lon="21.9263241906"></trkpt><trkpt lat="49.4147556927" lon="21.9266725425"></trkpt><trkpt lat="49.4146483205" lon="21.927082669"></trkpt><trkpt lat="49.4139118027" lon="21.9311807491"></trkpt><trkpt lat="49.4141503517" lon="21.9323699735"></trkpt><trkpt lat="49.4148397632" lon="21.9384545647"></trkpt><trkpt lat="49.4144583866" lon="21.9402594399"></trkpt><trkpt lat="49.4134734292" lon="21.9522101898"></trkpt><trkpt lat="49.4136424921" lon="21.9525861181"></trkpt><trkpt lat="49.4138450827" lon="21.9529006071"></trkpt><trkpt lat="49.414074244" lon="21.9531777129"></trkpt><trkpt lat="49.4157626107" lon="21.9548150338"></trkpt><trkpt lat="49.4163524453" lon="21.9551182073"></trkpt><trkpt lat="49.4189919904" lon="21.9569687638"></trkpt><trkpt lat="49.4191261847" lon="21.9573616236"></trkpt><trkpt lat="49.419212183" lon="21.9578101393"></trkpt><trkpt lat="49.4192410167" lon="21.9582784362"></trkpt><trkpt lat="49.4192249235" lon="21.9587466493"></trkpt><trkpt lat="49.4191570301" lon="21.9591922313"></trkpt><trkpt lat="49.4190422818" lon="21.9596026093"></trkpt><trkpt lat="49.4189030584" lon="21.9599814713"></trkpt><trkpt lat="49.4158957154" lon="21.9657213986"></trkpt><trkpt lat="49.4151156954" lon="21.9668741617"></trkpt><trkpt lat="49.4149607979" lon="21.9673535228"></trkpt><trkpt lat="49.4147817604" lon="21.9688329287"></trkpt><trkpt lat="49.4129904639" lon="21.9775914308"></trkpt><trkpt lat="49.4127336424" lon="21.9781955145"></trkpt><trkpt lat="49.41249392" lon="21.978469938"></trkpt><trkpt lat="49.4121825323" lon="21.9786452036"></trkpt><trkpt lat="49.4109107461" lon="21.9789673202"></trkpt><trkpt lat="49.4091647957" lon="21.9791553263"></trkpt><trkpt lat="49.4081306364" lon="21.9787884504"></trkpt><trkpt lat="49.4048163481" lon="21.9784219097"></trkpt><trkpt lat="49.3998952489" lon="21.9800973684"></trkpt><trkpt lat="49.3994168099" lon="21.9806424435"></trkpt><trkpt lat="49.3991117086" lon="21.9807904679"></trkpt><trkpt lat="49.3987690564" lon="21.980871018"></trkpt><trkpt lat="49.3956932332" lon="21.9820832089"></trkpt><trkpt lat="49.3946422264" lon="21.9827180542"></trkpt><trkpt lat="49.3915885314" lon="21.9852535799"></trkpt><trkpt lat="49.390766602" lon="21.9867703691"></trkpt><trkpt lat="49.3876353744" lon="21.9909821916"></trkpt><trkpt lat="49.3871363159" lon="21.9914779812"></trkpt><trkpt lat="49.379819585" lon="21.9973536115"></trkpt><trkpt lat="49.3758261111" lon="21.9995512627"></trkpt><trkpt lat="49.3749658763" lon="21.999472389"></trkpt><trkpt lat="49.3733594008" lon="21.9999569468"></trkpt><trkpt lat="49.3728371244" lon="22.0003084838"></trkpt><trkpt lat="49.3679053802" lon="22.0051694848"></trkpt><trkpt lat="49.3675069045" lon="22.0059474092"></trkpt><trkpt lat="49.3673414458" lon="22.0065159537"></trkpt><trkpt lat="49.3671291322" lon="22.0076536294"></trkpt><trkpt lat="49.3653938267" lon="22.0138250571"></trkpt><trkpt lat="49.3647667766" lon="22.0150808338"></trkpt><trkpt lat="49.3606118672" lon="22.0218513161"></trkpt><trkpt lat="49.3600387964" lon="22.0224513765"></trkpt><trkpt lat="49.358931547" lon="22.0241675712"></trkpt><trkpt lat="49.3585577141" lon="22.025012048"></trkpt><trkpt lat="49.3576339446" lon="22.0266835671"></trkpt><trkpt lat="49.3573855888" lon="22.026863778"></trkpt><trkpt lat="49.355844995" lon="22.0275517646"></trkpt><trkpt lat="49.3539739866" lon="22.0278675109"></trkpt><trkpt lat="49.3528064713" lon="22.0284499694"></trkpt><trkpt lat="49.3481098395" lon="22.031620089"></trkpt><trkpt lat="49.3478385173" lon="22.0317106973"></trkpt><trkpt lat="49.3475540355" lon="22.03173819"></trkpt><trkpt lat="49.3453842122" lon="22.0322775654"></trkpt><trkpt lat="49.3451681267" lon="22.0327062998"></trkpt><trkpt lat="49.3450464215" lon="22.0332565717"></trkpt><trkpt lat="49.3447818886" lon="22.0349538233"></trkpt><trkpt lat="49.3443895318" lon="22.0363678504"></trkpt><trkpt lat="49.3436808418" lon="22.0381959435"></trkpt><trkpt lat="49.3433557916" lon="22.0385564491"></trkpt><trkpt lat="49.3431029934" lon="22.0387438685"></trkpt><trkpt lat="49.339699354" lon="22.0419504493"></trkpt><trkpt lat="49.3395536765" lon="22.0423837937"></trkpt><trkpt lat="49.3394850288" lon="22.0428992808"></trkpt><trkpt lat="49.3395416904" lon="22.0434470382"></trkpt><trkpt lat="49.3400777131" lon="22.0453669131"></trkpt><trkpt lat="49.3406171724" lon="22.0481317677"></trkpt><trkpt lat="49.3405011669" lon="22.0486884937"></trkpt><trkpt lat="49.3395680934" lon="22.0554882288"></trkpt><trkpt lat="49.3395526707" lon="22.0563000161"></trkpt><trkpt lat="49.3397720251" lon="22.0586325321"></trkpt><trkpt lat="49.3398085702" lon="22.0606239047"></trkpt><trkpt lat="49.3396478053" lon="22.06111609"></trkpt><trkpt lat="49.3392795883" lon="22.0619014744"></trkpt><trkpt lat="49.3372289557" lon="22.0650186203"></trkpt><trkpt lat="49.3365105428" lon="22.0658146497"></trkpt><trkpt lat="49.3363099638" lon="22.066288311"></trkpt><trkpt lat="49.3358605262" lon="22.0680474211"></trkpt><trkpt lat="49.3352088332" lon="22.0692139305"></trkpt><trkpt lat="49.3349966872" lon="22.0697270706"></trkpt><trkpt lat="49.3358275853" lon="22.0707396045"></trkpt><trkpt lat="49.3371068314" lon="22.0718955528"></trkpt><trkpt lat="49.3394363299" lon="22.0733600389"></trkpt><trkpt lat="49.3442202173" lon="22.0775115117"></trkpt><trkpt lat="49.3458379246" lon="22.0801000111"></trkpt><trkpt lat="49.3465254921" lon="22.0816540159"></trkpt><trkpt lat="49.3506137654" lon="22.0885256678"></trkpt><trkpt lat="49.3514463399" lon="22.0891277399"></trkpt><trkpt lat="49.3524617236" lon="22.0894231182"></trkpt><trkpt lat="49.3562263716" lon="22.0895938575"></trkpt><trkpt lat="49.356599953" lon="22.0897034928"></trkpt><trkpt lat="49.3569405936" lon="22.0899689477"></trkpt><trkpt lat="49.3572081439" lon="22.0903855283"></trkpt><trkpt lat="49.3573736027" lon="22.0909389015"></trkpt><trkpt lat="49.3574173562" lon="22.0913765207"></trkpt><trkpt lat="49.3574435078" lon="22.0923353266"></trkpt><trkpt lat="49.3578800373" lon="22.0966701955"></trkpt><trkpt lat="49.3588535115" lon="22.0989333931"></trkpt><trkpt lat="49.360289583" lon="22.1039490402"></trkpt><trkpt lat="49.360630475" lon="22.10678556"></trkpt><trkpt lat="49.3607311416" lon="22.1071754862"></trkpt><trkpt lat="49.3609817605" lon="22.1076349821"></trkpt><trkpt lat="49.3613170367" lon="22.1079292707"></trkpt><trkpt lat="49.3630641606" lon="22.1089382842"></trkpt><trkpt lat="49.3643587455" lon="22.1094463952"></trkpt><trkpt lat="49.3647084385" lon="22.1092110313"></trkpt><trkpt lat="49.3655255064" lon="22.1082896926"></trkpt><trkpt lat="49.3658383191" lon="22.1081706695"></trkpt><trkpt lat="49.3673552759" lon="22.1090454888"></trkpt><trkpt lat="49.3681516405" lon="22.1098391712"></trkpt><trkpt lat="49.3714567926" lon="22.1115509234"></trkpt><trkpt lat="49.3722825777" lon="22.1117263567"></trkpt><trkpt lat="49.3796148989" lon="22.1145173628"></trkpt><trkpt lat="49.3805408478" lon="22.115295874"></trkpt><trkpt lat="49.3812900223" lon="22.1154211834"></trkpt><trkpt lat="49.3818633445" lon="22.1156203374"></trkpt><trkpt lat="49.3820984568" lon="22.1159135364"></trkpt><trkpt lat="49.3822660111" lon="22.116348641"></trkpt><trkpt lat="49.3825583719" lon="22.1158996224"></trkpt><trkpt lat="49.3827620521" lon="22.1155221015"></trkpt><trkpt lat="49.3831548281" lon="22.1150023397"></trkpt><trkpt lat="49.383370243" lon="22.1145849209"></trkpt><trkpt lat="49.38365045" lon="22.1138408594"></trkpt><trkpt lat="49.3841230217" lon="22.1130174212"></trkpt><trkpt lat="49.3894628808" lon="22.1016762871"></trkpt><trkpt lat="49.3895625416" lon="22.1010301262"></trkpt><trkpt lat="49.3897347897" lon="22.1006523538"></trkpt><trkpt lat="49.3900745083" lon="22.1001532115"></trkpt><trkpt lat="49.3902874086" lon="22.0996309351"></trkpt><trkpt lat="49.3909276184" lon="22.0986359194"></trkpt><trkpt lat="49.391045887" lon="22.0980193466"></trkpt><trkpt lat="49.391060723" lon="22.0969467983"></trkpt><trkpt lat="49.3909960147" lon="22.0959471725"></trkpt><trkpt lat="49.3909845315" lon="22.0929658972"></trkpt><trkpt lat="49.3910635728" lon="22.0919930935"></trkpt><trkpt lat="49.3910191488" lon="22.0907150209"></trkpt><trkpt lat="49.3908530194" lon="22.0898076799"></trkpt><trkpt lat="49.3907909933" lon="22.08906563"></trkpt><trkpt lat="49.3908178993" lon="22.0879152976"></trkpt><trkpt lat="49.3910108507" lon="22.0870310068"></trkpt><trkpt lat="49.3914762978" lon="22.0859409403"></trkpt><trkpt lat="49.391924981" lon="22.0853270497"></trkpt><trkpt lat="49.3925321661" lon="22.08417546"></trkpt><trkpt lat="49.3926957808" lon="22.083182456"></trkpt><trkpt lat="49.3929895665" lon="22.0823314413"></trkpt><trkpt lat="49.3931085896" lon="22.0817602146"></trkpt><trkpt lat="49.3934059795" lon="22.0808023307"></trkpt><trkpt lat="49.3944217823" lon="22.07880551"></trkpt><trkpt lat="49.3966718204" lon="22.0781231392"></trkpt></trkseg><trkseg><trkpt lat="49.4229145534" lon="22.0565837435"></trkpt><trkpt lat="49.4232048187" lon="22.0567773655"></trkpt><trkpt lat="49.4234608021" lon="22.0570229553"></trkpt><trkpt lat="49.4238318689" lon="22.0574785955"></trkpt><trkpt lat="49.4252869673" lon="22.058773851"></trkpt><trkpt lat="49.4258565176" lon="22.0594587363"></trkpt><trkpt lat="49.4261568412" lon="22.0599113591"></trkpt><trkpt lat="49.4267895911" lon="22.0612044353"></trkpt><trkpt lat="49.4277665019" lon="22.0628186222"></trkpt><trkpt lat="49.4288151618" lon="22.0648999326"></trkpt><trkpt lat="49.4292070996" lon="22.0653797127"></trkpt><trkpt lat="49.4296489935" lon="22.0656907652"></trkpt><trkpt lat="49.4300679211" lon="22.0658616722"></trkpt><trkpt lat="49.4307340309" lon="22.0659410488"></trkpt><trkpt lat="49.4313734025" lon="22.0662148856"></trkpt><trkpt lat="49.4342143647" lon="22.0669415127"></trkpt><trkpt lat="49.4356174115" lon="22.0670719352"></trkpt><trkpt lat="49.4359323196" lon="22.0659240335"></trkpt><trkpt lat="49.4363653287" lon="22.0646860264"></trkpt><trkpt lat="49.4366252515" lon="22.0643605571"></trkpt><trkpt lat="49.4369297661" lon="22.0641247742"></trkpt><trkpt lat="49.4373259787" lon="22.064064173"></trkpt><trkpt lat="49.4409651496" lon="22.0641155541"></trkpt><trkpt lat="49.4412439317" lon="22.0639215969"></trkpt><trkpt lat="49.4414967299" lon="22.0636404678"></trkpt><trkpt lat="49.448707765" lon="22.0571429841"></trkpt><trkpt lat="49.4490898959" lon="22.0569051895"></trkpt><trkpt lat="49.4493105914" lon="22.0566493738"></trkpt><trkpt lat="49.4498173613" lon="22.0558038913"></trkpt><trkpt lat="49.4520605262" lon="22.052679956"></trkpt><trkpt lat="49.4523425773" lon="22.0525220409"></trkpt><trkpt lat="49.4526583236" lon="22.052442329"></trkpt><trkpt lat="49.4529961143" lon="22.052464122"></trkpt><trkpt lat="49.4535157084" lon="22.0525694825"></trkpt><trkpt lat="49.4558781479" lon="22.0526819676"></trkpt><trkpt lat="49.4568325952" lon="22.0519549213"></trkpt><trkpt lat="49.457546398" lon="22.0515499916"></trkpt><trkpt lat="49.4578367472" lon="22.0517608803"></trkpt><trkpt lat="49.4580519944" lon="22.0521993376"></trkpt><trkpt lat="49.4584803097" lon="22.0535165537"></trkpt><trkpt lat="49.458640404" lon="22.0538511593"></trkpt><trkpt lat="49.4589541387" lon="22.0542180352"></trkpt><trkpt lat="49.4592257962" lon="22.05434829"></trkpt><trkpt lat="49.4595372677" lon="22.05438626"></trkpt><trkpt lat="49.4599967636" lon="22.0542539936"></trkpt><trkpt lat="49.4602827542" lon="22.0540431049"></trkpt><trkpt lat="49.4625371508" lon="22.0527567342"></trkpt><trkpt lat="49.4634372834" lon="22.0526713226"></trkpt><trkpt lat="49.4730286952" lon="22.0549874939"></trkpt><trkpt lat="49.4740703981" lon="22.0558360778"></trkpt><trkpt lat="49.4757644646" lon="22.0565746073"></trkpt><trkpt lat="49.476650767" lon="22.0571374521"></trkpt><trkpt lat="49.4779844116" lon="22.0586206298"></trkpt><trkpt lat="49.4784716517" lon="22.0597505104"></trkpt><trkpt lat="49.4789877255" lon="22.0607435144"></trkpt><trkpt lat="49.4798095711" lon="22.0615302399"></trkpt><trkpt lat="49.4801422488" lon="22.0616162382"></trkpt><trkpt lat="49.480687324" lon="22.0615638513"></trkpt><trkpt lat="49.4809740689" lon="22.061337037"></trkpt><trkpt lat="49.4814509153" lon="22.0604771376"></trkpt><trkpt lat="49.4910631981" lon="22.0459779538"></trkpt><trkpt lat="49.4914351869" lon="22.0457115769"></trkpt><trkpt lat="49.4980671164" lon="22.0397766866"></trkpt><trkpt lat="49.4996116497" lon="22.0379125513"></trkpt><trkpt lat="49.5025435556" lon="22.0336530358"></trkpt><trkpt lat="49.5031686779" lon="22.0328960661"></trkpt><trkpt lat="49.5035386551" lon="22.0327576809"></trkpt><trkpt lat="49.503832357" lon="22.032763632"></trkpt><trkpt lat="49.5052317157" lon="22.033034116"></trkpt><trkpt lat="49.5073745493" lon="22.0322544314"></trkpt><trkpt lat="49.508175943" lon="22.0308233891"></trkpt><trkpt lat="49.5084870793" lon="22.030474199"></trkpt><trkpt lat="49.5087858941" lon="22.0302692614"></trkpt><trkpt lat="49.5090795122" lon="22.030286612"></trkpt><trkpt lat="49.5093674306" lon="22.0304179564"></trkpt><trkpt lat="49.5122549962" lon="22.0311782788"></trkpt><trkpt lat="49.5127087086" lon="22.0309757721"></trkpt><trkpt lat="49.5129139815" lon="22.0306731854"></trkpt><trkpt lat="49.5130901691" lon="22.0302219037"></trkpt><trkpt lat="49.5154842082" lon="22.0225679688"></trkpt><trkpt lat="49.5154443942" lon="22.0221438445"></trkpt><trkpt lat="49.5152106229" lon="22.0208076853"></trkpt><trkpt lat="49.5124212094" lon="22.0111032855"></trkpt><trkpt lat="49.5121805649" lon="22.0106582064"></trkpt><trkpt lat="49.5120290201" lon="22.0101816114"></trkpt><trkpt lat="49.5119671617" lon="22.0096483547"></trkpt><trkpt lat="49.5119993482" lon="22.0091006812"></trkpt><trkpt lat="49.5120775513" lon="22.0086970087"></trkpt><trkpt lat="49.5143791381" lon="21.9999621436"></trkpt><trkpt lat="49.5146432519" lon="21.9998504128"></trkpt><trkpt lat="49.5149234589" lon="21.9998147059"></trkpt><trkpt lat="49.5224893" lon="21.997187566"></trkpt><trkpt lat="49.5228609536" lon="21.9967237953"></trkpt><trkpt lat="49.5239500981" lon="21.995061161"></trkpt><trkpt lat="49.5243897289" lon="21.994209392"></trkpt><trkpt lat="49.526679581" lon="21.9888462313"></trkpt><trkpt lat="49.5272074733" lon="21.9873126782"></trkpt><trkpt lat="49.5272421744" lon="21.9868301321"></trkpt><trkpt lat="49.527166402" lon="21.9839532953"></trkpt><trkpt lat="49.5272358879" lon="21.9835052826"></trkpt><trkpt lat="49.527378045" lon="21.9830833375"></trkpt><trkpt lat="49.5290836785" lon="21.976378737"></trkpt><trkpt lat="49.529398419" lon="21.9754762575"></trkpt><trkpt lat="49.5296792127" lon="21.9750495348"></trkpt><trkpt lat="49.5299193542" lon="21.9748348743"></trkpt><trkpt lat="49.530668864" lon="21.9744439423"></trkpt><trkpt lat="49.5318119042" lon="21.9735624176"></trkpt><trkpt lat="49.5330624841" lon="21.9730854034"></trkpt><trkpt lat="49.5397081599" lon="21.9695049897"></trkpt><trkpt lat="49.5405470207" lon="21.9683759473"></trkpt><trkpt lat="49.5407258905" lon="21.9679381605"></trkpt><trkpt lat="49.5408121403" lon="21.967455782"></trkpt><trkpt lat="49.5440312941" lon="21.9544769917"></trkpt><trkpt lat="49.5444058813" lon="21.9534241408"></trkpt><trkpt lat="49.5445986651" lon="21.9527109247"></trkpt><trkpt lat="49.5449930336" lon="21.9502633251"></trkpt><trkpt lat="49.5451105479" lon="21.9498328306"></trkpt><trkpt lat="49.5457713772" lon="21.9481328968"></trkpt><trkpt lat="49.54653061" lon="21.9468585122"></trkpt><trkpt lat="49.5498188306" lon="21.9422402512"></trkpt><trkpt lat="49.5543487463" lon="21.9370788429"></trkpt><trkpt lat="49.5552660618" lon="21.9366286509"></trkpt><trkpt lat="49.557242766" lon="21.936288178"></trkpt><trkpt lat="49.5583315752" lon="21.9363212865"></trkpt><trkpt lat="49.5586224273" lon="21.936499821"></trkpt><trkpt lat="49.5599296689" lon="21.9378646463"></trkpt><trkpt lat="49.5626205951" lon="21.9400732778"></trkpt><trkpt lat="49.5629283786" lon="21.9400780555"></trkpt><trkpt lat="49.5642788708" lon="21.9395323936"></trkpt><trkpt lat="49.5645737462" lon="21.9391451497"></trkpt><trkpt lat="49.5647327509" lon="21.9386272319"></trkpt><trkpt lat="49.5647900831" lon="21.9382067118"></trkpt><trkpt lat="49.5651557017" lon="21.9325410482"></trkpt><trkpt lat="49.5651267841" lon="21.9320489466"></trkpt><trkpt lat="49.5636739489" lon="21.9212137442"></trkpt><trkpt lat="49.562536357" lon="21.9193520397"></trkpt><trkpt lat="49.5590748824" lon="21.9124282524"></trkpt><trkpt lat="49.559297841" lon="21.9119299483"></trkpt><trkpt lat="49.5611975994" lon="21.9067611638"></trkpt><trkpt lat="49.56161879" lon="21.9044748321"></trkpt><trkpt lat="49.5641481131" lon="21.8962522689"></trkpt><trkpt lat="49.5646504406" lon="21.8953321874"></trkpt><trkpt lat="49.5647945255" lon="21.8947857711"></trkpt><trkpt lat="49.5647446532" lon="21.8942079227"></trkpt><trkpt lat="49.5643826388" lon="21.8923822604"></trkpt><trkpt lat="49.5643727481" lon="21.891813213"></trkpt><trkpt lat="49.5644822996" lon="21.8912931159"></trkpt><trkpt lat="49.5651836973" lon="21.8899064139"></trkpt><trkpt lat="49.5661888551" lon="21.8882956635"></trkpt><trkpt lat="49.5664692298" lon="21.8880696874"></trkpt><trkpt lat="49.5667740796" lon="21.887900373"></trkpt><trkpt lat="49.567723833" lon="21.8871904258"></trkpt><trkpt lat="49.5685421582" lon="21.8859042227"></trkpt><trkpt lat="49.5691341721" lon="21.8845978193"></trkpt><trkpt lat="49.5699065644" lon="21.882149633"></trkpt><trkpt lat="49.5706142485" lon="21.8806872424"></trkpt><trkpt lat="49.5714392792" lon="21.8795017898"></trkpt><trkpt lat="49.5718164649" lon="21.878720345"></trkpt><trkpt lat="49.5719264355" lon="21.8781834003"></trkpt><trkpt lat="49.5719895512" lon="21.8765839655"></trkpt><trkpt lat="49.5721300319" lon="21.8761193566"></trkpt><trkpt lat="49.5727151725" lon="21.874690745"></trkpt><trkpt lat="49.5742099173" lon="21.8723995518"></trkpt><trkpt lat="49.5748689026" lon="21.8729566131"></trkpt><trkpt lat="49.5751805417" lon="21.873162305"></trkpt><trkpt lat="49.5753751695" lon="21.8728333153"></trkpt><trkpt lat="49.5756387804" lon="21.8715622835"></trkpt><trkpt lat="49.5759482402" lon="21.8669332936"></trkpt><trkpt lat="49.5755099505" lon="21.8666967563"></trkpt><trkpt lat="49.5745948143" lon="21.8670364749"></trkpt><trkpt lat="49.5738533512" lon="21.8668964133"></trkpt><trkpt lat="49.5735661872" lon="21.8672671448"></trkpt><trkpt lat="49.5733579807" lon="21.8676504493"></trkpt><trkpt lat="49.5731273107" lon="21.8679137249"></trkpt><trkpt lat="49.5728478581" lon="21.868022019"></trkpt><trkpt lat="49.5725342911" lon="21.8680584803"></trkpt><trkpt lat="49.572223071" lon="21.8678959552"></trkpt><trkpt lat="49.5719816722" lon="21.8676782772"></trkpt><trkpt lat="49.5683057047" lon="21.8650441803"></trkpt><trkpt lat="49.5671778359" lon="21.8638505135"></trkpt><trkpt lat="49.5581211895" lon="21.8559887912"></trkpt><trkpt lat="49.557385426" lon="21.8551027402"></trkpt><trkpt lat="49.5564760733" lon="21.8545291666"></trkpt><trkpt lat="49.5550989266" lon="21.8541794736"></trkpt><trkpt lat="49.5543218404" lon="21.85376985"></trkpt><trkpt lat="49.5533643756" lon="21.8529598229"></trkpt><trkpt lat="49.5516284835" lon="21.8520433456"></trkpt><trkpt lat="49.55105667" lon="21.8520189542"></trkpt><trkpt lat="49.5505249221" lon="21.8523999117"></trkpt><trkpt lat="49.550765818" lon="21.85219598"></trkpt><trkpt lat="49.5509852562" lon="21.8519346323"></trkpt><trkpt lat="49.5513278246" lon="21.8518778868"></trkpt><trkpt lat="49.5515719056" lon="21.8531129602"></trkpt><trkpt lat="49.5505268499" lon="21.8525644485"></trkpt><trkpt lat="49.5503269415" lon="21.8521597702"></trkpt><trkpt lat="49.5500727184" lon="21.8517686706"></trkpt><trkpt lat="49.5497029927" lon="21.8515395094"></trkpt><trkpt lat="49.5491611864" lon="21.8508828711"></trkpt><trkpt lat="49.54881032" lon="21.8503307551"></trkpt><trkpt lat="49.5480420347" lon="21.8494071532"></trkpt><trkpt lat="49.5470778644" lon="21.8488918338"></trkpt><trkpt lat="49.5463185478" lon="21.8486281391"></trkpt><trkpt lat="49.5452374499" lon="21.8485807814"></trkpt><trkpt lat="49.5445108227" lon="21.8484252132"></trkpt><trkpt lat="49.5442596171" lon="21.8480771128"></trkpt><trkpt lat="49.5436030626" lon="21.845913073"></trkpt><trkpt lat="49.541608505" lon="21.8407859467"></trkpt><trkpt lat="49.5413436368" lon="21.840677904"></trkpt><trkpt lat="49.5395769831" lon="21.8403132912"></trkpt><trkpt lat="49.5392101072" lon="21.8401839584"></trkpt><trkpt lat="49.5389156509" lon="21.8398436531"></trkpt><trkpt lat="49.5387134794" lon="21.8393054511"></trkpt><trkpt lat="49.5376172103" lon="21.8373816367"></trkpt><trkpt lat="49.5370562933" lon="21.8369261641"></trkpt><trkpt lat="49.5336762909" lon="21.8347891141"></trkpt><trkpt lat="49.5329040661" lon="21.8341602199"></trkpt><trkpt lat="49.5311999414" lon="21.8322980125"></trkpt><trkpt lat="49.5303796045" lon="21.8307151739"></trkpt><trkpt lat="49.5295624528" lon="21.8295632489"></trkpt><trkpt lat="49.5290873665" lon="21.8291601632"></trkpt><trkpt lat="49.5288159605" lon="21.8287043553"></trkpt><trkpt lat="49.5286745578" lon="21.8281283509"></trkpt><trkpt lat="49.5283799339" lon="21.8263663072"></trkpt><trkpt lat="49.5281973761" lon="21.8260186259"></trkpt><trkpt lat="49.5279756747" lon="21.8257765565"></trkpt><trkpt lat="49.52769069" lon="21.8256121874"></trkpt><trkpt lat="49.524967242" lon="21.8229070958"></trkpt><trkpt lat="49.5243174769" lon="21.8220734317"></trkpt><trkpt lat="49.5239318255" lon="21.8219128344"></trkpt><trkpt lat="49.5221756492" lon="21.8221344519"></trkpt><trkpt lat="49.5141738653" lon="21.819685176"></trkpt><trkpt lat="49.513459811" lon="21.8188740592"></trkpt><trkpt lat="49.5120068081" lon="21.8179036025"></trkpt><trkpt lat="49.511363497" lon="21.8170180544"></trkpt><trkpt lat="49.5105673838" lon="21.8157050293"></trkpt><trkpt lat="49.5102224685" lon="21.8154304381"></trkpt><trkpt lat="49.5098272618" lon="21.8153834995"></trkpt><trkpt lat="49.5085148234" lon="21.8159072846"></trkpt><trkpt lat="49.5056091528" lon="21.8165937625"></trkpt><trkpt lat="49.5029950049" lon="21.8148871232"></trkpt><trkpt lat="49.5017158426" lon="21.8135496229"></trkpt><trkpt lat="49.4952142518" lon="21.8082923256"></trkpt><trkpt lat="49.4943416119" lon="21.8082331493"></trkpt><trkpt lat="49.4917602371" lon="21.807669634"></trkpt><trkpt lat="49.4917946868" lon="21.8072257284"></trkpt><trkpt lat="49.4914779346" lon="21.8070887681"></trkpt><trkpt lat="49.4911843166" lon="21.8073160853"></trkpt><trkpt lat="49.4893147331" lon="21.8083874602"></trkpt><trkpt lat="49.4887598511" lon="21.8079525232"></trkpt><trkpt lat="49.4883593637" lon="21.8074543867"></trkpt><trkpt lat="49.4872751646" lon="21.8063800782"></trkpt><trkpt lat="49.486495899" lon="21.8062452134"></trkpt><trkpt lat="49.4830243662" lon="21.8063242547"></trkpt><trkpt lat="49.4813860394" lon="21.8069099821"></trkpt><trkpt lat="49.4775711" lon="21.8076193426"></trkpt><trkpt lat="49.4770580437" lon="21.807445921"></trkpt><trkpt lat="49.4707882963" lon="21.8042752985"></trkpt><trkpt lat="49.4691106584" lon="21.8030667119"></trkpt><trkpt lat="49.4681983721" lon="21.8021887075"></trkpt><trkpt lat="49.4594970345" lon="21.7920206208"></trkpt><trkpt lat="49.4591377024" lon="21.7914773058"></trkpt><trkpt lat="49.458841905" lon="21.7911914829"></trkpt><trkpt lat="49.4585114904" lon="21.7909944244"></trkpt><trkpt lat="49.4572456554" lon="21.7904307414"></trkpt><trkpt lat="49.4501040224" lon="21.7885529436"></trkpt><trkpt lat="49.449568335" lon="21.789828334"></trkpt><trkpt lat="49.4446919113" lon="21.7980283499"></trkpt><trkpt lat="49.4443611614" lon="21.7979274318"></trkpt><trkpt lat="49.4439734146" lon="21.7981401645"></trkpt><trkpt lat="49.4437580835" lon="21.7984625325"></trkpt><trkpt lat="49.4434570055" lon="21.7992852163"></trkpt><trkpt lat="49.4423424639" lon="21.8014411256"></trkpt><trkpt lat="49.4420659449" lon="21.801840188"></trkpt><trkpt lat="49.4415334426" lon="21.8024382368"></trkpt><trkpt lat="49.4412888587" lon="21.8023181241"></trkpt></trkseg></trk></gpx>