<?xml version="1.0" encoding="UTF-8" standalone="no" ?><gpx xmlns="http://www.topografix.com/GPX/1/1" xmlns:gpxx="http://www.garmin.com/xmlschemas/GpxExtensions/v3" ><trk><trkseg><trkpt lat="50.784659" lon="16.284263"></trkpt><trkpt lat="50.784632" lon="16.283655"></trkpt><trkpt lat="50.784874" lon="16.283347"></trkpt><trkpt lat="50.785476" lon="16.282417"></trkpt><trkpt lat="50.786271" lon="16.281445"></trkpt><trkpt lat="50.78656" lon="16.28191"></trkpt><trkpt lat="50.786804" lon="16.28238"></trkpt><trkpt lat="50.787116" lon="16.282854"></trkpt><trkpt lat="50.787387" lon="16.283072"></trkpt><trkpt lat="50.787578" lon="16.282727"></trkpt><trkpt lat="50.787837" lon="16.282598"></trkpt><trkpt lat="50.788086" lon="16.282925"></trkpt><trkpt lat="50.788658" lon="16.283551"></trkpt><trkpt lat="50.78841" lon="16.283361"></trkpt><trkpt lat="50.788146" lon="16.283024"></trkpt><trkpt lat="50.78748" lon="16.281974"></trkpt><trkpt lat="50.786811" lon="16.280584"></trkpt><trkpt lat="50.786935" lon="16.280194"></trkpt><trkpt lat="50.787118" lon="16.279763"></trkpt><trkpt lat="50.787352" lon="16.279447"></trkpt><trkpt lat="50.787802" lon="16.279068"></trkpt><trkpt lat="50.787892" lon="16.279514"></trkpt><trkpt lat="50.788147" lon="16.28047"></trkpt><trkpt lat="50.788389" lon="16.280264"></trkpt><trkpt lat="50.788727" lon="16.28013"></trkpt><trkpt lat="50.789079" lon="16.279924"></trkpt><trkpt lat="50.790784" lon="16.27858"></trkpt><trkpt lat="50.790581" lon="16.278981"></trkpt><trkpt lat="50.790348" lon="16.278703"></trkpt><trkpt lat="50.790407" lon="16.278225"></trkpt><trkpt lat="50.790664" lon="16.278065"></trkpt><trkpt lat="50.790943" lon="16.277751"></trkpt><trkpt lat="50.791203" lon="16.277623"></trkpt><trkpt lat="50.79153" lon="16.277218"></trkpt><trkpt lat="50.791698" lon="16.276837"></trkpt><trkpt lat="50.791943" lon="16.276417"></trkpt><trkpt lat="50.792142" lon="16.275828"></trkpt><trkpt lat="50.792217" lon="16.275402"></trkpt><trkpt lat="50.792278" lon="16.274786"></trkpt><trkpt lat="50.792378" lon="16.274388"></trkpt><trkpt lat="50.792466" lon="16.273779"></trkpt><trkpt lat="50.792591" lon="16.273175"></trkpt><trkpt lat="50.792757" lon="16.272743"></trkpt><trkpt lat="50.792998" lon="16.27227"></trkpt><trkpt lat="50.793154" lon="16.271852"></trkpt><trkpt lat="50.793419" lon="16.271678"></trkpt><trkpt lat="50.793524" lon="16.271222"></trkpt><trkpt lat="50.793692" lon="16.27088"></trkpt><trkpt lat="50.79391" lon="16.270607"></trkpt><trkpt lat="50.794115" lon="16.270256"></trkpt><trkpt lat="50.794421" lon="16.2699"></trkpt><trkpt lat="50.794636" lon="16.269591"></trkpt><trkpt lat="50.794933" lon="16.269247"></trkpt><trkpt lat="50.795185" lon="16.269008"></trkpt><trkpt lat="50.795442" lon="16.268616"></trkpt><trkpt lat="50.796305" lon="16.267563"></trkpt><trkpt lat="50.79646" lon="16.267928"></trkpt><trkpt lat="50.796535" lon="16.268446"></trkpt><trkpt lat="50.796641" lon="16.268863"></trkpt><trkpt lat="50.796715" lon="16.26934"></trkpt><trkpt lat="50.796751" lon="16.269795"></trkpt><trkpt lat="50.796838" lon="16.270268"></trkpt><trkpt lat="50.796742" lon="16.269732"></trkpt><trkpt lat="50.796728" lon="16.269219"></trkpt><trkpt lat="50.796838" lon="16.268758"></trkpt><trkpt lat="50.796818" lon="16.268197"></trkpt><trkpt lat="50.796926" lon="16.267632"></trkpt><trkpt lat="50.796947" lon="16.267182"></trkpt><trkpt lat="50.797036" lon="16.266615"></trkpt><trkpt lat="50.796911" lon="16.266148"></trkpt><trkpt lat="50.796601" lon="16.265238"></trkpt><trkpt lat="50.796342" lon="16.264863"></trkpt><trkpt lat="50.796176" lon="16.264519"></trkpt><trkpt lat="50.795844" lon="16.263991"></trkpt><trkpt lat="50.795971" lon="16.263612"></trkpt><trkpt lat="50.79613" lon="16.263259"></trkpt><trkpt lat="50.79628" lon="16.262802"></trkpt><trkpt lat="50.797268" lon="16.258927"></trkpt><trkpt lat="50.797025" lon="16.258532"></trkpt><trkpt lat="50.796919" lon="16.258086"></trkpt><trkpt lat="50.797021" lon="16.257677"></trkpt><trkpt lat="50.797171" lon="16.257319"></trkpt><trkpt lat="50.797296" lon="16.256866"></trkpt><trkpt lat="50.797412" lon="16.256168"></trkpt><trkpt lat="50.797502" lon="16.255262"></trkpt><trkpt lat="50.799882" lon="16.249935"></trkpt></trkseg></trk></gpx>