<?xml version="1.0" encoding="UTF-8" standalone="no" ?><gpx xmlns="http://www.topografix.com/GPX/1/1" xmlns:gpxx="http://www.garmin.com/xmlschemas/GpxExtensions/v3" ><trk><trkseg><trkpt lat="51.845506" lon="16.565484"></trkpt><trkpt lat="51.845403" lon="16.565116"></trkpt><trkpt lat="51.845139" lon="16.564993"></trkpt><trkpt lat="51.844926" lon="16.565038"></trkpt><trkpt lat="51.844791" lon="16.565301"></trkpt><trkpt lat="51.844583" lon="16.565295"></trkpt><trkpt lat="51.842959" lon="16.564974"></trkpt><trkpt lat="51.84303" lon="16.564472"></trkpt><trkpt lat="51.843484" lon="16.562129"></trkpt><trkpt lat="51.843701" lon="16.561416"></trkpt><trkpt lat="51.846577" lon="16.550004"></trkpt><trkpt lat="51.846647" lon="16.549513"></trkpt><trkpt lat="51.855591" lon="16.502149"></trkpt><trkpt lat="51.856006" lon="16.502174"></trkpt><trkpt lat="51.857307" lon="16.501913"></trkpt><trkpt lat="51.85762" lon="16.50175"></trkpt><trkpt lat="51.861535" lon="16.499157"></trkpt><trkpt lat="51.861526" lon="16.498699"></trkpt><trkpt lat="51.86184" lon="16.485424"></trkpt><trkpt lat="51.862159" lon="16.48456"></trkpt><trkpt lat="51.862546" lon="16.483773"></trkpt><trkpt lat="51.862797" lon="16.483365"></trkpt><trkpt lat="51.862925" lon="16.483013"></trkpt><trkpt lat="51.863164" lon="16.482647"></trkpt><trkpt lat="51.885664" lon="16.443126"></trkpt><trkpt lat="51.885895" lon="16.442786"></trkpt><trkpt lat="51.88614" lon="16.442487"></trkpt><trkpt lat="51.886155" lon="16.442039"></trkpt><trkpt lat="51.886358" lon="16.441792"></trkpt><trkpt lat="51.886725" lon="16.44166"></trkpt><trkpt lat="51.890713" lon="16.439724"></trkpt><trkpt lat="51.893673" lon="16.437888"></trkpt><trkpt lat="51.894047" lon="16.437715"></trkpt><trkpt lat="51.894401" lon="16.437636"></trkpt><trkpt lat="51.900789" lon="16.437029"></trkpt><trkpt lat="51.901271" lon="16.437186"></trkpt><trkpt lat="51.902326" lon="16.437755"></trkpt><trkpt lat="51.902466" lon="16.438034"></trkpt><trkpt lat="51.902961" lon="16.438838"></trkpt><trkpt lat="51.903598" lon="16.439114"></trkpt><trkpt lat="51.914758" lon="16.445743"></trkpt><trkpt lat="51.914875" lon="16.446206"></trkpt><trkpt lat="51.915048" lon="16.446479"></trkpt><trkpt lat="51.915381" lon="16.446767"></trkpt><trkpt lat="51.915618" lon="16.447025"></trkpt><trkpt lat="51.91583" lon="16.447543"></trkpt><trkpt lat="51.916056" lon="16.447696"></trkpt><trkpt lat="51.916294" lon="16.447646"></trkpt><trkpt lat="51.916528" lon="16.447486"></trkpt><trkpt lat="51.916859" lon="16.447091"></trkpt><trkpt lat="51.919582" lon="16.442986"></trkpt><trkpt lat="51.91974" lon="16.442441"></trkpt><trkpt lat="51.923947" lon="16.430632"></trkpt><trkpt lat="51.924546" lon="16.430719"></trkpt><trkpt lat="51.928659" lon="16.42945"></trkpt><trkpt lat="51.92902" lon="16.428819"></trkpt><trkpt lat="51.929747" lon="16.427904"></trkpt><trkpt lat="51.930266" lon="16.427613"></trkpt><trkpt lat="51.941903" lon="16.419292"></trkpt><trkpt lat="51.942284" lon="16.418411"></trkpt><trkpt lat="51.942634" lon="16.417793"></trkpt><trkpt lat="51.943113" lon="16.416775"></trkpt><trkpt lat="51.947168" lon="16.406601"></trkpt><trkpt lat="51.947187" lon="16.406242"></trkpt><trkpt lat="51.94716" lon="16.40565"></trkpt><trkpt lat="51.947185" lon="16.399658"></trkpt><trkpt lat="51.947345" lon="16.399427"></trkpt><trkpt lat="51.947584" lon="16.398861"></trkpt><trkpt lat="51.949446" lon="16.395198"></trkpt><trkpt lat="51.949619" lon="16.394967"></trkpt><trkpt lat="51.968524" lon="16.365736"></trkpt><trkpt lat="51.968536" lon="16.365109"></trkpt><trkpt lat="51.968757" lon="16.361648"></trkpt><trkpt lat="51.968945" lon="16.361184"></trkpt><trkpt lat="51.969695" lon="16.359008"></trkpt><trkpt lat="51.971411" lon="16.354854"></trkpt><trkpt lat="51.971795" lon="16.354733"></trkpt><trkpt lat="51.973003" lon="16.354508"></trkpt><trkpt lat="51.973312" lon="16.354497"></trkpt><trkpt lat="51.97354" lon="16.35446"></trkpt><trkpt lat="51.978378" lon="16.352867"></trkpt><trkpt lat="51.978516" lon="16.352542"></trkpt><trkpt lat="51.978664" lon="16.351937"></trkpt><trkpt lat="51.978626" lon="16.351522"></trkpt><trkpt lat="51.978502" lon="16.35098"></trkpt><trkpt lat="51.978365" lon="16.350554"></trkpt><trkpt lat="51.978216" lon="16.350191"></trkpt><trkpt lat="51.978117" lon="16.34984"></trkpt><trkpt lat="51.978073" lon="16.349446"></trkpt><trkpt lat="51.97789" lon="16.348436"></trkpt><trkpt lat="51.977753" lon="16.348079"></trkpt><trkpt lat="51.977708" lon="16.347678"></trkpt><trkpt lat="51.977777" lon="16.34731"></trkpt><trkpt lat="51.97786" lon="16.346969"></trkpt><trkpt lat="51.978213" lon="16.345156"></trkpt><trkpt lat="51.97829" lon="16.344849"></trkpt><trkpt lat="51.980267" lon="16.334145"></trkpt><trkpt lat="51.979978" lon="16.333822"></trkpt><trkpt lat="51.979604" lon="16.333338"></trkpt><trkpt lat="51.979377" lon="16.333163"></trkpt><trkpt lat="51.978794" lon="16.332811"></trkpt><trkpt lat="51.978498" lon="16.332676"></trkpt><trkpt lat="51.976544" lon="16.331394"></trkpt><trkpt lat="51.976243" lon="16.330866"></trkpt><trkpt lat="51.975936" lon="16.330165"></trkpt><trkpt lat="51.975758" lon="16.329563"></trkpt><trkpt lat="51.975264" lon="16.328476"></trkpt><trkpt lat="51.974965" lon="16.328361"></trkpt><trkpt lat="51.974513" lon="16.328119"></trkpt><trkpt lat="51.97442" lon="16.32745"></trkpt><trkpt lat="51.974193" lon="16.326583"></trkpt><trkpt lat="51.973256" lon="16.323647"></trkpt><trkpt lat="51.972965" lon="16.323274"></trkpt><trkpt lat="51.9705" lon="16.320885"></trkpt><trkpt lat="51.970145" lon="16.320951"></trkpt><trkpt lat="51.968627" lon="16.320281"></trkpt><trkpt lat="51.968435" lon="16.320034"></trkpt><trkpt lat="51.966674" lon="16.318127"></trkpt><trkpt lat="51.966475" lon="16.318158"></trkpt><trkpt lat="51.965809" lon="16.318167"></trkpt><trkpt lat="51.965512" lon="16.318101"></trkpt><trkpt lat="51.965475" lon="16.317715"></trkpt><trkpt lat="51.965703" lon="16.31695"></trkpt><trkpt lat="51.970164" lon="16.304745"></trkpt><trkpt lat="51.970464" lon="16.304905"></trkpt><trkpt lat="51.970683" lon="16.305096"></trkpt><trkpt lat="51.972786" lon="16.306584"></trkpt><trkpt lat="51.973527" lon="16.307001"></trkpt><trkpt lat="51.973345" lon="16.306855"></trkpt><trkpt lat="51.973107" lon="16.306711"></trkpt><trkpt lat="51.972966" lon="16.306447"></trkpt><trkpt lat="51.973068" lon="16.306737"></trkpt><trkpt lat="51.973304" lon="16.306893"></trkpt><trkpt lat="51.973635" lon="16.307195"></trkpt><trkpt lat="51.973923" lon="16.307503"></trkpt><trkpt lat="51.977102" lon="16.310357"></trkpt><trkpt lat="51.977271" lon="16.310128"></trkpt><trkpt lat="51.977522" lon="16.309891"></trkpt><trkpt lat="51.977711" lon="16.309773"></trkpt><trkpt lat="51.9775" lon="16.309811"></trkpt><trkpt lat="51.9773" lon="16.309954"></trkpt><trkpt lat="51.977341" lon="16.309477"></trkpt><trkpt lat="51.977441" lon="16.309169"></trkpt><trkpt lat="51.977491" lon="16.308808"></trkpt><trkpt lat="51.977483" lon="16.308176"></trkpt><trkpt lat="51.977609" lon="16.30601"></trkpt><trkpt lat="51.977835" lon="16.305225"></trkpt><trkpt lat="51.980209" lon="16.298292"></trkpt><trkpt lat="51.981196" lon="16.294813"></trkpt><trkpt lat="51.981272" lon="16.294134"></trkpt><trkpt lat="51.982409" lon="16.286895"></trkpt><trkpt lat="51.982728" lon="16.283608"></trkpt><trkpt lat="51.982427" lon="16.283215"></trkpt><trkpt lat="51.980621" lon="16.28049"></trkpt><trkpt lat="51.980557" lon="16.279879"></trkpt><trkpt lat="51.980591" lon="16.27906"></trkpt><trkpt lat="51.980445" lon="16.275983"></trkpt><trkpt lat="51.980179" lon="16.275925"></trkpt><trkpt lat="51.977547" lon="16.274772"></trkpt><trkpt lat="51.977047" lon="16.274181"></trkpt><trkpt lat="51.965995" lon="16.258947"></trkpt><trkpt lat="51.965731" lon="16.258387"></trkpt><trkpt lat="51.965234" lon="16.257498"></trkpt><trkpt lat="51.964937" lon="16.257092"></trkpt><trkpt lat="51.963702" lon="16.255678"></trkpt><trkpt lat="51.963217" lon="16.254938"></trkpt><trkpt lat="51.963032" lon="16.254523"></trkpt><trkpt lat="51.961227" lon="16.249754"></trkpt><trkpt lat="51.961221" lon="16.249151"></trkpt><trkpt lat="51.961237" lon="16.248733"></trkpt><trkpt lat="51.961213" lon="16.24824"></trkpt><trkpt lat="51.961241" lon="16.247797"></trkpt><trkpt lat="51.961319" lon="16.240219"></trkpt><trkpt lat="51.961059" lon="16.239949"></trkpt><trkpt lat="51.959992" lon="16.239077"></trkpt><trkpt lat="51.959785" lon="16.238961"></trkpt><trkpt lat="51.95948" lon="16.238745"></trkpt><trkpt lat="51.959315" lon="16.23856"></trkpt><trkpt lat="51.959056" lon="16.238131"></trkpt><trkpt lat="51.95888" lon="16.237757"></trkpt><trkpt lat="51.957872" lon="16.235262"></trkpt><trkpt lat="51.957701" lon="16.234652"></trkpt><trkpt lat="51.957019" lon="16.232719"></trkpt><trkpt lat="51.956786" lon="16.232158"></trkpt><trkpt lat="51.955515" lon="16.227982"></trkpt><trkpt lat="51.955568" lon="16.227525"></trkpt><trkpt lat="51.9563" lon="16.216498"></trkpt><trkpt lat="51.956051" lon="16.216382"></trkpt><trkpt lat="51.955787" lon="16.216395"></trkpt><trkpt lat="51.952673" lon="16.215702"></trkpt><trkpt lat="51.952585" lon="16.215141"></trkpt><trkpt lat="51.952511" lon="16.214453"></trkpt><trkpt lat="51.952486" lon="16.214012"></trkpt><trkpt lat="51.952463" lon="16.212193"></trkpt><trkpt lat="51.952516" lon="16.211643"></trkpt><trkpt lat="51.952266" lon="16.211566"></trkpt><trkpt lat="51.951979" lon="16.211551"></trkpt><trkpt lat="51.951248" lon="16.211674"></trkpt><trkpt lat="51.950846" lon="16.211798"></trkpt><trkpt lat="51.950271" lon="16.212072"></trkpt><trkpt lat="51.950212" lon="16.212386"></trkpt><trkpt lat="51.950225" lon="16.211739"></trkpt><trkpt lat="51.950212" lon="16.211281"></trkpt><trkpt lat="51.950137" lon="16.210507"></trkpt><trkpt lat="51.94977" lon="16.210273"></trkpt><trkpt lat="51.949517" lon="16.210183"></trkpt><trkpt lat="51.94989" lon="16.210402"></trkpt><trkpt lat="51.950178" lon="16.210654"></trkpt><trkpt lat="51.950197" lon="16.211011"></trkpt><trkpt lat="51.950188" lon="16.211557"></trkpt><trkpt lat="51.950247" lon="16.211901"></trkpt><trkpt lat="51.950556" lon="16.211906"></trkpt><trkpt lat="51.95092" lon="16.21181"></trkpt><trkpt lat="51.952439" lon="16.211589"></trkpt><trkpt lat="51.952576" lon="16.2108"></trkpt><trkpt lat="51.952647" lon="16.210232"></trkpt><trkpt lat="51.954834" lon="16.182492"></trkpt><trkpt lat="51.954657" lon="16.182171"></trkpt><trkpt lat="51.954141" lon="16.181497"></trkpt><trkpt lat="51.953792" lon="16.181533"></trkpt><trkpt lat="51.953387" lon="16.181387"></trkpt><trkpt lat="51.953311" lon="16.181076"></trkpt><trkpt lat="51.953417" lon="16.180756"></trkpt><trkpt lat="51.953467" lon="16.180318"></trkpt><trkpt lat="51.953513" lon="16.179566"></trkpt><trkpt lat="51.953592" lon="16.178988"></trkpt><trkpt lat="51.953669" lon="16.178576"></trkpt><trkpt lat="51.956735" lon="16.166027"></trkpt><trkpt lat="51.957222" lon="16.16535"></trkpt><trkpt lat="51.958959" lon="16.163427"></trkpt><trkpt lat="51.959426" lon="16.163232"></trkpt><trkpt lat="51.960012" lon="16.16306"></trkpt><trkpt lat="51.961065" lon="16.163163"></trkpt><trkpt lat="51.993941" lon="16.169093"></trkpt><trkpt lat="51.994554" lon="16.169124"></trkpt><trkpt lat="52.013911" lon="16.16553"></trkpt><trkpt lat="52.014376" lon="16.165057"></trkpt><trkpt lat="52.01494" lon="16.164364"></trkpt><trkpt lat="52.015372" lon="16.163744"></trkpt><trkpt lat="52.01559" lon="16.163188"></trkpt><trkpt lat="52.015709" lon="16.162567"></trkpt><trkpt lat="52.015725" lon="16.162149"></trkpt><trkpt lat="52.01578" lon="16.161562"></trkpt><trkpt lat="52.01582" lon="16.160711"></trkpt><trkpt lat="52.015871" lon="16.160353"></trkpt><trkpt lat="52.015958" lon="16.159978"></trkpt><trkpt lat="52.016213" lon="16.159564"></trkpt><trkpt lat="52.01645" lon="16.159434"></trkpt><trkpt lat="52.016903" lon="16.15931"></trkpt><trkpt lat="52.024413" lon="16.158209"></trkpt><trkpt lat="52.02745" lon="16.159141"></trkpt><trkpt lat="52.027651" lon="16.159263"></trkpt><trkpt lat="52.028322" lon="16.159543"></trkpt><trkpt lat="52.028519" lon="16.159498"></trkpt><trkpt lat="52.028754" lon="16.15932"></trkpt><trkpt lat="52.02927" lon="16.158719"></trkpt><trkpt lat="52.044746" lon="16.143752"></trkpt><trkpt lat="52.044969" lon="16.14373"></trkpt><trkpt lat="52.050425" lon="16.1449"></trkpt><trkpt lat="52.050626" lon="16.145012"></trkpt><trkpt lat="52.051924" lon="16.145934"></trkpt><trkpt lat="52.053998" lon="16.147716"></trkpt><trkpt lat="52.056488" lon="16.14943"></trkpt><trkpt lat="52.057552" lon="16.14851"></trkpt><trkpt lat="52.075259" lon="16.130479"></trkpt><trkpt lat="52.075438" lon="16.13018"></trkpt><trkpt lat="52.075639" lon="16.12976"></trkpt><trkpt lat="52.076117" lon="16.129146"></trkpt><trkpt lat="52.076375" lon="16.129225"></trkpt><trkpt lat="52.076624" lon="16.129408"></trkpt><trkpt lat="52.077299" lon="16.129731"></trkpt><trkpt lat="52.077859" lon="16.129861"></trkpt><trkpt lat="52.079657" lon="16.130068"></trkpt><trkpt lat="52.080206" lon="16.129472"></trkpt><trkpt lat="52.080625" lon="16.128897"></trkpt><trkpt lat="52.093855" lon="16.113278"></trkpt><trkpt lat="52.094445" lon="16.113119"></trkpt><trkpt lat="52.103037" lon="16.111867"></trkpt><trkpt lat="52.103238" lon="16.111955"></trkpt><trkpt lat="52.103682" lon="16.11236"></trkpt><trkpt lat="52.103901" lon="16.112489"></trkpt><trkpt lat="52.10414" lon="16.112594"></trkpt><trkpt lat="52.107294" lon="16.113424"></trkpt><trkpt lat="52.107634" lon="16.113121"></trkpt><trkpt lat="52.108312" lon="16.112364"></trkpt><trkpt lat="52.112935" lon="16.106184"></trkpt><trkpt lat="52.112841" lon="16.105821"></trkpt><trkpt lat="52.111803" lon="16.100674"></trkpt><trkpt lat="52.111977" lon="16.09991"></trkpt><trkpt lat="52.112156" lon="16.09927"></trkpt><trkpt lat="52.112359" lon="16.099056"></trkpt><trkpt lat="52.112378" lon="16.098551"></trkpt><trkpt lat="52.112506" lon="16.09818"></trkpt><trkpt lat="52.113537" lon="16.094632"></trkpt><trkpt lat="52.11369" lon="16.093949"></trkpt><trkpt lat="52.114676" lon="16.088244"></trkpt><trkpt lat="52.114749" lon="16.087608"></trkpt><trkpt lat="52.118278" lon="16.065814"></trkpt><trkpt lat="52.118544" lon="16.064857"></trkpt><trkpt lat="52.121709" lon="16.050963"></trkpt><trkpt lat="52.121756" lon="16.050637"></trkpt><trkpt lat="52.123689" lon="16.040524"></trkpt><trkpt lat="52.123914" lon="16.039896"></trkpt><trkpt lat="52.140257" lon="15.993277"></trkpt><trkpt lat="52.149639" lon="15.970633"></trkpt><trkpt lat="52.150222" lon="15.970419"></trkpt><trkpt lat="52.15081" lon="15.970022"></trkpt><trkpt lat="52.150965" lon="15.969572"></trkpt><trkpt lat="52.163153" lon="15.927545"></trkpt><trkpt lat="52.163241" lon="15.927174"></trkpt><trkpt lat="52.163938" lon="15.923303"></trkpt><trkpt lat="52.16395" lon="15.922885"></trkpt><trkpt lat="52.164037" lon="15.921806"></trkpt><trkpt lat="52.164232" lon="15.921457"></trkpt><trkpt lat="52.16446" lon="15.921404"></trkpt><trkpt lat="52.164888" lon="15.921378"></trkpt><trkpt lat="52.16617" lon="15.921095"></trkpt><trkpt lat="52.166417" lon="15.920778"></trkpt><trkpt lat="52.166884" lon="15.920264"></trkpt><trkpt lat="52.16734" lon="15.920255"></trkpt><trkpt lat="52.177865" lon="15.921689"></trkpt><trkpt lat="52.178074" lon="15.921748"></trkpt><trkpt lat="52.211028" lon="15.929294"></trkpt><trkpt lat="52.228389" lon="15.93122"></trkpt><trkpt lat="52.230839" lon="15.930594"></trkpt><trkpt lat="52.23127" lon="15.930628"></trkpt><trkpt lat="52.231502" lon="15.93058"></trkpt><trkpt lat="52.24451" lon="15.929429"></trkpt><trkpt lat="52.248644" lon="15.928307"></trkpt><trkpt lat="52.24899" lon="15.927547"></trkpt><trkpt lat="52.249522" lon="15.926572"></trkpt><trkpt lat="52.249915" lon="15.925996"></trkpt><trkpt lat="52.250285" lon="15.925527"></trkpt><trkpt lat="52.250463" lon="15.925368"></trkpt><trkpt lat="52.250531" lon="15.925057"></trkpt><trkpt lat="52.250444" lon="15.924531"></trkpt><trkpt lat="52.249442" lon="15.919893"></trkpt><trkpt lat="52.24922" lon="15.91955"></trkpt><trkpt lat="52.249074" lon="15.91916"></trkpt><trkpt lat="52.248961" lon="15.91862"></trkpt><trkpt lat="52.248913" lon="15.918263"></trkpt><trkpt lat="52.248795" lon="15.915974"></trkpt><trkpt lat="52.248885" lon="15.915679"></trkpt><trkpt lat="52.248732" lon="15.91511"></trkpt><trkpt lat="52.248105" lon="15.913253"></trkpt><trkpt lat="52.248024" lon="15.912917"></trkpt><trkpt lat="52.247702" lon="15.911866"></trkpt><trkpt lat="52.247819" lon="15.912132"></trkpt><trkpt lat="52.24792" lon="15.912512"></trkpt><trkpt lat="52.248015" lon="15.912999"></trkpt><trkpt lat="52.248134" lon="15.913258"></trkpt><trkpt lat="52.248365" lon="15.914026"></trkpt><trkpt lat="52.248437" lon="15.91439"></trkpt><trkpt lat="52.248544" lon="15.91478"></trkpt><trkpt lat="52.248964" lon="15.915864"></trkpt><trkpt lat="52.24942" lon="15.915631"></trkpt><trkpt lat="52.249654" lon="15.915397"></trkpt><trkpt lat="52.249761" lon="15.915071"></trkpt><trkpt lat="52.249924" lon="15.914457"></trkpt><trkpt lat="52.250227" lon="15.91366"></trkpt><trkpt lat="52.250472" lon="15.913321"></trkpt><trkpt lat="52.250736" lon="15.913011"></trkpt><trkpt lat="52.251089" lon="15.912722"></trkpt><trkpt lat="52.251494" lon="15.91231"></trkpt><trkpt lat="52.251655" lon="15.912037"></trkpt><trkpt lat="52.251935" lon="15.911642"></trkpt><trkpt lat="52.259905" lon="15.898542"></trkpt><trkpt lat="52.260057" lon="15.89787"></trkpt><trkpt lat="52.260167" lon="15.89616"></trkpt><trkpt lat="52.259881" lon="15.896337"></trkpt><trkpt lat="52.259683" lon="15.896306"></trkpt></trkseg></trk></gpx>