<?xml version="1.0" encoding="UTF-8" standalone="no" ?><gpx xmlns="http://www.topografix.com/GPX/1/1" xmlns:gpxx="http://www.garmin.com/xmlschemas/GpxExtensions/v3" ><trk><trkseg><trkpt lat="54.1890580673" lon="15.6048325449"></trkpt><trkpt lat="54.1892816126" lon="15.6051533204"></trkpt><trkpt lat="54.1895391885" lon="15.6049582735"></trkpt><trkpt lat="54.1898146179" lon="15.6048721913"></trkpt><trkpt lat="54.1899116803" lon="15.6055035163"></trkpt><trkpt lat="54.1900965013" lon="15.606322512"></trkpt><trkpt lat="54.1902378201" lon="15.6067858636"></trkpt><trkpt lat="54.190194821" lon="15.6072606146"></trkpt><trkpt lat="54.1904087272" lon="15.6078350265"></trkpt><trkpt lat="54.1905528959" lon="15.6084411219"></trkpt><trkpt lat="54.1908082925" lon="15.6088096742"></trkpt><trkpt lat="54.1910662036" lon="15.6086732168"></trkpt><trkpt lat="54.1909319256" lon="15.6081665307"></trkpt><trkpt lat="54.1908811312" lon="15.6077104714"></trkpt><trkpt lat="54.1907984018" lon="15.6072161905"></trkpt><trkpt lat="54.1906625312" lon="15.6067214068"></trkpt><trkpt lat="54.1905650496" lon="15.6060984638"></trkpt><trkpt lat="54.1900674999" lon="15.6038734037"></trkpt><trkpt lat="54.1897641588" lon="15.6029562559"></trkpt><trkpt lat="54.1895859595" lon="15.6033350341"></trkpt><trkpt lat="54.1896444652" lon="15.6038951967"></trkpt><trkpt lat="54.1897412762" lon="15.6043391023"></trkpt><trkpt lat="54.1898223292" lon="15.6048816629"></trkpt><trkpt lat="54.189528292" lon="15.6050105765"></trkpt><trkpt lat="54.1895126179" lon="15.6061671115"></trkpt><trkpt lat="54.1891475022" lon="15.60591029"></trkpt><trkpt lat="54.1885611042" lon="15.6053189468"></trkpt><trkpt lat="54.1885493696" lon="15.6048293598"></trkpt><trkpt lat="54.1884468589" lon="15.6042010523"></trkpt><trkpt lat="54.1887429077" lon="15.6040666904"></trkpt><trkpt lat="54.1890736576" lon="15.6040226854"></trkpt><trkpt lat="54.1893396992" lon="15.6038730685"></trkpt><trkpt lat="54.1895546112" lon="15.6035853177"></trkpt><trkpt lat="54.1896206606" lon="15.6031155959"></trkpt><trkpt lat="54.1897981055" lon="15.6027291063"></trkpt><trkpt lat="54.1898784041" lon="15.6022484042"></trkpt><trkpt lat="54.18977933" lon="15.6017129682"></trkpt><trkpt lat="54.1874821018" lon="15.5866454076"></trkpt><trkpt lat="54.1874357499" lon="15.5861611012"></trkpt><trkpt lat="54.1867628507" lon="15.5819595046"></trkpt><trkpt lat="54.1864911094" lon="15.5818475224"></trkpt><trkpt lat="54.1864423268" lon="15.5812021997"></trkpt><trkpt lat="54.1862508841" lon="15.5724522471"></trkpt><trkpt lat="54.1865019221" lon="15.5721529294"></trkpt><trkpt lat="54.1867060214" lon="15.5717314035"></trkpt><trkpt lat="54.1868097056" lon="15.5712047685"></trkpt><trkpt lat="54.1868127231" lon="15.5706184544"></trkpt><trkpt lat="54.1868440714" lon="15.5701083317"></trkpt><trkpt lat="54.1868491005" lon="15.5695757456"></trkpt><trkpt lat="54.1864896007" lon="15.5628164951"></trkpt><trkpt lat="54.1863381397" lon="15.5623905268"></trkpt><trkpt lat="54.1864756029" lon="15.5619033705"></trkpt><trkpt lat="54.1867584083" lon="15.5618732795"></trkpt><trkpt lat="54.1884071287" lon="15.5624845717"></trkpt><trkpt lat="54.1885212902" lon="15.5620445218"></trkpt><trkpt lat="54.188252734" lon="15.5619742814"></trkpt><trkpt lat="54.1877852753" lon="15.5619579367"></trkpt><trkpt lat="54.1875168867" lon="15.5620145984"></trkpt><trkpt lat="54.187214803" lon="15.5620260816"></trkpt><trkpt lat="54.1858053021" lon="15.5623048637"></trkpt><trkpt lat="54.1856587026" lon="15.5617892928"></trkpt><trkpt lat="54.1854597162" lon="15.5613904819"></trkpt><trkpt lat="54.1857597046" lon="15.5613857042"></trkpt><trkpt lat="54.185852157" lon="15.562037481"></trkpt><trkpt lat="54.186220374" lon="15.5618464574"></trkpt><trkpt lat="54.1865577456" lon="15.5618423503"></trkpt><trkpt lat="54.1869207658" lon="15.5619152728"></trkpt><trkpt lat="54.1876385082" lon="15.5618838407"></trkpt><trkpt lat="54.1873658448" lon="15.5618742015"></trkpt><trkpt lat="54.1870226897" lon="15.5619783886"></trkpt><trkpt lat="54.1867137328" lon="15.5620162748"></trkpt><trkpt lat="54.1862688214" lon="15.5622841604"></trkpt><trkpt lat="54.1862906981" lon="15.5627841409"></trkpt><trkpt lat="54.186262954" lon="15.5633178167"></trkpt><trkpt lat="54.1861466132" lon="15.5639763828"></trkpt><trkpt lat="54.1861069668" lon="15.5646018405"></trkpt><trkpt lat="54.1861032788" lon="15.5651889089"></trkpt><trkpt lat="54.1863831505" lon="15.5807153787"></trkpt><trkpt lat="54.1864315979" lon="15.5813827459"></trkpt><trkpt lat="54.1873215884" lon="15.5883733369"></trkpt><trkpt lat="54.1873992048" lon="15.5900358874"></trkpt><trkpt lat="54.1870595701" lon="15.5903154239"></trkpt><trkpt lat="54.1869767569" lon="15.5911219306"></trkpt><trkpt lat="54.1871214285" lon="15.5917458795"></trkpt><trkpt lat="54.1873137932" lon="15.5923155136"></trkpt><trkpt lat="54.1877708584" lon="15.5940037128"></trkpt><trkpt lat="54.1878488101" lon="15.5945370533"></trkpt><trkpt lat="54.1879876144" lon="15.5952121317"></trkpt><trkpt lat="54.1892199218" lon="15.6053950544"></trkpt><trkpt lat="54.1889603343" lon="15.6053072121"></trkpt></trkseg></trk></gpx>