<?xml version="1.0" encoding="UTF-8" standalone="no" ?><gpx xmlns="http://www.topografix.com/GPX/1/1" xmlns:gpxx="http://www.garmin.com/xmlschemas/GpxExtensions/v3" ><trk><trkseg><trkpt lat="49.5200129505" lon="21.9238532055"></trkpt><trkpt lat="49.5197453164" lon="21.9237687159"></trkpt><trkpt lat="49.5192028396" lon="21.923842812"></trkpt><trkpt lat="49.5189181063" lon="21.9237437379"></trkpt><trkpt lat="49.5183741208" lon="21.9234660454"></trkpt><trkpt lat="49.5179647487" lon="21.9234499522"></trkpt><trkpt lat="49.5176120382" lon="21.9233310968"></trkpt><trkpt lat="49.5173237007" lon="21.9233696535"></trkpt><trkpt lat="49.5175903291" lon="21.9238946959"></trkpt><trkpt lat="49.5176541992" lon="21.924389815"></trkpt><trkpt lat="49.5178271178" lon="21.9247123506"></trkpt><trkpt lat="49.5178475697" lon="21.9253518898"></trkpt><trkpt lat="49.5178925805" lon="21.9257672969"></trkpt><trkpt lat="49.5179898106" lon="21.9262108672"></trkpt><trkpt lat="49.5181570295" lon="21.9267853629"></trkpt><trkpt lat="49.5182509068" lon="21.9273686595"></trkpt><trkpt lat="49.5182971749" lon="21.9280050136"></trkpt><trkpt lat="49.5182881225" lon="21.9284621626"></trkpt><trkpt lat="49.5183172915" lon="21.9289320521"></trkpt><trkpt lat="49.5183003601" lon="21.9294116646"></trkpt><trkpt lat="49.5181128569" lon="21.9314130954"></trkpt><trkpt lat="49.5179958455" lon="21.9309548568"></trkpt><trkpt lat="49.5180533454" lon="21.9313830044"></trkpt><trkpt lat="49.5183125976" lon="21.9315866847"></trkpt><trkpt lat="49.5186998416" lon="21.9316844177"></trkpt><trkpt lat="49.5191175956" lon="21.9315091521"></trkpt><trkpt lat="49.5187722612" lon="21.9314728584"></trkpt><trkpt lat="49.5185437705" lon="21.9311876222"></trkpt><trkpt lat="49.5182622224" lon="21.9310050644"></trkpt><trkpt lat="49.5182380825" lon="21.9304705504"></trkpt><trkpt lat="49.5182909723" lon="21.9298674725"></trkpt><trkpt lat="49.5183022041" lon="21.9292738661"></trkpt><trkpt lat="49.5182182174" lon="21.9271347206"></trkpt><trkpt lat="49.5181108452" lon="21.9267245103"></trkpt><trkpt lat="49.5180295408" lon="21.9263070077"></trkpt><trkpt lat="49.5179170556" lon="21.9258850627"></trkpt><trkpt lat="49.5178641658" lon="21.9254463539"></trkpt><trkpt lat="49.5178555325" lon="21.9250170328"></trkpt><trkpt lat="49.5180976856" lon="21.9245846104"></trkpt><trkpt lat="49.5182706881" lon="21.9240789302"></trkpt><trkpt lat="49.5185071416" lon="21.9235217851"></trkpt><trkpt lat="49.5187940542" lon="21.9235965516"></trkpt><trkpt lat="49.5197132975" lon="21.9236827176"></trkpt><trkpt lat="49.5199848711" lon="21.9238811173"></trkpt></trkseg></trk></gpx>