<?xml version="1.0" encoding="UTF-8" standalone="no" ?><gpx xmlns="http://www.topografix.com/GPX/1/1" xmlns:gpxx="http://www.garmin.com/xmlschemas/GpxExtensions/v3" ><trk><trkseg><trkpt lat="52.6860615425" lon="16.8593503162"></trkpt><trkpt lat="52.6871884894" lon="16.85800259"></trkpt><trkpt lat="52.6874797605" lon="16.8581202719"></trkpt><trkpt lat="52.6877670921" lon="16.8582816236"></trkpt><trkpt lat="52.6962680183" lon="16.8635732867"></trkpt><trkpt lat="52.6964970119" lon="16.8640129175"></trkpt><trkpt lat="52.6967374887" lon="16.8643713277"></trkpt><trkpt lat="52.6970010158" lon="16.864659749"></trkpt><trkpt lat="52.697410807" lon="16.8646737467"></trkpt><trkpt lat="52.7052657399" lon="16.8632655032"></trkpt><trkpt lat="52.7052745409" lon="16.8628049176"></trkpt><trkpt lat="52.7053241618" lon="16.8621423282"></trkpt><trkpt lat="52.7052334696" lon="16.8617025297"></trkpt><trkpt lat="52.7052196395" lon="16.8612326402"></trkpt><trkpt lat="52.7052366547" lon="16.8605622556"></trkpt><trkpt lat="52.7056267485" lon="16.8604340963"></trkpt><trkpt lat="52.7061131503" lon="16.8604522012"></trkpt><trkpt lat="52.7066231053" lon="16.8606165703"></trkpt><trkpt lat="52.7067162283" lon="16.8599491194"></trkpt><trkpt lat="52.7067656815" lon="16.8591700215"></trkpt><trkpt lat="52.7068998758" lon="16.8587524351"></trkpt><trkpt lat="52.7067610715" lon="16.8591649085"></trkpt><trkpt lat="52.7067708783" lon="16.8597599398"></trkpt><trkpt lat="52.7067022305" lon="16.8603644427"></trkpt><trkpt lat="52.7065453213" lon="16.8612177204"></trkpt><trkpt lat="52.7063315827" lon="16.8614981789"></trkpt><trkpt lat="52.7059369627" lon="16.8614094146"></trkpt><trkpt lat="52.7055850904" lon="16.8612694368"></trkpt><trkpt lat="52.7052498143" lon="16.8612261023"></trkpt><trkpt lat="52.705306476" lon="16.8616757076"></trkpt><trkpt lat="52.7053173725" lon="16.8621753529"></trkpt><trkpt lat="52.7052219864" lon="16.8634701893"></trkpt><trkpt lat="52.7050349861" lon="16.8638880271"></trkpt><trkpt lat="52.704828959" lon="16.8642587587"></trkpt><trkpt lat="52.7046264522" lon="16.8647240382"></trkpt><trkpt lat="52.7043716423" lon="16.8652083445"></trkpt><trkpt lat="52.7039969712" lon="16.865333654"></trkpt><trkpt lat="52.7037403174" lon="16.8651376851"></trkpt><trkpt lat="52.7034470346" lon="16.8651767448"></trkpt><trkpt lat="52.7029723674" lon="16.8650417961"></trkpt><trkpt lat="52.7006112691" lon="16.8647707254"></trkpt><trkpt lat="52.7002604026" lon="16.8648873176"></trkpt><trkpt lat="52.6998705603" lon="16.8649503496"></trkpt><trkpt lat="52.6994023472" lon="16.8649497628"></trkpt><trkpt lat="52.6990493014" lon="16.8648581486"></trkpt><trkpt lat="52.6986840181" lon="16.8648257945"></trkpt><trkpt lat="52.6980481669" lon="16.8646708131"></trkpt><trkpt lat="52.697276026" lon="16.8647108786"></trkpt><trkpt lat="52.6967835054" lon="16.8645543884"></trkpt><trkpt lat="52.6965352334" lon="16.8641704973"></trkpt><trkpt lat="52.6954295766" lon="16.8628304824"></trkpt><trkpt lat="52.6951823104" lon="16.8626268022"></trkpt><trkpt lat="52.6939989533" lon="16.8618590198"></trkpt><trkpt lat="52.6936262939" lon="16.8618189543"></trkpt><trkpt lat="52.6918566227" lon="16.8613634817"></trkpt><trkpt lat="52.6915481687" lon="16.861153096"></trkpt><trkpt lat="52.6906677336" lon="16.8603884988"></trkpt><trkpt lat="52.6900503226" lon="16.8599745166"></trkpt><trkpt lat="52.6866916101" lon="16.8583159894"></trkpt><trkpt lat="52.6859815791" lon="16.8594676629"></trkpt></trkseg></trk></gpx>