<?xml version="1.0" encoding="UTF-8" standalone="no" ?><gpx xmlns="http://www.topografix.com/GPX/1/1" xmlns:gpxx="http://www.garmin.com/xmlschemas/GpxExtensions/v3" ><trk><trkseg><trkpt lat="52.5856540538" lon="17.0840654522"></trkpt><trkpt lat="52.5857343525" lon="17.0836357959"></trkpt><trkpt lat="52.5859431457" lon="17.0839894284"></trkpt><trkpt lat="52.5862251129" lon="17.0843485929"></trkpt><trkpt lat="52.5864748098" lon="17.0846053306"></trkpt><trkpt lat="52.5869080704" lon="17.0851517469"></trkpt><trkpt lat="52.5885654241" lon="17.0867796801"></trkpt><trkpt lat="52.5887597166" lon="17.0863770973"></trkpt><trkpt lat="52.590662241" lon="17.081594551"></trkpt><trkpt lat="52.5905688666" lon="17.0810678322"></trkpt><trkpt lat="52.5899318419" lon="17.078471873"></trkpt><trkpt lat="52.5896038581" lon="17.0783257764"></trkpt><trkpt lat="52.5894407462" lon="17.0779666957"></trkpt><trkpt lat="52.5892154407" lon="17.0777194295"></trkpt><trkpt lat="52.5894363038" lon="17.0773373824"></trkpt><trkpt lat="52.5897150021" lon="17.077276865"></trkpt><trkpt lat="52.5892874412" lon="17.0773435012"></trkpt><trkpt lat="52.5885760691" lon="17.0775611792"></trkpt><trkpt lat="52.5882195029" lon="17.0777515322"></trkpt><trkpt lat="52.5878719892" lon="17.0778643526"></trkpt><trkpt lat="52.587590944" lon="17.0778301544"></trkpt><trkpt lat="52.5873133354" lon="17.0779098663"></trkpt><trkpt lat="52.5870117545" lon="17.0778875705"></trkpt><trkpt lat="52.5862108637" lon="17.0780687034"></trkpt><trkpt lat="52.5860099494" lon="17.0783955138"></trkpt><trkpt lat="52.5859542098" lon="17.0789787266"></trkpt><trkpt lat="52.5858150702" lon="17.0794847421"></trkpt><trkpt lat="52.5856538024" lon="17.0799076091"></trkpt><trkpt lat="52.5854559895" lon="17.0802718867"></trkpt><trkpt lat="52.5852242298" lon="17.0808580332"></trkpt><trkpt lat="52.5848917197" lon="17.0807056502"></trkpt><trkpt lat="52.584668342" lon="17.0803377684"></trkpt><trkpt lat="52.5844131969" lon="17.0798064396"></trkpt><trkpt lat="52.5841795094" lon="17.0801251195"></trkpt><trkpt lat="52.5839216821" lon="17.0803352538"></trkpt><trkpt lat="52.5841122866" lon="17.0797748398"></trkpt><trkpt lat="52.5838962011" lon="17.0794096403"></trkpt><trkpt lat="52.5841017254" lon="17.0797269791"></trkpt><trkpt lat="52.5843953434" lon="17.079766877"></trkpt><trkpt lat="52.5846038014" lon="17.0800891612"></trkpt><trkpt lat="52.5851919595" lon="17.0811865199"></trkpt><trkpt lat="52.5853315182" lon="17.0817159209"></trkpt><trkpt lat="52.5854077097" lon="17.0823083539"></trkpt><trkpt lat="52.5855481066" lon="17.0828028861"></trkpt><trkpt lat="52.5856584124" lon="17.0836239774"></trkpt></trkseg></trk></gpx>