<?xml version="1.0" encoding="UTF-8" standalone="no" ?><gpx xmlns="http://www.topografix.com/GPX/1/1" xmlns:gpxx="http://www.garmin.com/xmlschemas/GpxExtensions/v3" ><trk><trkseg><trkpt lat="49.2063930631" lon="22.2977590095"></trkpt><trkpt lat="49.2066441011" lon="22.2979606781"></trkpt><trkpt lat="49.2068090569" lon="22.2975927126"></trkpt><trkpt lat="49.2072553933" lon="22.2973911278"></trkpt><trkpt lat="49.2075442336" lon="22.296920903"></trkpt><trkpt lat="49.2078574654" lon="22.2962826211"></trkpt><trkpt lat="49.2079686094" lon="22.2956509609"></trkpt><trkpt lat="49.2078969441" lon="22.2951257508"></trkpt><trkpt lat="49.2077586427" lon="22.2946629021"></trkpt><trkpt lat="49.2076965328" lon="22.2941619996"></trkpt><trkpt lat="49.2077065911" lon="22.2936123982"></trkpt><trkpt lat="49.2076791823" lon="22.2930607852"></trkpt><trkpt lat="49.2074697185" lon="22.292437423"></trkpt><trkpt lat="49.2070033494" lon="22.2918585688"></trkpt><trkpt lat="49.2062484752" lon="22.2907365672"></trkpt><trkpt lat="49.2062032968" lon="22.2900943458"></trkpt><trkpt lat="49.2063140217" lon="22.2801114153"></trkpt><trkpt lat="49.2065588571" lon="22.2799274325"></trkpt><trkpt lat="49.2069207877" lon="22.2797304578"></trkpt><trkpt lat="49.2072537169" lon="22.2792993765"></trkpt><trkpt lat="49.2074365262" lon="22.2787736636"></trkpt><trkpt lat="49.209726546" lon="22.2701131459"></trkpt><trkpt lat="49.209705675" lon="22.2692789789"></trkpt><trkpt lat="49.2097851355" lon="22.2687404417"></trkpt><trkpt lat="49.2097765859" lon="22.2683087736"></trkpt><trkpt lat="49.2096677888" lon="22.2677866649"></trkpt><trkpt lat="49.2091865838" lon="22.2663866356"></trkpt><trkpt lat="49.2081658356" lon="22.2639655229"></trkpt><trkpt lat="49.2079385184" lon="22.2636475135"></trkpt><trkpt lat="49.2074757535" lon="22.2632562462"></trkpt><trkpt lat="49.2066936381" lon="22.2622710373"></trkpt><trkpt lat="49.2064534128" lon="22.2618074343"></trkpt><trkpt lat="49.206184186" lon="22.2611736786"></trkpt><trkpt lat="49.206016548" lon="22.2605885379"></trkpt><trkpt lat="49.2059406918" lon="22.2601531819"></trkpt><trkpt lat="49.2054540385" lon="22.2582567763"></trkpt><trkpt lat="49.2052791081" lon="22.2577360924"></trkpt><trkpt lat="49.2019575275" lon="22.2504841536"></trkpt><trkpt lat="49.2014219239" lon="22.2504456807"></trkpt><trkpt lat="49.2007634416" lon="22.2500150185"></trkpt><trkpt lat="49.1997307912" lon="22.2498746216"></trkpt><trkpt lat="49.1985267308" lon="22.2494153772"></trkpt><trkpt lat="49.1980657261" lon="22.248853622"></trkpt><trkpt lat="49.1977293603" lon="22.24883602"></trkpt><trkpt lat="49.1972057428" lon="22.2489929292"></trkpt><trkpt lat="49.1962357052" lon="22.2483814694"></trkpt><trkpt lat="49.1957438551" lon="22.2478079796"></trkpt><trkpt lat="49.1954091657" lon="22.2470889799"></trkpt><trkpt lat="49.1952873766" lon="22.2464075312"></trkpt><trkpt lat="49.1949595604" lon="22.2456733603"></trkpt><trkpt lat="49.1946238652" lon="22.2452095896"></trkpt><trkpt lat="49.1945334245" lon="22.2445684578"></trkpt><trkpt lat="49.1945708077" lon="22.2438525595"></trkpt><trkpt lat="49.1943434067" lon="22.243290972"></trkpt><trkpt lat="49.1939729266" lon="22.2430673428"></trkpt><trkpt lat="49.1925583128" lon="22.2425852995"></trkpt><trkpt lat="49.1922510322" lon="22.2428527661"></trkpt><trkpt lat="49.1918647941" lon="22.2429672629"></trkpt><trkpt lat="49.1894986667" lon="22.2418155055"></trkpt><trkpt lat="49.1889042221" lon="22.2412097454"></trkpt><trkpt lat="49.187443424" lon="22.2391468752"></trkpt><trkpt lat="49.1869416833" lon="22.2382036597"></trkpt><trkpt lat="49.1857680492" lon="22.2365914844"></trkpt><trkpt lat="49.1853941325" lon="22.236581929"></trkpt><trkpt lat="49.1848945711" lon="22.2364800051"></trkpt><trkpt lat="49.1830720101" lon="22.2365857847"></trkpt><trkpt lat="49.1826358158" lon="22.2364888899"></trkpt><trkpt lat="49.1804681718" lon="22.2365774866"></trkpt><trkpt lat="49.1800428741" lon="22.2370976675"></trkpt><trkpt lat="49.1797025688" lon="22.2371476237"></trkpt><trkpt lat="49.1793535464" lon="22.2368655726"></trkpt><trkpt lat="49.1791752633" lon="22.2362691164"></trkpt><trkpt lat="49.1791977268" lon="22.2355572414"></trkpt><trkpt lat="49.1794286482" lon="22.2351368889"></trkpt><trkpt lat="49.1797474958" lon="22.234698683"></trkpt><trkpt lat="49.180672355" lon="22.2329227254"></trkpt><trkpt lat="49.1807762068" lon="22.2323375009"></trkpt><trkpt lat="49.180980809" lon="22.2316892445"></trkpt><trkpt lat="49.1827167012" lon="22.2274008114"></trkpt><trkpt lat="49.1839186661" lon="22.2249405552"></trkpt><trkpt lat="49.1841526888" lon="22.2247152496"></trkpt><trkpt lat="49.1846467182" lon="22.224382991"></trkpt><trkpt lat="49.1848618817" lon="22.2241074778"></trkpt><trkpt lat="49.185044691" lon="22.2237769794"></trkpt><trkpt lat="49.1851353832" lon="22.223210698"></trkpt><trkpt lat="49.185070591" lon="22.2228087857"></trkpt><trkpt lat="49.1849987581" lon="22.2215290368"></trkpt><trkpt lat="49.1846518312" lon="22.2187366895"></trkpt><trkpt lat="49.1846119333" lon="22.2179140896"></trkpt><trkpt lat="49.1846610513" lon="22.2173203155"></trkpt><trkpt lat="49.1847892106" lon="22.2169491649"></trkpt><trkpt lat="49.1853195336" lon="22.215692969"></trkpt><trkpt lat="49.1856265627" lon="22.2151133604"></trkpt><trkpt lat="49.1854318511" lon="22.2154981736"></trkpt><trkpt lat="49.1850680765" lon="22.2163689695"></trkpt><trkpt lat="49.1853601858" lon="22.2166431416"></trkpt><trkpt lat="49.1850391589" lon="22.2161975596"></trkpt><trkpt lat="49.1854016762" lon="22.2163322568"></trkpt><trkpt lat="49.1850425955" lon="22.2162054386"></trkpt><trkpt lat="49.1854287498" lon="22.2164861485"></trkpt><trkpt lat="49.1851689108" lon="22.2166487575"></trkpt><trkpt lat="49.1850380693" lon="22.2162758466"></trkpt><trkpt lat="49.1851783823" lon="22.2159146704"></trkpt><trkpt lat="49.1854239721" lon="22.2154079843"></trkpt><trkpt lat="49.1855642851" lon="22.2150404379"></trkpt><trkpt lat="49.185776934" lon="22.214642046"></trkpt><trkpt lat="49.1856042668" lon="22.2151262686"></trkpt><trkpt lat="49.185373513" lon="22.2156059649"></trkpt><trkpt lat="49.1848345567" lon="22.2170490772"></trkpt><trkpt lat="49.1847401764" lon="22.217458114"></trkpt><trkpt lat="49.1846246738" lon="22.2183968872"></trkpt><trkpt lat="49.1847460438" lon="22.2190795932"></trkpt><trkpt lat="49.1849033721" lon="22.2196165379"></trkpt><trkpt lat="49.1849234886" lon="22.2200868465"></trkpt><trkpt lat="49.1848546732" lon="22.2240426019"></trkpt><trkpt lat="49.1843597218" lon="22.2241689172"></trkpt><trkpt lat="49.184103068" lon="22.2244793829"></trkpt><trkpt lat="49.1838328354" lon="22.2246963903"></trkpt><trkpt lat="49.1834979784" lon="22.2258083336"></trkpt><trkpt lat="49.1829378158" lon="22.227187911"></trkpt><trkpt lat="49.1825542599" lon="22.2275402863"></trkpt><trkpt lat="49.1821353324" lon="22.228280995"></trkpt><trkpt lat="49.1816998925" lon="22.2295124643"></trkpt><trkpt lat="49.181297645" lon="22.2310094722"></trkpt><trkpt lat="49.1807632148" lon="22.2336395457"></trkpt><trkpt lat="49.1803540941" lon="22.2342535201"></trkpt><trkpt lat="49.1799947619" lon="22.2346789856"></trkpt><trkpt lat="49.1796161514" lon="22.2352613602"></trkpt><trkpt lat="49.1793470085" lon="22.2358754184"></trkpt><trkpt lat="49.179303674" lon="22.2363716271"></trkpt><trkpt lat="49.1794818733" lon="22.2368276026"></trkpt><trkpt lat="49.179819664" lon="22.237110408"></trkpt><trkpt lat="49.1801175568" lon="22.2370272595"></trkpt><trkpt lat="49.1804913059" lon="22.2365681827"></trkpt><trkpt lat="49.1813194379" lon="22.2362076771"></trkpt><trkpt lat="49.1824929882" lon="22.2362961061"></trkpt><trkpt lat="49.1865887213" lon="22.2375681438"></trkpt><trkpt lat="49.1870542523" lon="22.2382262908"></trkpt><trkpt lat="49.1873230599" lon="22.2387468908"></trkpt><trkpt lat="49.1883127112" lon="22.240271559"></trkpt><trkpt lat="49.1887868755" lon="22.2407547757"></trkpt><trkpt lat="49.1891504824" lon="22.2412148584"></trkpt><trkpt lat="49.1896126606" lon="22.2416426707"></trkpt><trkpt lat="49.1910586227" lon="22.2426650953"></trkpt><trkpt lat="49.1914729401" lon="22.2426839545"></trkpt><trkpt lat="49.1924549639" lon="22.2424405441"></trkpt><trkpt lat="49.1932076588" lon="22.2425181605"></trkpt><trkpt lat="49.1941021755" lon="22.2427914105"></trkpt><trkpt lat="49.1944444925" lon="22.2435177863"></trkpt><trkpt lat="49.1946659423" lon="22.2444155719"></trkpt><trkpt lat="49.1949957702" lon="22.245447468"></trkpt><trkpt lat="49.1950987838" lon="22.2461487819"></trkpt><trkpt lat="49.1952380911" lon="22.2466151509"></trkpt><trkpt lat="49.1953359917" lon="22.2470706236"></trkpt><trkpt lat="49.1959285922" lon="22.2478381544"></trkpt><trkpt lat="49.1961268242" lon="22.2481510509"></trkpt><trkpt lat="49.1967024934" lon="22.2486296576"></trkpt><trkpt lat="49.1972054914" lon="22.2485823836"></trkpt><trkpt lat="49.1979181208" lon="22.24885731"></trkpt><trkpt lat="49.1982628684" lon="22.2489420511"></trkpt><trkpt lat="49.2000792269" lon="22.2497234121"></trkpt><trkpt lat="49.2004305962" lon="22.2499695048"></trkpt><trkpt lat="49.2009531241" lon="22.2501955647"></trkpt><trkpt lat="49.2013652623" lon="22.2504404001"></trkpt><trkpt lat="49.2017119378" lon="22.2505128197"></trkpt><trkpt lat="49.2020090763" lon="22.2505126521"></trkpt><trkpt lat="49.2025283352" lon="22.2507342696"></trkpt><trkpt lat="49.2029173393" lon="22.2511179093"></trkpt><trkpt lat="49.2032016534" lon="22.2515775729"></trkpt><trkpt lat="49.2034642585" lon="22.2521381546"></trkpt><trkpt lat="49.2036105227" lon="22.2526854929"></trkpt><trkpt lat="49.2041654047" lon="22.2541120928"></trkpt><trkpt lat="49.2058295477" lon="22.2595697176"></trkpt><trkpt lat="49.2073021643" lon="22.2630818188"></trkpt><trkpt lat="49.2079529352" lon="22.2635492776"></trkpt><trkpt lat="49.2083631456" lon="22.2642360907"></trkpt><trkpt lat="49.2087845877" lon="22.265165979"></trkpt><trkpt lat="49.209060939" lon="22.2659354378"></trkpt><trkpt lat="49.2096248735" lon="22.2680024151"></trkpt><trkpt lat="49.2096568923" lon="22.269146964"></trkpt><trkpt lat="49.2098215129" lon="22.2708658408"></trkpt><trkpt lat="49.2098024022" lon="22.272371985"></trkpt><trkpt lat="49.2097189184" lon="22.2730142064"></trkpt><trkpt lat="49.2095666192" lon="22.2734695114"></trkpt><trkpt lat="49.2093330994" lon="22.2738819011"></trkpt><trkpt lat="49.2084459588" lon="22.2758085653"></trkpt><trkpt lat="49.2080784123" lon="22.2770345025"></trkpt><trkpt lat="49.2066174466" lon="22.2802280076"></trkpt><trkpt lat="49.2061575316" lon="22.2808511183"></trkpt><trkpt lat="49.205977153" lon="22.2816754784"></trkpt><trkpt lat="49.2057105247" lon="22.2843130957"></trkpt><trkpt lat="49.2056851275" lon="22.2854164895"></trkpt><trkpt lat="49.2057846207" lon="22.2864650656"></trkpt><trkpt lat="49.2060284503" lon="22.2877246141"></trkpt><trkpt lat="49.2061483115" lon="22.2889636271"></trkpt><trkpt lat="49.2061818391" lon="22.2900031507"></trkpt><trkpt lat="49.2063045502" lon="22.29094184"></trkpt><trkpt lat="49.2066346295" lon="22.291500913"></trkpt><trkpt lat="49.2071516253" lon="22.2920557112"></trkpt><trkpt lat="49.2077342514" lon="22.2931629606"></trkpt><trkpt lat="49.2077417113" lon="22.2940765042"></trkpt><trkpt lat="49.2078096047" lon="22.2949267644"></trkpt><trkpt lat="49.2078296375" lon="22.2963970341"></trkpt><trkpt lat="49.2075821199" lon="22.2970020398"></trkpt><trkpt lat="49.2072302476" lon="22.2975865938"></trkpt><trkpt lat="49.2067572568" lon="22.2979424056"></trkpt><trkpt lat="49.2064710986" lon="22.2978901025"></trkpt><trkpt lat="49.2062357347" lon="22.2983202618"></trkpt><trkpt lat="49.2059366684" lon="22.2986760736"></trkpt><trkpt lat="49.205669621" lon="22.2987769917"></trkpt><trkpt lat="49.2054831237" lon="22.2990835179"></trkpt><trkpt lat="49.2051762622" lon="22.2991299536"></trkpt><trkpt lat="49.2047145031" lon="22.2992249206"></trkpt></trkseg></trk></gpx>