<?xml version="1.0" encoding="UTF-8" standalone="no" ?><gpx xmlns="http://www.topografix.com/GPX/1/1" xmlns:gpxx="http://www.garmin.com/xmlschemas/GpxExtensions/v3" ><trk><trkseg><trkpt lat="52.3676611204" lon="16.9165412989"></trkpt><trkpt lat="52.3659182712" lon="16.9158606883"></trkpt><trkpt lat="52.3654606193" lon="16.9151321333"></trkpt><trkpt lat="52.3651567753" lon="16.91478814"></trkpt><trkpt lat="52.364071738" lon="16.9138286635"></trkpt><trkpt lat="52.363722045" lon="16.9138110615"></trkpt><trkpt lat="52.3633405007" lon="16.91409152"></trkpt><trkpt lat="52.363522388" lon="16.9144319091"></trkpt><trkpt lat="52.3638789542" lon="16.9149640761"></trkpt><trkpt lat="52.3638728354" lon="16.9155003503"></trkpt><trkpt lat="52.3639052734" lon="16.916022962"></trkpt><trkpt lat="52.364014741" lon="16.9164835475"></trkpt><trkpt lat="52.3641747516" lon="16.917011356"></trkpt><trkpt lat="52.3646345828" lon="16.9170656707"></trkpt><trkpt lat="52.3652533349" lon="16.9173196424"></trkpt><trkpt lat="52.3654508125" lon="16.9178309385"></trkpt><trkpt lat="52.3659031" lon="16.9187098648"></trkpt><trkpt lat="52.3662363645" lon="16.9191234279"></trkpt><trkpt lat="52.3672737926" lon="16.9200937171"></trkpt><trkpt lat="52.3678689077" lon="16.9196533319"></trkpt><trkpt lat="52.3681589216" lon="16.9196140207"></trkpt><trkpt lat="52.3684454989" lon="16.9202291686"></trkpt><trkpt lat="52.3687454872" lon="16.9203219563"></trkpt><trkpt lat="52.3688934278" lon="16.9207722321"></trkpt><trkpt lat="52.3690976948" lon="16.9212339073"></trkpt><trkpt lat="52.3691725451" lon="16.9218214788"></trkpt><trkpt lat="52.3692148738" lon="16.9229179993"></trkpt><trkpt lat="52.3687847983" lon="16.9230559655"></trkpt><trkpt lat="52.3679860868" lon="16.922530001"></trkpt><trkpt lat="52.3678737693" lon="16.9220658951"></trkpt><trkpt lat="52.3672283627" lon="16.920184074"></trkpt><trkpt lat="52.3667992931" lon="16.9197545853"></trkpt><trkpt lat="52.3658071272" lon="16.9185532909"></trkpt><trkpt lat="52.3654713482" lon="16.9177456107"></trkpt><trkpt lat="52.3652050551" lon="16.9172451273"></trkpt><trkpt lat="52.364378348" lon="16.9171831012"></trkpt><trkpt lat="52.3640764318" lon="16.9170947559"></trkpt><trkpt lat="52.364025889" lon="16.9166397024"></trkpt><trkpt lat="52.3639226239" lon="16.9162283186"></trkpt><trkpt lat="52.3638823908" lon="16.9157667272"></trkpt><trkpt lat="52.3639083747" lon="16.9152728654"></trkpt><trkpt lat="52.3640889209" lon="16.9148490764"></trkpt><trkpt lat="52.364604827" lon="16.9141721539"></trkpt><trkpt lat="52.364853099" lon="16.9143710565"></trkpt><trkpt lat="52.3650609702" lon="16.9147294667"></trkpt><trkpt lat="52.3654488847" lon="16.9151670858"></trkpt><trkpt lat="52.3656893615" lon="16.9155917969"></trkpt><trkpt lat="52.3661991488" lon="16.9160799589"></trkpt><trkpt lat="52.3667533603" lon="16.9165091123"></trkpt><trkpt lat="52.3673178814" lon="16.9164800271"></trkpt><trkpt lat="52.3687946051" lon="16.9168309774"></trkpt><trkpt lat="52.3690857925" lon="16.9171962608"></trkpt><trkpt lat="52.3693434522" lon="16.917614853"></trkpt><trkpt lat="52.3696233239" lon="16.9179792982"></trkpt><trkpt lat="52.3695691768" lon="16.918460587"></trkpt><trkpt lat="52.3692695238" lon="16.9187016506"></trkpt><trkpt lat="52.3671394307" lon="16.920014089"></trkpt><trkpt lat="52.3666106164" lon="16.9195016194"></trkpt><trkpt lat="52.3660727497" lon="16.9188697916"></trkpt><trkpt lat="52.3659984022" lon="16.918361932"></trkpt><trkpt lat="52.3660797067" lon="16.9179068785"></trkpt><trkpt lat="52.366674738" lon="16.9171744678"></trkpt><trkpt lat="52.3669899814" lon="16.9166931789"></trkpt><trkpt lat="52.3662733287" lon="16.9161486905"></trkpt><trkpt lat="52.3657506332" lon="16.9156419206"></trkpt><trkpt lat="52.3654227331" lon="16.9150883798"></trkpt><trkpt lat="52.3651241697" lon="16.914737178"></trkpt><trkpt lat="52.3648955114" lon="16.9143165741"></trkpt><trkpt lat="52.3646352533" lon="16.9140537176"></trkpt><trkpt lat="52.3643470835" lon="16.9138427451"></trkpt><trkpt lat="52.3640671279" lon="16.9138087146"></trkpt><trkpt lat="52.3633827455" lon="16.9141119719"></trkpt><trkpt lat="52.3638675548" lon="16.914926609"></trkpt><trkpt lat="52.3638965562" lon="16.9154284336"></trkpt><trkpt lat="52.36389664" lon="16.9159111474"></trkpt><trkpt lat="52.3640204407" lon="16.9163752533"></trkpt><trkpt lat="52.3641457502" lon="16.9170017168"></trkpt><trkpt lat="52.364466358" lon="16.917053936"></trkpt><trkpt lat="52.3648915719" lon="16.9170558639"></trkpt><trkpt lat="52.3651906382" lon="16.9171580393"></trkpt><trkpt lat="52.3654210567" lon="16.9176819921"></trkpt><trkpt lat="52.3660509568" lon="16.9188596494"></trkpt><trkpt lat="52.366447337" lon="16.9193266891"></trkpt><trkpt lat="52.3675414268" lon="16.9208884053"></trkpt><trkpt lat="52.3677264154" lon="16.9214954227"></trkpt><trkpt lat="52.368435692" lon="16.9229888264"></trkpt><trkpt lat="52.3688046634" lon="16.9230630063"></trkpt><trkpt lat="52.3692561127" lon="16.9228294864"></trkpt><trkpt lat="52.3692121077" lon="16.9223719183"></trkpt><trkpt lat="52.3691914044" lon="16.9214235898"></trkpt><trkpt lat="52.3689654283" lon="16.9209027383"></trkpt><trkpt lat="52.3687967006" lon="16.9201254845"></trkpt><trkpt lat="52.3687602393" lon="16.9196406752"></trkpt><trkpt lat="52.3688120395" lon="16.9191417843"></trkpt><trkpt lat="52.3693110142" lon="16.918735262"></trkpt><trkpt lat="52.3696137685" lon="16.9183035102"></trkpt><trkpt lat="52.3694675043" lon="16.9177430961"></trkpt><trkpt lat="52.368990574" lon="16.9170376752"></trkpt><trkpt lat="52.3687373567" lon="16.9168018922"></trkpt><trkpt lat="52.3682802077" lon="16.9165889919"></trkpt><trkpt lat="52.3675990943" lon="16.916498635"></trkpt><trkpt lat="52.3658821452" lon="16.915789023"></trkpt><trkpt lat="52.3654823285" lon="16.915151244"></trkpt><trkpt lat="52.3652491439" lon="16.914909929"></trkpt><trkpt lat="52.3650330584" lon="16.9145414606"></trkpt><trkpt lat="52.3646605667" lon="16.9141330943"></trkpt><trkpt lat="52.3642256297" lon="16.9138095528"></trkpt><trkpt lat="52.3637802992" lon="16.9137974828"></trkpt><trkpt lat="52.3633928876" lon="16.9141124748"></trkpt><trkpt lat="52.3636538163" lon="16.9145697914"></trkpt><trkpt lat="52.3638902698" lon="16.9151467178"></trkpt><trkpt lat="52.3638689797" lon="16.9156510569"></trkpt><trkpt lat="52.3640169203" lon="16.9163789414"></trkpt><trkpt lat="52.3640771024" lon="16.916828379"></trkpt><trkpt lat="52.3644315731" lon="16.9170365855"></trkpt><trkpt lat="52.3649458028" lon="16.917053936"></trkpt><trkpt lat="52.3652530834" lon="16.9172375835"></trkpt><trkpt lat="52.3657331988" lon="16.9183725771"></trkpt><trkpt lat="52.3662174214" lon="16.9190529361"></trkpt><trkpt lat="52.3667109478" lon="16.9195894618"></trkpt><trkpt lat="52.3673405964" lon="16.9200955611"></trkpt><trkpt lat="52.3681497853" lon="16.9196006097"></trkpt><trkpt lat="52.3684351891" lon="16.9200878497"></trkpt><trkpt lat="52.3687716387" lon="16.9203070365"></trkpt><trkpt lat="52.3687796015" lon="16.9198130071"></trkpt><trkpt lat="52.3686534539" lon="16.9193617254"></trkpt><trkpt lat="52.3683309183" lon="16.9194721151"></trkpt><trkpt lat="52.3680291697" lon="16.9196450338"></trkpt><trkpt lat="52.3670953419" lon="16.9200057071"></trkpt><trkpt lat="52.3665999714" lon="16.9194877893"></trkpt><trkpt lat="52.3656859249" lon="16.9183120597"></trkpt><trkpt lat="52.3654645588" lon="16.9177785516"></trkpt><trkpt lat="52.3653216474" lon="16.9173472188"></trkpt><trkpt lat="52.3650350701" lon="16.9171764795"></trkpt><trkpt lat="52.3644289747" lon="16.9171542674"></trkpt><trkpt lat="52.364102751" lon="16.9170728792"></trkpt><trkpt lat="52.3640253022" lon="16.9166196696"></trkpt><trkpt lat="52.3639161699" lon="16.9161989819"></trkpt><trkpt lat="52.3638940416" lon="16.9156756997"></trkpt><trkpt lat="52.3633778002" lon="16.9143142272"></trkpt><trkpt lat="52.3635227233" lon="16.9138036855"></trkpt><trkpt lat="52.3638291657" lon="16.9137201179"></trkpt><trkpt lat="52.3641708959" lon="16.9136927091"></trkpt><trkpt lat="52.3644785956" lon="16.9138966408"></trkpt><trkpt lat="52.3647388536" lon="16.9141611736"></trkpt><trkpt lat="52.3650644068" lon="16.9146498386"></trkpt><trkpt lat="52.365348218" lon="16.9149670936"></trkpt><trkpt lat="52.3656012677" lon="16.9154460356"></trkpt><trkpt lat="52.3658124916" lon="16.9157276675"></trkpt><trkpt lat="52.366451025" lon="16.9162545539"></trkpt><trkpt lat="52.3670338187" lon="16.9165230263"></trkpt><trkpt lat="52.3675928079" lon="16.9164360221"></trkpt><trkpt lat="52.3688668571" lon="16.91687054"></trkpt><trkpt lat="52.3691069987" lon="16.917161895"></trkpt><trkpt lat="52.3694549315" lon="16.9176862668"></trkpt><trkpt lat="52.369680237" lon="16.918533342"></trkpt><trkpt lat="52.3699000943" lon="16.9188993797"></trkpt><trkpt lat="52.370224474" lon="16.9195484743"></trkpt><trkpt lat="52.3704615142" lon="16.9198313635"></trkpt><trkpt lat="52.3705539666" lon="16.9204241317"></trkpt><trkpt lat="52.3710806854" lon="16.9206767622"></trkpt><trkpt lat="52.3714591283" lon="16.9194733724"></trkpt><trkpt lat="52.3718477972" lon="16.9184838887"></trkpt><trkpt lat="52.3721181974" lon="16.9179777056"></trkpt><trkpt lat="52.372268904" lon="16.9175801519"></trkpt><trkpt lat="52.3725884221" lon="16.9172353204"></trkpt><trkpt lat="52.373142885" lon="16.9175944012"></trkpt><trkpt lat="52.3743093945" lon="16.9181549828"></trkpt><trkpt lat="52.3745789565" lon="16.9182353653"></trkpt><trkpt lat="52.3762746155" lon="16.9184804522"></trkpt><trkpt lat="52.3763121665" lon="16.9178638794"></trkpt><trkpt lat="52.3763979971" lon="16.9174085744"></trkpt><trkpt lat="52.3764270823" lon="16.9169106893"></trkpt><trkpt lat="52.37650319" lon="16.9162639417"></trkpt><trkpt lat="52.3764741886" lon="16.9158081338"></trkpt><trkpt lat="52.3765419982" lon="16.9151516631"></trkpt><trkpt lat="52.3769724928" lon="16.9125660136"></trkpt><trkpt lat="52.3774965294" lon="16.9129472226"></trkpt><trkpt lat="52.3806653079" lon="16.9159407355"></trkpt><trkpt lat="52.3806868494" lon="16.9163825456"></trkpt><trkpt lat="52.3810513783" lon="16.9161730818"></trkpt></trkseg><trkseg><trkpt lat="52.3781334702" lon="16.9133008551"></trkpt><trkpt lat="52.3774648458" lon="16.9128764793"></trkpt><trkpt lat="52.3767756857" lon="16.9125527702"></trkpt><trkpt lat="52.376729669" lon="16.9130833447"></trkpt><trkpt lat="52.3757224157" lon="16.9186734874"></trkpt><trkpt lat="52.3750852235" lon="16.918434184"></trkpt><trkpt lat="52.3722436745" lon="16.9178012665"></trkpt><trkpt lat="52.3719391599" lon="16.9183040969"></trkpt><trkpt lat="52.3717044666" lon="16.9188935123"></trkpt><trkpt lat="52.3714066576" lon="16.9199244026"></trkpt><trkpt lat="52.3706496041" lon="16.9216266833"></trkpt><trkpt lat="52.3702787049" lon="16.9219238218"></trkpt><trkpt lat="52.3698434327" lon="16.9225150812"></trkpt><trkpt lat="52.3696670774" lon="16.9229943585"></trkpt><trkpt lat="52.3695644829" lon="16.9236387592"></trkpt><trkpt lat="52.3694939073" lon="16.9260628056"></trkpt><trkpt lat="52.3697829992" lon="16.9263649732"></trkpt><trkpt lat="52.3700821493" lon="16.9266148377"></trkpt><trkpt lat="52.3703514598" lon="16.9264995027"></trkpt><trkpt lat="52.3710633349" lon="16.9269249681"></trkpt><trkpt lat="52.3735922389" lon="16.9279547688"></trkpt><trkpt lat="52.3740125075" lon="16.927658217"></trkpt><trkpt lat="52.374483319" lon="16.9274853822"></trkpt><trkpt lat="52.3746566568" lon="16.9266973995"></trkpt><trkpt lat="52.3749162443" lon="16.926180739"></trkpt><trkpt lat="52.3752758279" lon="16.9262002688"></trkpt><trkpt lat="52.3754927516" lon="16.9265819807"></trkpt><trkpt lat="52.3773270473" lon="16.9291576557"></trkpt><trkpt lat="52.3772065155" lon="16.9295909163"></trkpt><trkpt lat="52.376943659" lon="16.9298080914"></trkpt><trkpt lat="52.3764308542" lon="16.9299493264"></trkpt><trkpt lat="52.3760120943" lon="16.9297264516"></trkpt><trkpt lat="52.3755960166" lon="16.9296623301"></trkpt><trkpt lat="52.3724652082" lon="16.9287052844"></trkpt><trkpt lat="52.3721071333" lon="16.9285279233"></trkpt><trkpt lat="52.3717530817" lon="16.9284926355"></trkpt><trkpt lat="52.3714203201" lon="16.928322399"></trkpt><trkpt lat="52.3707504384" lon="16.9283279311"></trkpt><trkpt lat="52.3704896774" lon="16.9281551801"></trkpt><trkpt lat="52.370153144" lon="16.9280193094"></trkpt><trkpt lat="52.3698580172" lon="16.9277854543"></trkpt><trkpt lat="52.369705718" lon="16.9273979589"></trkpt><trkpt lat="52.3695713561" lon="16.9267626107"></trkpt><trkpt lat="52.3694990203" lon="16.9262667373"></trkpt><trkpt lat="52.3693442065" lon="16.9258177187"></trkpt><trkpt lat="52.3692931607" lon="16.9253670238"></trkpt><trkpt lat="52.3694027122" lon="16.9243232254"></trkpt><trkpt lat="52.3695713561" lon="16.9235318061"></trkpt><trkpt lat="52.3696005251" lon="16.9230792671"></trkpt><trkpt lat="52.3692938313" lon="16.9229844678"></trkpt><trkpt lat="52.3686340917" lon="16.9230785128"></trkpt><trkpt lat="52.3681842349" lon="16.9228553027"></trkpt><trkpt lat="52.36795214" lon="16.9224004168"></trkpt><trkpt lat="52.3678299319" lon="16.9218697585"></trkpt><trkpt lat="52.3674576078" lon="16.9206052646"></trkpt><trkpt lat="52.3672659136" lon="16.9202504586"></trkpt><trkpt lat="52.3668532725" lon="16.9198123366"></trkpt><trkpt lat="52.3656049557" lon="16.9181095529"></trkpt><trkpt lat="52.3654124234" lon="16.9177229796"></trkpt><trkpt lat="52.3652089946" lon="16.9172198139"></trkpt><trkpt lat="52.3649154603" lon="16.9171836879"></trkpt><trkpt lat="52.3640320078" lon="16.9169241004"></trkpt><trkpt lat="52.3638842348" lon="16.9161801226"></trkpt><trkpt lat="52.3638745956" lon="16.9153429382"></trkpt><trkpt lat="52.3635834921" lon="16.9145927578"></trkpt><trkpt lat="52.3632595316" lon="16.9141453318"></trkpt><trkpt lat="52.3636402376" lon="16.9137103111"></trkpt><trkpt lat="52.3639341909" lon="16.9136922061"></trkpt><trkpt lat="52.3644562159" lon="16.9139620196"></trkpt><trkpt lat="52.3647296336" lon="16.9149294589"></trkpt><trkpt lat="52.3664679565" lon="16.9193231687"></trkpt><trkpt lat="52.3669797555" lon="16.9199003465"></trkpt><trkpt lat="52.3672531731" lon="16.9201162644"></trkpt><trkpt lat="52.3694986012" lon="16.9178539887"></trkpt><trkpt lat="52.3691254389" lon="16.9172628131"></trkpt><trkpt lat="52.368756216" lon="16.9168374315"></trkpt><trkpt lat="52.368364362" lon="16.9166430552"></trkpt><trkpt lat="52.3678396549" lon="16.9165595714"></trkpt><trkpt lat="52.3668760713" lon="16.9165643491"></trkpt><trkpt lat="52.3665921763" lon="16.916370308"></trkpt><trkpt lat="52.3657299299" lon="16.9156252407"></trkpt><trkpt lat="52.3655414209" lon="16.9152578618"></trkpt><trkpt lat="52.3651528358" lon="16.9147991203"></trkpt><trkpt lat="52.364831306" lon="16.9143278059"></trkpt><trkpt lat="52.3645337485" lon="16.9137819763"></trkpt><trkpt lat="52.3647223413" lon="16.914156815"></trkpt><trkpt lat="52.3649706133" lon="16.9144610781"></trkpt><trkpt lat="52.3657044489" lon="16.9155872706"></trkpt><trkpt lat="52.3661065288" lon="16.9159725029"></trkpt><trkpt lat="52.3668385204" lon="16.9165240321"></trkpt></trkseg></trk></gpx>