<?xml version="1.0" encoding="UTF-8" standalone="no" ?><gpx xmlns="http://www.topografix.com/GPX/1/1" xmlns:gpxx="http://www.garmin.com/xmlschemas/GpxExtensions/v3" ><trk><trkseg><trkpt lat="52.838258" lon="15.826348"></trkpt><trkpt lat="52.838518" lon="15.826869"></trkpt><trkpt lat="52.838854" lon="15.827139"></trkpt><trkpt lat="52.839083" lon="15.827361"></trkpt><trkpt lat="52.839549" lon="15.827534"></trkpt><trkpt lat="52.839753" lon="15.827664"></trkpt><trkpt lat="52.83972" lon="15.827998"></trkpt><trkpt lat="52.83971" lon="15.828814"></trkpt><trkpt lat="52.839554" lon="15.830234"></trkpt><trkpt lat="52.839446" lon="15.830575"></trkpt><trkpt lat="52.839457" lon="15.831102"></trkpt><trkpt lat="52.83961" lon="15.831358"></trkpt><trkpt lat="52.840252" lon="15.83128"></trkpt><trkpt lat="52.842313" lon="15.831276"></trkpt><trkpt lat="52.842603" lon="15.831491"></trkpt><trkpt lat="52.842837" lon="15.831576"></trkpt><trkpt lat="52.844461" lon="15.832448"></trkpt><trkpt lat="52.845004" lon="15.83288"></trkpt><trkpt lat="52.850477" lon="15.837189"></trkpt><trkpt lat="52.850717" lon="15.837332"></trkpt><trkpt lat="52.850967" lon="15.837557"></trkpt><trkpt lat="52.851515" lon="15.837942"></trkpt><trkpt lat="52.852712" lon="15.83856"></trkpt><trkpt lat="52.853303" lon="15.838504"></trkpt><trkpt lat="52.854201" lon="15.838218"></trkpt><trkpt lat="52.854462" lon="15.837888"></trkpt><trkpt lat="52.854908" lon="15.837439"></trkpt><trkpt lat="52.855193" lon="15.837287"></trkpt><trkpt lat="52.855484" lon="15.837092"></trkpt><trkpt lat="52.856108" lon="15.836575"></trkpt><trkpt lat="52.859064" lon="15.833286"></trkpt><trkpt lat="52.859179" lon="15.832995"></trkpt><trkpt lat="52.85952" lon="15.8323"></trkpt><trkpt lat="52.85997" lon="15.831519"></trkpt><trkpt lat="52.860624" lon="15.830205"></trkpt><trkpt lat="52.860837" lon="15.829929"></trkpt><trkpt lat="52.861127" lon="15.829722"></trkpt><trkpt lat="52.861687" lon="15.829432"></trkpt><trkpt lat="52.862118" lon="15.829371"></trkpt><trkpt lat="52.862413" lon="15.829451"></trkpt><trkpt lat="52.863399" lon="15.829542"></trkpt><trkpt lat="52.8694" lon="15.829139"></trkpt><trkpt lat="52.870211" lon="15.829395"></trkpt><trkpt lat="52.870487" lon="15.829573"></trkpt><trkpt lat="52.870816" lon="15.829837"></trkpt><trkpt lat="52.871124" lon="15.829859"></trkpt><trkpt lat="52.877151" lon="15.829787"></trkpt><trkpt lat="52.877242" lon="15.830194"></trkpt><trkpt lat="52.877268" lon="15.830552"></trkpt><trkpt lat="52.877478" lon="15.831217"></trkpt><trkpt lat="52.877902" lon="15.831898"></trkpt><trkpt lat="52.878085" lon="15.832496"></trkpt><trkpt lat="52.878509" lon="15.833536"></trkpt><trkpt lat="52.878657" lon="15.833829"></trkpt><trkpt lat="52.878957" lon="15.83417"></trkpt><trkpt lat="52.879113" lon="15.834441"></trkpt><trkpt lat="52.879197" lon="15.834881"></trkpt><trkpt lat="52.879221" lon="15.835266"></trkpt><trkpt lat="52.879282" lon="15.835588"></trkpt><trkpt lat="52.879473" lon="15.835737"></trkpt><trkpt lat="52.879764" lon="15.836064"></trkpt><trkpt lat="52.880383" lon="15.8372"></trkpt><trkpt lat="52.880457" lon="15.837623"></trkpt><trkpt lat="52.880493" lon="15.838004"></trkpt><trkpt lat="52.880497" lon="15.83853"></trkpt><trkpt lat="52.880616" lon="15.838974"></trkpt><trkpt lat="52.881353" lon="15.841077"></trkpt><trkpt lat="52.880713" lon="15.840505"></trkpt><trkpt lat="52.880925" lon="15.840873"></trkpt><trkpt lat="52.881372" lon="15.841829"></trkpt><trkpt lat="52.881465" lon="15.842129"></trkpt><trkpt lat="52.881573" lon="15.842406"></trkpt><trkpt lat="52.881683" lon="15.842775"></trkpt><trkpt lat="52.88185" lon="15.843115"></trkpt><trkpt lat="52.881919" lon="15.843942"></trkpt><trkpt lat="52.881864" lon="15.844707"></trkpt><trkpt lat="52.88167" lon="15.845222"></trkpt><trkpt lat="52.881479" lon="15.845452"></trkpt><trkpt lat="52.881209" lon="15.845592"></trkpt><trkpt lat="52.880964" lon="15.845959"></trkpt><trkpt lat="52.880775" lon="15.84631"></trkpt><trkpt lat="52.880576" lon="15.846959"></trkpt><trkpt lat="52.880477" lon="15.847488"></trkpt><trkpt lat="52.880355" lon="15.847891"></trkpt><trkpt lat="52.879942" lon="15.84861"></trkpt><trkpt lat="52.879585" lon="15.849559"></trkpt><trkpt lat="52.879485" lon="15.84998"></trkpt><trkpt lat="52.879334" lon="15.850397"></trkpt><trkpt lat="52.879038" lon="15.851441"></trkpt><trkpt lat="52.87848" lon="15.853046"></trkpt><trkpt lat="52.878147" lon="15.853141"></trkpt><trkpt lat="52.877893" lon="15.85313"></trkpt><trkpt lat="52.877072" lon="15.852922"></trkpt><trkpt lat="52.876413" lon="15.85295"></trkpt><trkpt lat="52.876274" lon="15.85334"></trkpt><trkpt lat="52.876219" lon="15.853777"></trkpt><trkpt lat="52.876142" lon="15.854189"></trkpt><trkpt lat="52.875765" lon="15.856899"></trkpt><trkpt lat="52.875577" lon="15.85889"></trkpt><trkpt lat="52.875406" lon="15.860064"></trkpt><trkpt lat="52.875671" lon="15.860406"></trkpt><trkpt lat="52.875998" lon="15.860482"></trkpt><trkpt lat="52.878886" lon="15.860748"></trkpt><trkpt lat="52.879889" lon="15.860532"></trkpt><trkpt lat="52.880407" lon="15.860237"></trkpt><trkpt lat="52.881742" lon="15.859909"></trkpt><trkpt lat="52.882028" lon="15.859883"></trkpt><trkpt lat="52.882237" lon="15.86001"></trkpt><trkpt lat="52.882408" lon="15.860189"></trkpt><trkpt lat="52.882535" lon="15.860455"></trkpt><trkpt lat="52.882696" lon="15.860955"></trkpt><trkpt lat="52.882993" lon="15.861619"></trkpt><trkpt lat="52.883234" lon="15.862031"></trkpt><trkpt lat="52.884242" lon="15.863104"></trkpt><trkpt lat="52.884623" lon="15.862886"></trkpt><trkpt lat="52.884969" lon="15.862764"></trkpt><trkpt lat="52.885352" lon="15.862581"></trkpt><trkpt lat="52.886481" lon="15.861736"></trkpt><trkpt lat="52.886717" lon="15.861594"></trkpt><trkpt lat="52.88708" lon="15.861254"></trkpt><trkpt lat="52.887048" lon="15.860903"></trkpt><trkpt lat="52.887319" lon="15.860578"></trkpt><trkpt lat="52.887525" lon="15.860627"></trkpt><trkpt lat="52.887964" lon="15.860848"></trkpt><trkpt lat="52.888202" lon="15.860924"></trkpt><trkpt lat="52.88856" lon="15.860865"></trkpt><trkpt lat="52.889109" lon="15.860612"></trkpt><trkpt lat="52.889412" lon="15.860559"></trkpt><trkpt lat="52.889561" lon="15.860855"></trkpt><trkpt lat="52.889435" lon="15.861185"></trkpt><trkpt lat="52.889032" lon="15.861818"></trkpt><trkpt lat="52.888638" lon="15.862221"></trkpt><trkpt lat="52.888377" lon="15.86236"></trkpt><trkpt lat="52.888136" lon="15.862356"></trkpt><trkpt lat="52.887879" lon="15.862321"></trkpt><trkpt lat="52.887653" lon="15.862262"></trkpt><trkpt lat="52.887455" lon="15.862347"></trkpt><trkpt lat="52.887264" lon="15.862569"></trkpt><trkpt lat="52.887094" lon="15.862833"></trkpt><trkpt lat="52.886816" lon="15.86354"></trkpt><trkpt lat="52.886658" lon="15.863868"></trkpt><trkpt lat="52.886483" lon="15.864024"></trkpt><trkpt lat="52.885955" lon="15.864015"></trkpt><trkpt lat="52.885764" lon="15.863737"></trkpt><trkpt lat="52.885536" lon="15.863464"></trkpt><trkpt lat="52.884892" lon="15.862835"></trkpt><trkpt lat="52.884406" lon="15.863078"></trkpt><trkpt lat="52.884031" lon="15.863187"></trkpt><trkpt lat="52.883827" lon="15.863069"></trkpt><trkpt lat="52.883182" lon="15.8619"></trkpt><trkpt lat="52.882648" lon="15.860509"></trkpt><trkpt lat="52.882451" lon="15.860075"></trkpt><trkpt lat="52.882222" lon="15.859952"></trkpt><trkpt lat="52.881555" lon="15.859989"></trkpt><trkpt lat="52.880945" lon="15.8601"></trkpt><trkpt lat="52.880732" lon="15.86023"></trkpt><trkpt lat="52.879356" lon="15.860731"></trkpt><trkpt lat="52.878817" lon="15.860781"></trkpt><trkpt lat="52.873144" lon="15.859531"></trkpt><trkpt lat="52.872481" lon="15.859175"></trkpt><trkpt lat="52.871798" lon="15.858652"></trkpt><trkpt lat="52.866164" lon="15.853693"></trkpt><trkpt lat="52.865599" lon="15.853048"></trkpt><trkpt lat="52.860626" lon="15.847613"></trkpt><trkpt lat="52.859723" lon="15.84677"></trkpt><trkpt lat="52.859472" lon="15.846802"></trkpt><trkpt lat="52.85882" lon="15.846988"></trkpt><trkpt lat="52.857663" lon="15.846942"></trkpt><trkpt lat="52.857257" lon="15.846452"></trkpt><trkpt lat="52.857151" lon="15.846171"></trkpt><trkpt lat="52.856103" lon="15.84422"></trkpt><trkpt lat="52.85545" lon="15.843432"></trkpt><trkpt lat="52.854646" lon="15.842613"></trkpt><trkpt lat="52.854148" lon="15.841869"></trkpt><trkpt lat="52.8533" lon="15.840804"></trkpt><trkpt lat="52.85271" lon="15.84048"></trkpt><trkpt lat="52.852274" lon="15.84015"></trkpt><trkpt lat="52.852178" lon="15.839808"></trkpt><trkpt lat="52.852115" lon="15.839433"></trkpt><trkpt lat="52.852137" lon="15.839075"></trkpt><trkpt lat="52.852275" lon="15.838531"></trkpt><trkpt lat="52.851547" lon="15.837976"></trkpt><trkpt lat="52.846151" lon="15.833796"></trkpt><trkpt lat="52.841947" lon="15.831146"></trkpt><trkpt lat="52.841269" lon="15.831144"></trkpt><trkpt lat="52.839689" lon="15.830939"></trkpt><trkpt lat="52.839705" lon="15.829891"></trkpt><trkpt lat="52.839672" lon="15.828948"></trkpt><trkpt lat="52.839677" lon="15.828616"></trkpt><trkpt lat="52.839587" lon="15.82827"></trkpt><trkpt lat="52.839308" lon="15.827406"></trkpt><trkpt lat="52.838688" lon="15.826959"></trkpt><trkpt lat="52.838282" lon="15.826311"></trkpt></trkseg></trk></gpx>