<?xml version="1.0" encoding="UTF-8" standalone="no" ?><gpx xmlns="http://www.topografix.com/GPX/1/1" xmlns:gpxx="http://www.garmin.com/xmlschemas/GpxExtensions/v3" ><trk><trkseg><trkpt lat="52.215407" lon="16.920577"></trkpt><trkpt lat="52.215297" lon="16.920157"></trkpt><trkpt lat="52.215529" lon="16.919835"></trkpt><trkpt lat="52.215869" lon="16.919561"></trkpt><trkpt lat="52.216211" lon="16.919372"></trkpt><trkpt lat="52.216645" lon="16.91905"></trkpt><trkpt lat="52.216926" lon="16.91877"></trkpt><trkpt lat="52.21672" lon="16.919061"></trkpt><trkpt lat="52.216488" lon="16.919294"></trkpt><trkpt lat="52.216188" lon="16.919442"></trkpt><trkpt lat="52.215665" lon="16.919785"></trkpt><trkpt lat="52.215345" lon="16.920179"></trkpt></trkseg><trkseg><trkpt lat="52.212549" lon="16.95698"></trkpt><trkpt lat="52.212763" lon="16.95733"></trkpt><trkpt lat="52.212725" lon="16.957861"></trkpt><trkpt lat="52.21259" lon="16.958329"></trkpt><trkpt lat="52.212446" lon="16.958732"></trkpt><trkpt lat="52.212349" lon="16.959219"></trkpt><trkpt lat="52.212421" lon="16.95874"></trkpt><trkpt lat="52.212319" lon="16.95915"></trkpt><trkpt lat="52.21212" lon="16.960226"></trkpt><trkpt lat="52.212138" lon="16.959128"></trkpt></trkseg></trk></gpx>