<?xml version="1.0" encoding="UTF-8" standalone="no" ?><gpx xmlns="http://www.topografix.com/GPX/1/1" xmlns:gpxx="http://www.garmin.com/xmlschemas/GpxExtensions/v3" ><trk><trkseg><trkpt lat="52.819488" lon="15.545985"></trkpt><trkpt lat="52.819704" lon="15.545761"></trkpt><trkpt lat="52.820084" lon="15.546336"></trkpt><trkpt lat="52.820416" lon="15.546995"></trkpt><trkpt lat="52.820661" lon="15.547204"></trkpt><trkpt lat="52.821738" lon="15.548468"></trkpt><trkpt lat="52.822105" lon="15.549112"></trkpt><trkpt lat="52.822392" lon="15.550156"></trkpt><trkpt lat="52.822207" lon="15.550853"></trkpt><trkpt lat="52.82208" lon="15.551243"></trkpt><trkpt lat="52.821842" lon="15.552127"></trkpt><trkpt lat="52.821745" lon="15.552574"></trkpt><trkpt lat="52.821601" lon="15.55304"></trkpt><trkpt lat="52.821324" lon="15.553037"></trkpt><trkpt lat="52.820716" lon="15.552877"></trkpt><trkpt lat="52.818558" lon="15.552591"></trkpt><trkpt lat="52.818126" lon="15.552862"></trkpt><trkpt lat="52.81672" lon="15.554036"></trkpt><trkpt lat="52.81608" lon="15.554686"></trkpt><trkpt lat="52.81336" lon="15.558024"></trkpt><trkpt lat="52.813196" lon="15.558265"></trkpt><trkpt lat="52.811662" lon="15.559895"></trkpt><trkpt lat="52.810872" lon="15.560237"></trkpt><trkpt lat="52.809537" lon="15.561019"></trkpt><trkpt lat="52.808931" lon="15.561562"></trkpt><trkpt lat="52.797544" lon="15.571943"></trkpt><trkpt lat="52.797191" lon="15.572213"></trkpt><trkpt lat="52.796983" lon="15.572342"></trkpt><trkpt lat="52.795794" lon="15.572808"></trkpt><trkpt lat="52.795575" lon="15.572826"></trkpt><trkpt lat="52.787491" lon="15.571197"></trkpt><trkpt lat="52.787205" lon="15.571063"></trkpt><trkpt lat="52.78683" lon="15.570965"></trkpt><trkpt lat="52.786341" lon="15.570762"></trkpt><trkpt lat="52.777571" lon="15.568182"></trkpt><trkpt lat="52.777365" lon="15.568086"></trkpt><trkpt lat="52.768744" lon="15.565276"></trkpt><trkpt lat="52.768353" lon="15.565457"></trkpt><trkpt lat="52.76732" lon="15.565778"></trkpt><trkpt lat="52.766562" lon="15.565378"></trkpt><trkpt lat="52.765826" lon="15.564876"></trkpt><trkpt lat="52.765049" lon="15.56455"></trkpt><trkpt lat="52.764939" lon="15.564997"></trkpt><trkpt lat="52.764855" lon="15.565538"></trkpt><trkpt lat="52.764663" lon="15.565844"></trkpt><trkpt lat="52.764593" lon="15.566324"></trkpt><trkpt lat="52.764227" lon="15.566827"></trkpt><trkpt lat="52.764428" lon="15.566748"></trkpt><trkpt lat="52.764594" lon="15.566173"></trkpt><trkpt lat="52.764657" lon="15.565818"></trkpt><trkpt lat="52.764849" lon="15.565526"></trkpt><trkpt lat="52.764922" lon="15.565146"></trkpt><trkpt lat="52.765284" lon="15.564501"></trkpt><trkpt lat="52.765595" lon="15.564715"></trkpt><trkpt lat="52.767488" lon="15.565729"></trkpt><trkpt lat="52.768113" lon="15.565495"></trkpt><trkpt lat="52.771047" lon="15.564801"></trkpt><trkpt lat="52.771575" lon="15.565054"></trkpt><trkpt lat="52.776939" lon="15.569066"></trkpt><trkpt lat="52.776781" lon="15.569276"></trkpt><trkpt lat="52.776548" lon="15.569534"></trkpt><trkpt lat="52.776206" lon="15.570351"></trkpt><trkpt lat="52.776267" lon="15.571186"></trkpt><trkpt lat="52.776225" lon="15.571531"></trkpt><trkpt lat="52.776159" lon="15.571898"></trkpt><trkpt lat="52.776028" lon="15.57318"></trkpt><trkpt lat="52.776044" lon="15.573767"></trkpt><trkpt lat="52.776182" lon="15.574328"></trkpt><trkpt lat="52.776272" lon="15.574822"></trkpt><trkpt lat="52.776194" lon="15.575759"></trkpt><trkpt lat="52.776005" lon="15.576551"></trkpt><trkpt lat="52.775975" lon="15.577226"></trkpt><trkpt lat="52.776216" lon="15.577905"></trkpt><trkpt lat="52.777187" lon="15.579942"></trkpt><trkpt lat="52.777428" lon="15.580666"></trkpt><trkpt lat="52.783909" lon="15.600208"></trkpt><trkpt lat="52.78414" lon="15.601336"></trkpt><trkpt lat="52.785084" lon="15.604518"></trkpt><trkpt lat="52.785336" lon="15.604862"></trkpt><trkpt lat="52.791946" lon="15.615334"></trkpt><trkpt lat="52.792124" lon="15.616511"></trkpt><trkpt lat="52.792512" lon="15.617959"></trkpt><trkpt lat="52.792915" lon="15.618933"></trkpt><trkpt lat="52.79361" lon="15.620896"></trkpt><trkpt lat="52.793773" lon="15.621509"></trkpt><trkpt lat="52.794062" lon="15.622928"></trkpt><trkpt lat="52.79397" lon="15.623863"></trkpt><trkpt lat="52.793019" lon="15.630281"></trkpt><trkpt lat="52.792703" lon="15.631196"></trkpt><trkpt lat="52.78984" lon="15.641613"></trkpt><trkpt lat="52.789778" lon="15.641969"></trkpt><trkpt lat="52.789651" lon="15.642231"></trkpt><trkpt lat="52.789355" lon="15.642725"></trkpt><trkpt lat="52.789113" lon="15.643215"></trkpt><trkpt lat="52.789033" lon="15.644251"></trkpt><trkpt lat="52.789182" lon="15.645308"></trkpt><trkpt lat="52.789315" lon="15.645597"></trkpt><trkpt lat="52.789653" lon="15.646049"></trkpt><trkpt lat="52.789949" lon="15.647237"></trkpt><trkpt lat="52.790043" lon="15.647775"></trkpt><trkpt lat="52.790174" lon="15.648326"></trkpt><trkpt lat="52.790365" lon="15.648575"></trkpt><trkpt lat="52.791061" lon="15.648831"></trkpt><trkpt lat="52.791332" lon="15.649109"></trkpt><trkpt lat="52.791573" lon="15.649514"></trkpt><trkpt lat="52.793524" lon="15.652353"></trkpt><trkpt lat="52.793885" lon="15.652983"></trkpt><trkpt lat="52.794256" lon="15.653455"></trkpt><trkpt lat="52.794407" lon="15.653831"></trkpt><trkpt lat="52.794451" lon="15.654492"></trkpt><trkpt lat="52.794462" lon="15.65591"></trkpt><trkpt lat="52.794236" lon="15.656721"></trkpt><trkpt lat="52.794164" lon="15.657436"></trkpt><trkpt lat="52.79419" lon="15.658515"></trkpt><trkpt lat="52.794232" lon="15.659052"></trkpt><trkpt lat="52.794248" lon="15.659835"></trkpt><trkpt lat="52.794414" lon="15.661802"></trkpt><trkpt lat="52.794544" lon="15.662573"></trkpt><trkpt lat="52.794834" lon="15.664963"></trkpt><trkpt lat="52.794753" lon="15.665266"></trkpt><trkpt lat="52.794016" lon="15.666199"></trkpt><trkpt lat="52.792903" lon="15.667862"></trkpt><trkpt lat="52.792816" lon="15.66818"></trkpt><trkpt lat="52.792757" lon="15.668499"></trkpt><trkpt lat="52.792472" lon="15.670596"></trkpt><trkpt lat="52.792267" lon="15.673173"></trkpt><trkpt lat="52.792544" lon="15.674211"></trkpt><trkpt lat="52.792544" lon="15.674616"></trkpt><trkpt lat="52.792477" lon="15.67495"></trkpt><trkpt lat="52.792367" lon="15.675711"></trkpt><trkpt lat="52.79242" lon="15.676054"></trkpt><trkpt lat="52.792692" lon="15.676751"></trkpt><trkpt lat="52.793782" lon="15.678904"></trkpt><trkpt lat="52.793985" lon="15.679104"></trkpt><trkpt lat="52.794785" lon="15.680078"></trkpt><trkpt lat="52.794899" lon="15.680355"></trkpt><trkpt lat="52.794959" lon="15.680668"></trkpt><trkpt lat="52.794953" lon="15.681571"></trkpt><trkpt lat="52.795013" lon="15.682626"></trkpt><trkpt lat="52.795272" lon="15.683186"></trkpt><trkpt lat="52.795694" lon="15.683935"></trkpt><trkpt lat="52.796905" lon="15.686781"></trkpt><trkpt lat="52.797133" lon="15.686905"></trkpt><trkpt lat="52.802938" lon="15.682926"></trkpt><trkpt lat="52.803333" lon="15.682024"></trkpt><trkpt lat="52.805609" lon="15.677603"></trkpt><trkpt lat="52.805857" lon="15.677262"></trkpt><trkpt lat="52.806324" lon="15.67695"></trkpt><trkpt lat="52.80662" lon="15.676792"></trkpt><trkpt lat="52.806949" lon="15.676348"></trkpt><trkpt lat="52.807346" lon="15.675678"></trkpt><trkpt lat="52.807505" lon="15.675461"></trkpt><trkpt lat="52.807917" lon="15.674983"></trkpt><trkpt lat="52.808452" lon="15.674471"></trkpt><trkpt lat="52.808638" lon="15.674338"></trkpt><trkpt lat="52.809314" lon="15.674011"></trkpt><trkpt lat="52.809543" lon="15.673939"></trkpt><trkpt lat="52.809622" lon="15.674495"></trkpt><trkpt lat="52.809639" lon="15.675082"></trkpt><trkpt lat="52.809545" lon="15.677764"></trkpt><trkpt lat="52.80962" lon="15.67715"></trkpt><trkpt lat="52.809561" lon="15.677488"></trkpt><trkpt lat="52.809517" lon="15.678193"></trkpt><trkpt lat="52.809459" lon="15.681946"></trkpt><trkpt lat="52.80939" lon="15.681587"></trkpt><trkpt lat="52.80945" lon="15.681916"></trkpt><trkpt lat="52.809483" lon="15.682488"></trkpt><trkpt lat="52.809469" lon="15.692746"></trkpt><trkpt lat="52.809314" lon="15.694094"></trkpt><trkpt lat="52.809287" lon="15.695049"></trkpt><trkpt lat="52.809349" lon="15.696236"></trkpt><trkpt lat="52.809474" lon="15.697297"></trkpt><trkpt lat="52.809794" lon="15.698099"></trkpt><trkpt lat="52.813948" lon="15.706879"></trkpt><trkpt lat="52.814376" lon="15.70805"></trkpt><trkpt lat="52.815169" lon="15.709905"></trkpt><trkpt lat="52.822914" lon="15.72553"></trkpt><trkpt lat="52.823352" lon="15.726288"></trkpt><trkpt lat="52.830092" lon="15.740004"></trkpt><trkpt lat="52.83011" lon="15.740533"></trkpt><trkpt lat="52.829895" lon="15.740628"></trkpt><trkpt lat="52.829595" lon="15.740645"></trkpt><trkpt lat="52.828663" lon="15.740464"></trkpt><trkpt lat="52.825203" lon="15.741779"></trkpt><trkpt lat="52.825074" lon="15.742104"></trkpt><trkpt lat="52.824971" lon="15.742441"></trkpt><trkpt lat="52.8248" lon="15.742691"></trkpt><trkpt lat="52.824535" lon="15.74281"></trkpt><trkpt lat="52.824326" lon="15.743044"></trkpt><trkpt lat="52.824122" lon="15.743336"></trkpt><trkpt lat="52.823527" lon="15.743986"></trkpt><trkpt lat="52.82313" lon="15.744239"></trkpt><trkpt lat="52.821999" lon="15.744791"></trkpt><trkpt lat="52.821514" lon="15.744911"></trkpt><trkpt lat="52.821189" lon="15.745156"></trkpt><trkpt lat="52.820864" lon="15.745512"></trkpt><trkpt lat="52.820583" lon="15.745893"></trkpt><trkpt lat="52.819995" lon="15.745927"></trkpt><trkpt lat="52.819389" lon="15.746087"></trkpt><trkpt lat="52.818831" lon="15.746447"></trkpt><trkpt lat="52.81831" lon="15.746663"></trkpt><trkpt lat="52.818056" lon="15.746698"></trkpt><trkpt lat="52.817809" lon="15.746615"></trkpt><trkpt lat="52.817458" lon="15.746686"></trkpt><trkpt lat="52.817033" lon="15.746844"></trkpt><trkpt lat="52.815501" lon="15.747649"></trkpt><trkpt lat="52.815122" lon="15.748479"></trkpt><trkpt lat="52.813126" lon="15.752193"></trkpt><trkpt lat="52.812537" lon="15.753135"></trkpt><trkpt lat="52.812191" lon="15.753803"></trkpt><trkpt lat="52.811957" lon="15.754163"></trkpt><trkpt lat="52.811838" lon="15.754576"></trkpt><trkpt lat="52.811022" lon="15.758015"></trkpt><trkpt lat="52.809873" lon="15.764681"></trkpt><trkpt lat="52.810017" lon="15.765559"></trkpt><trkpt lat="52.813303" lon="15.78694"></trkpt><trkpt lat="52.816834" lon="15.80448"></trkpt><trkpt lat="52.817184" lon="15.805276"></trkpt><trkpt lat="52.824789" lon="15.822767"></trkpt><trkpt lat="52.825274" lon="15.823529"></trkpt><trkpt lat="52.825644" lon="15.824336"></trkpt><trkpt lat="52.82779" lon="15.828119"></trkpt><trkpt lat="52.82797" lon="15.828276"></trkpt><trkpt lat="52.828686" lon="15.828128"></trkpt><trkpt lat="52.829332" lon="15.828153"></trkpt><trkpt lat="52.835602" lon="15.829132"></trkpt><trkpt lat="52.835894" lon="15.828625"></trkpt><trkpt lat="52.836057" lon="15.828291"></trkpt><trkpt lat="52.836201" lon="15.827691"></trkpt><trkpt lat="52.836802" lon="15.825714"></trkpt><trkpt lat="52.837293" lon="15.825964"></trkpt><trkpt lat="52.837936" lon="15.826406"></trkpt><trkpt lat="52.83821" lon="15.826465"></trkpt><trkpt lat="52.838401" lon="15.82604"></trkpt></trkseg></trk></gpx>