<?xml version="1.0" encoding="UTF-8" standalone="no" ?><gpx xmlns="http://www.topografix.com/GPX/1/1" xmlns:gpxx="http://www.garmin.com/xmlschemas/GpxExtensions/v3" ><trk><trkseg><trkpt lat="52.3933524918" lon="17.2242226079"></trkpt><trkpt lat="52.3940835614" lon="17.2275955696"></trkpt><trkpt lat="52.3938542325" lon="17.2258039378"></trkpt><trkpt lat="52.3945737351" lon="17.225513421"></trkpt><trkpt lat="52.4014788307" lon="17.2263920121"></trkpt><trkpt lat="52.4021676555" lon="17.2259371262"></trkpt><trkpt lat="52.4028950371" lon="17.2258978989"></trkpt><trkpt lat="52.4034458119" lon="17.2268993687"></trkpt><trkpt lat="52.4064711761" lon="17.2308484185"></trkpt><trkpt lat="52.4071180075" lon="17.2313719522"></trkpt><trkpt lat="52.4145088345" lon="17.2398126964"></trkpt><trkpt lat="52.4150979985" lon="17.2409863304"></trkpt><trkpt lat="52.4160531163" lon="17.2423643153"></trkpt><trkpt lat="52.4177999049" lon="17.2441727947"></trkpt><trkpt lat="52.4193997588" lon="17.246521404"></trkpt><trkpt lat="52.419893872" lon="17.2475662082"></trkpt><trkpt lat="52.4232372455" lon="17.2524682805"></trkpt><trkpt lat="52.4239513837" lon="17.2527459729"></trkpt><trkpt lat="52.4246159848" lon="17.2532777209"></trkpt><trkpt lat="52.4249230977" lon="17.2543480061"></trkpt><trkpt lat="52.4256213941" lon="17.254818147"></trkpt><trkpt lat="52.4264666252" lon="17.2551156208"></trkpt><trkpt lat="52.4351651967" lon="17.2545487527"></trkpt><trkpt lat="52.4349698983" lon="17.2559032682"></trkpt><trkpt lat="52.4350722414" lon="17.2546691168"></trkpt><trkpt lat="52.4343594443" lon="17.2542083636"></trkpt><trkpt lat="52.4335163087" lon="17.2543044202"></trkpt><trkpt lat="52.427600529" lon="17.2565951943"></trkpt><trkpt lat="52.4283042736" lon="17.2571839392"></trkpt><trkpt lat="52.436439665" lon="17.2615238372"></trkpt><trkpt lat="52.4367900286" lon="17.2603807971"></trkpt><trkpt lat="52.4417149834" lon="17.2477145679"></trkpt><trkpt lat="52.4419687036" lon="17.2465380002"></trkpt><trkpt lat="52.44249098" lon="17.2456414718"></trkpt><trkpt lat="52.4433098081" lon="17.2453263961"></trkpt><trkpt lat="52.4437866546" lon="17.2443939932"></trkpt><trkpt lat="52.4440836255" lon="17.2432289086"></trkpt><trkpt lat="52.444793405" lon="17.2429271601"></trkpt><trkpt lat="52.4474497978" lon="17.2448258288"></trkpt><trkpt lat="52.448117584" lon="17.2456044238"></trkpt><trkpt lat="52.4489352386" lon="17.2458339203"></trkpt><trkpt lat="52.4507125374" lon="17.2447398305"></trkpt><trkpt lat="52.4510405213" lon="17.2436765861"></trkpt><trkpt lat="52.4518759456" lon="17.2432765178"></trkpt><trkpt lat="52.4526003096" lon="17.2432556469"></trkpt><trkpt lat="52.4537424278" lon="17.2437941004"></trkpt><trkpt lat="52.4541552365" lon="17.2449424211"></trkpt><trkpt lat="52.4551733863" lon="17.2468696721"></trkpt><trkpt lat="52.4557465408" lon="17.247656649"></trkpt><trkpt lat="52.4564406462" lon="17.2482871357"></trkpt><trkpt lat="52.4571543653" lon="17.2485985234"></trkpt><trkpt lat="52.457937235" lon="17.2486924846"></trkpt><trkpt lat="52.4605538137" lon="17.2497321758"></trkpt><trkpt lat="52.4612041656" lon="17.2502695397"></trkpt><trkpt lat="52.4619923159" lon="17.2500835452"></trkpt><trkpt lat="52.4623643048" lon="17.2490549181"></trkpt><trkpt lat="52.4625601061" lon="17.2477876581"></trkpt><trkpt lat="52.4629505351" lon="17.2467163671"></trkpt><trkpt lat="52.4634350929" lon="17.2458139714"></trkpt><trkpt lat="52.4646076374" lon="17.2442214936"></trkpt><trkpt lat="52.465383634" lon="17.2436920926"></trkpt><trkpt lat="52.4692680594" lon="17.2396448907"></trkpt><trkpt lat="52.4695787765" lon="17.2385513037"></trkpt><trkpt lat="52.4702416174" lon="17.2371485084"></trkpt><trkpt lat="52.4709955696" lon="17.2378494032"></trkpt><trkpt lat="52.474426534" lon="17.2401467152"></trkpt></trkseg></trk></gpx>