<?xml version="1.0" encoding="UTF-8" standalone="no" ?><gpx xmlns="http://www.topografix.com/GPX/1/1" xmlns:gpxx="http://www.garmin.com/xmlschemas/GpxExtensions/v3" ><trk><trkseg><trkpt lat="52.382384" lon="16.93693"></trkpt><trkpt lat="52.382648" lon="16.936902"></trkpt><trkpt lat="52.38481" lon="16.937424"></trkpt><trkpt lat="52.38526" lon="16.937586"></trkpt><trkpt lat="52.389246" lon="16.939512"></trkpt><trkpt lat="52.390929" lon="16.940103"></trkpt><trkpt lat="52.391341" lon="16.940168"></trkpt><trkpt lat="52.399635" lon="16.942679"></trkpt><trkpt lat="52.400065" lon="16.94328"></trkpt><trkpt lat="52.402337" lon="16.945989"></trkpt><trkpt lat="52.402625" lon="16.946252"></trkpt><trkpt lat="52.403026" lon="16.946536"></trkpt><trkpt lat="52.40279" lon="16.94638"></trkpt><trkpt lat="52.402466" lon="16.94668"></trkpt><trkpt lat="52.402261" lon="16.946765"></trkpt><trkpt lat="52.402053" lon="16.946726"></trkpt><trkpt lat="52.40177" lon="16.946598"></trkpt><trkpt lat="52.401562" lon="16.946591"></trkpt><trkpt lat="52.401281" lon="16.947303"></trkpt><trkpt lat="52.401026" lon="16.948093"></trkpt><trkpt lat="52.400943" lon="16.948407"></trkpt><trkpt lat="52.400737" lon="16.948942"></trkpt><trkpt lat="52.399656" lon="16.952261"></trkpt><trkpt lat="52.39977" lon="16.95265"></trkpt><trkpt lat="52.399687" lon="16.95303"></trkpt><trkpt lat="52.399805" lon="16.9535"></trkpt><trkpt lat="52.399937" lon="16.953812"></trkpt><trkpt lat="52.400787" lon="16.956163"></trkpt><trkpt lat="52.400767" lon="16.956731"></trkpt><trkpt lat="52.400865" lon="16.957409"></trkpt><trkpt lat="52.401232" lon="16.957524"></trkpt><trkpt lat="52.401458" lon="16.957557"></trkpt><trkpt lat="52.402019" lon="16.95757"></trkpt><trkpt lat="52.402458" lon="16.957647"></trkpt><trkpt lat="52.402469" lon="16.958218"></trkpt><trkpt lat="52.40251" lon="16.958672"></trkpt><trkpt lat="52.402328" lon="16.959027"></trkpt><trkpt lat="52.402291" lon="16.959475"></trkpt><trkpt lat="52.402281" lon="16.96045"></trkpt><trkpt lat="52.402346" lon="16.960875"></trkpt><trkpt lat="52.4025" lon="16.961131"></trkpt><trkpt lat="52.40258" lon="16.961441"></trkpt><trkpt lat="52.402655" lon="16.961898"></trkpt><trkpt lat="52.402639" lon="16.962389"></trkpt><trkpt lat="52.402516" lon="16.962854"></trkpt><trkpt lat="52.402431" lon="16.96327"></trkpt><trkpt lat="52.402343" lon="16.963869"></trkpt><trkpt lat="52.402086" lon="16.96483"></trkpt><trkpt lat="52.399716" lon="16.975703"></trkpt><trkpt lat="52.399705" lon="16.9765"></trkpt><trkpt lat="52.399734" lon="16.977447"></trkpt><trkpt lat="52.399795" lon="16.977764"></trkpt><trkpt lat="52.40002" lon="16.979795"></trkpt><trkpt lat="52.399985" lon="16.980356"></trkpt><trkpt lat="52.399998" lon="16.982953"></trkpt><trkpt lat="52.399942" lon="16.984204"></trkpt><trkpt lat="52.399685" lon="16.986565"></trkpt><trkpt lat="52.399524" lon="16.986862"></trkpt><trkpt lat="52.39935" lon="16.987123"></trkpt><trkpt lat="52.399429" lon="16.987574"></trkpt><trkpt lat="52.399707" lon="16.988133"></trkpt><trkpt lat="52.400105" lon="16.988668"></trkpt><trkpt lat="52.400376" lon="16.988627"></trkpt><trkpt lat="52.400818" lon="16.988616"></trkpt><trkpt lat="52.401082" lon="16.988714"></trkpt><trkpt lat="52.402441" lon="16.989424"></trkpt><trkpt lat="52.40224" lon="16.989786"></trkpt><trkpt lat="52.401027" lon="16.991648"></trkpt><trkpt lat="52.400612" lon="16.991976"></trkpt><trkpt lat="52.400344" lon="16.992238"></trkpt><trkpt lat="52.400004" lon="16.992517"></trkpt><trkpt lat="52.399643" lon="16.992648"></trkpt><trkpt lat="52.399382" lon="16.992685"></trkpt><trkpt lat="52.39905" lon="16.992579"></trkpt><trkpt lat="52.39879" lon="16.992459"></trkpt><trkpt lat="52.398529" lon="16.992518"></trkpt><trkpt lat="52.398328" lon="16.992647"></trkpt><trkpt lat="52.397801" lon="16.993117"></trkpt><trkpt lat="52.397051" lon="16.993959"></trkpt><trkpt lat="52.396815" lon="16.994326"></trkpt><trkpt lat="52.39654" lon="16.99483"></trkpt><trkpt lat="52.396403" lon="16.995128"></trkpt><trkpt lat="52.396285" lon="16.995548"></trkpt><trkpt lat="52.396242" lon="16.99591"></trkpt><trkpt lat="52.396151" lon="16.996457"></trkpt><trkpt lat="52.395992" lon="16.997089"></trkpt><trkpt lat="52.395981" lon="16.997532"></trkpt><trkpt lat="52.395998" lon="16.998218"></trkpt><trkpt lat="52.39585" lon="17.00323"></trkpt><trkpt lat="52.395695" lon="17.003566"></trkpt><trkpt lat="52.395598" lon="17.003867"></trkpt><trkpt lat="52.39556" lon="17.004241"></trkpt><trkpt lat="52.395586" lon="17.004782"></trkpt><trkpt lat="52.395577" lon="17.005176"></trkpt><trkpt lat="52.395501" lon="17.005684"></trkpt><trkpt lat="52.395423" lon="17.006519"></trkpt><trkpt lat="52.395464" lon="17.007015"></trkpt><trkpt lat="52.395476" lon="17.00864"></trkpt><trkpt lat="52.395434" lon="17.009107"></trkpt><trkpt lat="52.395365" lon="17.009438"></trkpt><trkpt lat="52.395243" lon="17.009789"></trkpt><trkpt lat="52.394959" lon="17.010384"></trkpt><trkpt lat="52.394861" lon="17.010894"></trkpt><trkpt lat="52.394815" lon="17.011262"></trkpt><trkpt lat="52.394853" lon="17.011888"></trkpt><trkpt lat="52.394907" lon="17.012317"></trkpt><trkpt lat="52.395114" lon="17.013401"></trkpt><trkpt lat="52.395117" lon="17.013824"></trkpt><trkpt lat="52.395055" lon="17.014432"></trkpt><trkpt lat="52.395138" lon="17.014777"></trkpt><trkpt lat="52.395045" lon="17.015101"></trkpt><trkpt lat="52.395115" lon="17.015456"></trkpt><trkpt lat="52.395165" lon="17.015802"></trkpt><trkpt lat="52.395291" lon="17.016119"></trkpt><trkpt lat="52.395482" lon="17.016384"></trkpt><trkpt lat="52.395607" lon="17.016826"></trkpt><trkpt lat="52.395806" lon="17.01739"></trkpt><trkpt lat="52.396217" lon="17.019407"></trkpt><trkpt lat="52.396232" lon="17.019989"></trkpt><trkpt lat="52.396282" lon="17.020374"></trkpt><trkpt lat="52.39633" lon="17.020938"></trkpt><trkpt lat="52.39645" lon="17.021604"></trkpt><trkpt lat="52.396547" lon="17.021963"></trkpt><trkpt lat="52.396657" lon="17.022293"></trkpt><trkpt lat="52.396813" lon="17.022507"></trkpt><trkpt lat="52.397022" lon="17.022689"></trkpt><trkpt lat="52.397386" lon="17.023115"></trkpt><trkpt lat="52.397544" lon="17.022844"></trkpt><trkpt lat="52.397461" lon="17.022528"></trkpt><trkpt lat="52.397337" lon="17.02222"></trkpt><trkpt lat="52.397177" lon="17.021976"></trkpt><trkpt lat="52.397051" lon="17.021619"></trkpt><trkpt lat="52.397029" lon="17.02126"></trkpt><trkpt lat="52.397044" lon="17.020865"></trkpt><trkpt lat="52.397231" lon="17.02065"></trkpt><trkpt lat="52.397443" lon="17.020725"></trkpt><trkpt lat="52.3977" lon="17.020948"></trkpt><trkpt lat="52.398029" lon="17.020892"></trkpt><trkpt lat="52.398232" lon="17.020571"></trkpt><trkpt lat="52.398379" lon="17.020228"></trkpt><trkpt lat="52.399169" lon="17.018667"></trkpt><trkpt lat="52.399434" lon="17.018558"></trkpt><trkpt lat="52.399657" lon="17.018686"></trkpt><trkpt lat="52.39999" lon="17.018968"></trkpt><trkpt lat="52.400138" lon="17.019209"></trkpt><trkpt lat="52.40042" lon="17.019464"></trkpt><trkpt lat="52.400517" lon="17.01994"></trkpt><trkpt lat="52.401233" lon="17.022561"></trkpt><trkpt lat="52.401308" lon="17.02294"></trkpt><trkpt lat="52.401727" lon="17.02464"></trkpt><trkpt lat="52.403186" lon="17.029319"></trkpt><trkpt lat="52.403363" lon="17.029497"></trkpt><trkpt lat="52.403763" lon="17.029834"></trkpt><trkpt lat="52.404574" lon="17.030682"></trkpt><trkpt lat="52.404913" lon="17.030849"></trkpt><trkpt lat="52.405127" lon="17.030908"></trkpt><trkpt lat="52.405326" lon="17.03092"></trkpt><trkpt lat="52.406131" lon="17.031324"></trkpt><trkpt lat="52.406157" lon="17.031726"></trkpt><trkpt lat="52.406025" lon="17.03239"></trkpt><trkpt lat="52.405805" lon="17.033062"></trkpt><trkpt lat="52.405645" lon="17.033376"></trkpt><trkpt lat="52.405475" lon="17.033811"></trkpt><trkpt lat="52.405345" lon="17.034357"></trkpt><trkpt lat="52.40528" lon="17.034835"></trkpt><trkpt lat="52.405291" lon="17.035275"></trkpt><trkpt lat="52.405344" lon="17.035697"></trkpt><trkpt lat="52.405487" lon="17.0364"></trkpt><trkpt lat="52.405657" lon="17.037801"></trkpt><trkpt lat="52.405607" lon="17.03836"></trkpt><trkpt lat="52.405653" lon="17.038999"></trkpt><trkpt lat="52.405756" lon="17.039605"></trkpt><trkpt lat="52.405902" lon="17.03998"></trkpt><trkpt lat="52.405898" lon="17.040329"></trkpt><trkpt lat="52.405706" lon="17.040712"></trkpt><trkpt lat="52.405518" lon="17.041202"></trkpt><trkpt lat="52.405698" lon="17.041343"></trkpt><trkpt lat="52.405839" lon="17.04159"></trkpt><trkpt lat="52.406061" lon="17.041596"></trkpt><trkpt lat="52.406028" lon="17.041936"></trkpt><trkpt lat="52.405897" lon="17.042428"></trkpt><trkpt lat="52.40582" lon="17.043218"></trkpt><trkpt lat="52.406098" lon="17.043571"></trkpt><trkpt lat="52.407679" lon="17.045148"></trkpt><trkpt lat="52.407925" lon="17.045115"></trkpt><trkpt lat="52.408105" lon="17.044899"></trkpt><trkpt lat="52.408484" lon="17.0447"></trkpt><trkpt lat="52.408618" lon="17.045033"></trkpt><trkpt lat="52.408925" lon="17.04599"></trkpt><trkpt lat="52.409936" lon="17.048634"></trkpt><trkpt lat="52.410109" lon="17.048873"></trkpt><trkpt lat="52.410339" lon="17.049036"></trkpt><trkpt lat="52.410569" lon="17.049031"></trkpt><trkpt lat="52.410816" lon="17.049097"></trkpt><trkpt lat="52.411341" lon="17.049171"></trkpt><trkpt lat="52.41232" lon="17.04945"></trkpt><trkpt lat="52.4127" lon="17.049749"></trkpt><trkpt lat="52.413071" lon="17.050124"></trkpt><trkpt lat="52.413226" lon="17.050498"></trkpt><trkpt lat="52.413385" lon="17.051137"></trkpt><trkpt lat="52.413553" lon="17.051691"></trkpt><trkpt lat="52.41413" lon="17.054297"></trkpt><trkpt lat="52.414186" lon="17.054853"></trkpt><trkpt lat="52.414316" lon="17.055338"></trkpt><trkpt lat="52.414532" lon="17.055863"></trkpt><trkpt lat="52.414804" lon="17.056409"></trkpt><trkpt lat="52.415622" lon="17.058343"></trkpt><trkpt lat="52.415734" lon="17.058789"></trkpt><trkpt lat="52.415863" lon="17.059449"></trkpt><trkpt lat="52.416051" lon="17.060185"></trkpt><trkpt lat="52.416188" lon="17.06055"></trkpt><trkpt lat="52.416951" lon="17.062292"></trkpt><trkpt lat="52.417316" lon="17.062906"></trkpt><trkpt lat="52.41764" lon="17.06308"></trkpt><trkpt lat="52.417893" lon="17.063136"></trkpt><trkpt lat="52.42059" lon="17.064093"></trkpt><trkpt lat="52.420811" lon="17.064215"></trkpt><trkpt lat="52.421053" lon="17.064233"></trkpt><trkpt lat="52.422153" lon="17.064453"></trkpt><trkpt lat="52.422357" lon="17.064727"></trkpt><trkpt lat="52.422578" lon="17.064906"></trkpt><trkpt lat="52.422825" lon="17.065065"></trkpt><trkpt lat="52.423121" lon="17.065217"></trkpt><trkpt lat="52.423335" lon="17.065282"></trkpt><trkpt lat="52.423617" lon="17.065316"></trkpt><trkpt lat="52.424593" lon="17.065071"></trkpt><trkpt lat="52.424989" lon="17.064895"></trkpt><trkpt lat="52.42523" lon="17.064708"></trkpt><trkpt lat="52.427212" lon="17.063491"></trkpt><trkpt lat="52.427294" lon="17.063852"></trkpt><trkpt lat="52.427589" lon="17.064821"></trkpt><trkpt lat="52.430626" lon="17.072745"></trkpt><trkpt lat="52.430886" lon="17.072715"></trkpt><trkpt lat="52.431577" lon="17.072947"></trkpt><trkpt lat="52.431767" lon="17.072788"></trkpt><trkpt lat="52.432007" lon="17.072671"></trkpt><trkpt lat="52.432318" lon="17.072737"></trkpt><trkpt lat="52.432755" lon="17.072883"></trkpt><trkpt lat="52.449575" lon="17.07807"></trkpt><trkpt lat="52.449938" lon="17.078282"></trkpt><trkpt lat="52.452792" lon="17.080431"></trkpt><trkpt lat="52.452889" lon="17.080804"></trkpt><trkpt lat="52.453211" lon="17.081818"></trkpt><trkpt lat="52.453627" lon="17.08174"></trkpt><trkpt lat="52.45386" lon="17.081663"></trkpt><trkpt lat="52.456555" lon="17.080445"></trkpt><trkpt lat="52.456818" lon="17.079798"></trkpt><trkpt lat="52.457798" lon="17.076962"></trkpt><trkpt lat="52.457885" lon="17.076584"></trkpt><trkpt lat="52.459713" lon="17.070222"></trkpt><trkpt lat="52.459955" lon="17.070283"></trkpt><trkpt lat="52.460175" lon="17.070258"></trkpt><trkpt lat="52.460356" lon="17.069892"></trkpt><trkpt lat="52.461785" lon="17.067405"></trkpt><trkpt lat="52.461959" lon="17.067756"></trkpt><trkpt lat="52.462162" lon="17.068375"></trkpt><trkpt lat="52.462611" lon="17.069502"></trkpt><trkpt lat="52.462813" lon="17.06928"></trkpt><trkpt lat="52.46302" lon="17.069134"></trkpt><trkpt lat="52.463271" lon="17.06885"></trkpt><trkpt lat="52.463049" lon="17.069121"></trkpt><trkpt lat="52.462932" lon="17.068841"></trkpt><trkpt lat="52.463008" lon="17.068492"></trkpt><trkpt lat="52.463129" lon="17.068104"></trkpt><trkpt lat="52.463227" lon="17.067691"></trkpt><trkpt lat="52.463284" lon="17.067343"></trkpt><trkpt lat="52.463227" lon="17.067687"></trkpt><trkpt lat="52.463136" lon="17.068033"></trkpt><trkpt lat="52.462619" lon="17.069525"></trkpt><trkpt lat="52.462734" lon="17.070004"></trkpt><trkpt lat="52.462935" lon="17.070395"></trkpt><trkpt lat="52.46315" lon="17.070726"></trkpt><trkpt lat="52.463509" lon="17.071126"></trkpt><trkpt lat="52.464268" lon="17.071776"></trkpt><trkpt lat="52.464518" lon="17.071935"></trkpt><trkpt lat="52.466117" lon="17.073193"></trkpt><trkpt lat="52.466415" lon="17.073506"></trkpt><trkpt lat="52.466673" lon="17.073826"></trkpt><trkpt lat="52.471382" lon="17.080737"></trkpt><trkpt lat="52.471549" lon="17.081118"></trkpt><trkpt lat="52.478555" lon="17.0947"></trkpt><trkpt lat="52.489276" lon="17.072538"></trkpt><trkpt lat="52.492391" lon="17.064352"></trkpt><trkpt lat="52.492213" lon="17.063991"></trkpt><trkpt lat="52.489815" lon="17.059889"></trkpt><trkpt lat="52.489408" lon="17.059484"></trkpt><trkpt lat="52.48857" lon="17.058913"></trkpt><trkpt lat="52.488024" lon="17.058677"></trkpt><trkpt lat="52.487027" lon="17.058076"></trkpt><trkpt lat="52.486665" lon="17.057657"></trkpt><trkpt lat="52.486215" lon="17.057233"></trkpt><trkpt lat="52.485336" lon="17.056645"></trkpt><trkpt lat="52.484937" lon="17.056557"></trkpt><trkpt lat="52.484527" lon="17.056296"></trkpt><trkpt lat="52.484223" lon="17.055923"></trkpt><trkpt lat="52.484036" lon="17.055516"></trkpt><trkpt lat="52.476416" lon="17.035818"></trkpt><trkpt lat="52.476317" lon="17.034943"></trkpt><trkpt lat="52.476082" lon="17.033746"></trkpt><trkpt lat="52.47588" lon="17.03342"></trkpt><trkpt lat="52.473806" lon="17.030523"></trkpt><trkpt lat="52.469875" lon="17.025804"></trkpt><trkpt lat="52.469383" lon="17.025427"></trkpt><trkpt lat="52.466085" lon="17.022324"></trkpt><trkpt lat="52.465792" lon="17.021738"></trkpt><trkpt lat="52.464421" lon="17.019422"></trkpt><trkpt lat="52.463886" lon="17.019124"></trkpt><trkpt lat="52.462336" lon="17.018586"></trkpt><trkpt lat="52.462138" lon="17.018721"></trkpt><trkpt lat="52.461725" lon="17.018924"></trkpt><trkpt lat="52.461509" lon="17.018974"></trkpt><trkpt lat="52.46122" lon="17.018983"></trkpt><trkpt lat="52.460759" lon="17.018891"></trkpt><trkpt lat="52.458343" lon="17.017992"></trkpt><trkpt lat="52.457945" lon="17.017408"></trkpt><trkpt lat="52.450267" lon="17.004444"></trkpt><trkpt lat="52.450134" lon="17.004164"></trkpt><trkpt lat="52.447834" lon="16.998489"></trkpt><trkpt lat="52.447726" lon="16.998073"></trkpt><trkpt lat="52.44756" lon="16.997205"></trkpt><trkpt lat="52.447416" lon="16.996738"></trkpt><trkpt lat="52.447177" lon="16.995746"></trkpt><trkpt lat="52.44708" lon="16.995414"></trkpt><trkpt lat="52.446903" lon="16.995002"></trkpt><trkpt lat="52.446765" lon="16.994578"></trkpt><trkpt lat="52.446591" lon="16.994182"></trkpt><trkpt lat="52.446368" lon="16.994057"></trkpt><trkpt lat="52.446154" lon="16.99373"></trkpt><trkpt lat="52.445136" lon="16.991889"></trkpt><trkpt lat="52.445328" lon="16.991579"></trkpt><trkpt lat="52.445527" lon="16.991306"></trkpt><trkpt lat="52.447074" lon="16.988787"></trkpt><trkpt lat="52.447191" lon="16.98843"></trkpt><trkpt lat="52.44729" lon="16.98803"></trkpt><trkpt lat="52.447364" lon="16.987596"></trkpt><trkpt lat="52.447417" lon="16.986981"></trkpt><trkpt lat="52.44754" lon="16.984007"></trkpt><trkpt lat="52.447318" lon="16.983903"></trkpt><trkpt lat="52.446904" lon="16.983858"></trkpt><trkpt lat="52.44271" lon="16.982916"></trkpt><trkpt lat="52.441697" lon="16.982549"></trkpt><trkpt lat="52.439364" lon="16.982001"></trkpt><trkpt lat="52.438806" lon="16.982056"></trkpt><trkpt lat="52.43817" lon="16.981897"></trkpt><trkpt lat="52.437924" lon="16.981742"></trkpt><trkpt lat="52.437742" lon="16.981576"></trkpt><trkpt lat="52.437567" lon="16.981369"></trkpt><trkpt lat="52.437341" lon="16.981043"></trkpt><trkpt lat="52.436944" lon="16.980551"></trkpt><trkpt lat="52.436652" lon="16.980323"></trkpt><trkpt lat="52.436402" lon="16.9802"></trkpt><trkpt lat="52.436127" lon="16.98013"></trkpt><trkpt lat="52.43563" lon="16.980119"></trkpt><trkpt lat="52.433586" lon="16.979837"></trkpt><trkpt lat="52.433144" lon="16.979721"></trkpt><trkpt lat="52.422379" lon="16.97546"></trkpt><trkpt lat="52.422306" lon="16.975007"></trkpt><trkpt lat="52.422227" lon="16.974695"></trkpt><trkpt lat="52.42208" lon="16.973968"></trkpt><trkpt lat="52.421092" lon="16.970214"></trkpt><trkpt lat="52.420918" lon="16.969898"></trkpt><trkpt lat="52.419627" lon="16.967087"></trkpt><trkpt lat="52.419584" lon="16.966423"></trkpt><trkpt lat="52.419525" lon="16.96193"></trkpt><trkpt lat="52.419637" lon="16.961637"></trkpt><trkpt lat="52.41985" lon="16.961506"></trkpt><trkpt lat="52.420012" lon="16.961094"></trkpt><trkpt lat="52.419873" lon="16.960826"></trkpt><trkpt lat="52.419634" lon="16.960557"></trkpt><trkpt lat="52.418136" lon="16.959122"></trkpt><trkpt lat="52.417636" lon="16.958725"></trkpt><trkpt lat="52.414187" lon="16.956501"></trkpt><trkpt lat="52.413774" lon="16.956631"></trkpt><trkpt lat="52.413523" lon="16.956745"></trkpt><trkpt lat="52.413212" lon="16.956459"></trkpt><trkpt lat="52.412973" lon="16.95616"></trkpt><trkpt lat="52.412194" lon="16.954832"></trkpt><trkpt lat="52.412231" lon="16.954152"></trkpt><trkpt lat="52.412234" lon="16.952352"></trkpt><trkpt lat="52.412141" lon="16.951945"></trkpt><trkpt lat="52.41197" lon="16.951701"></trkpt><trkpt lat="52.411752" lon="16.951678"></trkpt><trkpt lat="52.411399" lon="16.951572"></trkpt><trkpt lat="52.411011" lon="16.951617"></trkpt><trkpt lat="52.410781" lon="16.951731"></trkpt><trkpt lat="52.410357" lon="16.951838"></trkpt><trkpt lat="52.409635" lon="16.952216"></trkpt><trkpt lat="52.409385" lon="16.952575"></trkpt><trkpt lat="52.409015" lon="16.952458"></trkpt><trkpt lat="52.408846" lon="16.951803"></trkpt><trkpt lat="52.408645" lon="16.951653"></trkpt><trkpt lat="52.408104" lon="16.951449"></trkpt><trkpt lat="52.407446" lon="16.951113"></trkpt><trkpt lat="52.406926" lon="16.950719"></trkpt><trkpt lat="52.406431" lon="16.95025"></trkpt><trkpt lat="52.39979" lon="16.942864"></trkpt><trkpt lat="52.399286" lon="16.942189"></trkpt><trkpt lat="52.398209" lon="16.941148"></trkpt><trkpt lat="52.397736" lon="16.940855"></trkpt><trkpt lat="52.397531" lon="16.940778"></trkpt><trkpt lat="52.396247" lon="16.941068"></trkpt><trkpt lat="52.395894" lon="16.941073"></trkpt><trkpt lat="52.39556" lon="16.941131"></trkpt><trkpt lat="52.394666" lon="16.940865"></trkpt></trkseg></trk></gpx>