<?xml version="1.0" encoding="UTF-8" standalone="no" ?><gpx xmlns="http://www.topografix.com/GPX/1/1" xmlns:gpxx="http://www.garmin.com/xmlschemas/GpxExtensions/v3" ><trk><trkseg><trkpt lat="52.664608" lon="16.077716"></trkpt><trkpt lat="52.664351" lon="16.077963"></trkpt><trkpt lat="52.664361" lon="16.078322"></trkpt><trkpt lat="52.664347" lon="16.078884"></trkpt><trkpt lat="52.663933" lon="16.079105"></trkpt><trkpt lat="52.663447" lon="16.079284"></trkpt><trkpt lat="52.66301" lon="16.079353"></trkpt><trkpt lat="52.662772" lon="16.07943"></trkpt><trkpt lat="52.661178" lon="16.079712"></trkpt><trkpt lat="52.659538" lon="16.080227"></trkpt><trkpt lat="52.6594" lon="16.080702"></trkpt><trkpt lat="52.65923" lon="16.081132"></trkpt><trkpt lat="52.658777" lon="16.081251"></trkpt><trkpt lat="52.658437" lon="16.081406"></trkpt><trkpt lat="52.658365" lon="16.081889"></trkpt><trkpt lat="52.657872" lon="16.081852"></trkpt><trkpt lat="52.657094" lon="16.081676"></trkpt><trkpt lat="52.657012" lon="16.081356"></trkpt><trkpt lat="52.656203" lon="16.081229"></trkpt><trkpt lat="52.65167" lon="16.079917"></trkpt><trkpt lat="52.651503" lon="16.079689"></trkpt><trkpt lat="52.651067" lon="16.079724"></trkpt><trkpt lat="52.648713" lon="16.079212"></trkpt><trkpt lat="52.648508" lon="16.079092"></trkpt><trkpt lat="52.648114" lon="16.078977"></trkpt><trkpt lat="52.647837" lon="16.078809"></trkpt><trkpt lat="52.647585" lon="16.078528"></trkpt><trkpt lat="52.647221" lon="16.078432"></trkpt><trkpt lat="52.644208" lon="16.078652"></trkpt><trkpt lat="52.643758" lon="16.078514"></trkpt><trkpt lat="52.636456" lon="16.075387"></trkpt><trkpt lat="52.636152" lon="16.07514"></trkpt><trkpt lat="52.633239" lon="16.073186"></trkpt><trkpt lat="52.633011" lon="16.073164"></trkpt><trkpt lat="52.632817" lon="16.073097"></trkpt><trkpt lat="52.632365" lon="16.07302"></trkpt><trkpt lat="52.626781" lon="16.072781"></trkpt><trkpt lat="52.625933" lon="16.073305"></trkpt><trkpt lat="52.623" lon="16.074395"></trkpt><trkpt lat="52.622785" lon="16.074237"></trkpt><trkpt lat="52.621821" lon="16.073295"></trkpt><trkpt lat="52.621381" lon="16.07312"></trkpt><trkpt lat="52.620216" lon="16.072446"></trkpt><trkpt lat="52.620009" lon="16.072225"></trkpt><trkpt lat="52.617087" lon="16.069575"></trkpt><trkpt lat="52.616902" lon="16.069443"></trkpt><trkpt lat="52.603941" lon="16.058268"></trkpt><trkpt lat="52.603757" lon="16.058001"></trkpt><trkpt lat="52.601571" lon="16.054333"></trkpt><trkpt lat="52.601495" lon="16.05399"></trkpt><trkpt lat="52.601446" lon="16.053606"></trkpt><trkpt lat="52.60145" lon="16.053063"></trkpt><trkpt lat="52.601552" lon="16.051374"></trkpt><trkpt lat="52.601712" lon="16.050375"></trkpt><trkpt lat="52.602057" lon="16.048753"></trkpt><trkpt lat="52.601955" lon="16.048311"></trkpt><trkpt lat="52.601907" lon="16.047831"></trkpt><trkpt lat="52.601967" lon="16.04735"></trkpt><trkpt lat="52.602089" lon="16.046998"></trkpt><trkpt lat="52.602053" lon="16.046511"></trkpt><trkpt lat="52.602041" lon="16.046121"></trkpt><trkpt lat="52.601357" lon="16.040603"></trkpt><trkpt lat="52.600952" lon="16.040756"></trkpt><trkpt lat="52.60051" lon="16.040718"></trkpt><trkpt lat="52.600215" lon="16.040628"></trkpt><trkpt lat="52.599547" lon="16.040329"></trkpt><trkpt lat="52.599224" lon="16.040269"></trkpt><trkpt lat="52.598962" lon="16.040262"></trkpt><trkpt lat="52.598721" lon="16.040213"></trkpt><trkpt lat="52.597717" lon="16.040238"></trkpt><trkpt lat="52.597316" lon="16.040165"></trkpt><trkpt lat="52.597039" lon="16.039919"></trkpt><trkpt lat="52.596724" lon="16.039532"></trkpt><trkpt lat="52.588223" lon="16.027296"></trkpt><trkpt lat="52.588205" lon="16.026887"></trkpt><trkpt lat="52.58828" lon="16.02633"></trkpt><trkpt lat="52.58823" lon="16.0255"></trkpt><trkpt lat="52.588093" lon="16.024662"></trkpt><trkpt lat="52.588061" lon="16.024189"></trkpt><trkpt lat="52.587004" lon="16.015115"></trkpt><trkpt lat="52.58678" lon="16.014541"></trkpt><trkpt lat="52.582666" lon="16.005461"></trkpt><trkpt lat="52.582065" lon="16.005357"></trkpt><trkpt lat="52.580298" lon="16.005282"></trkpt><trkpt lat="52.580071" lon="16.005404"></trkpt><trkpt lat="52.580146" lon="16.004542"></trkpt><trkpt lat="52.580148" lon="16.003954"></trkpt><trkpt lat="52.58008" lon="16.003278"></trkpt><trkpt lat="52.579084" lon="15.996512"></trkpt><trkpt lat="52.578931" lon="15.996188"></trkpt><trkpt lat="52.577325" lon="15.992167"></trkpt><trkpt lat="52.576667" lon="15.990882"></trkpt><trkpt lat="52.576492" lon="15.990696"></trkpt><trkpt lat="52.574075" lon="15.987443"></trkpt><trkpt lat="52.573833" lon="15.986527"></trkpt><trkpt lat="52.573425" lon="15.985344"></trkpt><trkpt lat="52.573154" lon="15.984818"></trkpt><trkpt lat="52.572946" lon="15.984348"></trkpt><trkpt lat="52.571695" lon="15.981903"></trkpt><trkpt lat="52.57074" lon="15.97974"></trkpt><trkpt lat="52.570476" lon="15.978889"></trkpt><trkpt lat="52.569658" lon="15.975712"></trkpt><trkpt lat="52.566392" lon="15.959754"></trkpt><trkpt lat="52.566447" lon="15.959436"></trkpt><trkpt lat="52.566629" lon="15.958754"></trkpt><trkpt lat="52.566949" lon="15.958133"></trkpt><trkpt lat="52.567441" lon="15.957307"></trkpt><trkpt lat="52.567825" lon="15.956561"></trkpt><trkpt lat="52.569867" lon="15.953158"></trkpt><trkpt lat="52.570183" lon="15.952869"></trkpt><trkpt lat="52.574237" lon="15.949792"></trkpt><trkpt lat="52.574413" lon="15.949999"></trkpt><trkpt lat="52.574995" lon="15.950321"></trkpt><trkpt lat="52.575314" lon="15.950333"></trkpt><trkpt lat="52.575624" lon="15.95021"></trkpt><trkpt lat="52.575919" lon="15.950219"></trkpt><trkpt lat="52.576369" lon="15.950144"></trkpt><trkpt lat="52.577443" lon="15.949803"></trkpt><trkpt lat="52.581188" lon="15.94811"></trkpt><trkpt lat="52.581793" lon="15.947758"></trkpt><trkpt lat="52.583139" lon="15.947172"></trkpt><trkpt lat="52.583717" lon="15.947249"></trkpt><trkpt lat="52.584057" lon="15.947386"></trkpt><trkpt lat="52.584346" lon="15.947569"></trkpt><trkpt lat="52.598063" lon="15.95447"></trkpt><trkpt lat="52.59831" lon="15.954294"></trkpt><trkpt lat="52.598623" lon="15.954139"></trkpt><trkpt lat="52.60108" lon="15.952513"></trkpt><trkpt lat="52.60148" lon="15.951987"></trkpt><trkpt lat="52.601807" lon="15.951618"></trkpt><trkpt lat="52.602075" lon="15.951504"></trkpt><trkpt lat="52.604325" lon="15.950259"></trkpt><trkpt lat="52.604543" lon="15.949749"></trkpt><trkpt lat="52.604811" lon="15.949319"></trkpt><trkpt lat="52.605066" lon="15.949031"></trkpt><trkpt lat="52.605487" lon="15.948632"></trkpt><trkpt lat="52.607218" lon="15.946446"></trkpt><trkpt lat="52.607666" lon="15.94548"></trkpt><trkpt lat="52.608054" lon="15.944768"></trkpt><trkpt lat="52.608235" lon="15.944578"></trkpt><trkpt lat="52.609038" lon="15.943863"></trkpt><trkpt lat="52.609339" lon="15.943761"></trkpt><trkpt lat="52.609621" lon="15.943492"></trkpt><trkpt lat="52.611086" lon="15.942381"></trkpt><trkpt lat="52.611251" lon="15.942166"></trkpt><trkpt lat="52.612974" lon="15.939462"></trkpt><trkpt lat="52.613131" lon="15.93811"></trkpt><trkpt lat="52.61327" lon="15.937851"></trkpt><trkpt lat="52.613375" lon="15.937567"></trkpt><trkpt lat="52.613141" lon="15.93666"></trkpt><trkpt lat="52.612705" lon="15.935514"></trkpt><trkpt lat="52.607739" lon="15.924629"></trkpt><trkpt lat="52.60724" lon="15.923831"></trkpt><trkpt lat="52.60615" lon="15.921748"></trkpt><trkpt lat="52.60589" lon="15.920599"></trkpt><trkpt lat="52.605186" lon="15.916588"></trkpt><trkpt lat="52.60519" lon="15.915235"></trkpt><trkpt lat="52.60533" lon="15.912273"></trkpt><trkpt lat="52.605458" lon="15.911315"></trkpt><trkpt lat="52.605879" lon="15.902082"></trkpt><trkpt lat="52.60562" lon="15.901248"></trkpt><trkpt lat="52.605494" lon="15.900554"></trkpt><trkpt lat="52.605379" lon="15.90025"></trkpt><trkpt lat="52.604961" lon="15.89965"></trkpt><trkpt lat="52.604863" lon="15.899355"></trkpt><trkpt lat="52.604957" lon="15.898564"></trkpt><trkpt lat="52.604937" lon="15.898204"></trkpt><trkpt lat="52.604867" lon="15.897893"></trkpt><trkpt lat="52.604656" lon="15.89763"></trkpt><trkpt lat="52.604485" lon="15.897359"></trkpt><trkpt lat="52.604324" lon="15.89667"></trkpt><trkpt lat="52.60426" lon="15.896099"></trkpt><trkpt lat="52.604258" lon="15.895281"></trkpt><trkpt lat="52.60393" lon="15.89429"></trkpt><trkpt lat="52.603548" lon="15.893336"></trkpt><trkpt lat="52.602772" lon="15.892566"></trkpt><trkpt lat="52.602202" lon="15.892227"></trkpt><trkpt lat="52.60202" lon="15.892078"></trkpt><trkpt lat="52.60173" lon="15.892003"></trkpt><trkpt lat="52.601652" lon="15.891587"></trkpt><trkpt lat="52.60139" lon="15.890981"></trkpt><trkpt lat="52.601205" lon="15.890815"></trkpt><trkpt lat="52.601004" lon="15.89096"></trkpt><trkpt lat="52.600835" lon="15.891162"></trkpt><trkpt lat="52.600535" lon="15.890903"></trkpt><trkpt lat="52.600273" lon="15.890803"></trkpt><trkpt lat="52.60008" lon="15.890671"></trkpt><trkpt lat="52.599891" lon="15.890194"></trkpt><trkpt lat="52.599327" lon="15.88904"></trkpt><trkpt lat="52.599152" lon="15.888619"></trkpt><trkpt lat="52.599609" lon="15.887827"></trkpt><trkpt lat="52.599562" lon="15.887456"></trkpt><trkpt lat="52.599491" lon="15.887102"></trkpt><trkpt lat="52.59994" lon="15.886112"></trkpt><trkpt lat="52.599575" lon="15.88554"></trkpt><trkpt lat="52.599149" lon="15.885354"></trkpt><trkpt lat="52.598744" lon="15.885227"></trkpt><trkpt lat="52.598478" lon="15.885111"></trkpt><trkpt lat="52.598252" lon="15.88527"></trkpt><trkpt lat="52.598029" lon="15.886349"></trkpt><trkpt lat="52.597943" lon="15.886666"></trkpt><trkpt lat="52.597722" lon="15.88673"></trkpt><trkpt lat="52.597544" lon="15.886374"></trkpt><trkpt lat="52.59754" lon="15.885071"></trkpt><trkpt lat="52.597232" lon="15.880055"></trkpt><trkpt lat="52.596991" lon="15.879477"></trkpt><trkpt lat="52.596332" lon="15.878161"></trkpt><trkpt lat="52.595811" lon="15.877641"></trkpt><trkpt lat="52.580941" lon="15.860135"></trkpt><trkpt lat="52.580678" lon="15.858469"></trkpt><trkpt lat="52.580359" lon="15.857307"></trkpt><trkpt lat="52.579571" lon="15.855123"></trkpt><trkpt lat="52.579347" lon="15.855067"></trkpt><trkpt lat="52.578984" lon="15.855032"></trkpt><trkpt lat="52.578779" lon="15.855079"></trkpt><trkpt lat="52.57794" lon="15.854736"></trkpt><trkpt lat="52.577758" lon="15.854172"></trkpt><trkpt lat="52.577612" lon="15.85362"></trkpt><trkpt lat="52.57755" lon="15.853201"></trkpt><trkpt lat="52.576879" lon="15.846646"></trkpt><trkpt lat="52.576865" lon="15.846291"></trkpt><trkpt lat="52.576769" lon="15.845141"></trkpt><trkpt lat="52.5765" lon="15.843831"></trkpt><trkpt lat="52.576435" lon="15.842673"></trkpt><trkpt lat="52.576483" lon="15.84147"></trkpt><trkpt lat="52.577035" lon="15.835457"></trkpt><trkpt lat="52.577297" lon="15.834184"></trkpt><trkpt lat="52.577529" lon="15.830491"></trkpt><trkpt lat="52.577504" lon="15.829904"></trkpt><trkpt lat="52.577517" lon="15.830238"></trkpt><trkpt lat="52.577069" lon="15.830145"></trkpt><trkpt lat="52.577429" lon="15.83029"></trkpt><trkpt lat="52.577482" lon="15.829336"></trkpt><trkpt lat="52.577377" lon="15.828432"></trkpt><trkpt lat="52.57685" lon="15.82558"></trkpt><trkpt lat="52.576465" lon="15.824999"></trkpt><trkpt lat="52.576259" lon="15.824615"></trkpt><trkpt lat="52.5744" lon="15.821695"></trkpt><trkpt lat="52.573888" lon="15.821142"></trkpt><trkpt lat="52.573375" lon="15.820472"></trkpt><trkpt lat="52.57312" lon="15.819845"></trkpt><trkpt lat="52.57305" lon="15.819537"></trkpt><trkpt lat="52.572929" lon="15.819243"></trkpt><trkpt lat="52.572774" lon="15.818779"></trkpt><trkpt lat="52.569521" lon="15.807163"></trkpt><trkpt lat="52.570282" lon="15.807328"></trkpt><trkpt lat="52.573795" lon="15.807636"></trkpt><trkpt lat="52.574401" lon="15.807163"></trkpt><trkpt lat="52.581654" lon="15.802604"></trkpt><trkpt lat="52.582216" lon="15.802555"></trkpt><trkpt lat="52.590171" lon="15.804184"></trkpt><trkpt lat="52.590592" lon="15.804492"></trkpt><trkpt lat="52.59143" lon="15.8053"></trkpt><trkpt lat="52.592593" lon="15.806654"></trkpt><trkpt lat="52.592802" lon="15.806968"></trkpt><trkpt lat="52.592989" lon="15.807296"></trkpt><trkpt lat="52.593239" lon="15.807946"></trkpt><trkpt lat="52.593696" lon="15.808947"></trkpt><trkpt lat="52.594995" lon="15.811087"></trkpt><trkpt lat="52.595296" lon="15.811325"></trkpt><trkpt lat="52.595451" lon="15.811606"></trkpt><trkpt lat="52.595576" lon="15.8119"></trkpt><trkpt lat="52.595687" lon="15.812212"></trkpt><trkpt lat="52.59581" lon="15.812508"></trkpt><trkpt lat="52.596511" lon="15.814714"></trkpt><trkpt lat="52.596441" lon="15.815042"></trkpt><trkpt lat="52.596412" lon="15.815564"></trkpt><trkpt lat="52.596362" lon="15.815943"></trkpt><trkpt lat="52.596326" lon="15.816352"></trkpt><trkpt lat="52.596329" lon="15.817149"></trkpt><trkpt lat="52.596355" lon="15.81768"></trkpt><trkpt lat="52.596588" lon="15.820202"></trkpt><trkpt lat="52.596694" lon="15.8205"></trkpt><trkpt lat="52.596911" lon="15.82099"></trkpt><trkpt lat="52.597076" lon="15.821268"></trkpt><trkpt lat="52.597174" lon="15.821686"></trkpt><trkpt lat="52.597371" lon="15.822129"></trkpt><trkpt lat="52.597471" lon="15.822511"></trkpt><trkpt lat="52.597603" lon="15.82282"></trkpt><trkpt lat="52.597712" lon="15.823119"></trkpt><trkpt lat="52.597833" lon="15.823558"></trkpt><trkpt lat="52.597909" lon="15.823938"></trkpt><trkpt lat="52.598147" lon="15.824367"></trkpt><trkpt lat="52.598364" lon="15.824682"></trkpt><trkpt lat="52.598823" lon="15.825147"></trkpt><trkpt lat="52.60077" lon="15.826596"></trkpt><trkpt lat="52.601246" lon="15.82678"></trkpt><trkpt lat="52.601528" lon="15.826848"></trkpt><trkpt lat="52.603855" lon="15.826808"></trkpt><trkpt lat="52.604541" lon="15.826633"></trkpt><trkpt lat="52.604918" lon="15.826635"></trkpt><trkpt lat="52.605344" lon="15.826569"></trkpt><trkpt lat="52.606783" lon="15.826983"></trkpt><trkpt lat="52.607209" lon="15.827762"></trkpt><trkpt lat="52.607466" lon="15.828354"></trkpt><trkpt lat="52.607495" lon="15.82872"></trkpt><trkpt lat="52.607667" lon="15.828979"></trkpt><trkpt lat="52.607929" lon="15.829208"></trkpt><trkpt lat="52.608731" lon="15.83019"></trkpt><trkpt lat="52.608983" lon="15.831098"></trkpt><trkpt lat="52.608987" lon="15.831834"></trkpt><trkpt lat="52.608946" lon="15.832893"></trkpt><trkpt lat="52.608763" lon="15.833672"></trkpt><trkpt lat="52.608496" lon="15.834539"></trkpt><trkpt lat="52.608166" lon="15.835188"></trkpt><trkpt lat="52.607644" lon="15.835786"></trkpt><trkpt lat="52.606994" lon="15.836146"></trkpt><trkpt lat="52.606478" lon="15.83636"></trkpt><trkpt lat="52.605825" lon="15.836509"></trkpt><trkpt lat="52.604068" lon="15.837182"></trkpt><trkpt lat="52.603768" lon="15.837419"></trkpt><trkpt lat="52.603523" lon="15.837569"></trkpt><trkpt lat="52.602792" lon="15.838122"></trkpt><trkpt lat="52.602693" lon="15.838494"></trkpt><trkpt lat="52.60273" lon="15.838873"></trkpt><trkpt lat="52.602782" lon="15.839235"></trkpt><trkpt lat="52.603116" lon="15.840998"></trkpt><trkpt lat="52.602973" lon="15.8414"></trkpt><trkpt lat="52.602684" lon="15.841699"></trkpt><trkpt lat="52.602334" lon="15.84225"></trkpt><trkpt lat="52.602167" lon="15.842912"></trkpt><trkpt lat="52.602098" lon="15.843542"></trkpt><trkpt lat="52.601036" lon="15.849318"></trkpt><trkpt lat="52.600412" lon="15.850642"></trkpt><trkpt lat="52.599913" lon="15.851392"></trkpt><trkpt lat="52.599436" lon="15.852296"></trkpt><trkpt lat="52.598825" lon="15.853054"></trkpt><trkpt lat="52.598564" lon="15.853322"></trkpt><trkpt lat="52.59828" lon="15.853828"></trkpt><trkpt lat="52.598274" lon="15.854397"></trkpt><trkpt lat="52.598602" lon="15.855335"></trkpt><trkpt lat="52.598666" lon="15.85566"></trkpt><trkpt lat="52.598683" lon="15.856045"></trkpt><trkpt lat="52.598665" lon="15.857443"></trkpt><trkpt lat="52.598446" lon="15.860678"></trkpt><trkpt lat="52.598608" lon="15.863666"></trkpt><trkpt lat="52.598785" lon="15.865229"></trkpt><trkpt lat="52.598758" lon="15.866634"></trkpt><trkpt lat="52.598855" lon="15.86769"></trkpt><trkpt lat="52.598714" lon="15.869111"></trkpt><trkpt lat="52.598752" lon="15.870199"></trkpt><trkpt lat="52.600185" lon="15.885569"></trkpt><trkpt lat="52.600568" lon="15.886398"></trkpt><trkpt lat="52.601416" lon="15.889204"></trkpt><trkpt lat="52.601271" lon="15.889456"></trkpt><trkpt lat="52.601082" lon="15.889715"></trkpt><trkpt lat="52.601148" lon="15.890092"></trkpt><trkpt lat="52.601723" lon="15.890815"></trkpt><trkpt lat="52.602647" lon="15.891798"></trkpt><trkpt lat="52.602819" lon="15.892018"></trkpt><trkpt lat="52.602957" lon="15.892274"></trkpt><trkpt lat="52.6031" lon="15.892605"></trkpt><trkpt lat="52.60334" lon="15.892872"></trkpt><trkpt lat="52.603457" lon="15.893139"></trkpt><trkpt lat="52.603581" lon="15.893474"></trkpt><trkpt lat="52.604273" lon="15.895925"></trkpt><trkpt lat="52.604277" lon="15.896547"></trkpt><trkpt lat="52.604346" lon="15.89703"></trkpt><trkpt lat="52.604486" lon="15.897479"></trkpt><trkpt lat="52.604779" lon="15.897954"></trkpt><trkpt lat="52.604899" lon="15.898419"></trkpt><trkpt lat="52.604911" lon="15.898757"></trkpt><trkpt lat="52.604845" lon="15.899363"></trkpt><trkpt lat="52.604936" lon="15.899682"></trkpt><trkpt lat="52.605391" lon="15.900428"></trkpt><trkpt lat="52.60573" lon="15.901764"></trkpt><trkpt lat="52.606025" lon="15.902576"></trkpt><trkpt lat="52.60634" lon="15.903189"></trkpt><trkpt lat="52.60636" lon="15.904543"></trkpt><trkpt lat="52.606245" lon="15.90552"></trkpt><trkpt lat="52.60533" lon="15.917955"></trkpt><trkpt lat="52.605565" lon="15.919206"></trkpt><trkpt lat="52.606504" lon="15.922718"></trkpt><trkpt lat="52.60711" lon="15.923734"></trkpt><trkpt lat="52.611428" lon="15.932282"></trkpt><trkpt lat="52.611855" lon="15.933386"></trkpt><trkpt lat="52.613287" lon="15.937761"></trkpt><trkpt lat="52.613159" lon="15.938101"></trkpt><trkpt lat="52.613062" lon="15.93905"></trkpt><trkpt lat="52.612984" lon="15.939404"></trkpt><trkpt lat="52.612878" lon="15.939759"></trkpt><trkpt lat="52.612681" lon="15.940163"></trkpt><trkpt lat="52.612394" lon="15.940591"></trkpt><trkpt lat="52.610564" lon="15.942793"></trkpt><trkpt lat="52.610193" lon="15.943083"></trkpt><trkpt lat="52.607733" lon="15.945405"></trkpt><trkpt lat="52.607448" lon="15.946014"></trkpt><trkpt lat="52.606355" lon="15.947769"></trkpt><trkpt lat="52.606067" lon="15.948067"></trkpt><trkpt lat="52.606466" lon="15.94765"></trkpt><trkpt lat="52.606955" lon="15.946975"></trkpt><trkpt lat="52.60711" lon="15.946659"></trkpt><trkpt lat="52.608371" lon="15.944451"></trkpt><trkpt lat="52.6087" lon="15.944143"></trkpt><trkpt lat="52.609514" lon="15.943516"></trkpt><trkpt lat="52.612081" lon="15.94105"></trkpt><trkpt lat="52.612366" lon="15.940642"></trkpt><trkpt lat="52.612879" lon="15.939789"></trkpt><trkpt lat="52.612971" lon="15.939481"></trkpt><trkpt lat="52.613142" lon="15.938197"></trkpt><trkpt lat="52.613263" lon="15.937895"></trkpt><trkpt lat="52.613437" lon="15.938596"></trkpt><trkpt lat="52.613469" lon="15.939414"></trkpt><trkpt lat="52.613652" lon="15.941334"></trkpt><trkpt lat="52.613766" lon="15.941816"></trkpt><trkpt lat="52.6151" lon="15.946345"></trkpt><trkpt lat="52.615489" lon="15.947056"></trkpt><trkpt lat="52.62392" lon="15.965232"></trkpt><trkpt lat="52.624146" lon="15.966261"></trkpt><trkpt lat="52.628844" lon="15.993995"></trkpt><trkpt lat="52.628891" lon="15.99489"></trkpt><trkpt lat="52.631173" lon="16.033693"></trkpt><trkpt lat="52.631359" lon="16.034621"></trkpt><trkpt lat="52.631624" lon="16.035366"></trkpt><trkpt lat="52.637671" lon="16.049908"></trkpt><trkpt lat="52.638039" lon="16.050406"></trkpt><trkpt lat="52.647729" lon="16.06556"></trkpt><trkpt lat="52.648085" lon="16.066377"></trkpt><trkpt lat="52.650645" lon="16.073586"></trkpt><trkpt lat="52.650687" lon="16.074379"></trkpt><trkpt lat="52.65157" lon="16.08104"></trkpt><trkpt lat="52.651651" lon="16.080624"></trkpt><trkpt lat="52.652078" lon="16.08073"></trkpt><trkpt lat="52.658478" lon="16.08137"></trkpt><trkpt lat="52.658775" lon="16.081255"></trkpt><trkpt lat="52.659098" lon="16.081207"></trkpt><trkpt lat="52.659362" lon="16.080951"></trkpt><trkpt lat="52.659482" lon="16.080495"></trkpt><trkpt lat="52.659592" lon="16.080158"></trkpt><trkpt lat="52.659861" lon="16.080062"></trkpt><trkpt lat="52.661696" lon="16.079724"></trkpt><trkpt lat="52.664399" lon="16.078706"></trkpt></trkseg></trk></gpx>