<?xml version="1.0" encoding="UTF-8" standalone="no" ?><gpx xmlns="http://www.topografix.com/GPX/1/1" xmlns:gpxx="http://www.garmin.com/xmlschemas/GpxExtensions/v3" ><trk><trkseg><trkpt lat="53.281447" lon="19.405566"></trkpt><trkpt lat="53.28156" lon="19.40589"></trkpt><trkpt lat="53.28156" lon="19.406232"></trkpt><trkpt lat="53.281381" lon="19.406449"></trkpt><trkpt lat="53.281087" lon="19.406882"></trkpt><trkpt lat="53.281447" lon="19.407927"></trkpt><trkpt lat="53.281908" lon="19.411431"></trkpt><trkpt lat="53.280957" lon="19.411084"></trkpt><trkpt lat="53.277892" lon="19.410357"></trkpt><trkpt lat="53.278123" lon="19.410978"></trkpt><trkpt lat="53.278432" lon="19.411551"></trkpt><trkpt lat="53.280345" lon="19.415653"></trkpt><trkpt lat="53.281571" lon="19.419105"></trkpt><trkpt lat="53.281823" lon="19.42019"></trkpt><trkpt lat="53.282375" lon="19.424168"></trkpt><trkpt lat="53.282159" lon="19.425502"></trkpt><trkpt lat="53.280259" lon="19.434287"></trkpt><trkpt lat="53.280147" lon="19.434567"></trkpt><trkpt lat="53.280027" lon="19.4351"></trkpt><trkpt lat="53.279839" lon="19.436178"></trkpt><trkpt lat="53.27971" lon="19.437262"></trkpt><trkpt lat="53.278469" lon="19.44462"></trkpt><trkpt lat="53.278514" lon="19.446052"></trkpt><trkpt lat="53.278648" lon="19.447416"></trkpt><trkpt lat="53.281545" lon="19.475866"></trkpt><trkpt lat="53.281823" lon="19.477145"></trkpt><trkpt lat="53.282251" lon="19.478267"></trkpt><trkpt lat="53.287331" lon="19.489493"></trkpt><trkpt lat="53.287663" lon="19.489996"></trkpt><trkpt lat="53.290953" lon="19.495746"></trkpt><trkpt lat="53.294237" lon="19.500618"></trkpt><trkpt lat="53.294749" lon="19.501223"></trkpt><trkpt lat="53.298127" lon="19.50432"></trkpt><trkpt lat="53.298878" lon="19.504549"></trkpt><trkpt lat="53.305309" lon="19.507804"></trkpt><trkpt lat="53.305704" lon="19.508615"></trkpt><trkpt lat="53.306308" lon="19.510207"></trkpt><trkpt lat="53.306594" lon="19.511248"></trkpt><trkpt lat="53.30707" lon="19.512446"></trkpt><trkpt lat="53.307548" lon="19.513276"></trkpt><trkpt lat="53.308896" lon="19.515026"></trkpt><trkpt lat="53.31177" lon="19.519361"></trkpt><trkpt lat="53.316537" lon="19.528094"></trkpt><trkpt lat="53.316406" lon="19.528684"></trkpt><trkpt lat="53.315065" lon="19.536719"></trkpt><trkpt lat="53.315264" lon="19.536801"></trkpt><trkpt lat="53.315709" lon="19.536791"></trkpt><trkpt lat="53.31593" lon="19.536734"></trkpt><trkpt lat="53.317264" lon="19.536624"></trkpt><trkpt lat="53.318957" lon="19.537159"></trkpt><trkpt lat="53.319083" lon="19.537421"></trkpt><trkpt lat="53.319145" lon="19.538164"></trkpt><trkpt lat="53.319238" lon="19.538648"></trkpt><trkpt lat="53.31901" lon="19.538744"></trkpt><trkpt lat="53.31854" lon="19.538795"></trkpt><trkpt lat="53.318302" lon="19.538977"></trkpt><trkpt lat="53.318052" lon="19.539229"></trkpt><trkpt lat="53.317841" lon="19.539496"></trkpt><trkpt lat="53.317643" lon="19.539807"></trkpt><trkpt lat="53.317497" lon="19.540139"></trkpt><trkpt lat="53.317342" lon="19.540551"></trkpt><trkpt lat="53.316948" lon="19.541946"></trkpt><trkpt lat="53.316861" lon="19.542353"></trkpt><trkpt lat="53.31465" lon="19.550241"></trkpt><trkpt lat="53.314326" lon="19.550931"></trkpt><trkpt lat="53.311202" lon="19.558861"></trkpt><trkpt lat="53.310556" lon="19.560921"></trkpt><trkpt lat="53.310918" lon="19.562277"></trkpt><trkpt lat="53.311124" lon="19.562885"></trkpt><trkpt lat="53.311319" lon="19.56316"></trkpt><trkpt lat="53.31151" lon="19.563378"></trkpt><trkpt lat="53.311655" lon="19.563632"></trkpt><trkpt lat="53.311744" lon="19.564786"></trkpt><trkpt lat="53.311634" lon="19.565342"></trkpt><trkpt lat="53.311472" lon="19.565964"></trkpt><trkpt lat="53.310988" lon="19.567431"></trkpt><trkpt lat="53.310925" lon="19.567758"></trkpt><trkpt lat="53.310959" lon="19.568106"></trkpt><trkpt lat="53.311322" lon="19.569343"></trkpt><trkpt lat="53.311449" lon="19.569642"></trkpt><trkpt lat="53.311667" lon="19.569852"></trkpt><trkpt lat="53.312004" lon="19.5701"></trkpt><trkpt lat="53.312819" lon="19.570874"></trkpt><trkpt lat="53.312859" lon="19.571385"></trkpt><trkpt lat="53.312805" lon="19.572084"></trkpt><trkpt lat="53.312627" lon="19.572697"></trkpt><trkpt lat="53.312406" lon="19.573146"></trkpt><trkpt lat="53.312308" lon="19.573888"></trkpt><trkpt lat="53.312549" lon="19.574853"></trkpt><trkpt lat="53.312665" lon="19.575169"></trkpt><trkpt lat="53.313232" lon="19.577298"></trkpt><trkpt lat="53.313236" lon="19.577907"></trkpt><trkpt lat="53.313161" lon="19.578648"></trkpt><trkpt lat="53.313121" lon="19.580107"></trkpt><trkpt lat="53.313316" lon="19.580179"></trkpt><trkpt lat="53.313662" lon="19.580169"></trkpt><trkpt lat="53.313869" lon="19.580094"></trkpt><trkpt lat="53.314309" lon="19.579711"></trkpt><trkpt lat="53.31453" lon="19.579373"></trkpt><trkpt lat="53.314857" lon="19.578974"></trkpt><trkpt lat="53.315204" lon="19.578686"></trkpt><trkpt lat="53.315545" lon="19.578557"></trkpt><trkpt lat="53.31588" lon="19.57854"></trkpt><trkpt lat="53.316093" lon="19.578582"></trkpt><trkpt lat="53.316991" lon="19.578892"></trkpt><trkpt lat="53.317235" lon="19.579036"></trkpt><trkpt lat="53.317758" lon="19.579251"></trkpt><trkpt lat="53.317981" lon="19.578974"></trkpt><trkpt lat="53.318551" lon="19.578443"></trkpt><trkpt lat="53.319085" lon="19.577791"></trkpt><trkpt lat="53.319396" lon="19.577006"></trkpt><trkpt lat="53.319555" lon="19.57668"></trkpt><trkpt lat="53.319945" lon="19.57637"></trkpt><trkpt lat="53.320454" lon="19.57613"></trkpt><trkpt lat="53.321996" lon="19.575674"></trkpt><trkpt lat="53.322285" lon="19.575918"></trkpt><trkpt lat="53.322431" lon="19.576143"></trkpt><trkpt lat="53.322899" lon="19.576637"></trkpt><trkpt lat="53.323102" lon="19.576677"></trkpt><trkpt lat="53.323464" lon="19.576846"></trkpt><trkpt lat="53.323388" lon="19.57737"></trkpt><trkpt lat="53.322991" lon="19.578697"></trkpt><trkpt lat="53.321966" lon="19.583779"></trkpt><trkpt lat="53.321911" lon="19.585136"></trkpt><trkpt lat="53.322096" lon="19.597705"></trkpt><trkpt lat="53.322259" lon="19.597908"></trkpt><trkpt lat="53.322866" lon="19.598838"></trkpt><trkpt lat="53.32306" lon="19.598981"></trkpt><trkpt lat="53.323639" lon="19.599314"></trkpt><trkpt lat="53.323827" lon="19.599473"></trkpt><trkpt lat="53.323965" lon="19.599739"></trkpt><trkpt lat="53.324152" lon="19.60065"></trkpt><trkpt lat="53.324735" lon="19.607196"></trkpt><trkpt lat="53.324367" lon="19.607352"></trkpt><trkpt lat="53.323635" lon="19.607232"></trkpt><trkpt lat="53.312168" lon="19.606853"></trkpt><trkpt lat="53.311571" lon="19.607263"></trkpt><trkpt lat="53.310587" lon="19.607791"></trkpt><trkpt lat="53.310014" lon="19.607969"></trkpt><trkpt lat="53.309587" lon="19.607991"></trkpt><trkpt lat="53.308886" lon="19.608177"></trkpt><trkpt lat="53.308581" lon="19.608347"></trkpt><trkpt lat="53.306121" lon="19.609338"></trkpt><trkpt lat="53.305906" lon="19.609513"></trkpt><trkpt lat="53.305559" lon="19.610225"></trkpt><trkpt lat="53.305439" lon="19.610669"></trkpt><trkpt lat="53.305238" lon="19.611774"></trkpt><trkpt lat="53.305075" lon="19.612986"></trkpt><trkpt lat="53.305171" lon="19.613349"></trkpt><trkpt lat="53.305511" lon="19.614222"></trkpt><trkpt lat="53.305536" lon="19.614619"></trkpt><trkpt lat="53.305375" lon="19.61493"></trkpt><trkpt lat="53.305149" lon="19.61503"></trkpt><trkpt lat="53.304944" lon="19.615044"></trkpt><trkpt lat="53.304702" lon="19.615121"></trkpt><trkpt lat="53.304369" lon="19.615122"></trkpt><trkpt lat="53.304059" lon="19.614983"></trkpt><trkpt lat="53.302571" lon="19.614614"></trkpt><trkpt lat="53.300766" lon="19.614845"></trkpt><trkpt lat="53.300406" lon="19.614717"></trkpt><trkpt lat="53.300092" lon="19.614703"></trkpt><trkpt lat="53.30013" lon="19.615258"></trkpt><trkpt lat="53.300121" lon="19.616052"></trkpt><trkpt lat="53.300049" lon="19.617004"></trkpt><trkpt lat="53.300017" lon="19.618239"></trkpt><trkpt lat="53.300171" lon="19.619101"></trkpt><trkpt lat="53.300582" lon="19.623128"></trkpt><trkpt lat="53.300345" lon="19.623621"></trkpt><trkpt lat="53.300071" lon="19.624029"></trkpt><trkpt lat="53.299826" lon="19.624516"></trkpt><trkpt lat="53.299739" lon="19.625132"></trkpt><trkpt lat="53.299705" lon="19.625679"></trkpt><trkpt lat="53.299538" lon="19.626166"></trkpt><trkpt lat="53.299232" lon="19.626493"></trkpt><trkpt lat="53.298994" lon="19.626942"></trkpt><trkpt lat="53.298899" lon="19.627657"></trkpt><trkpt lat="53.298724" lon="19.628255"></trkpt><trkpt lat="53.298393" lon="19.628611"></trkpt><trkpt lat="53.298223" lon="19.62907"></trkpt><trkpt lat="53.298169" lon="19.629603"></trkpt><trkpt lat="53.298002" lon="19.630237"></trkpt><trkpt lat="53.297769" lon="19.630874"></trkpt><trkpt lat="53.295516" lon="19.638172"></trkpt><trkpt lat="53.295516" lon="19.638506"></trkpt><trkpt lat="53.295083" lon="19.64341"></trkpt><trkpt lat="53.29502" lon="19.646428"></trkpt><trkpt lat="53.29506" lon="19.647115"></trkpt><trkpt lat="53.294909" lon="19.647751"></trkpt><trkpt lat="53.294699" lon="19.648246"></trkpt><trkpt lat="53.294355" lon="19.649391"></trkpt><trkpt lat="53.294344" lon="19.650112"></trkpt><trkpt lat="53.294632" lon="19.657171"></trkpt><trkpt lat="53.29491" lon="19.657789"></trkpt><trkpt lat="53.295102" lon="19.658339"></trkpt><trkpt lat="53.295287" lon="19.658996"></trkpt><trkpt lat="53.296383" lon="19.663763"></trkpt><trkpt lat="53.296375" lon="19.664128"></trkpt><trkpt lat="53.296101" lon="19.665015"></trkpt><trkpt lat="53.2958" lon="19.66573"></trkpt><trkpt lat="53.295394" lon="19.666481"></trkpt><trkpt lat="53.29505" lon="19.667365"></trkpt><trkpt lat="53.294919" lon="19.668503"></trkpt><trkpt lat="53.294515" lon="19.670387"></trkpt><trkpt lat="53.293631" lon="19.675804"></trkpt><trkpt lat="53.29357" lon="19.676352"></trkpt><trkpt lat="53.293472" lon="19.676978"></trkpt><trkpt lat="53.292593" lon="19.681221"></trkpt><trkpt lat="53.292012" lon="19.682077"></trkpt><trkpt lat="53.29002" lon="19.68556"></trkpt><trkpt lat="53.289913" lon="19.686188"></trkpt><trkpt lat="53.289818" lon="19.686598"></trkpt><trkpt lat="53.289825" lon="19.687382"></trkpt><trkpt lat="53.290501" lon="19.692244"></trkpt><trkpt lat="53.290784" lon="19.692615"></trkpt><trkpt lat="53.290851" lon="19.693006"></trkpt><trkpt lat="53.290725" lon="19.693791"></trkpt><trkpt lat="53.289067" lon="19.710296"></trkpt><trkpt lat="53.289157" lon="19.710605"></trkpt><trkpt lat="53.289484" lon="19.711328"></trkpt><trkpt lat="53.289739" lon="19.712091"></trkpt><trkpt lat="53.289759" lon="19.712752"></trkpt><trkpt lat="53.289745" lon="19.713261"></trkpt><trkpt lat="53.2901" lon="19.72021"></trkpt><trkpt lat="53.290452" lon="19.721411"></trkpt><trkpt lat="53.29068" lon="19.722553"></trkpt><trkpt lat="53.291314" lon="19.725117"></trkpt><trkpt lat="53.292416" lon="19.728784"></trkpt><trkpt lat="53.292663" lon="19.729364"></trkpt><trkpt lat="53.292943" lon="19.730218"></trkpt><trkpt lat="53.293084" lon="19.730974"></trkpt><trkpt lat="53.293237" lon="19.732303"></trkpt><trkpt lat="53.293324" lon="19.732827"></trkpt><trkpt lat="53.293352" lon="19.7333"></trkpt><trkpt lat="53.293287" lon="19.733789"></trkpt><trkpt lat="53.293166" lon="19.735209"></trkpt><trkpt lat="53.292808" lon="19.745291"></trkpt><trkpt lat="53.292972" lon="19.74619"></trkpt><trkpt lat="53.294712" lon="19.760962"></trkpt><trkpt lat="53.294142" lon="19.761533"></trkpt><trkpt lat="53.29364" lon="19.761804"></trkpt><trkpt lat="53.277286" lon="19.768717"></trkpt><trkpt lat="53.276834" lon="19.768683"></trkpt><trkpt lat="53.271957" lon="19.769643"></trkpt><trkpt lat="53.271463" lon="19.770182"></trkpt><trkpt lat="53.270263" lon="19.771237"></trkpt><trkpt lat="53.266237" lon="19.775414"></trkpt><trkpt lat="53.266406" lon="19.775993"></trkpt><trkpt lat="53.271252" lon="19.796969"></trkpt><trkpt lat="53.271236" lon="19.798213"></trkpt><trkpt lat="53.270501" lon="19.810786"></trkpt><trkpt lat="53.270242" lon="19.811648"></trkpt><trkpt lat="53.268363" lon="19.819599"></trkpt><trkpt lat="53.268153" lon="19.819657"></trkpt><trkpt lat="53.267457" lon="19.819079"></trkpt><trkpt lat="53.267279" lon="19.818837"></trkpt><trkpt lat="53.266797" lon="19.819359"></trkpt><trkpt lat="53.266608" lon="19.819626"></trkpt><trkpt lat="53.266414" lon="19.819966"></trkpt><trkpt lat="53.266059" lon="19.820415"></trkpt><trkpt lat="53.265848" lon="19.820625"></trkpt><trkpt lat="53.265087" lon="19.820897"></trkpt><trkpt lat="53.264672" lon="19.820983"></trkpt><trkpt lat="53.264316" lon="19.821003"></trkpt><trkpt lat="53.263397" lon="19.820819"></trkpt><trkpt lat="53.263255" lon="19.821175"></trkpt><trkpt lat="53.2631" lon="19.821507"></trkpt><trkpt lat="53.262718" lon="19.82281"></trkpt><trkpt lat="53.262572" lon="19.823464"></trkpt><trkpt lat="53.262421" lon="19.824001"></trkpt><trkpt lat="53.262432" lon="19.824365"></trkpt><trkpt lat="53.262152" lon="19.845663"></trkpt><trkpt lat="53.261973" lon="19.847075"></trkpt><trkpt lat="53.261143" lon="19.857874"></trkpt><trkpt lat="53.260975" lon="19.858132"></trkpt><trkpt lat="53.260409" lon="19.858391"></trkpt><trkpt lat="53.260185" lon="19.858871"></trkpt><trkpt lat="53.259972" lon="19.859713"></trkpt><trkpt lat="53.259638" lon="19.860586"></trkpt><trkpt lat="53.257437" lon="19.868447"></trkpt><trkpt lat="53.257408" lon="19.869649"></trkpt><trkpt lat="53.256011" lon="19.890739"></trkpt><trkpt lat="53.255923" lon="19.89127"></trkpt><trkpt lat="53.255499" lon="19.893269"></trkpt><trkpt lat="53.255249" lon="19.893491"></trkpt><trkpt lat="53.255048" lon="19.893719"></trkpt><trkpt lat="53.254936" lon="19.893379"></trkpt><trkpt lat="53.25514" lon="19.893562"></trkpt><trkpt lat="53.255407" lon="19.893231"></trkpt><trkpt lat="53.25561" lon="19.893128"></trkpt><trkpt lat="53.255739" lon="19.892483"></trkpt><trkpt lat="53.256008" lon="19.890742"></trkpt><trkpt lat="53.255811" lon="19.890707"></trkpt><trkpt lat="53.255611" lon="19.891"></trkpt><trkpt lat="53.255388" lon="19.890248"></trkpt></trkseg></trk></gpx>