<?xml version="1.0" encoding="UTF-8" standalone="no" ?><gpx xmlns="http://www.topografix.com/GPX/1/1" xmlns:gpxx="http://www.garmin.com/xmlschemas/GpxExtensions/v3" ><trk><trkseg><trkpt lat="49.2632421479" lon="22.3976824433"></trkpt><trkpt lat="49.2632030044" lon="22.397240717"></trkpt><trkpt lat="49.2630497832" lon="22.3964993376"></trkpt><trkpt lat="49.2629949655" lon="22.3960333038"></trkpt><trkpt lat="49.2627447657" lon="22.3947055265"></trkpt><trkpt lat="49.2626192048" lon="22.3943036981"></trkpt><trkpt lat="49.2624822445" lon="22.3936643265"></trkpt><trkpt lat="49.2624404188" lon="22.393160155"></trkpt><trkpt lat="49.2624767963" lon="22.392739635"></trkpt><trkpt lat="49.2625819054" lon="22.3923575878"></trkpt><trkpt lat="49.2629932053" lon="22.3903886788"></trkpt><trkpt lat="49.2632175889" lon="22.3900857568"></trkpt><trkpt lat="49.2633461673" lon="22.3897075653"></trkpt><trkpt lat="49.2634994723" lon="22.3893650807"></trkpt><trkpt lat="49.2635619175" lon="22.3887906689"></trkpt><trkpt lat="49.2636697087" lon="22.3883169238"></trkpt><trkpt lat="49.2638643365" lon="22.3876859341"></trkpt><trkpt lat="49.2638098542" lon="22.3872157093"></trkpt><trkpt lat="49.2639994528" lon="22.386755459"></trkpt><trkpt lat="49.2639971059" lon="22.3862926941"></trkpt><trkpt lat="49.2640795838" lon="22.3858573381"></trkpt><trkpt lat="49.2642980162" lon="22.3854945693"></trkpt><trkpt lat="49.2647255771" lon="22.384579014"></trkpt><trkpt lat="49.2648435105" lon="22.3840465955"></trkpt><trkpt lat="49.2650552373" lon="22.3837592639"></trkpt><trkpt lat="49.2653334327" lon="22.383473441"></trkpt><trkpt lat="49.2655433994" lon="22.3831315432"></trkpt><trkpt lat="49.265401829" lon="22.3827285413"></trkpt><trkpt lat="49.2651481088" lon="22.3823424708"></trkpt><trkpt lat="49.2649326939" lon="22.3818787001"></trkpt><trkpt lat="49.2649140861" lon="22.3814330343"></trkpt><trkpt lat="49.2648530658" lon="22.3809518293"></trkpt><trkpt lat="49.264852982" lon="22.3804386053"></trkpt><trkpt lat="49.2649250664" lon="22.3793167714"></trkpt><trkpt lat="49.2650643736" lon="22.3787043057"></trkpt><trkpt lat="49.2650393117" lon="22.3782651778"></trkpt><trkpt lat="49.2651261482" lon="22.3778610025"></trkpt><trkpt lat="49.2652711552" lon="22.377351718"></trkpt><trkpt lat="49.2652729154" lon="22.3768517375"></trkpt><trkpt lat="49.2651921138" lon="22.3764546029"></trkpt><trkpt lat="49.2650039401" lon="22.3760604858"></trkpt><trkpt lat="49.2647386529" lon="22.3756227829"></trkpt><trkpt lat="49.264676962" lon="22.3750796355"></trkpt><trkpt lat="49.2645063065" lon="22.3741785809"></trkpt><trkpt lat="49.2643409315" lon="22.3737660237"></trkpt><trkpt lat="49.264356019" lon="22.3732186016"></trkpt><trkpt lat="49.2642982677" lon="22.3716311529"></trkpt><trkpt lat="49.2643372435" lon="22.3711419851"></trkpt><trkpt lat="49.2641258519" lon="22.3707368039"></trkpt><trkpt lat="49.2638366763" lon="22.3705203831"></trkpt><trkpt lat="49.2630004138" lon="22.3697262816"></trkpt><trkpt lat="49.2629720829" lon="22.3692827113"></trkpt><trkpt lat="49.2631330993" lon="22.3688745964"></trkpt><trkpt lat="49.2628694046" lon="22.3690922745"></trkpt><trkpt lat="49.2629305925" lon="22.369523691"></trkpt><trkpt lat="49.2631183472" lon="22.3699266091"></trkpt><trkpt lat="49.2634628434" lon="22.3702286091"></trkpt><trkpt lat="49.2644115072" lon="22.3713651113"></trkpt><trkpt lat="49.2644879501" lon="22.371788146"></trkpt><trkpt lat="49.2647176143" lon="22.3726296052"></trkpt><trkpt lat="49.2650207877" lon="22.3742912337"></trkpt><trkpt lat="49.2652248871" lon="22.3749582656"></trkpt><trkpt lat="49.2654805351" lon="22.3761835322"></trkpt><trkpt lat="49.2655086983" lon="22.3766265996"></trkpt><trkpt lat="49.2653733306" lon="22.3771054577"></trkpt><trkpt lat="49.2651219573" lon="22.3784023058"></trkpt><trkpt lat="49.2650602665" lon="22.3789258394"></trkpt><trkpt lat="49.2648871802" lon="22.3797535524"></trkpt><trkpt lat="49.2648697458" lon="22.3802542035"></trkpt><trkpt lat="49.2649064586" lon="22.3814834096"></trkpt><trkpt lat="49.2649952229" lon="22.3820508644"></trkpt><trkpt lat="49.2652927805" lon="22.3823842965"></trkpt><trkpt lat="49.2655640189" lon="22.3827733006"></trkpt><trkpt lat="49.265585728" lon="22.3832549248"></trkpt><trkpt lat="49.2652412318" lon="22.3835985828"></trkpt><trkpt lat="49.2648495454" lon="22.3840738367"></trkpt><trkpt lat="49.264734881" lon="22.3845492583"></trkpt><trkpt lat="49.2645529937" lon="22.3850050662"></trkpt><trkpt lat="49.2641320545" lon="22.3863030039"></trkpt><trkpt lat="49.2638854589" lon="22.3872747179"></trkpt><trkpt lat="49.2637453135" lon="22.3876938969"></trkpt><trkpt lat="49.2636670265" lon="22.3881741799"></trkpt><trkpt lat="49.2635564692" lon="22.3886024114"></trkpt><trkpt lat="49.2634949461" lon="22.3890740611"></trkpt><trkpt lat="49.2633532081" lon="22.3895983491"></trkpt><trkpt lat="49.2631608434" lon="22.3898962419"></trkpt><trkpt lat="49.2629870865" lon="22.3903341126"></trkpt><trkpt lat="49.2628865875" lon="22.3907425627"></trkpt><trkpt lat="49.2627404071" lon="22.3915784061"></trkpt><trkpt lat="49.262502864" lon="22.3937711958"></trkpt><trkpt lat="49.2626759503" lon="22.3942920472"></trkpt><trkpt lat="49.2630633619" lon="22.3957784101"></trkpt><trkpt lat="49.2632439081" lon="22.3981219064"></trkpt></trkseg></trk></gpx>