<?xml version="1.0" encoding="UTF-8" standalone="no" ?><gpx xmlns="http://www.topografix.com/GPX/1/1" xmlns:gpxx="http://www.garmin.com/xmlschemas/GpxExtensions/v3" ><trk><trkseg><trkpt lat="50.2081325836" lon="16.8324104603"></trkpt><trkpt lat="50.2072356362" lon="16.8330877181"></trkpt><trkpt lat="50.2078061923" lon="16.8327901606"></trkpt><trkpt lat="50.2080137283" lon="16.8325198442"></trkpt><trkpt lat="50.2078126464" lon="16.8329953495"></trkpt><trkpt lat="50.2076509595" lon="16.8334721122"></trkpt><trkpt lat="50.2070883662" lon="16.8347879872"></trkpt><trkpt lat="50.2068473026" lon="16.835118318"></trkpt><trkpt lat="50.2063510939" lon="16.8356687576"></trkpt><trkpt lat="50.2049732767" lon="16.8369086087"></trkpt><trkpt lat="50.2046713606" lon="16.8370254524"></trkpt><trkpt lat="50.2043306362" lon="16.8372945115"></trkpt><trkpt lat="50.204205662" lon="16.8377682567"></trkpt><trkpt lat="50.2041434683" lon="16.8382583465"></trkpt><trkpt lat="50.204113964" lon="16.8389189243"></trkpt><trkpt lat="50.2042394411" lon="16.8393463176"></trkpt><trkpt lat="50.2044143714" lon="16.8397161271"></trkpt><trkpt lat="50.2044854499" lon="16.8401451129"></trkpt><trkpt lat="50.2047325484" lon="16.8403624557"></trkpt><trkpt lat="50.2050091513" lon="16.840718016"></trkpt><trkpt lat="50.2053820621" lon="16.8413202558"></trkpt><trkpt lat="50.2055830602" lon="16.84173977"></trkpt><trkpt lat="50.2057934459" lon="16.8423072249"></trkpt><trkpt lat="50.2059590723" lon="16.8426459376"></trkpt><trkpt lat="50.2061055042" lon="16.8431110494"></trkpt><trkpt lat="50.2061971184" lon="16.8435925897"></trkpt><trkpt lat="50.2063326538" lon="16.8440175522"></trkpt><trkpt lat="50.2064766549" lon="16.8445912097"></trkpt><trkpt lat="50.2070172038" lon="16.8462882098"></trkpt><trkpt lat="50.2072259132" lon="16.8466926366"></trkpt><trkpt lat="50.2075068746" lon="16.8469213787"></trkpt><trkpt lat="50.2075117361" lon="16.8464879505"></trkpt><trkpt lat="50.207462199" lon="16.8469239771"></trkpt><trkpt lat="50.2071365621" lon="16.8465430196"></trkpt><trkpt lat="50.2069638111" lon="16.8462080788"></trkpt><trkpt lat="50.2068145294" lon="16.8458343297"></trkpt><trkpt lat="50.2066427004" lon="16.8453007378"></trkpt><trkpt lat="50.2065498289" lon="16.8449038547"></trkpt><trkpt lat="50.2064914908" lon="16.8444748688"></trkpt><trkpt lat="50.2063707076" lon="16.8440534268"></trkpt><trkpt lat="50.2053922042" lon="16.8413586449"></trkpt><trkpt lat="50.2052330319" lon="16.8410159089"></trkpt><trkpt lat="50.2050034516" lon="16.8406813033"></trkpt><trkpt lat="50.2047188859" lon="16.8403596058"></trkpt><trkpt lat="50.2044503298" lon="16.8401155248"></trkpt><trkpt lat="50.2044338174" lon="16.839689808"></trkpt><trkpt lat="50.2042076737" lon="16.8393207528"></trkpt><trkpt lat="50.2040925063" lon="16.8388590775"></trkpt><trkpt lat="50.2041223459" lon="16.8383844104"></trkpt><trkpt lat="50.2042033151" lon="16.8378722761"></trkpt><trkpt lat="50.2042981144" lon="16.8374555279"></trkpt><trkpt lat="50.2045596298" lon="16.8371764105"></trkpt><trkpt lat="50.2048980072" lon="16.837026123"></trkpt><trkpt lat="50.2053523064" lon="16.8367439881"></trkpt><trkpt lat="50.2058506943" lon="16.8363482784"></trkpt><trkpt lat="50.2060528658" lon="16.8360545766"></trkpt><trkpt lat="50.2063444722" lon="16.8357207254"></trkpt><trkpt lat="50.207358012" lon="16.8343102187"></trkpt><trkpt lat="50.2080131415" lon="16.8323136494"></trkpt></trkseg></trk></gpx>