<?xml version="1.0" encoding="UTF-8" standalone="no" ?><gpx xmlns="http://www.topografix.com/GPX/1/1" xmlns:gpxx="http://www.garmin.com/xmlschemas/GpxExtensions/v3" ><trk><trkseg><trkpt lat="52.8383415285" lon="15.8263388369"></trkpt><trkpt lat="52.8381654248" lon="15.8269673958"></trkpt><trkpt lat="52.8382339887" lon="15.8263813332"></trkpt><trkpt lat="52.8379415441" lon="15.8263966721"></trkpt><trkpt lat="52.8375771828" lon="15.8267104067"></trkpt><trkpt lat="52.83737652" lon="15.8272528835"></trkpt><trkpt lat="52.8371224646" lon="15.8281328157"></trkpt><trkpt lat="52.8371031024" lon="15.8285830915"></trkpt><trkpt lat="52.8369311895" lon="15.8289880212"></trkpt><trkpt lat="52.8369230591" lon="15.8294756804"></trkpt><trkpt lat="52.8368791379" lon="15.8300223481"></trkpt><trkpt lat="52.836993048" lon="15.8304829337"></trkpt><trkpt lat="52.8371993266" lon="15.8309491351"></trkpt><trkpt lat="52.8374895919" lon="15.8309428487"></trkpt><trkpt lat="52.837797543" lon="15.8310407493"></trkpt><trkpt lat="52.8380598966" lon="15.8311933838"></trkpt><trkpt lat="52.8380716313" lon="15.8317974675"></trkpt><trkpt lat="52.8380170651" lon="15.8331281785"></trkpt><trkpt lat="52.8377870657" lon="15.8334486187"></trkpt><trkpt lat="52.8377748281" lon="15.8339607529"></trkpt><trkpt lat="52.8374389652" lon="15.8339862339"></trkpt><trkpt lat="52.837737361" lon="15.8339172509"></trkpt><trkpt lat="52.8380464856" lon="15.834079273"></trkpt><trkpt lat="52.8380552027" lon="15.8345665131"></trkpt><trkpt lat="52.8380308114" lon="15.8351348061"></trkpt><trkpt lat="52.837940203" lon="15.8356497902"></trkpt><trkpt lat="52.8378866427" lon="15.8361010719"></trkpt><trkpt lat="52.8377964534" lon="15.8365750685"></trkpt><trkpt lat="52.8374720737" lon="15.8368076663"></trkpt><trkpt lat="52.8371868376" lon="15.8367190696"></trkpt><trkpt lat="52.8368856758" lon="15.8365297224"></trkpt><trkpt lat="52.8366415109" lon="15.8367905673"></trkpt><trkpt lat="52.8370086383" lon="15.8366333228"></trkpt><trkpt lat="52.8373362031" lon="15.8368301298"></trkpt><trkpt lat="52.8376439027" lon="15.836946303"></trkpt><trkpt lat="52.8379552066" lon="15.8371160366"></trkpt><trkpt lat="52.8381850384" lon="15.8373701759"></trkpt><trkpt lat="52.8385250084" lon="15.8375625405"></trkpt><trkpt lat="52.8389316145" lon="15.8372329641"></trkpt><trkpt lat="52.8390216362" lon="15.8377994969"></trkpt><trkpt lat="52.8390238993" lon="15.8383672033"></trkpt><trkpt lat="52.8392339498" lon="15.8387516811"></trkpt><trkpt lat="52.8394956328" lon="15.838494692"></trkpt><trkpt lat="52.8394225426" lon="15.838060258"></trkpt><trkpt lat="52.839176869" lon="15.8378035203"></trkpt><trkpt lat="52.8390941396" lon="15.8373721875"></trkpt><trkpt lat="52.8391740192" lon="15.836694343"></trkpt><trkpt lat="52.8391995002" lon="15.8361252118"></trkpt><trkpt lat="52.8392731771" lon="15.8354684059"></trkpt><trkpt lat="52.839201428" lon="15.8350068983"></trkpt><trkpt lat="52.8392423317" lon="15.8343009744"></trkpt><trkpt lat="52.8392979037" lon="15.833826391"></trkpt><trkpt lat="52.8394052759" lon="15.8332789689"></trkpt><trkpt lat="52.8396158293" lon="15.8325943351"></trkpt><trkpt lat="52.8395731654" lon="15.8320598211"></trkpt><trkpt lat="52.8396384604" lon="15.8316181786"></trkpt><trkpt lat="52.839670144" lon="15.8310698345"></trkpt><trkpt lat="52.8396406397" lon="15.8305450436"></trkpt><trkpt lat="52.8396635223" lon="15.8299790137"></trkpt><trkpt lat="52.8398382012" lon="15.8295224514"></trkpt><trkpt lat="52.8397021629" lon="15.8291112352"></trkpt><trkpt lat="52.8393885959" lon="15.8290634584"></trkpt><trkpt lat="52.8390423395" lon="15.8286473807"></trkpt><trkpt lat="52.8389862645" lon="15.8281892259"></trkpt><trkpt lat="52.8389879409" lon="15.8276696317"></trkpt><trkpt lat="52.8389307763" lon="15.8271652088"></trkpt><trkpt lat="52.8386157006" lon="15.8268310223"></trkpt><trkpt lat="52.8383794986" lon="15.8262590412"></trkpt></trkseg></trk></gpx>