<?xml version="1.0" encoding="UTF-8" standalone="no" ?><gpx xmlns="http://www.topografix.com/GPX/1/1" xmlns:gpxx="http://www.garmin.com/xmlschemas/GpxExtensions/v3" ><trk><trkseg><trkpt lat="50.6921242084" lon="16.7038002983"></trkpt><trkpt lat="50.6918381341" lon="16.703784205"></trkpt><trkpt lat="50.691551473" lon="16.7034255434"></trkpt><trkpt lat="50.6912756246" lon="16.7032434046"></trkpt><trkpt lat="50.6909958366" lon="16.7029465176"></trkpt><trkpt lat="50.6907386798" lon="16.7032999825"></trkpt><trkpt lat="50.6896877568" lon="16.7050889321"></trkpt><trkpt lat="50.6895078812" lon="16.705553038"></trkpt><trkpt lat="50.6892376486" lon="16.7055827938"></trkpt><trkpt lat="50.6889263447" lon="16.7052441649"></trkpt><trkpt lat="50.6848766282" lon="16.7016187403"></trkpt><trkpt lat="50.6769711524" lon="16.6947687138"></trkpt><trkpt lat="50.6766948011" lon="16.6946206894"></trkpt><trkpt lat="50.6763179507" lon="16.6943504568"></trkpt><trkpt lat="50.6748248823" lon="16.6927583981"></trkpt><trkpt lat="50.674871318" lon="16.6922701523"></trkpt><trkpt lat="50.6748757605" lon="16.6918344609"></trkpt><trkpt lat="50.6748460885" lon="16.6912411898"></trkpt><trkpt lat="50.6746718287" lon="16.6906484216"></trkpt><trkpt lat="50.6745624449" lon="16.6900609341"></trkpt><trkpt lat="50.6746994052" lon="16.6896579321"></trkpt><trkpt lat="50.6748610921" lon="16.6890231706"></trkpt><trkpt lat="50.6748857349" lon="16.6882843897"></trkpt><trkpt lat="50.6748443283" lon="16.6869948339"></trkpt><trkpt lat="50.6748590805" lon="16.6865060013"></trkpt><trkpt lat="50.6748142373" lon="16.6860829666"></trkpt><trkpt lat="50.6747994013" lon="16.6856088862"></trkpt><trkpt lat="50.6748133991" lon="16.6850765515"></trkpt><trkpt lat="50.6747978088" lon="16.684633065"></trkpt><trkpt lat="50.6748374552" lon="16.6834129114"></trkpt><trkpt lat="50.6744791288" lon="16.6834248975"></trkpt><trkpt lat="50.6741774641" lon="16.6832204629"></trkpt><trkpt lat="50.6738205627" lon="16.6829173733"></trkpt><trkpt lat="50.6735423673" lon="16.6826147866"></trkpt><trkpt lat="50.6730605755" lon="16.6822123714"></trkpt><trkpt lat="50.6723024324" lon="16.6817351896"></trkpt><trkpt lat="50.6720334571" lon="16.6818075255"></trkpt><trkpt lat="50.6708924286" lon="16.6822860483"></trkpt><trkpt lat="50.670623621" lon="16.6824957635"></trkpt><trkpt lat="50.670290608" lon="16.6826246772"></trkpt><trkpt lat="50.6696025375" lon="16.6827613022"></trkpt><trkpt lat="50.6696024537" lon="16.6822581366"></trkpt><trkpt lat="50.6696472969" lon="16.6817247123"></trkpt><trkpt lat="50.6696614623" lon="16.6809954867"></trkpt><trkpt lat="50.6694819219" lon="16.6805935744"></trkpt><trkpt lat="50.6692199036" lon="16.680459464"></trkpt><trkpt lat="50.6693116017" lon="16.6800338309"></trkpt><trkpt lat="50.6694514118" lon="16.6795486026"></trkpt><trkpt lat="50.6695467141" lon="16.6790670622"></trkpt><trkpt lat="50.6696045492" lon="16.6784968413"></trkpt><trkpt lat="50.6697356422" lon="16.6778103635"></trkpt><trkpt lat="50.6698513962" lon="16.6773862392"></trkpt><trkpt lat="50.6702772807" lon="16.6761708632"></trkpt><trkpt lat="50.6706598308" lon="16.67635669"></trkpt><trkpt lat="50.671295682" lon="16.6767690796"></trkpt><trkpt lat="50.6765360478" lon="16.6791809723"></trkpt><trkpt lat="50.6766927056" lon="16.6788108274"></trkpt><trkpt lat="50.6768987328" lon="16.6782073304"></trkpt><trkpt lat="50.6770095415" lon="16.6777671967"></trkpt><trkpt lat="50.6771870703" lon="16.6773843113"></trkpt><trkpt lat="50.6774188299" lon="16.6759867128"></trkpt><trkpt lat="50.6776660122" lon="16.6761648282"></trkpt><trkpt lat="50.6778823491" lon="16.6758988705"></trkpt><trkpt lat="50.6781335548" lon="16.6753009055"></trkpt><trkpt lat="50.678324746" lon="16.6749910265"></trkpt><trkpt lat="50.6793359388" lon="16.6730201058"></trkpt><trkpt lat="50.6794883218" lon="16.6726616956"></trkpt><trkpt lat="50.6796491705" lon="16.6721928958"></trkpt><trkpt lat="50.6798520125" lon="16.6719091684"></trkpt><trkpt lat="50.6819123682" lon="16.6684643738"></trkpt><trkpt lat="50.6820194051" lon="16.6680578515"></trkpt><trkpt lat="50.68209216" lon="16.6675846092"></trkpt><trkpt lat="50.6822339818" lon="16.6669336706"></trkpt><trkpt lat="50.6828725152" lon="16.6647702176"></trkpt><trkpt lat="50.683128247" lon="16.6643796209"></trkpt><trkpt lat="50.6845362391" lon="16.6625771765"></trkpt><trkpt lat="50.6848233193" lon="16.6623432375"></trkpt><trkpt lat="50.6850990001" lon="16.6622792836"></trkpt><trkpt lat="50.6853658799" lon="16.6621727496"></trkpt><trkpt lat="50.6857276428" lon="16.6619384754"></trkpt><trkpt lat="50.6860525254" lon="16.6616177"></trkpt><trkpt lat="50.6862992048" lon="16.6613132693"></trkpt><trkpt lat="50.6869914662" lon="16.6606204212"></trkpt><trkpt lat="50.6888696831" lon="16.6583198402"></trkpt><trkpt lat="50.689100353" lon="16.6579305846"></trkpt><trkpt lat="50.6953843497" lon="16.64762998"></trkpt><trkpt lat="50.6956408359" lon="16.6473406367"></trkpt><trkpt lat="50.6959914509" lon="16.6468271613"></trkpt><trkpt lat="50.6958791334" lon="16.6464046296"></trkpt><trkpt lat="50.6955068093" lon="16.6453195922"></trkpt><trkpt lat="50.6951918174" lon="16.6440842673"></trkpt><trkpt lat="50.6951059867" lon="16.6434676945"></trkpt><trkpt lat="50.6950499956" lon="16.6427699849"></trkpt><trkpt lat="50.695119733" lon="16.6423508059"></trkpt><trkpt lat="50.6952531729" lon="16.6419554316"></trkpt><trkpt lat="50.6954252534" lon="16.641248418"></trkpt><trkpt lat="50.6954442803" lon="16.640802836"></trkpt><trkpt lat="50.6954122614" lon="16.6398374084"></trkpt><trkpt lat="50.695356857" lon="16.6393643338"></trkpt><trkpt lat="50.6950826012" lon="16.6378275119"></trkpt><trkpt lat="50.6950655021" lon="16.6373349912"></trkpt><trkpt lat="50.6949656736" lon="16.6363945417"></trkpt><trkpt lat="50.6948145479" lon="16.6358206328"></trkpt><trkpt lat="50.6946014799" lon="16.6347151436"></trkpt><trkpt lat="50.6945405435" lon="16.6342340223"></trkpt><trkpt lat="50.6942567322" lon="16.6327269562"></trkpt><trkpt lat="50.6941149943" lon="16.6322133131"></trkpt><trkpt lat="50.6940243021" lon="16.6317777056"></trkpt><trkpt lat="50.693705203" lon="16.6308798362"></trkpt><trkpt lat="50.6937355455" lon="16.6303110402"></trkpt><trkpt lat="50.693581989" lon="16.6299458407"></trkpt><trkpt lat="50.6935008522" lon="16.6295227222"></trkpt><trkpt lat="50.6933062244" lon="16.6290675849"></trkpt><trkpt lat="50.69308226" lon="16.6287108511"></trkpt><trkpt lat="50.6928909011" lon="16.6283158958"></trkpt><trkpt lat="50.6927490793" lon="16.6279354412"></trkpt><trkpt lat="50.6925476622" lon="16.627502013"></trkpt><trkpt lat="50.6914646365" lon="16.6255560704"></trkpt><trkpt lat="50.6904827803" lon="16.6240908299"></trkpt><trkpt lat="50.6903638411" lon="16.6236783564"></trkpt><trkpt lat="50.6900698878" lon="16.6235121433"></trkpt><trkpt lat="50.6896403991" lon="16.6231898591"></trkpt><trkpt lat="50.6892919634" lon="16.6228353884"></trkpt><trkpt lat="50.6890116725" lon="16.6224921495"></trkpt><trkpt lat="50.6887056492" lon="16.6219872236"></trkpt><trkpt lat="50.6885282043" lon="16.6214768495"></trkpt><trkpt lat="50.6881623343" lon="16.6214032564"></trkpt><trkpt lat="50.6879429799" lon="16.6210832354"></trkpt><trkpt lat="50.6877905969" lon="16.6207190417"></trkpt><trkpt lat="50.6874261517" lon="16.6199953482"></trkpt><trkpt lat="50.6870917138" lon="16.6191450879"></trkpt><trkpt lat="50.686173141" lon="16.6173393745"></trkpt><trkpt lat="50.683684554" lon="16.6134154703"></trkpt><trkpt lat="50.6842672639" lon="16.6116447095"></trkpt><trkpt lat="50.6843424495" lon="16.6111925896"></trkpt><trkpt lat="50.6845500693" lon="16.6108037531"></trkpt><trkpt lat="50.684688203" lon="16.6104273219"></trkpt><trkpt lat="50.6857076939" lon="16.6064686328"></trkpt><trkpt lat="50.6854900159" lon="16.6060460173"></trkpt><trkpt lat="50.6858571433" lon="16.6067655198"></trkpt></trkseg></trk></gpx>