<?xml version="1.0" encoding="UTF-8" standalone="no" ?><gpx xmlns="http://www.topografix.com/GPX/1/1" xmlns:gpxx="http://www.garmin.com/xmlschemas/GpxExtensions/v3" ><trk><trkseg><trkpt lat="52.245175" lon="15.539142"></trkpt><trkpt lat="52.245439" lon="15.539056"></trkpt><trkpt lat="52.245643" lon="15.539484"></trkpt><trkpt lat="52.245954" lon="15.539586"></trkpt><trkpt lat="52.246572" lon="15.539668"></trkpt><trkpt lat="52.250338" lon="15.538146"></trkpt><trkpt lat="52.251004" lon="15.537594"></trkpt><trkpt lat="52.251493" lon="15.537301"></trkpt><trkpt lat="52.252939" lon="15.536242"></trkpt><trkpt lat="52.252794" lon="15.535622"></trkpt><trkpt lat="52.252717" lon="15.534683"></trkpt><trkpt lat="52.252392" lon="15.532477"></trkpt><trkpt lat="52.25235" lon="15.531064"></trkpt><trkpt lat="52.252484" lon="15.530809"></trkpt><trkpt lat="52.253088" lon="15.530678"></trkpt><trkpt lat="52.254131" lon="15.530588"></trkpt><trkpt lat="52.254757" lon="15.530917"></trkpt><trkpt lat="52.255172" lon="15.531191"></trkpt><trkpt lat="52.2555" lon="15.530449"></trkpt><trkpt lat="52.25567" lon="15.529838"></trkpt><trkpt lat="52.255953" lon="15.528993"></trkpt><trkpt lat="52.256038" lon="15.528689"></trkpt><trkpt lat="52.256367" lon="15.528073"></trkpt><trkpt lat="52.25753" lon="15.526256"></trkpt><trkpt lat="52.257831" lon="15.525937"></trkpt><trkpt lat="52.258575" lon="15.525269"></trkpt><trkpt lat="52.26002" lon="15.523593"></trkpt><trkpt lat="52.260275" lon="15.523084"></trkpt><trkpt lat="52.2604" lon="15.52254"></trkpt><trkpt lat="52.260465" lon="15.522109"></trkpt><trkpt lat="52.260561" lon="15.521739"></trkpt><trkpt lat="52.260714" lon="15.52132"></trkpt><trkpt lat="52.26094" lon="15.520847"></trkpt><trkpt lat="52.261262" lon="15.520272"></trkpt><trkpt lat="52.261326" lon="15.519889"></trkpt><trkpt lat="52.261397" lon="15.519202"></trkpt><trkpt lat="52.261719" lon="15.518524"></trkpt><trkpt lat="52.266835" lon="15.509333"></trkpt><trkpt lat="52.267334" lon="15.508852"></trkpt><trkpt lat="52.268523" lon="15.507457"></trkpt><trkpt lat="52.269149" lon="15.506591"></trkpt><trkpt lat="52.269493" lon="15.505816"></trkpt><trkpt lat="52.269687" lon="15.50509"></trkpt><trkpt lat="52.269801" lon="15.504334"></trkpt><trkpt lat="52.269864" lon="15.503554"></trkpt><trkpt lat="52.26998" lon="15.502641"></trkpt><trkpt lat="52.270143" lon="15.501724"></trkpt><trkpt lat="52.270381" lon="15.500749"></trkpt><trkpt lat="52.270558" lon="15.500511"></trkpt><trkpt lat="52.270773" lon="15.500414"></trkpt><trkpt lat="52.271615" lon="15.500418"></trkpt><trkpt lat="52.272315" lon="15.500626"></trkpt><trkpt lat="52.272605" lon="15.500668"></trkpt><trkpt lat="52.272761" lon="15.500389"></trkpt><trkpt lat="52.273072" lon="15.499552"></trkpt><trkpt lat="52.273551" lon="15.498635"></trkpt><trkpt lat="52.273822" lon="15.497974"></trkpt><trkpt lat="52.274299" lon="15.497231"></trkpt><trkpt lat="52.276461" lon="15.494405"></trkpt><trkpt lat="52.277113" lon="15.493751"></trkpt><trkpt lat="52.281202" lon="15.488865"></trkpt><trkpt lat="52.281643" lon="15.48756"></trkpt><trkpt lat="52.290242" lon="15.461887"></trkpt><trkpt lat="52.290542" lon="15.4613"></trkpt><trkpt lat="52.291571" lon="15.45981"></trkpt><trkpt lat="52.293812" lon="15.455594"></trkpt><trkpt lat="52.294256" lon="15.454243"></trkpt><trkpt lat="52.29478" lon="15.452223"></trkpt><trkpt lat="52.294899" lon="15.451891"></trkpt><trkpt lat="52.295098" lon="15.451536"></trkpt><trkpt lat="52.295272" lon="15.451322"></trkpt><trkpt lat="52.295815" lon="15.45076"></trkpt><trkpt lat="52.299466" lon="15.445765"></trkpt><trkpt lat="52.298665" lon="15.445378"></trkpt><trkpt lat="52.296043" lon="15.443659"></trkpt><trkpt lat="52.296224" lon="15.443243"></trkpt><trkpt lat="52.296392" lon="15.442024"></trkpt><trkpt lat="52.296513" lon="15.44176"></trkpt><trkpt lat="52.296539" lon="15.441166"></trkpt><trkpt lat="52.296589" lon="15.440648"></trkpt><trkpt lat="52.296655" lon="15.439062"></trkpt><trkpt lat="52.296485" lon="15.43862"></trkpt><trkpt lat="52.296298" lon="15.438459"></trkpt><trkpt lat="52.295985" lon="15.438087"></trkpt><trkpt lat="52.296178" lon="15.437878"></trkpt><trkpt lat="52.295982" lon="15.438044"></trkpt><trkpt lat="52.296141" lon="15.438266"></trkpt><trkpt lat="52.296538" lon="15.438654"></trkpt><trkpt lat="52.296736" lon="15.43932"></trkpt><trkpt lat="52.29666" lon="15.439928"></trkpt><trkpt lat="52.295989" lon="15.443685"></trkpt><trkpt lat="52.296231" lon="15.444125"></trkpt><trkpt lat="52.297071" lon="15.444579"></trkpt><trkpt lat="52.300877" lon="15.445581"></trkpt><trkpt lat="52.301483" lon="15.445094"></trkpt><trkpt lat="52.305148" lon="15.441599"></trkpt><trkpt lat="52.304865" lon="15.441485"></trkpt><trkpt lat="52.304596" lon="15.441436"></trkpt><trkpt lat="52.302857" lon="15.440588"></trkpt><trkpt lat="52.302953" lon="15.439966"></trkpt><trkpt lat="52.302989" lon="15.439636"></trkpt><trkpt lat="52.303067" lon="15.439331"></trkpt><trkpt lat="52.303304" lon="15.439438"></trkpt><trkpt lat="52.30328" lon="15.438958"></trkpt><trkpt lat="52.303304" lon="15.4398"></trkpt><trkpt lat="52.303239" lon="15.440527"></trkpt><trkpt lat="52.303158" lon="15.441124"></trkpt><trkpt lat="52.302736" lon="15.441138"></trkpt><trkpt lat="52.302765" lon="15.441485"></trkpt><trkpt lat="52.302912" lon="15.442502"></trkpt><trkpt lat="52.303141" lon="15.443687"></trkpt><trkpt lat="52.3037" lon="15.443418"></trkpt><trkpt lat="52.304159" lon="15.443061"></trkpt><trkpt lat="52.307566" lon="15.439897"></trkpt><trkpt lat="52.308811" lon="15.438961"></trkpt><trkpt lat="52.309359" lon="15.439188"></trkpt><trkpt lat="52.309557" lon="15.439131"></trkpt><trkpt lat="52.314347" lon="15.437161"></trkpt><trkpt lat="52.317628" lon="15.436239"></trkpt><trkpt lat="52.318226" lon="15.436331"></trkpt><trkpt lat="52.322948" lon="15.435023"></trkpt><trkpt lat="52.324109" lon="15.434963"></trkpt><trkpt lat="52.324711" lon="15.435124"></trkpt><trkpt lat="52.333407" lon="15.438568"></trkpt><trkpt lat="52.334058" lon="15.43899"></trkpt><trkpt lat="52.345805" lon="15.444722"></trkpt><trkpt lat="52.346046" lon="15.444706"></trkpt><trkpt lat="52.346309" lon="15.444822"></trkpt><trkpt lat="52.346528" lon="15.444645"></trkpt><trkpt lat="52.347027" lon="15.444555"></trkpt><trkpt lat="52.349445" lon="15.444422"></trkpt><trkpt lat="52.349862" lon="15.444599"></trkpt><trkpt lat="52.350082" lon="15.44466"></trkpt><trkpt lat="52.35036" lon="15.444843"></trkpt><trkpt lat="52.350725" lon="15.44499"></trkpt><trkpt lat="52.351165" lon="15.445111"></trkpt><trkpt lat="52.351488" lon="15.445388"></trkpt><trkpt lat="52.351852" lon="15.445578"></trkpt><trkpt lat="52.352466" lon="15.445749"></trkpt><trkpt lat="52.35333" lon="15.445707"></trkpt><trkpt lat="52.35439" lon="15.446155"></trkpt><trkpt lat="52.355105" lon="15.446821"></trkpt><trkpt lat="52.356825" lon="15.448146"></trkpt><trkpt lat="52.356747" lon="15.448473"></trkpt><trkpt lat="52.35658" lon="15.448998"></trkpt><trkpt lat="52.356454" lon="15.449553"></trkpt><trkpt lat="52.356044" lon="15.450443"></trkpt><trkpt lat="52.356315" lon="15.449932"></trkpt><trkpt lat="52.356532" lon="15.449326"></trkpt><trkpt lat="52.356703" lon="15.448721"></trkpt><trkpt lat="52.356815" lon="15.448175"></trkpt><trkpt lat="52.357036" lon="15.447896"></trkpt><trkpt lat="52.356936" lon="15.447607"></trkpt><trkpt lat="52.357021" lon="15.446781"></trkpt><trkpt lat="52.35723" lon="15.445829"></trkpt><trkpt lat="52.357909" lon="15.443539"></trkpt><trkpt lat="52.358085" lon="15.443124"></trkpt><trkpt lat="52.358183" lon="15.442705"></trkpt><trkpt lat="52.358169" lon="15.442333"></trkpt><trkpt lat="52.358074" lon="15.442"></trkpt><trkpt lat="52.354286" lon="15.425455"></trkpt><trkpt lat="52.354224" lon="15.424739"></trkpt><trkpt lat="52.354042" lon="15.42337"></trkpt><trkpt lat="52.354051" lon="15.422667"></trkpt><trkpt lat="52.354281" lon="15.419145"></trkpt><trkpt lat="52.354458" lon="15.418428"></trkpt><trkpt lat="52.354509" lon="15.418114"></trkpt><trkpt lat="52.355304" lon="15.411221"></trkpt><trkpt lat="52.355271" lon="15.410577"></trkpt><trkpt lat="52.355256" lon="15.402057"></trkpt><trkpt lat="52.355466" lon="15.401482"></trkpt><trkpt lat="52.356198" lon="15.39878"></trkpt><trkpt lat="52.356313" lon="15.397791"></trkpt><trkpt lat="52.358125" lon="15.386811"></trkpt><trkpt lat="52.358297" lon="15.386366"></trkpt><trkpt lat="52.358543" lon="15.385835"></trkpt><trkpt lat="52.358825" lon="15.385314"></trkpt><trkpt lat="52.359072" lon="15.384772"></trkpt><trkpt lat="52.362335" lon="15.375553"></trkpt><trkpt lat="52.361875" lon="15.375009"></trkpt><trkpt lat="52.35336" lon="15.363156"></trkpt><trkpt lat="52.353073" lon="15.361942"></trkpt><trkpt lat="52.351494" lon="15.353352"></trkpt><trkpt lat="52.351355" lon="15.352304"></trkpt><trkpt lat="52.348151" lon="15.334456"></trkpt><trkpt lat="52.347832" lon="15.333616"></trkpt><trkpt lat="52.346482" lon="15.329404"></trkpt><trkpt lat="52.346345" lon="15.328292"></trkpt><trkpt lat="52.346319" lon="15.327941"></trkpt><trkpt lat="52.34544" lon="15.320755"></trkpt><trkpt lat="52.345225" lon="15.319671"></trkpt><trkpt lat="52.344649" lon="15.317374"></trkpt><trkpt lat="52.339742" lon="15.301489"></trkpt><trkpt lat="52.339203" lon="15.300959"></trkpt><trkpt lat="52.33847" lon="15.300054"></trkpt><trkpt lat="52.338077" lon="15.299677"></trkpt><trkpt lat="52.337887" lon="15.299531"></trkpt><trkpt lat="52.333183" lon="15.295071"></trkpt><trkpt lat="52.333256" lon="15.294748"></trkpt><trkpt lat="52.333326" lon="15.293709"></trkpt><trkpt lat="52.333594" lon="15.293362"></trkpt><trkpt lat="52.333829" lon="15.293155"></trkpt><trkpt lat="52.3342" lon="15.293224"></trkpt><trkpt lat="52.334418" lon="15.29331"></trkpt><trkpt lat="52.334686" lon="15.293381"></trkpt><trkpt lat="52.33498" lon="15.293536"></trkpt><trkpt lat="52.335308" lon="15.293549"></trkpt><trkpt lat="52.335362" lon="15.293121"></trkpt><trkpt lat="52.335385" lon="15.292589"></trkpt><trkpt lat="52.335424" lon="15.292212"></trkpt><trkpt lat="52.335539" lon="15.29187"></trkpt><trkpt lat="52.33583" lon="15.291813"></trkpt><trkpt lat="52.337373" lon="15.291735"></trkpt><trkpt lat="52.337734" lon="15.291449"></trkpt><trkpt lat="52.338045" lon="15.291085"></trkpt><trkpt lat="52.338551" lon="15.290327"></trkpt><trkpt lat="52.338627" lon="15.289927"></trkpt><trkpt lat="52.338555" lon="15.289579"></trkpt><trkpt lat="52.338406" lon="15.28928"></trkpt><trkpt lat="52.338227" lon="15.288715"></trkpt><trkpt lat="52.338413" lon="15.288555"></trkpt><trkpt lat="52.338915" lon="15.288381"></trkpt><trkpt lat="52.339105" lon="15.288271"></trkpt><trkpt lat="52.339302" lon="15.288222"></trkpt><trkpt lat="52.338949" lon="15.288396"></trkpt><trkpt lat="52.338373" lon="15.288405"></trkpt><trkpt lat="52.338162" lon="15.288163"></trkpt><trkpt lat="52.337878" lon="15.288055"></trkpt><trkpt lat="52.337614" lon="15.288047"></trkpt><trkpt lat="52.33728" lon="15.288209"></trkpt><trkpt lat="52.33679" lon="15.288385"></trkpt><trkpt lat="52.336265" lon="15.288646"></trkpt><trkpt lat="52.335887" lon="15.288772"></trkpt><trkpt lat="52.335616" lon="15.288725"></trkpt><trkpt lat="52.335387" lon="15.288658"></trkpt><trkpt lat="52.33522" lon="15.288838"></trkpt><trkpt lat="52.335016" lon="15.289019"></trkpt><trkpt lat="52.334642" lon="15.289076"></trkpt><trkpt lat="52.334428" lon="15.289149"></trkpt><trkpt lat="52.334043" lon="15.289412"></trkpt><trkpt lat="52.333793" lon="15.289902"></trkpt><trkpt lat="52.333812" lon="15.290512"></trkpt><trkpt lat="52.334149" lon="15.291203"></trkpt><trkpt lat="52.334363" lon="15.291975"></trkpt><trkpt lat="52.334366" lon="15.292308"></trkpt><trkpt lat="52.334238" lon="15.292874"></trkpt><trkpt lat="52.334146" lon="15.293171"></trkpt><trkpt lat="52.3338" lon="15.293159"></trkpt><trkpt lat="52.333592" lon="15.29333"></trkpt><trkpt lat="52.33337" lon="15.293694"></trkpt><trkpt lat="52.33337" lon="15.29433"></trkpt><trkpt lat="52.333316" lon="15.294719"></trkpt><trkpt lat="52.333195" lon="15.295364"></trkpt><trkpt lat="52.33302" lon="15.295838"></trkpt><trkpt lat="52.332551" lon="15.296358"></trkpt><trkpt lat="52.331776" lon="15.295725"></trkpt><trkpt lat="52.33115" lon="15.295686"></trkpt><trkpt lat="52.32945" lon="15.295366"></trkpt><trkpt lat="52.328966" lon="15.295208"></trkpt><trkpt lat="52.326004" lon="15.29379"></trkpt><trkpt lat="52.325798" lon="15.293651"></trkpt><trkpt lat="52.32563" lon="15.293457"></trkpt><trkpt lat="52.325315" lon="15.293272"></trkpt><trkpt lat="52.325065" lon="15.293207"></trkpt><trkpt lat="52.324558" lon="15.293153"></trkpt><trkpt lat="52.324018" lon="15.292982"></trkpt><trkpt lat="52.323647" lon="15.29238"></trkpt><trkpt lat="52.323348" lon="15.291963"></trkpt><trkpt lat="52.322974" lon="15.291654"></trkpt><trkpt lat="52.322725" lon="15.291713"></trkpt><trkpt lat="52.322526" lon="15.291813"></trkpt><trkpt lat="52.322066" lon="15.29213"></trkpt><trkpt lat="52.321587" lon="15.292651"></trkpt><trkpt lat="52.321358" lon="15.292833"></trkpt><trkpt lat="52.321144" lon="15.292926"></trkpt><trkpt lat="52.320759" lon="15.292829"></trkpt><trkpt lat="52.320529" lon="15.292657"></trkpt><trkpt lat="52.320259" lon="15.292292"></trkpt><trkpt lat="52.320059" lon="15.29183"></trkpt><trkpt lat="52.319659" lon="15.290611"></trkpt><trkpt lat="52.319564" lon="15.290174"></trkpt><trkpt lat="52.319412" lon="15.289611"></trkpt><trkpt lat="52.319304" lon="15.28933"></trkpt><trkpt lat="52.318918" lon="15.288805"></trkpt><trkpt lat="52.318697" lon="15.288638"></trkpt><trkpt lat="52.31852" lon="15.288444"></trkpt><trkpt lat="52.318291" lon="15.288237"></trkpt><trkpt lat="52.318119" lon="15.288032"></trkpt><trkpt lat="52.317532" lon="15.287075"></trkpt><trkpt lat="52.317774" lon="15.286566"></trkpt><trkpt lat="52.317935" lon="15.286351"></trkpt><trkpt lat="52.318101" lon="15.286057"></trkpt><trkpt lat="52.318223" lon="15.285716"></trkpt><trkpt lat="52.31835" lon="15.28546"></trkpt><trkpt lat="52.318619" lon="15.285686"></trkpt><trkpt lat="52.31888" lon="15.286131"></trkpt><trkpt lat="52.319309" lon="15.286676"></trkpt><trkpt lat="52.319254" lon="15.287079"></trkpt><trkpt lat="52.319175" lon="15.287401"></trkpt><trkpt lat="52.318989" lon="15.287844"></trkpt><trkpt lat="52.318917" lon="15.288207"></trkpt><trkpt lat="52.318717" lon="15.288156"></trkpt><trkpt lat="52.318533" lon="15.288446"></trkpt><trkpt lat="52.318223" lon="15.288247"></trkpt><trkpt lat="52.317991" lon="15.287951"></trkpt><trkpt lat="52.313234" lon="15.282842"></trkpt><trkpt lat="52.312694" lon="15.282822"></trkpt><trkpt lat="52.309767" lon="15.282208"></trkpt><trkpt lat="52.309241" lon="15.281583"></trkpt><trkpt lat="52.307725" lon="15.279495"></trkpt><trkpt lat="52.307511" lon="15.279547"></trkpt><trkpt lat="52.307293" lon="15.27969"></trkpt><trkpt lat="52.306907" lon="15.279728"></trkpt><trkpt lat="52.306794" lon="15.279026"></trkpt><trkpt lat="52.306937" lon="15.278502"></trkpt><trkpt lat="52.307294" lon="15.278165"></trkpt><trkpt lat="52.307473" lon="15.27793"></trkpt><trkpt lat="52.307581" lon="15.27764"></trkpt><trkpt lat="52.307599" lon="15.277078"></trkpt><trkpt lat="52.30774" lon="15.275925"></trkpt><trkpt lat="52.307846" lon="15.275472"></trkpt><trkpt lat="52.308274" lon="15.273988"></trkpt><trkpt lat="52.308484" lon="15.273533"></trkpt><trkpt lat="52.308772" lon="15.272531"></trkpt><trkpt lat="52.309052" lon="15.271758"></trkpt><trkpt lat="52.309281" lon="15.271563"></trkpt><trkpt lat="52.309522" lon="15.271395"></trkpt><trkpt lat="52.310254" lon="15.270983"></trkpt><trkpt lat="52.310655" lon="15.270698"></trkpt><trkpt lat="52.310883" lon="15.270493"></trkpt><trkpt lat="52.311093" lon="15.270251"></trkpt><trkpt lat="52.312747" lon="15.267988"></trkpt><trkpt lat="52.314757" lon="15.265608"></trkpt><trkpt lat="52.315564" lon="15.26505"></trkpt><trkpt lat="52.315956" lon="15.264846"></trkpt><trkpt lat="52.316189" lon="15.264586"></trkpt><trkpt lat="52.316146" lon="15.264183"></trkpt><trkpt lat="52.315518" lon="15.264087"></trkpt><trkpt lat="52.313598" lon="15.263496"></trkpt><trkpt lat="52.312684" lon="15.263081"></trkpt><trkpt lat="52.312446" lon="15.262879"></trkpt><trkpt lat="52.31217" lon="15.262601"></trkpt><trkpt lat="52.3119" lon="15.262271"></trkpt><trkpt lat="52.299903" lon="15.2498"></trkpt><trkpt lat="52.29953" lon="15.249654"></trkpt><trkpt lat="52.299325" lon="15.249607"></trkpt><trkpt lat="52.298651" lon="15.249346"></trkpt><trkpt lat="52.294913" lon="15.248458"></trkpt><trkpt lat="52.294149" lon="15.248515"></trkpt><trkpt lat="52.292727" lon="15.248865"></trkpt><trkpt lat="52.292553" lon="15.249135"></trkpt><trkpt lat="52.292435" lon="15.24949"></trkpt><trkpt lat="52.29229" lon="15.250507"></trkpt><trkpt lat="52.291832" lon="15.251666"></trkpt><trkpt lat="52.288293" lon="15.259327"></trkpt><trkpt lat="52.287713" lon="15.260003"></trkpt><trkpt lat="52.285606" lon="15.262112"></trkpt><trkpt lat="52.285031" lon="15.261945"></trkpt><trkpt lat="52.284379" lon="15.261598"></trkpt><trkpt lat="52.270794" lon="15.256316"></trkpt><trkpt lat="52.267488" lon="15.258106"></trkpt><trkpt lat="52.26686" lon="15.258543"></trkpt><trkpt lat="52.26444" lon="15.260576"></trkpt><trkpt lat="52.264264" lon="15.260932"></trkpt><trkpt lat="52.263916" lon="15.261266"></trkpt><trkpt lat="52.263639" lon="15.261482"></trkpt><trkpt lat="52.261156" lon="15.263886"></trkpt><trkpt lat="52.260832" lon="15.264419"></trkpt><trkpt lat="52.260517" lon="15.26456"></trkpt><trkpt lat="52.260315" lon="15.264374"></trkpt><trkpt lat="52.260504" lon="15.26464"></trkpt><trkpt lat="52.26071" lon="15.264555"></trkpt><trkpt lat="52.261092" lon="15.263991"></trkpt><trkpt lat="52.260891" lon="15.263881"></trkpt><trkpt lat="52.260717" lon="15.263229"></trkpt><trkpt lat="52.260529" lon="15.262154"></trkpt><trkpt lat="52.260585" lon="15.261977"></trkpt></trkseg></trk></gpx>