<?xml version="1.0" encoding="UTF-8" standalone="no" ?><gpx xmlns="http://www.topografix.com/GPX/1/1" xmlns:gpxx="http://www.garmin.com/xmlschemas/GpxExtensions/v3" ><trk><trkseg><trkpt lat="52.400699" lon="17.362186"></trkpt><trkpt lat="52.400739" lon="17.361665"></trkpt><trkpt lat="52.400859" lon="17.355422"></trkpt><trkpt lat="52.400674" lon="17.354841"></trkpt><trkpt lat="52.399697" lon="17.350948"></trkpt><trkpt lat="52.399786" lon="17.350504"></trkpt><trkpt lat="52.399909" lon="17.350087"></trkpt><trkpt lat="52.400113" lon="17.349791"></trkpt><trkpt lat="52.400292" lon="17.349402"></trkpt><trkpt lat="52.400448" lon="17.348979"></trkpt><trkpt lat="52.400821" lon="17.348163"></trkpt><trkpt lat="52.400857" lon="17.347674"></trkpt><trkpt lat="52.40101" lon="17.347309"></trkpt><trkpt lat="52.401117" lon="17.346883"></trkpt><trkpt lat="52.401166" lon="17.345974"></trkpt><trkpt lat="52.40111" lon="17.345484"></trkpt><trkpt lat="52.401162" lon="17.344962"></trkpt><trkpt lat="52.401151" lon="17.344368"></trkpt><trkpt lat="52.401185" lon="17.343786"></trkpt><trkpt lat="52.401177" lon="17.340823"></trkpt><trkpt lat="52.401127" lon="17.340289"></trkpt><trkpt lat="52.401243" lon="17.339859"></trkpt><trkpt lat="52.401385" lon="17.339467"></trkpt><trkpt lat="52.401634" lon="17.339043"></trkpt><trkpt lat="52.401902" lon="17.338839"></trkpt><trkpt lat="52.402022" lon="17.338321"></trkpt><trkpt lat="52.401911" lon="17.337756"></trkpt><trkpt lat="52.401868" lon="17.337303"></trkpt><trkpt lat="52.402094" lon="17.337552"></trkpt><trkpt lat="52.402266" lon="17.338087"></trkpt><trkpt lat="52.402364" lon="17.338633"></trkpt><trkpt lat="52.40235" lon="17.339131"></trkpt><trkpt lat="52.402288" lon="17.339782"></trkpt><trkpt lat="52.402299" lon="17.340286"></trkpt><trkpt lat="52.40227" lon="17.340735"></trkpt><trkpt lat="52.402279" lon="17.34122"></trkpt><trkpt lat="52.402339" lon="17.341973"></trkpt><trkpt lat="52.402414" lon="17.342403"></trkpt><trkpt lat="52.402591" lon="17.343155"></trkpt><trkpt lat="52.402668" lon="17.343626"></trkpt><trkpt lat="52.402728" lon="17.344541"></trkpt><trkpt lat="52.402823" lon="17.34523"></trkpt><trkpt lat="52.403058" lon="17.345707"></trkpt><trkpt lat="52.403208" lon="17.346332"></trkpt><trkpt lat="52.403323" lon="17.346975"></trkpt><trkpt lat="52.403536" lon="17.347484"></trkpt><trkpt lat="52.403805" lon="17.34798"></trkpt><trkpt lat="52.404097" lon="17.348432"></trkpt><trkpt lat="52.404333" lon="17.348737"></trkpt><trkpt lat="52.404593" lon="17.348941"></trkpt><trkpt lat="52.404998" lon="17.349344"></trkpt><trkpt lat="52.405236" lon="17.349653"></trkpt><trkpt lat="52.405575" lon="17.350204"></trkpt><trkpt lat="52.406057" lon="17.350845"></trkpt><trkpt lat="52.406336" lon="17.351077"></trkpt><trkpt lat="52.406606" lon="17.350955"></trkpt><trkpt lat="52.406872" lon="17.350581"></trkpt><trkpt lat="52.406789" lon="17.350029"></trkpt><trkpt lat="52.406763" lon="17.349511"></trkpt><trkpt lat="52.406696" lon="17.348963"></trkpt><trkpt lat="52.406575" lon="17.348367"></trkpt><trkpt lat="52.406529" lon="17.347694"></trkpt><trkpt lat="52.406377" lon="17.346889"></trkpt><trkpt lat="52.406328" lon="17.346374"></trkpt><trkpt lat="52.40625" lon="17.345943"></trkpt><trkpt lat="52.405836" lon="17.34257"></trkpt><trkpt lat="52.405883" lon="17.343091"></trkpt><trkpt lat="52.406008" lon="17.343623"></trkpt><trkpt lat="52.406013" lon="17.34427"></trkpt><trkpt lat="52.406089" lon="17.344748"></trkpt><trkpt lat="52.406645" lon="17.350929"></trkpt><trkpt lat="52.406383" lon="17.35115"></trkpt><trkpt lat="52.406581" lon="17.351594"></trkpt><trkpt lat="52.407006" lon="17.352846"></trkpt><trkpt lat="52.407034" lon="17.353333"></trkpt><trkpt lat="52.40712" lon="17.353798"></trkpt><trkpt lat="52.407429" lon="17.354919"></trkpt><trkpt lat="52.407648" lon="17.3553"></trkpt><trkpt lat="52.408117" lon="17.356361"></trkpt><trkpt lat="52.408235" lon="17.356964"></trkpt><trkpt lat="52.408403" lon="17.357366"></trkpt><trkpt lat="52.408749" lon="17.357854"></trkpt><trkpt lat="52.409267" lon="17.358451"></trkpt><trkpt lat="52.409864" lon="17.358929"></trkpt><trkpt lat="52.410185" lon="17.359097"></trkpt><trkpt lat="52.410779" lon="17.359265"></trkpt><trkpt lat="52.411178" lon="17.359492"></trkpt><trkpt lat="52.412983" lon="17.36083"></trkpt><trkpt lat="52.413211" lon="17.361142"></trkpt><trkpt lat="52.415553" lon="17.363532"></trkpt><trkpt lat="52.415725" lon="17.363064"></trkpt><trkpt lat="52.416104" lon="17.362271"></trkpt><trkpt lat="52.416305" lon="17.361921"></trkpt><trkpt lat="52.416325" lon="17.361456"></trkpt><trkpt lat="52.41607" lon="17.36128"></trkpt><trkpt lat="52.416343" lon="17.361602"></trkpt><trkpt lat="52.416225" lon="17.36206"></trkpt><trkpt lat="52.41598" lon="17.362628"></trkpt><trkpt lat="52.41558" lon="17.364015"></trkpt><trkpt lat="52.415788" lon="17.364342"></trkpt><trkpt lat="52.416209" lon="17.36516"></trkpt><trkpt lat="52.416238" lon="17.365605"></trkpt><trkpt lat="52.416534" lon="17.365751"></trkpt><trkpt lat="52.416765" lon="17.366078"></trkpt><trkpt lat="52.41727" lon="17.366603"></trkpt><trkpt lat="52.417517" lon="17.366806"></trkpt><trkpt lat="52.418178" lon="17.367141"></trkpt><trkpt lat="52.418707" lon="17.36732"></trkpt><trkpt lat="52.418996" lon="17.367572"></trkpt><trkpt lat="52.419438" lon="17.368052"></trkpt><trkpt lat="52.419959" lon="17.368352"></trkpt><trkpt lat="52.420082" lon="17.36785"></trkpt><trkpt lat="52.420239" lon="17.367363"></trkpt><trkpt lat="52.42043" lon="17.366935"></trkpt><trkpt lat="52.4207" lon="17.366974"></trkpt><trkpt lat="52.420733" lon="17.366245"></trkpt><trkpt lat="52.420956" lon="17.365953"></trkpt><trkpt lat="52.42131" lon="17.365579"></trkpt><trkpt lat="52.421662" lon="17.365278"></trkpt><trkpt lat="52.421994" lon="17.365145"></trkpt><trkpt lat="52.422367" lon="17.365126"></trkpt><trkpt lat="52.422705" lon="17.365428"></trkpt><trkpt lat="52.423019" lon="17.365882"></trkpt><trkpt lat="52.423018" lon="17.366434"></trkpt><trkpt lat="52.422767" lon="17.366638"></trkpt><trkpt lat="52.42245" lon="17.366598"></trkpt><trkpt lat="52.422203" lon="17.366955"></trkpt><trkpt lat="52.422028" lon="17.367404"></trkpt><trkpt lat="52.421942" lon="17.367915"></trkpt><trkpt lat="52.42173" lon="17.36883"></trkpt><trkpt lat="52.421481" lon="17.369087"></trkpt><trkpt lat="52.421096" lon="17.369204"></trkpt><trkpt lat="52.420799" lon="17.36921"></trkpt><trkpt lat="52.420538" lon="17.369328"></trkpt><trkpt lat="52.420167" lon="17.36899"></trkpt><trkpt lat="52.419977" lon="17.368652"></trkpt><trkpt lat="52.419745" lon="17.368392"></trkpt><trkpt lat="52.419496" lon="17.368192"></trkpt><trkpt lat="52.419246" lon="17.367858"></trkpt><trkpt lat="52.418942" lon="17.36757"></trkpt><trkpt lat="52.418557" lon="17.367425"></trkpt><trkpt lat="52.417769" lon="17.366975"></trkpt><trkpt lat="52.417467" lon="17.366712"></trkpt><trkpt lat="52.416465" lon="17.365646"></trkpt><trkpt lat="52.416261" lon="17.36523"></trkpt><trkpt lat="52.415306" lon="17.363626"></trkpt><trkpt lat="52.415062" lon="17.363327"></trkpt><trkpt lat="52.414855" lon="17.362986"></trkpt><trkpt lat="52.414407" lon="17.362426"></trkpt><trkpt lat="52.41229" lon="17.360241"></trkpt><trkpt lat="52.411928" lon="17.359939"></trkpt><trkpt lat="52.411557" lon="17.359769"></trkpt><trkpt lat="52.40865" lon="17.358938"></trkpt><trkpt lat="52.408556" lon="17.359524"></trkpt><trkpt lat="52.408376" lon="17.359964"></trkpt><trkpt lat="52.407994" lon="17.361142"></trkpt><trkpt lat="52.407946" lon="17.361595"></trkpt><trkpt lat="52.407814" lon="17.36209"></trkpt><trkpt lat="52.407596" lon="17.362683"></trkpt><trkpt lat="52.406844" lon="17.365302"></trkpt><trkpt lat="52.406624" lon="17.365833"></trkpt><trkpt lat="52.406465" lon="17.366338"></trkpt><trkpt lat="52.406372" lon="17.36698"></trkpt><trkpt lat="52.406142" lon="17.367578"></trkpt><trkpt lat="52.405953" lon="17.367978"></trkpt><trkpt lat="52.405593" lon="17.368591"></trkpt><trkpt lat="52.405298" lon="17.369005"></trkpt><trkpt lat="52.405062" lon="17.369512"></trkpt><trkpt lat="52.404838" lon="17.369902"></trkpt><trkpt lat="52.404545" lon="17.370289"></trkpt><trkpt lat="52.404245" lon="17.369684"></trkpt><trkpt lat="52.404223" lon="17.369168"></trkpt><trkpt lat="52.403994" lon="17.36722"></trkpt><trkpt lat="52.403704" lon="17.366666"></trkpt><trkpt lat="52.403342" lon="17.366096"></trkpt><trkpt lat="52.403085" lon="17.36576"></trkpt><trkpt lat="52.403304" lon="17.366068"></trkpt><trkpt lat="52.40352" lon="17.366451"></trkpt><trkpt lat="52.404171" lon="17.367935"></trkpt><trkpt lat="52.404178" lon="17.368491"></trkpt><trkpt lat="52.404104" lon="17.369623"></trkpt><trkpt lat="52.403817" lon="17.370003"></trkpt><trkpt lat="52.403564" lon="17.370617"></trkpt><trkpt lat="52.403336" lon="17.370941"></trkpt><trkpt lat="52.403448" lon="17.371521"></trkpt><trkpt lat="52.403477" lon="17.372208"></trkpt><trkpt lat="52.403244" lon="17.372688"></trkpt><trkpt lat="52.402964" lon="17.372944"></trkpt><trkpt lat="52.402756" lon="17.373301"></trkpt><trkpt lat="52.402441" lon="17.373705"></trkpt><trkpt lat="52.402113" lon="17.373358"></trkpt><trkpt lat="52.401895" lon="17.373015"></trkpt><trkpt lat="52.401607" lon="17.373137"></trkpt><trkpt lat="52.40141" lon="17.373478"></trkpt><trkpt lat="52.400922" lon="17.374098"></trkpt><trkpt lat="52.40068" lon="17.374347"></trkpt><trkpt lat="52.400104" lon="17.373631"></trkpt><trkpt lat="52.399769" lon="17.373402"></trkpt><trkpt lat="52.399464" lon="17.37312"></trkpt><trkpt lat="52.399172" lon="17.372921"></trkpt><trkpt lat="52.396299" lon="17.370307"></trkpt><trkpt lat="52.396508" lon="17.369792"></trkpt><trkpt lat="52.396831" lon="17.369172"></trkpt><trkpt lat="52.397032" lon="17.368855"></trkpt><trkpt lat="52.397271" lon="17.368371"></trkpt><trkpt lat="52.397571" lon="17.368"></trkpt><trkpt lat="52.400672" lon="17.362203"></trkpt></trkseg></trk></gpx>