<?xml version="1.0" encoding="UTF-8" standalone="no" ?><gpx xmlns="http://www.topografix.com/GPX/1/1" xmlns:gpxx="http://www.garmin.com/xmlschemas/GpxExtensions/v3" ><trk><trkseg><trkpt lat="54.0366673563" lon="21.764675919"></trkpt><trkpt lat="54.0434331447" lon="21.7629306391"></trkpt><trkpt lat="54.0437913034" lon="21.7625588179"></trkpt><trkpt lat="54.0441114083" lon="21.7620124854"></trkpt><trkpt lat="54.0445370413" lon="21.7608758993"></trkpt><trkpt lat="54.0451293066" lon="21.759641245"></trkpt><trkpt lat="54.0447596647" lon="21.7592110019"></trkpt><trkpt lat="54.044341743" lon="21.7582811136"></trkpt><trkpt lat="54.0429215971" lon="21.7571606208"></trkpt><trkpt lat="54.0393937379" lon="21.7536974698"></trkpt><trkpt lat="54.0388453938" lon="21.7530345451"></trkpt><trkpt lat="54.0385470819" lon="21.7525774799"></trkpt><trkpt lat="54.0379469376" lon="21.7518543731"></trkpt><trkpt lat="54.0375898685" lon="21.7512603477"></trkpt><trkpt lat="54.0372486413" lon="21.7503898032"></trkpt><trkpt lat="54.0371284448" lon="21.7498356756"></trkpt><trkpt lat="54.0370633174" lon="21.7492290772"></trkpt><trkpt lat="54.037057953" lon="21.7486099061"></trkpt><trkpt lat="54.0366150532" lon="21.7447690666"></trkpt><trkpt lat="54.0359956305" lon="21.7432785127"></trkpt><trkpt lat="54.0357151721" lon="21.7429666221"></trkpt><trkpt lat="54.0354049578" lon="21.7428591661"></trkpt><trkpt lat="54.0343887359" lon="21.7429158278"></trkpt><trkpt lat="54.0334388148" lon="21.7431812827"></trkpt><trkpt lat="54.0324607305" lon="21.7437740508"></trkpt><trkpt lat="54.032079773" lon="21.7436794192"></trkpt><trkpt lat="54.0317190997" lon="21.7433372699"></trkpt><trkpt lat="54.0310223121" lon="21.7425237224"></trkpt><trkpt lat="54.0303255245" lon="21.741903713"></trkpt><trkpt lat="54.0299355984" lon="21.7418256775"></trkpt><trkpt lat="54.0265363175" lon="21.7403720878"></trkpt><trkpt lat="54.0261302982" lon="21.7396689299"></trkpt><trkpt lat="54.0257333312" lon="21.7391451448"></trkpt><trkpt lat="54.0242280252" lon="21.7387892492"></trkpt><trkpt lat="54.0178135224" lon="21.7393362522"></trkpt><trkpt lat="54.0143474378" lon="21.7380831577"></trkpt><trkpt lat="54.0132120252" lon="21.7368579749"></trkpt><trkpt lat="54.0120233875" lon="21.7352518346"></trkpt><trkpt lat="54.0117327031" lon="21.7354161199"></trkpt><trkpt lat="54.0111608896" lon="21.7354537547"></trkpt><trkpt lat="54.0108784195" lon="21.7353623919"></trkpt><trkpt lat="54.0101093799" lon="21.7353128549"></trkpt><trkpt lat="54.0097311884" lon="21.7354597896"></trkpt><trkpt lat="54.0084316581" lon="21.7362458445"></trkpt><trkpt lat="54.0080993995" lon="21.7366019078"></trkpt><trkpt lat="54.0077384748" lon="21.7369067576"></trkpt><trkpt lat="54.0072320402" lon="21.737001976"></trkpt><trkpt lat="54.0047856979" lon="21.7381019332"></trkpt><trkpt lat="54.004272474" lon="21.7394826841"></trkpt><trkpt lat="54.0030608699" lon="21.742185764"></trkpt><trkpt lat="54.0023215022" lon="21.7431381159"></trkpt><trkpt lat="54.0012668073" lon="21.7441149428"></trkpt><trkpt lat="53.9993240498" lon="21.746325586"></trkpt><trkpt lat="53.9966213889" lon="21.7501770705"></trkpt><trkpt lat="53.9962881245" lon="21.7507758737"></trkpt><trkpt lat="53.9950412326" lon="21.7534811329"></trkpt><trkpt lat="53.9947114047" lon="21.7544232588"></trkpt><trkpt lat="53.9937761519" lon="21.7562799342"></trkpt><trkpt lat="53.9930133149" lon="21.7569171265"></trkpt><trkpt lat="53.984999964" lon="21.7621013336"></trkpt><trkpt lat="53.9839996677" lon="21.762110889"></trkpt><trkpt lat="53.9827234391" lon="21.7618813924"></trkpt><trkpt lat="53.9702374209" lon="21.7569861095"></trkpt><trkpt lat="53.9696428925" lon="21.7552942224"></trkpt><trkpt lat="53.9683587011" lon="21.7526001949"></trkpt><trkpt lat="53.9672842249" lon="21.7509264965"></trkpt><trkpt lat="53.9668920357" lon="21.7504367419"></trkpt><trkpt lat="53.9663353935" lon="21.7493736651"></trkpt><trkpt lat="53.9660939947" lon="21.7486714292"></trkpt><trkpt lat="53.9660007041" lon="21.7480587121"></trkpt><trkpt lat="53.9658012986" lon="21.7459208239"></trkpt><trkpt lat="53.9656132925" lon="21.744663287"></trkpt><trkpt lat="53.964997055" lon="21.7430000659"></trkpt><trkpt lat="53.9632914215" lon="21.7392068356"></trkpt><trkpt lat="53.9630273916" lon="21.7390358448"></trkpt><trkpt lat="53.9591730572" lon="21.7358596064"></trkpt><trkpt lat="53.9579629619" lon="21.7343655322"></trkpt><trkpt lat="53.9565122221" lon="21.7330164649"></trkpt><trkpt lat="53.9562040195" lon="21.73287699"></trkpt><trkpt lat="53.9554202277" lon="21.7330379225"></trkpt><trkpt lat="53.9551381767" lon="21.7330387607"></trkpt><trkpt lat="53.9548771642" lon="21.7329046503"></trkpt><trkpt lat="53.9540280774" lon="21.7321174219"></trkpt><trkpt lat="53.9535285998" lon="21.7315213848"></trkpt><trkpt lat="53.9529087581" lon="21.7302785162"></trkpt><trkpt lat="53.9523718972" lon="21.7284935899"></trkpt><trkpt lat="53.9520921931" lon="21.7266807519"></trkpt><trkpt lat="53.9515259955" lon="21.7244348209"></trkpt><trkpt lat="53.950189501" lon="21.723039737"></trkpt><trkpt lat="53.9491970837" lon="21.7223138642"></trkpt><trkpt lat="53.9488438703" lon="21.7222982738"></trkpt><trkpt lat="53.9477367047" lon="21.7220661789"></trkpt><trkpt lat="53.9474760275" lon="21.721753031"></trkpt><trkpt lat="53.9441000484" lon="21.719330661"></trkpt><trkpt lat="53.9423425309" lon="21.719943881"></trkpt><trkpt lat="53.9312493335" lon="21.7142327037"></trkpt><trkpt lat="53.9303390589" lon="21.7133153044"></trkpt><trkpt lat="53.9271083381" lon="21.7093142867"></trkpt><trkpt lat="53.9185069967" lon="21.6950101499"></trkpt><trkpt lat="53.9181473292" lon="21.6927368939"></trkpt><trkpt lat="53.9184141252" lon="21.6905250773"></trkpt><trkpt lat="53.9180334192" lon="21.68935664"></trkpt><trkpt lat="53.9173594303" lon="21.6883019451"></trkpt><trkpt lat="53.9159003925" lon="21.6853220109"></trkpt><trkpt lat="53.9156370331" lon="21.6844403185"></trkpt><trkpt lat="53.913305942" lon="21.6782717407"></trkpt><trkpt lat="53.9123282768" lon="21.6772931535"></trkpt><trkpt lat="53.9039626345" lon="21.6664376669"></trkpt><trkpt lat="53.90353675" lon="21.6639801767"></trkpt><trkpt lat="53.9031692035" lon="21.6608783696"></trkpt><trkpt lat="53.9038407616" lon="21.6608764417"></trkpt><trkpt lat="53.9046064485" lon="21.6607395653"></trkpt><trkpt lat="53.9054187387" lon="21.6602984257"></trkpt><trkpt lat="53.9067487791" lon="21.6601457074"></trkpt><trkpt lat="53.9138217643" lon="21.6577633191"></trkpt><trkpt lat="53.9260750171" lon="21.6555576213"></trkpt><trkpt lat="53.9289935119" lon="21.6545569059"></trkpt><trkpt lat="53.9289991278" lon="21.6539640538"></trkpt><trkpt lat="53.9291129541" lon="21.6525848955"></trkpt><trkpt lat="53.9294333942" lon="21.651192829"></trkpt><trkpt lat="53.9295084961" lon="21.6507337522"></trkpt><trkpt lat="53.9294750523" lon="21.6502219532"></trkpt><trkpt lat="53.9291291311" lon="21.6484512761"></trkpt><trkpt lat="53.9290544484" lon="21.6478336975"></trkpt><trkpt lat="53.9289558772" lon="21.6458669677"></trkpt><trkpt lat="53.9291298017" lon="21.6419373639"></trkpt><trkpt lat="53.9294680115" lon="21.6407573596"></trkpt><trkpt lat="53.9307175856" lon="21.6351942904"></trkpt><trkpt lat="53.9306764305" lon="21.6333452426"></trkpt><trkpt lat="53.9303836506" lon="21.6297866218"></trkpt><trkpt lat="53.9303484466" lon="21.6281742789"></trkpt><trkpt lat="53.9306213614" lon="21.6266839765"></trkpt><trkpt lat="53.9306704793" lon="21.6262212954"></trkpt><trkpt lat="53.9306258876" lon="21.6253131162"></trkpt><trkpt lat="53.931001313" lon="21.622390179"></trkpt><trkpt lat="53.9316874556" lon="21.620183643"></trkpt><trkpt lat="53.9321663976" lon="21.618002085"></trkpt><trkpt lat="53.9322299324" lon="21.6163820308"></trkpt><trkpt lat="53.932030946" lon="21.6135813855"></trkpt><trkpt lat="53.9313350804" lon="21.6119038314"></trkpt><trkpt lat="53.9306496922" lon="21.6095668729"></trkpt><trkpt lat="53.9275060594" lon="21.5953670908"></trkpt><trkpt lat="53.9275369886" lon="21.5940235555"></trkpt><trkpt lat="53.9279757813" lon="21.5895137563"></trkpt><trkpt lat="53.9278293494" lon="21.5865573753"></trkpt><trkpt lat="53.9280019328" lon="21.5859621763"></trkpt><trkpt lat="53.9283401426" lon="21.5837230347"></trkpt><trkpt lat="53.9285019971" lon="21.5832254011"></trkpt><trkpt lat="53.9296523295" lon="21.5808579326"></trkpt><trkpt lat="53.9347749297" lon="21.566590257"></trkpt><trkpt lat="53.9351163246" lon="21.5640491154"></trkpt><trkpt lat="53.9355024789" lon="21.5626785066"></trkpt><trkpt lat="53.9360513259" lon="21.5613996796"></trkpt><trkpt lat="53.9377774112" lon="21.5558725689"></trkpt><trkpt lat="53.9378056582" lon="21.5540274605"></trkpt><trkpt lat="53.937994251" lon="21.5531632025"></trkpt><trkpt lat="53.9382469654" lon="21.5535552241"></trkpt><trkpt lat="53.9384401683" lon="21.5528745297"></trkpt><trkpt lat="53.9386614505" lon="21.5524117649"></trkpt><trkpt lat="53.9384202193" lon="21.551379282"></trkpt><trkpt lat="53.9380136132" lon="21.5489155054"></trkpt><trkpt lat="53.9381783176" lon="21.5477900673"></trkpt><trkpt lat="53.9381331392" lon="21.545978738"></trkpt><trkpt lat="53.9368274063" lon="21.5470625181"></trkpt><trkpt lat="53.9355069213" lon="21.5479034744"></trkpt><trkpt lat="53.9343070518" lon="21.5492290724"></trkpt><trkpt lat="53.933457043" lon="21.5499226749"></trkpt><trkpt lat="53.9317626413" lon="21.5499396902"></trkpt><trkpt lat="53.9273291174" lon="21.5508130006"></trkpt><trkpt lat="53.926346004" lon="21.5513517056"></trkpt><trkpt lat="53.8987902459" lon="21.5715611447"></trkpt><trkpt lat="53.8981297519" lon="21.572340494"></trkpt><trkpt lat="53.8965516072" lon="21.5728797019"></trkpt><trkpt lat="53.8811954577" lon="21.581008723"></trkpt><trkpt lat="53.8802425191" lon="21.5822804254"></trkpt><trkpt lat="53.8786906097" lon="21.5835443325"></trkpt><trkpt lat="53.8778468035" lon="21.5843982808"></trkpt><trkpt lat="53.8776165526" lon="21.5847518295"></trkpt><trkpt lat="53.8774274569" lon="21.5851459466"></trkpt><trkpt lat="53.8767384645" lon="21.5874218848"></trkpt><trkpt lat="53.8760140166" lon="21.5906472411"></trkpt><trkpt lat="53.8758239988" lon="21.5912629757"></trkpt><trkpt lat="53.8749532867" lon="21.5927245282"></trkpt><trkpt lat="53.8728973735" lon="21.5954448748"></trkpt><trkpt lat="53.8716175407" lon="21.5962934587"></trkpt><trkpt lat="53.8705921825" lon="21.5967556369"></trkpt><trkpt lat="53.8700406533" lon="21.5967825428"></trkpt><trkpt lat="53.8667005487" lon="21.597549906"></trkpt><trkpt lat="53.8656781241" lon="21.5983711649"></trkpt><trkpt lat="53.8653230667" lon="21.5987298265"></trkpt><trkpt lat="53.8641920965" lon="21.6003721766"></trkpt><trkpt lat="53.8519903086" lon="21.6149955802"></trkpt><trkpt lat="53.8511653617" lon="21.6150550079"></trkpt><trkpt lat="53.8475448824" lon="21.614080444"></trkpt><trkpt lat="53.8452759851" lon="21.61248344"></trkpt><trkpt lat="53.8416846748" lon="21.6090031061"></trkpt><trkpt lat="53.8412856124" lon="21.6084688436"></trkpt><trkpt lat="53.8375141751" lon="21.6049209516"></trkpt><trkpt lat="53.8124403823" lon="21.5862366837"></trkpt><trkpt lat="53.8085655961" lon="21.5805504005"></trkpt><trkpt lat="53.807967715" lon="21.5793370362"></trkpt><trkpt lat="53.8073474541" lon="21.5787823219"></trkpt><trkpt lat="53.8069939055" lon="21.5794227831"></trkpt><trkpt lat="53.8070535008" lon="21.5800512582"></trkpt><trkpt lat="53.8073472027" lon="21.5811190289"></trkpt><trkpt lat="53.8081085309" lon="21.5832715016"></trkpt><trkpt lat="53.8079081196" lon="21.5829347167"></trkpt><trkpt lat="53.8077711593" lon="21.5823054872"></trkpt><trkpt lat="53.8076309301" lon="21.5818950254"></trkpt><trkpt lat="53.8056688942" lon="21.5775472485"></trkpt><trkpt lat="53.8051462825" lon="21.5760315489"></trkpt><trkpt lat="53.804835733" lon="21.5745875146"></trkpt><trkpt lat="53.8044088427" lon="21.573226545"></trkpt><trkpt lat="53.8039592374" lon="21.5723249037"></trkpt><trkpt lat="53.8034662977" lon="21.5716944169"></trkpt><trkpt lat="53.8024533447" lon="21.5700612031"></trkpt><trkpt lat="53.8019257039" lon="21.5687805321"></trkpt><trkpt lat="53.8012004178" lon="21.5663983952"></trkpt><trkpt lat="53.8011740148" lon="21.5644994751"></trkpt><trkpt lat="53.8012320176" lon="21.5638982411"></trkpt><trkpt lat="53.8015664555" lon="21.5627840348"></trkpt><trkpt lat="53.8019032404" lon="21.5619430784"></trkpt><trkpt lat="53.8030635472" lon="21.5578776039"></trkpt><trkpt lat="53.8030305225" lon="21.5555504523"></trkpt><trkpt lat="53.8026323821" lon="21.5501313005"></trkpt><trkpt lat="53.802037267" lon="21.5482589509"></trkpt><trkpt lat="53.7993594166" lon="21.5364580695"></trkpt><trkpt lat="53.7993493583" lon="21.5356916282"></trkpt><trkpt lat="53.7994050141" lon="21.535190139"></trkpt><trkpt lat="53.7998379394" lon="21.5331411827"></trkpt><trkpt lat="53.800077159" lon="21.5314176958"></trkpt><trkpt lat="53.7999650091" lon="21.5296331048"></trkpt><trkpt lat="53.8000608981" lon="21.5289963316"></trkpt><trkpt lat="53.8001846988" lon="21.5285669267"></trkpt><trkpt lat="53.800999755" lon="21.5248758718"></trkpt><trkpt lat="53.8007322885" lon="21.5244018752"></trkpt><trkpt lat="53.7999484967" lon="21.5224504005"></trkpt><trkpt lat="53.7994843908" lon="21.5201715287"></trkpt><trkpt lat="53.7991148327" lon="21.5173614956"></trkpt><trkpt lat="53.7992424052" lon="21.5166816395"></trkpt><trkpt lat="53.8010056224" lon="21.5104489401"></trkpt><trkpt lat="53.8015059382" lon="21.5091075003"></trkpt><trkpt lat="53.8024294563" lon="21.5060691442"></trkpt><trkpt lat="53.8027003594" lon="21.5049183089"></trkpt><trkpt lat="53.8028192148" lon="21.5034377296"></trkpt><trkpt lat="53.8028085697" lon="21.501280563"></trkpt><trkpt lat="53.8029967435" lon="21.4979298972"></trkpt><trkpt lat="53.8031635433" lon="21.4966941532"></trkpt><trkpt lat="53.8042082638" lon="21.4970714226"></trkpt><trkpt lat="53.8065316435" lon="21.4982983656"></trkpt><trkpt lat="53.8079370372" lon="21.4995392226"></trkpt><trkpt lat="53.8083429728" lon="21.4997790288"></trkpt><trkpt lat="53.808972789" lon="21.4996509533"></trkpt><trkpt lat="53.8096514717" lon="21.498616375"></trkpt><trkpt lat="53.8098107278" lon="21.4980354253"></trkpt><trkpt lat="53.8098642882" lon="21.4975750912"></trkpt><trkpt lat="53.8099009171" lon="21.4966112562"></trkpt><trkpt lat="53.8100275677" lon="21.4954873268"></trkpt><trkpt lat="53.8101625163" lon="21.4948187023"></trkpt><trkpt lat="53.8117687404" lon="21.4806882385"></trkpt><trkpt lat="53.8116661459" lon="21.4800572488"></trkpt><trkpt lat="53.8110548537" lon="21.4781886712"></trkpt><trkpt lat="53.8100703154" lon="21.4742030762"></trkpt><trkpt lat="53.810399808" lon="21.4727129415"></trkpt><trkpt lat="53.8111250941" lon="21.4705742989"></trkpt><trkpt lat="53.8121406455" lon="21.4699652698"></trkpt><trkpt lat="53.8131729607" lon="21.469079135"></trkpt><trkpt lat="53.8144812919" lon="21.467370484"></trkpt><trkpt lat="53.8154262677" lon="21.4665755443"></trkpt><trkpt lat="53.8212854695" lon="21.4594830293"></trkpt><trkpt lat="53.8233029097" lon="21.4560891129"></trkpt><trkpt lat="53.8257757388" lon="21.4526713919"></trkpt><trkpt lat="53.8269857503" lon="21.4512844384"></trkpt><trkpt lat="53.8280115277" lon="21.449836297"></trkpt><trkpt lat="53.8281293772" lon="21.4492357336"></trkpt><trkpt lat="53.8274768461" lon="21.4475783799"></trkpt><trkpt lat="53.8270704076" lon="21.4470948279"></trkpt><trkpt lat="53.8267001789" lon="21.4469339792"></trkpt><trkpt lat="53.8261618931" lon="21.4467883855"></trkpt><trkpt lat="53.8251233753" lon="21.4467546064"></trkpt><trkpt lat="53.8246414997" lon="21.446309695"></trkpt><trkpt lat="53.8246145938" lon="21.4457152504"></trkpt><trkpt lat="53.8244925532" lon="21.4444761537"></trkpt><trkpt lat="53.8245255779" lon="21.4436801244"></trkpt><trkpt lat="53.8246254902" lon="21.4430634677"></trkpt><trkpt lat="53.8249950483" lon="21.439243583"></trkpt><trkpt lat="53.8248007558" lon="21.4383856952"></trkpt><trkpt lat="53.8244456984" lon="21.4355075173"></trkpt><trkpt lat="53.8242535852" lon="21.4324849192"></trkpt><trkpt lat="53.824409321" lon="21.4268505201"></trkpt><trkpt lat="53.8248720858" lon="21.4261219651"></trkpt><trkpt lat="53.8265344687" lon="21.4228777494"></trkpt><trkpt lat="53.8269373868" lon="21.4214710146"></trkpt><trkpt lat="53.8269586768" lon="21.4209078345"></trkpt><trkpt lat="53.8271022588" lon="21.4201362804"></trkpt><trkpt lat="53.8272621017" lon="21.4195840806"></trkpt><trkpt lat="53.8276586495" lon="21.4187106024"></trkpt><trkpt lat="53.8283235859" lon="21.4162305649"></trkpt><trkpt lat="53.8290451001" lon="21.4122168068"></trkpt><trkpt lat="53.8289787155" lon="21.4108889457"></trkpt><trkpt lat="53.8290131651" lon="21.3945677038"></trkpt><trkpt lat="53.8291411567" lon="21.392962737"></trkpt><trkpt lat="53.8293064479" lon="21.3919742592"></trkpt><trkpt lat="53.829297144" lon="21.3913897891"></trkpt><trkpt lat="53.8290171884" lon="21.3896253146"></trkpt><trkpt lat="53.8288140111" lon="21.3865591306"></trkpt><trkpt lat="53.8295288198" lon="21.3853388093"></trkpt><trkpt lat="53.8302841131" lon="21.3837502711"></trkpt><trkpt lat="53.8304893859" lon="21.3831461873"></trkpt><trkpt lat="53.8316496927" lon="21.378042195"></trkpt><trkpt lat="53.8317610044" lon="21.3767143339"></trkpt><trkpt lat="53.831922356" lon="21.3715398498"></trkpt><trkpt lat="53.831687998" lon="21.3710795157"></trkpt><trkpt lat="53.8311237283" lon="21.3704350311"></trkpt><trkpt lat="53.8290483691" lon="21.3673089165"></trkpt><trkpt lat="53.8287304435" lon="21.3663144037"></trkpt><trkpt lat="53.8284552656" lon="21.3650435396"></trkpt><trkpt lat="53.8284406811" lon="21.3645605743"></trkpt><trkpt lat="53.8290184457" lon="21.349776322"></trkpt><trkpt lat="53.8294879999" lon="21.3478173036"></trkpt><trkpt lat="53.8351203036" lon="21.3294571638"></trkpt><trkpt lat="53.8355140854" lon="21.3287744578"></trkpt><trkpt lat="53.8357521314" lon="21.3284926582"></trkpt><trkpt lat="53.8362078555" lon="21.3281418756"></trkpt><trkpt lat="53.8390458841" lon="21.3249746058"></trkpt><trkpt lat="53.8395902049" lon="21.3240020536"></trkpt><trkpt lat="53.8422236312" lon="21.3171942718"></trkpt><trkpt lat="53.8422088791" lon="21.3165486977"></trkpt><trkpt lat="53.8421471883" lon="21.3158106711"></trkpt><trkpt lat="53.8419468608" lon="21.3084714767"></trkpt><trkpt lat="53.842401579" lon="21.3082553912"></trkpt><trkpt lat="53.842682289" lon="21.3085267134"></trkpt><trkpt lat="53.844247777" lon="21.3078786246"></trkpt><trkpt lat="53.8451291341" lon="21.3071959186"></trkpt><trkpt lat="53.8486393075" lon="21.3052425999"></trkpt><trkpt lat="53.8498658314" lon="21.3053586055"></trkpt><trkpt lat="53.8526506349" lon="21.3060399704"></trkpt><trkpt lat="53.8556998875" lon="21.3062761724"></trkpt><trkpt lat="53.8560541067" lon="21.3060616795"></trkpt><trkpt lat="53.8559820224" lon="21.305585755"></trkpt><trkpt lat="53.855955787" lon="21.3051229902"></trkpt><trkpt lat="53.8560256083" lon="21.3029322959"></trkpt><trkpt lat="53.8565566018" lon="21.3017661218"></trkpt><trkpt lat="53.8600377738" lon="21.2963618897"></trkpt><trkpt lat="53.8602287974" lon="21.2959744781"></trkpt><trkpt lat="53.8599303178" lon="21.295927288"></trkpt><trkpt lat="53.8601299748" lon="21.2962551042"></trkpt><trkpt lat="53.8597194292" lon="21.2966156937"></trkpt><trkpt lat="53.8589876052" lon="21.2971237209"></trkpt><trkpt lat="53.8582305517" lon="21.2978053372"></trkpt><trkpt lat="53.8580079284" lon="21.2982687727"></trkpt><trkpt lat="53.8575241249" lon="21.2996763457"></trkpt><trkpt lat="53.8562484831" lon="21.3026794139"></trkpt><trkpt lat="53.8556716405" lon="21.3045261987"></trkpt><trkpt lat="53.855668623" lon="21.305478299"></trkpt><trkpt lat="53.8557105325" lon="21.3060538843"></trkpt><trkpt lat="53.8556966186" lon="21.3065818604"></trkpt><trkpt lat="53.855046602" lon="21.3066150527"></trkpt><trkpt lat="53.8520087488" lon="21.3059868291"></trkpt><trkpt lat="53.8462073822" lon="21.3062332571"></trkpt><trkpt lat="53.8444801234" lon="21.3077041134"></trkpt><trkpt lat="53.8419951405" lon="21.309184609"></trkpt><trkpt lat="53.8416428491" lon="21.3093183003"></trkpt><trkpt lat="53.8358498644" lon="21.309929844"></trkpt><trkpt lat="53.835564293" lon="21.3097498845"></trkpt><trkpt lat="53.8341181632" lon="21.3085243665"></trkpt><trkpt lat="53.8299573865" lon="21.3059538882"></trkpt><trkpt lat="53.8284752145" lon="21.3055183645"></trkpt><trkpt lat="53.8254174124" lon="21.3051446155"></trkpt><trkpt lat="53.824307397" lon="21.3055182807"></trkpt><trkpt lat="53.8149163127" lon="21.3103650324"></trkpt><trkpt lat="53.8146732375" lon="21.310631996"></trkpt><trkpt lat="53.8137717638" lon="21.3118880242"></trkpt><trkpt lat="53.797833994" lon="21.329991091"></trkpt><trkpt lat="53.7966331188" lon="21.3303858787"></trkpt><trkpt lat="53.7456516176" lon="21.3371105958"></trkpt><trkpt lat="53.7444064859" lon="21.3353918027"></trkpt><trkpt lat="53.7437199242" lon="21.3349144533"></trkpt><trkpt lat="53.7434350234" lon="21.3348075002"></trkpt><trkpt lat="53.7431588396" lon="21.3348500803"></trkpt><trkpt lat="53.7428705022" lon="21.3350061513"></trkpt><trkpt lat="53.7399996165" lon="21.3354280125"></trkpt><trkpt lat="53.7385164388" lon="21.3345849607"></trkpt><trkpt lat="53.7200199254" lon="21.3203887828"></trkpt><trkpt lat="53.7177295703" lon="21.3192434795"></trkpt><trkpt lat="53.7137996312" lon="21.3158717752"></trkpt><trkpt lat="53.7132751755" lon="21.3152640034"></trkpt><trkpt lat="53.7123577762" lon="21.3137648162"></trkpt><trkpt lat="53.7105358858" lon="21.3100844063"></trkpt><trkpt lat="53.7102959957" lon="21.3094686717"></trkpt><trkpt lat="53.7100315467" lon="21.3091223314"></trkpt><trkpt lat="53.7097014673" lon="21.3089668471"></trkpt><trkpt lat="53.7089543883" lon="21.3095050491"></trkpt><trkpt lat="53.7074036524" lon="21.3093251735"></trkpt><trkpt lat="53.7061148509" lon="21.3089203276"></trkpt><trkpt lat="53.705981914" lon="21.3084353507"></trkpt><trkpt lat="53.7040927168" lon="21.3041511923"></trkpt><trkpt lat="53.7038535811" lon="21.3039320055"></trkpt><trkpt lat="53.7034741323" lon="21.3037499506"></trkpt><trkpt lat="53.70299628" lon="21.3036751002"></trkpt><trkpt lat="53.702687826" lon="21.3035346195"></trkpt><trkpt lat="53.7024291605" lon="21.3031708449"></trkpt><trkpt lat="53.7000831496" lon="21.3004317228"></trkpt><trkpt lat="53.6992252618" lon="21.2991347909"></trkpt><trkpt lat="53.6991827656" lon="21.2986566033"></trkpt><trkpt lat="53.6991104297" lon="21.2981581315"></trkpt><trkpt lat="53.6989328172" lon="21.2976897508"></trkpt><trkpt lat="53.6976762861" lon="21.2955029123"></trkpt><trkpt lat="53.6906247586" lon="21.285371203"></trkpt><trkpt lat="53.6901078466" lon="21.2849109527"></trkpt><trkpt lat="53.6822291929" lon="21.2761127204"></trkpt><trkpt lat="53.6813878175" lon="21.2728516571"></trkpt><trkpt lat="53.6790813692" lon="21.2661271077"></trkpt><trkpt lat="53.6786552332" lon="21.2651236262"></trkpt><trkpt lat="53.6783015169" lon="21.2644366454"></trkpt><trkpt lat="53.6779130995" lon="21.2634490896"></trkpt><trkpt lat="53.6778303701" lon="21.2642512377"></trkpt><trkpt lat="53.6775219161" lon="21.2639683485"></trkpt><trkpt lat="53.6767916009" lon="21.2635525223"></trkpt><trkpt lat="53.676054161" lon="21.2629441638"></trkpt><trkpt lat="53.6752707046" lon="21.2613050826"></trkpt><trkpt lat="53.6748020723" lon="21.2605438381"></trkpt><trkpt lat="53.6745540518" lon="21.2603383139"></trkpt><trkpt lat="53.6736347247" lon="21.2600105815"></trkpt><trkpt lat="53.6727771722" lon="21.2591198366"></trkpt><trkpt lat="53.6726127192" lon="21.2587538827"></trkpt><trkpt lat="53.6724800337" lon="21.2581391539"></trkpt><trkpt lat="53.6724277306" lon="21.2574325595"></trkpt><trkpt lat="53.6726061814" lon="21.2563538086"></trkpt><trkpt lat="53.6726107076" lon="21.2530708686"></trkpt><trkpt lat="53.6721751839" lon="21.2516541593"></trkpt><trkpt lat="53.6719514709" lon="21.2513256725"></trkpt><trkpt lat="53.6716663186" lon="21.2510481477"></trkpt><trkpt lat="53.6682665348" lon="21.2465447187"></trkpt><trkpt lat="53.6674712598" lon="21.2448830064"></trkpt><trkpt lat="53.6635440867" lon="21.2345319428"></trkpt><trkpt lat="53.6629690882" lon="21.232674513"></trkpt><trkpt lat="53.6558818538" lon="21.2139628362"></trkpt><trkpt lat="53.6551182624" lon="21.2127743661"></trkpt><trkpt lat="53.652564548" lon="21.207264103"></trkpt><trkpt lat="53.6523266695" lon="21.2061711028"></trkpt><trkpt lat="53.6520861927" lon="21.2044803891"></trkpt><trkpt lat="53.6522239074" lon="21.2026429083"></trkpt><trkpt lat="53.6524682399" lon="21.201055795"></trkpt><trkpt lat="53.6531351879" lon="21.1931805778"></trkpt><trkpt lat="53.6531591602" lon="21.1911823321"></trkpt><trkpt lat="53.652861435" lon="21.1860671919"></trkpt><trkpt lat="53.6527547333" lon="21.1856305785"></trkpt><trkpt lat="53.6525204591" lon="21.1843512487"></trkpt><trkpt lat="53.6525206268" lon="21.1836840492"></trkpt><trkpt lat="53.6527080461" lon="21.1817322392"></trkpt><trkpt lat="53.6527301744" lon="21.1811485235"></trkpt><trkpt lat="53.6526487023" lon="21.1806331202"></trkpt><trkpt lat="53.6524747778" lon="21.1802486423"></trkpt><trkpt lat="53.6521418486" lon="21.1796935927"></trkpt><trkpt lat="53.6517534312" lon="21.1788862478"></trkpt><trkpt lat="53.6512697116" lon="21.177026052"></trkpt><trkpt lat="53.6408673506" lon="21.1232919339"></trkpt><trkpt lat="53.6412810814" lon="21.1217158008"></trkpt><trkpt lat="53.641424831" lon="21.1209548078"></trkpt><trkpt lat="53.6414407566" lon="21.1203731038"></trkpt><trkpt lat="53.6413367372" lon="21.1198204849"></trkpt><trkpt lat="53.6407926679" lon="21.1178196408"></trkpt><trkpt lat="53.640515646" lon="21.1159892008"></trkpt><trkpt lat="53.6350873578" lon="21.0909519531"></trkpt><trkpt lat="53.6339524481" lon="21.0881140921"></trkpt><trkpt lat="53.6315087043" lon="21.0831991117"></trkpt><trkpt lat="53.6305509042" lon="21.082191607"></trkpt><trkpt lat="53.6246038601" lon="21.0744617321"></trkpt><trkpt lat="53.6246057041" lon="21.0733569134"></trkpt><trkpt lat="53.6247305945" lon="21.0724933259"></trkpt><trkpt lat="53.6247755215" lon="21.0717981309"></trkpt><trkpt lat="53.6246825662" lon="21.0712300055"></trkpt><trkpt lat="53.6245257407" lon="21.0708473716"></trkpt><trkpt lat="53.6242190469" lon="21.0706078168"></trkpt><trkpt lat="53.6237330642" lon="21.0701234266"></trkpt><trkpt lat="53.6238622293" lon="21.0697183292"></trkpt><trkpt lat="53.6245529819" lon="21.0694273934"></trkpt><trkpt lat="53.6276818626" lon="21.0675287247"></trkpt><trkpt lat="53.6277071759" lon="21.0670606792"></trkpt><trkpt lat="53.6284350604" lon="21.0629336815"></trkpt><trkpt lat="53.6286652274" lon="21.062218789"></trkpt><trkpt lat="53.6292069498" lon="21.0610708874"></trkpt><trkpt lat="53.6296813656" lon="21.0605333559"></trkpt><trkpt lat="53.6298976187" lon="21.0599868558"></trkpt><trkpt lat="53.6299523525" lon="21.0593240988"></trkpt><trkpt lat="53.6298571341" lon="21.0586816259"></trkpt><trkpt lat="53.6294146534" lon="21.0571895633"></trkpt><trkpt lat="53.6292122304" lon="21.0566733219"></trkpt><trkpt lat="53.6289587617" lon="21.0564356111"></trkpt><trkpt lat="53.6286694184" lon="21.0565359425"></trkpt><trkpt lat="53.6273389589" lon="21.0566327535"></trkpt><trkpt lat="53.626106903" lon="21.0557190422"></trkpt><trkpt lat="53.6256269552" lon="21.0551092587"></trkpt><trkpt lat="53.6251834687" lon="21.0540247243"></trkpt><trkpt lat="53.6236484908" lon="21.0511814151"></trkpt><trkpt lat="53.6233873107" lon="21.0513486341"></trkpt><trkpt lat="53.6222759541" lon="21.0523257963"></trkpt><trkpt lat="53.6207661219" lon="21.0529925767"></trkpt><trkpt lat="53.6179509759" lon="21.0537443496"></trkpt><trkpt lat="53.6052187812" lon="21.0482146405"></trkpt><trkpt lat="53.6047023721" lon="21.0476854909"></trkpt><trkpt lat="53.5988841578" lon="21.0429323651"></trkpt><trkpt lat="53.5982416011" lon="21.0426305328"></trkpt><trkpt lat="53.5976601485" lon="21.042233482"></trkpt><trkpt lat="53.5974924266" lon="21.0418246128"></trkpt><trkpt lat="53.5969911888" lon="21.0396681167"></trkpt><trkpt lat="53.5968015064" lon="21.0393282305"></trkpt><trkpt lat="53.5964348819" lon="21.0388808046"></trkpt><trkpt lat="53.5961472988" lon="21.0386610311"></trkpt><trkpt lat="53.595127305" lon="21.0383962467"></trkpt><trkpt lat="53.5857431777" lon="21.0423026327"></trkpt><trkpt lat="53.5848581325" lon="21.0428146832"></trkpt><trkpt lat="53.5845403746" lon="21.0428707581"></trkpt><trkpt lat="53.5841805395" lon="21.0424894653"></trkpt><trkpt lat="53.5839462653" lon="21.0421277862"></trkpt><trkpt lat="53.5837431718" lon="21.0416868981"></trkpt><trkpt lat="53.5835700016" lon="21.041226564"></trkpt><trkpt lat="53.5833350569" lon="21.0402810853"></trkpt><trkpt lat="53.5833195504" lon="21.0397324059"></trkpt><trkpt lat="53.5836421698" lon="21.0380457994"></trkpt><trkpt lat="53.5839648731" lon="21.034940891"></trkpt><trkpt lat="53.5838505439" lon="21.0344847478"></trkpt><trkpt lat="53.5793290939" lon="21.020688219"></trkpt><trkpt lat="53.5782320704" lon="21.0192876868"></trkpt><trkpt lat="53.5767970048" lon="21.0178037547"></trkpt><trkpt lat="53.5734584089" lon="21.0135229491"></trkpt><trkpt lat="53.5730303451" lon="21.0128009319"></trkpt><trkpt lat="53.5644518863" lon="21.0015422758"></trkpt><trkpt lat="53.5609143879" lon="21.0050397925"></trkpt><trkpt lat="53.5609112866" lon="21.0038781445"></trkpt><trkpt lat="53.5608071834" lon="21.0029105376"></trkpt><trkpt lat="53.5607076902" lon="21.0008664429"></trkpt><trkpt lat="53.5610837862" lon="21.0000670608"></trkpt><trkpt lat="53.5612805095" lon="20.9997420944"></trkpt><trkpt lat="53.562071342" lon="20.9981543105"></trkpt><trkpt lat="53.5634130333" lon="20.9948751424"></trkpt><trkpt lat="53.5629410483" lon="20.9940412268"></trkpt><trkpt lat="53.5626590811" lon="20.9938513767"></trkpt><trkpt lat="53.5616329685" lon="20.9927972686"></trkpt><trkpt lat="53.5611490812" lon="20.9921274707"></trkpt><trkpt lat="53.5609203391" lon="20.9916790389"></trkpt><trkpt lat="53.5606643558" lon="20.9913257416"></trkpt><trkpt lat="53.5568603966" lon="20.9870886896"></trkpt><trkpt lat="53.5557569191" lon="20.9870087262"></trkpt><trkpt lat="53.5539553128" lon="20.9874531347"></trkpt><trkpt lat="53.54102212" lon="20.9886657447"></trkpt><trkpt lat="53.5404032841" lon="20.988111617"></trkpt><trkpt lat="53.5338125937" lon="20.9838549513"></trkpt><trkpt lat="53.5334499087" lon="20.9837381076"></trkpt><trkpt lat="53.5325833876" lon="20.9832097124"></trkpt><trkpt lat="53.4853655286" lon="20.9620843828"></trkpt><trkpt lat="53.4845369775" lon="20.9628380835"></trkpt><trkpt lat="53.4842547588" lon="20.962801706"></trkpt><trkpt lat="53.4840980172" lon="20.9623971116"></trkpt><trkpt lat="53.4838578757" lon="20.9613927081"></trkpt><trkpt lat="53.4828381334" lon="20.9580489155"></trkpt><trkpt lat="53.4819624759" lon="20.9567547496"></trkpt><trkpt lat="53.4809352737" lon="20.9554955363"></trkpt><trkpt lat="53.4799352288" lon="20.9551354498"></trkpt><trkpt lat="53.4382468276" lon="20.9471594822"></trkpt><trkpt lat="53.4374725074" lon="20.9474763181"></trkpt><trkpt lat="53.4312183503" lon="20.9520437848"></trkpt><trkpt lat="53.4305620473" lon="20.9529483598"></trkpt><trkpt lat="53.4224331938" lon="20.9603409469"></trkpt><trkpt lat="53.4214640781" lon="20.9604053199"></trkpt><trkpt lat="53.4190665185" lon="20.9598495159"></trkpt><trkpt lat="53.4180641267" lon="20.958732795"></trkpt><trkpt lat="53.41643041" lon="20.9565149434"></trkpt><trkpt lat="53.4109706059" lon="20.950453151"></trkpt><trkpt lat="53.4034130629" lon="20.9440901969"></trkpt><trkpt lat="53.4030138329" lon="20.9445994813"></trkpt><trkpt lat="53.4026353899" lon="20.9449942689"></trkpt><trkpt lat="53.4023766406" lon="20.9453445487"></trkpt><trkpt lat="53.4021920711" lon="20.9458501451"></trkpt><trkpt lat="53.4017421305" lon="20.9475209098"></trkpt><trkpt lat="53.4011526313" lon="20.949235931"></trkpt><trkpt lat="53.4001361579" lon="20.9516181517"></trkpt><trkpt lat="53.3996490017" lon="20.9522258397"></trkpt><trkpt lat="53.4000088368" lon="20.952729173"></trkpt><trkpt lat="53.4005800635" lon="20.9527388122"></trkpt><trkpt lat="53.400979545" lon="20.9528461844"></trkpt></trkseg><trkseg><trkpt lat="54.1055272054" lon="22.946245987"></trkpt><trkpt lat="54.1057749745" lon="22.9466627352"></trkpt><trkpt lat="54.1059202328" lon="22.9462127108"></trkpt><trkpt lat="54.1061837599" lon="22.9464500863"></trkpt><trkpt lat="54.1065419186" lon="22.9467009567"></trkpt><trkpt lat="54.1068181861" lon="22.9456984811"></trkpt><trkpt lat="54.1070837248" lon="22.9444593843"></trkpt><trkpt lat="54.1073345952" lon="22.9426655732"></trkpt><trkpt lat="54.1073931847" lon="22.9419618286"></trkpt><trkpt lat="54.1075063404" lon="22.941425303"></trkpt><trkpt lat="54.1076204181" lon="22.9401395191"></trkpt><trkpt lat="54.1076521017" lon="22.9389629513"></trkpt><trkpt lat="54.107807586" lon="22.9370889254"></trkpt><trkpt lat="54.1077032313" lon="22.9366170242"></trkpt><trkpt lat="54.1076905746" lon="22.9361269344"></trkpt><trkpt lat="54.108290216" lon="22.935854774"></trkpt><trkpt lat="54.1098236013" lon="22.9346803855"></trkpt><trkpt lat="54.1102193948" lon="22.9336644989"></trkpt><trkpt lat="54.111367967" lon="22.9299968295"></trkpt><trkpt lat="54.1113034263" lon="22.9285595007"></trkpt><trkpt lat="54.111214662" lon="22.9281071294"></trkpt><trkpt lat="54.1112029273" lon="22.9276136868"></trkpt><trkpt lat="54.1109062918" lon="22.9274359066"></trkpt><trkpt lat="54.1101079993" lon="22.9264979716"></trkpt><trkpt lat="54.1081306245" lon="22.9246135522"></trkpt><trkpt lat="54.107638523" lon="22.9244888294"></trkpt><trkpt lat="54.107107278" lon="22.9244883265"></trkpt><trkpt lat="54.1064911243" lon="22.9239788745"></trkpt><trkpt lat="54.1065161023" lon="22.9227917455"></trkpt><trkpt lat="54.1062312853" lon="22.9196958896"></trkpt><trkpt lat="54.1058043111" lon="22.9169660714"></trkpt><trkpt lat="54.1037954204" lon="22.894896185"></trkpt><trkpt lat="54.1040706821" lon="22.893325584"></trkpt><trkpt lat="54.107137369" lon="22.8814380337"></trkpt><trkpt lat="54.1076420434" lon="22.8799623158"></trkpt><trkpt lat="54.1078550275" lon="22.8794649336"></trkpt><trkpt lat="54.1080109309" lon="22.8790043481"></trkpt><trkpt lat="54.1080777347" lon="22.8785581794"></trkpt><trkpt lat="54.1085496359" lon="22.8775203321"></trkpt><trkpt lat="54.112764895" lon="22.8698471189"></trkpt><trkpt lat="54.1146307066" lon="22.8683776874"></trkpt><trkpt lat="54.1466829367" lon="22.8358331881"></trkpt><trkpt lat="54.1476132441" lon="22.8320789337"></trkpt><trkpt lat="54.1557012778" lon="22.8065362573"></trkpt><trkpt lat="54.1856793221" lon="22.7311431337"></trkpt><trkpt lat="54.1869529523" lon="22.7313679364"></trkpt><trkpt lat="54.1970890202" lon="22.7312632464"></trkpt><trkpt lat="54.1989521496" lon="22.7304416522"></trkpt><trkpt lat="54.211017983" lon="22.7274848521"></trkpt><trkpt lat="54.2307380866" lon="22.7195808012"></trkpt><trkpt lat="54.2312485445" lon="22.7186222468"></trkpt><trkpt lat="54.2315775342" lon="22.7181324922"></trkpt><trkpt lat="54.2338232975" lon="22.7134108823"></trkpt><trkpt lat="54.2343126331" lon="22.7113041747"></trkpt><trkpt lat="54.2350387573" lon="22.7088422421"></trkpt><trkpt lat="54.2357501294" lon="22.7083192114"></trkpt><trkpt lat="54.2360602599" lon="22.7078869566"></trkpt><trkpt lat="54.2369228415" lon="22.7061506454"></trkpt><trkpt lat="54.2446494475" lon="22.6871454343"></trkpt><trkpt lat="54.244796969" lon="22.6852662954"></trkpt><trkpt lat="54.2460058909" lon="22.6763307676"></trkpt><trkpt lat="54.2471894994" lon="22.6746944524"></trkpt><trkpt lat="54.2478110176" lon="22.6727456599"></trkpt><trkpt lat="54.2494617496" lon="22.6686099451"></trkpt><trkpt lat="54.249831643" lon="22.667851299"></trkpt><trkpt lat="54.2502024584" lon="22.666927278"></trkpt><trkpt lat="54.2502955813" lon="22.6662883256"></trkpt><trkpt lat="54.2502489779" lon="22.6641950291"></trkpt><trkpt lat="54.2504915502" lon="22.6626101788"></trkpt><trkpt lat="54.2512813769" lon="22.6588880271"></trkpt><trkpt lat="54.2517571338" lon="22.6574188471"></trkpt><trkpt lat="54.2525567673" lon="22.6562194806"></trkpt><trkpt lat="54.2536668666" lon="22.6575774327"></trkpt><trkpt lat="54.2542349081" lon="22.6563307922"></trkpt><trkpt lat="54.2545470502" lon="22.6554441545"></trkpt><trkpt lat="54.2583877221" lon="22.6464558206"></trkpt><trkpt lat="54.2589374911" lon="22.6454670075"></trkpt><trkpt lat="54.2816008162" lon="22.6119336113"></trkpt><trkpt lat="54.282623576" lon="22.6129417028"></trkpt><trkpt lat="54.284650404" lon="22.6142770238"></trkpt><trkpt lat="54.2855490278" lon="22.614294542"></trkpt><trkpt lat="54.2884092685" lon="22.6134826709"></trkpt><trkpt lat="54.2898559012" lon="22.6126250345"></trkpt><trkpt lat="54.2902423069" lon="22.6123082824"></trkpt><trkpt lat="54.2905058339" lon="22.611901341"></trkpt><trkpt lat="54.293428855" lon="22.617730787"></trkpt><trkpt lat="54.2940196116" lon="22.6193935052"></trkpt><trkpt lat="54.2941913567" lon="22.6207204442"></trkpt><trkpt lat="54.2941413168" lon="22.6223104913"></trkpt><trkpt lat="54.2942226212" lon="22.6261478942"></trkpt><trkpt lat="54.2944099568" lon="22.626518039"></trkpt><trkpt lat="54.2951352429" lon="22.6275887433"></trkpt><trkpt lat="54.2989780102" lon="22.6322517637"></trkpt><trkpt lat="54.2996872868" lon="22.6327183004"></trkpt><trkpt lat="54.3017948326" lon="22.6345645823"></trkpt><trkpt lat="54.3018086627" lon="22.6352439355"></trkpt><trkpt lat="54.3015941698" lon="22.6376103144"></trkpt><trkpt lat="54.3011556286" lon="22.6401528809"></trkpt><trkpt lat="54.2990749888" lon="22.6478166226"></trkpt><trkpt lat="54.2981240619" lon="22.6485460997"></trkpt><trkpt lat="54.296175018" lon="22.6496182289"></trkpt><trkpt lat="54.2956275959" lon="22.649826603"></trkpt><trkpt lat="54.2934680823" lon="22.6510338485"></trkpt><trkpt lat="54.2931368295" lon="22.6515062526"></trkpt><trkpt lat="54.2921574879" lon="22.6522658207"></trkpt><trkpt lat="54.2917361297" lon="22.6529203635"></trkpt><trkpt lat="54.2920072004" lon="22.6532137301"></trkpt><trkpt lat="54.2925322428" lon="22.6541976817"></trkpt><trkpt lat="54.2931032181" lon="22.654907126"></trkpt><trkpt lat="54.2939852457" lon="22.6543658227"></trkpt><trkpt lat="54.2945666984" lon="22.6542796567"></trkpt><trkpt lat="54.29482067" lon="22.6545595285"></trkpt><trkpt lat="54.2951986101" lon="22.6551375445"></trkpt><trkpt lat="54.29546725" lon="22.655665772"></trkpt><trkpt lat="54.2954152822" lon="22.6564935688"></trkpt><trkpt lat="54.2953174654" lon="22.6571472734"></trkpt><trkpt lat="54.2956412584" lon="22.6577495132"></trkpt><trkpt lat="54.2959479522" lon="22.6578523591"></trkpt><trkpt lat="54.2959306017" lon="22.6572538912"></trkpt><trkpt lat="54.29575257" lon="22.6566085685"></trkpt><trkpt lat="54.2956448626" lon="22.6559199952"></trkpt><trkpt lat="54.2958099861" lon="22.6555517782"></trkpt><trkpt lat="54.2960040271" lon="22.655229494"></trkpt><trkpt lat="54.2958228942" lon="22.6556039136"></trkpt><trkpt lat="54.2956381571" lon="22.6561530121"></trkpt><trkpt lat="54.2958298512" lon="22.6567686629"></trkpt><trkpt lat="54.2960362975" lon="22.6576755848"></trkpt><trkpt lat="54.2961946316" lon="22.6580883935"></trkpt><trkpt lat="54.2959030252" lon="22.6579722203"></trkpt><trkpt lat="54.2956161965" lon="22.6577858068"></trkpt><trkpt lat="54.2959055398" lon="22.6579940971"></trkpt><trkpt lat="54.295956837" lon="22.6572497841"></trkpt><trkpt lat="54.2957329564" lon="22.6565753762"></trkpt><trkpt lat="54.2950598896" lon="22.655164618"></trkpt><trkpt lat="54.2944630142" lon="22.6541268546"></trkpt><trkpt lat="54.2941357847" lon="22.6540981885"></trkpt><trkpt lat="54.2931328062" lon="22.6546583511"></trkpt><trkpt lat="54.292804487" lon="22.6545307785"></trkpt><trkpt lat="54.2925861385" lon="22.6542407647"></trkpt><trkpt lat="54.2921051849" lon="22.6529476885"></trkpt><trkpt lat="54.2920859065" lon="22.6524437685"></trkpt><trkpt lat="54.2926636711" lon="22.651714962"></trkpt><trkpt lat="54.2933821678" lon="22.6511717308"></trkpt><trkpt lat="54.2937638797" lon="22.6507656276"></trkpt><trkpt lat="54.2946172412" lon="22.650091555"></trkpt><trkpt lat="54.295065254" lon="22.6499504875"></trkpt><trkpt lat="54.298638124" lon="22.6481730212"></trkpt><trkpt lat="54.2993073352" lon="22.6472790074"></trkpt><trkpt lat="54.2995276116" lon="22.646875754"></trkpt><trkpt lat="54.3004188593" lon="22.644915143"></trkpt><trkpt lat="54.3007612601" lon="22.6430378482"></trkpt><trkpt lat="54.3010745756" lon="22.6405633427"></trkpt><trkpt lat="54.3014713749" lon="22.6341854688"></trkpt><trkpt lat="54.3012653477" lon="22.6336078718"></trkpt><trkpt lat="54.3006952107" lon="22.6332989987"></trkpt><trkpt lat="54.297245387" lon="22.63063238"></trkpt><trkpt lat="54.2966164928" lon="22.6296672039"></trkpt><trkpt lat="54.2940540612" lon="22.6247860864"></trkpt><trkpt lat="54.2941563204" lon="22.622980373"></trkpt><trkpt lat="54.2941183504" lon="22.6198304538"></trkpt><trkpt lat="54.2940165102" lon="22.6193553675"></trkpt><trkpt lat="54.2935356405" lon="22.6179930568"></trkpt><trkpt lat="54.2912188824" lon="22.6130148768"></trkpt><trkpt lat="54.2903384473" lon="22.6117951423"></trkpt><trkpt lat="54.2900036741" lon="22.6111623086"></trkpt><trkpt lat="54.2895564996" lon="22.6094758697"></trkpt><trkpt lat="54.2894288432" lon="22.607643418"></trkpt><trkpt lat="54.2885551136" lon="22.6012063678"></trkpt><trkpt lat="54.2884829454" lon="22.5982151181"></trkpt><trkpt lat="54.2886245158" lon="22.5946719199"></trkpt><trkpt lat="54.2888931558" lon="22.5925599318"></trkpt><trkpt lat="54.2888924014" lon="22.5920698419"></trkpt><trkpt lat="54.2887227517" lon="22.5916579552"></trkpt><trkpt lat="54.2875114828" lon="22.5892725494"></trkpt><trkpt lat="54.2871500552" lon="22.5889835414"></trkpt><trkpt lat="54.2869255878" lon="22.5885973033"></trkpt><trkpt lat="54.2868638132" lon="22.5880756136"></trkpt><trkpt lat="54.2870040424" lon="22.5876415987"></trkpt><trkpt lat="54.2872297671" lon="22.5872867927"></trkpt><trkpt lat="54.287403021" lon="22.5868560467"></trkpt><trkpt lat="54.2874585092" lon="22.5863407273"></trkpt><trkpt lat="54.287431268" lon="22.5842968002"></trkpt><trkpt lat="54.2882703803" lon="22.5622879341"></trkpt><trkpt lat="54.2883883975" lon="22.5616494846"></trkpt><trkpt lat="54.2886012979" lon="22.5609263778"></trkpt><trkpt lat="54.2888590414" lon="22.5596542563"></trkpt><trkpt lat="54.2888334766" lon="22.5590525195"></trkpt><trkpt lat="54.2886511702" lon="22.5585135631"></trkpt><trkpt lat="54.2878915183" lon="22.5566743221"></trkpt><trkpt lat="54.2875939608" lon="22.5565739907"></trkpt><trkpt lat="54.2871791404" lon="22.5565597415"></trkpt><trkpt lat="54.2869096622" lon="22.5563300774"></trkpt><trkpt lat="54.2867512442" lon="22.5559010915"></trkpt><trkpt lat="54.2866290361" lon="22.5553903822"></trkpt><trkpt lat="54.2823307123" lon="22.5316399243"></trkpt><trkpt lat="54.2820282094" lon="22.5304325111"></trkpt><trkpt lat="54.2818196677" lon="22.5278080534"></trkpt><trkpt lat="54.2819681112" lon="22.5268246047"></trkpt><trkpt lat="54.2821546923" lon="22.5259942096"></trkpt><trkpt lat="54.2836289853" lon="22.5210864376"></trkpt><trkpt lat="54.2844970152" lon="22.5198317505"></trkpt><trkpt lat="54.2863761541" lon="22.5177015737"></trkpt><trkpt lat="54.2886581272" lon="22.5144892093"></trkpt><trkpt lat="54.2891651485" lon="22.5128794648"></trkpt><trkpt lat="54.2891700938" lon="22.5123609602"></trkpt><trkpt lat="54.289639229" lon="22.50547003"></trkpt><trkpt lat="54.289755905" lon="22.5050299801"></trkpt><trkpt lat="54.2900061049" lon="22.5044983998"></trkpt><trkpt lat="54.2910657451" lon="22.5028453209"></trkpt><trkpt lat="54.2941000778" lon="22.4971610494"></trkpt><trkpt lat="54.2944370303" lon="22.4958411511"></trkpt><trkpt lat="54.2946938518" lon="22.4931495544"></trkpt><trkpt lat="54.2956493888" lon="22.4885418545"></trkpt><trkpt lat="54.2966260482" lon="22.486402709"></trkpt><trkpt lat="54.2975271028" lon="22.4849134125"></trkpt><trkpt lat="54.300474599" lon="22.4791021552"></trkpt><trkpt lat="54.3003609404" lon="22.478567725"></trkpt><trkpt lat="54.3002194539" lon="22.4769285601"></trkpt><trkpt lat="54.3004866689" lon="22.4745997321"></trkpt><trkpt lat="54.3005289976" lon="22.4739164393"></trkpt><trkpt lat="54.3004647922" lon="22.4715653155"></trkpt><trkpt lat="54.3007211946" lon="22.4644210842"></trkpt><trkpt lat="54.300708957" lon="22.4639180023"></trkpt><trkpt lat="54.3001706712" lon="22.4620233569"></trkpt><trkpt lat="54.2982673924" lon="22.4528305884"></trkpt><trkpt lat="54.2984774429" lon="22.4515381828"></trkpt><trkpt lat="54.2990535311" lon="22.4457483832"></trkpt><trkpt lat="54.2990541179" lon="22.4424706399"></trkpt><trkpt lat="54.2996789888" lon="22.4342392758"></trkpt><trkpt lat="54.3001829926" lon="22.4335084576"></trkpt><trkpt lat="54.3024579249" lon="22.4292976409"></trkpt><trkpt lat="54.3035997078" lon="22.4266534019"></trkpt><trkpt lat="54.3053361028" lon="22.4216588773"></trkpt><trkpt lat="54.305946473" lon="22.419061996"></trkpt><trkpt lat="54.309270652" lon="22.4000493251"></trkpt><trkpt lat="54.3092406448" lon="22.3991206102"></trkpt><trkpt lat="54.3095733225" lon="22.3824132979"></trkpt><trkpt lat="54.3099601474" lon="22.3803267907"></trkpt><trkpt lat="54.3101981934" lon="22.3772632051"></trkpt><trkpt lat="54.3101477344" lon="22.3744200636"></trkpt><trkpt lat="54.3102585431" lon="22.3715551291"></trkpt><trkpt lat="54.3108594418" lon="22.3696722183"></trkpt><trkpt lat="54.3115548883" lon="22.3667586688"></trkpt><trkpt lat="54.3112110626" lon="22.3667149991"></trkpt><trkpt lat="54.3090141658" lon="22.3682531621"></trkpt><trkpt lat="54.3087326176" lon="22.3681671638"></trkpt><trkpt lat="54.3050372042" lon="22.3664428387"></trkpt><trkpt lat="54.3051437382" lon="22.3660092428"></trkpt><trkpt lat="54.3050428201" lon="22.3655074183"></trkpt><trkpt lat="54.3049040996" lon="22.3644772824"></trkpt><trkpt lat="54.3053547945" lon="22.3633608129"></trkpt><trkpt lat="54.3055783398" lon="22.3623062018"></trkpt><trkpt lat="54.3059701938" lon="22.3594924808"></trkpt><trkpt lat="54.3060055654" lon="22.3590056598"></trkpt><trkpt lat="54.3060918152" lon="22.3584415577"></trkpt><trkpt lat="54.3064964935" lon="22.3566868063"></trkpt><trkpt lat="54.3066078052" lon="22.3559481092"></trkpt><trkpt lat="54.3066642992" lon="22.3550409358"></trkpt><trkpt lat="54.3067899439" lon="22.3539726622"></trkpt><trkpt lat="54.3073220272" lon="22.3517084587"></trkpt><trkpt lat="54.3082715292" lon="22.3458081018"></trkpt><trkpt lat="54.308583336" lon="22.3425405007"></trkpt><trkpt lat="54.3093687203" lon="22.3374140449"></trkpt><trkpt lat="54.3105384987" lon="22.3321385588"></trkpt><trkpt lat="54.3111082166" lon="22.3305393755"></trkpt><trkpt lat="54.3115593307" lon="22.3295833357"></trkpt><trkpt lat="54.3116835505" lon="22.3289606441"></trkpt><trkpt lat="54.3116712291" lon="22.3269422818"></trkpt><trkpt lat="54.31183015" lon="22.3253248259"></trkpt><trkpt lat="54.3122764863" lon="22.322818134"></trkpt><trkpt lat="54.3124805856" lon="22.3211107403"></trkpt><trkpt lat="54.31239333" lon="22.3191511352"></trkpt><trkpt lat="54.3122510891" lon="22.3177659418"></trkpt><trkpt lat="54.3123749737" lon="22.3173248023"></trkpt><trkpt lat="54.3125597108" lon="22.3169674817"></trkpt><trkpt lat="54.3130301032" lon="22.316374965"></trkpt><trkpt lat="54.3132754415" lon="22.3158714641"></trkpt><trkpt lat="54.3133953866" lon="22.3154094536"></trkpt><trkpt lat="54.3136901781" lon="22.3134279717"></trkpt><trkpt lat="54.3139478378" lon="22.3092886526"></trkpt><trkpt lat="54.3143365905" lon="22.3068351857"></trkpt><trkpt lat="54.3143300526" lon="22.3074481543"></trkpt><trkpt lat="54.3144664261" lon="22.3078789003"></trkpt><trkpt lat="54.3143518455" lon="22.3073918279"></trkpt><trkpt lat="54.3143895641" lon="22.3069091979"></trkpt><trkpt lat="54.3143614009" lon="22.306319112"></trkpt><trkpt lat="54.3144809268" lon="22.3052259441"></trkpt><trkpt lat="54.3144376762" lon="22.2994458675"></trkpt><trkpt lat="54.3140415475" lon="22.2994715162"></trkpt><trkpt lat="54.3137840554" lon="22.2992616333"></trkpt><trkpt lat="54.3136658706" lon="22.2988033947"></trkpt><trkpt lat="54.3137035053" lon="22.2983161546"></trkpt><trkpt lat="54.3140207604" lon="22.2967194859"></trkpt><trkpt lat="54.314684188" lon="22.2950263415"></trkpt><trkpt lat="54.3155996595" lon="22.293253066"></trkpt><trkpt lat="54.3162210099" lon="22.2922681924"></trkpt><trkpt lat="54.3170414306" lon="22.2912974004"></trkpt><trkpt lat="54.3173630442" lon="22.2910042852"></trkpt><trkpt lat="54.3176756892" lon="22.290515285"></trkpt><trkpt lat="54.3177930359" lon="22.2899457347"></trkpt><trkpt lat="54.3177137431" lon="22.2894574888"></trkpt><trkpt lat="54.3175732624" lon="22.2889611963"></trkpt><trkpt lat="54.3174848333" lon="22.2884337232"></trkpt><trkpt lat="54.3174514733" lon="22.2878450621"></trkpt><trkpt lat="54.3174947239" lon="22.2872752603"></trkpt><trkpt lat="54.317756407" lon="22.2859132849"></trkpt><trkpt lat="54.3174698297" lon="22.287331922"></trkpt><trkpt lat="54.3174264953" lon="22.2883861139"></trkpt><trkpt lat="54.3175880983" lon="22.2892169282"></trkpt><trkpt lat="54.3177558202" lon="22.2898244485"></trkpt><trkpt lat="54.317739727" lon="22.2903940827"></trkpt><trkpt lat="54.3175724242" lon="22.2908122558"></trkpt><trkpt lat="54.3172920495" lon="22.291118782"></trkpt><trkpt lat="54.3147861119" lon="22.2946535144"></trkpt><trkpt lat="54.3143497501" lon="22.2956827283"></trkpt><trkpt lat="54.3136977218" lon="22.2976238094"></trkpt><trkpt lat="54.3134946283" lon="22.2988588829"></trkpt><trkpt lat="54.3134374637" lon="22.2995532397"></trkpt><trkpt lat="54.3139168248" lon="22.2995334584"></trkpt><trkpt lat="54.3145701941" lon="22.2993661556"></trkpt><trkpt lat="54.3150016107" lon="22.2993473802"></trkpt><trkpt lat="54.3151088152" lon="22.2998223826"></trkpt><trkpt lat="54.3149980903" lon="22.3009458091"></trkpt><trkpt lat="54.3139858916" lon="22.3075485695"></trkpt><trkpt lat="54.3139311578" lon="22.3096587975"></trkpt><trkpt lat="54.3142346665" lon="22.3130853195"></trkpt><trkpt lat="54.3145048153" lon="22.3128883447"></trkpt><trkpt lat="54.3150736112" lon="22.3121171258"></trkpt><trkpt lat="54.3158113863" lon="22.3115334939"></trkpt><trkpt lat="54.3164837826" lon="22.311494099"></trkpt><trkpt lat="54.3167872913" lon="22.3117317259"></trkpt><trkpt lat="54.3169748783" lon="22.3120705225"></trkpt><trkpt lat="54.3174243998" lon="22.3133286461"></trkpt><trkpt lat="54.3211294524" lon="22.3214185238"></trkpt><trkpt lat="54.3220782001" lon="22.3225235939"></trkpt><trkpt lat="54.3229761533" lon="22.3230608739"></trkpt><trkpt lat="54.3238881044" lon="22.3232326191"></trkpt><trkpt lat="54.3248029053" lon="22.3232495505"></trkpt><trkpt lat="54.3308289908" lon="22.3243052512"></trkpt><trkpt lat="54.3310087826" lon="22.3252345528"></trkpt><trkpt lat="54.3310011551" lon="22.3260912672"></trkpt><trkpt lat="54.3308752589" lon="22.3268112727"></trkpt><trkpt lat="54.3311992195" lon="22.3268045671"></trkpt><trkpt lat="54.3309926894" lon="22.3275604472"></trkpt><trkpt lat="54.330922449" lon="22.328738356"></trkpt><trkpt lat="54.3304681499" lon="22.3300254811"></trkpt><trkpt lat="54.3298129365" lon="22.3312143702"></trkpt><trkpt lat="54.3293553684" lon="22.3318380676"></trkpt><trkpt lat="54.3284926191" lon="22.3323393054"></trkpt><trkpt lat="54.3275447097" lon="22.3324464262"></trkpt><trkpt lat="54.3206033204" lon="22.3347432353"></trkpt><trkpt lat="54.3201492727" lon="22.334980024"></trkpt><trkpt lat="54.3193125073" lon="22.3349484242"></trkpt><trkpt lat="54.3177510425" lon="22.3345548101"></trkpt><trkpt lat="54.3139825389" lon="22.3327469174"></trkpt><trkpt lat="54.3130043708" lon="22.3298088927"></trkpt><trkpt lat="54.3120018113" lon="22.3281694762"></trkpt><trkpt lat="54.3113811314" lon="22.3268896434"></trkpt><trkpt lat="54.3113856576" lon="22.3257314321"></trkpt><trkpt lat="54.3114613462" lon="22.3244293034"></trkpt><trkpt lat="54.3119186629" lon="22.322286386"></trkpt><trkpt lat="54.3121059146" lon="22.3207359016"></trkpt><trkpt lat="54.31214137" lon="22.3186492268"></trkpt><trkpt lat="54.3121218402" lon="22.3180811014"></trkpt><trkpt lat="54.3121778313" lon="22.3175668716"></trkpt><trkpt lat="54.3116921838" lon="22.3169242311"></trkpt><trkpt lat="54.3111458514" lon="22.3163574468"></trkpt><trkpt lat="54.3105146941" lon="22.3159080092"></trkpt><trkpt lat="54.3096389528" lon="22.3156062607"></trkpt><trkpt lat="54.3080867082" lon="22.3146244884"></trkpt><trkpt lat="54.3079072516" lon="22.3142122664"></trkpt><trkpt lat="54.3077887315" lon="22.3137564585"></trkpt><trkpt lat="54.3076163996" lon="22.3110436555"></trkpt><trkpt lat="54.3076178245" lon="22.3099283595"></trkpt><trkpt lat="54.3078465667" lon="22.3083122447"></trkpt><trkpt lat="54.3084118422" lon="22.3061567545"></trkpt><trkpt lat="54.3085859343" lon="22.3041833192"></trkpt><trkpt lat="54.3085804023" lon="22.3036113381"></trkpt><trkpt lat="54.3085178733" lon="22.3029367626"></trkpt><trkpt lat="54.3086744472" lon="22.3019743524"></trkpt><trkpt lat="54.3086983357" lon="22.30150396"></trkpt><trkpt lat="54.3083462957" lon="22.3010138702"></trkpt><trkpt lat="54.3078954332" lon="22.300859727"></trkpt><trkpt lat="54.3072895892" lon="22.3007751536"></trkpt><trkpt lat="54.3069694005" lon="22.3019388132"></trkpt><trkpt lat="54.3069063686" lon="22.3032470606"></trkpt><trkpt lat="54.3066620361" lon="22.3037323728"></trkpt><trkpt lat="54.3061944935" lon="22.3037481308"></trkpt><trkpt lat="54.3053616676" lon="22.303547468"></trkpt><trkpt lat="54.3051579874" lon="22.3030438833"></trkpt><trkpt lat="54.304671837" lon="22.3021108937"></trkpt><trkpt lat="54.303489821" lon="22.3009023909"></trkpt><trkpt lat="54.2967816163" lon="22.2954118252"></trkpt><trkpt lat="54.2965503596" lon="22.2950530797"></trkpt><trkpt lat="54.2958718445" lon="22.292654179"></trkpt><trkpt lat="54.2951246817" lon="22.2910582647"></trkpt><trkpt lat="54.2941592541" lon="22.2898475826"></trkpt><trkpt lat="54.2907771561" lon="22.2869532276"></trkpt><trkpt lat="54.2894964013" lon="22.286195755"></trkpt><trkpt lat="54.288149178" lon="22.2847435903"></trkpt><trkpt lat="54.2874942161" lon="22.284222655"></trkpt><trkpt lat="54.2871520668" lon="22.2840338945"></trkpt><trkpt lat="54.2860529479" lon="22.2840136942"></trkpt><trkpt lat="54.2792545538" lon="22.2826807201"></trkpt><trkpt lat="54.2774492595" lon="22.281858623"></trkpt><trkpt lat="54.2706792802" lon="22.2772818524"></trkpt><trkpt lat="54.269825751" lon="22.2753778193"></trkpt><trkpt lat="54.2693951726" lon="22.2745837178"></trkpt><trkpt lat="54.2691257782" lon="22.2742567398"></trkpt><trkpt lat="54.2688185815" lon="22.2739945538"></trkpt><trkpt lat="54.2675820831" lon="22.2734777257"></trkpt><trkpt lat="54.2658015992" lon="22.2736835852"></trkpt><trkpt lat="54.2563187331" lon="22.2710866202"></trkpt><trkpt lat="54.2493263818" lon="22.2679725755"></trkpt><trkpt lat="54.2486796342" lon="22.2673391551"></trkpt><trkpt lat="54.2257235292" lon="22.2397948802"></trkpt><trkpt lat="54.2255714815" lon="22.2394114081"></trkpt><trkpt lat="54.2254944518" lon="22.2386489064"></trkpt><trkpt lat="54.2250629514" lon="22.2373277508"></trkpt><trkpt lat="54.2249188665" lon="22.2366937436"></trkpt><trkpt lat="54.2238767445" lon="22.2345304582"></trkpt><trkpt lat="54.2226197105" lon="22.2332626116"></trkpt><trkpt lat="54.2202063929" lon="22.2302986868"></trkpt><trkpt lat="54.2191119678" lon="22.2294651065"></trkpt><trkpt lat="54.2187811341" lon="22.2291194368"></trkpt><trkpt lat="54.218547279" lon="22.228585761"></trkpt><trkpt lat="54.2166452575" lon="22.2250014916"></trkpt><trkpt lat="54.2161747813" lon="22.2239018697"></trkpt><trkpt lat="54.2110846192" lon="22.2077915166"></trkpt><trkpt lat="54.2111853696" lon="22.2071529832"></trkpt><trkpt lat="54.2111900635" lon="22.206512522"></trkpt><trkpt lat="54.2110446375" lon="22.2054797038"></trkpt><trkpt lat="54.2108887341" lon="22.2049135063"></trkpt><trkpt lat="54.2106604949" lon="22.2044157889"></trkpt><trkpt lat="54.210024979" lon="22.2034989763"></trkpt><trkpt lat="54.2079433333" lon="22.1999171376"></trkpt><trkpt lat="54.207724398" lon="22.1989525482"></trkpt><trkpt lat="54.2077166867" lon="22.1984869335"></trkpt><trkpt lat="54.2077792995" lon="22.1979972627"></trkpt><trkpt lat="54.208606258" lon="22.1863484289"></trkpt><trkpt lat="54.208931895" lon="22.184182629"></trkpt><trkpt lat="54.2092523351" lon="22.1837600134"></trkpt><trkpt lat="54.2097784672" lon="22.1828908939"></trkpt><trkpt lat="54.2103382107" lon="22.180914944"></trkpt><trkpt lat="54.2125294916" lon="22.1697585471"></trkpt><trkpt lat="54.2137497291" lon="22.165365424"></trkpt><trkpt lat="54.2139798123" lon="22.1647514496"></trkpt><trkpt lat="54.2145377956" lon="22.1635577828"></trkpt><trkpt lat="54.2147689685" lon="22.1625328436"></trkpt><trkpt lat="54.2147782724" lon="22.1604135633"></trkpt><trkpt lat="54.2147511989" lon="22.159896316"></trkpt><trkpt lat="54.2148348503" lon="22.1575715113"></trkpt><trkpt lat="54.2149862275" lon="22.1570163779"></trkpt><trkpt lat="54.2160786409" lon="22.1560917702"></trkpt><trkpt lat="54.2179317959" lon="22.1539407223"></trkpt><trkpt lat="54.2186508793" lon="22.1525654197"></trkpt><trkpt lat="54.2188922781" lon="22.1521844622"></trkpt><trkpt lat="54.219643632" lon="22.1517003234"></trkpt><trkpt lat="54.2202172894" lon="22.1506058984"></trkpt><trkpt lat="54.2205991689" lon="22.1484902222"></trkpt><trkpt lat="54.2212602496" lon="22.1467655618"></trkpt><trkpt lat="54.2245191336" lon="22.134708697"></trkpt><trkpt lat="54.2245980911" lon="22.1314951591"></trkpt><trkpt lat="54.2253533844" lon="22.1254253201"></trkpt><trkpt lat="54.2258881498" lon="22.1239884943"></trkpt><trkpt lat="54.2266695946" lon="22.1223533526"></trkpt><trkpt lat="54.2271289229" lon="22.1204730403"></trkpt><trkpt lat="54.2272809707" lon="22.1178542823"></trkpt><trkpt lat="54.2278237827" lon="22.1133142244"></trkpt><trkpt lat="54.2282305565" lon="22.1112567186"></trkpt><trkpt lat="54.2302591447" lon="22.1036653966"></trkpt><trkpt lat="54.2308032978" lon="22.1025304869"></trkpt><trkpt lat="54.2312915437" lon="22.1012671664"></trkpt><trkpt lat="54.2315550707" lon="22.1000397205"></trkpt><trkpt lat="54.2317459267" lon="22.0987460576"></trkpt><trkpt lat="54.2317171767" lon="22.0961643476"></trkpt><trkpt lat="54.2318272311" lon="22.0945328102"></trkpt><trkpt lat="54.232421089" lon="22.0909517258"></trkpt><trkpt lat="54.2347245198" lon="22.0807211939"></trkpt><trkpt lat="54.2349109333" lon="22.0790844597"></trkpt><trkpt lat="54.2349004559" lon="22.0763574075"></trkpt><trkpt lat="54.2352188006" lon="22.0705554541"></trkpt><trkpt lat="54.236207949" lon="22.0690938178"></trkpt><trkpt lat="54.237430701" lon="22.0669240784"></trkpt><trkpt lat="54.2406444903" lon="22.0599664282"></trkpt><trkpt lat="54.2404567357" lon="22.0584552549"></trkpt><trkpt lat="54.2404636927" lon="22.0578308869"></trkpt><trkpt lat="54.2406366114" lon="22.0572603308"></trkpt><trkpt lat="54.241529787" lon="22.055190336"></trkpt><trkpt lat="54.242196735" lon="22.0532229356"></trkpt><trkpt lat="54.2423777003" lon="22.0525073726"></trkpt><trkpt lat="54.2474331614" lon="22.0264653023"></trkpt><trkpt lat="54.2471775971" lon="22.026094906"></trkpt><trkpt lat="54.2460148595" lon="22.0255826879"></trkpt><trkpt lat="54.2455334868" lon="22.0252310671"></trkpt><trkpt lat="54.2453276273" lon="22.0247701462"></trkpt><trkpt lat="54.245005846" lon="22.0235799998"></trkpt><trkpt lat="54.2438219022" lon="22.017958425"></trkpt><trkpt lat="54.2435993627" lon="22.0173566882"></trkpt><trkpt lat="54.2427915987" lon="22.0159461815"></trkpt><trkpt lat="54.2382422369" lon="22.0061815158"></trkpt><trkpt lat="54.2376521509" lon="22.0039964374"></trkpt><trkpt lat="54.2370820977" lon="22.002409324"></trkpt><trkpt lat="54.2364879884" lon="22.0010446664"></trkpt><trkpt lat="54.2348914035" lon="21.9964308478"></trkpt><trkpt lat="54.2277315818" lon="21.9706370495"></trkpt><trkpt lat="54.2276159115" lon="21.9700443652"></trkpt><trkpt lat="54.2276422307" lon="21.9694368448"></trkpt><trkpt lat="54.2280294746" lon="21.9673525169"></trkpt><trkpt lat="54.2316711601" lon="21.9554564171"></trkpt><trkpt lat="54.2320451606" lon="21.9550730288"></trkpt><trkpt lat="54.2323113699" lon="21.9546347391"></trkpt><trkpt lat="54.2325619888" lon="21.9539117161"></trkpt><trkpt lat="54.2329133581" lon="21.9516096264"></trkpt><trkpt lat="54.2333477084" lon="21.9496921822"></trkpt><trkpt lat="54.2339615989" lon="21.9482001197"></trkpt><trkpt lat="54.2349491548" lon="21.9469342846"></trkpt><trkpt lat="54.2355316132" lon="21.9458066672"></trkpt><trkpt lat="54.2356661428" lon="21.9451657031"></trkpt><trkpt lat="54.2360468488" lon="21.9426189456"></trkpt><trkpt lat="54.2365511041" lon="21.9405188598"></trkpt><trkpt lat="54.2390247714" lon="21.9255635329"></trkpt><trkpt lat="54.2391302157" lon="21.9235918578"></trkpt><trkpt lat="54.2397793103" lon="21.9175606593"></trkpt><trkpt lat="54.2400505487" lon="21.9172707293"></trkpt><trkpt lat="54.2408165708" lon="21.9170157518"></trkpt><trkpt lat="54.2421082221" lon="21.9169165101"></trkpt><trkpt lat="54.2430838756" lon="21.9166393206"></trkpt><trkpt lat="54.2433029786" lon="21.9163021166"></trkpt><trkpt lat="54.2439616285" lon="21.914739646"></trkpt><trkpt lat="54.2450014036" lon="21.9127239659"></trkpt><trkpt lat="54.2460498959" lon="21.9100331236"></trkpt><trkpt lat="54.2463347968" lon="21.9076296128"></trkpt><trkpt lat="54.2469022516" lon="21.9048686977"></trkpt><trkpt lat="54.2574704904" lon="21.8261669017"></trkpt><trkpt lat="54.2562809307" lon="21.8245903496"></trkpt><trkpt lat="54.2560724728" lon="21.8241171911"></trkpt><trkpt lat="54.2559309863" lon="21.8236599583"></trkpt><trkpt lat="54.2555766832" lon="21.8220129982"></trkpt><trkpt lat="54.2549808137" lon="21.8201230466"></trkpt><trkpt lat="54.2526099924" lon="21.8087389972"></trkpt><trkpt lat="54.2524545919" lon="21.8069468625"></trkpt><trkpt lat="54.2522441223" lon="21.8059011362"></trkpt><trkpt lat="54.2515559681" lon="21.8007757701"></trkpt><trkpt lat="54.2508559115" lon="21.7984103132"></trkpt><trkpt lat="54.2499444634" lon="21.7961235624"></trkpt><trkpt lat="54.2495273799" lon="21.7946449947"></trkpt><trkpt lat="54.2494827881" lon="21.7939910386"></trkpt><trkpt lat="54.2495163996" lon="21.7928396165"></trkpt><trkpt lat="54.2493560538" lon="21.7873621266"></trkpt><trkpt lat="54.2485200427" lon="21.7866206635"></trkpt><trkpt lat="54.2469788622" lon="21.7866173107"></trkpt><trkpt lat="54.2454018071" lon="21.7862138059"></trkpt><trkpt lat="54.244233286" lon="21.7856957205"></trkpt><trkpt lat="54.2439979222" lon="21.785432864"></trkpt><trkpt lat="54.2437934037" lon="21.7850850988"></trkpt><trkpt lat="54.2435225006" lon="21.7844931688"></trkpt><trkpt lat="54.2269179504" lon="21.7543767393"></trkpt><trkpt lat="54.2259857152" lon="21.7535746749"></trkpt><trkpt lat="54.2201390862" lon="21.7465798091"></trkpt><trkpt lat="54.2195325717" lon="21.7442585249"></trkpt><trkpt lat="54.2182713468" lon="21.7405600939"></trkpt><trkpt lat="54.2174552847" lon="21.7393816821"></trkpt><trkpt lat="54.2169523705" lon="21.738328496"></trkpt><trkpt lat="54.2167523783" lon="21.7376051378"></trkpt><trkpt lat="54.2160259187" lon="21.7337979935"></trkpt><trkpt lat="54.216323141" lon="21.7319074553"></trkpt><trkpt lat="54.2177401856" lon="21.7257489357"></trkpt><trkpt lat="54.2176449671" lon="21.7252214625"></trkpt><trkpt lat="54.2172908317" lon="21.7252368014"></trkpt><trkpt lat="54.2170394585" lon="21.7263593059"></trkpt><trkpt lat="54.2167699803" lon="21.7280459125"></trkpt><trkpt lat="54.2165523861" lon="21.730403658"></trkpt><trkpt lat="54.2164844926" lon="21.7368924245"></trkpt><trkpt lat="54.2166723311" lon="21.7374595441"></trkpt><trkpt lat="54.215923408" lon="21.7378447764"></trkpt><trkpt lat="54.2153282091" lon="21.7380402423"></trkpt><trkpt lat="54.2151799332" lon="21.7384894285"></trkpt><trkpt lat="54.2151785921" lon="21.7393722106"></trkpt><trkpt lat="54.2151427176" lon="21.7399678286"></trkpt><trkpt lat="54.2148613371" lon="21.7403882649"></trkpt><trkpt lat="54.2142251506" lon="21.7409941088"></trkpt><trkpt lat="54.2122999951" lon="21.7420243286"></trkpt><trkpt lat="54.2113188095" lon="21.7420284357"></trkpt><trkpt lat="54.2105371132" lon="21.74261651"></trkpt><trkpt lat="54.2080737557" lon="21.7453091126"></trkpt><trkpt lat="54.2077355459" lon="21.7470892612"></trkpt><trkpt lat="54.2071980983" lon="21.7492434103"></trkpt><trkpt lat="54.2065287195" lon="21.7506519053"></trkpt><trkpt lat="54.2039807886" lon="21.7551249079"></trkpt><trkpt lat="54.2020554654" lon="21.7592233233"></trkpt><trkpt lat="54.1977948602" lon="21.7666199338"></trkpt><trkpt lat="54.1958675254" lon="21.7692467384"></trkpt><trkpt lat="54.1942566074" lon="21.7726041935"></trkpt><trkpt lat="54.1932952031" lon="21.7754677031"></trkpt><trkpt lat="54.1858841758" lon="21.8028493691"></trkpt><trkpt lat="54.1855012905" lon="21.8038319796"></trkpt><trkpt lat="54.1847309936" lon="21.8052346073"></trkpt><trkpt lat="54.1787753999" lon="21.8134220503"></trkpt><trkpt lat="54.178110715" lon="21.8134517223"></trkpt><trkpt lat="54.1761216894" lon="21.8138591666"></trkpt><trkpt lat="54.1758640297" lon="21.8141350988"></trkpt><trkpt lat="54.1752110794" lon="21.8151329644"></trkpt><trkpt lat="54.1397501808" lon="21.8593048397"></trkpt><trkpt lat="54.1394947004" lon="21.8588655442"></trkpt><trkpt lat="54.1391765233" lon="21.8582037929"></trkpt><trkpt lat="54.1381226666" lon="21.8575707078"></trkpt><trkpt lat="54.1319768876" lon="21.8550485931"></trkpt><trkpt lat="54.0798578784" lon="21.8250387814"></trkpt><trkpt lat="54.0784733556" lon="21.8236180488"></trkpt><trkpt lat="54.0734891407" lon="21.81668479"></trkpt><trkpt lat="54.0730972867" lon="21.815918684"></trkpt><trkpt lat="54.072493203" lon="21.815151237"></trkpt><trkpt lat="54.0722219646" lon="21.8149712775"></trkpt><trkpt lat="54.0707685426" lon="21.8143532798"></trkpt><trkpt lat="54.0698648896" lon="21.8136169296"></trkpt><trkpt lat="54.0687556285" lon="21.8121890724"></trkpt><trkpt lat="54.0684495214" lon="21.811699653"></trkpt><trkpt lat="54.0682751779" lon="21.8112971541"></trkpt><trkpt lat="54.0675845928" lon="21.8090422545"></trkpt><trkpt lat="54.0669809282" lon="21.8074941169"></trkpt><trkpt lat="54.066620674" lon="21.8071861658"></trkpt><trkpt lat="54.0660431609" lon="21.8068190385"></trkpt><trkpt lat="54.0643288102" lon="21.8054029997"></trkpt><trkpt lat="54.0640615951" lon="21.8048001733"></trkpt><trkpt lat="54.0637367964" lon="21.8030269817"></trkpt><trkpt lat="54.0622836258" lon="21.7973655928"></trkpt><trkpt lat="54.0620175842" lon="21.7968355212"></trkpt><trkpt lat="54.0611845907" lon="21.7956618872"></trkpt><trkpt lat="54.0580712166" lon="21.7921266519"></trkpt><trkpt lat="54.0569643024" lon="21.7911592964"></trkpt><trkpt lat="54.0506479517" lon="21.7838824634"></trkpt><trkpt lat="54.0499728732" lon="21.7822479084"></trkpt><trkpt lat="54.0495593101" lon="21.7814173456"></trkpt><trkpt lat="54.0488324314" lon="21.7802758981"></trkpt><trkpt lat="54.0486053657" lon="21.7813787889"></trkpt><trkpt lat="54.0480913874" lon="21.7826860305"></trkpt><trkpt lat="54.0445194393" lon="21.790063614"></trkpt><trkpt lat="54.0423443355" lon="21.7926483415"></trkpt><trkpt lat="54.0364839602" lon="21.7980249133"></trkpt><trkpt lat="54.0363743249" lon="21.796193216"></trkpt><trkpt lat="54.0352832526" lon="21.7899437528"></trkpt><trkpt lat="54.0349200647" lon="21.7896629591"></trkpt><trkpt lat="54.0347235091" lon="21.789298011"></trkpt><trkpt lat="54.0342504345" lon="21.7874190398"></trkpt><trkpt lat="54.0340197645" lon="21.7867502477"></trkpt><trkpt lat="54.0339398012" lon="21.7862407956"></trkpt><trkpt lat="54.0329097491" lon="21.7820046656"></trkpt><trkpt lat="54.0322443936" lon="21.7782807536"></trkpt><trkpt lat="54.0321262088" lon="21.7778467387"></trkpt><trkpt lat="54.0317393001" lon="21.7786684167"></trkpt><trkpt lat="54.0316813812" lon="21.7785400059"></trkpt></trkseg></trk></gpx>