<?xml version="1.0" encoding="UTF-8" standalone="no" ?><gpx xmlns="http://www.topografix.com/GPX/1/1" xmlns:gpxx="http://www.garmin.com/xmlschemas/GpxExtensions/v3" ><trk><trkseg><trkpt lat="50.0355862454" lon="22.0009870827"></trkpt><trkpt lat="50.0352445152" lon="22.0010797866"></trkpt><trkpt lat="50.0349084008" lon="22.0011015795"></trkpt><trkpt lat="50.0341903232" lon="22.001307942"></trkpt><trkpt lat="50.0340184104" lon="22.0016442239"></trkpt><trkpt lat="50.0337011553" lon="22.0019530971"></trkpt><trkpt lat="50.0336598326" lon="22.0024157781"></trkpt><trkpt lat="50.0337398797" lon="22.0028753579"></trkpt><trkpt lat="50.0334185176" lon="22.0028575882"></trkpt><trkpt lat="50.033687409" lon="22.0030843187"></trkpt><trkpt lat="50.0337537937" lon="22.002564976"></trkpt><trkpt lat="50.0336957909" lon="22.0020174701"></trkpt><trkpt lat="50.0339279696" lon="22.0016787574"></trkpt><trkpt lat="50.0341875572" lon="22.0013694651"></trkpt><trkpt lat="50.0346178841" lon="22.0009728335"></trkpt><trkpt lat="50.0350123364" lon="22.0009087957"></trkpt><trkpt lat="50.0353829004" lon="22.0011739992"></trkpt><trkpt lat="50.035107052" lon="22.0009976439"></trkpt><trkpt lat="50.034673959" lon="22.0011475123"></trkpt><trkpt lat="50.0343327317" lon="22.0011999831"></trkpt><trkpt lat="50.0340324081" lon="22.0014718082"></trkpt><trkpt lat="50.0337575655" lon="22.0018513408"></trkpt><trkpt lat="50.0334495306" lon="22.0021368284"></trkpt><trkpt lat="50.0334417354" lon="22.0025731903"></trkpt><trkpt lat="50.0332957227" lon="22.0021735411"></trkpt><trkpt lat="50.0335890055" lon="22.0020145364"></trkpt><trkpt lat="50.0335181784" lon="22.0014386997"></trkpt><trkpt lat="50.0335443299" lon="22.0010200236"></trkpt><trkpt lat="50.0334648695" lon="22.0005736034"></trkpt><trkpt lat="50.0333501212" lon="22.0001023728"></trkpt><trkpt lat="50.0332977343" lon="21.9996001292"></trkpt><trkpt lat="50.0331316888" lon="21.9992202614"></trkpt><trkpt lat="50.0328216422" lon="21.9992951117"></trkpt><trkpt lat="50.032539675" lon="21.999567356"></trkpt><trkpt lat="50.0328389928" lon="21.9993044157"></trkpt><trkpt lat="50.0331793819" lon="21.9992055092"></trkpt><trkpt lat="50.0334515423" lon="21.9990610052"></trkpt><trkpt lat="50.0337452441" lon="21.9993917551"></trkpt><trkpt lat="50.0339109544" lon="21.9997554459"></trkpt><trkpt lat="50.0342023931" lon="22.0001630578"></trkpt><trkpt lat="50.034348825" lon="22.0006031916"></trkpt><trkpt lat="50.0345973484" lon="22.0009020064"></trkpt><trkpt lat="50.0349902082" lon="22.0010449179"></trkpt><trkpt lat="50.0357358623" lon="22.0008971449"></trkpt><trkpt lat="50.0362707116" lon="22.0011276472"></trkpt><trkpt lat="50.0375052821" lon="22.0018899813"></trkpt><trkpt lat="50.0374758616" lon="22.0023892913"></trkpt><trkpt lat="50.037482651" lon="22.0029361267"></trkpt><trkpt lat="50.0374041125" lon="22.0033749193"></trkpt><trkpt lat="50.0374270789" lon="22.0038527716"></trkpt><trkpt lat="50.0375260692" lon="22.0043487288"></trkpt><trkpt lat="50.0375434197" lon="22.0049228892"></trkpt><trkpt lat="50.0375093054" lon="22.0054087881"></trkpt><trkpt lat="50.0372016057" lon="22.0055964589"></trkpt><trkpt lat="50.0372078922" lon="22.0051245578"></trkpt><trkpt lat="50.0373169407" lon="22.0043462142"></trkpt><trkpt lat="50.0372492988" lon="22.0038631652"></trkpt><trkpt lat="50.0374681503" lon="22.0035482571"></trkpt><trkpt lat="50.0375372171" lon="22.0029117353"></trkpt><trkpt lat="50.0374658033" lon="22.0023417659"></trkpt><trkpt lat="50.0375216268" lon="22.0018834434"></trkpt><trkpt lat="50.0372622907" lon="22.0017609"></trkpt><trkpt lat="50.0369788148" lon="22.0015275478"></trkpt><trkpt lat="50.0362103619" lon="22.0010698959"></trkpt><trkpt lat="50.0368048903" lon="22.0013194252"></trkpt></trkseg></trk></gpx>