<?xml version="1.0" encoding="UTF-8" standalone="no" ?><gpx xmlns="http://www.topografix.com/GPX/1/1" xmlns:gpxx="http://www.garmin.com/xmlschemas/GpxExtensions/v3" ><trk><trkseg><trkpt lat="52.47923" lon="17.277627"></trkpt><trkpt lat="52.479283" lon="17.277972"></trkpt><trkpt lat="52.479193" lon="17.278299"></trkpt><trkpt lat="52.478974" lon="17.278055"></trkpt><trkpt lat="52.478919" lon="17.278401"></trkpt><trkpt lat="52.479028" lon="17.27918"></trkpt><trkpt lat="52.479219" lon="17.281234"></trkpt><trkpt lat="52.479409" lon="17.281354"></trkpt><trkpt lat="52.479315" lon="17.281732"></trkpt><trkpt lat="52.479219" lon="17.282051"></trkpt><trkpt lat="52.479059" lon="17.282469"></trkpt><trkpt lat="52.478887" lon="17.28264"></trkpt><trkpt lat="52.478097" lon="17.281712"></trkpt><trkpt lat="52.477855" lon="17.281209"></trkpt><trkpt lat="52.477654" lon="17.28086"></trkpt><trkpt lat="52.477207" lon="17.280445"></trkpt><trkpt lat="52.475948" lon="17.278963"></trkpt><trkpt lat="52.475768" lon="17.278584"></trkpt><trkpt lat="52.475624" lon="17.278333"></trkpt><trkpt lat="52.475362" lon="17.277786"></trkpt><trkpt lat="52.475211" lon="17.277408"></trkpt><trkpt lat="52.47149" lon="17.268991"></trkpt><trkpt lat="52.467817" lon="17.260548"></trkpt><trkpt lat="52.465374" lon="17.255693"></trkpt><trkpt lat="52.465203" lon="17.255232"></trkpt><trkpt lat="52.465147" lon="17.254814"></trkpt><trkpt lat="52.465128" lon="17.254466"></trkpt><trkpt lat="52.465205" lon="17.25409"></trkpt><trkpt lat="52.465253" lon="17.253566"></trkpt><trkpt lat="52.465261" lon="17.252734"></trkpt><trkpt lat="52.465078" lon="17.252279"></trkpt><trkpt lat="52.46492" lon="17.252056"></trkpt><trkpt lat="52.464719" lon="17.251843"></trkpt><trkpt lat="52.464324" lon="17.251563"></trkpt><trkpt lat="52.463741" lon="17.251034"></trkpt><trkpt lat="52.463252" lon="17.250424"></trkpt><trkpt lat="52.463167" lon="17.250128"></trkpt><trkpt lat="52.463004" lon="17.249895"></trkpt><trkpt lat="52.462807" lon="17.249724"></trkpt><trkpt lat="52.462579" lon="17.24956"></trkpt><trkpt lat="52.462362" lon="17.249639"></trkpt><trkpt lat="52.462214" lon="17.249942"></trkpt><trkpt lat="52.462009" lon="17.250106"></trkpt><trkpt lat="52.461804" lon="17.250218"></trkpt><trkpt lat="52.461586" lon="17.250262"></trkpt><trkpt lat="52.461195" lon="17.250276"></trkpt><trkpt lat="52.460969" lon="17.250149"></trkpt><trkpt lat="52.460185" lon="17.249544"></trkpt><trkpt lat="52.459989" lon="17.249288"></trkpt><trkpt lat="52.459421" lon="17.248737"></trkpt><trkpt lat="52.459144" lon="17.248658"></trkpt><trkpt lat="52.458847" lon="17.248616"></trkpt><trkpt lat="52.457738" lon="17.248643"></trkpt><trkpt lat="52.456948" lon="17.248481"></trkpt><trkpt lat="52.456477" lon="17.248299"></trkpt><trkpt lat="52.456184" lon="17.248103"></trkpt><trkpt lat="52.455967" lon="17.247897"></trkpt><trkpt lat="52.455723" lon="17.247615"></trkpt><trkpt lat="52.455348" lon="17.247258"></trkpt><trkpt lat="52.455095" lon="17.247202"></trkpt><trkpt lat="52.454974" lon="17.246932"></trkpt><trkpt lat="52.453662" lon="17.243511"></trkpt><trkpt lat="52.453503" lon="17.24316"></trkpt><trkpt lat="52.453304" lon="17.243051"></trkpt><trkpt lat="52.452973" lon="17.243114"></trkpt><trkpt lat="52.452643" lon="17.24323"></trkpt><trkpt lat="52.452405" lon="17.243276"></trkpt><trkpt lat="52.4517" lon="17.243302"></trkpt><trkpt lat="52.451764" lon="17.242759"></trkpt><trkpt lat="52.451817" lon="17.241956"></trkpt><trkpt lat="52.451787" lon="17.241617"></trkpt><trkpt lat="52.451837" lon="17.241108"></trkpt><trkpt lat="52.451944" lon="17.240707"></trkpt><trkpt lat="52.454599" lon="17.231194"></trkpt><trkpt lat="52.457243" lon="17.221643"></trkpt><trkpt lat="52.45741" lon="17.221187"></trkpt><trkpt lat="52.45757" lon="17.220853"></trkpt><trkpt lat="52.460347" lon="17.215834"></trkpt><trkpt lat="52.460776" lon="17.215872"></trkpt><trkpt lat="52.463338" lon="17.216421"></trkpt><trkpt lat="52.463387" lon="17.216772"></trkpt><trkpt lat="52.463508" lon="17.218171"></trkpt><trkpt lat="52.463511" lon="17.218543"></trkpt><trkpt lat="52.463479" lon="17.218929"></trkpt><trkpt lat="52.463456" lon="17.219551"></trkpt><trkpt lat="52.463475" lon="17.220167"></trkpt><trkpt lat="52.463904" lon="17.225106"></trkpt><trkpt lat="52.464091" lon="17.225532"></trkpt><trkpt lat="52.46446" lon="17.226237"></trkpt><trkpt lat="52.464793" lon="17.226979"></trkpt><trkpt lat="52.464937" lon="17.227357"></trkpt><trkpt lat="52.465109" lon="17.2277"></trkpt><trkpt lat="52.465932" lon="17.229082"></trkpt><trkpt lat="52.466122" lon="17.229232"></trkpt><trkpt lat="52.46631" lon="17.229344"></trkpt><trkpt lat="52.466661" lon="17.229459"></trkpt><trkpt lat="52.466761" lon="17.229058"></trkpt><trkpt lat="52.46703" lon="17.2282"></trkpt><trkpt lat="52.467163" lon="17.227941"></trkpt><trkpt lat="52.467317" lon="17.227689"></trkpt><trkpt lat="52.467502" lon="17.227285"></trkpt><trkpt lat="52.46769" lon="17.226999"></trkpt><trkpt lat="52.467897" lon="17.226746"></trkpt><trkpt lat="52.468107" lon="17.226642"></trkpt><trkpt lat="52.468309" lon="17.226574"></trkpt><trkpt lat="52.468576" lon="17.226451"></trkpt><trkpt lat="52.468798" lon="17.226299"></trkpt><trkpt lat="52.469" lon="17.226189"></trkpt><trkpt lat="52.469315" lon="17.225876"></trkpt><trkpt lat="52.469442" lon="17.225617"></trkpt><trkpt lat="52.469594" lon="17.22518"></trkpt><trkpt lat="52.469653" lon="17.224835"></trkpt><trkpt lat="52.469752" lon="17.224455"></trkpt><trkpt lat="52.469935" lon="17.224209"></trkpt><trkpt lat="52.470206" lon="17.224012"></trkpt><trkpt lat="52.470353" lon="17.223777"></trkpt><trkpt lat="52.470286" lon="17.223461"></trkpt><trkpt lat="52.47029" lon="17.223063"></trkpt><trkpt lat="52.470355" lon="17.22271"></trkpt><trkpt lat="52.470399" lon="17.222192"></trkpt><trkpt lat="52.470326" lon="17.221539"></trkpt><trkpt lat="52.470332" lon="17.220974"></trkpt><trkpt lat="52.470363" lon="17.220431"></trkpt><trkpt lat="52.470336" lon="17.220099"></trkpt><trkpt lat="52.470187" lon="17.21982"></trkpt><trkpt lat="52.469904" lon="17.219543"></trkpt><trkpt lat="52.469749" lon="17.219304"></trkpt><trkpt lat="52.469708" lon="17.218975"></trkpt><trkpt lat="52.469726" lon="17.218538"></trkpt><trkpt lat="52.469815" lon="17.21803"></trkpt><trkpt lat="52.469911" lon="17.217636"></trkpt><trkpt lat="52.470063" lon="17.217403"></trkpt><trkpt lat="52.470183" lon="17.217037"></trkpt><trkpt lat="52.47034" lon="17.216454"></trkpt><trkpt lat="52.470499" lon="17.215723"></trkpt><trkpt lat="52.47063" lon="17.215369"></trkpt><trkpt lat="52.471141" lon="17.214215"></trkpt><trkpt lat="52.471312" lon="17.213568"></trkpt><trkpt lat="52.471557" lon="17.213423"></trkpt><trkpt lat="52.471768" lon="17.213346"></trkpt><trkpt lat="52.471968" lon="17.21317"></trkpt><trkpt lat="52.472308" lon="17.212789"></trkpt><trkpt lat="52.474673" lon="17.210621"></trkpt><trkpt lat="52.474992" lon="17.210473"></trkpt><trkpt lat="52.47616" lon="17.21012"></trkpt><trkpt lat="52.476555" lon="17.210291"></trkpt><trkpt lat="52.477411" lon="17.210447"></trkpt><trkpt lat="52.477428" lon="17.21"></trkpt><trkpt lat="52.477366" lon="17.209583"></trkpt><trkpt lat="52.475935" lon="17.199216"></trkpt><trkpt lat="52.475931" lon="17.198754"></trkpt><trkpt lat="52.47612" lon="17.193218"></trkpt><trkpt lat="52.47625" lon="17.191538"></trkpt><trkpt lat="52.476324" lon="17.191044"></trkpt><trkpt lat="52.476333" lon="17.190676"></trkpt><trkpt lat="52.476312" lon="17.189937"></trkpt><trkpt lat="52.476162" lon="17.189228"></trkpt><trkpt lat="52.475767" lon="17.186411"></trkpt><trkpt lat="52.475819" lon="17.185976"></trkpt><trkpt lat="52.475813" lon="17.185385"></trkpt><trkpt lat="52.475609" lon="17.185078"></trkpt><trkpt lat="52.471025" lon="17.179095"></trkpt><trkpt lat="52.470726" lon="17.178582"></trkpt><trkpt lat="52.47035" lon="17.177803"></trkpt><trkpt lat="52.468455" lon="17.173227"></trkpt><trkpt lat="52.468291" lon="17.172621"></trkpt><trkpt lat="52.467467" lon="17.170119"></trkpt><trkpt lat="52.467012" lon="17.17001"></trkpt><trkpt lat="52.461921" lon="17.169419"></trkpt><trkpt lat="52.461833" lon="17.169879"></trkpt><trkpt lat="52.459539" lon="17.179272"></trkpt><trkpt lat="52.459298" lon="17.179185"></trkpt><trkpt lat="52.458145" lon="17.17891"></trkpt><trkpt lat="52.458067" lon="17.1794"></trkpt><trkpt lat="52.457889" lon="17.179947"></trkpt><trkpt lat="52.457659" lon="17.180363"></trkpt><trkpt lat="52.457742" lon="17.180067"></trkpt><trkpt lat="52.457997" lon="17.178925"></trkpt><trkpt lat="52.458182" lon="17.178764"></trkpt><trkpt lat="52.458557" lon="17.178828"></trkpt><trkpt lat="52.458817" lon="17.178942"></trkpt><trkpt lat="52.460431" lon="17.179401"></trkpt><trkpt lat="52.46049" lon="17.17868"></trkpt><trkpt lat="52.461368" lon="17.172515"></trkpt><trkpt lat="52.461497" lon="17.171837"></trkpt><trkpt lat="52.462237" lon="17.169223"></trkpt><trkpt lat="52.462509" lon="17.169025"></trkpt><trkpt lat="52.462859" lon="17.169176"></trkpt><trkpt lat="52.463373" lon="17.16933"></trkpt><trkpt lat="52.466274" lon="17.169857"></trkpt><trkpt lat="52.467049" lon="17.169835"></trkpt><trkpt lat="52.466993" lon="17.169352"></trkpt><trkpt lat="52.466918" lon="17.169061"></trkpt></trkseg></trk></gpx>