<?xml version="1.0" encoding="UTF-8" standalone="no" ?><gpx xmlns="http://www.topografix.com/GPX/1/1" xmlns:gpxx="http://www.garmin.com/xmlschemas/GpxExtensions/v3" ><trk><trkseg><trkpt lat="52.21777" lon="17.275718"></trkpt><trkpt lat="52.217779" lon="17.276054"></trkpt><trkpt lat="52.217619" lon="17.276367"></trkpt><trkpt lat="52.216679" lon="17.278522"></trkpt><trkpt lat="52.216881" lon="17.278751"></trkpt><trkpt lat="52.217354" lon="17.278972"></trkpt><trkpt lat="52.225817" lon="17.283093"></trkpt><trkpt lat="52.226269" lon="17.282599"></trkpt><trkpt lat="52.226528" lon="17.282112"></trkpt><trkpt lat="52.227283" lon="17.280401"></trkpt><trkpt lat="52.227576" lon="17.279866"></trkpt><trkpt lat="52.227987" lon="17.280265"></trkpt><trkpt lat="52.228261" lon="17.280055"></trkpt><trkpt lat="52.228391" lon="17.279475"></trkpt><trkpt lat="52.228614" lon="17.278953"></trkpt><trkpt lat="52.22876" lon="17.278664"></trkpt><trkpt lat="52.228921" lon="17.278201"></trkpt><trkpt lat="52.229326" lon="17.278109"></trkpt><trkpt lat="52.22963" lon="17.2779"></trkpt><trkpt lat="52.229973" lon="17.277868"></trkpt><trkpt lat="52.230137" lon="17.278243"></trkpt><trkpt lat="52.2305" lon="17.278956"></trkpt><trkpt lat="52.231253" lon="17.280705"></trkpt><trkpt lat="52.23133" lon="17.281141"></trkpt><trkpt lat="52.231444" lon="17.28162"></trkpt><trkpt lat="52.231728" lon="17.282421"></trkpt><trkpt lat="52.232008" lon="17.282223"></trkpt><trkpt lat="52.232374" lon="17.282286"></trkpt><trkpt lat="52.232689" lon="17.282536"></trkpt><trkpt lat="52.233127" lon="17.282963"></trkpt><trkpt lat="52.23574" lon="17.286077"></trkpt><trkpt lat="52.235657" lon="17.286429"></trkpt><trkpt lat="52.235603" lon="17.286764"></trkpt><trkpt lat="52.235519" lon="17.287166"></trkpt><trkpt lat="52.235308" lon="17.288793"></trkpt><trkpt lat="52.235505" lon="17.28886"></trkpt><trkpt lat="52.235802" lon="17.288924"></trkpt><trkpt lat="52.23613" lon="17.288774"></trkpt><trkpt lat="52.236879" lon="17.288593"></trkpt><trkpt lat="52.243809" lon="17.291234"></trkpt><trkpt lat="52.243988" lon="17.291458"></trkpt><trkpt lat="52.243999" lon="17.291847"></trkpt><trkpt lat="52.244073" lon="17.292841"></trkpt><trkpt lat="52.244232" lon="17.293129"></trkpt><trkpt lat="52.24445" lon="17.293624"></trkpt><trkpt lat="52.24466" lon="17.293977"></trkpt><trkpt lat="52.244829" lon="17.294327"></trkpt><trkpt lat="52.24516" lon="17.294878"></trkpt><trkpt lat="52.245906" lon="17.29581"></trkpt><trkpt lat="52.246171" lon="17.296035"></trkpt><trkpt lat="52.246465" lon="17.296077"></trkpt><trkpt lat="52.247823" lon="17.296068"></trkpt><trkpt lat="52.248152" lon="17.29641"></trkpt><trkpt lat="52.248626" lon="17.296998"></trkpt><trkpt lat="52.248952" lon="17.297493"></trkpt><trkpt lat="52.249131" lon="17.297951"></trkpt><trkpt lat="52.249362" lon="17.29815"></trkpt><trkpt lat="52.249551" lon="17.298426"></trkpt><trkpt lat="52.249704" lon="17.298951"></trkpt><trkpt lat="52.249961" lon="17.299546"></trkpt><trkpt lat="52.25147" lon="17.304101"></trkpt><trkpt lat="52.251357" lon="17.304768"></trkpt><trkpt lat="52.251344" lon="17.305234"></trkpt><trkpt lat="52.25143" lon="17.305659"></trkpt><trkpt lat="52.251549" lon="17.305985"></trkpt><trkpt lat="52.251553" lon="17.306387"></trkpt><trkpt lat="52.2515" lon="17.30699"></trkpt><trkpt lat="52.251478" lon="17.307975"></trkpt><trkpt lat="52.251617" lon="17.308452"></trkpt><trkpt lat="52.251809" lon="17.309324"></trkpt><trkpt lat="52.251907" lon="17.309654"></trkpt><trkpt lat="52.25192" lon="17.310032"></trkpt><trkpt lat="52.251882" lon="17.31036"></trkpt><trkpt lat="52.25186" lon="17.310891"></trkpt><trkpt lat="52.251774" lon="17.311416"></trkpt><trkpt lat="52.251632" lon="17.311763"></trkpt><trkpt lat="52.25153" lon="17.312167"></trkpt><trkpt lat="52.251543" lon="17.312709"></trkpt><trkpt lat="52.251621" lon="17.313024"></trkpt><trkpt lat="52.251852" lon="17.313369"></trkpt><trkpt lat="52.252643" lon="17.314346"></trkpt><trkpt lat="52.252885" lon="17.314427"></trkpt><trkpt lat="52.25309" lon="17.314459"></trkpt><trkpt lat="52.253307" lon="17.314548"></trkpt><trkpt lat="52.253599" lon="17.314613"></trkpt><trkpt lat="52.253913" lon="17.314639"></trkpt><trkpt lat="52.254091" lon="17.314853"></trkpt><trkpt lat="52.254173" lon="17.315345"></trkpt><trkpt lat="52.254297" lon="17.316383"></trkpt><trkpt lat="52.254242" lon="17.316792"></trkpt><trkpt lat="52.254159" lon="17.319188"></trkpt><trkpt lat="52.254602" lon="17.319298"></trkpt><trkpt lat="52.262154" lon="17.320298"></trkpt><trkpt lat="52.262585" lon="17.320298"></trkpt><trkpt lat="52.268439" lon="17.319524"></trkpt><trkpt lat="52.268448" lon="17.319177"></trkpt><trkpt lat="52.26855" lon="17.318734"></trkpt><trkpt lat="52.269004" lon="17.317824"></trkpt><trkpt lat="52.269755" lon="17.316029"></trkpt><trkpt lat="52.269882" lon="17.315557"></trkpt><trkpt lat="52.270291" lon="17.315712"></trkpt><trkpt lat="52.2707" lon="17.315927"></trkpt><trkpt lat="52.279246" lon="17.320646"></trkpt><trkpt lat="52.283691" lon="17.323758"></trkpt><trkpt lat="52.283942" lon="17.324042"></trkpt><trkpt lat="52.291292" lon="17.332431"></trkpt><trkpt lat="52.291704" lon="17.333019"></trkpt><trkpt lat="52.298604" lon="17.342734"></trkpt><trkpt lat="52.304515" lon="17.3499"></trkpt><trkpt lat="52.304634" lon="17.349506"></trkpt><trkpt lat="52.305525" lon="17.347504"></trkpt><trkpt lat="52.305972" lon="17.34697"></trkpt><trkpt lat="52.306611" lon="17.346"></trkpt><trkpt lat="52.306833" lon="17.345434"></trkpt><trkpt lat="52.309548" lon="17.339541"></trkpt><trkpt lat="52.309855" lon="17.339189"></trkpt><trkpt lat="52.311274" lon="17.337255"></trkpt><trkpt lat="52.311461" lon="17.336736"></trkpt><trkpt lat="52.311616" lon="17.336033"></trkpt><trkpt lat="52.311781" lon="17.33482"></trkpt><trkpt lat="52.312155" lon="17.333104"></trkpt><trkpt lat="52.312461" lon="17.332469"></trkpt><trkpt lat="52.312845" lon="17.331819"></trkpt><trkpt lat="52.313861" lon="17.330524"></trkpt><trkpt lat="52.31447" lon="17.330504"></trkpt><trkpt lat="52.31694" lon="17.329992"></trkpt><trkpt lat="52.31708" lon="17.329703"></trkpt><trkpt lat="52.317183" lon="17.329266"></trkpt><trkpt lat="52.317204" lon="17.32876"></trkpt><trkpt lat="52.317201" lon="17.328092"></trkpt><trkpt lat="52.317515" lon="17.322871"></trkpt><trkpt lat="52.317724" lon="17.322822"></trkpt><trkpt lat="52.317945" lon="17.322812"></trkpt><trkpt lat="52.32237" lon="17.321956"></trkpt><trkpt lat="52.322582" lon="17.321737"></trkpt><trkpt lat="52.323353" lon="17.320636"></trkpt><trkpt lat="52.323371" lon="17.320214"></trkpt><trkpt lat="52.324028" lon="17.314945"></trkpt><trkpt lat="52.324503" lon="17.315399"></trkpt><trkpt lat="52.332509" lon="17.32195"></trkpt><trkpt lat="52.332937" lon="17.322227"></trkpt><trkpt lat="52.33654" lon="17.325224"></trkpt><trkpt lat="52.336855" lon="17.325638"></trkpt><trkpt lat="52.343746" lon="17.334553"></trkpt><trkpt lat="52.345877" lon="17.336594"></trkpt><trkpt lat="52.351338" lon="17.332374"></trkpt><trkpt lat="52.351564" lon="17.332421"></trkpt><trkpt lat="52.351772" lon="17.332059"></trkpt><trkpt lat="52.351638" lon="17.332305"></trkpt><trkpt lat="52.351408" lon="17.332633"></trkpt><trkpt lat="52.351098" lon="17.333246"></trkpt><trkpt lat="52.351058" lon="17.333668"></trkpt><trkpt lat="52.35103" lon="17.334236"></trkpt><trkpt lat="52.351104" lon="17.334705"></trkpt><trkpt lat="52.351247" lon="17.335139"></trkpt><trkpt lat="52.351472" lon="17.335332"></trkpt><trkpt lat="52.351712" lon="17.335321"></trkpt><trkpt lat="52.351903" lon="17.3351"></trkpt><trkpt lat="52.35207" lon="17.334826"></trkpt><trkpt lat="52.35235" lon="17.334449"></trkpt><trkpt lat="52.352543" lon="17.334314"></trkpt><trkpt lat="52.352717" lon="17.334153"></trkpt><trkpt lat="52.3528" lon="17.333838"></trkpt><trkpt lat="52.352593" lon="17.333558"></trkpt><trkpt lat="52.352675" lon="17.333203"></trkpt><trkpt lat="52.352495" lon="17.332964"></trkpt><trkpt lat="52.352199" lon="17.333009"></trkpt><trkpt lat="52.35195" lon="17.33316"></trkpt><trkpt lat="52.35164" lon="17.333031"></trkpt><trkpt lat="52.351508" lon="17.332767"></trkpt><trkpt lat="52.351637" lon="17.332403"></trkpt><trkpt lat="52.35181" lon="17.332076"></trkpt><trkpt lat="52.351744" lon="17.331701"></trkpt><trkpt lat="52.351609" lon="17.33123"></trkpt><trkpt lat="52.351241" lon="17.329635"></trkpt><trkpt lat="52.351492" lon="17.329312"></trkpt><trkpt lat="52.351892" lon="17.32912"></trkpt><trkpt lat="52.352895" lon="17.328471"></trkpt><trkpt lat="52.353264" lon="17.328097"></trkpt><trkpt lat="52.361026" lon="17.321542"></trkpt><trkpt lat="52.361366" lon="17.32135"></trkpt><trkpt lat="52.367823" lon="17.316825"></trkpt><trkpt lat="52.367996" lon="17.316611"></trkpt><trkpt lat="52.368343" lon="17.31625"></trkpt><trkpt lat="52.368176" lon="17.316712"></trkpt><trkpt lat="52.367865" lon="17.317751"></trkpt></trkseg></trk></gpx>