<?xml version="1.0" encoding="UTF-8" standalone="no" ?><gpx xmlns="http://www.topografix.com/GPX/1/1" xmlns:gpxx="http://www.garmin.com/xmlschemas/GpxExtensions/v3" ><trk><trkseg><trkpt lat="53.491725" lon="18.45549"></trkpt><trkpt lat="53.491845" lon="18.455024"></trkpt><trkpt lat="53.491842" lon="18.454659"></trkpt><trkpt lat="53.491861" lon="18.454241"></trkpt><trkpt lat="53.491995" lon="18.453956"></trkpt><trkpt lat="53.492493" lon="18.454217"></trkpt><trkpt lat="53.496446" lon="18.455382"></trkpt><trkpt lat="53.497246" lon="18.455336"></trkpt><trkpt lat="53.501215" lon="18.454593"></trkpt><trkpt lat="53.5058" lon="18.453182"></trkpt><trkpt lat="53.511363" lon="18.452949"></trkpt><trkpt lat="53.511701" lon="18.45408"></trkpt><trkpt lat="53.512202" lon="18.456632"></trkpt><trkpt lat="53.51221" lon="18.457462"></trkpt><trkpt lat="53.511503" lon="18.470265"></trkpt><trkpt lat="53.511" lon="18.471278"></trkpt><trkpt lat="53.510019" lon="18.473726"></trkpt><trkpt lat="53.509722" lon="18.474821"></trkpt><trkpt lat="53.509554" lon="18.475863"></trkpt><trkpt lat="53.509506" lon="18.477204"></trkpt><trkpt lat="53.509836" lon="18.493759"></trkpt><trkpt lat="53.510059" lon="18.494001"></trkpt><trkpt lat="53.510321" lon="18.494094"></trkpt><trkpt lat="53.510559" lon="18.494223"></trkpt><trkpt lat="53.510557" lon="18.494616"></trkpt><trkpt lat="53.510582" lon="18.495106"></trkpt><trkpt lat="53.510248" lon="18.495493"></trkpt><trkpt lat="53.5097" lon="18.495926"></trkpt><trkpt lat="53.509724" lon="18.496711"></trkpt><trkpt lat="53.509942" lon="18.497656"></trkpt><trkpt lat="53.51012" lon="18.499068"></trkpt><trkpt lat="53.510261" lon="18.50118"></trkpt><trkpt lat="53.510264" lon="18.502524"></trkpt><trkpt lat="53.510454" lon="18.506816"></trkpt><trkpt lat="53.510408" lon="18.507344"></trkpt><trkpt lat="53.510315" lon="18.507709"></trkpt><trkpt lat="53.510242" lon="18.508518"></trkpt><trkpt lat="53.50974" lon="18.511764"></trkpt><trkpt lat="53.509103" lon="18.512346"></trkpt><trkpt lat="53.508683" lon="18.512806"></trkpt><trkpt lat="53.50864" lon="18.513407"></trkpt><trkpt lat="53.508544" lon="18.513699"></trkpt><trkpt lat="53.508492" lon="18.514313"></trkpt><trkpt lat="53.508441" lon="18.514638"></trkpt><trkpt lat="53.508253" lon="18.514449"></trkpt><trkpt lat="53.508487" lon="18.51477"></trkpt><trkpt lat="53.508596" lon="18.515112"></trkpt><trkpt lat="53.509078" lon="18.516343"></trkpt><trkpt lat="53.509441" lon="18.517626"></trkpt><trkpt lat="53.509544" lon="18.518164"></trkpt><trkpt lat="53.50965" lon="18.519383"></trkpt><trkpt lat="53.509657" lon="18.522213"></trkpt><trkpt lat="53.509497" lon="18.523577"></trkpt><trkpt lat="53.50941" lon="18.524097"></trkpt><trkpt lat="53.509031" lon="18.524958"></trkpt><trkpt lat="53.508629" lon="18.525511"></trkpt><trkpt lat="53.508308" lon="18.526028"></trkpt><trkpt lat="53.508143" lon="18.526491"></trkpt><trkpt lat="53.508012" lon="18.527553"></trkpt><trkpt lat="53.507932" lon="18.528899"></trkpt><trkpt lat="53.507869" lon="18.532515"></trkpt><trkpt lat="53.507882" lon="18.532931"></trkpt><trkpt lat="53.50784" lon="18.534047"></trkpt><trkpt lat="53.507843" lon="18.534432"></trkpt><trkpt lat="53.507876" lon="18.535037"></trkpt><trkpt lat="53.508073" lon="18.535446"></trkpt><trkpt lat="53.508347" lon="18.536106"></trkpt><trkpt lat="53.508505" lon="18.536896"></trkpt><trkpt lat="53.508647" lon="18.53815"></trkpt><trkpt lat="53.508515" lon="18.539111"></trkpt><trkpt lat="53.508364" lon="18.541892"></trkpt><trkpt lat="53.508199" lon="18.54348"></trkpt><trkpt lat="53.507976" lon="18.544029"></trkpt><trkpt lat="53.507215" lon="18.545613"></trkpt><trkpt lat="53.507008" lon="18.545615"></trkpt><trkpt lat="53.506407" lon="18.545722"></trkpt><trkpt lat="53.50624" lon="18.546027"></trkpt><trkpt lat="53.505861" lon="18.547573"></trkpt><trkpt lat="53.505566" lon="18.548352"></trkpt><trkpt lat="53.50501" lon="18.549331"></trkpt><trkpt lat="53.504746" lon="18.550303"></trkpt><trkpt lat="53.504302" lon="18.552304"></trkpt><trkpt lat="53.504791" lon="18.552977"></trkpt><trkpt lat="53.507637" lon="18.556363"></trkpt><trkpt lat="53.508153" lon="18.556684"></trkpt><trkpt lat="53.508627" lon="18.557051"></trkpt><trkpt lat="53.508698" lon="18.557725"></trkpt><trkpt lat="53.508741" lon="18.55847"></trkpt><trkpt lat="53.508737" lon="18.558932"></trkpt><trkpt lat="53.508769" lon="18.559846"></trkpt><trkpt lat="53.508756" lon="18.560366"></trkpt><trkpt lat="53.508712" lon="18.560879"></trkpt><trkpt lat="53.50869" lon="18.561405"></trkpt><trkpt lat="53.508539" lon="18.563082"></trkpt><trkpt lat="53.508393" lon="18.563981"></trkpt><trkpt lat="53.50766" lon="18.567427"></trkpt><trkpt lat="53.507499" lon="18.567968"></trkpt><trkpt lat="53.507421" lon="18.568304"></trkpt><trkpt lat="53.507264" lon="18.569239"></trkpt><trkpt lat="53.506956" lon="18.570455"></trkpt><trkpt lat="53.506734" lon="18.570872"></trkpt><trkpt lat="53.50653" lon="18.571048"></trkpt><trkpt lat="53.506248" lon="18.571113"></trkpt><trkpt lat="53.505203" lon="18.571523"></trkpt><trkpt lat="53.505082" lon="18.571804"></trkpt><trkpt lat="53.502178" lon="18.579652"></trkpt><trkpt lat="53.501751" lon="18.58105"></trkpt><trkpt lat="53.498669" lon="18.589598"></trkpt><trkpt lat="53.498227" lon="18.590126"></trkpt><trkpt lat="53.498064" lon="18.590413"></trkpt><trkpt lat="53.497709" lon="18.590913"></trkpt><trkpt lat="53.495693" lon="18.594315"></trkpt><trkpt lat="53.495616" lon="18.594676"></trkpt><trkpt lat="53.495502" lon="18.595387"></trkpt><trkpt lat="53.495396" lon="18.595701"></trkpt><trkpt lat="53.495289" lon="18.596514"></trkpt><trkpt lat="53.495165" lon="18.597112"></trkpt><trkpt lat="53.494657" lon="18.600458"></trkpt><trkpt lat="53.494652" lon="18.601091"></trkpt><trkpt lat="53.495031" lon="18.601251"></trkpt><trkpt lat="53.495554" lon="18.601707"></trkpt><trkpt lat="53.496389" lon="18.602273"></trkpt><trkpt lat="53.496593" lon="18.602197"></trkpt><trkpt lat="53.496772" lon="18.602415"></trkpt><trkpt lat="53.49698" lon="18.603655"></trkpt><trkpt lat="53.497569" lon="18.606377"></trkpt><trkpt lat="53.498037" lon="18.606959"></trkpt><trkpt lat="53.499909" lon="18.610068"></trkpt><trkpt lat="53.501074" lon="18.611698"></trkpt><trkpt lat="53.501218" lon="18.612254"></trkpt><trkpt lat="53.501473" lon="18.613538"></trkpt><trkpt lat="53.503248" lon="18.62527"></trkpt><trkpt lat="53.503125" lon="18.625782"></trkpt><trkpt lat="53.503163" lon="18.626158"></trkpt><trkpt lat="53.503359" lon="18.626364"></trkpt><trkpt lat="53.503579" lon="18.626348"></trkpt><trkpt lat="53.503895" lon="18.626281"></trkpt><trkpt lat="53.504174" lon="18.626261"></trkpt><trkpt lat="53.504405" lon="18.626185"></trkpt><trkpt lat="53.504588" lon="18.626008"></trkpt><trkpt lat="53.504768" lon="18.625868"></trkpt><trkpt lat="53.504432" lon="18.626452"></trkpt><trkpt lat="53.504384" lon="18.627223"></trkpt><trkpt lat="53.504371" lon="18.63052"></trkpt><trkpt lat="53.504311" lon="18.631759"></trkpt><trkpt lat="53.501929" lon="18.658055"></trkpt><trkpt lat="53.501867" lon="18.659446"></trkpt><trkpt lat="53.50187" lon="18.659882"></trkpt><trkpt lat="53.501671" lon="18.665052"></trkpt><trkpt lat="53.501593" lon="18.665605"></trkpt><trkpt lat="53.501288" lon="18.666675"></trkpt><trkpt lat="53.500286" lon="18.67131"></trkpt><trkpt lat="53.500157" lon="18.672496"></trkpt><trkpt lat="53.500181" lon="18.672976"></trkpt><trkpt lat="53.500178" lon="18.673839"></trkpt><trkpt lat="53.49994" lon="18.675432"></trkpt><trkpt lat="53.499508" lon="18.67982"></trkpt><trkpt lat="53.499766" lon="18.680321"></trkpt><trkpt lat="53.499757" lon="18.680657"></trkpt><trkpt lat="53.499622" lon="18.68094"></trkpt><trkpt lat="53.499603" lon="18.681303"></trkpt><trkpt lat="53.499265" lon="18.682299"></trkpt><trkpt lat="53.4991" lon="18.682625"></trkpt><trkpt lat="53.499015" lon="18.682962"></trkpt><trkpt lat="53.498993" lon="18.683301"></trkpt><trkpt lat="53.498931" lon="18.683624"></trkpt><trkpt lat="53.498562" lon="18.685031"></trkpt><trkpt lat="53.498198" lon="18.68618"></trkpt><trkpt lat="53.49804" lon="18.686841"></trkpt><trkpt lat="53.498002" lon="18.687173"></trkpt><trkpt lat="53.49761" lon="18.688655"></trkpt><trkpt lat="53.487303" lon="18.727103"></trkpt><trkpt lat="53.483224" lon="18.745801"></trkpt><trkpt lat="53.483429" lon="18.745929"></trkpt><trkpt lat="53.483805" lon="18.745765"></trkpt><trkpt lat="53.483932" lon="18.746061"></trkpt><trkpt lat="53.484209" lon="18.746168"></trkpt><trkpt lat="53.484832" lon="18.746204"></trkpt><trkpt lat="53.485558" lon="18.746455"></trkpt><trkpt lat="53.486388" lon="18.746547"></trkpt><trkpt lat="53.486581" lon="18.746344"></trkpt><trkpt lat="53.486996" lon="18.745818"></trkpt><trkpt lat="53.48739" lon="18.745717"></trkpt><trkpt lat="53.490092" lon="18.745617"></trkpt><trkpt lat="53.490272" lon="18.745811"></trkpt><trkpt lat="53.490481" lon="18.745847"></trkpt><trkpt lat="53.490467" lon="18.74618"></trkpt><trkpt lat="53.490328" lon="18.746908"></trkpt><trkpt lat="53.489905" lon="18.748632"></trkpt><trkpt lat="53.48993" lon="18.748971"></trkpt><trkpt lat="53.490438" lon="18.749296"></trkpt><trkpt lat="53.490713" lon="18.74941"></trkpt><trkpt lat="53.490921" lon="18.748713"></trkpt><trkpt lat="53.491083" lon="18.748505"></trkpt><trkpt lat="53.491454" lon="18.748817"></trkpt><trkpt lat="53.492341" lon="18.74941"></trkpt><trkpt lat="53.492297" lon="18.748895"></trkpt><trkpt lat="53.492107" lon="18.749032"></trkpt><trkpt lat="53.492282" lon="18.74933"></trkpt><trkpt lat="53.492499" lon="18.749341"></trkpt><trkpt lat="53.492296" lon="18.749223"></trkpt><trkpt lat="53.49253" lon="18.749585"></trkpt><trkpt lat="53.492795" lon="18.749762"></trkpt><trkpt lat="53.493079" lon="18.749855"></trkpt><trkpt lat="53.493395" lon="18.749794"></trkpt><trkpt lat="53.493622" lon="18.749894"></trkpt><trkpt lat="53.493854" lon="18.750151"></trkpt><trkpt lat="53.494293" lon="18.750893"></trkpt><trkpt lat="53.494708" lon="18.751717"></trkpt><trkpt lat="53.495745" lon="18.754116"></trkpt><trkpt lat="53.495294" lon="18.754913"></trkpt><trkpt lat="53.492203" lon="18.759632"></trkpt><trkpt lat="53.489983" lon="18.763579"></trkpt><trkpt lat="53.489568" lon="18.764673"></trkpt><trkpt lat="53.486646" lon="18.77379"></trkpt><trkpt lat="53.487025" lon="18.77421"></trkpt><trkpt lat="53.488099" lon="18.775045"></trkpt><trkpt lat="53.489526" lon="18.775888"></trkpt><trkpt lat="53.490312" lon="18.776234"></trkpt><trkpt lat="53.491579" lon="18.77726"></trkpt><trkpt lat="53.491269" lon="18.778334"></trkpt><trkpt lat="53.485809" lon="18.801416"></trkpt><trkpt lat="53.48609" lon="18.802921"></trkpt><trkpt lat="53.486767" lon="18.808653"></trkpt><trkpt lat="53.486745" lon="18.809225"></trkpt><trkpt lat="53.486922" lon="18.811163"></trkpt><trkpt lat="53.487129" lon="18.81217"></trkpt><trkpt lat="53.487112" lon="18.812735"></trkpt><trkpt lat="53.487035" lon="18.813055"></trkpt><trkpt lat="53.486826" lon="18.813266"></trkpt><trkpt lat="53.486495" lon="18.813311"></trkpt><trkpt lat="53.486296" lon="18.81347"></trkpt><trkpt lat="53.485995" lon="18.814453"></trkpt><trkpt lat="53.484889" lon="18.817431"></trkpt><trkpt lat="53.484326" lon="18.818387"></trkpt><trkpt lat="53.480159" lon="18.826617"></trkpt><trkpt lat="53.479975" lon="18.827255"></trkpt><trkpt lat="53.469895" lon="18.865781"></trkpt><trkpt lat="53.469516" lon="18.866767"></trkpt><trkpt lat="53.46893" lon="18.868042"></trkpt><trkpt lat="53.468414" lon="18.868602"></trkpt><trkpt lat="53.463658" lon="18.874892"></trkpt><trkpt lat="53.463528" lon="18.875154"></trkpt><trkpt lat="53.460892" lon="18.882388"></trkpt><trkpt lat="53.461195" lon="18.882732"></trkpt><trkpt lat="53.463558" lon="18.885901"></trkpt><trkpt lat="53.463738" lon="18.887184"></trkpt><trkpt lat="53.464725" lon="18.892495"></trkpt><trkpt lat="53.466095" lon="18.898304"></trkpt><trkpt lat="53.466304" lon="18.89901"></trkpt><trkpt lat="53.466442" lon="18.899585"></trkpt><trkpt lat="53.466467" lon="18.900257"></trkpt><trkpt lat="53.466449" lon="18.903091"></trkpt><trkpt lat="53.466707" lon="18.908702"></trkpt><trkpt lat="53.467078" lon="18.909719"></trkpt><trkpt lat="53.46756" lon="18.910474"></trkpt><trkpt lat="53.468601" lon="18.912498"></trkpt><trkpt lat="53.468569" lon="18.912941"></trkpt><trkpt lat="53.468546" lon="18.914083"></trkpt><trkpt lat="53.468746" lon="18.915012"></trkpt><trkpt lat="53.468784" lon="18.915756"></trkpt><trkpt lat="53.468734" lon="18.916125"></trkpt><trkpt lat="53.468651" lon="18.917055"></trkpt><trkpt lat="53.46856" lon="18.917475"></trkpt><trkpt lat="53.468488" lon="18.917937"></trkpt><trkpt lat="53.468426" lon="18.91859"></trkpt><trkpt lat="53.468268" lon="18.91916"></trkpt><trkpt lat="53.468188" lon="18.919719"></trkpt><trkpt lat="53.467207" lon="18.924707"></trkpt><trkpt lat="53.467083" lon="18.925167"></trkpt><trkpt lat="53.467007" lon="18.925674"></trkpt><trkpt lat="53.466886" lon="18.926014"></trkpt><trkpt lat="53.466804" lon="18.926559"></trkpt><trkpt lat="53.466743" lon="18.927362"></trkpt><trkpt lat="53.466749" lon="18.92816"></trkpt><trkpt lat="53.466687" lon="18.929712"></trkpt><trkpt lat="53.466211" lon="18.930215"></trkpt><trkpt lat="53.457487" lon="18.937874"></trkpt><trkpt lat="53.457154" lon="18.938249"></trkpt><trkpt lat="53.456697" lon="18.939056"></trkpt><trkpt lat="53.456157" lon="18.940397"></trkpt><trkpt lat="53.4558" lon="18.941054"></trkpt><trkpt lat="53.455432" lon="18.941548"></trkpt><trkpt lat="53.455139" lon="18.941844"></trkpt><trkpt lat="53.449801" lon="18.948599"></trkpt><trkpt lat="53.450335" lon="18.949424"></trkpt><trkpt lat="53.450499" lon="18.949827"></trkpt><trkpt lat="53.450681" lon="18.950353"></trkpt><trkpt lat="53.454044" lon="18.958654"></trkpt><trkpt lat="53.454514" lon="18.959492"></trkpt><trkpt lat="53.455118" lon="18.960414"></trkpt><trkpt lat="53.45655" lon="18.961967"></trkpt><trkpt lat="53.457139" lon="18.962778"></trkpt><trkpt lat="53.457755" lon="18.963351"></trkpt><trkpt lat="53.458504" lon="18.964173"></trkpt><trkpt lat="53.459907" lon="18.966039"></trkpt><trkpt lat="53.459885" lon="18.967122"></trkpt><trkpt lat="53.45992" lon="18.968077"></trkpt><trkpt lat="53.460094" lon="18.969103"></trkpt><trkpt lat="53.460368" lon="18.970244"></trkpt><trkpt lat="53.460819" lon="18.971768"></trkpt><trkpt lat="53.461376" lon="18.972737"></trkpt><trkpt lat="53.46163" lon="18.973028"></trkpt><trkpt lat="53.462114" lon="18.973439"></trkpt><trkpt lat="53.462863" lon="18.973641"></trkpt><trkpt lat="53.463529" lon="18.974124"></trkpt><trkpt lat="53.464708" lon="18.975176"></trkpt><trkpt lat="53.466332" lon="18.976351"></trkpt><trkpt lat="53.48066" lon="18.989411"></trkpt><trkpt lat="53.480598" lon="18.989923"></trkpt><trkpt lat="53.480663" lon="18.990736"></trkpt><trkpt lat="53.481105" lon="18.991913"></trkpt><trkpt lat="53.481155" lon="18.99232"></trkpt><trkpt lat="53.481128" lon="18.992661"></trkpt><trkpt lat="53.480869" lon="18.993945"></trkpt><trkpt lat="53.480311" lon="18.99519"></trkpt><trkpt lat="53.479584" lon="18.99716"></trkpt><trkpt lat="53.479703" lon="18.99687"></trkpt><trkpt lat="53.479406" lon="18.997873"></trkpt><trkpt lat="53.479149" lon="18.998998"></trkpt><trkpt lat="53.47786" lon="19.003542"></trkpt><trkpt lat="53.47731" lon="19.004907"></trkpt><trkpt lat="53.475391" lon="19.008988"></trkpt><trkpt lat="53.474956" lon="19.009741"></trkpt><trkpt lat="53.473125" lon="19.013777"></trkpt><trkpt lat="53.472848" lon="19.013503"></trkpt><trkpt lat="53.472653" lon="19.013571"></trkpt><trkpt lat="53.472318" lon="19.014152"></trkpt><trkpt lat="53.469481" lon="19.019971"></trkpt><trkpt lat="53.469029" lon="19.021056"></trkpt><trkpt lat="53.467975" lon="19.024187"></trkpt><trkpt lat="53.467655" lon="19.025424"></trkpt><trkpt lat="53.467001" lon="19.027415"></trkpt><trkpt lat="53.46664" lon="19.027267"></trkpt><trkpt lat="53.466477" lon="19.027498"></trkpt><trkpt lat="53.466341" lon="19.028315"></trkpt><trkpt lat="53.466228" lon="19.028825"></trkpt><trkpt lat="53.463983" lon="19.037093"></trkpt><trkpt lat="53.463568" lon="19.038292"></trkpt><trkpt lat="53.463086" lon="19.039124"></trkpt><trkpt lat="53.461769" lon="19.042052"></trkpt><trkpt lat="53.461475" lon="19.043084"></trkpt><trkpt lat="53.459559" lon="19.048654"></trkpt><trkpt lat="53.459137" lon="19.04945"></trkpt><trkpt lat="53.452764" lon="19.063401"></trkpt><trkpt lat="53.448995" lon="19.073174"></trkpt><trkpt lat="53.447796" lon="19.075652"></trkpt><trkpt lat="53.447428" lon="19.076088"></trkpt><trkpt lat="53.446661" lon="19.077267"></trkpt><trkpt lat="53.446209" lon="19.078188"></trkpt><trkpt lat="53.445901" lon="19.078921"></trkpt><trkpt lat="53.445567" lon="19.079597"></trkpt><trkpt lat="53.445408" lon="19.0802"></trkpt><trkpt lat="53.445289" lon="19.080915"></trkpt><trkpt lat="53.445084" lon="19.081748"></trkpt><trkpt lat="53.444747" lon="19.082435"></trkpt><trkpt lat="53.443515" lon="19.084442"></trkpt><trkpt lat="53.440504" lon="19.090276"></trkpt><trkpt lat="53.440413" lon="19.091832"></trkpt><trkpt lat="53.440436" lon="19.092214"></trkpt><trkpt lat="53.440322" lon="19.092511"></trkpt><trkpt lat="53.440379" lon="19.092885"></trkpt><trkpt lat="53.440358" lon="19.094426"></trkpt><trkpt lat="53.440385" lon="19.095052"></trkpt><trkpt lat="53.440805" lon="19.096335"></trkpt><trkpt lat="53.440946" lon="19.096569"></trkpt><trkpt lat="53.441402" lon="19.097069"></trkpt><trkpt lat="53.441884" lon="19.097363"></trkpt><trkpt lat="53.442141" lon="19.097595"></trkpt><trkpt lat="53.442062" lon="19.097928"></trkpt><trkpt lat="53.441793" lon="19.098385"></trkpt><trkpt lat="53.441233" lon="19.099173"></trkpt><trkpt lat="53.44058" lon="19.099659"></trkpt><trkpt lat="53.439865" lon="19.099903"></trkpt><trkpt lat="53.435009" lon="19.100676"></trkpt><trkpt lat="53.434749" lon="19.10032"></trkpt><trkpt lat="53.434373" lon="19.099478"></trkpt><trkpt lat="53.43427" lon="19.099087"></trkpt><trkpt lat="53.43357" lon="19.097297"></trkpt><trkpt lat="53.433314" lon="19.096881"></trkpt><trkpt lat="53.433084" lon="19.096795"></trkpt><trkpt lat="53.432005" lon="19.097357"></trkpt><trkpt lat="53.429129" lon="19.099277"></trkpt><trkpt lat="53.428931" lon="19.099683"></trkpt><trkpt lat="53.428828" lon="19.100025"></trkpt><trkpt lat="53.428769" lon="19.10044"></trkpt><trkpt lat="53.428748" lon="19.100828"></trkpt><trkpt lat="53.42863" lon="19.101827"></trkpt><trkpt lat="53.428404" lon="19.10231"></trkpt><trkpt lat="53.428031" lon="19.10256"></trkpt><trkpt lat="53.426756" lon="19.103604"></trkpt><trkpt lat="53.425256" lon="19.104615"></trkpt><trkpt lat="53.422005" lon="19.10637"></trkpt><trkpt lat="53.415175" lon="19.108756"></trkpt><trkpt lat="53.414714" lon="19.108683"></trkpt><trkpt lat="53.413961" lon="19.109077"></trkpt><trkpt lat="53.412" lon="19.110409"></trkpt><trkpt lat="53.412113" lon="19.110781"></trkpt><trkpt lat="53.413325" lon="19.11582"></trkpt><trkpt lat="53.415006" lon="19.121378"></trkpt><trkpt lat="53.415218" lon="19.122384"></trkpt><trkpt lat="53.415313" lon="19.123617"></trkpt><trkpt lat="53.415276" lon="19.124091"></trkpt><trkpt lat="53.415141" lon="19.124525"></trkpt><trkpt lat="53.414634" lon="19.125741"></trkpt><trkpt lat="53.414048" lon="19.12641"></trkpt><trkpt lat="53.413921" lon="19.12675"></trkpt><trkpt lat="53.413885" lon="19.127169"></trkpt><trkpt lat="53.413927" lon="19.127569"></trkpt><trkpt lat="53.413995" lon="19.127907"></trkpt><trkpt lat="53.414273" lon="19.128439"></trkpt><trkpt lat="53.414479" lon="19.128686"></trkpt><trkpt lat="53.41505" lon="19.12967"></trkpt><trkpt lat="53.415033" lon="19.130041"></trkpt><trkpt lat="53.414914" lon="19.130395"></trkpt><trkpt lat="53.414762" lon="19.130691"></trkpt><trkpt lat="53.41391" lon="19.132656"></trkpt><trkpt lat="53.413819" lon="19.132968"></trkpt><trkpt lat="53.41399" lon="19.133277"></trkpt><trkpt lat="53.413798" lon="19.133087"></trkpt><trkpt lat="53.41344" lon="19.133731"></trkpt><trkpt lat="53.412964" lon="19.134076"></trkpt><trkpt lat="53.412414" lon="19.134606"></trkpt><trkpt lat="53.411867" lon="19.135257"></trkpt><trkpt lat="53.407279" lon="19.139793"></trkpt><trkpt lat="53.406376" lon="19.140384"></trkpt><trkpt lat="53.399335" lon="19.14642"></trkpt><trkpt lat="53.399055" lon="19.147391"></trkpt><trkpt lat="53.395753" lon="19.156465"></trkpt><trkpt lat="53.395367" lon="19.156804"></trkpt><trkpt lat="53.394665" lon="19.156559"></trkpt><trkpt lat="53.391648" lon="19.154572"></trkpt><trkpt lat="53.391506" lon="19.153853"></trkpt><trkpt lat="53.391405" lon="19.153519"></trkpt><trkpt lat="53.391247" lon="19.153247"></trkpt><trkpt lat="53.391052" lon="19.153092"></trkpt><trkpt lat="53.390744" lon="19.15299"></trkpt><trkpt lat="53.390392" lon="19.153255"></trkpt><trkpt lat="53.390243" lon="19.153529"></trkpt><trkpt lat="53.39018" lon="19.153862"></trkpt><trkpt lat="53.390073" lon="19.154643"></trkpt><trkpt lat="53.390223" lon="19.154906"></trkpt><trkpt lat="53.390769" lon="19.155118"></trkpt><trkpt lat="53.39116" lon="19.155372"></trkpt><trkpt lat="53.391422" lon="19.156049"></trkpt><trkpt lat="53.391803" lon="19.157305"></trkpt><trkpt lat="53.39117" lon="19.158016"></trkpt><trkpt lat="53.390292" lon="19.158817"></trkpt><trkpt lat="53.390716" lon="19.158531"></trkpt><trkpt lat="53.391163" lon="19.158068"></trkpt><trkpt lat="53.391826" lon="19.157243"></trkpt><trkpt lat="53.39165" lon="19.156818"></trkpt><trkpt lat="53.391394" lon="19.156627"></trkpt><trkpt lat="53.391249" lon="19.15697"></trkpt><trkpt lat="53.391575" lon="19.156567"></trkpt><trkpt lat="53.391815" lon="19.157221"></trkpt><trkpt lat="53.391664" lon="19.157486"></trkpt><trkpt lat="53.391478" lon="19.157682"></trkpt><trkpt lat="53.390601" lon="19.158846"></trkpt><trkpt lat="53.390749" lon="19.158535"></trkpt><trkpt lat="53.391149" lon="19.158073"></trkpt><trkpt lat="53.391858" lon="19.157409"></trkpt><trkpt lat="53.391961" lon="19.158403"></trkpt><trkpt lat="53.392192" lon="19.159471"></trkpt><trkpt lat="53.392309" lon="19.160733"></trkpt><trkpt lat="53.392526" lon="19.161055"></trkpt><trkpt lat="53.392756" lon="19.161753"></trkpt><trkpt lat="53.392902" lon="19.162515"></trkpt><trkpt lat="53.393108" lon="19.16251"></trkpt><trkpt lat="53.393134" lon="19.162144"></trkpt><trkpt lat="53.393088" lon="19.16179"></trkpt></trkseg></trk></gpx>