<?xml version="1.0" encoding="UTF-8" standalone="no" ?><gpx xmlns="http://www.topografix.com/GPX/1/1" xmlns:gpxx="http://www.garmin.com/xmlschemas/GpxExtensions/v3" ><trk><trkseg><trkpt lat="54.206555" lon="21.626853"></trkpt><trkpt lat="54.206531" lon="21.627494"></trkpt><trkpt lat="54.206354" lon="21.628039"></trkpt><trkpt lat="54.20649" lon="21.627057"></trkpt><trkpt lat="54.206742" lon="21.627103"></trkpt><trkpt lat="54.206938" lon="21.627224"></trkpt><trkpt lat="54.207406" lon="21.626669"></trkpt><trkpt lat="54.210014" lon="21.623031"></trkpt><trkpt lat="54.210186" lon="21.622826"></trkpt><trkpt lat="54.210232" lon="21.622462"></trkpt><trkpt lat="54.210189" lon="21.621283"></trkpt><trkpt lat="54.21037" lon="21.619635"></trkpt><trkpt lat="54.210629" lon="21.618496"></trkpt><trkpt lat="54.210666" lon="21.618135"></trkpt><trkpt lat="54.210699" lon="21.617242"></trkpt><trkpt lat="54.211677" lon="21.606414"></trkpt><trkpt lat="54.211807" lon="21.605869"></trkpt><trkpt lat="54.21367" lon="21.596145"></trkpt><trkpt lat="54.213544" lon="21.594479"></trkpt><trkpt lat="54.21324" lon="21.584125"></trkpt><trkpt lat="54.213286" lon="21.583645"></trkpt><trkpt lat="54.213353" lon="21.583193"></trkpt><trkpt lat="54.213458" lon="21.582809"></trkpt><trkpt lat="54.21397" lon="21.58141"></trkpt><trkpt lat="54.215362" lon="21.576889"></trkpt><trkpt lat="54.215474" lon="21.576249"></trkpt><trkpt lat="54.21553" lon="21.575804"></trkpt><trkpt lat="54.216052" lon="21.567893"></trkpt><trkpt lat="54.215839" lon="21.566492"></trkpt><trkpt lat="54.214812" lon="21.561337"></trkpt><trkpt lat="54.214641" lon="21.560779"></trkpt><trkpt lat="54.214397" lon="21.560143"></trkpt><trkpt lat="54.214147" lon="21.55918"></trkpt><trkpt lat="54.214102" lon="21.558558"></trkpt><trkpt lat="54.214127" lon="21.557725"></trkpt><trkpt lat="54.214101" lon="21.557033"></trkpt><trkpt lat="54.214123" lon="21.550456"></trkpt><trkpt lat="54.214019" lon="21.54859"></trkpt><trkpt lat="54.213884" lon="21.548316"></trkpt><trkpt lat="54.213763" lon="21.548017"></trkpt><trkpt lat="54.213231" lon="21.547028"></trkpt><trkpt lat="54.21288" lon="21.546603"></trkpt><trkpt lat="54.210148" lon="21.543918"></trkpt><trkpt lat="54.209912" lon="21.543771"></trkpt><trkpt lat="54.209389" lon="21.543307"></trkpt><trkpt lat="54.209123" lon="21.542778"></trkpt><trkpt lat="54.208923" lon="21.54205"></trkpt><trkpt lat="54.208773" lon="21.541343"></trkpt><trkpt lat="54.208721" lon="21.539464"></trkpt><trkpt lat="54.208811" lon="21.538918"></trkpt><trkpt lat="54.209079" lon="21.537808"></trkpt><trkpt lat="54.211592" lon="21.529339"></trkpt><trkpt lat="54.212456" lon="21.528349"></trkpt><trkpt lat="54.21277" lon="21.527906"></trkpt><trkpt lat="54.212891" lon="21.527565"></trkpt><trkpt lat="54.213094" lon="21.527586"></trkpt><trkpt lat="54.213283" lon="21.527481"></trkpt><trkpt lat="54.213653" lon="21.527"></trkpt><trkpt lat="54.213959" lon="21.526454"></trkpt><trkpt lat="54.214071" lon="21.526063"></trkpt><trkpt lat="54.214216" lon="21.525638"></trkpt><trkpt lat="54.214226" lon="21.525278"></trkpt><trkpt lat="54.21431" lon="21.524838"></trkpt><trkpt lat="54.214313" lon="21.524432"></trkpt><trkpt lat="54.214251" lon="21.523595"></trkpt><trkpt lat="54.214234" lon="21.522755"></trkpt><trkpt lat="54.214493" lon="21.522439"></trkpt><trkpt lat="54.214379" lon="21.522159"></trkpt><trkpt lat="54.214197" lon="21.522307"></trkpt><trkpt lat="54.21405" lon="21.522546"></trkpt><trkpt lat="54.213533" lon="21.522617"></trkpt><trkpt lat="54.213677" lon="21.523533"></trkpt><trkpt lat="54.213866" lon="21.523635"></trkpt><trkpt lat="54.214075" lon="21.523597"></trkpt><trkpt lat="54.215103" lon="21.523584"></trkpt><trkpt lat="54.214998" lon="21.524742"></trkpt><trkpt lat="54.214987" lon="21.525831"></trkpt><trkpt lat="54.215262" lon="21.525903"></trkpt><trkpt lat="54.216114" lon="21.525945"></trkpt><trkpt lat="54.226616" lon="21.526384"></trkpt><trkpt lat="54.230923" lon="21.527234"></trkpt><trkpt lat="54.231207" lon="21.52741"></trkpt><trkpt lat="54.231428" lon="21.527473"></trkpt><trkpt lat="54.231706" lon="21.527666"></trkpt><trkpt lat="54.241548" lon="21.533814"></trkpt><trkpt lat="54.245929" lon="21.537581"></trkpt><trkpt lat="54.245869" lon="21.538121"></trkpt><trkpt lat="54.245589" lon="21.539728"></trkpt><trkpt lat="54.245417" lon="21.540067"></trkpt><trkpt lat="54.242042" lon="21.547992"></trkpt><trkpt lat="54.242435" lon="21.548443"></trkpt><trkpt lat="54.25032" lon="21.559041"></trkpt><trkpt lat="54.250035" lon="21.55973"></trkpt><trkpt lat="54.249029" lon="21.562687"></trkpt><trkpt lat="54.249444" lon="21.563381"></trkpt><trkpt lat="54.251922" lon="21.568177"></trkpt><trkpt lat="54.252005" lon="21.568592"></trkpt><trkpt lat="54.252035" lon="21.569214"></trkpt><trkpt lat="54.251902" lon="21.569774"></trkpt><trkpt lat="54.251903" lon="21.57012"></trkpt><trkpt lat="54.252004" lon="21.570592"></trkpt><trkpt lat="54.252107" lon="21.570975"></trkpt><trkpt lat="54.252265" lon="21.571927"></trkpt><trkpt lat="54.252429" lon="21.57401"></trkpt><trkpt lat="54.252574" lon="21.574959"></trkpt><trkpt lat="54.252533" lon="21.576137"></trkpt><trkpt lat="54.252484" lon="21.576468"></trkpt><trkpt lat="54.25216" lon="21.577865"></trkpt><trkpt lat="54.252095" lon="21.57823"></trkpt><trkpt lat="54.25221" lon="21.57863"></trkpt><trkpt lat="54.252397" lon="21.579049"></trkpt><trkpt lat="54.252699" lon="21.579296"></trkpt><trkpt lat="54.252878" lon="21.579501"></trkpt><trkpt lat="54.253309" lon="21.57992"></trkpt><trkpt lat="54.253774" lon="21.580481"></trkpt><trkpt lat="54.25421" lon="21.580856"></trkpt><trkpt lat="54.254856" lon="21.581317"></trkpt><trkpt lat="54.255084" lon="21.581547"></trkpt><trkpt lat="54.255314" lon="21.581621"></trkpt><trkpt lat="54.256316" lon="21.581492"></trkpt><trkpt lat="54.256684" lon="21.581858"></trkpt><trkpt lat="54.257055" lon="21.58216"></trkpt><trkpt lat="54.257275" lon="21.582185"></trkpt><trkpt lat="54.25748" lon="21.582387"></trkpt><trkpt lat="54.257685" lon="21.582665"></trkpt><trkpt lat="54.265305" lon="21.59424"></trkpt><trkpt lat="54.264962" lon="21.594881"></trkpt><trkpt lat="54.264701" lon="21.595247"></trkpt><trkpt lat="54.264294" lon="21.595673"></trkpt><trkpt lat="54.262752" lon="21.597755"></trkpt><trkpt lat="54.262653" lon="21.598123"></trkpt><trkpt lat="54.262721" lon="21.599411"></trkpt><trkpt lat="54.262855" lon="21.600357"></trkpt><trkpt lat="54.263073" lon="21.602952"></trkpt><trkpt lat="54.263013" lon="21.603851"></trkpt><trkpt lat="54.262954" lon="21.604251"></trkpt><trkpt lat="54.262772" lon="21.605105"></trkpt><trkpt lat="54.262631" lon="21.605545"></trkpt><trkpt lat="54.26069" lon="21.613229"></trkpt><trkpt lat="54.260683" lon="21.614676"></trkpt><trkpt lat="54.260063" lon="21.622739"></trkpt><trkpt lat="54.259462" lon="21.62264"></trkpt><trkpt lat="54.255512" lon="21.622471"></trkpt><trkpt lat="54.254959" lon="21.622727"></trkpt><trkpt lat="54.254607" lon="21.62295"></trkpt><trkpt lat="54.248596" lon="21.625917"></trkpt><trkpt lat="54.245053" lon="21.628292"></trkpt><trkpt lat="54.24488" lon="21.628515"></trkpt><trkpt lat="54.244664" lon="21.628861"></trkpt><trkpt lat="54.244389" lon="21.629162"></trkpt><trkpt lat="54.243979" lon="21.629759"></trkpt><trkpt lat="54.243124" lon="21.631251"></trkpt><trkpt lat="54.242709" lon="21.632122"></trkpt><trkpt lat="54.242245" lon="21.632692"></trkpt><trkpt lat="54.241402" lon="21.633307"></trkpt><trkpt lat="54.240706" lon="21.633708"></trkpt><trkpt lat="54.240441" lon="21.633652"></trkpt><trkpt lat="54.240018" lon="21.63351"></trkpt><trkpt lat="54.239664" lon="21.633435"></trkpt><trkpt lat="54.238553" lon="21.633342"></trkpt><trkpt lat="54.237941" lon="21.633708"></trkpt><trkpt lat="54.23279" lon="21.63754"></trkpt><trkpt lat="54.232432" lon="21.637694"></trkpt><trkpt lat="54.225484" lon="21.635614"></trkpt><trkpt lat="54.225188" lon="21.636179"></trkpt><trkpt lat="54.224216" lon="21.637624"></trkpt><trkpt lat="54.223823" lon="21.637861"></trkpt><trkpt lat="54.217919" lon="21.64242"></trkpt><trkpt lat="54.217426" lon="21.642978"></trkpt><trkpt lat="54.213965" lon="21.646176"></trkpt><trkpt lat="54.214133" lon="21.645878"></trkpt><trkpt lat="54.214387" lon="21.645514"></trkpt><trkpt lat="54.214518" lon="21.646094"></trkpt><trkpt lat="54.214352" lon="21.646345"></trkpt><trkpt lat="54.214132" lon="21.646383"></trkpt><trkpt lat="54.213862" lon="21.64611"></trkpt><trkpt lat="54.213652" lon="21.646086"></trkpt><trkpt lat="54.213493" lon="21.645863"></trkpt><trkpt lat="54.213289" lon="21.645348"></trkpt><trkpt lat="54.213159" lon="21.644332"></trkpt><trkpt lat="54.211183" lon="21.626045"></trkpt><trkpt lat="54.211076" lon="21.625755"></trkpt><trkpt lat="54.210971" lon="21.62523"></trkpt><trkpt lat="54.210682" lon="21.6243"></trkpt><trkpt lat="54.210165" lon="21.62295"></trkpt><trkpt lat="54.209688" lon="21.623666"></trkpt><trkpt lat="54.20694" lon="21.627205"></trkpt><trkpt lat="54.206707" lon="21.627063"></trkpt><trkpt lat="54.206515" lon="21.62682"></trkpt><trkpt lat="54.206496" lon="21.627162"></trkpt><trkpt lat="54.2065" lon="21.626767"></trkpt><trkpt lat="54.206636" lon="21.626726"></trkpt></trkseg></trk></gpx>