<?xml version="1.0" encoding="UTF-8" standalone="no" ?><gpx xmlns="http://www.topografix.com/GPX/1/1" xmlns:gpxx="http://www.garmin.com/xmlschemas/GpxExtensions/v3" ><trk><trkseg><trkpt lat="54.0817448124" lon="21.4376363531"></trkpt><trkpt lat="54.081500899" lon="21.4378745668"></trkpt><trkpt lat="54.0814811178" lon="21.438341355"></trkpt><trkpt lat="54.081999287" lon="21.4385348093"></trkpt><trkpt lat="54.083507359" lon="21.4394185133"></trkpt><trkpt lat="54.0838751569" lon="21.4386814926"></trkpt><trkpt lat="54.0839957725" lon="21.4380554482"></trkpt><trkpt lat="54.0842668433" lon="21.4360252675"></trkpt><trkpt lat="54.0841271169" lon="21.4355951082"></trkpt><trkpt lat="54.0834337659" lon="21.4348654635"></trkpt><trkpt lat="54.0805581864" lon="21.4311871491"></trkpt><trkpt lat="54.0804281831" lon="21.4306372125"></trkpt><trkpt lat="54.0801737923" lon="21.429032078"></trkpt><trkpt lat="54.0791887511" lon="21.4249964431"></trkpt><trkpt lat="54.0780504886" lon="21.4212975092"></trkpt><trkpt lat="54.0768944565" lon="21.4198332746"></trkpt><trkpt lat="54.0732855443" lon="21.4138022438"></trkpt><trkpt lat="54.0736247599" lon="21.4129488822"></trkpt><trkpt lat="54.0742737707" lon="21.4102036413"></trkpt><trkpt lat="54.0743772872" lon="21.4084745385"></trkpt><trkpt lat="54.0746766888" lon="21.4063303638"></trkpt><trkpt lat="54.0751402918" lon="21.4050947875"></trkpt><trkpt lat="54.0759577788" lon="21.4019899629"></trkpt><trkpt lat="54.0762574319" lon="21.4003469422"></trkpt><trkpt lat="54.0782379918" lon="21.3816006482"></trkpt><trkpt lat="54.0771722328" lon="21.3804870285"></trkpt><trkpt lat="54.075677488" lon="21.3792602532"></trkpt><trkpt lat="54.0754052438" lon="21.3789837342"></trkpt><trkpt lat="54.0755116101" lon="21.378540583"></trkpt><trkpt lat="54.0764385648" lon="21.3755128719"></trkpt><trkpt lat="54.0767009184" lon="21.3751975447"></trkpt><trkpt lat="54.0769555606" lon="21.3750363607"></trkpt><trkpt lat="54.0775619075" lon="21.3749269769"></trkpt><trkpt lat="54.0778468922" lon="21.3747392222"></trkpt><trkpt lat="54.0782468766" lon="21.3740519062"></trkpt><trkpt lat="54.0783465374" lon="21.3736021332"></trkpt><trkpt lat="54.0785978269" lon="21.3727595843"></trkpt><trkpt lat="54.0800174698" lon="21.3666849677"></trkpt><trkpt lat="54.0807773732" lon="21.3623210136"></trkpt><trkpt lat="54.0807188675" lon="21.361862272"></trkpt><trkpt lat="54.0808262397" lon="21.3614076376"></trkpt><trkpt lat="54.0810393915" lon="21.360950321"></trkpt><trkpt lat="54.0821250156" lon="21.3581326604"></trkpt><trkpt lat="54.0974681731" lon="21.3254272286"></trkpt><trkpt lat="54.0991052426" lon="21.3245011121"></trkpt><trkpt lat="54.1010071803" lon="21.3237841241"></trkpt><trkpt lat="54.101838246" lon="21.3237207569"></trkpt><trkpt lat="54.1021756176" lon="21.3234159909"></trkpt><trkpt lat="54.102371335" lon="21.3230467681"></trkpt><trkpt lat="54.1258631274" lon="21.2863561604"></trkpt><trkpt lat="54.126236625" lon="21.2859755382"></trkpt><trkpt lat="54.1292864643" lon="21.2815628853"></trkpt><trkpt lat="54.1294219159" lon="21.2809262797"></trkpt><trkpt lat="54.1295595467" lon="21.2790402677"></trkpt><trkpt lat="54.1295631509" lon="21.2771152798"></trkpt><trkpt lat="54.12927825" lon="21.2740313262"></trkpt><trkpt lat="54.1290183272" lon="21.2726452947"></trkpt><trkpt lat="54.1243703943" lon="21.2367969844"></trkpt><trkpt lat="54.1245562211" lon="21.2339632306"></trkpt><trkpt lat="54.1261369642" lon="21.2212416809"></trkpt><trkpt lat="54.1267690435" lon="21.2183302268"></trkpt><trkpt lat="54.1406164505" lon="21.1314899381"></trkpt><trkpt lat="54.159970684" lon="21.0429274198"></trkpt><trkpt lat="54.161109617" lon="21.0395171586"></trkpt><trkpt lat="54.1915650945" lon="20.9491887409"></trkpt><trkpt lat="54.1929161735" lon="20.9459954873"></trkpt><trkpt lat="54.1942164581" lon="20.9414567705"></trkpt><trkpt lat="54.1944736987" lon="20.9389111865"></trkpt><trkpt lat="54.196113199" lon="20.9288752824"></trkpt><trkpt lat="54.2016924452" lon="20.9089599643"></trkpt><trkpt lat="54.2034897767" lon="20.9060378652"></trkpt><trkpt lat="54.2421258241" lon="20.8304838091"></trkpt><trkpt lat="54.2426853999" lon="20.8289203327"></trkpt><trkpt lat="54.2440597806" lon="20.8259232994"></trkpt><trkpt lat="54.2450718954" lon="20.8245303109"></trkpt><trkpt lat="54.2476313096" lon="20.8201867249"></trkpt><trkpt lat="54.2473620828" lon="20.8197025862"></trkpt><trkpt lat="54.2472316604" lon="20.8191521466"></trkpt><trkpt lat="54.2472021561" lon="20.8184609748"></trkpt><trkpt lat="54.2472761683" lon="20.8161266148"></trkpt><trkpt lat="54.2473949399" lon="20.8154385444"></trkpt><trkpt lat="54.2475666013" lon="20.8150368836"></trkpt><trkpt lat="54.247502815" lon="20.8145521581"></trkpt><trkpt lat="54.2476494145" lon="20.8125279285"></trkpt><trkpt lat="54.2478548549" lon="20.811650008"></trkpt><trkpt lat="54.248151239" lon="20.8106674813"></trkpt><trkpt lat="54.248752892" lon="20.809583785"></trkpt><trkpt lat="54.2490200233" lon="20.8088055253"></trkpt><trkpt lat="54.2491881642" lon="20.8080723602"></trkpt><trkpt lat="54.2498650029" lon="20.8076454699"></trkpt><trkpt lat="54.2513595801" lon="20.807047924"></trkpt><trkpt lat="54.2555729952" lon="20.8080484718"></trkpt><trkpt lat="54.2559026554" lon="20.8079173788"></trkpt><trkpt lat="54.2562593054" lon="20.8077051491"></trkpt><trkpt lat="54.2571835779" lon="20.8073139656"></trkpt><trkpt lat="54.2574657965" lon="20.8073171508"></trkpt><trkpt lat="54.2577269766" lon="20.807007188"></trkpt><trkpt lat="54.2583037354" lon="20.8068517875"></trkpt><trkpt lat="54.2589281034" lon="20.8062640484"></trkpt><trkpt lat="54.2596325185" lon="20.8052963577"></trkpt><trkpt lat="54.2598606739" lon="20.8048687968"></trkpt><trkpt lat="54.2594704963" lon="20.8036030456"></trkpt><trkpt lat="54.2573809717" lon="20.7981582452"></trkpt><trkpt lat="54.2570739426" lon="20.7975725178"></trkpt><trkpt lat="54.2546635587" lon="20.7919752505"></trkpt><trkpt lat="54.2549218889" lon="20.7929201424"></trkpt><trkpt lat="54.2555480171" lon="20.7947649993"></trkpt><trkpt lat="54.2562208325" lon="20.796080539"></trkpt><trkpt lat="54.256844949" lon="20.7970951684"></trkpt><trkpt lat="54.2570876889" lon="20.797611326"></trkpt><trkpt lat="54.2592568416" lon="20.8032319788"></trkpt><trkpt lat="54.2595241405" lon="20.8042374719"></trkpt><trkpt lat="54.2595959734" lon="20.8046867419"></trkpt><trkpt lat="54.2597980611" lon="20.8050107863"></trkpt><trkpt lat="54.260282116" lon="20.804393962"></trkpt><trkpt lat="54.3117524497" lon="20.7441911101"></trkpt><trkpt lat="54.3132622819" lon="20.7432464696"></trkpt><trkpt lat="54.3144781608" lon="20.7419951353"></trkpt><trkpt lat="54.3149874453" lon="20.7413309533"></trkpt><trkpt lat="54.32358074" lon="20.7277634181"></trkpt><trkpt lat="54.3232894689" lon="20.7274034154"></trkpt><trkpt lat="54.3230399396" lon="20.7272142358"></trkpt><trkpt lat="54.3143665977" lon="20.7181288395"></trkpt><trkpt lat="54.3137076125" lon="20.7169658504"></trkpt><trkpt lat="54.304863112" lon="20.6979282852"></trkpt><trkpt lat="54.3043295201" lon="20.6946738437"></trkpt><trkpt lat="54.2977593653" lon="20.6653639209"></trkpt><trkpt lat="54.2965916824" lon="20.6630554609"></trkpt><trkpt lat="54.2860271316" lon="20.6459748186"></trkpt><trkpt lat="54.284279421" lon="20.6436656043"></trkpt><trkpt lat="54.2689744849" lon="20.6188098248"></trkpt><trkpt lat="54.2684615124" lon="20.6173259765"></trkpt><trkpt lat="54.2662363686" lon="20.6090871524"></trkpt><trkpt lat="54.2660764419" lon="20.6064658798"></trkpt><trkpt lat="54.2660714965" lon="20.5954892747"></trkpt><trkpt lat="54.2663071118" lon="20.5940084439"></trkpt><trkpt lat="54.2689282168" lon="20.582454158"></trkpt><trkpt lat="54.2692857888" lon="20.5813117046"></trkpt><trkpt lat="54.2726014182" lon="20.5661107041"></trkpt><trkpt lat="54.2723279167" lon="20.5625801627"></trkpt><trkpt lat="54.2723730113" lon="20.5477987602"></trkpt><trkpt lat="54.2728062719" lon="20.5439724214"></trkpt><trkpt lat="54.2728245445" lon="20.5421833042"></trkpt><trkpt lat="54.2726906855" lon="20.5394421704"></trkpt><trkpt lat="54.2727488559" lon="20.5313840602"></trkpt><trkpt lat="54.2730729003" lon="20.5298708752"></trkpt><trkpt lat="54.2731394526" lon="20.5294040032"></trkpt><trkpt lat="54.2735653371" lon="20.52728137"></trkpt><trkpt lat="54.2741767131" lon="20.5257870443"></trkpt><trkpt lat="54.2880770937" lon="20.4998414498"></trkpt><trkpt lat="54.2886179779" lon="20.4996103607"></trkpt><trkpt lat="54.2887877952" lon="20.4992008209"></trkpt><trkpt lat="54.2885820195" lon="20.4988844879"></trkpt><trkpt lat="54.2880334239" lon="20.498628756"></trkpt><trkpt lat="54.2866942473" lon="20.4976450559"></trkpt><trkpt lat="54.2863151338" lon="20.4974352568"></trkpt><trkpt lat="54.2856814619" lon="20.4976836964"></trkpt><trkpt lat="54.2853764445" lon="20.4976309743"></trkpt><trkpt lat="54.2850989196" lon="20.4973172396"></trkpt><trkpt lat="54.2846080754" lon="20.4964683205"></trkpt><trkpt lat="54.2842231784" lon="20.4954510927"></trkpt><trkpt lat="54.2840083502" lon="20.4951308202"></trkpt><trkpt lat="54.2828371469" lon="20.493686283"></trkpt><trkpt lat="54.2827151064" lon="20.4931775015"></trkpt><trkpt lat="54.2827296909" lon="20.4926676303"></trkpt><trkpt lat="54.2829217203" lon="20.4915361572"></trkpt><trkpt lat="54.2830022704" lon="20.4901054502"></trkpt><trkpt lat="54.2828063853" lon="20.4892412759"></trkpt><trkpt lat="54.2825515755" lon="20.4894302879"></trkpt><trkpt lat="54.2828212213" lon="20.4897416756"></trkpt><trkpt lat="54.2826484703" lon="20.490178708"></trkpt><trkpt lat="54.2828485463" lon="20.489844773"></trkpt><trkpt lat="54.2827461194" lon="20.4892629012"></trkpt><trkpt lat="54.2828752846" lon="20.4898938071"></trkpt><trkpt lat="54.2825949099" lon="20.4900874291"></trkpt><trkpt lat="54.2828652263" lon="20.4897392448"></trkpt><trkpt lat="54.28267546" lon="20.4901846591"></trkpt><trkpt lat="54.282967234" lon="20.4898820724"></trkpt><trkpt lat="54.2830306012" lon="20.4904450849"></trkpt><trkpt lat="54.2830119096" lon="20.4909228534"></trkpt><trkpt lat="54.2829674017" lon="20.4913952574"></trkpt><trkpt lat="54.2828790564" lon="20.4936646577"></trkpt><trkpt lat="54.2831936292" lon="20.4939985927"></trkpt><trkpt lat="54.2835464235" lon="20.4944740143"></trkpt><trkpt lat="54.2838034127" lon="20.4947036784"></trkpt><trkpt lat="54.283984378" lon="20.4941530712"></trkpt><trkpt lat="54.2842151318" lon="20.4938659072"></trkpt><trkpt lat="54.284400288" lon="20.4934254382"></trkpt><trkpt lat="54.2846765555" lon="20.4934326466"></trkpt><trkpt lat="54.2847038805" lon="20.4938990157"></trkpt><trkpt lat="54.2845707759" lon="20.4943208769"></trkpt><trkpt lat="54.2843015492" lon="20.4945558216"></trkpt><trkpt lat="54.2840102781" lon="20.494622793"></trkpt><trkpt lat="54.2837833799" lon="20.4943687376"></trkpt><trkpt lat="54.2832931224" lon="20.4940556735"></trkpt><trkpt lat="54.2830072157" lon="20.4938097484"></trkpt><trkpt lat="54.2827720195" lon="20.4934226722"></trkpt><trkpt lat="54.2827700078" lon="20.492818756"></trkpt><trkpt lat="54.2828611191" lon="20.4922861699"></trkpt><trkpt lat="54.2830461916" lon="20.4904573224"></trkpt><trkpt lat="54.2829285096" lon="20.4898536578"></trkpt><trkpt lat="54.2827433534" lon="20.4894376639"></trkpt><trkpt lat="54.283009395" lon="20.490533011"></trkpt><trkpt lat="54.2830152623" lon="20.4909956083"></trkpt><trkpt lat="54.2828400806" lon="20.4921591002"></trkpt><trkpt lat="54.2827223148" lon="20.4934048187"></trkpt><trkpt lat="54.2828526534" lon="20.4938496463"></trkpt><trkpt lat="54.2835881654" lon="20.4946402274"></trkpt><trkpt lat="54.2841919139" lon="20.4955384322"></trkpt><trkpt lat="54.2837572284" lon="20.4959442839"></trkpt><trkpt lat="54.2832663842" lon="20.4959719442"></trkpt><trkpt lat="54.2829668988" lon="20.4958017077"></trkpt><trkpt lat="54.2823936604" lon="20.4948455002"></trkpt><trkpt lat="54.2820313945" lon="20.4944683984"></trkpt><trkpt lat="54.2816897482" lon="20.4943741858"></trkpt><trkpt lat="54.2811498698" lon="20.4948725738"></trkpt><trkpt lat="54.2805503123" lon="20.4955971893"></trkpt><trkpt lat="54.2801207397" lon="20.4957233369"></trkpt><trkpt lat="54.2790113948" lon="20.4955758993"></trkpt><trkpt lat="54.2787331156" lon="20.4957814235"></trkpt><trkpt lat="54.2773436476" lon="20.4959139414"></trkpt><trkpt lat="54.2719379906" lon="20.4973967839"></trkpt><trkpt lat="54.2719432712" lon="20.4980691802"></trkpt><trkpt lat="54.2720987555" lon="20.4986962304"></trkpt><trkpt lat="54.2724548187" lon="20.5006008502"></trkpt><trkpt lat="54.2722770385" lon="20.501050204"></trkpt><trkpt lat="54.2719427682" lon="20.5014176667"></trkpt><trkpt lat="54.2708946951" lon="20.50206366"></trkpt><trkpt lat="54.2704056948" lon="20.5022764765"></trkpt><trkpt lat="54.2659715004" lon="20.5034484342"></trkpt><trkpt lat="54.2652158719" lon="20.503438795"></trkpt><trkpt lat="54.2592072207" lon="20.5058056768"></trkpt><trkpt lat="54.25894076" lon="20.5061458144"></trkpt><trkpt lat="54.2579072714" lon="20.5071796384"></trkpt><trkpt lat="54.2565141153" lon="20.5079576466"></trkpt><trkpt lat="54.2515308224" lon="20.5119984783"></trkpt><trkpt lat="54.2497934215" lon="20.5141506158"></trkpt><trkpt lat="54.2459417693" lon="20.5169961881"></trkpt><trkpt lat="54.2445776984" lon="20.5168257002"></trkpt><trkpt lat="54.2437534221" lon="20.5165465828"></trkpt><trkpt lat="54.2424608488" lon="20.5154669099"></trkpt><trkpt lat="54.2414183076" lon="20.5143783521"></trkpt><trkpt lat="54.2411478236" lon="20.5142597482"></trkpt><trkpt lat="54.2397657316" lon="20.5138753541"></trkpt><trkpt lat="54.2153494991" lon="20.5030181073"></trkpt><trkpt lat="54.214866031" lon="20.5019505881"></trkpt><trkpt lat="54.2145532183" lon="20.5016686209"></trkpt><trkpt lat="54.2141630407" lon="20.5016951077"></trkpt><trkpt lat="54.2050248384" lon="20.5038629193"></trkpt><trkpt lat="54.2028355692" lon="20.5051105656"></trkpt><trkpt lat="54.2017503642" lon="20.5054866616"></trkpt><trkpt lat="54.1760321707" lon="20.5191732198"></trkpt><trkpt lat="54.1750611272" lon="20.5204091314"></trkpt><trkpt lat="54.1309685446" lon="20.565392375"></trkpt><trkpt lat="54.1297786497" lon="20.5654286686"></trkpt><trkpt lat="54.129298199" lon="20.5653263256"></trkpt><trkpt lat="54.1286470927" lon="20.5655921157"></trkpt><trkpt lat="54.1283491999" lon="20.5658864882"></trkpt><trkpt lat="54.1275881231" lon="20.566265434"></trkpt><trkpt lat="54.1270457301" lon="20.5664103571"></trkpt><trkpt lat="54.1269655153" lon="20.566860633"></trkpt><trkpt lat="54.1270312294" lon="20.5673370603"></trkpt><trkpt lat="54.1270512622" lon="20.5690782331"></trkpt><trkpt lat="54.1271930002" lon="20.5703573953"></trkpt><trkpt lat="54.1274424456" lon="20.5717996694"></trkpt><trkpt lat="54.1274013743" lon="20.5739939678"></trkpt><trkpt lat="54.1272313893" lon="20.5745498557"></trkpt><trkpt lat="54.1271683574" lon="20.5750450585"></trkpt><trkpt lat="54.1275563557" lon="20.5763043556"></trkpt><trkpt lat="54.1279919632" lon="20.5781685747"></trkpt><trkpt lat="54.127732208" lon="20.578528326"></trkpt><trkpt lat="54.1274432" lon="20.5785864964"></trkpt><trkpt lat="54.1271966882" lon="20.5788742471"></trkpt><trkpt lat="54.1266384535" lon="20.579097122"></trkpt><trkpt lat="54.1265242919" lon="20.5786519591"></trkpt><trkpt lat="54.1263291612" lon="20.5782663915"></trkpt><trkpt lat="54.126067562" lon="20.578493122"></trkpt><trkpt lat="54.1261070408" lon="20.5789621733"></trkpt><trkpt lat="54.126127325" lon="20.5800001044"></trkpt><trkpt lat="54.1261975653" lon="20.5794383492"></trkpt><trkpt lat="54.1261350363" lon="20.5789796915"></trkpt><trkpt lat="54.1261879262" lon="20.5784957204"></trkpt><trkpt lat="54.1264724918" lon="20.5787320063"></trkpt><trkpt lat="54.1262155864" lon="20.5781658925"></trkpt><trkpt lat="54.1258441843" lon="20.5782162677"></trkpt><trkpt lat="54.1253763065" lon="20.5784869194"></trkpt><trkpt lat="54.1253826767" lon="20.5780083127"></trkpt><trkpt lat="54.1254810803" lon="20.5792001355"></trkpt><trkpt lat="54.1251005419" lon="20.5794275366"></trkpt><trkpt lat="54.1246676166" lon="20.579789551"></trkpt><trkpt lat="54.1248065047" lon="20.5802144296"></trkpt><trkpt lat="54.1254592873" lon="20.5801529065"></trkpt><trkpt lat="54.1256018635" lon="20.5811525322"></trkpt><trkpt lat="54.1258404963" lon="20.5817877967"></trkpt><trkpt lat="54.126131935" lon="20.5816826038"></trkpt><trkpt lat="54.1264881659" lon="20.5823739432"></trkpt><trkpt lat="54.1265791096" lon="20.5829118099"></trkpt><trkpt lat="54.1267004795" lon="20.5843154434"></trkpt><trkpt lat="54.126193542" lon="20.5851689726"></trkpt><trkpt lat="54.1259930469" lon="20.5856033228"></trkpt><trkpt lat="54.1257036198" lon="20.5864013638"></trkpt><trkpt lat="54.1254908871" lon="20.5872233771"></trkpt><trkpt lat="54.1252468899" lon="20.5874815397"></trkpt><trkpt lat="54.125309838" lon="20.5879360065"></trkpt><trkpt lat="54.1252955887" lon="20.5884758849"></trkpt><trkpt lat="54.1249291319" lon="20.589882452"></trkpt><trkpt lat="54.1244416405" lon="20.5908346362"></trkpt><trkpt lat="54.1143023875" lon="20.6145708449"></trkpt><trkpt lat="54.1141672712" lon="20.61505205"></trkpt><trkpt lat="54.113688916" lon="20.6182815135"></trkpt><trkpt lat="54.1136465874" lon="20.6189201307"></trkpt><trkpt lat="54.1125884559" lon="20.6273850985"></trkpt><trkpt lat="54.1120236833" lon="20.6289318111"></trkpt><trkpt lat="54.1075205058" lon="20.6443849392"></trkpt><trkpt lat="54.1073589865" lon="20.6481298897"></trkpt><trkpt lat="54.1062384937" lon="20.6573262624"></trkpt><trkpt lat="54.1059668362" lon="20.6582854036"></trkpt><trkpt lat="54.1059048101" lon="20.6588090211"></trkpt><trkpt lat="54.1059589572" lon="20.6594286114"></trkpt><trkpt lat="54.1063246597" lon="20.6613087561"></trkpt><trkpt lat="54.106909968" lon="20.6658368278"></trkpt><trkpt lat="54.1070415638" lon="20.6677015498"></trkpt><trkpt lat="54.1068839002" lon="20.6709446758"></trkpt><trkpt lat="54.1069388017" lon="20.671606008"></trkpt><trkpt lat="54.107392095" lon="20.6737383641"></trkpt><trkpt lat="54.1082417686" lon="20.6799309142"></trkpt><trkpt lat="54.1083941516" lon="20.681843916"></trkpt><trkpt lat="54.1087603569" lon="20.683603948"></trkpt><trkpt lat="54.1092341021" lon="20.6851675082"></trkpt><trkpt lat="54.1093524545" lon="20.6856652256"></trkpt><trkpt lat="54.109412469" lon="20.6861983985"></trkpt><trkpt lat="54.1094208509" lon="20.6867401209"></trkpt><trkpt lat="54.1093833838" lon="20.687267594"></trkpt><trkpt lat="54.1089742631" lon="20.6894582044"></trkpt><trkpt lat="54.1088072117" lon="20.6899457797"></trkpt><trkpt lat="54.1085990053" lon="20.690388931"></trkpt><trkpt lat="54.1047781985" lon="20.7016135566"></trkpt><trkpt lat="54.1045539826" lon="20.7038040832"></trkpt><trkpt lat="54.104473684" lon="20.706226537"></trkpt><trkpt lat="54.1041301936" lon="20.7093125861"></trkpt><trkpt lat="54.1036392655" lon="20.7122407202"></trkpt><trkpt lat="54.1033821087" lon="20.7149803452"></trkpt><trkpt lat="54.1029537097" lon="20.731902821"></trkpt><trkpt lat="54.1024590936" lon="20.7372756209"></trkpt><trkpt lat="54.1018018685" lon="20.7402261347"></trkpt><trkpt lat="54.1006848961" lon="20.7493008859"></trkpt><trkpt lat="54.100954039" lon="20.7512992155"></trkpt><trkpt lat="54.1009106208" lon="20.7527801301"></trkpt><trkpt lat="54.1003038548" lon="20.7589518931"></trkpt><trkpt lat="54.1000238154" lon="20.7657294162"></trkpt><trkpt lat="54.1000907868" lon="20.769130541"></trkpt><trkpt lat="54.1003804654" lon="20.771785425"></trkpt><trkpt lat="54.1004876699" lon="20.7738360576"></trkpt><trkpt lat="54.1003618576" lon="20.7813001424"></trkpt><trkpt lat="54.1001778748" lon="20.7823585253"></trkpt><trkpt lat="54.0998837538" lon="20.7859335747"></trkpt><trkpt lat="54.0999251604" lon="20.7869790494"></trkpt><trkpt lat="54.1000163555" lon="20.7878831215"></trkpt><trkpt lat="54.1001767851" lon="20.7884806674"></trkpt><trkpt lat="54.1003767774" lon="20.7889337093"></trkpt><trkpt lat="54.1006044298" lon="20.7892619446"></trkpt><trkpt lat="54.1012640856" lon="20.790812429"></trkpt><trkpt lat="54.1015281994" lon="20.7920549624"></trkpt><trkpt lat="54.1016197298" lon="20.7927168813"></trkpt><trkpt lat="54.1016608849" lon="20.7934005931"></trkpt><trkpt lat="54.1016414389" lon="20.7938748412"></trkpt><trkpt lat="54.10137414" lon="20.7958895154"></trkpt><trkpt lat="54.1009222716" lon="20.8017729409"></trkpt><trkpt lat="54.101722911" lon="20.803257376"></trkpt><trkpt lat="54.1017804947" lon="20.8039628807"></trkpt><trkpt lat="54.1016062349" lon="20.8050384466"></trkpt><trkpt lat="54.1014051531" lon="20.8059492242"></trkpt><trkpt lat="54.1013997886" lon="20.8065248094"></trkpt><trkpt lat="54.1014963482" lon="20.8070929348"></trkpt><trkpt lat="54.1018448677" lon="20.8082094882"></trkpt><trkpt lat="54.1168164555" lon="20.8689372148"></trkpt><trkpt lat="54.1151319444" lon="20.8683789801"></trkpt><trkpt lat="54.1139821149" lon="20.8684635535"></trkpt><trkpt lat="54.1129585169" lon="20.8690230455"></trkpt><trkpt lat="54.1081598774" lon="20.8725215681"></trkpt><trkpt lat="54.1069769394" lon="20.8745941613"></trkpt><trkpt lat="54.0895725042" lon="20.8998830337"></trkpt><trkpt lat="54.088723585" lon="20.8998869732"></trkpt><trkpt lat="54.0869434364" lon="20.9002135321"></trkpt><trkpt lat="54.0868371539" lon="20.9006931446"></trkpt><trkpt lat="54.0863633249" lon="20.9020760749"></trkpt><trkpt lat="54.0861947648" lon="20.902854586"></trkpt><trkpt lat="54.0858874004" lon="20.9038794413"></trkpt><trkpt lat="54.0859859716" lon="20.9043179825"></trkpt><trkpt lat="54.0864121076" lon="20.9050161112"></trkpt><trkpt lat="54.0865608025" lon="20.9054352902"></trkpt><trkpt lat="54.0866603795" lon="20.9066670947"></trkpt><trkpt lat="54.0864483174" lon="20.90819126"></trkpt><trkpt lat="54.0859992988" lon="20.9092945699"></trkpt><trkpt lat="54.0851469431" lon="20.9107956011"></trkpt><trkpt lat="54.0845543426" lon="20.9124841355"></trkpt><trkpt lat="54.0819178987" lon="20.9183458518"></trkpt><trkpt lat="54.0810465999" lon="20.9195054043"></trkpt><trkpt lat="54.0799867921" lon="20.9212769195"></trkpt><trkpt lat="54.0794830397" lon="20.9231223632"></trkpt><trkpt lat="54.0764167719" lon="20.9375653043"></trkpt><trkpt lat="54.0766692348" lon="20.939417202"></trkpt><trkpt lat="54.0766725037" lon="20.9400352836"></trkpt><trkpt lat="54.076608466" lon="20.9413228277"></trkpt><trkpt lat="54.0755023062" lon="20.9504166897"></trkpt><trkpt lat="54.0751092788" lon="20.9574993141"></trkpt><trkpt lat="54.0752973687" lon="20.9587596171"></trkpt><trkpt lat="54.0752578899" lon="20.9592276625"></trkpt><trkpt lat="54.0751449857" lon="20.9597143158"></trkpt><trkpt lat="54.07497718" lon="20.9602049086"></trkpt><trkpt lat="54.0742053743" lon="20.9619761724"></trkpt><trkpt lat="54.0735877957" lon="20.9631346352"></trkpt><trkpt lat="54.0734563675" lon="20.9635593463"></trkpt><trkpt lat="54.0733636636" lon="20.9640560579"></trkpt><trkpt lat="54.0731996298" lon="20.965881804"></trkpt><trkpt lat="54.0687987953" lon="20.996631654"></trkpt><trkpt lat="54.0685300715" lon="20.9972840175"></trkpt><trkpt lat="54.0623842925" lon="21.0183776636"></trkpt><trkpt lat="54.0625981987" lon="21.0190286022"></trkpt><trkpt lat="54.0630939882" lon="21.0209064838"></trkpt><trkpt lat="54.0632624645" lon="21.0224157292"></trkpt><trkpt lat="54.0632745344" lon="21.0236959811"></trkpt><trkpt lat="54.0627325606" lon="21.0343875177"></trkpt><trkpt lat="54.0617086273" lon="21.0439725593"></trkpt><trkpt lat="54.0615295898" lon="21.0443556961"></trkpt><trkpt lat="54.0608909726" lon="21.0454156715"></trkpt><trkpt lat="54.0601619147" lon="21.0462248605"></trkpt><trkpt lat="54.0493167378" lon="21.0551419482"></trkpt><trkpt lat="54.048934523" lon="21.0553144477"></trkpt><trkpt lat="54.0487208683" lon="21.0557331238"></trkpt><trkpt lat="54.0487926174" lon="21.0563229583"></trkpt><trkpt lat="54.0496526845" lon="21.0587711446"></trkpt><trkpt lat="54.0526189562" lon="21.0692169238"></trkpt><trkpt lat="54.0526390728" lon="21.0698303115"></trkpt><trkpt lat="54.0519220848" lon="21.0767399333"></trkpt><trkpt lat="54.0509602614" lon="21.0800469294"></trkpt><trkpt lat="54.0503162798" lon="21.0834643152"></trkpt><trkpt lat="54.0502844285" lon="21.0858414229"></trkpt><trkpt lat="54.0500848554" lon="21.0869933479"></trkpt><trkpt lat="54.0495703742" lon="21.0891899932"></trkpt><trkpt lat="54.0493217669" lon="21.0909375362"></trkpt><trkpt lat="54.0492989682" lon="21.0930356942"></trkpt><trkpt lat="54.049366191" lon="21.0938658379"></trkpt><trkpt lat="54.04942872" lon="21.0997988842"></trkpt><trkpt lat="54.0493547078" lon="21.1005931534"></trkpt><trkpt lat="54.0483544953" lon="21.1289409176"></trkpt><trkpt lat="54.0486559086" lon="21.1301780026"></trkpt><trkpt lat="54.0501277708" lon="21.1381278187"></trkpt><trkpt lat="54.0498952568" lon="21.1383648589"></trkpt><trkpt lat="54.0492537059" lon="21.1387458164"></trkpt><trkpt lat="54.0490694717" lon="21.1391583737"></trkpt><trkpt lat="54.0490926057" lon="21.1397252418"></trkpt><trkpt lat="54.0493906662" lon="21.141320318"></trkpt><trkpt lat="54.0501312912" lon="21.1441036966"></trkpt><trkpt lat="54.0503155254" lon="21.1454320606"></trkpt><trkpt lat="54.0503070597" lon="21.1462262459"></trkpt><trkpt lat="54.051045673" lon="21.1468366999"></trkpt><trkpt lat="54.0512620099" lon="21.1472628359"></trkpt><trkpt lat="54.0513935219" lon="21.147722248"></trkpt><trkpt lat="54.0516868886" lon="21.1477288697"></trkpt><trkpt lat="54.0524746198" lon="21.1473849602"></trkpt><trkpt lat="54.0528299287" lon="21.1481265072"></trkpt><trkpt lat="54.0531715751" lon="21.1494123749"></trkpt><trkpt lat="54.0534456633" lon="21.1502383277"></trkpt><trkpt lat="54.0537345037" lon="21.1505030282"></trkpt><trkpt lat="54.0538006369" lon="21.1510639451"></trkpt><trkpt lat="54.0536652692" lon="21.1517640017"></trkpt><trkpt lat="54.0531566553" lon="21.1524800677"></trkpt><trkpt lat="54.0521561913" lon="21.1536371056"></trkpt><trkpt lat="54.0518285427" lon="21.1537759099"></trkpt><trkpt lat="54.051570883" lon="21.1535063479"></trkpt><trkpt lat="54.0512962919" lon="21.1533294059"></trkpt><trkpt lat="54.0507564135" lon="21.1531488597"></trkpt><trkpt lat="54.0505462792" lon="21.1528129969"></trkpt><trkpt lat="54.0503753722" lon="21.1518269498"></trkpt><trkpt lat="54.0499213245" lon="21.1519937497"></trkpt><trkpt lat="54.0495066717" lon="21.1519147083"></trkpt><trkpt lat="54.0491019096" lon="21.1520826817"></trkpt><trkpt lat="54.0481889527" lon="21.1526732706"></trkpt><trkpt lat="54.0461245738" lon="21.1547105759"></trkpt><trkpt lat="54.0449238662" lon="21.1563615594"></trkpt><trkpt lat="54.0344638377" lon="21.1748447455"></trkpt><trkpt lat="54.0339960437" lon="21.1754802614"></trkpt><trkpt lat="54.0333853383" lon="21.1757887993"></trkpt><trkpt lat="54.0325997025" lon="21.1772319116"></trkpt><trkpt lat="54.032509597" lon="21.1777370889"></trkpt><trkpt lat="54.0255866479" lon="21.2057484873"></trkpt><trkpt lat="54.0250277426" lon="21.2060305383"></trkpt><trkpt lat="54.0247777104" lon="21.2062379904"></trkpt><trkpt lat="54.024546789" lon="21.2065051217"></trkpt><trkpt lat="54.0238424577" lon="21.2077912409"></trkpt><trkpt lat="54.0233945288" lon="21.2092760112"></trkpt><trkpt lat="54.0229316801" lon="21.2104441132"></trkpt><trkpt lat="54.0225368086" lon="21.2112419028"></trkpt><trkpt lat="54.0224118344" lon="21.2118251156"></trkpt><trkpt lat="54.0223608725" lon="21.2127912976"></trkpt><trkpt lat="54.022442596" lon="21.2132530566"></trkpt><trkpt lat="54.0226906165" lon="21.2136813719"></trkpt><trkpt lat="54.0234677028" lon="21.2144070771"></trkpt><trkpt lat="54.0287906304" lon="21.2205163948"></trkpt><trkpt lat="54.0295195207" lon="21.2220773567"></trkpt><trkpt lat="54.0430252813" lon="21.2458149064"></trkpt><trkpt lat="54.043921642" lon="21.2467235047"></trkpt><trkpt lat="54.044405194" lon="21.2473848369"></trkpt><trkpt lat="54.0445744246" lon="21.2478056084"></trkpt><trkpt lat="54.0452076774" lon="21.2499962188"></trkpt><trkpt lat="54.0458773915" lon="21.2518544029"></trkpt><trkpt lat="54.0462015197" lon="21.2521125656"></trkpt><trkpt lat="54.0465826448" lon="21.252183225"></trkpt><trkpt lat="54.0480117593" lon="21.2522069458"></trkpt><trkpt lat="54.0482883621" lon="21.2523226161"></trkpt><trkpt lat="54.049136024" lon="21.2530366704"></trkpt><trkpt lat="54.0499175526" lon="21.2545484304"></trkpt><trkpt lat="54.0573600121" lon="21.2660204899"></trkpt><trkpt lat="54.0582249407" lon="21.266784668"></trkpt><trkpt lat="54.0599837154" lon="21.2679172307"></trkpt><trkpt lat="54.062377587" lon="21.269964762"></trkpt><trkpt lat="54.0624014754" lon="21.2704354897"></trkpt><trkpt lat="54.0623180754" lon="21.2718965393"></trkpt><trkpt lat="54.0625351667" lon="21.2728796527"></trkpt><trkpt lat="54.0626949258" lon="21.2743624952"></trkpt><trkpt lat="54.0628437046" lon="21.2750808243"></trkpt><trkpt lat="54.063016288" lon="21.2754873466"></trkpt><trkpt lat="54.0632402524" lon="21.2758514564"></trkpt><trkpt lat="54.0637044422" lon="21.2768059876"></trkpt><trkpt lat="54.063799493" lon="21.2772743683"></trkpt><trkpt lat="54.0638253093" lon="21.2777916156"></trkpt><trkpt lat="54.0637740958" lon="21.2800490297"></trkpt><trkpt lat="54.0642279759" lon="21.2864227965"></trkpt><trkpt lat="54.0646045748" lon="21.2879412621"></trkpt><trkpt lat="54.066450689" lon="21.2935927603"></trkpt><trkpt lat="54.0671261027" lon="21.2951082923"></trkpt><trkpt lat="54.0716679208" lon="21.3084112108"></trkpt><trkpt lat="54.0717591159" lon="21.3089647517"></trkpt><trkpt lat="54.0720725153" lon="21.3121248968"></trkpt><trkpt lat="54.0720066335" lon="21.3146163337"></trkpt><trkpt lat="54.0711878054" lon="21.3232345227"></trkpt><trkpt lat="54.0710618254" lon="21.3237572182"></trkpt><trkpt lat="54.0710353386" lon="21.3242456317"></trkpt><trkpt lat="54.0711786691" lon="21.325914301"></trkpt><trkpt lat="54.0715949144" lon="21.328573795"></trkpt><trkpt lat="54.0725352801" lon="21.3297499437"></trkpt><trkpt lat="54.0762959048" lon="21.3360179309"></trkpt><trkpt lat="54.0765860025" lon="21.3373205625"></trkpt><trkpt lat="54.0767114796" lon="21.3384097908"></trkpt><trkpt lat="54.0766139142" lon="21.3401985727"></trkpt><trkpt lat="54.0764723439" lon="21.3414635696"></trkpt><trkpt lat="54.0762945637" lon="21.3482207246"></trkpt><trkpt lat="54.0769663732" lon="21.3496579695"></trkpt><trkpt lat="54.0811504517" lon="21.3608891331"></trkpt><trkpt lat="54.0805655625" lon="21.3620215282"></trkpt><trkpt lat="54.0777155478" lon="21.3686537929"></trkpt><trkpt lat="54.0748945344" lon="21.3740444463"></trkpt><trkpt lat="54.0746325161" lon="21.3739006128"></trkpt><trkpt lat="54.0749958716" lon="21.3741484657"></trkpt><trkpt lat="54.0752271283" lon="21.3743994199"></trkpt><trkpt lat="54.0751943551" lon="21.3749190979"></trkpt><trkpt lat="54.0744262375" lon="21.3747362886"></trkpt></trkseg></trk></gpx>