<?xml version="1.0" encoding="UTF-8" standalone="no" ?><gpx xmlns="http://www.topografix.com/GPX/1/1" xmlns:gpxx="http://www.garmin.com/xmlschemas/GpxExtensions/v3" ><trk><trkseg><trkpt lat="52.272284" lon="16.863551"></trkpt><trkpt lat="52.272021" lon="16.863437"></trkpt><trkpt lat="52.271984" lon="16.862988"></trkpt><trkpt lat="52.272093" lon="16.862582"></trkpt><trkpt lat="52.272146" lon="16.862135"></trkpt><trkpt lat="52.272174" lon="16.86169"></trkpt><trkpt lat="52.272269" lon="16.861263"></trkpt><trkpt lat="52.272412" lon="16.860767"></trkpt><trkpt lat="52.272717" lon="16.859412"></trkpt><trkpt lat="52.272861" lon="16.859037"></trkpt><trkpt lat="52.272991" lon="16.85862"></trkpt><trkpt lat="52.272903" lon="16.858196"></trkpt><trkpt lat="52.272994" lon="16.857778"></trkpt><trkpt lat="52.27306" lon="16.857346"></trkpt><trkpt lat="52.273122" lon="16.856673"></trkpt><trkpt lat="52.273193" lon="16.856236"></trkpt><trkpt lat="52.273282" lon="16.855383"></trkpt><trkpt lat="52.273457" lon="16.854329"></trkpt><trkpt lat="52.273188" lon="16.854222"></trkpt><trkpt lat="52.273035" lon="16.853853"></trkpt><trkpt lat="52.273134" lon="16.85344"></trkpt><trkpt lat="52.273192" lon="16.853001"></trkpt><trkpt lat="52.273298" lon="16.852591"></trkpt><trkpt lat="52.273443" lon="16.852209"></trkpt><trkpt lat="52.273585" lon="16.851743"></trkpt><trkpt lat="52.274885" lon="16.848279"></trkpt><trkpt lat="52.275012" lon="16.847857"></trkpt><trkpt lat="52.275201" lon="16.847495"></trkpt><trkpt lat="52.275397" lon="16.84719"></trkpt><trkpt lat="52.275621" lon="16.846938"></trkpt><trkpt lat="52.275874" lon="16.846738"></trkpt><trkpt lat="52.27615" lon="16.846465"></trkpt><trkpt lat="52.276298" lon="16.846092"></trkpt><trkpt lat="52.276447" lon="16.845624"></trkpt><trkpt lat="52.27638" lon="16.845188"></trkpt><trkpt lat="52.276362" lon="16.84473"></trkpt><trkpt lat="52.276264" lon="16.844318"></trkpt><trkpt lat="52.276275" lon="16.843866"></trkpt><trkpt lat="52.276099" lon="16.843525"></trkpt><trkpt lat="52.275967" lon="16.843133"></trkpt><trkpt lat="52.276056" lon="16.842714"></trkpt><trkpt lat="52.276208" lon="16.842344"></trkpt><trkpt lat="52.276305" lon="16.841932"></trkpt><trkpt lat="52.276419" lon="16.84126"></trkpt><trkpt lat="52.276429" lon="16.840817"></trkpt><trkpt lat="52.276494" lon="16.840387"></trkpt><trkpt lat="52.276413" lon="16.839964"></trkpt><trkpt lat="52.27652" lon="16.839546"></trkpt><trkpt lat="52.276584" lon="16.839113"></trkpt><trkpt lat="52.276759" lon="16.837214"></trkpt><trkpt lat="52.276923" lon="16.836847"></trkpt><trkpt lat="52.27702" lon="16.836421"></trkpt><trkpt lat="52.277187" lon="16.836056"></trkpt><trkpt lat="52.277387" lon="16.835757"></trkpt><trkpt lat="52.277552" lon="16.835386"></trkpt><trkpt lat="52.27782" lon="16.834657"></trkpt><trkpt lat="52.278005" lon="16.834242"></trkpt><trkpt lat="52.278235" lon="16.833611"></trkpt><trkpt lat="52.278256" lon="16.83317"></trkpt><trkpt lat="52.278235" lon="16.832726"></trkpt><trkpt lat="52.278246" lon="16.831103"></trkpt><trkpt lat="52.2782" lon="16.83012"></trkpt><trkpt lat="52.277955" lon="16.829934"></trkpt><trkpt lat="52.277681" lon="16.829953"></trkpt><trkpt lat="52.27437" lon="16.829232"></trkpt><trkpt lat="52.274529" lon="16.828869"></trkpt><trkpt lat="52.274598" lon="16.82844"></trkpt><trkpt lat="52.274647" lon="16.827972"></trkpt><trkpt lat="52.274785" lon="16.827163"></trkpt><trkpt lat="52.274918" lon="16.825976"></trkpt><trkpt lat="52.275561" lon="16.822222"></trkpt><trkpt lat="52.275831" lon="16.822245"></trkpt><trkpt lat="52.276102" lon="16.82232"></trkpt><trkpt lat="52.276352" lon="16.822117"></trkpt><trkpt lat="52.276618" lon="16.822024"></trkpt><trkpt lat="52.277118" lon="16.821923"></trkpt><trkpt lat="52.277378" lon="16.822051"></trkpt><trkpt lat="52.277657" lon="16.822104"></trkpt><trkpt lat="52.277935" lon="16.822107"></trkpt><trkpt lat="52.278176" lon="16.822342"></trkpt><trkpt lat="52.278204" lon="16.822787"></trkpt><trkpt lat="52.278206" lon="16.823232"></trkpt><trkpt lat="52.278236" lon="16.82373"></trkpt><trkpt lat="52.278326" lon="16.824162"></trkpt><trkpt lat="52.278359" lon="16.824603"></trkpt><trkpt lat="52.278311" lon="16.825042"></trkpt><trkpt lat="52.278177" lon="16.825788"></trkpt><trkpt lat="52.277896" lon="16.825778"></trkpt><trkpt lat="52.27816" lon="16.825875"></trkpt><trkpt lat="52.278257" lon="16.826296"></trkpt><trkpt lat="52.278268" lon="16.826748"></trkpt><trkpt lat="52.278584" lon="16.830711"></trkpt><trkpt lat="52.278864" lon="16.83073"></trkpt><trkpt lat="52.281903" lon="16.831388"></trkpt><trkpt lat="52.282005" lon="16.831797"></trkpt><trkpt lat="52.281967" lon="16.832247"></trkpt><trkpt lat="52.281968" lon="16.832695"></trkpt><trkpt lat="52.281739" lon="16.837059"></trkpt><trkpt lat="52.281583" lon="16.83743"></trkpt><trkpt lat="52.281406" lon="16.837777"></trkpt><trkpt lat="52.281215" lon="16.838091"></trkpt><trkpt lat="52.280574" lon="16.839357"></trkpt><trkpt lat="52.279927" lon="16.840891"></trkpt><trkpt lat="52.279584" lon="16.841568"></trkpt><trkpt lat="52.279257" lon="16.842104"></trkpt><trkpt lat="52.279116" lon="16.842481"></trkpt><trkpt lat="52.279022" lon="16.842917"></trkpt><trkpt lat="52.278901" lon="16.843322"></trkpt><trkpt lat="52.278657" lon="16.843983"></trkpt><trkpt lat="52.278552" lon="16.844404"></trkpt><trkpt lat="52.278672" lon="16.844812"></trkpt><trkpt lat="52.278723" lon="16.845246"></trkpt><trkpt lat="52.278893" lon="16.845599"></trkpt><trkpt lat="52.279079" lon="16.845919"></trkpt><trkpt lat="52.279289" lon="16.846219"></trkpt><trkpt lat="52.279433" lon="16.846613"></trkpt><trkpt lat="52.279616" lon="16.846959"></trkpt><trkpt lat="52.279869" lon="16.84736"></trkpt><trkpt lat="52.27998" lon="16.847772"></trkpt><trkpt lat="52.280125" lon="16.848148"></trkpt><trkpt lat="52.280379" lon="16.848352"></trkpt><trkpt lat="52.280432" lon="16.848803"></trkpt><trkpt lat="52.279032" lon="16.853325"></trkpt><trkpt lat="52.278652" lon="16.8539"></trkpt><trkpt lat="52.278562" lon="16.854643"></trkpt><trkpt lat="52.277064" lon="16.860111"></trkpt><trkpt lat="52.276803" lon="16.859963"></trkpt><trkpt lat="52.276435" lon="16.859645"></trkpt><trkpt lat="52.276158" lon="16.859643"></trkpt><trkpt lat="52.27589" lon="16.859578"></trkpt><trkpt lat="52.271997" lon="16.863287"></trkpt></trkseg></trk></gpx>