<?xml version="1.0" encoding="UTF-8" standalone="no" ?><gpx xmlns="http://www.topografix.com/GPX/1/1" xmlns:gpxx="http://www.garmin.com/xmlschemas/GpxExtensions/v3" ><trk><trkseg><trkpt lat="50.6083857268" lon="17.0339719299"></trkpt><trkpt lat="50.6058121473" lon="17.0333613083"></trkpt><trkpt lat="50.6059718225" lon="17.0328915864"></trkpt><trkpt lat="50.6060676277" lon="17.0323894266"></trkpt><trkpt lat="50.6061726529" lon="17.0319801383"></trkpt><trkpt lat="50.6073454488" lon="17.0286358427"></trkpt><trkpt lat="50.6075264141" lon="17.0282396302"></trkpt><trkpt lat="50.6074311119" lon="17.0278241392"></trkpt><trkpt lat="50.6072163675" lon="17.0275446866"></trkpt><trkpt lat="50.6069706101" lon="17.0272949059"></trkpt><trkpt lat="50.6067565363" lon="17.0270291157"></trkpt><trkpt lat="50.6065823603" lon="17.0266782492"></trkpt><trkpt lat="50.6064128783" lon="17.026129486"></trkpt><trkpt lat="50.6063390337" lon="17.0256041083"></trkpt><trkpt lat="50.606246246" lon="17.025192976"></trkpt><trkpt lat="50.6058272347" lon="17.0226084162"></trkpt><trkpt lat="50.6058357004" lon="17.022130983"></trkpt><trkpt lat="50.6059605908" lon="17.0215764362"></trkpt><trkpt lat="50.6062493473" lon="17.019698387"></trkpt><trkpt lat="50.6062109582" lon="17.0191997476"></trkpt><trkpt lat="50.6062640995" lon="17.0185157005"></trkpt><trkpt lat="50.6064158957" lon="17.0181529317"></trkpt><trkpt lat="50.6066528521" lon="17.0178950205"></trkpt><trkpt lat="50.6068006251" lon="17.0173869934"></trkpt><trkpt lat="50.6068270281" lon="17.0169231389"></trkpt><trkpt lat="50.6068095937" lon="17.0142834261"></trkpt><trkpt lat="50.6066374294" lon="17.0138956793"></trkpt><trkpt lat="50.606429223" lon="17.0135396998"></trkpt><trkpt lat="50.6062222738" lon="17.0132611692"></trkpt><trkpt lat="50.6061029155" lon="17.0128361229"></trkpt><trkpt lat="50.6059443299" lon="17.0124777965"></trkpt><trkpt lat="50.6057428289" lon="17.012164481"></trkpt><trkpt lat="50.6059496943" lon="17.0124772936"></trkpt><trkpt lat="50.6061764248" lon="17.0129015017"></trkpt><trkpt lat="50.6063101999" lon="17.0132863149"></trkpt><trkpt lat="50.6066021416" lon="17.013809178"></trkpt><trkpt lat="50.6067925785" lon="17.0142227411"></trkpt><trkpt lat="50.6070629787" lon="17.0146471169"></trkpt><trkpt lat="50.6070198957" lon="17.015078282"></trkpt><trkpt lat="50.6069287006" lon="17.0155960321"></trkpt><trkpt lat="50.6069073267" lon="17.0161086693"></trkpt><trkpt lat="50.6067381799" lon="17.0178295579"></trkpt><trkpt lat="50.6064411253" lon="17.0181853697"></trkpt><trkpt lat="50.6062871497" lon="17.0185866952"></trkpt><trkpt lat="50.6062524486" lon="17.0190814789"></trkpt><trkpt lat="50.6062947772" lon="17.0195076987"></trkpt><trkpt lat="50.6063170731" lon="17.0201923326"></trkpt><trkpt lat="50.6062122993" lon="17.0207177103"></trkpt><trkpt lat="50.6059101317" lon="17.0230436046"></trkpt><trkpt lat="50.6060050987" lon="17.0236985665"></trkpt><trkpt lat="50.6065461505" lon="17.0263372734"></trkpt><trkpt lat="50.6067189854" lon="17.0267807599"></trkpt><trkpt lat="50.6069620606" lon="17.0271610469"></trkpt><trkpt lat="50.6072981749" lon="17.0275450218"></trkpt><trkpt lat="50.6076337863" lon="17.0280596707"></trkpt><trkpt lat="50.6078037713" lon="17.0284122974"></trkpt><trkpt lat="50.6075058784" lon="17.0286029018"></trkpt><trkpt lat="50.6071533356" lon="17.0289294608"></trkpt><trkpt lat="50.6069488171" lon="17.029222073"></trkpt><trkpt lat="50.6067553628" lon="17.0297164377"></trkpt><trkpt lat="50.6066250242" lon="17.0302636083"></trkpt><trkpt lat="50.6052963249" lon="17.034391528"></trkpt><trkpt lat="50.6049814168" lon="17.0347335096"></trkpt><trkpt lat="50.6033523101" lon="17.0368886646"></trkpt><trkpt lat="50.6031405833" lon="17.037270125"></trkpt><trkpt lat="50.6029110029" lon="17.0375815965"></trkpt><trkpt lat="50.6027068198" lon="17.038018126"></trkpt><trkpt lat="50.6021855492" lon="17.0389195159"></trkpt><trkpt lat="50.6019722298" lon="17.0391932689"></trkpt><trkpt lat="50.6017160788" lon="17.0396270324"></trkpt><trkpt lat="50.6014326867" lon="17.0399386715"></trkpt><trkpt lat="50.601211153" lon="17.0404107403"></trkpt><trkpt lat="50.6006878708" lon="17.0412200131"></trkpt><trkpt lat="50.6004513334" lon="17.0410091244"></trkpt><trkpt lat="50.6007996015" lon="17.0407987386"></trkpt><trkpt lat="50.6011400744" lon="17.0407065377"></trkpt><trkpt lat="50.6011797208" lon="17.0402700081"></trkpt><trkpt lat="50.6014328543" lon="17.0399584528"></trkpt><trkpt lat="50.601736363" lon="17.0396571234"></trkpt><trkpt lat="50.6019034144" lon="17.0392148942"></trkpt><trkpt lat="50.602112459" lon="17.0388637763"></trkpt><trkpt lat="50.6023155525" lon="17.0383865107"></trkpt><trkpt lat="50.6026282813" lon="17.0379771385"></trkpt><trkpt lat="50.6028256752" lon="17.0376056526"></trkpt><trkpt lat="50.6030664034" lon="17.0373946801"></trkpt><trkpt lat="50.6032334547" lon="17.0370185841"></trkpt><trkpt lat="50.6035696529" lon="17.0364023466"></trkpt><trkpt lat="50.6038212776" lon="17.0361283422"></trkpt><trkpt lat="50.6040537078" lon="17.035813434"></trkpt><trkpt lat="50.6043443084" lon="17.0354853664"></trkpt><trkpt lat="50.6058360357" lon="17.0341110695"></trkpt><trkpt lat="50.6061553862" lon="17.0340735186"></trkpt><trkpt lat="50.6064719707" lon="17.0339680742"></trkpt><trkpt lat="50.6067591347" lon="17.0341059566"></trkpt><trkpt lat="50.6070923153" lon="17.0340910368"></trkpt><trkpt lat="50.6073925551" lon="17.0340055414"></trkpt><trkpt lat="50.6085675303" lon="17.0339460298"></trkpt></trkseg></trk></gpx>