<?xml version="1.0" encoding="UTF-8" standalone="no" ?><gpx xmlns="http://www.topografix.com/GPX/1/1" xmlns:gpxx="http://www.garmin.com/xmlschemas/GpxExtensions/v3" ><trk><trkseg><trkpt lat="51.2764367368" lon="17.0940693375"></trkpt><trkpt lat="51.2766283471" lon="17.0936703589"></trkpt><trkpt lat="51.2767078076" lon="17.0930290595"></trkpt><trkpt lat="51.2768213823" lon="17.0924583357"></trkpt><trkpt lat="51.2770231348" lon="17.0919143502"></trkpt><trkpt lat="51.2800000515" lon="17.0853251684"></trkpt><trkpt lat="51.2803511694" lon="17.0851986855"></trkpt><trkpt lat="51.280739503" lon="17.0851769764"></trkpt><trkpt lat="51.2812626176" lon="17.0850567799"></trkpt><trkpt lat="51.2815321796" lon="17.0849216636"></trkpt><trkpt lat="51.2822945975" lon="17.0844048355"></trkpt><trkpt lat="51.2827189732" lon="17.084231833"></trkpt><trkpt lat="51.2830900401" lon="17.0842088666"></trkpt><trkpt lat="51.2837084569" lon="17.084069727"></trkpt><trkpt lat="51.284344811" lon="17.0838187728"></trkpt><trkpt lat="51.2848262675" lon="17.0837125741"></trkpt><trkpt lat="51.2851276807" lon="17.0838315971"></trkpt><trkpt lat="51.2853771262" lon="17.0836337004"></trkpt><trkpt lat="51.2857099716" lon="17.0835886057"></trkpt><trkpt lat="51.2859369535" lon="17.0830809139"></trkpt><trkpt lat="51.286256304" lon="17.0829390083"></trkpt><trkpt lat="51.2875247374" lon="17.0832470432"></trkpt><trkpt lat="51.2878678087" lon="17.0830184687"></trkpt><trkpt lat="51.2879954651" lon="17.082574144"></trkpt><trkpt lat="51.2880351953" lon="17.0821341779"></trkpt><trkpt lat="51.2882769294" lon="17.0816743467"></trkpt><trkpt lat="51.2889360823" lon="17.0806516707"></trkpt><trkpt lat="51.2892712746" lon="17.080545472"></trkpt><trkpt lat="51.2896478735" lon="17.0807663351"></trkpt><trkpt lat="51.289962111" lon="17.0810238272"></trkpt><trkpt lat="51.2899595127" lon="17.0815874264"></trkpt><trkpt lat="51.2900212873" lon="17.0822843816"></trkpt><trkpt lat="51.2900278252" lon="17.0827746391"></trkpt><trkpt lat="51.2901142426" lon="17.0833177865"></trkpt><trkpt lat="51.2902124785" lon="17.0837211236"></trkpt><trkpt lat="51.2900548149" lon="17.0842627622"></trkpt><trkpt lat="51.2899554893" lon="17.0847579651"></trkpt><trkpt lat="51.2903494388" lon="17.0849787444"></trkpt><trkpt lat="51.2907194998" lon="17.0852592867"></trkpt><trkpt lat="51.2909485772" lon="17.0856693294"></trkpt><trkpt lat="51.2911715358" lon="17.0859897695"></trkpt><trkpt lat="51.291547548" lon="17.0863422286"></trkpt><trkpt lat="51.2918632943" lon="17.0865423046"></trkpt><trkpt lat="51.2925474253" lon="17.0868591405"></trkpt><trkpt lat="51.2929599825" lon="17.0871478133"></trkpt><trkpt lat="51.293467842" lon="17.087625498"></trkpt><trkpt lat="51.2936798204" lon="17.0880348701"></trkpt><trkpt lat="51.2939850055" lon="17.0883538015"></trkpt><trkpt lat="51.2943893485" lon="17.0886200108"></trkpt><trkpt lat="51.2953072507" lon="17.0890451409"></trkpt><trkpt lat="51.2956266012" lon="17.0890921634"></trkpt><trkpt lat="51.2960125878" lon="17.0890946779"></trkpt><trkpt lat="51.2963828165" lon="17.0890291315"></trkpt><trkpt lat="51.2967393827" lon="17.0890329033"></trkpt><trkpt lat="51.2970661093" lon="17.0890970249"></trkpt><trkpt lat="51.2975049019" lon="17.0893839374"></trkpt><trkpt lat="51.2977858633" lon="17.0896660723"></trkpt><trkpt lat="51.2980830856" lon="17.0895895455"></trkpt><trkpt lat="51.298202863" lon="17.0891692769"></trkpt><trkpt lat="51.2982376479" lon="17.0886432286"></trkpt><trkpt lat="51.2983119115" lon="17.0881724171"></trkpt><trkpt lat="51.2984113209" lon="17.0877539087"></trkpt><trkpt lat="51.2987369578" lon="17.0858918689"></trkpt><trkpt lat="51.2988896761" lon="17.0854061376"></trkpt><trkpt lat="51.3003334589" lon="17.0818160009"></trkpt><trkpt lat="51.300580306" lon="17.0822035801"></trkpt><trkpt lat="51.3009491935" lon="17.0824197493"></trkpt><trkpt lat="51.3008814678" lon="17.0819415618"></trkpt><trkpt lat="51.3007321861" lon="17.0812843367"></trkpt><trkpt lat="51.3006125763" lon="17.0808943268"></trkpt><trkpt lat="51.3005222194" lon="17.0804080088"></trkpt><trkpt lat="51.3003699202" lon="17.0798087027"></trkpt><trkpt lat="51.299860971" lon="17.0770839136"></trkpt><trkpt lat="51.3001201395" lon="17.0768666547"></trkpt><trkpt lat="51.3005765341" lon="17.0766370744"></trkpt><trkpt lat="51.3010284025" lon="17.0765109267"></trkpt><trkpt lat="51.3036429696" lon="17.0753348619"></trkpt><trkpt lat="51.3039344084" lon="17.0750568341"></trkpt><trkpt lat="51.3053969666" lon="17.0733048487"></trkpt><trkpt lat="51.305576507" lon="17.0728551596"></trkpt><trkpt lat="51.3057133835" lon="17.0723994356"></trkpt><trkpt lat="51.3060850371" lon="17.0714350976"></trkpt><trkpt lat="51.3062665891" lon="17.0710849017"></trkpt><trkpt lat="51.3065379113" lon="17.070652144"></trkpt><trkpt lat="51.3066607062" lon="17.0701162051"></trkpt><trkpt lat="51.30687939" lon="17.0695752371"></trkpt><trkpt lat="51.3070038613" lon="17.0686282497"></trkpt><trkpt lat="51.3072063681" lon="17.0675806794"></trkpt><trkpt lat="51.3074353617" lon="17.0670742448"></trkpt><trkpt lat="51.3074743375" lon="17.0665194467"></trkpt><trkpt lat="51.3076857291" lon="17.0660794806"></trkpt><trkpt lat="51.307955794" lon="17.0658159535"></trkpt><trkpt lat="51.3092922047" lon="17.0641823206"></trkpt><trkpt lat="51.3096600864" lon="17.0635704417"></trkpt><trkpt lat="51.3100762479" lon="17.0634260215"></trkpt><trkpt lat="51.3104232587" lon="17.0631348342"></trkpt><trkpt lat="51.3107559364" lon="17.0630671922"></trkpt><trkpt lat="51.3110798132" lon="17.0628184173"></trkpt><trkpt lat="51.3116061129" lon="17.0626387931"></trkpt><trkpt lat="51.3206459116" lon="17.0601490326"></trkpt><trkpt lat="51.3207221031" lon="17.0605753362"></trkpt></trkseg><trkseg><trkpt lat="51.3204843085" lon="17.0610023104"></trkpt><trkpt lat="51.3207260426" lon="17.0603481866"></trkpt><trkpt lat="51.3201224618" lon="17.0603536349"></trkpt><trkpt lat="51.3198176958" lon="17.06043276"></trkpt><trkpt lat="51.3109680824" lon="17.0631241053"></trkpt><trkpt lat="51.3104083389" lon="17.063193256"></trkpt><trkpt lat="51.3101986237" lon="17.0628623385"></trkpt><trkpt lat="51.3098704722" lon="17.0622155908"></trkpt><trkpt lat="51.3095486909" lon="17.0614488143"></trkpt><trkpt lat="51.3093990739" lon="17.0609445591"></trkpt><trkpt lat="51.3092977367" lon="17.0603775233"></trkpt><trkpt lat="51.3093975652" lon="17.059941832"></trkpt><trkpt lat="51.3092639577" lon="17.0594067313"></trkpt><trkpt lat="51.3090762869" lon="17.0590457227"></trkpt><trkpt lat="51.30879323" lon="17.0593080763"></trkpt><trkpt lat="51.3085621409" lon="17.0597634651"></trkpt><trkpt lat="51.3082921598" lon="17.0597627107"></trkpt><trkpt lat="51.3080801815" lon="17.059471691"></trkpt><trkpt lat="51.3077656925" lon="17.0588666014"></trkpt><trkpt lat="51.3075151574" lon="17.0585939381"></trkpt><trkpt lat="51.3073081244" lon="17.05829571"></trkpt><trkpt lat="51.3070897758" lon="17.0578687359"></trkpt><trkpt lat="51.3068591058" lon="17.0574998483"></trkpt><trkpt lat="51.3066374883" lon="17.0570038073"></trkpt><trkpt lat="51.3063845225" lon="17.0567986183"></trkpt><trkpt lat="51.3061718736" lon="17.0563721471"></trkpt><trkpt lat="51.3059083465" lon="17.055957159"></trkpt><trkpt lat="51.305836346" lon="17.0553678274"></trkpt><trkpt lat="51.3056789339" lon="17.0548428688"></trkpt><trkpt lat="51.3055850565" lon="17.0543800201"></trkpt><trkpt lat="51.3055060152" lon="17.0538257249"></trkpt><trkpt lat="51.305491263" lon="17.0531709306"></trkpt><trkpt lat="51.3055656105" lon="17.0526256878"></trkpt><trkpt lat="51.3055786863" lon="17.0519998949"></trkpt><trkpt lat="51.3056915067" lon="17.0505201537"></trkpt><trkpt lat="51.3056920096" lon="17.0499905013"></trkpt><trkpt lat="51.3056190033" lon="17.0492210425"></trkpt><trkpt lat="51.305614477" lon="17.0486757159"></trkpt><trkpt lat="51.3055604976" lon="17.0478643477"></trkpt><trkpt lat="51.3055701368" lon="17.0474300813"></trkpt><trkpt lat="51.3053201884" lon="17.0404005982"></trkpt><trkpt lat="51.3053888362" lon="17.0381049626"></trkpt><trkpt lat="51.3053170871" lon="17.037610095"></trkpt><trkpt lat="51.3052026741" lon="17.0362666436"></trkpt><trkpt lat="51.3051760197" lon="17.035103403"></trkpt><trkpt lat="51.3052429073" lon="17.0345557295"></trkpt><trkpt lat="51.3050947152" lon="17.0341428369"></trkpt><trkpt lat="51.3050600979" lon="17.0335859433"></trkpt><trkpt lat="51.3048141729" lon="17.0317666512"></trkpt><trkpt lat="51.3047769573" lon="17.0311380923"></trkpt><trkpt lat="51.3047818188" lon="17.027853895"></trkpt><trkpt lat="51.3047347963" lon="17.0272437762"></trkpt><trkpt lat="51.3045488019" lon="17.026074836"></trkpt><trkpt lat="51.3045783062" lon="17.025451893"></trkpt><trkpt lat="51.3045674097" lon="17.0250066463"></trkpt><trkpt lat="51.3045988418" lon="17.0244629122"></trkpt><trkpt lat="51.3045446947" lon="17.0232951455"></trkpt><trkpt lat="51.3046694174" lon="17.0227338932"></trkpt><trkpt lat="51.3047574274" lon="17.0220622513"></trkpt><trkpt lat="51.3047413342" lon="17.0215811301"></trkpt><trkpt lat="51.3047767058" lon="17.0210033655"></trkpt><trkpt lat="51.3047642168" lon="17.0204405207"></trkpt><trkpt lat="51.3046819065" lon="17.019508034"></trkpt><trkpt lat="51.3046998437" lon="17.0190210454"></trkpt><trkpt lat="51.3048064616" lon="17.0183304604"></trkpt><trkpt lat="51.3049165998" lon="17.0179309789"></trkpt><trkpt lat="51.3049680647" lon="17.0172274858"></trkpt><trkpt lat="51.3050559908" lon="17.0167564228"></trkpt><trkpt lat="51.3050972298" lon="17.0163154509"></trkpt><trkpt lat="51.305090189" lon="17.0157879777"></trkpt><trkpt lat="51.3051226269" lon="17.0152465068"></trkpt><trkpt lat="51.3051113114" lon="17.0139529277"></trkpt><trkpt lat="51.3051724993" lon="17.0144939795"></trkpt><trkpt lat="51.3051598426" lon="17.0150260627"></trkpt><trkpt lat="51.3052056916" lon="17.0163311251"></trkpt><trkpt lat="51.3054879941" lon="17.0162783191"></trkpt><trkpt lat="51.3058253657" lon="17.0162644051"></trkpt><trkpt lat="51.3082233444" lon="17.0157824457"></trkpt><trkpt lat="51.3082372583" lon="17.0152065251"></trkpt><trkpt lat="51.3083279505" lon="17.0147930458"></trkpt><trkpt lat="51.3082921598" lon="17.0141990203"></trkpt><trkpt lat="51.3083069958" lon="17.013579933"></trkpt><trkpt lat="51.3088845089" lon="17.0070475806"></trkpt><trkpt lat="51.3091709185" lon="17.0066800341"></trkpt><trkpt lat="51.3093028497" lon="17.0060880203"></trkpt><trkpt lat="51.3093014248" lon="17.0056085754"></trkpt><trkpt lat="51.309525473" lon="17.0020469371"></trkpt><trkpt lat="51.3096502796" lon="17.0016113296"></trkpt><trkpt lat="51.3097177539" lon="17.0011053141"></trkpt><trkpt lat="51.3106156234" lon="16.9965049066"></trkpt><trkpt lat="51.3106507435" lon="16.9959628489"></trkpt><trkpt lat="51.3106245082" lon="16.993880365"></trkpt><trkpt lat="51.3104343228" lon="16.9934132416"></trkpt><trkpt lat="51.3104277011" lon="16.9928225689"></trkpt><trkpt lat="51.3103931677" lon="16.9923299644"></trkpt><trkpt lat="51.3105104305" lon="16.9917474221"></trkpt><trkpt lat="51.3107101712" lon="16.9913118985"></trkpt><trkpt lat="51.3109568506" lon="16.9910540711"></trkpt><trkpt lat="51.311762603" lon="16.9900356699"></trkpt><trkpt lat="51.3120265491" lon="16.98962152"></trkpt><trkpt lat="51.3121805247" lon="16.9892336056"></trkpt><trkpt lat="51.3123087678" lon="16.988829514"></trkpt><trkpt lat="51.3124991208" lon="16.9884294458"></trkpt><trkpt lat="51.3127978519" lon="16.9874064345"></trkpt><trkpt lat="51.3125788327" lon="16.9871106371"></trkpt><trkpt lat="51.3123558741" lon="16.986675784"></trkpt><trkpt lat="51.3124947622" lon="16.9862720277"></trkpt><trkpt lat="51.3126776554" lon="16.9859081693"></trkpt><trkpt lat="51.3128935732" lon="16.9855615776"></trkpt><trkpt lat="51.3130768016" lon="16.985002337"></trkpt><trkpt lat="51.3133301865" lon="16.9843836688"></trkpt><trkpt lat="51.3135448471" lon="16.9839862827"></trkpt><trkpt lat="51.3137738407" lon="16.9834684487"></trkpt><trkpt lat="51.313529592" lon="16.9831724837"></trkpt><trkpt lat="51.3133124169" lon="16.9828486908"></trkpt><trkpt lat="51.313270675" lon="16.9824035279"></trkpt><trkpt lat="51.3133560866" lon="16.9819765538"></trkpt><trkpt lat="51.3133924641" lon="16.9815173093"></trkpt><trkpt lat="51.313371677" lon="16.9808825478"></trkpt><trkpt lat="51.3132849243" lon="16.9804006722"></trkpt><trkpt lat="51.3131605368" lon="16.9798947405"></trkpt><trkpt lat="51.3130743708" lon="16.9793759007"></trkpt><trkpt lat="51.3123997953" lon="16.9765140675"></trkpt><trkpt lat="51.3127784897" lon="16.9764143229"></trkpt><trkpt lat="51.3130940683" lon="16.9762689807"></trkpt><trkpt lat="51.3151079044" lon="16.9756457862"></trkpt><trkpt lat="51.3149932399" lon="16.9752417784"></trkpt><trkpt lat="51.3148017973" lon="16.9747419655"></trkpt><trkpt lat="51.31461991" lon="16.9740927871"></trkpt><trkpt lat="51.314556459" lon="16.9735943992"></trkpt><trkpt lat="51.3145674393" lon="16.9731176365"></trkpt><trkpt lat="51.3146214187" lon="16.972668618"></trkpt><trkpt lat="51.3148446288" lon="16.9716383982"></trkpt><trkpt lat="51.3149917312" lon="16.9711844344"></trkpt><trkpt lat="51.3151157834" lon="16.9706557039"></trkpt><trkpt lat="51.3154114969" lon="16.9685373455"></trkpt><trkpt lat="51.3151822519" lon="16.9681331702"></trkpt><trkpt lat="51.3147853687" lon="16.9671384897"></trkpt><trkpt lat="51.3148079999" lon="16.9665882178"></trkpt><trkpt lat="51.3149340637" lon="16.965454733"></trkpt><trkpt lat="51.315077059" lon="16.9649718516"></trkpt><trkpt lat="51.3150985166" lon="16.9643400237"></trkpt><trkpt lat="51.3152621314" lon="16.9637486804"></trkpt><trkpt lat="51.3156597689" lon="16.9618246146"></trkpt><trkpt lat="51.3157954719" lon="16.9606855977"></trkpt><trkpt lat="51.3157816418" lon="16.9600357488"></trkpt><trkpt lat="51.3156224694" lon="16.9594333414"></trkpt><trkpt lat="51.3155913725" lon="16.9589928724"></trkpt><trkpt lat="51.3156368863" lon="16.9584510662"></trkpt><trkpt lat="51.3157798816" lon="16.9578728825"></trkpt><trkpt lat="51.3159453403" lon="16.9574382808"></trkpt><trkpt lat="51.3162733242" lon="16.9570196047"></trkpt><trkpt lat="51.3164555468" lon="16.9564790558"></trkpt><trkpt lat="51.3166191615" lon="16.9558521733"></trkpt><trkpt lat="51.3169510849" lon="16.9557226729"></trkpt><trkpt lat="51.3167633303" lon="16.9552516937"></trkpt><trkpt lat="51.3166349195" lon="16.9547262322"></trkpt><trkpt lat="51.3168714568" lon="16.9542271737"></trkpt><trkpt lat="51.3168476522" lon="16.9536494091"></trkpt><trkpt lat="51.3167928346" lon="16.9531666115"></trkpt><trkpt lat="51.3166541141" lon="16.9523682352"></trkpt><trkpt lat="51.3164500147" lon="16.9519340526"></trkpt><trkpt lat="51.316522602" lon="16.9515157957"></trkpt><trkpt lat="51.3166831993" lon="16.9511192478"></trkpt><trkpt lat="51.3167316467" lon="16.9504678063"></trkpt><trkpt lat="51.3168402761" lon="16.9496379979"></trkpt><trkpt lat="51.3170100097" lon="16.9491324015"></trkpt><trkpt lat="51.3173097465" lon="16.9484482706"></trkpt><trkpt lat="51.3174607884" lon="16.9478313625"></trkpt><trkpt lat="51.3176150993" lon="16.9474169612"></trkpt><trkpt lat="51.317771757" lon="16.9468920026"></trkpt><trkpt lat="51.3179645408" lon="16.946382802"></trkpt><trkpt lat="51.3182365336" lon="16.9459169358"></trkpt><trkpt lat="51.3182916865" lon="16.9454225712"></trkpt><trkpt lat="51.3184040878" lon="16.9449749775"></trkpt><trkpt lat="51.3185944408" lon="16.944454629"></trkpt><trkpt lat="51.3192096725" lon="16.9421701413"></trkpt><trkpt lat="51.3189076725" lon="16.9419807103"></trkpt><trkpt lat="51.3186222687" lon="16.9417310134"></trkpt><trkpt lat="51.3182184286" lon="16.9415082224"></trkpt><trkpt lat="51.3140365295" lon="16.9398381282"></trkpt><trkpt lat="51.3137478568" lon="16.9396738429"></trkpt><trkpt lat="51.3135149237" lon="16.9393732678"></trkpt><trkpt lat="51.3132078946" lon="16.9388682581"></trkpt><trkpt lat="51.3128297031" lon="16.9383749831"></trkpt><trkpt lat="51.3125623204" lon="16.9381637592"></trkpt><trkpt lat="51.312300805" lon="16.9379038364"></trkpt><trkpt lat="51.3119123876" lon="16.9379257131"></trkpt><trkpt lat="51.3104867935" lon="16.9382174872"></trkpt><trkpt lat="51.3099659421" lon="16.9382174872"></trkpt><trkpt lat="51.309579704" lon="16.9380648527"></trkpt><trkpt lat="51.307978509" lon="16.9376864936"></trkpt><trkpt lat="51.3068505563" lon="16.9372447673"></trkpt><trkpt lat="51.3066716865" lon="16.9369152747"></trkpt><trkpt lat="51.3064843509" lon="16.9364954252"></trkpt><trkpt lat="51.3061409444" lon="16.9358575623"></trkpt><trkpt lat="51.3057780918" lon="16.9355748408"></trkpt><trkpt lat="51.3054205198" lon="16.9355609268"></trkpt><trkpt lat="51.3050386403" lon="16.9354906864"></trkpt><trkpt lat="51.3046817388" lon="16.9352855813"></trkpt><trkpt lat="51.304359287" lon="16.9350215513"></trkpt><trkpt lat="51.3041148707" lon="16.934763724"></trkpt><trkpt lat="51.30366778" lon="16.9341892283"></trkpt><trkpt lat="51.3026868459" lon="16.9333327655"></trkpt><trkpt lat="51.3026844151" lon="16.9328995049"></trkpt><trkpt lat="51.3026317768" lon="16.9323146995"></trkpt><trkpt lat="51.3026113249" lon="16.9317122083"></trkpt><trkpt lat="51.3022562675" lon="16.9284013566"></trkpt><trkpt lat="51.3019251823" lon="16.9283014443"></trkpt><trkpt lat="51.2994655129" lon="16.9271914288"></trkpt><trkpt lat="51.2995030638" lon="16.9267472718"></trkpt><trkpt lat="51.2995583005" lon="16.9243991654"></trkpt><trkpt lat="51.2995240185" lon="16.9239386637"></trkpt><trkpt lat="51.299586799" lon="16.9233983662"></trkpt><trkpt lat="51.2996846996" lon="16.9229162391"></trkpt><trkpt lat="51.2998414412" lon="16.9225190207"></trkpt><trkpt lat="51.3000442833" lon="16.922152983"></trkpt><trkpt lat="51.3001816627" lon="16.9215660822"></trkpt><trkpt lat="51.3003384043" lon="16.9210497569"></trkpt><trkpt lat="51.3003767934" lon="16.920615742"></trkpt><trkpt lat="51.3005898613" lon="16.919171121"></trkpt><trkpt lat="51.3006129116" lon="16.9186841324"></trkpt><trkpt lat="51.3007125724" lon="16.9181844033"></trkpt><trkpt lat="51.3005800545" lon="16.9175776374"></trkpt><trkpt lat="51.3004503027" lon="16.9167599827"></trkpt><trkpt lat="51.3004596904" lon="16.9162460044"></trkpt><trkpt lat="51.3005427551" lon="16.9157921243"></trkpt><trkpt lat="51.3006658852" lon="16.9153913856"></trkpt><trkpt lat="51.3008847367" lon="16.9150451291"></trkpt><trkpt lat="51.3011493534" lon="16.9152803253"></trkpt><trkpt lat="51.301000407" lon="16.9148287084"></trkpt><trkpt lat="51.3007301744" lon="16.9147009682"></trkpt><trkpt lat="51.3008507062" lon="16.9142891653"></trkpt><trkpt lat="51.3006666396" lon="16.9138455112"></trkpt><trkpt lat="51.3004401606" lon="16.9134580158"></trkpt><trkpt lat="51.3003788888" lon="16.9130001124"></trkpt><trkpt lat="51.3002483826" lon="16.912463503"></trkpt><trkpt lat="51.3000396732" lon="16.9119496085"></trkpt><trkpt lat="51.2999644037" lon="16.9114607759"></trkpt><trkpt lat="51.2998107634" lon="16.910914192"></trkpt><trkpt lat="51.2991995551" lon="16.9080254529"></trkpt><trkpt lat="51.2994666025" lon="16.9075856544"></trkpt></trkseg></trk></gpx>