<?xml version="1.0" encoding="UTF-8" standalone="no" ?><gpx xmlns="http://www.topografix.com/GPX/1/1" xmlns:gpxx="http://www.garmin.com/xmlschemas/GpxExtensions/v3" ><trk><trkseg><trkpt lat="51.9286665693" lon="16.3678551279"></trkpt><trkpt lat="51.9289373048" lon="16.3677599095"></trkpt><trkpt lat="51.9295128901" lon="16.3680850435"></trkpt><trkpt lat="51.9298052508" lon="16.367623955"></trkpt><trkpt lat="51.9299453124" lon="16.3671852462"></trkpt><trkpt lat="51.9295121357" lon="16.3666517381"></trkpt><trkpt lat="51.9292131532" lon="16.3660801761"></trkpt><trkpt lat="51.9291325193" lon="16.3656064309"></trkpt><trkpt lat="51.929100249" lon="16.3649134152"></trkpt><trkpt lat="51.9288905337" lon="16.3643400092"></trkpt><trkpt lat="51.9284317084" lon="16.3637163956"></trkpt><trkpt lat="51.9274055958" lon="16.362034902"></trkpt><trkpt lat="51.9272319227" lon="16.3615553733"></trkpt><trkpt lat="51.9273027498" lon="16.361127561"></trkpt><trkpt lat="51.9274744112" lon="16.360697737"></trkpt><trkpt lat="51.9276024029" lon="16.3602440245"></trkpt><trkpt lat="51.9278165605" lon="16.3596489094"></trkpt><trkpt lat="51.9282955863" lon="16.3591375295"></trkpt><trkpt lat="51.9298258703" lon="16.3569763396"></trkpt><trkpt lat="51.9297609944" lon="16.3565021753"></trkpt><trkpt lat="51.9295254629" lon="16.3559338823"></trkpt><trkpt lat="51.9222738594" lon="16.3379180711"></trkpt><trkpt lat="51.9196260162" lon="16.329640355"></trkpt><trkpt lat="51.9195970986" lon="16.3284766115"></trkpt><trkpt lat="51.9193968549" lon="16.3272011373"></trkpt><trkpt lat="51.9190696254" lon="16.3261650503"></trkpt><trkpt lat="51.9185932819" lon="16.3252040651"></trkpt><trkpt lat="51.9160219654" lon="16.3189591281"></trkpt><trkpt lat="51.9157441892" lon="16.3178353664"></trkpt><trkpt lat="51.9143556431" lon="16.3134078775"></trkpt><trkpt lat="51.9139509648" lon="16.3125748839"></trkpt><trkpt lat="51.9133563526" lon="16.31064252"></trkpt><trkpt lat="51.9130624831" lon="16.3085484691"></trkpt><trkpt lat="51.9130367506" lon="16.3080717903"></trkpt><trkpt lat="51.9130743016" lon="16.3075854722"></trkpt><trkpt lat="51.9134173729" lon="16.3059137017"></trkpt><trkpt lat="51.9138140045" lon="16.2996670883"></trkpt><trkpt lat="51.9136076421" lon="16.2977887876"></trkpt><trkpt lat="51.9134529121" lon="16.29456494"></trkpt><trkpt lat="51.9135931414" lon="16.2811310124"></trkpt><trkpt lat="51.9137078058" lon="16.2797144707"></trkpt><trkpt lat="51.915244963" lon="16.2576097157"></trkpt><trkpt lat="51.9152478129" lon="16.2566400133"></trkpt><trkpt lat="51.9153531734" lon="16.2562216725"></trkpt><trkpt lat="51.9158775453" lon="16.2547311187"></trkpt><trkpt lat="51.9193459768" lon="16.2475974485"></trkpt><trkpt lat="51.9200244918" lon="16.2469341885"></trkpt><trkpt lat="51.920889169" lon="16.2455260288"></trkpt><trkpt lat="51.921991976" lon="16.2431801017"></trkpt><trkpt lat="51.9223798905" lon="16.2417442817"></trkpt><trkpt lat="51.9225093909" lon="16.2402424123"></trkpt><trkpt lat="51.9239070732" lon="16.2181033753"></trkpt><trkpt lat="51.9238629844" lon="16.216737628"></trkpt><trkpt lat="51.9239685964" lon="16.2121922057"></trkpt><trkpt lat="51.9245725963" lon="16.2118802313"></trkpt><trkpt lat="51.9251254667" lon="16.2107800227"></trkpt><trkpt lat="51.9254869781" lon="16.2097212207"></trkpt><trkpt lat="51.9258453883" lon="16.2082340196"></trkpt><trkpt lat="51.9260244258" lon="16.2077285908"></trkpt><trkpt lat="51.926789023" lon="16.2067707907"></trkpt><trkpt lat="51.9293647818" lon="16.2041400466"></trkpt><trkpt lat="51.9296133053" lon="16.204324197"></trkpt><trkpt lat="51.9326993544" lon="16.2072357349"></trkpt><trkpt lat="51.9327889569" lon="16.2077431753"></trkpt><trkpt lat="51.9328250829" lon="16.2084998935"></trkpt><trkpt lat="51.9327239972" lon="16.2091415282"></trkpt><trkpt lat="51.9324956741" lon="16.2100283336"></trkpt><trkpt lat="51.9326714426" lon="16.2104549725"></trkpt><trkpt lat="51.9331913721" lon="16.2110074237"></trkpt><trkpt lat="51.9334043562" lon="16.2113670912"></trkpt><trkpt lat="51.9335467648" lon="16.2118017767"></trkpt><trkpt lat="51.9342564605" lon="16.2131511793"></trkpt><trkpt lat="51.934572123" lon="16.2135547679"></trkpt><trkpt lat="51.9351337105" lon="16.2137514073"></trkpt><trkpt lat="51.9356153347" lon="16.2138085719"></trkpt><trkpt lat="51.9366842788" lon="16.2140968256"></trkpt><trkpt lat="51.9370497297" lon="16.2143906951"></trkpt><trkpt lat="51.9374275859" lon="16.214780286"></trkpt><trkpt lat="51.9377308432" lon="16.2152122054"></trkpt><trkpt lat="51.938174665" lon="16.2159668282"></trkpt><trkpt lat="51.9383433089" lon="16.2164238933"></trkpt><trkpt lat="51.9387349952" lon="16.2170406338"></trkpt><trkpt lat="51.9397008419" lon="16.2182925548"></trkpt><trkpt lat="51.9404298998" lon="16.2194852158"></trkpt><trkpt lat="51.9405679498" lon="16.2199095916"></trkpt><trkpt lat="51.9408450555" lon="16.2199421134"></trkpt><trkpt lat="51.9410116877" lon="16.2192983832"></trkpt><trkpt lat="51.9411757216" lon="16.2189271487"></trkpt><trkpt lat="51.9417779613" lon="16.2179315463"></trkpt><trkpt lat="51.9422661234" lon="16.2176682707"></trkpt><trkpt lat="51.9425357692" lon="16.2174189091"></trkpt><trkpt lat="51.9474591315" lon="16.2118123379"></trkpt><trkpt lat="51.9476049766" lon="16.2113002036"></trkpt><trkpt lat="51.9482094795" lon="16.2096731085"></trkpt><trkpt lat="51.9484946318" lon="16.2097445223"></trkpt><trkpt lat="51.9489944447" lon="16.2099805567"></trkpt><trkpt lat="51.9501995109" lon="16.2107968703"></trkpt><trkpt lat="51.9502125867" lon="16.2116839271"></trkpt><trkpt lat="51.9504654687" lon="16.2118843384"></trkpt><trkpt lat="51.9511653576" lon="16.211688621"></trkpt><trkpt lat="51.9524618704" lon="16.2115306221"></trkpt><trkpt lat="51.9525876828" lon="16.210806258"></trkpt><trkpt lat="51.9526835717" lon="16.2099525612"></trkpt><trkpt lat="51.952741826" lon="16.2088797614"></trkpt><trkpt lat="51.9521788135" lon="16.2089560367"></trkpt><trkpt lat="51.9515665155" lon="16.2087654322"></trkpt><trkpt lat="51.950661689" lon="16.2092720345"></trkpt><trkpt lat="51.9504701626" lon="16.2096794788"></trkpt><trkpt lat="51.9502922986" lon="16.2101609353"></trkpt><trkpt lat="51.9499612134" lon="16.2103085406"></trkpt><trkpt lat="51.9480633829" lon="16.2097784691"></trkpt><trkpt lat="51.9476822577" lon="16.2108781748"></trkpt><trkpt lat="51.9475328922" lon="16.2114652433"></trkpt><trkpt lat="51.947287051000004" lon="16.212215675"></trkpt><trkpt lat="51.9469496794" lon="16.2126391288"></trkpt><trkpt lat="51.9420892652" lon="16.2176785804"></trkpt><trkpt lat="51.9417797215" lon="16.2178585399"></trkpt><trkpt lat="51.9413227402" lon="16.2186135817"></trkpt><trkpt lat="51.9411445409" lon="16.219032174"></trkpt><trkpt lat="51.9409521762" lon="16.2198377587"></trkpt><trkpt lat="51.9405579753" lon="16.2198602222"></trkpt><trkpt lat="51.9402994774" lon="16.2190900091"></trkpt><trkpt lat="51.9400408957" lon="16.2186629511"></trkpt><trkpt lat="51.9396995008" lon="16.218244778"></trkpt><trkpt lat="51.9381159917" lon="16.2157530058"></trkpt><trkpt lat="51.936906483" lon="16.2142456044"></trkpt><trkpt lat="51.9366060756" lon="16.2140150182"></trkpt><trkpt lat="51.9361683726" lon="16.2139079813"></trkpt><trkpt lat="51.9343427941" lon="16.2131816056"></trkpt><trkpt lat="51.9340196718" lon="16.2127933558"></trkpt><trkpt lat="51.9336486887" lon="16.2119332887"></trkpt><trkpt lat="51.9334102236" lon="16.2112511694"></trkpt><trkpt lat="51.9332035258" lon="16.210941039"></trkpt><trkpt lat="51.9329446089" lon="16.2106688786"></trkpt><trkpt lat="51.9325396791" lon="16.2101057824"></trkpt><trkpt lat="51.9327973388" lon="16.2089429609"></trkpt><trkpt lat="51.9328473788" lon="16.2084049266"></trkpt><trkpt lat="51.9327876158" lon="16.2074832525"></trkpt><trkpt lat="51.9326492306" lon="16.2070685998"></trkpt><trkpt lat="51.9323758967" lon="16.2064704672"></trkpt><trkpt lat="51.9317242876" lon="16.2056920398"></trkpt><trkpt lat="51.9312678929" lon="16.2052409258"></trkpt><trkpt lat="51.9309123326" lon="16.2053484656"></trkpt><trkpt lat="51.9299627468" lon="16.2045917474"></trkpt><trkpt lat="51.9292015862" lon="16.2041557208"></trkpt><trkpt lat="51.9285550062" lon="16.2047753111"></trkpt><trkpt lat="51.9262641482" lon="16.2074545864"></trkpt><trkpt lat="51.9259822648" lon="16.2078866735"></trkpt><trkpt lat="51.9258364197" lon="16.2084061"></trkpt><trkpt lat="51.9245981611" lon="16.2119366415"></trkpt><trkpt lat="51.9245376438" lon="16.2123640347"></trkpt><trkpt lat="51.9246543199" lon="16.2136115972"></trkpt><trkpt lat="51.9253138918" lon="16.2173028197"></trkpt><trkpt lat="51.9254853856" lon="16.2177130301"></trkpt><trkpt lat="51.9257354178" lon="16.2180012837"></trkpt><trkpt lat="51.9261814188" lon="16.2183806486"></trkpt><trkpt lat="51.9263599534" lon="16.2188865803"></trkpt><trkpt lat="51.9264339656" lon="16.2194112036"></trkpt><trkpt lat="51.9268632866" lon="16.2198052369"></trkpt><trkpt lat="51.9278650917" lon="16.2209303398"></trkpt><trkpt lat="51.9280833565" lon="16.2214866467"></trkpt><trkpt lat="51.9283641502" lon="16.2224871945"></trkpt><trkpt lat="51.9285682496" lon="16.2228909507"></trkpt><trkpt lat="51.9288215507" lon="16.2235733215"></trkpt><trkpt lat="51.9289461058" lon="16.2243366614"></trkpt><trkpt lat="51.9291140791" lon="16.2259661034"></trkpt><trkpt lat="51.9290805515" lon="16.2268390786"></trkpt><trkpt lat="51.9290143345" lon="16.2274709903"></trkpt><trkpt lat="51.9287554175" lon="16.2286655791"></trkpt><trkpt lat="51.9281245954" lon="16.2328075804"></trkpt><trkpt lat="51.9281633198" lon="16.2337672245"></trkpt><trkpt lat="51.928376304" lon="16.2348959316"></trkpt><trkpt lat="51.9283815008" lon="16.2353715207"></trkpt><trkpt lat="51.9281276129" lon="16.2364982162"></trkpt><trkpt lat="51.9270854071" lon="16.2464979105"></trkpt><trkpt lat="51.9275151473" lon="16.2475859653"></trkpt><trkpt lat="51.928014541" lon="16.2493079435"></trkpt><trkpt lat="51.9306403399" lon="16.256465083"></trkpt><trkpt lat="51.9309263304" lon="16.257088026"></trkpt><trkpt lat="51.931198407" lon="16.2567410991"></trkpt><trkpt lat="51.9317108765" lon="16.2562118657"></trkpt><trkpt lat="51.9321925845" lon="16.2565407716"></trkpt><trkpt lat="51.932699522" lon="16.2573753577"></trkpt><trkpt lat="51.9348518271" lon="16.2601392064"></trkpt><trkpt lat="51.9352746103" lon="16.2604117021"></trkpt><trkpt lat="51.93554895" lon="16.2605158892"></trkpt><trkpt lat="51.9360652752" lon="16.2605362572"></trkpt><trkpt lat="51.9366443809" lon="16.2602563854"></trkpt><trkpt lat="51.936979657" lon="16.260035187"></trkpt><trkpt lat="51.9391492289" lon="16.2592634652"></trkpt><trkpt lat="51.939338157" lon="16.2596625276"></trkpt><trkpt lat="51.939502107" lon="16.2605282944"></trkpt><trkpt lat="51.9396430068" lon="16.2609292008"></trkpt><trkpt lat="51.939866133" lon="16.2606389355"></trkpt><trkpt lat="51.939668823" lon="16.26094345"></trkpt><trkpt lat="51.9397108164" lon="16.261572009000002"></trkpt><trkpt lat="51.9396365527" lon="16.2625462376"></trkpt><trkpt lat="51.9394257478" lon="16.2792455032"></trkpt><trkpt lat="51.9394811522" lon="16.279703239"></trkpt><trkpt lat="51.9394488819" lon="16.2803442031"></trkpt><trkpt lat="51.939132465" lon="16.283194134"></trkpt><trkpt lat="51.9389838539" lon="16.2839573063"></trkpt><trkpt lat="51.9389426149" lon="16.2844008766"></trkpt><trkpt lat="51.9380308315" lon="16.2903858908"></trkpt><trkpt lat="51.9376764446" lon="16.2909259368"></trkpt><trkpt lat="51.9373514783" lon="16.2912663259"></trkpt><trkpt lat="51.9371000212" lon="16.2916788831"></trkpt><trkpt lat="51.936624432" lon="16.2923326716"></trkpt><trkpt lat="51.936676316" lon="16.292777583"></trkpt><trkpt lat="51.9369632285" lon="16.2933665793"></trkpt><trkpt lat="51.9397173543" lon="16.2980109919"></trkpt><trkpt lat="51.9402016606" lon="16.2983749341"></trkpt><trkpt lat="51.9402782712" lon="16.2989718933"></trkpt><trkpt lat="51.9402012415" lon="16.2998686731"></trkpt><trkpt lat="51.9401332643" lon="16.3003479503"></trkpt><trkpt lat="51.9398491178" lon="16.3008726574"></trkpt><trkpt lat="51.9349564333" lon="16.3119288906"></trkpt><trkpt lat="51.9345586281" lon="16.3133104797"></trkpt><trkpt lat="51.9344046526" lon="16.3137097936"></trkpt><trkpt lat="51.934027886" lon="16.3144127838"></trkpt><trkpt lat="51.9339075219" lon="16.3148128521"></trkpt><trkpt lat="51.9338641874" lon="16.3152640499"></trkpt><trkpt lat="51.9307540823" lon="16.3364006951"></trkpt><trkpt lat="51.9307641406" lon="16.3375354372"></trkpt><trkpt lat="51.930507319" lon="16.3403790817"></trkpt><trkpt lat="51.9302841928" lon="16.3414844871"></trkpt><trkpt lat="51.9299873058" lon="16.3424722105"></trkpt><trkpt lat="51.9297187496" lon="16.3429849315"></trkpt><trkpt lat="51.9294233713" lon="16.3433773722"></trkpt><trkpt lat="51.9290225487" lon="16.3437899295"></trkpt><trkpt lat="51.9277044106" lon="16.3454331178"></trkpt><trkpt lat="51.9274019077" lon="16.3458869141"></trkpt><trkpt lat="51.9265374821" lon="16.3474490494"></trkpt><trkpt lat="51.9263376575" lon="16.3480467629"></trkpt><trkpt lat="51.9264182076" lon="16.3484871481"></trkpt><trkpt lat="51.9266152661" lon="16.348955445"></trkpt><trkpt lat="51.9294983055" lon="16.3576481491"></trkpt><trkpt lat="51.9292593375" lon="16.3581114169"></trkpt><trkpt lat="51.9287221413" lon="16.3587913569"></trkpt><trkpt lat="51.9283767231" lon="16.3591271359"></trkpt><trkpt lat="51.9276069291" lon="16.360305883"></trkpt><trkpt lat="51.9274918456" lon="16.3608002476"></trkpt><trkpt lat="51.9272926077" lon="16.3612408005"></trkpt><trkpt lat="51.927404087" lon="16.3618591335"></trkpt><trkpt lat="51.9273522031" lon="16.3623470441"></trkpt><trkpt lat="51.9276132155" lon="16.3625444379"></trkpt><trkpt lat="51.9278562069" lon="16.3628864195"></trkpt><trkpt lat="51.9290940464" lon="16.3652067818"></trkpt><trkpt lat="51.9292468484" lon="16.3660831098"></trkpt><trkpt lat="51.9296325836" lon="16.3668183703"></trkpt><trkpt lat="51.9298493396" lon="16.367125148"></trkpt><trkpt lat="51.9296259619" lon="16.3679465745"></trkpt><trkpt lat="51.929226229" lon="16.3678801898"></trkpt><trkpt lat="51.9285163656" lon="16.367868958"></trkpt></trkseg><trkseg><trkpt lat="51.9185489416" lon="16.5703770798"></trkpt><trkpt lat="51.9182729255" lon="16.5703627467"></trkpt><trkpt lat="51.9179060496" lon="16.5700465813"></trkpt><trkpt lat="51.9177414291" lon="16.5694581717"></trkpt><trkpt lat="51.9173633214" lon="16.5673932899"></trkpt><trkpt lat="51.9174570311" lon="16.5665557701"></trkpt><trkpt lat="51.9191611558" lon="16.5521617793"></trkpt><trkpt lat="51.9213724695" lon="16.5375004057"></trkpt><trkpt lat="51.9217271078" lon="16.5365805756"></trkpt><trkpt lat="51.9250598364" lon="16.5297511686"></trkpt><trkpt lat="51.9254268799" lon="16.5294163954"></trkpt><trkpt lat="51.9333124906" lon="16.522327736"></trkpt><trkpt lat="51.9412727002" lon="16.5154966526"></trkpt><trkpt lat="51.9412955828" lon="16.5149289463"></trkpt><trkpt lat="51.9414265919" lon="16.5140848886"></trkpt><trkpt lat="51.9416798092" lon="16.513053244"></trkpt><trkpt lat="51.941785505" lon="16.5124138724"></trkpt><trkpt lat="51.9417995866" lon="16.511804508"></trkpt><trkpt lat="51.9419667218" lon="16.5097972099"></trkpt><trkpt lat="51.94302544" lon="16.5021933988"></trkpt><trkpt lat="51.9435692579" lon="16.493864134"></trkpt><trkpt lat="51.943546962" lon="16.493059136"></trkpt><trkpt lat="51.9434159528" lon="16.4922892582"></trkpt><trkpt lat="51.9418173563" lon="16.4780578762"></trkpt><trkpt lat="51.9420033507" lon="16.4768787101"></trkpt><trkpt lat="51.942036543" lon="16.4764013607"></trkpt><trkpt lat="51.9422152452" lon="16.4754164033"></trkpt><trkpt lat="51.944403341" lon="16.4610307105"></trkpt><trkpt lat="51.9448691234" lon="16.4555841498"></trkpt><trkpt lat="51.9447499327" lon="16.454976378"></trkpt><trkpt lat="51.9445370324" lon="16.4542640001"></trkpt><trkpt lat="51.9407505915" lon="16.4400318637"></trkpt><trkpt lat="51.9407620747" lon="16.4392442163"></trkpt><trkpt lat="51.940729972" lon="16.4246400073"></trkpt><trkpt lat="51.941301953" lon="16.4207803085"></trkpt><trkpt lat="51.941749882" lon="16.4195878152"></trkpt><trkpt lat="51.9426791836" lon="16.4175750688"></trkpt><trkpt lat="51.9471063372" lon="16.4058679808"></trkpt><trkpt lat="51.9470706303" lon="16.4051442035"></trkpt><trkpt lat="51.9470794313" lon="16.4035526477"></trkpt><trkpt lat="51.9466875773" lon="16.3966721948"></trkpt><trkpt lat="51.9460974913" lon="16.3959500939"></trkpt><trkpt lat="51.9451443013" lon="16.3942711987"></trkpt><trkpt lat="51.9448163174" lon="16.3935334235"></trkpt><trkpt lat="51.9446671195" lon="16.3930113986"></trkpt><trkpt lat="51.9443368725" lon="16.3915004767"></trkpt><trkpt lat="51.9441930391" lon="16.3904531579"></trkpt><trkpt lat="51.9436174538" lon="16.3878411055"></trkpt><trkpt lat="51.9433152862" lon="16.3869978022"></trkpt><trkpt lat="51.9429184869" lon="16.3860891201"></trkpt><trkpt lat="51.9422299135" lon="16.3857507426"></trkpt><trkpt lat="51.9418977387" lon="16.3856562786"></trkpt><trkpt lat="51.9415367302" lon="16.3854290452"></trkpt><trkpt lat="51.9403980486" lon="16.3850278873"></trkpt><trkpt lat="51.9399907719" lon="16.3850869797"></trkpt><trkpt lat="51.9389798306" lon="16.3853887282"></trkpt><trkpt lat="51.9386038184" lon="16.3848097064"></trkpt><trkpt lat="51.9384331629" lon="16.3843393978"></trkpt><trkpt lat="51.9374715909" lon="16.3810080104"></trkpt><trkpt lat="51.9342217594" lon="16.3722457364"></trkpt><trkpt lat="51.9338517822" lon="16.3719224464"></trkpt><trkpt lat="51.9335924461" lon="16.3717588317"></trkpt><trkpt lat="51.9333125744" lon="16.371628996"></trkpt><trkpt lat="51.9323550258" lon="16.3713471964"></trkpt><trkpt lat="51.9321690314" lon="16.3709607907"></trkpt><trkpt lat="51.9316615071" lon="16.370629454"></trkpt><trkpt lat="51.9314407278" lon="16.3703312259"></trkpt><trkpt lat="51.9313352834" lon="16.3699131366"></trkpt><trkpt lat="51.9312820584" lon="16.3691447675"></trkpt><trkpt lat="51.931102518" lon="16.3687546737"></trkpt><trkpt lat="51.9306177087" lon="16.3681389391"></trkpt><trkpt lat="51.9298009761" lon="16.3674566522"></trkpt><trkpt lat="51.9296530355" lon="16.3679073472"></trkpt><trkpt lat="51.9291708246" lon="16.3678999711"></trkpt><trkpt lat="51.9288668968" lon="16.3677959517"></trkpt><trkpt lat="51.92858845" lon="16.3674978912"></trkpt></trkseg><trkseg><trkpt lat="51.9287121668" lon="16.3677818701"></trkpt><trkpt lat="51.9290047791" lon="16.3678428065"></trkpt><trkpt lat="51.9293717388" lon="16.3679805212"></trkpt><trkpt lat="51.9296847191" lon="16.3680384401"></trkpt><trkpt lat="51.929966351" lon="16.3677367754"></trkpt><trkpt lat="51.9299360085" lon="16.3671815582"></trkpt><trkpt lat="51.9304914773" lon="16.3679516036"></trkpt><trkpt lat="51.9313226268" lon="16.3695866615"></trkpt><trkpt lat="51.9314143248" lon="16.3702606503"></trkpt><trkpt lat="51.9316492695" lon="16.3706067391"></trkpt><trkpt lat="51.9320710469" lon="16.370913852"></trkpt><trkpt lat="51.9322871324" lon="16.3712779619"></trkpt><trkpt lat="51.9325640704" lon="16.3712267485"></trkpt><trkpt lat="51.9329753704" lon="16.371456245"></trkpt><trkpt lat="51.9332431722" lon="16.3716501184"></trkpt><trkpt lat="51.9337144028" lon="16.3718210254"></trkpt><trkpt lat="51.9341875613" lon="16.3713763654"></trkpt><trkpt lat="51.934425775" lon="16.3710098248"></trkpt><trkpt lat="51.9352835789" lon="16.3702930044"></trkpt><trkpt lat="51.936343722" lon="16.3696777727"></trkpt><trkpt lat="51.9369365741" lon="16.3696916867"></trkpt><trkpt lat="51.9397314359" lon="16.3689368963"></trkpt><trkpt lat="51.9403501041" lon="16.3681692816"></trkpt><trkpt lat="51.9406075124" lon="16.3680281304"></trkpt><trkpt lat="51.9512941036" lon="16.3734944724"></trkpt><trkpt lat="51.9518464711" lon="16.3739092089"></trkpt><trkpt lat="51.9554433972" lon="16.3773203082"></trkpt><trkpt lat="51.9561620615" lon="16.3781533856"></trkpt><trkpt lat="51.9568272494" lon="16.3787763286"></trkpt><trkpt lat="51.9575542957" lon="16.3790384308"></trkpt><trkpt lat="51.9579142146" lon="16.3790277857"></trkpt><trkpt lat="51.9634406548" lon="16.3780152518"></trkpt><trkpt lat="51.9641910028" lon="16.3772229943"></trkpt><trkpt lat="51.9672883675" lon="16.3732222281"></trkpt><trkpt lat="51.9674978312" lon="16.3727792446"></trkpt><trkpt lat="51.9677884318" lon="16.3717973046"></trkpt><trkpt lat="51.9680405594" lon="16.3714242261"></trkpt><trkpt lat="51.968373321" lon="16.3712269161"></trkpt><trkpt lat="51.9686244428" lon="16.3714559097"></trkpt><trkpt lat="51.9689893909" lon="16.371589601"></trkpt><trkpt lat="51.9698225521" lon="16.3716382999"></trkpt><trkpt lat="51.9784341194" lon="16.3735536486"></trkpt><trkpt lat="51.9785512146" lon="16.3741164934"></trkpt><trkpt lat="51.9793803524" lon="16.3798354659"></trkpt><trkpt lat="51.9793074299" lon="16.3809086848"></trkpt><trkpt lat="51.9794312306" lon="16.3817030378"></trkpt><trkpt lat="51.9798942469" lon="16.3838495594"></trkpt><trkpt lat="51.9807887636" lon="16.386964526"></trkpt><trkpt lat="51.9813547935" lon="16.3874438871"></trkpt><trkpt lat="51.9816225115" lon="16.3875959348"></trkpt><trkpt lat="51.9819036406" lon="16.3878057338"></trkpt><trkpt lat="51.9831730798" lon="16.3885227218"></trkpt><trkpt lat="51.9837629981" lon="16.3887046091"></trkpt><trkpt lat="51.9858686998" lon="16.3888961356"></trkpt><trkpt lat="51.9863959216" lon="16.3887583371"></trkpt><trkpt lat="51.9970598817" lon="16.3870369457"></trkpt><trkpt lat="51.9975992572" lon="16.3870283961"></trkpt><trkpt lat="51.9983135629" lon="16.3868874963"></trkpt><trkpt lat="52.0042838249" lon="16.3846620172"></trkpt><trkpt lat="52.0046125632" lon="16.3836534228"></trkpt><trkpt lat="52.0050374418" lon="16.3826299924"></trkpt><trkpt lat="52.0054694451" lon="16.383248074"></trkpt><trkpt lat="52.0056458004" lon="16.3837655727"></trkpt><trkpt lat="52.0094631705" lon="16.3924199715"></trkpt><trkpt lat="52.0100407675" lon="16.3932357822"></trkpt><trkpt lat="52.0113873202" lon="16.3960583042"></trkpt><trkpt lat="52.0115280524" lon="16.3969554193"></trkpt><trkpt lat="52.0123131853" lon="16.400471963"></trkpt><trkpt lat="52.0127183665" lon="16.4014608599"></trkpt><trkpt lat="52.0138277952" lon="16.4057556633"></trkpt><trkpt lat="52.0135591552" lon="16.4067643415"></trkpt><trkpt lat="52.0128670614" lon="16.4102347847"></trkpt><trkpt lat="52.0127285086" lon="16.4112905692"></trkpt><trkpt lat="52.0126715116" lon="16.412893692"></trkpt><trkpt lat="52.0124779735" lon="16.4142968226"></trkpt><trkpt lat="52.0107222162" lon="16.4312663209"></trkpt><trkpt lat="52.010041941" lon="16.4349853713"></trkpt><trkpt lat="52.0097359177" lon="16.4356220607"></trkpt><trkpt lat="52.008453235" lon="16.4388512727"></trkpt><trkpt lat="52.0083373133" lon="16.4393472299"></trkpt><trkpt lat="52.0083176158" lon="16.4402028546"></trkpt><trkpt lat="52.0089599211" lon="16.4569763001"></trkpt><trkpt lat="52.0091337617" lon="16.4577230439"></trkpt><trkpt lat="52.0099480636" lon="16.4626459032"></trkpt><trkpt lat="52.0098819304" lon="16.4633636456"></trkpt><trkpt lat="52.0098123606" lon="16.4664954599"></trkpt><trkpt lat="52.0098930784" lon="16.4687291533"></trkpt><trkpt lat="52.010659771" lon="16.4755661041"></trkpt><trkpt lat="52.0110003278" lon="16.4766813163"></trkpt><trkpt lat="52.0119582955" lon="16.4818088617"></trkpt><trkpt lat="52.011959888" lon="16.4823020529"></trkpt><trkpt lat="52.0120297093" lon="16.4827821683"></trkpt><trkpt lat="52.0120888855" lon="16.4835680556"></trkpt><trkpt lat="52.0134319179" lon="16.5005210415"></trkpt><trkpt lat="52.0135264657" lon="16.5061544348"></trkpt><trkpt lat="52.0134299062" lon="16.5071911085"></trkpt><trkpt lat="52.0131080411" lon="16.5093220398"></trkpt><trkpt lat="52.0129300095" lon="16.5101571288"></trkpt><trkpt lat="52.0122995228" lon="16.5155220497"></trkpt><trkpt lat="52.0127477031" lon="16.5154393204"></trkpt><trkpt lat="52.0131657925" lon="16.5152983367"></trkpt><trkpt lat="52.0135599095" lon="16.5152944811"></trkpt><trkpt lat="52.0143382531" lon="16.5154545754"></trkpt><trkpt lat="52.0145851839" lon="16.5156588424"></trkpt><trkpt lat="52.0144636463" lon="16.5165982861"></trkpt><trkpt lat="52.0138659328" lon="16.5197710041"></trkpt><trkpt lat="52.0135396253" lon="16.5210385993"></trkpt><trkpt lat="52.013073843" lon="16.5216992609"></trkpt><trkpt lat="52.0128181949" lon="16.5223973896"></trkpt><trkpt lat="52.0125181228" lon="16.5230531897"></trkpt><trkpt lat="52.0122681744" lon="16.5232408606"></trkpt><trkpt lat="52.0117761567" lon="16.5237275977"></trkpt><trkpt lat="52.0118667651" lon="16.5245743375"></trkpt><trkpt lat="52.0121141989" lon="16.525779739"></trkpt><trkpt lat="52.0123188011" lon="16.5263535641"></trkpt><trkpt lat="52.0125477109" lon="16.5268363617"></trkpt><trkpt lat="52.0128630381" lon="16.5269702207"></trkpt><trkpt lat="52.0131378807" lon="16.5271717217"></trkpt><trkpt lat="52.012857087" lon="16.527398536"></trkpt><trkpt lat="52.0125662349" lon="16.5274004638"></trkpt><trkpt lat="52.0123827551" lon="16.5268088691"></trkpt><trkpt lat="52.0121874567" lon="16.526421709"></trkpt><trkpt lat="52.0121670049" lon="16.5259262547"></trkpt><trkpt lat="52.0119981095" lon="16.5255605523"></trkpt><trkpt lat="52.0117222611" lon="16.52549861"></trkpt><trkpt lat="52.0113216899" lon="16.5256561898"></trkpt><trkpt lat="52.0110032614" lon="16.5256415214"></trkpt><trkpt lat="52.0096935052" lon="16.5259855147"></trkpt><trkpt lat="52.0094216801" lon="16.5264465194"></trkpt><trkpt lat="52.0091214404" lon="16.5265782829"></trkpt><trkpt lat="52.0088972244" lon="16.5271120425"></trkpt><trkpt lat="52.0086316857" lon="16.5274998732"></trkpt><trkpt lat="52.0037281048" lon="16.5334738232"></trkpt><trkpt lat="52.0029910002" lon="16.5341624804"></trkpt><trkpt lat="52.0006344281" lon="16.5355987195"></trkpt><trkpt lat="52.0002878364" lon="16.5355392918"></trkpt><trkpt lat="51.9975073915" lon="16.5354852285"></trkpt><trkpt lat="51.9974915497" lon="16.5363513306"></trkpt><trkpt lat="51.9977088086" lon="16.5389617067"></trkpt><trkpt lat="51.9979407359" lon="16.5402966924"></trkpt><trkpt lat="51.9982312527" lon="16.5428655781"></trkpt><trkpt lat="51.9982029218" lon="16.5433565062"></trkpt><trkpt lat="51.9980077911" lon="16.5448985249"></trkpt><trkpt lat="51.9976915419" lon="16.5461270604"></trkpt><trkpt lat="51.9971397612" lon="16.547828503"></trkpt><trkpt lat="51.9967657607" lon="16.5484239534"></trkpt><trkpt lat="51.9913140871" lon="16.5589776915"></trkpt><trkpt lat="51.9913149253" lon="16.5605165251"></trkpt><trkpt lat="51.9911479577" lon="16.5633955412"></trkpt><trkpt lat="51.9908709358" lon="16.5636463277"></trkpt><trkpt lat="51.9902053289" lon="16.563534094"></trkpt><trkpt lat="51.9897391275" lon="16.5637257881"></trkpt><trkpt lat="51.9897047617" lon="16.5645782277"></trkpt><trkpt lat="51.9897164125" lon="16.5650559962"></trkpt><trkpt lat="51.989944987" lon="16.5674020909"></trkpt><trkpt lat="51.9903369248" lon="16.5674709063"></trkpt><trkpt lat="51.9912671484" lon="16.5677827969"></trkpt><trkpt lat="51.9913011789" lon="16.5686492343"></trkpt><trkpt lat="51.991284918" lon="16.5694134962"></trkpt><trkpt lat="51.9912399072" lon="16.5699615888"></trkpt><trkpt lat="51.9910305273" lon="16.5709523298"></trkpt><trkpt lat="51.9908878673" lon="16.5713756997"></trkpt><trkpt lat="51.9907131046" lon="16.5722488426"></trkpt><trkpt lat="51.9904626533" lon="16.5741266403"></trkpt><trkpt lat="51.9898869004" lon="16.5815136954"></trkpt><trkpt lat="51.9901883975" lon="16.5818241611"></trkpt><trkpt lat="51.9904629048" lon="16.5818861872"></trkpt><trkpt lat="51.9916210324" lon="16.582320286"></trkpt><trkpt lat="51.9921824522" lon="16.582367979"></trkpt><trkpt lat="51.9927048124" lon="16.5827569831"></trkpt><trkpt lat="51.9942519441" lon="16.5836187266"></trkpt><trkpt lat="51.9949069899" lon="16.5833888948"></trkpt><trkpt lat="51.9955282565" lon="16.5833528526"></trkpt><trkpt lat="51.9958107267" lon="16.5834269486"></trkpt><trkpt lat="51.9959635288" lon="16.584265139"></trkpt><trkpt lat="51.9958864152" lon="16.5846813843"></trkpt></trkseg></trk></gpx>