<?xml version="1.0" encoding="UTF-8" standalone="no" ?><gpx xmlns="http://www.topografix.com/GPX/1/1" xmlns:gpxx="http://www.garmin.com/xmlschemas/GpxExtensions/v3" ><trk><trkseg><trkpt lat="54.157891" lon="19.439881"></trkpt><trkpt lat="54.158071" lon="19.439622"></trkpt><trkpt lat="54.158193" lon="19.439292"></trkpt><trkpt lat="54.158334" lon="19.438825"></trkpt><trkpt lat="54.158529" lon="19.438687"></trkpt><trkpt lat="54.158465" lon="19.438112"></trkpt><trkpt lat="54.1582" lon="19.43768"></trkpt><trkpt lat="54.158009" lon="19.437569"></trkpt><trkpt lat="54.157569" lon="19.438347"></trkpt><trkpt lat="54.156563" lon="19.439493"></trkpt><trkpt lat="54.155901" lon="19.440014"></trkpt><trkpt lat="54.155349" lon="19.440554"></trkpt><trkpt lat="54.155084" lon="19.440921"></trkpt><trkpt lat="54.154536" lon="19.441417"></trkpt><trkpt lat="54.153927" lon="19.441787"></trkpt><trkpt lat="54.153198" lon="19.441975"></trkpt><trkpt lat="54.146517" lon="19.442716"></trkpt><trkpt lat="54.145759" lon="19.442398"></trkpt><trkpt lat="54.144828" lon="19.442137"></trkpt><trkpt lat="54.144627" lon="19.442137"></trkpt><trkpt lat="54.144444" lon="19.44229"></trkpt><trkpt lat="54.144204" lon="19.442436"></trkpt><trkpt lat="54.144007" lon="19.442368"></trkpt><trkpt lat="54.14376" lon="19.442872"></trkpt><trkpt lat="54.143511" lon="19.443496"></trkpt><trkpt lat="54.143543" lon="19.443855"></trkpt><trkpt lat="54.143496" lon="19.444195"></trkpt><trkpt lat="54.143225" lon="19.445015"></trkpt><trkpt lat="54.140029" lon="19.453019"></trkpt><trkpt lat="54.139505" lon="19.453834"></trkpt><trkpt lat="54.139085" lon="19.454281"></trkpt><trkpt lat="54.134345" lon="19.460152"></trkpt><trkpt lat="54.134247" lon="19.460809"></trkpt><trkpt lat="54.133162" lon="19.471694"></trkpt><trkpt lat="54.133245" lon="19.472831"></trkpt><trkpt lat="54.133188" lon="19.474012"></trkpt><trkpt lat="54.132807" lon="19.477045"></trkpt><trkpt lat="54.132546" lon="19.477965"></trkpt><trkpt lat="54.132334" lon="19.478879"></trkpt><trkpt lat="54.132012" lon="19.479499"></trkpt><trkpt lat="54.131704" lon="19.479587"></trkpt><trkpt lat="54.131354" lon="19.479419"></trkpt><trkpt lat="54.130919" lon="19.47949"></trkpt><trkpt lat="54.130171" lon="19.479496"></trkpt><trkpt lat="54.1276" lon="19.479865"></trkpt><trkpt lat="54.126955" lon="19.480605"></trkpt><trkpt lat="54.126524" lon="19.481205"></trkpt><trkpt lat="54.126028" lon="19.482309"></trkpt><trkpt lat="54.125705" lon="19.482784"></trkpt><trkpt lat="54.125169" lon="19.483254"></trkpt><trkpt lat="54.124535" lon="19.48367"></trkpt><trkpt lat="54.124354" lon="19.48383"></trkpt><trkpt lat="54.124114" lon="19.483949"></trkpt><trkpt lat="54.123876" lon="19.484113"></trkpt><trkpt lat="54.123531" lon="19.484463"></trkpt><trkpt lat="54.122967" lon="19.484896"></trkpt><trkpt lat="54.122219" lon="19.485243"></trkpt><trkpt lat="54.120035" lon="19.485926"></trkpt><trkpt lat="54.119632" lon="19.485955"></trkpt><trkpt lat="54.11887" lon="19.485542"></trkpt><trkpt lat="54.118612" lon="19.48528"></trkpt><trkpt lat="54.114938" lon="19.482611"></trkpt><trkpt lat="54.114647" lon="19.482757"></trkpt><trkpt lat="54.114256" lon="19.482461"></trkpt><trkpt lat="54.114092" lon="19.482122"></trkpt><trkpt lat="54.113465" lon="19.482724"></trkpt><trkpt lat="54.113277" lon="19.482952"></trkpt><trkpt lat="54.111685" lon="19.485244"></trkpt><trkpt lat="54.111521" lon="19.485635"></trkpt><trkpt lat="54.11125" lon="19.48643"></trkpt><trkpt lat="54.110905" lon="19.487707"></trkpt><trkpt lat="54.110734" lon="19.488763"></trkpt><trkpt lat="54.110645" lon="19.489563"></trkpt><trkpt lat="54.110799" lon="19.489128"></trkpt><trkpt lat="54.110627" lon="19.489705"></trkpt><trkpt lat="54.110497" lon="19.490673"></trkpt><trkpt lat="54.109179" lon="19.497936"></trkpt><trkpt lat="54.108811" lon="19.499145"></trkpt><trkpt lat="54.107972" lon="19.502693"></trkpt><trkpt lat="54.107907" lon="19.504055"></trkpt><trkpt lat="54.107022" lon="19.511283"></trkpt><trkpt lat="54.106946" lon="19.513975"></trkpt><trkpt lat="54.107001" lon="19.515042"></trkpt><trkpt lat="54.106922" lon="19.522913"></trkpt><trkpt lat="54.106865" lon="19.523238"></trkpt><trkpt lat="54.104819" lon="19.532334"></trkpt><trkpt lat="54.104376" lon="19.533727"></trkpt><trkpt lat="54.104035" lon="19.535018"></trkpt><trkpt lat="54.101838" lon="19.545866"></trkpt><trkpt lat="54.101843" lon="19.546511"></trkpt><trkpt lat="54.101503" lon="19.553118"></trkpt><trkpt lat="54.101224" lon="19.55432"></trkpt><trkpt lat="54.100892" lon="19.555381"></trkpt><trkpt lat="54.100474" lon="19.556444"></trkpt><trkpt lat="54.100168" lon="19.557111"></trkpt><trkpt lat="54.099183" lon="19.558881"></trkpt><trkpt lat="54.096929" lon="19.563725"></trkpt><trkpt lat="54.096921" lon="19.565128"></trkpt><trkpt lat="54.097089" lon="19.566707"></trkpt><trkpt lat="54.097967" lon="19.572492"></trkpt><trkpt lat="54.098064" lon="19.572954"></trkpt><trkpt lat="54.098107" lon="19.573387"></trkpt><trkpt lat="54.098212" lon="19.573863"></trkpt><trkpt lat="54.098298" lon="19.574365"></trkpt><trkpt lat="54.098618" lon="19.575823"></trkpt><trkpt lat="54.100913" lon="19.590613"></trkpt><trkpt lat="54.100834" lon="19.591893"></trkpt><trkpt lat="54.100587" lon="19.594264"></trkpt><trkpt lat="54.100437" lon="19.594784"></trkpt><trkpt lat="54.099967" lon="19.596129"></trkpt><trkpt lat="54.097651" lon="19.601813"></trkpt><trkpt lat="54.096619" lon="19.603869"></trkpt><trkpt lat="54.096321" lon="19.604173"></trkpt><trkpt lat="54.095988" lon="19.604625"></trkpt><trkpt lat="54.093412" lon="19.607604"></trkpt><trkpt lat="54.092644" lon="19.607813"></trkpt><trkpt lat="54.087886" lon="19.607247"></trkpt><trkpt lat="54.087216" lon="19.607705"></trkpt><trkpt lat="54.086895" lon="19.607994"></trkpt><trkpt lat="54.086691" lon="19.607905"></trkpt><trkpt lat="54.086172" lon="19.608013"></trkpt><trkpt lat="54.085992" lon="19.608158"></trkpt><trkpt lat="54.086041" lon="19.608775"></trkpt><trkpt lat="54.086011" lon="19.609146"></trkpt><trkpt lat="54.085554" lon="19.610192"></trkpt><trkpt lat="54.085112" lon="19.611455"></trkpt><trkpt lat="54.084946" lon="19.611861"></trkpt><trkpt lat="54.084699" lon="19.61234"></trkpt><trkpt lat="54.084387" lon="19.613108"></trkpt><trkpt lat="54.072605" lon="19.647056"></trkpt><trkpt lat="54.072496" lon="19.648125"></trkpt><trkpt lat="54.072364" lon="19.649016"></trkpt><trkpt lat="54.07232" lon="19.649459"></trkpt><trkpt lat="54.071683" lon="19.660906"></trkpt><trkpt lat="54.072079" lon="19.66096"></trkpt><trkpt lat="54.072419" lon="19.661123"></trkpt><trkpt lat="54.072426" lon="19.661751"></trkpt><trkpt lat="54.072498" lon="19.662106"></trkpt><trkpt lat="54.072661" lon="19.662357"></trkpt><trkpt lat="54.073204" lon="19.662967"></trkpt><trkpt lat="54.074818" lon="19.665244"></trkpt><trkpt lat="54.074967" lon="19.66561"></trkpt><trkpt lat="54.075109" lon="19.666118"></trkpt><trkpt lat="54.075175" lon="19.666477"></trkpt><trkpt lat="54.075321" lon="19.667562"></trkpt><trkpt lat="54.075316" lon="19.668079"></trkpt><trkpt lat="54.075282" lon="19.668643"></trkpt><trkpt lat="54.075278" lon="19.669042"></trkpt><trkpt lat="54.075327" lon="19.670018"></trkpt><trkpt lat="54.07507" lon="19.670151"></trkpt><trkpt lat="54.074962" lon="19.671209"></trkpt><trkpt lat="54.074973" lon="19.671819"></trkpt><trkpt lat="54.075054" lon="19.672727"></trkpt><trkpt lat="54.075262" lon="19.673865"></trkpt><trkpt lat="54.075798" lon="19.678763"></trkpt><trkpt lat="54.075768" lon="19.67975"></trkpt><trkpt lat="54.075609" lon="19.681318"></trkpt><trkpt lat="54.07473" lon="19.696274"></trkpt><trkpt lat="54.075108" lon="19.697497"></trkpt><trkpt lat="54.075814" lon="19.700255"></trkpt><trkpt lat="54.075907" lon="19.700868"></trkpt><trkpt lat="54.078064" lon="19.711321"></trkpt><trkpt lat="54.078458" lon="19.71251"></trkpt><trkpt lat="54.079812" lon="19.717954"></trkpt><trkpt lat="54.079871" lon="19.719048"></trkpt><trkpt lat="54.079843" lon="19.720924"></trkpt><trkpt lat="54.079766" lon="19.721451"></trkpt><trkpt lat="54.07966" lon="19.721955"></trkpt><trkpt lat="54.07903" lon="19.726247"></trkpt><trkpt lat="54.079053" lon="19.72699"></trkpt><trkpt lat="54.079132" lon="19.727715"></trkpt><trkpt lat="54.084539" lon="19.774097"></trkpt><trkpt lat="54.084605" lon="19.775427"></trkpt><trkpt lat="54.085109" lon="19.780612"></trkpt><trkpt lat="54.085308" lon="19.781209"></trkpt><trkpt lat="54.085446" lon="19.781545"></trkpt><trkpt lat="54.085807" lon="19.782025"></trkpt><trkpt lat="54.086131" lon="19.7826"></trkpt><trkpt lat="54.086593" lon="19.783678"></trkpt><trkpt lat="54.087562" lon="19.787028"></trkpt><trkpt lat="54.087613" lon="19.78832"></trkpt><trkpt lat="54.087552" lon="19.798001"></trkpt><trkpt lat="54.087446" lon="19.798606"></trkpt><trkpt lat="54.086036" lon="19.812388"></trkpt><trkpt lat="54.086206" lon="19.81344"></trkpt><trkpt lat="54.086228" lon="19.814856"></trkpt><trkpt lat="54.086136" lon="19.816411"></trkpt><trkpt lat="54.086102" lon="19.821156"></trkpt><trkpt lat="54.086261" lon="19.822363"></trkpt><trkpt lat="54.087653" lon="19.838494"></trkpt><trkpt lat="54.087634" lon="19.840026"></trkpt><trkpt lat="54.08702" lon="19.850928"></trkpt><trkpt lat="54.086969" lon="19.851375"></trkpt><trkpt lat="54.086791" lon="19.853924"></trkpt><trkpt lat="54.086892" lon="19.855127"></trkpt><trkpt lat="54.087003" lon="19.855514"></trkpt><trkpt lat="54.087627" lon="19.856721"></trkpt><trkpt lat="54.08793" lon="19.857626"></trkpt><trkpt lat="54.088062" lon="19.858122"></trkpt><trkpt lat="54.088194" lon="19.85873"></trkpt><trkpt lat="54.088209" lon="19.859267"></trkpt><trkpt lat="54.087971" lon="19.860548"></trkpt><trkpt lat="54.079447" lon="19.905445"></trkpt><trkpt lat="54.079035" lon="19.905878"></trkpt><trkpt lat="54.071222" lon="19.915548"></trkpt><trkpt lat="54.071121" lon="19.915961"></trkpt><trkpt lat="54.064786" lon="19.937264"></trkpt><trkpt lat="54.064546" lon="19.93773"></trkpt><trkpt lat="54.054554" lon="19.954518"></trkpt><trkpt lat="54.054123" lon="19.954733"></trkpt><trkpt lat="54.053683" lon="19.954799"></trkpt><trkpt lat="54.053513" lon="19.955016"></trkpt><trkpt lat="54.053443" lon="19.955369"></trkpt><trkpt lat="54.053369" lon="19.955944"></trkpt><trkpt lat="54.051835" lon="19.963889"></trkpt><trkpt lat="54.051497" lon="19.96481"></trkpt><trkpt lat="54.04825" lon="19.976052"></trkpt><trkpt lat="54.048035" lon="19.977518"></trkpt><trkpt lat="54.047538" lon="19.979746"></trkpt><trkpt lat="54.04742" lon="19.980063"></trkpt><trkpt lat="54.043413" lon="19.989284"></trkpt><trkpt lat="54.043215" lon="19.989603"></trkpt><trkpt lat="54.04175" lon="19.991517"></trkpt><trkpt lat="54.041293" lon="19.992017"></trkpt><trkpt lat="54.03803" lon="19.996287"></trkpt><trkpt lat="54.0377" lon="19.996796"></trkpt><trkpt lat="54.037509" lon="19.997001"></trkpt><trkpt lat="54.037305" lon="19.997183"></trkpt><trkpt lat="54.032473" lon="20.002398"></trkpt><trkpt lat="54.031966" lon="20.003542"></trkpt><trkpt lat="54.030063" lon="20.007033"></trkpt><trkpt lat="54.029675" lon="20.007579"></trkpt><trkpt lat="54.029361" lon="20.008164"></trkpt><trkpt lat="54.027403" lon="20.011203"></trkpt><trkpt lat="54.02654" lon="20.012171"></trkpt><trkpt lat="54.022651" lon="20.017483"></trkpt><trkpt lat="54.022404" lon="20.018693"></trkpt><trkpt lat="54.019772" lon="20.028949"></trkpt><trkpt lat="54.019331" lon="20.030018"></trkpt><trkpt lat="54.019088" lon="20.031079"></trkpt><trkpt lat="54.019139" lon="20.032561"></trkpt><trkpt lat="54.018865" lon="20.036709"></trkpt><trkpt lat="54.018482" lon="20.038193"></trkpt><trkpt lat="54.018415" lon="20.039597"></trkpt><trkpt lat="54.018137" lon="20.04254"></trkpt><trkpt lat="54.017872" lon="20.047764"></trkpt><trkpt lat="54.017358" lon="20.051736"></trkpt><trkpt lat="54.016876" lon="20.053513"></trkpt><trkpt lat="54.015726" lon="20.056996"></trkpt><trkpt lat="54.014958" lon="20.058128"></trkpt><trkpt lat="54.014588" lon="20.058975"></trkpt><trkpt lat="54.012313" lon="20.063407"></trkpt><trkpt lat="54.01215" lon="20.063648"></trkpt><trkpt lat="54.009936" lon="20.067547"></trkpt><trkpt lat="54.009731" lon="20.068"></trkpt><trkpt lat="54.009116" lon="20.068871"></trkpt><trkpt lat="54.008649" lon="20.069151"></trkpt><trkpt lat="54.008357" lon="20.069438"></trkpt><trkpt lat="54.008503" lon="20.070101"></trkpt><trkpt lat="54.008723" lon="20.070426"></trkpt><trkpt lat="54.009148" lon="20.070873"></trkpt><trkpt lat="54.00945" lon="20.071067"></trkpt><trkpt lat="54.009996" lon="20.071524"></trkpt><trkpt lat="54.010158" lon="20.071923"></trkpt><trkpt lat="54.010118" lon="20.072514"></trkpt><trkpt lat="54.009929" lon="20.073069"></trkpt><trkpt lat="54.009563" lon="20.074735"></trkpt><trkpt lat="54.009518" lon="20.075677"></trkpt><trkpt lat="54.009306" lon="20.076736"></trkpt><trkpt lat="54.009005" lon="20.077354"></trkpt><trkpt lat="54.008485" lon="20.078136"></trkpt><trkpt lat="54.008325" lon="20.078426"></trkpt><trkpt lat="54.008089" lon="20.079109"></trkpt><trkpt lat="54.007955" lon="20.079707"></trkpt><trkpt lat="54.007535" lon="20.082089"></trkpt><trkpt lat="54.00759" lon="20.083398"></trkpt><trkpt lat="54.00789" lon="20.0867"></trkpt><trkpt lat="54.008129" lon="20.087645"></trkpt><trkpt lat="54.008286" lon="20.088938"></trkpt><trkpt lat="54.008722" lon="20.091356"></trkpt><trkpt lat="54.009013" lon="20.09252"></trkpt><trkpt lat="54.009975" lon="20.097349"></trkpt><trkpt lat="54.010013" lon="20.097694"></trkpt><trkpt lat="54.010382" lon="20.104238"></trkpt><trkpt lat="54.010341" lon="20.10479"></trkpt><trkpt lat="54.01016" lon="20.106326"></trkpt><trkpt lat="54.010186" lon="20.106972"></trkpt><trkpt lat="54.010168" lon="20.111043"></trkpt><trkpt lat="54.010107" lon="20.112358"></trkpt><trkpt lat="54.010098" lon="20.115504"></trkpt><trkpt lat="54.009335" lon="20.132679"></trkpt><trkpt lat="54.00906" lon="20.133664"></trkpt><trkpt lat="54.008207" lon="20.137673"></trkpt><trkpt lat="54.008185" lon="20.138059"></trkpt><trkpt lat="54.008233" lon="20.14004"></trkpt><trkpt lat="54.008354" lon="20.141574"></trkpt><trkpt lat="54.008558" lon="20.142592"></trkpt><trkpt lat="54.008998" lon="20.143632"></trkpt><trkpt lat="54.010217" lon="20.145941"></trkpt><trkpt lat="54.010801" lon="20.14657"></trkpt><trkpt lat="54.011491" lon="20.147434"></trkpt><trkpt lat="54.012575" lon="20.149005"></trkpt><trkpt lat="54.01267" lon="20.149418"></trkpt><trkpt lat="54.012683" lon="20.150425"></trkpt><trkpt lat="54.012635" lon="20.151135"></trkpt><trkpt lat="54.012508" lon="20.151851"></trkpt><trkpt lat="54.012327" lon="20.152373"></trkpt><trkpt lat="54.012079" lon="20.152967"></trkpt><trkpt lat="54.009477" lon="20.158177"></trkpt><trkpt lat="54.009162" lon="20.158622"></trkpt><trkpt lat="54.008955" lon="20.158974"></trkpt><trkpt lat="54.008528" lon="20.159509"></trkpt><trkpt lat="54.004788" lon="20.164922"></trkpt><trkpt lat="54.002506" lon="20.167238"></trkpt><trkpt lat="54.002208" lon="20.167148"></trkpt><trkpt lat="54.001594" lon="20.167053"></trkpt><trkpt lat="54.00142" lon="20.166727"></trkpt><trkpt lat="54.00134" lon="20.166383"></trkpt><trkpt lat="54.001406" lon="20.166838"></trkpt><trkpt lat="54.001593" lon="20.167054"></trkpt><trkpt lat="54.001862" lon="20.16707"></trkpt><trkpt lat="54.002467" lon="20.167205"></trkpt><trkpt lat="54.003216" lon="20.167506"></trkpt><trkpt lat="54.003082" lon="20.168333"></trkpt><trkpt lat="54.003025" lon="20.168826"></trkpt><trkpt lat="54.002053" lon="20.182098"></trkpt><trkpt lat="54.002158" lon="20.182754"></trkpt><trkpt lat="54.00571" lon="20.213653"></trkpt><trkpt lat="54.005687" lon="20.214205"></trkpt><trkpt lat="54.005605" lon="20.21481"></trkpt><trkpt lat="54.004615" lon="20.219835"></trkpt><trkpt lat="54.004314" lon="20.220912"></trkpt><trkpt lat="53.995295" lon="20.260004"></trkpt><trkpt lat="53.995255" lon="20.260338"></trkpt><trkpt lat="53.995244" lon="20.260898"></trkpt><trkpt lat="53.995172" lon="20.261305"></trkpt><trkpt lat="53.995102" lon="20.262279"></trkpt><trkpt lat="53.994808" lon="20.272827"></trkpt><trkpt lat="53.994863" lon="20.274861"></trkpt><trkpt lat="53.995723" lon="20.286552"></trkpt><trkpt lat="53.995899" lon="20.287579"></trkpt><trkpt lat="53.99701" lon="20.296631"></trkpt><trkpt lat="53.996998" lon="20.297333"></trkpt><trkpt lat="53.995599" lon="20.314201"></trkpt><trkpt lat="53.994782" lon="20.315106"></trkpt><trkpt lat="53.994493" lon="20.31537"></trkpt><trkpt lat="53.994039" lon="20.315931"></trkpt><trkpt lat="53.992517" lon="20.318419"></trkpt><trkpt lat="53.992356" lon="20.318979"></trkpt><trkpt lat="53.992225" lon="20.319602"></trkpt><trkpt lat="53.992219" lon="20.320074"></trkpt><trkpt lat="53.992286" lon="20.320522"></trkpt><trkpt lat="53.992392" lon="20.32082"></trkpt><trkpt lat="53.99262" lon="20.321584"></trkpt><trkpt lat="53.993528" lon="20.325705"></trkpt><trkpt lat="53.993615" lon="20.327405"></trkpt><trkpt lat="53.993614" lon="20.333345"></trkpt><trkpt lat="53.993509" lon="20.334134"></trkpt><trkpt lat="53.993248" lon="20.335183"></trkpt><trkpt lat="53.992875" lon="20.336192"></trkpt><trkpt lat="53.989887" lon="20.347201"></trkpt><trkpt lat="53.990262" lon="20.348738"></trkpt><trkpt lat="53.990558" lon="20.350754"></trkpt><trkpt lat="53.99055" lon="20.351145"></trkpt><trkpt lat="53.990513" lon="20.351511"></trkpt><trkpt lat="53.990363" lon="20.351961"></trkpt><trkpt lat="53.988698" lon="20.358624"></trkpt><trkpt lat="53.98864" lon="20.360282"></trkpt><trkpt lat="53.988872" lon="20.390633"></trkpt><trkpt lat="53.988923" lon="20.39122"></trkpt><trkpt lat="53.988975" lon="20.395438"></trkpt><trkpt lat="53.988603" lon="20.395719"></trkpt><trkpt lat="53.987144" lon="20.397066"></trkpt><trkpt lat="53.987138" lon="20.397415"></trkpt><trkpt lat="53.987204" lon="20.397749"></trkpt><trkpt lat="53.986934" lon="20.398008"></trkpt><trkpt lat="53.986921" lon="20.398577"></trkpt><trkpt lat="53.986877" lon="20.399072"></trkpt><trkpt lat="53.986689" lon="20.399247"></trkpt></trkseg></trk></gpx>