<?xml version="1.0" encoding="UTF-8" standalone="no" ?><gpx xmlns="http://www.topografix.com/GPX/1/1" xmlns:gpxx="http://www.garmin.com/xmlschemas/GpxExtensions/v3" ><trk><trkseg><trkpt lat="52.479349" lon="17.27707"></trkpt><trkpt lat="52.479488" lon="17.277678"></trkpt><trkpt lat="52.479804" lon="17.279452"></trkpt><trkpt lat="52.479961" lon="17.280036"></trkpt><trkpt lat="52.480199" lon="17.279667"></trkpt><trkpt lat="52.480703" lon="17.280572"></trkpt><trkpt lat="52.481152" lon="17.281724"></trkpt><trkpt lat="52.481332" lon="17.282542"></trkpt><trkpt lat="52.481046" lon="17.282974"></trkpt><trkpt lat="52.481309" lon="17.282601"></trkpt><trkpt lat="52.481781" lon="17.28229"></trkpt><trkpt lat="52.482193" lon="17.282108"></trkpt><trkpt lat="52.482437" lon="17.282049"></trkpt><trkpt lat="52.482637" lon="17.282149"></trkpt><trkpt lat="52.482888" lon="17.282237"></trkpt><trkpt lat="52.483197" lon="17.282442"></trkpt><trkpt lat="52.484632" lon="17.284173"></trkpt><trkpt lat="52.484772" lon="17.284413"></trkpt><trkpt lat="52.485314" lon="17.284283"></trkpt><trkpt lat="52.489811" lon="17.282548"></trkpt><trkpt lat="52.490274" lon="17.282088"></trkpt><trkpt lat="52.493069" lon="17.279798"></trkpt><trkpt lat="52.493184" lon="17.280772"></trkpt><trkpt lat="52.49344" lon="17.282216"></trkpt><trkpt lat="52.49352" lon="17.283308"></trkpt><trkpt lat="52.49348" lon="17.28393"></trkpt><trkpt lat="52.49332" lon="17.284907"></trkpt><trkpt lat="52.493293" lon="17.285806"></trkpt><trkpt lat="52.49332" lon="17.286843"></trkpt><trkpt lat="52.493248" lon="17.28781"></trkpt><trkpt lat="52.492813" lon="17.291132"></trkpt><trkpt lat="52.492644" lon="17.293087"></trkpt><trkpt lat="52.492629" lon="17.293501"></trkpt><trkpt lat="52.493132" lon="17.293731"></trkpt><trkpt lat="52.493953" lon="17.293995"></trkpt><trkpt lat="52.496608" lon="17.29536"></trkpt><trkpt lat="52.497368" lon="17.29588"></trkpt><trkpt lat="52.51645" lon="17.306363"></trkpt><trkpt lat="52.516524" lon="17.306029"></trkpt><trkpt lat="52.516699" lon="17.304839"></trkpt><trkpt lat="52.517002" lon="17.303361"></trkpt><trkpt lat="52.517195" lon="17.30321"></trkpt><trkpt lat="52.518193" lon="17.303206"></trkpt><trkpt lat="52.522344" lon="17.303715"></trkpt><trkpt lat="52.523587" lon="17.304046"></trkpt><trkpt lat="52.525665" lon="17.304322"></trkpt><trkpt lat="52.525997" lon="17.304327"></trkpt><trkpt lat="52.526168" lon="17.304509"></trkpt><trkpt lat="52.526268" lon="17.304818"></trkpt><trkpt lat="52.526492" lon="17.305918"></trkpt><trkpt lat="52.527551" lon="17.309872"></trkpt><trkpt lat="52.528705" lon="17.312478"></trkpt><trkpt lat="52.52915" lon="17.312743"></trkpt><trkpt lat="52.534613" lon="17.315272"></trkpt><trkpt lat="52.536593" lon="17.314104"></trkpt><trkpt lat="52.54271" lon="17.311539"></trkpt><trkpt lat="52.544031" lon="17.312472"></trkpt><trkpt lat="52.54435" lon="17.313096"></trkpt><trkpt lat="52.544623" lon="17.313721"></trkpt><trkpt lat="52.545444" lon="17.315173"></trkpt><trkpt lat="52.545898" lon="17.315631"></trkpt><trkpt lat="52.558262" lon="17.330934"></trkpt><trkpt lat="52.558343" lon="17.331895"></trkpt><trkpt lat="52.558369" lon="17.332558"></trkpt><trkpt lat="52.558747" lon="17.332721"></trkpt><trkpt lat="52.558966" lon="17.332746"></trkpt><trkpt lat="52.560774" lon="17.333233"></trkpt><trkpt lat="52.561392" lon="17.333542"></trkpt><trkpt lat="52.575649" lon="17.343145"></trkpt><trkpt lat="52.575997" lon="17.344003"></trkpt><trkpt lat="52.579995" lon="17.355794"></trkpt><trkpt lat="52.579844" lon="17.356607"></trkpt><trkpt lat="52.57965" lon="17.358107"></trkpt><trkpt lat="52.579525" lon="17.35843"></trkpt><trkpt lat="52.579424" lon="17.359333"></trkpt><trkpt lat="52.579234" lon="17.360448"></trkpt><trkpt lat="52.579064" lon="17.360735"></trkpt><trkpt lat="52.578608" lon="17.361649"></trkpt><trkpt lat="52.578045" lon="17.362574"></trkpt><trkpt lat="52.577851" lon="17.362685"></trkpt><trkpt lat="52.577949" lon="17.363341"></trkpt><trkpt lat="52.578059" lon="17.363647"></trkpt><trkpt lat="52.58258" lon="17.378552"></trkpt><trkpt lat="52.582666" lon="17.378894"></trkpt><trkpt lat="52.584886" lon="17.390344"></trkpt><trkpt lat="52.584787" lon="17.390684"></trkpt><trkpt lat="52.58477" lon="17.391052"></trkpt><trkpt lat="52.584923" lon="17.390165"></trkpt><trkpt lat="52.585235" lon="17.389476"></trkpt><trkpt lat="52.585806" lon="17.388948"></trkpt><trkpt lat="52.586365" lon="17.388027"></trkpt><trkpt lat="52.58688" lon="17.387369"></trkpt><trkpt lat="52.587094" lon="17.387149"></trkpt><trkpt lat="52.587599" lon="17.386945"></trkpt><trkpt lat="52.588752" lon="17.387233"></trkpt><trkpt lat="52.589331" lon="17.386463"></trkpt><trkpt lat="52.590778" lon="17.384849"></trkpt><trkpt lat="52.591363" lon="17.38469"></trkpt><trkpt lat="52.591614" lon="17.384496"></trkpt><trkpt lat="52.591787" lon="17.384222"></trkpt><trkpt lat="52.591893" lon="17.383917"></trkpt><trkpt lat="52.592487" lon="17.382525"></trkpt><trkpt lat="52.592721" lon="17.38233"></trkpt><trkpt lat="52.592966" lon="17.382306"></trkpt><trkpt lat="52.593184" lon="17.38243"></trkpt><trkpt lat="52.593717" lon="17.38306"></trkpt><trkpt lat="52.593911" lon="17.383139"></trkpt><trkpt lat="52.594404" lon="17.382861"></trkpt><trkpt lat="52.594957" lon="17.382922"></trkpt><trkpt lat="52.602151" lon="17.384586"></trkpt><trkpt lat="52.60218" lon="17.38509"></trkpt><trkpt lat="52.602163" lon="17.385454"></trkpt><trkpt lat="52.602118" lon="17.385924"></trkpt><trkpt lat="52.602099" lon="17.386446"></trkpt><trkpt lat="52.602133" lon="17.38882"></trkpt><trkpt lat="52.602351" lon="17.3889"></trkpt><trkpt lat="52.60258" lon="17.388595"></trkpt><trkpt lat="52.603097" lon="17.387677"></trkpt><trkpt lat="52.603089" lon="17.388008"></trkpt><trkpt lat="52.603597" lon="17.38745"></trkpt><trkpt lat="52.604059" lon="17.387053"></trkpt><trkpt lat="52.604371" lon="17.387071"></trkpt><trkpt lat="52.604149" lon="17.387021"></trkpt><trkpt lat="52.604363" lon="17.386929"></trkpt><trkpt lat="52.604632" lon="17.387092"></trkpt><trkpt lat="52.605114" lon="17.387225"></trkpt><trkpt lat="52.605376" lon="17.387392"></trkpt><trkpt lat="52.605559" lon="17.387616"></trkpt><trkpt lat="52.605806" lon="17.388394"></trkpt><trkpt lat="52.605946" lon="17.389415"></trkpt><trkpt lat="52.609279" lon="17.407146"></trkpt><trkpt lat="52.609537" lon="17.407211"></trkpt><trkpt lat="52.61845" lon="17.406343"></trkpt><trkpt lat="52.618926" lon="17.40651"></trkpt><trkpt lat="52.619896" lon="17.406293"></trkpt><trkpt lat="52.630035" lon="17.405809"></trkpt><trkpt lat="52.630634" lon="17.406622"></trkpt><trkpt lat="52.638127" lon="17.418333"></trkpt><trkpt lat="52.63837" lon="17.419303"></trkpt><trkpt lat="52.63934" lon="17.426378"></trkpt><trkpt lat="52.639145" lon="17.426594"></trkpt><trkpt lat="52.637391" lon="17.428053"></trkpt><trkpt lat="52.636842" lon="17.428346"></trkpt><trkpt lat="52.63579" lon="17.428714"></trkpt><trkpt lat="52.635291" lon="17.428629"></trkpt><trkpt lat="52.635019" lon="17.428476"></trkpt><trkpt lat="52.634815" lon="17.428192"></trkpt><trkpt lat="52.634743" lon="17.427847"></trkpt><trkpt lat="52.634501" lon="17.427826"></trkpt><trkpt lat="52.63442" lon="17.428154"></trkpt><trkpt lat="52.634776" lon="17.428379"></trkpt><trkpt lat="52.635625" lon="17.428708"></trkpt><trkpt lat="52.635976" lon="17.428705"></trkpt><trkpt lat="52.636607" lon="17.428435"></trkpt><trkpt lat="52.638533" lon="17.427301"></trkpt><trkpt lat="52.638861" lon="17.426921"></trkpt><trkpt lat="52.640589" lon="17.425241"></trkpt><trkpt lat="52.640808" lon="17.4253"></trkpt><trkpt lat="52.641322" lon="17.42557"></trkpt><trkpt lat="52.641967" lon="17.426064"></trkpt><trkpt lat="52.646424" lon="17.428857"></trkpt><trkpt lat="52.647875" lon="17.42947"></trkpt><trkpt lat="52.648685" lon="17.429711"></trkpt><trkpt lat="52.653151" lon="17.430463"></trkpt><trkpt lat="52.653848" lon="17.43046"></trkpt><trkpt lat="52.676954" lon="17.432378"></trkpt><trkpt lat="52.678322" lon="17.432666"></trkpt><trkpt lat="52.678847" lon="17.432847"></trkpt><trkpt lat="52.679582" lon="17.432277"></trkpt><trkpt lat="52.680159" lon="17.432224"></trkpt><trkpt lat="52.687131" lon="17.430638"></trkpt><trkpt lat="52.6874" lon="17.430298"></trkpt><trkpt lat="52.689387" lon="17.428165"></trkpt><trkpt lat="52.689644" lon="17.428206"></trkpt><trkpt lat="52.689912" lon="17.428289"></trkpt><trkpt lat="52.690223" lon="17.428338"></trkpt><trkpt lat="52.698114" lon="17.428096"></trkpt><trkpt lat="52.698208" lon="17.427053"></trkpt><trkpt lat="52.698639" lon="17.414374"></trkpt><trkpt lat="52.69844" lon="17.413484"></trkpt><trkpt lat="52.69828" lon="17.412408"></trkpt><trkpt lat="52.698123" lon="17.410832"></trkpt><trkpt lat="52.698159" lon="17.409682"></trkpt><trkpt lat="52.698117" lon="17.405954"></trkpt><trkpt lat="52.698271" lon="17.403426"></trkpt><trkpt lat="52.698499" lon="17.402579"></trkpt><trkpt lat="52.698659" lon="17.40164"></trkpt><trkpt lat="52.698966" lon="17.400632"></trkpt><trkpt lat="52.699549" lon="17.398175"></trkpt><trkpt lat="52.699266" lon="17.39743"></trkpt><trkpt lat="52.694184" lon="17.386457"></trkpt><trkpt lat="52.693883" lon="17.384898"></trkpt><trkpt lat="52.693833" lon="17.384412"></trkpt><trkpt lat="52.693226" lon="17.372001"></trkpt><trkpt lat="52.693514" lon="17.370809"></trkpt><trkpt lat="52.694082" lon="17.367804"></trkpt><trkpt lat="52.694115" lon="17.367391"></trkpt><trkpt lat="52.694375" lon="17.353949"></trkpt><trkpt lat="52.693923" lon="17.352787"></trkpt><trkpt lat="52.689323" lon="17.338127"></trkpt><trkpt lat="52.689923" lon="17.337995"></trkpt><trkpt lat="52.69313" lon="17.336905"></trkpt><trkpt lat="52.693466" lon="17.336515"></trkpt><trkpt lat="52.702739" lon="17.324054"></trkpt><trkpt lat="52.70767" lon="17.318654"></trkpt><trkpt lat="52.707906" lon="17.318692"></trkpt><trkpt lat="52.731025" lon="17.316899"></trkpt><trkpt lat="52.732522" lon="17.317332"></trkpt><trkpt lat="52.733282" lon="17.317681"></trkpt><trkpt lat="52.745536" lon="17.325707"></trkpt><trkpt lat="52.745567" lon="17.326443"></trkpt><trkpt lat="52.745495" lon="17.328755"></trkpt><trkpt lat="52.745519" lon="17.329097"></trkpt><trkpt lat="52.746166" lon="17.329527"></trkpt><trkpt lat="52.748291" lon="17.330412"></trkpt><trkpt lat="52.748961" lon="17.330247"></trkpt><trkpt lat="52.750497" lon="17.330216"></trkpt><trkpt lat="52.750695" lon="17.330107"></trkpt><trkpt lat="52.750745" lon="17.329725"></trkpt><trkpt lat="52.750675" lon="17.328778"></trkpt><trkpt lat="52.750544" lon="17.328361"></trkpt><trkpt lat="52.750164" lon="17.32738"></trkpt><trkpt lat="52.750067" lon="17.327054"></trkpt><trkpt lat="52.749805" lon="17.325218"></trkpt><trkpt lat="52.749789" lon="17.322806"></trkpt><trkpt lat="52.749924" lon="17.321855"></trkpt><trkpt lat="52.750065" lon="17.320335"></trkpt><trkpt lat="52.752318" lon="17.307927"></trkpt><trkpt lat="52.752677" lon="17.308009"></trkpt><trkpt lat="52.752894" lon="17.308152"></trkpt><trkpt lat="52.753339" lon="17.308682"></trkpt><trkpt lat="52.754394" lon="17.309692"></trkpt><trkpt lat="52.755176" lon="17.30907"></trkpt><trkpt lat="52.755535" lon="17.308692"></trkpt><trkpt lat="52.762522" lon="17.302431"></trkpt><trkpt lat="52.762887" lon="17.302197"></trkpt><trkpt lat="52.783477" lon="17.291865"></trkpt><trkpt lat="52.783918" lon="17.291891"></trkpt><trkpt lat="52.784457" lon="17.291791"></trkpt><trkpt lat="52.784767" lon="17.291595"></trkpt><trkpt lat="52.786649" lon="17.290144"></trkpt><trkpt lat="52.786998" lon="17.289287"></trkpt><trkpt lat="52.792505" lon="17.273467"></trkpt><trkpt lat="52.797915" lon="17.260334"></trkpt><trkpt lat="52.798574" lon="17.259109"></trkpt><trkpt lat="52.799773" lon="17.256428"></trkpt><trkpt lat="52.799953" lon="17.25556"></trkpt><trkpt lat="52.807865" lon="17.219861"></trkpt><trkpt lat="52.810481" lon="17.211518"></trkpt><trkpt lat="52.810694" lon="17.211475"></trkpt><trkpt lat="52.81087" lon="17.211315"></trkpt><trkpt lat="52.811089" lon="17.211342"></trkpt><trkpt lat="52.812509" lon="17.210626"></trkpt><trkpt lat="52.812823" lon="17.210149"></trkpt><trkpt lat="52.813244" lon="17.209815"></trkpt><trkpt lat="52.813541" lon="17.209507"></trkpt><trkpt lat="52.813656" lon="17.209107"></trkpt><trkpt lat="52.813976" lon="17.208561"></trkpt><trkpt lat="52.814274" lon="17.208144"></trkpt><trkpt lat="52.814827" lon="17.207639"></trkpt><trkpt lat="52.815177" lon="17.207417"></trkpt><trkpt lat="52.81526" lon="17.207066"></trkpt><trkpt lat="52.815108" lon="17.206375"></trkpt><trkpt lat="52.814712" lon="17.203283"></trkpt><trkpt lat="52.814719" lon="17.202947"></trkpt><trkpt lat="52.81475" lon="17.20248"></trkpt><trkpt lat="52.814973" lon="17.202341"></trkpt><trkpt lat="52.815528" lon="17.202577"></trkpt><trkpt lat="52.815736" lon="17.202847"></trkpt><trkpt lat="52.814688" lon="17.202187"></trkpt><trkpt lat="52.814109" lon="17.2019"></trkpt><trkpt lat="52.812903" lon="17.201114"></trkpt><trkpt lat="52.809818" lon="17.199565"></trkpt><trkpt lat="52.809772" lon="17.200529"></trkpt><trkpt lat="52.809788" lon="17.201513"></trkpt><trkpt lat="52.809936" lon="17.201816"></trkpt></trkseg></trk></gpx>