<?xml version="1.0" encoding="UTF-8" standalone="no" ?><gpx xmlns="http://www.topografix.com/GPX/1/1" xmlns:gpxx="http://www.garmin.com/xmlschemas/GpxExtensions/v3" ><trk><trkseg><trkpt lat="52.5298552215" lon="17.603876302"></trkpt><trkpt lat="52.5298047625" lon="17.6032407023"></trkpt><trkpt lat="52.5299467519" lon="17.6028392091"></trkpt><trkpt lat="52.5301722251" lon="17.6024067868"></trkpt><trkpt lat="52.5304898154" lon="17.6021423377"></trkpt><trkpt lat="52.5308064837" lon="17.6020737737"></trkpt><trkpt lat="52.5310390815" lon="17.6017872803"></trkpt><trkpt lat="52.5313000102" lon="17.6020121668"></trkpt><trkpt lat="52.5316571631" lon="17.6021935511"></trkpt><trkpt lat="52.5319825485" lon="17.6022997499"></trkpt><trkpt lat="52.5322653539" lon="17.6024685614"></trkpt><trkpt lat="52.5331589486" lon="17.6028236188"></trkpt><trkpt lat="52.5335328653" lon="17.6025584992"></trkpt><trkpt lat="52.5336039439" lon="17.6019946486"></trkpt><trkpt lat="52.533819275" lon="17.6015688479"></trkpt><trkpt lat="52.5338978972" lon="17.601115806"></trkpt><trkpt lat="52.5339329336" lon="17.6006315835"></trkpt><trkpt lat="52.5340695586" lon="17.6001470257"></trkpt><trkpt lat="52.5343669485" lon="17.5999195408"></trkpt><trkpt lat="52.5346470717" lon="17.5994742103"></trkpt><trkpt lat="52.5348090939" lon="17.5989490002"></trkpt><trkpt lat="52.5362579897" lon="17.5954865199"></trkpt><trkpt lat="52.5361575745" lon="17.5949895568"></trkpt><trkpt lat="52.5362885837" lon="17.5944570545"></trkpt><trkpt lat="52.536547333" lon="17.5938647892"></trkpt><trkpt lat="52.5363738276" lon="17.5929095037"></trkpt><trkpt lat="52.5365355145" lon="17.5925502554"></trkpt><trkpt lat="52.5367190782" lon="17.591989506"></trkpt><trkpt lat="52.5370007101" lon="17.5918080378"></trkpt><trkpt lat="52.5371366646" lon="17.5922296476"></trkpt><trkpt lat="52.5370650832" lon="17.592694927"></trkpt><trkpt lat="52.5369260274" lon="17.5931697618"></trkpt><trkpt lat="52.536901636" lon="17.5936945528"></trkpt><trkpt lat="52.5372167956" lon="17.5939966366"></trkpt><trkpt lat="52.5374186318" lon="17.5944300648"></trkpt><trkpt lat="52.5375795644" lon="17.5949648302"></trkpt><trkpt lat="52.53751955" lon="17.595467912"></trkpt><trkpt lat="52.5373656582" lon="17.5960665476"></trkpt><trkpt lat="52.5372835156" lon="17.596554542"></trkpt><trkpt lat="52.5372544304" lon="17.5972980168"></trkpt><trkpt lat="52.537282845" lon="17.598131597"></trkpt><trkpt lat="52.5370241795" lon="17.5985260494"></trkpt><trkpt lat="52.5367503427" lon="17.5983553939"></trkpt><trkpt lat="52.5364378653" lon="17.598274257"></trkpt><trkpt lat="52.5364148989" lon="17.597642513"></trkpt><trkpt lat="52.5362461712" lon="17.5971773174"></trkpt><trkpt lat="52.5363596622" lon="17.5966175739"></trkpt><trkpt lat="52.5363982189" lon="17.5961283222"></trkpt><trkpt lat="52.5363038387" lon="17.5956736039"></trkpt><trkpt lat="52.5358426664" lon="17.5958965626"></trkpt><trkpt lat="52.5356735196" lon="17.5964242034"></trkpt><trkpt lat="52.5355971605" lon="17.5968800113"></trkpt><trkpt lat="52.5354180392" lon="17.5976027828"></trkpt><trkpt lat="52.5351742096" lon="17.5983027555"></trkpt><trkpt lat="52.5348910689" lon="17.5985029154"></trkpt><trkpt lat="52.5345495902" lon="17.5984292384"></trkpt><trkpt lat="52.5342630129" lon="17.5982975587"></trkpt><trkpt lat="52.5339864939" lon="17.5982308388"></trkpt><trkpt lat="52.5335430913" lon="17.5982336886"></trkpt><trkpt lat="52.533220388" lon="17.5981696509"></trkpt><trkpt lat="52.5328560267" lon="17.5980040245"></trkpt><trkpt lat="52.5321746618" lon="17.5981949642"></trkpt><trkpt lat="52.5317896809" lon="17.5983955432"></trkpt><trkpt lat="52.5314942189" lon="17.598487325"></trkpt><trkpt lat="52.5313130859" lon="17.5988650974"></trkpt><trkpt lat="52.5310484692" lon="17.5992026366"></trkpt><trkpt lat="52.5310432725" lon="17.5996820815"></trkpt><trkpt lat="52.531169923" lon="17.6002189424"></trkpt><trkpt lat="52.5311093219" lon="17.6006598305"></trkpt><trkpt lat="52.5311581884" lon="17.6012854557"></trkpt><trkpt lat="52.530993484" lon="17.6019379869"></trkpt><trkpt lat="52.5306318048" lon="17.6022462733"></trkpt><trkpt lat="52.5303017255" lon="17.6023452636"></trkpt><trkpt lat="52.5300429761" lon="17.6028146502"></trkpt><trkpt lat="52.5297757611" lon="17.602999052"></trkpt></trkseg></trk></gpx>