<?xml version="1.0" encoding="UTF-8" standalone="no" ?><gpx xmlns="http://www.topografix.com/GPX/1/1" xmlns:gpxx="http://www.garmin.com/xmlschemas/GpxExtensions/v3" ><trk><trkseg><trkpt lat="52.6139842998" lon="17.0941814873"></trkpt><trkpt lat="52.6141653489" lon="17.093700869"></trkpt><trkpt lat="52.6144780777" lon="17.0933352504"></trkpt><trkpt lat="52.6148258429" lon="17.09354572"></trkpt><trkpt lat="52.6150905434" lon="17.0936616417"></trkpt><trkpt lat="52.6193698402" lon="17.0962238219"></trkpt><trkpt lat="52.6197005063" lon="17.0966233034"></trkpt><trkpt lat="52.627219744" lon="17.1047909651"></trkpt><trkpt lat="52.6274608914" lon="17.1050046198"></trkpt><trkpt lat="52.6319192257" lon="17.1081014816"></trkpt><trkpt lat="52.6326822303" lon="17.1083571296"></trkpt><trkpt lat="52.6329395548" lon="17.1079521161"></trkpt><trkpt lat="52.6346801408" lon="17.1056620125"></trkpt><trkpt lat="52.6344762929" lon="17.1053371299"></trkpt><trkpt lat="52.6343448646" lon="17.1057693847"></trkpt><trkpt lat="52.6344017778" lon="17.1063494962"></trkpt><trkpt lat="52.6346472837" lon="17.1066348162"></trkpt><trkpt lat="52.6412713341" lon="17.1129644103"></trkpt><trkpt lat="52.6436975598" lon="17.110128561"></trkpt><trkpt lat="52.6437574904" lon="17.1096129064"></trkpt><trkpt lat="52.6438392978" lon="17.1091419272"></trkpt><trkpt lat="52.6438149065" lon="17.1086307988"></trkpt><trkpt lat="52.6436923631" lon="17.1076070331"></trkpt><trkpt lat="52.6439154055" lon="17.1079714783"></trkpt><trkpt lat="52.6441982947" lon="17.1079648566"></trkpt><trkpt lat="52.6444673538" lon="17.1075958014"></trkpt><trkpt lat="52.6447116863" lon="17.1073929593"></trkpt><trkpt lat="52.645032797" lon="17.1072091442"></trkpt><trkpt lat="52.6453343779" lon="17.1071005985"></trkpt><trkpt lat="52.6455963962" lon="17.1069230698"></trkpt><trkpt lat="52.6459022518" lon="17.1066616382"></trkpt><trkpt lat="52.6461044233" lon="17.1063299663"></trkpt><trkpt lat="52.6462932676" lon="17.1059293114"></trkpt><trkpt lat="52.6465898193" lon="17.1055256389"></trkpt><trkpt lat="52.6476081368" lon="17.1043849457"></trkpt><trkpt lat="52.6478872541" lon="17.1041850373"></trkpt><trkpt lat="52.6482109632" lon="17.104024021"></trkpt><trkpt lat="52.6486027334" lon="17.1039361786"></trkpt><trkpt lat="52.6488633268" lon="17.1037811134"></trkpt><trkpt lat="52.6496108249" lon="17.1034696419"></trkpt><trkpt lat="52.6499213744" lon="17.1034384612"></trkpt><trkpt lat="52.6509752311" lon="17.1036992222"></trkpt><trkpt lat="52.6511996984" lon="17.1041033138"></trkpt><trkpt lat="52.6514405943" lon="17.1043154597"></trkpt><trkpt lat="52.6521710772" lon="17.1051062923"></trkpt><trkpt lat="52.6524734963" lon="17.1053293347"></trkpt><trkpt lat="52.6527412981" lon="17.105595544"></trkpt><trkpt lat="52.6551750675" lon="17.1085323952"></trkpt><trkpt lat="52.6554637402" lon="17.1090102475"></trkpt><trkpt lat="52.6557674166" lon="17.1094251517"></trkpt><trkpt lat="52.6560753677" lon="17.1100667026"></trkpt><trkpt lat="52.6560388226" lon="17.1105115302"></trkpt><trkpt lat="52.6559632178" lon="17.1110145282"></trkpt><trkpt lat="52.6558084879" lon="17.1114863455"></trkpt><trkpt lat="52.655630121" lon="17.1118299197"></trkpt><trkpt lat="52.6553707011" lon="17.1116955578"></trkpt><trkpt lat="52.6544695627" lon="17.1114808973"></trkpt><trkpt lat="52.6543196104" lon="17.1118657105"></trkpt><trkpt lat="52.6541291736" lon="17.112245746"></trkpt><trkpt lat="52.6543235499" lon="17.1125948522"></trkpt><trkpt lat="52.6547309104" lon="17.1128713712"></trkpt><trkpt lat="52.6550966129" lon="17.1131958347"></trkpt><trkpt lat="52.6549542882" lon="17.1136539895"></trkpt><trkpt lat="52.6539672352" lon="17.1160070412"></trkpt><trkpt lat="52.6536670793" lon="17.1159545705"></trkpt><trkpt lat="52.6534337271" lon="17.115702359"></trkpt><trkpt lat="52.65312762" lon="17.1154877823"></trkpt><trkpt lat="52.652848335" lon="17.1153589524"></trkpt><trkpt lat="52.652570894" lon="17.1154225711"></trkpt><trkpt lat="52.6522345282" lon="17.1152773127"></trkpt><trkpt lat="52.6519597694" lon="17.1152613033"></trkpt><trkpt lat="52.6516508125" lon="17.1156024467"></trkpt><trkpt lat="52.6514650695" lon="17.1152727026"></trkpt><trkpt lat="52.6517460309" lon="17.1152523346"></trkpt><trkpt lat="52.6520769484" lon="17.1153473016"></trkpt><trkpt lat="52.6523492765" lon="17.1154819988"></trkpt><trkpt lat="52.6526946109" lon="17.1155032888"></trkpt><trkpt lat="52.652969202" lon="17.1156599466"></trkpt><trkpt lat="52.6532120258" lon="17.1158664767"></trkpt><trkpt lat="52.6534818392" lon="17.1161553171"></trkpt><trkpt lat="52.6537560951" lon="17.1161751822"></trkpt><trkpt lat="52.6543032657" lon="17.1163223684"></trkpt><trkpt lat="52.654679697" lon="17.1163542196"></trkpt><trkpt lat="52.655086806" lon="17.1165317483"></trkpt><trkpt lat="52.6576219127" lon="17.1182481945"></trkpt><trkpt lat="52.657717634" lon="17.1187627595"></trkpt><trkpt lat="52.6609200239" lon="17.1326814964"></trkpt><trkpt lat="52.6611199323" lon="17.1330532338"></trkpt><trkpt lat="52.6613821182" lon="17.1333414875"></trkpt><trkpt lat="52.6616293006" lon="17.1337059326"></trkpt><trkpt lat="52.6621536724" lon="17.1343357489"></trkpt><trkpt lat="52.6624487154" lon="17.1344017144"></trkpt><trkpt lat="52.6631439105" lon="17.13475761"></trkpt><trkpt lat="52.6632447448" lon="17.1352250688"></trkpt><trkpt lat="52.6633878238" lon="17.1357381251"></trkpt><trkpt lat="52.6638173126" lon="17.1368050575"></trkpt><trkpt lat="52.6641099248" lon="17.1372029465"></trkpt><trkpt lat="52.664473867" lon="17.1375004202"></trkpt><trkpt lat="52.6650012564" lon="17.1380697191"></trkpt><trkpt lat="52.6651414018" lon="17.1384968609"></trkpt><trkpt lat="52.6652353629" lon="17.1389991045"></trkpt><trkpt lat="52.665396044" lon="17.1395232249"></trkpt><trkpt lat="52.6654814556" lon="17.1399544738"></trkpt><trkpt lat="52.6656418853" lon="17.1405417938"></trkpt><trkpt lat="52.6657011453" lon="17.1410956699"></trkpt><trkpt lat="52.6657965314" lon="17.1415934712"></trkpt><trkpt lat="52.6659438014" lon="17.142025223"></trkpt><trkpt lat="52.6659993734" lon="17.1424690448"></trkpt><trkpt lat="52.6661194023" lon="17.1430364996"></trkpt><trkpt lat="52.666276563" lon="17.1436094027"></trkpt><trkpt lat="52.6665051375" lon="17.1439811401"></trkpt><trkpt lat="52.666784171" lon="17.1442063618"></trkpt><trkpt lat="52.667072257" lon="17.1443802025"></trkpt><trkpt lat="52.6684546843" lon="17.1448622458"></trkpt><trkpt lat="52.6688906271" lon="17.1448563784"></trkpt><trkpt lat="52.6692321058" lon="17.1447854675"></trkpt><trkpt lat="52.6704638265" lon="17.1456135157"></trkpt><trkpt lat="52.6710752863" lon="17.1461911965"></trkpt><trkpt lat="52.6711367257" lon="17.1466837171"></trkpt><trkpt lat="52.6710727718" lon="17.1471401118"></trkpt><trkpt lat="52.6707509905" lon="17.1513513476"></trkpt><trkpt lat="52.6708161179" lon="17.1519823372"></trkpt><trkpt lat="52.6709103305" lon="17.1524473652"></trkpt><trkpt lat="52.6709415112" lon="17.1529135667"></trkpt><trkpt lat="52.6710837521" lon="17.1533700451"></trkpt><trkpt lat="52.671095822" lon="17.1538447123"></trkpt><trkpt lat="52.6710358914" lon="17.1552257985"></trkpt><trkpt lat="52.6711043715" lon="17.1575620025"></trkpt><trkpt lat="52.6711539086" lon="17.1580187324"></trkpt><trkpt lat="52.6712747756" lon="17.1585134324"></trkpt><trkpt lat="52.6716131531" lon="17.1595336776"></trkpt><trkpt lat="52.6717942022" lon="17.159973057"></trkpt><trkpt lat="52.6720901672" lon="17.1604794916"></trkpt><trkpt lat="52.6725329831" lon="17.1607053"></trkpt><trkpt lat="52.6740331762" lon="17.1617144812"></trkpt><trkpt lat="52.6742551289" lon="17.1620180737"></trkpt><trkpt lat="52.6745638344" lon="17.1620453987"></trkpt></trkseg></trk></gpx>