<?xml version="1.0" encoding="UTF-8" standalone="no" ?><gpx xmlns="http://www.topografix.com/GPX/1/1" xmlns:gpxx="http://www.garmin.com/xmlschemas/GpxExtensions/v3" ><trk><trkseg><trkpt lat="49.682016531" lon="19.4904757384"></trkpt><trkpt lat="49.6819853503" lon="19.4892657269"></trkpt><trkpt lat="49.6816410217" lon="19.4866243377"></trkpt><trkpt lat="49.6812048275" lon="19.4857127219"></trkpt><trkpt lat="49.680513991" lon="19.4835755881"></trkpt><trkpt lat="49.6797753777" lon="19.4836175814"></trkpt><trkpt lat="49.6771586314" lon="19.4827703387"></trkpt><trkpt lat="49.6764734946" lon="19.4822763931"></trkpt><trkpt lat="49.6757457778" lon="19.4821243454"></trkpt><trkpt lat="49.6746135503" lon="19.4815605786"></trkpt><trkpt lat="49.6740220394" lon="19.4809104782"></trkpt><trkpt lat="49.672993999" lon="19.481671555"></trkpt><trkpt lat="49.672523858" lon="19.4808054529"></trkpt><trkpt lat="49.6718311775" lon="19.4803420175"></trkpt><trkpt lat="49.671061635" lon="19.4806339592"></trkpt><trkpt lat="49.6703902446" lon="19.480065247"></trkpt><trkpt lat="49.6699520387" lon="19.4790642802"></trkpt><trkpt lat="49.6696463507" lon="19.4779895525"></trkpt><trkpt lat="49.6691562608" lon="19.474990759"></trkpt><trkpt lat="49.6688691806" lon="19.4739550911"></trkpt><trkpt lat="49.6688718628" lon="19.4728012383"></trkpt><trkpt lat="49.6685448848" lon="19.4695603754"></trkpt><trkpt lat="49.668181194" lon="19.4685020763"></trkpt><trkpt lat="49.6675668843" lon="19.4679180253"></trkpt><trkpt lat="49.6669270936" lon="19.4688013941"></trkpt><trkpt lat="49.666506825" lon="19.4697990082"></trkpt><trkpt lat="49.665422542" lon="19.4716077391"></trkpt><trkpt lat="49.6632253937" lon="19.474274274"></trkpt><trkpt lat="49.6628242359" lon="19.475221429"></trkpt><trkpt lat="49.6621339861" lon="19.4756702799"></trkpt><trkpt lat="49.6615905035" lon="19.4764674827"></trkpt><trkpt lat="49.661034029" lon="19.4775886461"></trkpt><trkpt lat="49.6611992363" lon="19.4787287526"></trkpt><trkpt lat="49.6610680595" lon="19.4798577111"></trkpt><trkpt lat="49.6610389743" lon="19.4822139479"></trkpt><trkpt lat="49.6613308322" lon="19.4854357839"></trkpt><trkpt lat="49.6617682837" lon="19.4863343239"></trkpt><trkpt lat="49.6623331401" lon="19.4871240668"></trkpt><trkpt lat="49.6629766189" lon="19.4877699763"></trkpt><trkpt lat="49.6636058483" lon="19.4886734616"></trkpt><trkpt lat="49.664027961" lon="19.489576444"></trkpt><trkpt lat="49.6646291949" lon="19.4902329985"></trkpt><trkpt lat="49.6673598513" lon="19.494361924"></trkpt><trkpt lat="49.6674987394" lon="19.4954888709"></trkpt><trkpt lat="49.6687077451" lon="19.5093078632"></trkpt><trkpt lat="49.6690730285" lon="19.5104131009"></trkpt><trkpt lat="49.6725058369" lon="19.5175732579"></trkpt><trkpt lat="49.6732365713" lon="19.5177349448"></trkpt><trkpt lat="49.6820833348" lon="19.5145035535"></trkpt><trkpt lat="49.683270799" lon="19.5137328375"></trkpt><trkpt lat="49.6839232463" lon="19.5130785462"></trkpt><trkpt lat="49.6843598597" lon="19.5121774916"></trkpt><trkpt lat="49.6838836838" lon="19.5113138203"></trkpt><trkpt lat="49.6832576394" lon="19.5094281435"></trkpt><trkpt lat="49.6835251059" lon="19.5083918888"></trkpt><trkpt lat="49.6839019563" lon="19.5074194204"></trkpt><trkpt lat="49.6845062077" lon="19.5067415759"></trkpt><trkpt lat="49.6861068159" lon="19.5054879785"></trkpt><trkpt lat="49.6864410862" lon="19.5044621173"></trkpt><trkpt lat="49.685977567" lon="19.5032474957"></trkpt><trkpt lat="49.6854513511" lon="19.5022859238"></trkpt><trkpt lat="49.6851398796" lon="19.5012142137"></trkpt><trkpt lat="49.6846289188" lon="19.500381304"></trkpt><trkpt lat="49.6841949876" lon="19.4993308838"></trkpt><trkpt lat="49.6822560858" lon="19.4924529456"></trkpt><trkpt lat="49.6819863562" lon="19.4904137123"></trkpt></trkseg></trk></gpx>