<?xml version="1.0" encoding="UTF-8" standalone="no" ?><gpx xmlns="http://www.topografix.com/GPX/1/1" xmlns:gpxx="http://www.garmin.com/xmlschemas/GpxExtensions/v3" ><trk><trkseg><trkpt lat="52.5155446306" lon="17.1381564718"></trkpt><trkpt lat="52.5156983547" lon="17.1385385189"></trkpt><trkpt lat="52.515816791" lon="17.1390048042"></trkpt><trkpt lat="52.5158759672" lon="17.1395024378"></trkpt><trkpt lat="52.5157201476" lon="17.1399060264"></trkpt><trkpt lat="52.515514791" lon="17.1407147963"></trkpt><trkpt lat="52.5155371707" lon="17.1411806624"></trkpt><trkpt lat="52.5155113544" lon="17.1417390648"></trkpt><trkpt lat="52.5156321377" lon="17.1422552224"></trkpt><trkpt lat="52.5157766417" lon="17.1430893894"></trkpt><trkpt lat="52.5156618934" lon="17.1435113344"></trkpt><trkpt lat="52.5154646672" lon="17.1440074593"></trkpt><trkpt lat="52.5151692051" lon="17.1444177534"></trkpt><trkpt lat="52.5150746573" lon="17.1449085139"></trkpt><trkpt lat="52.5148649421" lon="17.1456886176"></trkpt><trkpt lat="52.5147053506" lon="17.1464865748"></trkpt><trkpt lat="52.5145504531" lon="17.1476604603"></trkpt><trkpt lat="52.5143058691" lon="17.1488938574"></trkpt><trkpt lat="52.5141860917" lon="17.1493546106"></trkpt><trkpt lat="52.5138570182" lon="17.1511494275"></trkpt><trkpt lat="52.513864059" lon="17.1516325604"></trkpt><trkpt lat="52.5137737021" lon="17.1521719359"></trkpt><trkpt lat="52.5134686008" lon="17.1551025007"></trkpt><trkpt lat="52.5135198981" lon="17.1556085162"></trkpt><trkpt lat="52.5136939902" lon="17.156498339"></trkpt><trkpt lat="52.5138499774" lon="17.1570120659"></trkpt><trkpt lat="52.514071092" lon="17.1573019121"></trkpt><trkpt lat="52.5141465291" lon="17.1577511821"></trkpt><trkpt lat="52.5140272547" lon="17.1583101712"></trkpt><trkpt lat="52.5139538292" lon="17.1587871015"></trkpt><trkpt lat="52.5137664936" lon="17.1595479269"></trkpt><trkpt lat="52.5132364221" lon="17.1611891873"></trkpt><trkpt lat="52.513044728" lon="17.1615197696"></trkpt><trkpt lat="52.5128623378" lon="17.1619819477"></trkpt><trkpt lat="52.5125491899" lon="17.1626301203"></trkpt><trkpt lat="52.5123058632" lon="17.1629501414"></trkpt><trkpt lat="52.5120427553" lon="17.1632185299"></trkpt><trkpt lat="52.5118224788" lon="17.1636802051"></trkpt><trkpt lat="52.5117451139" lon="17.1642411221"></trkpt><trkpt lat="52.5119554158" lon="17.1645577066"></trkpt><trkpt lat="52.512199413" lon="17.1648119297"></trkpt><trkpt lat="52.5125632714" lon="17.1649372391"></trkpt><trkpt lat="52.512716325" lon="17.1653121617"></trkpt><trkpt lat="52.512689922" lon="17.1657836437"></trkpt><trkpt lat="52.51281959" lon="17.1663202532"></trkpt><trkpt lat="52.5130545348" lon="17.1667758934"></trkpt><trkpt lat="52.5133959297" lon="17.1670798212"></trkpt><trkpt lat="52.5137021206" lon="17.1672648098"></trkpt><trkpt lat="52.5139931403" lon="17.1673829947"></trkpt><trkpt lat="52.5146030076" lon="17.1675336175"></trkpt><trkpt lat="52.5148991402" lon="17.167758923"></trkpt><trkpt lat="52.5152055826" lon="17.167813573"></trkpt><trkpt lat="52.5154283736" lon="17.1681063529"></trkpt><trkpt lat="52.5155873783" lon="17.1684832871"></trkpt><trkpt lat="52.515709335" lon="17.1689841058"></trkpt><trkpt lat="52.5157738756" lon="17.1694358904"></trkpt><trkpt lat="52.5157826766" lon="17.1699444205"></trkpt><trkpt lat="52.5157404318" lon="17.1706257015"></trkpt><trkpt lat="52.5156608038" lon="17.1711491514"></trkpt><trkpt lat="52.5156734604" lon="17.1716967411"></trkpt><trkpt lat="52.5156381726" lon="17.1721900161"></trkpt><trkpt lat="52.5156893022" lon="17.1726851352"></trkpt><trkpt lat="52.5156436209" lon="17.1734164562"></trkpt><trkpt lat="52.5156330597" lon="17.1747484244"></trkpt><trkpt lat="52.5154607277" lon="17.1751469001"></trkpt><trkpt lat="52.5152334105" lon="17.1755666658"></trkpt><trkpt lat="52.5152992085" lon="17.1760502178"></trkpt><trkpt lat="52.5150141399" lon="17.1762026008"></trkpt><trkpt lat="52.5147300772" lon="17.1764566563"></trkpt><trkpt lat="52.5144349504" lon="17.176664276"></trkpt><trkpt lat="52.5142199546" lon="17.1769606601"></trkpt><trkpt lat="52.5139745325" lon="17.1774442121"></trkpt><trkpt lat="52.5137548428" lon="17.1777710225"></trkpt><trkpt lat="52.5130039919" lon="17.1785652079"></trkpt><trkpt lat="52.5127152354" lon="17.1784875076"></trkpt><trkpt lat="52.5123317633" lon="17.1786719095"></trkpt><trkpt lat="52.5119334552" lon="17.1787316725"></trkpt><trkpt lat="52.5117805693" lon="17.1792491712"></trkpt><trkpt lat="52.5116073992" lon="17.1796300448"></trkpt><trkpt lat="52.5112176407" lon="17.1798259299"></trkpt><trkpt lat="52.5101972278" lon="17.1801613737"></trkpt><trkpt lat="52.5098933" lon="17.1803633776"></trkpt><trkpt lat="52.5095319562" lon="17.1805200353"></trkpt><trkpt lat="52.5007231627" lon="17.1838351618"></trkpt><trkpt lat="52.4977934361" lon="17.1844819933"></trkpt><trkpt lat="52.4957075156" lon="17.1843591146"></trkpt><trkpt lat="52.4955111276" lon="17.1848636214"></trkpt><trkpt lat="52.4954595789" lon="17.1853690501"></trkpt><trkpt lat="52.495436864" lon="17.1858662646"></trkpt><trkpt lat="52.4953688867" lon="17.1864788979"></trkpt><trkpt lat="52.4950429983" lon="17.1882390976"></trkpt><trkpt lat="52.4950243905" lon="17.1886921395"></trkpt><trkpt lat="52.494932441" lon="17.1894101333"></trkpt><trkpt lat="52.4934501015" lon="17.204038566"></trkpt><trkpt lat="52.4934450723" lon="17.2045730799"></trkpt><trkpt lat="52.4934105389" lon="17.2050983738"></trkpt><trkpt lat="52.4931153283" lon="17.2068057675"></trkpt><trkpt lat="52.4927508831" lon="17.2067016643"></trkpt><trkpt lat="52.492266912" lon="17.2064778674"></trkpt><trkpt lat="52.491268795" lon="17.2061795555"></trkpt><trkpt lat="52.490946427" lon="17.2061493807"></trkpt><trkpt lat="52.4883681536" lon="17.206772659"></trkpt><trkpt lat="52.4879595358" lon="17.2069365252"></trkpt><trkpt lat="52.4851893168" lon="17.2085544001"></trkpt><trkpt lat="52.4851101078" lon="17.2090362757"></trkpt><trkpt lat="52.4852058291" lon="17.2083000932"></trkpt><trkpt lat="52.4848801084" lon="17.2081086505"></trkpt><trkpt lat="52.4844843987" lon="17.208246449"></trkpt><trkpt lat="52.4755094759" lon="17.2100620531"></trkpt><trkpt lat="52.4751059711" lon="17.2102958243"></trkpt><trkpt lat="52.4728145264" lon="17.2120466363"></trkpt><trkpt lat="52.4724893924" lon="17.2124558408"></trkpt><trkpt lat="52.4718873203" lon="17.2136631701"></trkpt><trkpt lat="52.4716502801" lon="17.2138779145"></trkpt><trkpt lat="52.4716486875" lon="17.2143226583"></trkpt></trkseg></trk></gpx>