<?xml version="1.0" encoding="UTF-8" standalone="no" ?><gpx xmlns="http://www.topografix.com/GPX/1/1" xmlns:gpxx="http://www.garmin.com/xmlschemas/GpxExtensions/v3" ><trk><trkseg><trkpt lat="52.209593" lon="18.63413"></trkpt><trkpt lat="52.209897" lon="18.633728"></trkpt><trkpt lat="52.21048" lon="18.632834"></trkpt><trkpt lat="52.210776" lon="18.632277"></trkpt><trkpt lat="52.21056" lon="18.631917"></trkpt><trkpt lat="52.210777" lon="18.631585"></trkpt><trkpt lat="52.210758" lon="18.631244"></trkpt><trkpt lat="52.210873" lon="18.630927"></trkpt><trkpt lat="52.211088" lon="18.630569"></trkpt><trkpt lat="52.21349" lon="18.624943"></trkpt><trkpt lat="52.213221" lon="18.624646"></trkpt><trkpt lat="52.210384" lon="18.622005"></trkpt><trkpt lat="52.208613" lon="18.619854"></trkpt><trkpt lat="52.208804" lon="18.619659"></trkpt><trkpt lat="52.209127" lon="18.619425"></trkpt><trkpt lat="52.20959" lon="18.618943"></trkpt><trkpt lat="52.22646" lon="18.60406"></trkpt><trkpt lat="52.22703" lon="18.603985"></trkpt><trkpt lat="52.254863" lon="18.601968"></trkpt><trkpt lat="52.274551" lon="18.598178"></trkpt><trkpt lat="52.274849" lon="18.597798"></trkpt><trkpt lat="52.27829" lon="18.592508"></trkpt><trkpt lat="52.278538" lon="18.591839"></trkpt><trkpt lat="52.292684" lon="18.553447"></trkpt><trkpt lat="52.29999" lon="18.53644"></trkpt><trkpt lat="52.300419" lon="18.536562"></trkpt><trkpt lat="52.302196" lon="18.537314"></trkpt><trkpt lat="52.302479" lon="18.537733"></trkpt><trkpt lat="52.303991" lon="18.540324"></trkpt><trkpt lat="52.304091" lon="18.540668"></trkpt><trkpt lat="52.304231" lon="18.54102"></trkpt><trkpt lat="52.304473" lon="18.541542"></trkpt><trkpt lat="52.30466" lon="18.541882"></trkpt><trkpt lat="52.305846" lon="18.543753"></trkpt><trkpt lat="52.30609" lon="18.544019"></trkpt><trkpt lat="52.306369" lon="18.544275"></trkpt><trkpt lat="52.307988" lon="18.546121"></trkpt><trkpt lat="52.308224" lon="18.546441"></trkpt><trkpt lat="52.30852" lon="18.546929"></trkpt><trkpt lat="52.308683" lon="18.547355"></trkpt><trkpt lat="52.308946" lon="18.547684"></trkpt><trkpt lat="52.309128" lon="18.547837"></trkpt><trkpt lat="52.309333" lon="18.547964"></trkpt><trkpt lat="52.312873" lon="18.549648"></trkpt><trkpt lat="52.31323" lon="18.549638"></trkpt><trkpt lat="52.313735" lon="18.549722"></trkpt><trkpt lat="52.313928" lon="18.549814"></trkpt><trkpt lat="52.315337" lon="18.550197"></trkpt><trkpt lat="52.315438" lon="18.549844"></trkpt><trkpt lat="52.31571" lon="18.54907"></trkpt><trkpt lat="52.315797" lon="18.548723"></trkpt><trkpt lat="52.318325" lon="18.540569"></trkpt><trkpt lat="52.318512" lon="18.540214"></trkpt><trkpt lat="52.319058" lon="18.539358"></trkpt><trkpt lat="52.319364" lon="18.539133"></trkpt><trkpt lat="52.319622" lon="18.538979"></trkpt><trkpt lat="52.324525" lon="18.535198"></trkpt><trkpt lat="52.324694" lon="18.534675"></trkpt><trkpt lat="52.324854" lon="18.534275"></trkpt><trkpt lat="52.325002" lon="18.533978"></trkpt><trkpt lat="52.325213" lon="18.533611"></trkpt><trkpt lat="52.326606" lon="18.531651"></trkpt><trkpt lat="52.326948" lon="18.531691"></trkpt><trkpt lat="52.350734" lon="18.525883"></trkpt><trkpt lat="52.351227" lon="18.52545"></trkpt><trkpt lat="52.356022" lon="18.520488"></trkpt><trkpt lat="52.356423" lon="18.519983"></trkpt><trkpt lat="52.364291" lon="18.511501"></trkpt><trkpt lat="52.364795" lon="18.511418"></trkpt><trkpt lat="52.367555" lon="18.511337"></trkpt><trkpt lat="52.367959" lon="18.511259"></trkpt><trkpt lat="52.368208" lon="18.511149"></trkpt><trkpt lat="52.368646" lon="18.510693"></trkpt><trkpt lat="52.369089" lon="18.510148"></trkpt><trkpt lat="52.380277" lon="18.498449"></trkpt><trkpt lat="52.380789" lon="18.498426"></trkpt><trkpt lat="52.382679" lon="18.498783"></trkpt><trkpt lat="52.382877" lon="18.498673"></trkpt><trkpt lat="52.383035" lon="18.498474"></trkpt><trkpt lat="52.383288" lon="18.498416"></trkpt><trkpt lat="52.383506" lon="18.498541"></trkpt><trkpt lat="52.383868" lon="18.498859"></trkpt><trkpt lat="52.384105" lon="18.498952"></trkpt><trkpt lat="52.384427" lon="18.498876"></trkpt><trkpt lat="52.384633" lon="18.49856"></trkpt><trkpt lat="52.384929" lon="18.497908"></trkpt><trkpt lat="52.38882" lon="18.490515"></trkpt><trkpt lat="52.389327" lon="18.489883"></trkpt><trkpt lat="52.390663" lon="18.487959"></trkpt><trkpt lat="52.390852" lon="18.487469"></trkpt><trkpt lat="52.391062" lon="18.48644"></trkpt><trkpt lat="52.39119" lon="18.485485"></trkpt><trkpt lat="52.391826" lon="18.47725"></trkpt><trkpt lat="52.391752" lon="18.476343"></trkpt><trkpt lat="52.391787" lon="18.475547"></trkpt><trkpt lat="52.392091" lon="18.475471"></trkpt><trkpt lat="52.395379" lon="18.474139"></trkpt><trkpt lat="52.395568" lon="18.473839"></trkpt><trkpt lat="52.396159" lon="18.473031"></trkpt><trkpt lat="52.396447" lon="18.472914"></trkpt><trkpt lat="52.3974" lon="18.472398"></trkpt><trkpt lat="52.397902" lon="18.472014"></trkpt><trkpt lat="52.398758" lon="18.471618"></trkpt><trkpt lat="52.399176" lon="18.471576"></trkpt><trkpt lat="52.404044" lon="18.47039"></trkpt><trkpt lat="52.404439" lon="18.469677"></trkpt><trkpt lat="52.414661" lon="18.448132"></trkpt><trkpt lat="52.414664" lon="18.44768"></trkpt><trkpt lat="52.414718" lon="18.447239"></trkpt><trkpt lat="52.414738" lon="18.446895"></trkpt><trkpt lat="52.416367" lon="18.433064"></trkpt><trkpt lat="52.416822" lon="18.432887"></trkpt><trkpt lat="52.425965" lon="18.427989"></trkpt><trkpt lat="52.425979" lon="18.427417"></trkpt><trkpt lat="52.425895" lon="18.425682"></trkpt><trkpt lat="52.42581" lon="18.424783"></trkpt><trkpt lat="52.424908" lon="18.403804"></trkpt><trkpt lat="52.425113" lon="18.403522"></trkpt><trkpt lat="52.439995" lon="18.386033"></trkpt><trkpt lat="52.440519" lon="18.386351"></trkpt><trkpt lat="52.458695" lon="18.395056"></trkpt><trkpt lat="52.459265" lon="18.395224"></trkpt><trkpt lat="52.460232" lon="18.395675"></trkpt><trkpt lat="52.460517" lon="18.395933"></trkpt><trkpt lat="52.463674" lon="18.399359"></trkpt><trkpt lat="52.463937" lon="18.399798"></trkpt><trkpt lat="52.464635" lon="18.400541"></trkpt><trkpt lat="52.464982" lon="18.400508"></trkpt><trkpt lat="52.466271" lon="18.400218"></trkpt><trkpt lat="52.466502" lon="18.39994"></trkpt><trkpt lat="52.467729" lon="18.398115"></trkpt><trkpt lat="52.468075" lon="18.397292"></trkpt><trkpt lat="52.468325" lon="18.396865"></trkpt><trkpt lat="52.468598" lon="18.396622"></trkpt><trkpt lat="52.473371" lon="18.393096"></trkpt><trkpt lat="52.473766" lon="18.39292"></trkpt><trkpt lat="52.480501" lon="18.388855"></trkpt><trkpt lat="52.480601" lon="18.388511"></trkpt><trkpt lat="52.480734" lon="18.388189"></trkpt><trkpt lat="52.481" lon="18.387701"></trkpt><trkpt lat="52.483005" lon="18.383375"></trkpt><trkpt lat="52.483129" lon="18.382933"></trkpt><trkpt lat="52.483505" lon="18.382088"></trkpt><trkpt lat="52.48395" lon="18.381452"></trkpt><trkpt lat="52.485598" lon="18.378399"></trkpt><trkpt lat="52.485648" lon="18.377829"></trkpt><trkpt lat="52.485642" lon="18.37739"></trkpt><trkpt lat="52.485619" lon="18.37701"></trkpt><trkpt lat="52.485539" lon="18.376573"></trkpt><trkpt lat="52.485424" lon="18.376187"></trkpt><trkpt lat="52.483619" lon="18.36852"></trkpt><trkpt lat="52.483602" lon="18.368168"></trkpt><trkpt lat="52.481336" lon="18.323088"></trkpt><trkpt lat="52.481125" lon="18.322882"></trkpt><trkpt lat="52.48058" lon="18.322204"></trkpt><trkpt lat="52.480547" lon="18.321695"></trkpt><trkpt lat="52.48059" lon="18.320934"></trkpt><trkpt lat="52.481152" lon="18.31537"></trkpt><trkpt lat="52.481492" lon="18.315101"></trkpt><trkpt lat="52.481681" lon="18.314993"></trkpt><trkpt lat="52.481896" lon="18.314825"></trkpt><trkpt lat="52.482092" lon="18.314725"></trkpt><trkpt lat="52.482645" lon="18.314268"></trkpt><trkpt lat="52.482699" lon="18.313909"></trkpt><trkpt lat="52.482735" lon="18.313469"></trkpt><trkpt lat="52.483816" lon="18.280002"></trkpt><trkpt lat="52.483595" lon="18.279158"></trkpt><trkpt lat="52.480174" lon="18.262928"></trkpt><trkpt lat="52.480128" lon="18.262559"></trkpt><trkpt lat="52.47682" lon="18.220275"></trkpt><trkpt lat="52.477206" lon="18.220315"></trkpt><trkpt lat="52.485381" lon="18.222277"></trkpt><trkpt lat="52.485585" lon="18.222473"></trkpt><trkpt lat="52.487305" lon="18.223825"></trkpt><trkpt lat="52.487749" lon="18.223927"></trkpt><trkpt lat="52.488411" lon="18.223957"></trkpt><trkpt lat="52.488592" lon="18.22412"></trkpt><trkpt lat="52.488973" lon="18.224407"></trkpt><trkpt lat="52.489383" lon="18.224658"></trkpt><trkpt lat="52.490118" lon="18.22489"></trkpt><trkpt lat="52.490339" lon="18.224509"></trkpt><trkpt lat="52.499798" lon="18.205683"></trkpt><trkpt lat="52.499984" lon="18.205134"></trkpt><trkpt lat="52.501735" lon="18.201469"></trkpt><trkpt lat="52.502165" lon="18.201111"></trkpt><trkpt lat="52.506312" lon="18.197033"></trkpt><trkpt lat="52.506775" lon="18.19644"></trkpt><trkpt lat="52.518642" lon="18.183326"></trkpt><trkpt lat="52.51908" lon="18.183363"></trkpt><trkpt lat="52.519952" lon="18.183037"></trkpt><trkpt lat="52.520091" lon="18.182797"></trkpt><trkpt lat="52.538125" lon="18.148801"></trkpt><trkpt lat="52.539503" lon="18.146546"></trkpt><trkpt lat="52.539831" lon="18.146268"></trkpt><trkpt lat="52.540364" lon="18.146032"></trkpt><trkpt lat="52.541019" lon="18.145641"></trkpt><trkpt lat="52.541333" lon="18.14538"></trkpt><trkpt lat="52.541911" lon="18.144715"></trkpt><trkpt lat="52.542224" lon="18.144283"></trkpt><trkpt lat="52.543366" lon="18.142405"></trkpt><trkpt lat="52.543956" lon="18.141698"></trkpt><trkpt lat="52.544187" lon="18.14149"></trkpt><trkpt lat="52.544871" lon="18.14076"></trkpt><trkpt lat="52.545058" lon="18.140488"></trkpt><trkpt lat="52.545167" lon="18.140151"></trkpt><trkpt lat="52.545203" lon="18.139785"></trkpt><trkpt lat="52.545689" lon="18.137438"></trkpt><trkpt lat="52.545868" lon="18.136967"></trkpt><trkpt lat="52.545979" lon="18.136584"></trkpt><trkpt lat="52.546127" lon="18.13591"></trkpt><trkpt lat="52.549439" lon="18.123776"></trkpt><trkpt lat="52.549759" lon="18.122936"></trkpt><trkpt lat="52.553164" lon="18.112"></trkpt><trkpt lat="52.553122" lon="18.111426"></trkpt><trkpt lat="52.553252" lon="18.110906"></trkpt><trkpt lat="52.55344" lon="18.110759"></trkpt><trkpt lat="52.553928" lon="18.110577"></trkpt><trkpt lat="52.554832" lon="18.110374"></trkpt><trkpt lat="52.555079" lon="18.110366"></trkpt><trkpt lat="52.558867" lon="18.109804"></trkpt><trkpt lat="52.559345" lon="18.109613"></trkpt><trkpt lat="52.562668" lon="18.107706"></trkpt><trkpt lat="52.562918" lon="18.107344"></trkpt><trkpt lat="52.564742" lon="18.105088"></trkpt><trkpt lat="52.56511" lon="18.105333"></trkpt><trkpt lat="52.565334" lon="18.105515"></trkpt><trkpt lat="52.565792" lon="18.105964"></trkpt><trkpt lat="52.566086" lon="18.106368"></trkpt><trkpt lat="52.567755" lon="18.109129"></trkpt><trkpt lat="52.568064" lon="18.109822"></trkpt><trkpt lat="52.568398" lon="18.110451"></trkpt><trkpt lat="52.568801" lon="18.111074"></trkpt><trkpt lat="52.56967" lon="18.112223"></trkpt><trkpt lat="52.571655" lon="18.114456"></trkpt><trkpt lat="52.572265" lon="18.114959"></trkpt><trkpt lat="52.587133" lon="18.125135"></trkpt><trkpt lat="52.589218" lon="18.126853"></trkpt><trkpt lat="52.589692" lon="18.127433"></trkpt><trkpt lat="52.590076" lon="18.12776"></trkpt><trkpt lat="52.590492" lon="18.127989"></trkpt><trkpt lat="52.591061" lon="18.128191"></trkpt><trkpt lat="52.595903" lon="18.129249"></trkpt><trkpt lat="52.59844" lon="18.129134"></trkpt><trkpt lat="52.59881" lon="18.129255"></trkpt><trkpt lat="52.599011" lon="18.129381"></trkpt><trkpt lat="52.599291" lon="18.129689"></trkpt><trkpt lat="52.599638" lon="18.130225"></trkpt><trkpt lat="52.62073" lon="18.15968"></trkpt></trkseg></trk></gpx>