<?xml version="1.0" encoding="UTF-8" standalone="no" ?><gpx xmlns="http://www.topografix.com/GPX/1/1" xmlns:gpxx="http://www.garmin.com/xmlschemas/GpxExtensions/v3" ><trk><trkseg><trkpt lat="49.6997001674" lon="19.5601694193"></trkpt><trkpt lat="49.7004283872" lon="19.5605234709"></trkpt><trkpt lat="49.7007687762" lon="19.561549332"></trkpt><trkpt lat="49.7002796922" lon="19.5623727702"></trkpt><trkpt lat="49.699679045" lon="19.5630170032"></trkpt><trkpt lat="49.6992627997" lon="19.5639325585"></trkpt><trkpt lat="49.698660979" lon="19.5647798013"></trkpt><trkpt lat="49.6981951967" lon="19.565700721"></trkpt><trkpt lat="49.6975036897" lon="19.5666948147"></trkpt><trkpt lat="49.6965200733" lon="19.5686417632"></trkpt><trkpt lat="49.6962363459" lon="19.569714563"></trkpt><trkpt lat="49.6955610998" lon="19.5714243874"></trkpt><trkpt lat="49.6949619614" lon="19.5721666049"></trkpt><trkpt lat="49.6944577899" lon="19.5731649734"></trkpt><trkpt lat="49.6937188413" lon="19.5731088985"></trkpt><trkpt lat="49.6929684933" lon="19.5726380032"></trkpt><trkpt lat="49.6922137029" lon="19.5719200093"></trkpt><trkpt lat="49.6916267183" lon="19.5710937213"></trkpt><trkpt lat="49.6909118257" lon="19.5696725696"></trkpt><trkpt lat="49.6902490687" lon="19.5691159274"></trkpt><trkpt lat="49.6896847151" lon="19.5682919864"></trkpt><trkpt lat="49.6890430804" lon="19.5670005865"></trkpt><trkpt lat="49.6880885493" lon="19.5656049158"></trkpt><trkpt lat="49.6860976797" lon="19.5635213424"></trkpt><trkpt lat="49.6854127944" lon="19.5625241473"></trkpt><trkpt lat="49.6850316692" lon="19.5615347475"></trkpt><trkpt lat="49.6831009816" lon="19.5580130909"></trkpt><trkpt lat="49.6824485343" lon="19.5574129466"></trkpt><trkpt lat="49.6831060946" lon="19.5578819979"></trkpt><trkpt lat="49.6838738769" lon="19.5580798108"></trkpt><trkpt lat="49.6842897031" lon="19.5591832045"></trkpt><trkpt lat="49.6867967304" lon="19.5638862066"></trkpt><trkpt lat="49.6874374431" lon="19.5645276736"></trkpt><trkpt lat="49.689033106" lon="19.5667907037"></trkpt><trkpt lat="49.6894327551" lon="19.5677545387"></trkpt><trkpt lat="49.6900059097" lon="19.568607565"></trkpt><trkpt lat="49.6925603785" lon="19.5738543011"></trkpt><trkpt lat="49.6927864384" lon="19.5749956649"></trkpt><trkpt lat="49.6931750234" lon="19.5760821272"></trkpt><trkpt lat="49.6934331022" lon="19.5772099961"></trkpt><trkpt lat="49.6936200187" lon="19.5788191538"></trkpt><trkpt lat="49.6936335973" lon="19.5814374927"></trkpt><trkpt lat="49.6931125782" lon="19.5761237014"></trkpt><trkpt lat="49.6927315369" lon="19.5751025341"></trkpt><trkpt lat="49.6924729552" lon="19.5740560535"></trkpt><trkpt lat="49.6924474742" lon="19.572909493"></trkpt><trkpt lat="49.6931490395" lon="19.5726170484"></trkpt><trkpt lat="49.6946186386" lon="19.5728206448"></trkpt><trkpt lat="49.6951479558" lon="19.5720135514"></trkpt><trkpt lat="49.6960588172" lon="19.5700840373"></trkpt><trkpt lat="49.6965431236" lon="19.5685788151"></trkpt><trkpt lat="49.6972831618" lon="19.5669822302"></trkpt><trkpt lat="49.6978488564" lon="19.5662455447"></trkpt><trkpt lat="49.6982833743" lon="19.5652683824"></trkpt><trkpt lat="49.698826354" lon="19.5645262487"></trkpt><trkpt lat="49.7003563028" lon="19.5615425427"></trkpt><trkpt lat="49.6998935379" lon="19.5605032705"></trkpt></trkseg></trk></gpx>