<?xml version="1.0" encoding="UTF-8" standalone="no" ?><gpx xmlns="http://www.topografix.com/GPX/1/1" xmlns:gpxx="http://www.garmin.com/xmlschemas/GpxExtensions/v3" ><trk><trkseg><trkpt lat="52.5117136817" lon="16.9866694976"></trkpt><trkpt lat="52.511923397" lon="16.9862432778"></trkpt><trkpt lat="52.5119774602" lon="16.9855713006"></trkpt><trkpt lat="52.5120974053" lon="16.9847396482"></trkpt><trkpt lat="52.5122739282" lon="16.9839122705"></trkpt><trkpt lat="52.5123848207" lon="16.9831665326"></trkpt><trkpt lat="52.5134545192" lon="16.9783573318"></trkpt><trkpt lat="52.5136595406" lon="16.9778747857"></trkpt><trkpt lat="52.5137849338" lon="16.9774465542"></trkpt><trkpt lat="52.5140571781" lon="16.9769819453"></trkpt><trkpt lat="52.5143296737" lon="16.9765969645"></trkpt><trkpt lat="52.5146239623" lon="16.9765873253"></trkpt><trkpt lat="52.5148832146" lon="16.9762689807"></trkpt><trkpt lat="52.5147421472" lon="16.9758135919"></trkpt><trkpt lat="52.5144849066" lon="16.9760473631"></trkpt><trkpt lat="52.5143094733" lon="16.9764093775"></trkpt><trkpt lat="52.5138614606" lon="16.9752302114"></trkpt><trkpt lat="52.5136055611" lon="16.9749398623"></trkpt><trkpt lat="52.5136781484" lon="16.974432338"></trkpt><trkpt lat="52.5136923138" lon="16.9739088044"></trkpt><trkpt lat="52.5133780763" lon="16.9734075665"></trkpt><trkpt lat="52.5131061673" lon="16.9732382521"></trkpt><trkpt lat="52.5127959531" lon="16.9731279463"></trkpt><trkpt lat="52.512218859" lon="16.9727702904"></trkpt><trkpt lat="52.5121661369" lon="16.9722994789"></trkpt><trkpt lat="52.5119643845" lon="16.9719768595"></trkpt><trkpt lat="52.5116136018" lon="16.9718899392"></trkpt><trkpt lat="52.5110836979" lon="16.9721029233"></trkpt><trkpt lat="52.5107037462" lon="16.9721921068"></trkpt><trkpt lat="52.5101312622" lon="16.9721638598"></trkpt><trkpt lat="52.50983404" lon="16.9721014146"></trkpt><trkpt lat="52.5095694233" lon="16.9719887618"></trkpt><trkpt lat="52.5094103348" lon="16.9723797776"></trkpt><trkpt lat="52.5093386695" lon="16.9728604797"></trkpt><trkpt lat="52.5092915632" lon="16.973405052"></trkpt><trkpt lat="52.5090267789" lon="16.973613929"></trkpt><trkpt lat="52.508724276" lon="16.9739417452"></trkpt><trkpt lat="52.5087997131" lon="16.9744776003"></trkpt><trkpt lat="52.5087749027" lon="16.9749380182"></trkpt><trkpt lat="52.5088664331" lon="16.9757859316"></trkpt><trkpt lat="52.5092875399" lon="16.9758907892"></trkpt><trkpt lat="52.5095904619" lon="16.975883916"></trkpt><trkpt lat="52.509843763" lon="16.9761267398"></trkpt><trkpt lat="52.5101489481" lon="16.9759932999"></trkpt><trkpt lat="52.5105175003" lon="16.9760352932"></trkpt><trkpt lat="52.5108046643" lon="16.9759055413"></trkpt><trkpt lat="52.511095684" lon="16.9759575091"></trkpt><trkpt lat="52.511401372" lon="16.9763677195"></trkpt><trkpt lat="52.5113101769" lon="16.9769850466"></trkpt><trkpt lat="52.5111225061" lon="16.9775768928"></trkpt><trkpt lat="52.5105184224" lon="16.9799951557"></trkpt><trkpt lat="52.5104680471" lon="16.980451718"></trkpt><trkpt lat="52.5103829708" lon="16.980925547"></trkpt><trkpt lat="52.5102066994" lon="16.9814971089"></trkpt><trkpt lat="52.5099287555" lon="16.9818390068"></trkpt><trkpt lat="52.5096317846" lon="16.9817600492"></trkpt><trkpt lat="52.509274967" lon="16.9816028047"></trkpt><trkpt lat="52.5089965202" lon="16.9815923274"></trkpt><trkpt lat="52.5086876471" lon="16.9814830273"></trkpt><trkpt lat="52.5084246229" lon="16.981332656"></trkpt><trkpt lat="52.5084249582" lon="16.9806987327"></trkpt><trkpt lat="52.5083185919" lon="16.9787169993"></trkpt><trkpt lat="52.5079877581" lon="16.9786885008"></trkpt><trkpt lat="52.5077211298" lon="16.9785694778"></trkpt><trkpt lat="52.5076611154" lon="16.9780142605"></trkpt><trkpt lat="52.5076907873" lon="16.9775367435"></trkpt><trkpt lat="52.5076386519" lon="16.9780730177"></trkpt><trkpt lat="52.5076441001" lon="16.9785449188"></trkpt><trkpt lat="52.5073287729" lon="16.9785990659"></trkpt><trkpt lat="52.5063376967" lon="16.9781725109"></trkpt><trkpt lat="52.5062795263" lon="16.9775260985"></trkpt><trkpt lat="52.506193025" lon="16.9770464022"></trkpt><trkpt lat="52.5062142313" lon="16.9774903078"></trkpt><trkpt lat="52.5063137244" lon="16.9783336949"></trkpt><trkpt lat="52.5065981224" lon="16.9785543066"></trkpt><trkpt lat="52.5068772398" lon="16.9785882533"></trkpt><trkpt lat="52.508455636" lon="16.9790859707"></trkpt><trkpt lat="52.5084328372" lon="16.9795354921"></trkpt><trkpt lat="52.508531576" lon="16.9813580532"></trkpt><trkpt lat="52.5089132041" lon="16.9815340731"></trkpt><trkpt lat="52.5091850292" lon="16.9815131184"></trkpt><trkpt lat="52.5094975904" lon="16.9816152938"></trkpt><trkpt lat="52.5100880954" lon="16.9820711017"></trkpt><trkpt lat="52.5100237224" lon="16.982651297"></trkpt><trkpt lat="52.5100516342" lon="16.9832569733"></trkpt><trkpt lat="52.5099880155" lon="16.9837015495"></trkpt><trkpt lat="52.5097967405" lon="16.9867196213"></trkpt><trkpt lat="52.5101581682" lon="16.9867339544"></trkpt><trkpt lat="52.5140149333" lon="16.9856921677"></trkpt></trkseg></trk></gpx>