<?xml version="1.0" encoding="UTF-8" standalone="no" ?><gpx xmlns="http://www.topografix.com/GPX/1/1" xmlns:gpxx="http://www.garmin.com/xmlschemas/GpxExtensions/v3" ><trk><trkseg><trkpt lat="52.620552" lon="17.20379"></trkpt><trkpt lat="52.620297" lon="17.204064"></trkpt><trkpt lat="52.620315" lon="17.204604"></trkpt><trkpt lat="52.62003" lon="17.205097"></trkpt><trkpt lat="52.61405" lon="17.216268"></trkpt><trkpt lat="52.613889" lon="17.216651"></trkpt><trkpt lat="52.613553" lon="17.21727"></trkpt><trkpt lat="52.613215" lon="17.218015"></trkpt><trkpt lat="52.612925" lon="17.218518"></trkpt><trkpt lat="52.612673" lon="17.218772"></trkpt><trkpt lat="52.612425" lon="17.219076"></trkpt><trkpt lat="52.612196" lon="17.219607"></trkpt><trkpt lat="52.612117" lon="17.220084"></trkpt><trkpt lat="52.611983" lon="17.220599"></trkpt><trkpt lat="52.611886" lon="17.221091"></trkpt><trkpt lat="52.611684" lon="17.221538"></trkpt><trkpt lat="52.611459" lon="17.221948"></trkpt><trkpt lat="52.611187" lon="17.222252"></trkpt><trkpt lat="52.610918" lon="17.222414"></trkpt><trkpt lat="52.610627" lon="17.222478"></trkpt><trkpt lat="52.60821" lon="17.223428"></trkpt><trkpt lat="52.607978" lon="17.22388"></trkpt><trkpt lat="52.607648" lon="17.224109"></trkpt><trkpt lat="52.607359" lon="17.224381"></trkpt><trkpt lat="52.607077" lon="17.224205"></trkpt><trkpt lat="52.606828" lon="17.223865"></trkpt><trkpt lat="52.604121" lon="17.22079"></trkpt><trkpt lat="52.603284" lon="17.220111"></trkpt><trkpt lat="52.603094" lon="17.219725"></trkpt><trkpt lat="52.602784" lon="17.21939"></trkpt><trkpt lat="52.597838" lon="17.2129"></trkpt><trkpt lat="52.597774" lon="17.212452"></trkpt><trkpt lat="52.597684" lon="17.211414"></trkpt><trkpt lat="52.597591" lon="17.210868"></trkpt><trkpt lat="52.597542" lon="17.210407"></trkpt><trkpt lat="52.597412" lon="17.209825"></trkpt><trkpt lat="52.597332" lon="17.209189"></trkpt><trkpt lat="52.596953" lon="17.203414"></trkpt><trkpt lat="52.597009" lon="17.202942"></trkpt><trkpt lat="52.597193" lon="17.20219"></trkpt><trkpt lat="52.59764" lon="17.200787"></trkpt><trkpt lat="52.597866" lon="17.20047"></trkpt><trkpt lat="52.598127" lon="17.200226"></trkpt><trkpt lat="52.598521" lon="17.199969"></trkpt><trkpt lat="52.598884" lon="17.199863"></trkpt><trkpt lat="52.599177" lon="17.199853"></trkpt><trkpt lat="52.599456" lon="17.199922"></trkpt><trkpt lat="52.599939" lon="17.19988"></trkpt><trkpt lat="52.608876" lon="17.201789"></trkpt><trkpt lat="52.610199" lon="17.201852"></trkpt><trkpt lat="52.611193" lon="17.202068"></trkpt><trkpt lat="52.611528" lon="17.20227"></trkpt><trkpt lat="52.612024" lon="17.202689"></trkpt><trkpt lat="52.612349" lon="17.202677"></trkpt><trkpt lat="52.612649" lon="17.202936"></trkpt><trkpt lat="52.613723" lon="17.20366"></trkpt><trkpt lat="52.613853" lon="17.203148"></trkpt><trkpt lat="52.615033" lon="17.199448"></trkpt><trkpt lat="52.615135" lon="17.198981"></trkpt><trkpt lat="52.615072" lon="17.199438"></trkpt><trkpt lat="52.614853" lon="17.199743"></trkpt><trkpt lat="52.614785" lon="17.200183"></trkpt><trkpt lat="52.614623" lon="17.20077"></trkpt><trkpt lat="52.614285" lon="17.201705"></trkpt><trkpt lat="52.614107" lon="17.202317"></trkpt><trkpt lat="52.61395" lon="17.202684"></trkpt><trkpt lat="52.613859" lon="17.203287"></trkpt><trkpt lat="52.613827" lon="17.203776"></trkpt><trkpt lat="52.614104" lon="17.204025"></trkpt><trkpt lat="52.614449" lon="17.20426"></trkpt><trkpt lat="52.619081" lon="17.206557"></trkpt><trkpt lat="52.620674" lon="17.20357"></trkpt></trkseg></trk></gpx>