<?xml version="1.0" encoding="UTF-8" standalone="no" ?><gpx xmlns="http://www.topografix.com/GPX/1/1" xmlns:gpxx="http://www.garmin.com/xmlschemas/GpxExtensions/v3" ><trk><trkseg><trkpt lat="54.684669" lon="18.713772"></trkpt><trkpt lat="54.684462" lon="18.714185"></trkpt><trkpt lat="54.684206" lon="18.714605"></trkpt><trkpt lat="54.683968" lon="18.715141"></trkpt><trkpt lat="54.683717" lon="18.71544"></trkpt><trkpt lat="54.683457" lon="18.715578"></trkpt><trkpt lat="54.683131" lon="18.716188"></trkpt><trkpt lat="54.682224" lon="18.718273"></trkpt><trkpt lat="54.682532" lon="18.718285"></trkpt><trkpt lat="54.682875" lon="18.718631"></trkpt><trkpt lat="54.682951" lon="18.719259"></trkpt><trkpt lat="54.683275" lon="18.719278"></trkpt><trkpt lat="54.683421" lon="18.719831"></trkpt><trkpt lat="54.683701" lon="18.720162"></trkpt><trkpt lat="54.683892" lon="18.720592"></trkpt><trkpt lat="54.684148" lon="18.720984"></trkpt><trkpt lat="54.684424" lon="18.721045"></trkpt><trkpt lat="54.685198" lon="18.720689"></trkpt><trkpt lat="54.685133" lon="18.72021"></trkpt><trkpt lat="54.684949" lon="18.719762"></trkpt><trkpt lat="54.685169" lon="18.719481"></trkpt><trkpt lat="54.68537" lon="18.719032"></trkpt><trkpt lat="54.685576" lon="18.718684"></trkpt><trkpt lat="54.685779" lon="18.718259"></trkpt><trkpt lat="54.685842" lon="18.717649"></trkpt><trkpt lat="54.686125" lon="18.717759"></trkpt><trkpt lat="54.686371" lon="18.717451"></trkpt><trkpt lat="54.686614" lon="18.717064"></trkpt><trkpt lat="54.686821" lon="18.716531"></trkpt><trkpt lat="54.687025" lon="18.716168"></trkpt><trkpt lat="54.687192" lon="18.715787"></trkpt><trkpt lat="54.687187" lon="18.715235"></trkpt><trkpt lat="54.687224" lon="18.714769"></trkpt><trkpt lat="54.687086" lon="18.714272"></trkpt><trkpt lat="54.686878" lon="18.713908"></trkpt><trkpt lat="54.686645" lon="18.713662"></trkpt><trkpt lat="54.686347" lon="18.713562"></trkpt><trkpt lat="54.686062" lon="18.713577"></trkpt><trkpt lat="54.685034" lon="18.713849"></trkpt><trkpt lat="54.684841" lon="18.714296"></trkpt><trkpt lat="54.684567" lon="18.714222"></trkpt><trkpt lat="54.684353" lon="18.713842"></trkpt><trkpt lat="54.68433" lon="18.713309"></trkpt><trkpt lat="54.684276" lon="18.712746"></trkpt><trkpt lat="54.684104" lon="18.712272"></trkpt><trkpt lat="54.683843" lon="18.711956"></trkpt><trkpt lat="54.683506" lon="18.711721"></trkpt><trkpt lat="54.683049" lon="18.711311"></trkpt><trkpt lat="54.682706" lon="18.711374"></trkpt><trkpt lat="54.682371" lon="18.711745"></trkpt><trkpt lat="54.682118" lon="18.711355"></trkpt><trkpt lat="54.681923" lon="18.710937"></trkpt><trkpt lat="54.681277" lon="18.709227"></trkpt><trkpt lat="54.681422" lon="18.709868"></trkpt><trkpt lat="54.681691" lon="18.71052"></trkpt><trkpt lat="54.683662" lon="18.714159"></trkpt><trkpt lat="54.683917" lon="18.713868"></trkpt><trkpt lat="54.684198" lon="18.713703"></trkpt><trkpt lat="54.684407" lon="18.714015"></trkpt><trkpt lat="54.68473" lon="18.713701"></trkpt><trkpt lat="54.684974" lon="18.713319"></trkpt></trkseg></trk></gpx>