<?xml version="1.0" encoding="UTF-8" standalone="no" ?><gpx xmlns="http://www.topografix.com/GPX/1/1" xmlns:gpxx="http://www.garmin.com/xmlschemas/GpxExtensions/v3" ><trk><trkseg><trkpt lat="52.6118780952" lon="17.9047801718"></trkpt><trkpt lat="52.6114785299" lon="17.9043651838"></trkpt><trkpt lat="52.611191282" lon="17.9042909201"></trkpt><trkpt lat="52.6109348796" lon="17.9039579071"></trkpt><trkpt lat="52.6110521425" lon="17.9035463557"></trkpt><trkpt lat="52.6112763584" lon="17.9029668309"></trkpt><trkpt lat="52.6114674658" lon="17.90234196"></trkpt><trkpt lat="52.6116490178" lon="17.9015048593"></trkpt><trkpt lat="52.6118548773" lon="17.9011803959"></trkpt><trkpt lat="52.6121454779" lon="17.9009835888"></trkpt><trkpt lat="52.6146039739" lon="17.8988616262"></trkpt><trkpt lat="52.6148524135" lon="17.8985823411"></trkpt><trkpt lat="52.6151054632" lon="17.8982324805"></trkpt><trkpt lat="52.6154199522" lon="17.8979099449"></trkpt><trkpt lat="52.615760006" lon="17.897440223"></trkpt><trkpt lat="52.616079608" lon="17.8970881831"></trkpt><trkpt lat="52.6163336635" lon="17.8967424296"></trkpt><trkpt lat="52.6209230907" lon="17.8916102741"></trkpt><trkpt lat="52.621329613" lon="17.8915182408"></trkpt><trkpt lat="52.6250889804" lon="17.8898464702"></trkpt><trkpt lat="52.6250287145" lon="17.889241213"></trkpt><trkpt lat="52.6247682888" lon="17.8876326419"></trkpt><trkpt lat="52.6222947054" lon="17.8765857127"></trkpt><trkpt lat="52.6220838167" lon="17.8761457466"></trkpt><trkpt lat="52.6218746882" lon="17.8758548945"></trkpt><trkpt lat="52.620932227" lon="17.8742925916"></trkpt><trkpt lat="52.6207121182" lon="17.8738351073"></trkpt><trkpt lat="52.6205833722" lon="17.8734241426"></trkpt><trkpt lat="52.6205271296" lon="17.8729690053"></trkpt><trkpt lat="52.6206436381" lon="17.8725560289"></trkpt><trkpt lat="52.6207501721" lon="17.871961249"></trkpt><trkpt lat="52.6207810175" lon="17.8714313451"></trkpt><trkpt lat="52.6214093249" lon="17.8666208033"></trkpt><trkpt lat="52.6218413282" lon="17.8667672351"></trkpt><trkpt lat="52.6225815341" lon="17.8668351285"></trkpt><trkpt lat="52.6223296579" lon="17.8670107294"></trkpt><trkpt lat="52.6218693238" lon="17.8668886051"></trkpt><trkpt lat="52.6214571018" lon="17.8667081427"></trkpt><trkpt lat="52.6209455542" lon="17.8665855993"></trkpt><trkpt lat="52.6208727155" lon="17.867093375"></trkpt><trkpt lat="52.6208944246" lon="17.8675808664"></trkpt><trkpt lat="52.6208065823" lon="17.8706296999"></trkpt><trkpt lat="52.6207609009" lon="17.871132195"></trkpt><trkpt lat="52.6207822748" lon="17.8717710637"></trkpt><trkpt lat="52.6206226833" lon="17.8724877164"></trkpt><trkpt lat="52.6205771696" lon="17.8733715881"></trkpt><trkpt lat="52.6207010541" lon="17.8737816308"></trkpt><trkpt lat="52.6209969353" lon="17.8744185716"></trkpt><trkpt lat="52.6216489635" lon="17.8755523078"></trkpt><trkpt lat="52.6219407376" lon="17.8759599198"></trkpt><trkpt lat="52.6221414842" lon="17.876330819"></trkpt><trkpt lat="52.6224547997" lon="17.8770554345"></trkpt><trkpt lat="52.6229910739" lon="17.8785993811"></trkpt><trkpt lat="52.623080425" lon="17.8790620621"></trkpt><trkpt lat="52.6232191455" lon="17.8795159422"></trkpt><trkpt lat="52.6236006897" lon="17.881151503"></trkpt><trkpt lat="52.6250622422" lon="17.8901612107"></trkpt><trkpt lat="52.6250246074" lon="17.8908857424"></trkpt><trkpt lat="52.6254505757" lon="17.8909315914"></trkpt><trkpt lat="52.6257975027" lon="17.8907833993"></trkpt><trkpt lat="52.6260689087" lon="17.8906161804"></trkpt><trkpt lat="52.6264951285" lon="17.8907133266"></trkpt><trkpt lat="52.6268883236" lon="17.8909981437"></trkpt><trkpt lat="52.6272844523" lon="17.8913830407"></trkpt><trkpt lat="52.628070591" lon="17.8923938144"></trkpt><trkpt lat="52.6278006099" lon="17.891935911"></trkpt><trkpt lat="52.6274877135" lon="17.8916286305"></trkpt><trkpt lat="52.6263708249" lon="17.8907603491"></trkpt><trkpt lat="52.6259535737" lon="17.890780801"></trkpt><trkpt lat="52.625449067" lon="17.8909907676"></trkpt><trkpt lat="52.6250923332" lon="17.8910251334"></trkpt><trkpt lat="52.6192224864" lon="17.8924928047"></trkpt><trkpt lat="52.6188100129" lon="17.892993791"></trkpt><trkpt lat="52.6186082605" lon="17.8933522012"></trkpt><trkpt lat="52.6159266382" lon="17.8973163385"></trkpt><trkpt lat="52.6156756841" lon="17.8975978028"></trkpt><trkpt lat="52.6153797191" lon="17.8980153054"></trkpt><trkpt lat="52.6138025802" lon="17.8998681251"></trkpt><trkpt lat="52.6133841556" lon="17.9002023116"></trkpt><trkpt lat="52.6116273087" lon="17.9020270519"></trkpt><trkpt lat="52.6115168352" lon="17.9024930019"></trkpt><trkpt lat="52.6113750972" lon="17.9029143602"></trkpt><trkpt lat="52.6111527253" lon="17.9033799749"></trkpt><trkpt lat="52.6108911261" lon="17.9035546537"></trkpt><trkpt lat="52.6106268447" lon="17.9032912105"></trkpt><trkpt lat="52.6103062369" lon="17.903039502"></trkpt><trkpt lat="52.6106492244" lon="17.9033967387"></trkpt><trkpt lat="52.6110877655" lon="17.9036995769"></trkpt></trkseg></trk></gpx>