<?xml version="1.0" encoding="UTF-8" standalone="no" ?><gpx xmlns="http://www.topografix.com/GPX/1/1" xmlns:gpxx="http://www.garmin.com/xmlschemas/GpxExtensions/v3" ><trk><trkseg><trkpt lat="52.47166" lon="17.214949"></trkpt><trkpt lat="52.471598" lon="17.214379"></trkpt><trkpt lat="52.471594" lon="17.213412"></trkpt><trkpt lat="52.471924" lon="17.213157"></trkpt><trkpt lat="52.47219" lon="17.212859"></trkpt><trkpt lat="52.474850000000004" lon="17.210539"></trkpt><trkpt lat="52.475162" lon="17.210361"></trkpt><trkpt lat="52.476018" lon="17.210086"></trkpt><trkpt lat="52.476716" lon="17.210422"></trkpt><trkpt lat="52.477097" lon="17.210515"></trkpt><trkpt lat="52.486751" lon="17.207396"></trkpt><trkpt lat="52.492082" lon="17.206465"></trkpt><trkpt lat="52.492389" lon="17.206624"></trkpt><trkpt lat="52.493244" lon="17.206919"></trkpt><trkpt lat="52.493567" lon="17.207146"></trkpt><trkpt lat="52.493807" lon="17.207401"></trkpt><trkpt lat="52.494078" lon="17.207496"></trkpt><trkpt lat="52.494448" lon="17.207725"></trkpt><trkpt lat="52.495839" lon="17.20826"></trkpt><trkpt lat="52.496355" lon="17.208187"></trkpt><trkpt lat="52.497617" lon="17.207801"></trkpt><trkpt lat="52.497663" lon="17.20727"></trkpt><trkpt lat="52.498116" lon="17.20729"></trkpt><trkpt lat="52.499872" lon="17.206924"></trkpt><trkpt lat="52.499966" lon="17.206258"></trkpt><trkpt lat="52.500676" lon="17.203173"></trkpt><trkpt lat="52.50115" lon="17.20333"></trkpt><trkpt lat="52.50484" lon="17.205136"></trkpt><trkpt lat="52.504863" lon="17.205665"></trkpt><trkpt lat="52.505065" lon="17.206013"></trkpt><trkpt lat="52.505302" lon="17.206288"></trkpt><trkpt lat="52.506536" lon="17.208224"></trkpt><trkpt lat="52.506462" lon="17.208804"></trkpt><trkpt lat="52.506442" lon="17.209605"></trkpt><trkpt lat="52.505744" lon="17.217004"></trkpt><trkpt lat="52.505537" lon="17.217517"></trkpt><trkpt lat="52.505321" lon="17.217959"></trkpt><trkpt lat="52.502299" lon="17.225460000000002"></trkpt><trkpt lat="52.502108" lon="17.226101"></trkpt><trkpt lat="52.497413" lon="17.240442"></trkpt><trkpt lat="52.494978" lon="17.245914"></trkpt><trkpt lat="52.494593" lon="17.245984"></trkpt><trkpt lat="52.49423" lon="17.24617"></trkpt><trkpt lat="52.494018" lon="17.246484"></trkpt><trkpt lat="52.493419" lon="17.247189"></trkpt><trkpt lat="52.493091" lon="17.247261"></trkpt><trkpt lat="52.492826" lon="17.247163"></trkpt><trkpt lat="52.492534" lon="17.246921"></trkpt><trkpt lat="52.492168" lon="17.246532"></trkpt><trkpt lat="52.491919" lon="17.246346"></trkpt><trkpt lat="52.491538" lon="17.246144"></trkpt><trkpt lat="52.491266" lon="17.246049"></trkpt><trkpt lat="52.490728" lon="17.245712"></trkpt><trkpt lat="52.49083" lon="17.245258"></trkpt><trkpt lat="52.490877" lon="17.244811"></trkpt><trkpt lat="52.492163" lon="17.236839"></trkpt><trkpt lat="52.492408" lon="17.2363"></trkpt><trkpt lat="52.492706" lon="17.235406"></trkpt><trkpt lat="52.493596" lon="17.233223"></trkpt><trkpt lat="52.493809" lon="17.232897"></trkpt><trkpt lat="52.494157" lon="17.232481"></trkpt><trkpt lat="52.494503" lon="17.231953"></trkpt><trkpt lat="52.494714" lon="17.231258"></trkpt><trkpt lat="52.49508" lon="17.231424"></trkpt><trkpt lat="52.495717" lon="17.231611"></trkpt><trkpt lat="52.495257" lon="17.231465"></trkpt><trkpt lat="52.494753" lon="17.231207"></trkpt><trkpt lat="52.494846" lon="17.230762"></trkpt><trkpt lat="52.494972" lon="17.229907999999998"></trkpt><trkpt lat="52.495118" lon="17.229252"></trkpt><trkpt lat="52.495442" lon="17.227171"></trkpt><trkpt lat="52.495842" lon="17.222959"></trkpt><trkpt lat="52.495798" lon="17.222483"></trkpt><trkpt lat="52.495683" lon="17.22177"></trkpt><trkpt lat="52.495632" lon="17.221259"></trkpt><trkpt lat="52.495422" lon="17.2204"></trkpt><trkpt lat="52.495191" lon="17.219855"></trkpt><trkpt lat="52.494989" lon="17.219468"></trkpt><trkpt lat="52.492911" lon="17.214519"></trkpt><trkpt lat="52.492937" lon="17.21352"></trkpt><trkpt lat="52.49292" lon="17.212973"></trkpt><trkpt lat="52.492945" lon="17.212414"></trkpt><trkpt lat="52.492935" lon="17.211572"></trkpt><trkpt lat="52.493008" lon="17.210792"></trkpt><trkpt lat="52.494481" lon="17.194602"></trkpt><trkpt lat="52.495191" lon="17.178318"></trkpt><trkpt lat="52.495265" lon="17.17774"></trkpt><trkpt lat="52.497337" lon="17.162098"></trkpt><trkpt lat="52.497539" lon="17.161062"></trkpt><trkpt lat="52.497714" lon="17.160451"></trkpt><trkpt lat="52.497909" lon="17.159915"></trkpt><trkpt lat="52.498086" lon="17.159308"></trkpt><trkpt lat="52.497877" lon="17.159846"></trkpt><trkpt lat="52.497333" lon="17.160591"></trkpt><trkpt lat="52.496928" lon="17.160382"></trkpt><trkpt lat="52.487428" lon="17.155809"></trkpt><trkpt lat="52.484471" lon="17.155174"></trkpt><trkpt lat="52.48427" lon="17.155597"></trkpt><trkpt lat="52.482731" lon="17.159931"></trkpt><trkpt lat="52.482672" lon="17.160386"></trkpt><trkpt lat="52.480132" lon="17.175835"></trkpt><trkpt lat="52.47995" lon="17.176516"></trkpt><trkpt lat="52.479239" lon="17.178389"></trkpt><trkpt lat="52.478856" lon="17.178806"></trkpt><trkpt lat="52.477986" lon="17.180128"></trkpt><trkpt lat="52.477715" lon="17.180674"></trkpt><trkpt lat="52.477451" lon="17.181382"></trkpt><trkpt lat="52.477424" lon="17.181904"></trkpt><trkpt lat="52.477331" lon="17.18275"></trkpt><trkpt lat="52.47721" lon="17.183251"></trkpt><trkpt lat="52.477087" lon="17.183984"></trkpt><trkpt lat="52.477136" lon="17.184545"></trkpt><trkpt lat="52.477149" lon="17.185143"></trkpt><trkpt lat="52.476961" lon="17.185638"></trkpt><trkpt lat="52.476632" lon="17.185856"></trkpt><trkpt lat="52.476178" lon="17.185766"></trkpt><trkpt lat="52.475829" lon="17.185999"></trkpt><trkpt lat="52.475721" lon="17.186439"></trkpt><trkpt lat="52.475742" lon="17.187057"></trkpt><trkpt lat="52.475827" lon="17.187684"></trkpt><trkpt lat="52.47617" lon="17.192043"></trkpt><trkpt lat="52.476119" lon="17.192487"></trkpt><trkpt lat="52.476089" lon="17.193018"></trkpt><trkpt lat="52.476141" lon="17.202166"></trkpt><trkpt lat="52.476273" lon="17.202922"></trkpt><trkpt lat="52.478034" lon="17.210363"></trkpt><trkpt lat="52.478349" lon="17.210317"></trkpt><trkpt lat="52.481571" lon="17.209362"></trkpt><trkpt lat="52.485148" lon="17.208904"></trkpt><trkpt lat="52.485089" lon="17.209446"></trkpt><trkpt lat="52.482839" lon="17.223033"></trkpt><trkpt lat="52.482696" lon="17.223632"></trkpt><trkpt lat="52.48249" lon="17.224863"></trkpt><trkpt lat="52.482277" lon="17.225656"></trkpt><trkpt lat="52.482006" lon="17.225754"></trkpt><trkpt lat="52.481675" lon="17.225815"></trkpt><trkpt lat="52.480402" lon="17.226362"></trkpt><trkpt lat="52.48041" lon="17.226877000000002"></trkpt><trkpt lat="52.480283" lon="17.227317"></trkpt><trkpt lat="52.48" lon="17.227496"></trkpt><trkpt lat="52.479684" lon="17.227588"></trkpt><trkpt lat="52.479321" lon="17.228"></trkpt><trkpt lat="52.479056" lon="17.228401"></trkpt><trkpt lat="52.478756" lon="17.228765"></trkpt><trkpt lat="52.478497" lon="17.22916"></trkpt><trkpt lat="52.478321" lon="17.22966"></trkpt><trkpt lat="52.47826" lon="17.230304"></trkpt><trkpt lat="52.478097" lon="17.230916"></trkpt><trkpt lat="52.478006" lon="17.231503"></trkpt><trkpt lat="52.477818" lon="17.232076"></trkpt><trkpt lat="52.477597" lon="17.23237"></trkpt><trkpt lat="52.477446" lon="17.23276"></trkpt><trkpt lat="52.477336" lon="17.233232"></trkpt><trkpt lat="52.477254" lon="17.233708"></trkpt><trkpt lat="52.477122" lon="17.234097"></trkpt><trkpt lat="52.477026" lon="17.234578"></trkpt><trkpt lat="52.476846" lon="17.23492"></trkpt><trkpt lat="52.476095" lon="17.236657"></trkpt><trkpt lat="52.475976" lon="17.237061"></trkpt><trkpt lat="52.475703" lon="17.237735"></trkpt><trkpt lat="52.47489" lon="17.239377"></trkpt><trkpt lat="52.474605" lon="17.239501"></trkpt><trkpt lat="52.474423" lon="17.23986"></trkpt><trkpt lat="52.474051" lon="17.239866"></trkpt><trkpt lat="52.473904" lon="17.239306"></trkpt><trkpt lat="52.473827" lon="17.238631"></trkpt><trkpt lat="52.472949" lon="17.233668"></trkpt><trkpt lat="52.472567" lon="17.233317"></trkpt><trkpt lat="52.472354" lon="17.233659"></trkpt><trkpt lat="52.472203" lon="17.234144"></trkpt><trkpt lat="52.471299" lon="17.23807"></trkpt><trkpt lat="52.471755" lon="17.238537"></trkpt><trkpt lat="52.473257" lon="17.241021"></trkpt><trkpt lat="52.47309" lon="17.241524"></trkpt><trkpt lat="52.471805" lon="17.246668"></trkpt><trkpt lat="52.472063" lon="17.24684"></trkpt><trkpt lat="52.472367" lon="17.247103"></trkpt><trkpt lat="52.472631" lon="17.247435"></trkpt><trkpt lat="52.472983" lon="17.247725"></trkpt><trkpt lat="52.473964" lon="17.248839"></trkpt><trkpt lat="52.474019" lon="17.249383"></trkpt><trkpt lat="52.474374" lon="17.249469"></trkpt><trkpt lat="52.474647" lon="17.249176"></trkpt><trkpt lat="52.474487" lon="17.240708"></trkpt></trkseg></trk></gpx>