<?xml version="1.0" encoding="UTF-8" standalone="no" ?><gpx xmlns="http://www.topografix.com/GPX/1/1" xmlns:gpxx="http://www.garmin.com/xmlschemas/GpxExtensions/v3" ><trk><trkseg><trkpt lat="54.2066694517" lon="21.6269658599"></trkpt><trkpt lat="54.2069687694" lon="21.6272168979"></trkpt><trkpt lat="54.2074670736" lon="21.6266668774"></trkpt><trkpt lat="54.2078012601" lon="21.6262228042"></trkpt><trkpt lat="54.2102344427" lon="21.6223399714"></trkpt><trkpt lat="54.2102197744" lon="21.6216940619"></trkpt><trkpt lat="54.2101783678" lon="21.6212370805"></trkpt><trkpt lat="54.2101711594" lon="21.6206590645"></trkpt><trkpt lat="54.2102791183" lon="21.6201269813"></trkpt><trkpt lat="54.2104777694" lon="21.6193752084"></trkpt><trkpt lat="54.2106463294" lon="21.6185142193"></trkpt><trkpt lat="54.2106826231" lon="21.6179372929"></trkpt><trkpt lat="54.2106366903" lon="21.6184700467"></trkpt><trkpt lat="54.2104823794" lon="21.619146131"></trkpt><trkpt lat="54.2101696506" lon="21.6212079953"></trkpt><trkpt lat="54.2101557367" lon="21.6217591055"></trkpt><trkpt lat="54.2102191877" lon="21.6224483494"></trkpt><trkpt lat="54.2100409046" lon="21.6229825281"></trkpt><trkpt lat="54.2098160181" lon="21.6234042216"></trkpt><trkpt lat="54.2096069735" lon="21.6237105802"></trkpt><trkpt lat="54.2094028741" lon="21.6241119895"></trkpt><trkpt lat="54.2091421131" lon="21.6244358663"></trkpt><trkpt lat="54.2088890634" lon="21.6246936098"></trkpt><trkpt lat="54.2086480837" lon="21.6250122897"></trkpt><trkpt lat="54.2067851219" lon="21.6270103678"></trkpt><trkpt lat="54.2064925935" lon="21.626982959"></trkpt></trkseg></trk></gpx>