<?xml version="1.0" encoding="UTF-8" standalone="no" ?><gpx xmlns="http://www.topografix.com/GPX/1/1" xmlns:gpxx="http://www.garmin.com/xmlschemas/GpxExtensions/v3" ><trk><trkseg><trkpt lat="52.83249" lon="16.9347"></trkpt><trkpt lat="52.8332" lon="16.93498"></trkpt><trkpt lat="52.8421" lon="16.93768"></trkpt><trkpt lat="52.84283" lon="16.93766"></trkpt><trkpt lat="52.84393" lon="16.93798"></trkpt><trkpt lat="52.84439" lon="16.93896"></trkpt><trkpt lat="52.84474" lon="16.94004"></trkpt><trkpt lat="52.84484" lon="16.94124"></trkpt><trkpt lat="52.8448" lon="16.94427"></trkpt><trkpt lat="52.84415" lon="16.9448"></trkpt><trkpt lat="52.84232" lon="16.94698"></trkpt><trkpt lat="52.84195" lon="16.94803"></trkpt><trkpt lat="52.83802" lon="16.96148"></trkpt><trkpt lat="52.83774" lon="16.96946"></trkpt></trkseg><trkseg><trkpt lat="52.583398" lon="17.023271"></trkpt><trkpt lat="52.58319" lon="17.022128"></trkpt><trkpt lat="52.583675" lon="17.020549"></trkpt><trkpt lat="52.584181" lon="17.019689"></trkpt><trkpt lat="52.585338" lon="17.018418"></trkpt><trkpt lat="52.588682" lon="17.020948"></trkpt><trkpt lat="52.598025" lon="17.025267"></trkpt><trkpt lat="52.598661" lon="17.025824"></trkpt><trkpt lat="52.600325" lon="17.023599"></trkpt><trkpt lat="52.600278" lon="17.022399"></trkpt><trkpt lat="52.601144" lon="17.021717"></trkpt><trkpt lat="52.602181" lon="17.021232"></trkpt><trkpt lat="52.602921" lon="17.02127"></trkpt><trkpt lat="52.603952" lon="17.02085"></trkpt><trkpt lat="52.604308" lon="17.0197"></trkpt><trkpt lat="52.605084" lon="17.019432"></trkpt><trkpt lat="52.605821" lon="17.018484"></trkpt><trkpt lat="52.608076" lon="17.014502"></trkpt><trkpt lat="52.608461" lon="17.013319"></trkpt><trkpt lat="52.61187" lon="17.006094"></trkpt><trkpt lat="52.61272" lon="17.006049"></trkpt><trkpt lat="52.619333" lon="17.003907"></trkpt><trkpt lat="52.619801" lon="17.004874"></trkpt><trkpt lat="52.620504" lon="17.004121"></trkpt><trkpt lat="52.620785" lon="17.002847"></trkpt><trkpt lat="52.621185" lon="17.001857"></trkpt><trkpt lat="52.628127" lon="16.979916"></trkpt><trkpt lat="52.628819" lon="16.979255"></trkpt><trkpt lat="52.629415" lon="16.978435"></trkpt><trkpt lat="52.629617" lon="16.977218"></trkpt><trkpt lat="52.630303" lon="16.977578"></trkpt><trkpt lat="52.638052" lon="16.979278"></trkpt><trkpt lat="52.638643" lon="16.978526"></trkpt><trkpt lat="52.639503" lon="16.978525"></trkpt><trkpt lat="52.640414" lon="16.979512"></trkpt><trkpt lat="52.642821" lon="16.981059"></trkpt><trkpt lat="52.645922" lon="16.977903"></trkpt><trkpt lat="52.646168" lon="16.97661"></trkpt><trkpt lat="52.648648" lon="16.96847"></trkpt><trkpt lat="52.649198" lon="16.967491"></trkpt><trkpt lat="52.656095" lon="16.958594"></trkpt><trkpt lat="52.656432" lon="16.957185"></trkpt><trkpt lat="52.65699" lon="16.955822"></trkpt><trkpt lat="52.657779" lon="16.955963"></trkpt><trkpt lat="52.672686" lon="16.957128"></trkpt><trkpt lat="52.687563" lon="16.95381"></trkpt><trkpt lat="52.688889" lon="16.953125"></trkpt><trkpt lat="52.690348" lon="16.951723"></trkpt><trkpt lat="52.690203" lon="16.950074"></trkpt><trkpt lat="52.690383" lon="16.938139"></trkpt><trkpt lat="52.691168" lon="16.937469"></trkpt><trkpt lat="52.692661" lon="16.936664"></trkpt><trkpt lat="52.693935" lon="16.93531"></trkpt><trkpt lat="52.694688" lon="16.933919"></trkpt><trkpt lat="52.704894" lon="16.915926"></trkpt><trkpt lat="52.705552" lon="16.915266"></trkpt><trkpt lat="52.707827" lon="16.914008"></trkpt><trkpt lat="52.713601" lon="16.915459"></trkpt><trkpt lat="52.728082" lon="16.909849"></trkpt><trkpt lat="52.729095" lon="16.909757"></trkpt><trkpt lat="52.741316" lon="16.905075"></trkpt><trkpt lat="52.742099" lon="16.904076"></trkpt><trkpt lat="52.75408" lon="16.888769"></trkpt><trkpt lat="52.755659" lon="16.887538"></trkpt><trkpt lat="52.756593" lon="16.887114"></trkpt><trkpt lat="52.770996" lon="16.880723"></trkpt><trkpt lat="52.771761" lon="16.879967"></trkpt><trkpt lat="52.772558" lon="16.879718"></trkpt><trkpt lat="52.787247" lon="16.874228"></trkpt><trkpt lat="52.798366" lon="16.866835"></trkpt><trkpt lat="52.798937" lon="16.865643"></trkpt><trkpt lat="52.801161" lon="16.862668"></trkpt><trkpt lat="52.802037" lon="16.862728"></trkpt><trkpt lat="52.816927" lon="16.861363"></trkpt><trkpt lat="52.820292" lon="16.862727"></trkpt><trkpt lat="52.81992" lon="16.863848"></trkpt><trkpt lat="52.812807" lon="16.885671"></trkpt><trkpt lat="52.809016" lon="16.903589"></trkpt><trkpt lat="52.809163" lon="16.905008"></trkpt><trkpt lat="52.814069" lon="16.927934"></trkpt><trkpt lat="52.814975" lon="16.927376"></trkpt><trkpt lat="52.815717" lon="16.927278"></trkpt><trkpt lat="52.816383" lon="16.927796"></trkpt><trkpt lat="52.817377" lon="16.928114"></trkpt><trkpt lat="52.82064" lon="16.930208"></trkpt><trkpt lat="52.821359" lon="16.931019"></trkpt><trkpt lat="52.827391" lon="16.935593"></trkpt><trkpt lat="52.830534" lon="16.934129"></trkpt></trkseg></trk></gpx>