<?xml version="1.0" encoding="UTF-8" standalone="no" ?><gpx xmlns="http://www.topografix.com/GPX/1/1" xmlns:gpxx="http://www.garmin.com/xmlschemas/GpxExtensions/v3" ><trk><trkseg><trkpt lat="52.44414" lon="20.70508"></trkpt><trkpt lat="52.44393" lon="20.7048"></trkpt><trkpt lat="52.44373" lon="20.70448"></trkpt><trkpt lat="52.44355" lon="20.70413"></trkpt><trkpt lat="52.44341" lon="20.70375"></trkpt><trkpt lat="52.44314" lon="20.70378"></trkpt><trkpt lat="52.4429" lon="20.70354"></trkpt><trkpt lat="52.44275" lon="20.70317"></trkpt><trkpt lat="52.4424" lon="20.70246"></trkpt><trkpt lat="52.44218" lon="20.70212"></trkpt><trkpt lat="52.44199" lon="20.70177"></trkpt><trkpt lat="52.44186" lon="20.70136"></trkpt><trkpt lat="52.44167" lon="20.70102"></trkpt><trkpt lat="52.44153" lon="20.70064"></trkpt><trkpt lat="52.44144" lon="20.70022"></trkpt><trkpt lat="52.44127" lon="20.69985"></trkpt><trkpt lat="52.44083" lon="20.69905"></trkpt><trkpt lat="52.44059" lon="20.6988"></trkpt><trkpt lat="52.44043" lon="20.69839"></trkpt><trkpt lat="52.44025" lon="20.69801"></trkpt><trkpt lat="52.44003" lon="20.69775"></trkpt><trkpt lat="52.43978" lon="20.69751"></trkpt><trkpt lat="52.43952" lon="20.69738"></trkpt><trkpt lat="52.43927" lon="20.6972"></trkpt><trkpt lat="52.43899" lon="20.69705"></trkpt><trkpt lat="52.43871" lon="20.69695"></trkpt><trkpt lat="52.43845" lon="20.6968"></trkpt><trkpt lat="52.43825" lon="20.6965"></trkpt><trkpt lat="52.43844" lon="20.69683"></trkpt><trkpt lat="52.4382" lon="20.69661"></trkpt><trkpt lat="52.43793" lon="20.6965"></trkpt><trkpt lat="52.43753" lon="20.6964"></trkpt><trkpt lat="52.43728" lon="20.69622"></trkpt><trkpt lat="52.437" lon="20.69607"></trkpt><trkpt lat="52.43673" lon="20.69601"></trkpt><trkpt lat="52.43648" lon="20.69582"></trkpt><trkpt lat="52.43639" lon="20.6954"></trkpt><trkpt lat="52.43632" lon="20.69494"></trkpt><trkpt lat="52.43628" lon="20.69448"></trkpt><trkpt lat="52.43637" lon="20.6949"></trkpt><trkpt lat="52.43644" lon="20.69535"></trkpt><trkpt lat="52.43648" lon="20.69579"></trkpt><trkpt lat="52.43673" lon="20.69598"></trkpt><trkpt lat="52.43722" lon="20.69627"></trkpt><trkpt lat="52.43764" lon="20.69659"></trkpt><trkpt lat="52.43791" lon="20.69665"></trkpt><trkpt lat="52.43823" lon="20.69677"></trkpt><trkpt lat="52.4385" lon="20.6968"></trkpt><trkpt lat="52.43876" lon="20.69696"></trkpt><trkpt lat="52.43905" lon="20.69709"></trkpt><trkpt lat="52.4393" lon="20.69726"></trkpt><trkpt lat="52.44022" lon="20.69805"></trkpt><trkpt lat="52.44041" lon="20.69837"></trkpt><trkpt lat="52.44063" lon="20.69866"></trkpt><trkpt lat="52.44087" lon="20.69887"></trkpt><trkpt lat="52.44121" lon="20.69924"></trkpt><trkpt lat="52.44137" lon="20.69962"></trkpt><trkpt lat="52.44156" lon="20.70017"></trkpt><trkpt lat="52.44168" lon="20.70061"></trkpt><trkpt lat="52.44186" lon="20.70096"></trkpt><trkpt lat="52.442" lon="20.70135"></trkpt><trkpt lat="52.44287" lon="20.70333"></trkpt><trkpt lat="52.44306" lon="20.70367"></trkpt><trkpt lat="52.44333" lon="20.7037"></trkpt><trkpt lat="52.44359" lon="20.70385"></trkpt><trkpt lat="52.443821" lon="20.704442"></trkpt></trkseg></trk></gpx>