<?xml version="1.0" encoding="UTF-8" standalone="no" ?><gpx xmlns="http://www.topografix.com/GPX/1/1" xmlns:gpxx="http://www.garmin.com/xmlschemas/GpxExtensions/v3" ><trk><trkseg><trkpt lat="53.924809" lon="22.169801"></trkpt><trkpt lat="53.924525" lon="22.170468"></trkpt><trkpt lat="53.924462" lon="22.170821"></trkpt><trkpt lat="53.923666" lon="22.174315"></trkpt><trkpt lat="53.923448" lon="22.174316"></trkpt><trkpt lat="53.92267" lon="22.174092"></trkpt><trkpt lat="53.922156" lon="22.17385"></trkpt><trkpt lat="53.921801" lon="22.172975"></trkpt><trkpt lat="53.92163" lon="22.172154"></trkpt><trkpt lat="53.919614" lon="22.164276"></trkpt><trkpt lat="53.919471" lon="22.16358"></trkpt><trkpt lat="53.919313" lon="22.162422"></trkpt><trkpt lat="53.919231" lon="22.161444"></trkpt><trkpt lat="53.919285" lon="22.161026"></trkpt><trkpt lat="53.919432" lon="22.160297"></trkpt><trkpt lat="53.91961" lon="22.159625"></trkpt><trkpt lat="53.919939" lon="22.159178"></trkpt><trkpt lat="53.920335" lon="22.158838"></trkpt><trkpt lat="53.920841" lon="22.158122"></trkpt><trkpt lat="53.921084" lon="22.157664"></trkpt><trkpt lat="53.921651" lon="22.156076"></trkpt><trkpt lat="53.927018" lon="22.143652"></trkpt><trkpt lat="53.933998" lon="22.12457"></trkpt><trkpt lat="53.934007" lon="22.123173"></trkpt><trkpt lat="53.933926" lon="22.122196"></trkpt><trkpt lat="53.933959" lon="22.120819"></trkpt><trkpt lat="53.934082" lon="22.120151"></trkpt><trkpt lat="53.934311" lon="22.117307"></trkpt><trkpt lat="53.934522" lon="22.115967"></trkpt><trkpt lat="53.935035" lon="22.114705"></trkpt><trkpt lat="53.942406" lon="22.100137"></trkpt><trkpt lat="53.943442" lon="22.099599"></trkpt><trkpt lat="53.945872" lon="22.097951"></trkpt><trkpt lat="53.946056" lon="22.097586"></trkpt><trkpt lat="53.946447" lon="22.0965"></trkpt><trkpt lat="53.947828" lon="22.093425"></trkpt><trkpt lat="53.949641" lon="22.090304"></trkpt><trkpt lat="53.950038" lon="22.089858"></trkpt><trkpt lat="53.950786" lon="22.088838"></trkpt><trkpt lat="53.951342" lon="22.087909"></trkpt><trkpt lat="53.952594" lon="22.086224"></trkpt><trkpt lat="53.953008" lon="22.085942"></trkpt><trkpt lat="53.953223" lon="22.085709"></trkpt><trkpt lat="53.95338" lon="22.085476"></trkpt><trkpt lat="53.953823" lon="22.084244"></trkpt><trkpt lat="53.954831" lon="22.080475"></trkpt><trkpt lat="53.954788" lon="22.080841"></trkpt><trkpt lat="53.954829" lon="22.080247"></trkpt><trkpt lat="53.954747" lon="22.079167"></trkpt><trkpt lat="53.954472" lon="22.078099"></trkpt><trkpt lat="53.954361" lon="22.077569"></trkpt><trkpt lat="53.954534" lon="22.07729"></trkpt><trkpt lat="53.954991" lon="22.076863"></trkpt><trkpt lat="53.955153" lon="22.076615"></trkpt><trkpt lat="53.955556" lon="22.076229"></trkpt><trkpt lat="53.955718" lon="22.076011"></trkpt><trkpt lat="53.956051" lon="22.075844"></trkpt><trkpt lat="53.956889" lon="22.075576"></trkpt><trkpt lat="53.957344" lon="22.075313"></trkpt><trkpt lat="53.957794" lon="22.074674"></trkpt><trkpt lat="53.957918" lon="22.074295"></trkpt><trkpt lat="53.958028" lon="22.073093"></trkpt><trkpt lat="53.958006" lon="22.071784"></trkpt><trkpt lat="53.958143" lon="22.069221"></trkpt><trkpt lat="53.958455" lon="22.068154"></trkpt><trkpt lat="53.959638" lon="22.064865"></trkpt><trkpt lat="53.959904" lon="22.064323"></trkpt><trkpt lat="53.966865" lon="22.052052"></trkpt><trkpt lat="53.967329" lon="22.051384"></trkpt><trkpt lat="53.977642" lon="22.038533"></trkpt><trkpt lat="53.978079" lon="22.03807"></trkpt><trkpt lat="53.979368" lon="22.03637"></trkpt><trkpt lat="53.979737" lon="22.036101"></trkpt><trkpt lat="53.980917" lon="22.034895"></trkpt><trkpt lat="53.981237" lon="22.033998"></trkpt><trkpt lat="53.981379" lon="22.033493"></trkpt><trkpt lat="53.981587" lon="22.032975"></trkpt><trkpt lat="53.98287" lon="22.030371"></trkpt><trkpt lat="53.983634" lon="22.028459"></trkpt><trkpt lat="53.984039" lon="22.02715"></trkpt><trkpt lat="53.984221" lon="22.026661"></trkpt><trkpt lat="53.984295" lon="22.026341"></trkpt><trkpt lat="53.985115" lon="22.023824"></trkpt><trkpt lat="53.985074" lon="22.023441"></trkpt><trkpt lat="53.984896" lon="22.023187"></trkpt><trkpt lat="53.984757" lon="22.022926"></trkpt><trkpt lat="53.984552" lon="22.022618"></trkpt><trkpt lat="53.983812" lon="22.021328"></trkpt><trkpt lat="53.983736" lon="22.020884"></trkpt><trkpt lat="53.983561" lon="22.020712"></trkpt><trkpt lat="53.983172" lon="22.020489"></trkpt><trkpt lat="53.982088" lon="22.019303"></trkpt><trkpt lat="53.981516" lon="22.018275"></trkpt><trkpt lat="53.980919" lon="22.016885"></trkpt><trkpt lat="53.980912" lon="22.016518"></trkpt><trkpt lat="53.981043" lon="22.014673"></trkpt><trkpt lat="53.980954" lon="22.013135"></trkpt><trkpt lat="53.980848" lon="22.012594"></trkpt><trkpt lat="53.979529" lon="22.003125"></trkpt><trkpt lat="53.979518" lon="22.001806"></trkpt><trkpt lat="53.97936" lon="22.001132"></trkpt><trkpt lat="53.978947" lon="21.99997"></trkpt><trkpt lat="53.975034" lon="21.991175"></trkpt><trkpt lat="53.97434" lon="21.990373"></trkpt><trkpt lat="53.97238" lon="21.988657"></trkpt><trkpt lat="53.971445" lon="21.988522"></trkpt><trkpt lat="53.970345" lon="21.9882"></trkpt><trkpt lat="53.969737" lon="21.98744"></trkpt><trkpt lat="53.967202" lon="21.983763"></trkpt><trkpt lat="53.967153" lon="21.982537"></trkpt><trkpt lat="53.967014" lon="21.980934"></trkpt><trkpt lat="53.966842" lon="21.980684"></trkpt><trkpt lat="53.96648" lon="21.980343"></trkpt><trkpt lat="53.965982" lon="21.97964"></trkpt><trkpt lat="53.965832" lon="21.978496"></trkpt><trkpt lat="53.965825" lon="21.977822"></trkpt><trkpt lat="53.965782" lon="21.977332"></trkpt><trkpt lat="53.965773" lon="21.976989"></trkpt><trkpt lat="53.965811" lon="21.976594"></trkpt><trkpt lat="53.965809" lon="21.976098"></trkpt><trkpt lat="53.96682" lon="21.955185"></trkpt><trkpt lat="53.967433" lon="21.954223"></trkpt><trkpt lat="53.967819" lon="21.953774"></trkpt><trkpt lat="53.968154" lon="21.95328"></trkpt><trkpt lat="53.968386" lon="21.952321"></trkpt><trkpt lat="53.969398" lon="21.949044"></trkpt><trkpt lat="53.970082" lon="21.946056"></trkpt><trkpt lat="53.970059" lon="21.945317"></trkpt><trkpt lat="53.969944" lon="21.944851"></trkpt><trkpt lat="53.969425" lon="21.943764"></trkpt><trkpt lat="53.967254" lon="21.94009"></trkpt><trkpt lat="53.966624" lon="21.939361"></trkpt><trkpt lat="53.964924" lon="21.936978"></trkpt><trkpt lat="53.96449" lon="21.936113"></trkpt><trkpt lat="53.964544" lon="21.935699"></trkpt><trkpt lat="53.965179" lon="21.934415"></trkpt><trkpt lat="53.965394" lon="21.93333"></trkpt><trkpt lat="53.965432" lon="21.932905"></trkpt><trkpt lat="53.965307" lon="21.932574"></trkpt><trkpt lat="53.964632" lon="21.931853"></trkpt><trkpt lat="53.964224" lon="21.931234"></trkpt><trkpt lat="53.963544" lon="21.929809"></trkpt><trkpt lat="53.9598" lon="21.92318"></trkpt><trkpt lat="53.959304" lon="21.922706"></trkpt><trkpt lat="53.959093" lon="21.92238"></trkpt><trkpt lat="53.958792" lon="21.9213"></trkpt><trkpt lat="53.958729" lon="21.920975"></trkpt><trkpt lat="53.956815" lon="21.913994"></trkpt><trkpt lat="53.956185" lon="21.913231"></trkpt><trkpt lat="53.955088" lon="21.911339"></trkpt><trkpt lat="53.954899" lon="21.910611"></trkpt><trkpt lat="53.952719" lon="21.903717"></trkpt><trkpt lat="53.951949" lon="21.902356"></trkpt><trkpt lat="53.951623" lon="21.901369"></trkpt><trkpt lat="53.951508" lon="21.90065"></trkpt><trkpt lat="53.951423" lon="21.899904"></trkpt><trkpt lat="53.950789" lon="21.896187"></trkpt><trkpt lat="53.950581" lon="21.89538"></trkpt><trkpt lat="53.9501" lon="21.893042"></trkpt><trkpt lat="53.949991" lon="21.891484"></trkpt><trkpt lat="53.949862" lon="21.885082"></trkpt><trkpt lat="53.949817" lon="21.884527"></trkpt><trkpt lat="53.949681" lon="21.884191"></trkpt><trkpt lat="53.949493" lon="21.883945"></trkpt><trkpt lat="53.94863" lon="21.883321"></trkpt><trkpt lat="53.946593" lon="21.882295"></trkpt><trkpt lat="53.945735" lon="21.881984"></trkpt><trkpt lat="53.945424" lon="21.881914"></trkpt><trkpt lat="53.944776" lon="21.882354"></trkpt><trkpt lat="53.942734" lon="21.883441"></trkpt><trkpt lat="53.942482" lon="21.881688"></trkpt><trkpt lat="53.942172" lon="21.878188"></trkpt><trkpt lat="53.942187" lon="21.876518"></trkpt><trkpt lat="53.942102" lon="21.874526"></trkpt><trkpt lat="53.942348" lon="21.874067"></trkpt><trkpt lat="53.942411" lon="21.873713"></trkpt><trkpt lat="53.942649" lon="21.873403"></trkpt><trkpt lat="53.943304" lon="21.872846"></trkpt><trkpt lat="53.943956" lon="21.872593"></trkpt><trkpt lat="53.945211" lon="21.871791"></trkpt><trkpt lat="53.945772" lon="21.871204"></trkpt><trkpt lat="53.946185" lon="21.87087"></trkpt><trkpt lat="53.946254" lon="21.870212"></trkpt><trkpt lat="53.946261" lon="21.869834"></trkpt><trkpt lat="53.946247" lon="21.869277"></trkpt><trkpt lat="53.946144" lon="21.868918"></trkpt><trkpt lat="53.945975" lon="21.868639"></trkpt><trkpt lat="53.945421" lon="21.868049"></trkpt><trkpt lat="53.944831" lon="21.867558"></trkpt><trkpt lat="53.944214" lon="21.866546"></trkpt><trkpt lat="53.944089" lon="21.865904"></trkpt><trkpt lat="53.943399" lon="21.863085"></trkpt><trkpt lat="53.943158" lon="21.862822"></trkpt><trkpt lat="53.942577" lon="21.862424"></trkpt><trkpt lat="53.942128" lon="21.861918"></trkpt><trkpt lat="53.941864" lon="21.861519"></trkpt><trkpt lat="53.941533" lon="21.860537"></trkpt><trkpt lat="53.941314" lon="21.859718"></trkpt><trkpt lat="53.941199" lon="21.859429"></trkpt><trkpt lat="53.940835" lon="21.858842"></trkpt><trkpt lat="53.935841" lon="21.849192"></trkpt><trkpt lat="53.93592" lon="21.848635"></trkpt><trkpt lat="53.935994" lon="21.847656"></trkpt><trkpt lat="53.935866" lon="21.847199"></trkpt><trkpt lat="53.935711" lon="21.846801"></trkpt><trkpt lat="53.935286" lon="21.846161"></trkpt><trkpt lat="53.935118" lon="21.845959"></trkpt><trkpt lat="53.934808" lon="21.845643"></trkpt><trkpt lat="53.934397" lon="21.845341"></trkpt><trkpt lat="53.934252" lon="21.845003"></trkpt><trkpt lat="53.93416" lon="21.844444"></trkpt><trkpt lat="53.934193" lon="21.844034"></trkpt><trkpt lat="53.934347" lon="21.84357"></trkpt><trkpt lat="53.935427" lon="21.841094"></trkpt><trkpt lat="53.935904" lon="21.840406"></trkpt><trkpt lat="53.936517" lon="21.839642"></trkpt><trkpt lat="53.938143" lon="21.837238"></trkpt><trkpt lat="53.938747" lon="21.83596"></trkpt><trkpt lat="53.939179" lon="21.834751"></trkpt><trkpt lat="53.939561" lon="21.833118"></trkpt><trkpt lat="53.939703" lon="21.832633"></trkpt><trkpt lat="53.93999" lon="21.83215"></trkpt><trkpt lat="53.940218" lon="21.831986"></trkpt><trkpt lat="53.940534" lon="21.831845"></trkpt><trkpt lat="53.940712" lon="21.831577"></trkpt><trkpt lat="53.940799" lon="21.831214"></trkpt><trkpt lat="53.940898" lon="21.830873"></trkpt><trkpt lat="53.94108" lon="21.830672"></trkpt><trkpt lat="53.941562" lon="21.830349"></trkpt><trkpt lat="53.941754" lon="21.830157"></trkpt><trkpt lat="53.941917" lon="21.829889"></trkpt><trkpt lat="53.942435" lon="21.828595"></trkpt><trkpt lat="53.945507" lon="21.818787"></trkpt><trkpt lat="53.945562" lon="21.81749"></trkpt><trkpt lat="53.946277" lon="21.809078"></trkpt><trkpt lat="53.946667" lon="21.808032"></trkpt><trkpt lat="53.947093" lon="21.8072"></trkpt><trkpt lat="53.947753" lon="21.806155"></trkpt><trkpt lat="53.962135" lon="21.779439"></trkpt><trkpt lat="53.962536" lon="21.777948"></trkpt><trkpt lat="53.962976" lon="21.775063"></trkpt><trkpt lat="53.962936" lon="21.773674"></trkpt><trkpt lat="53.963124" lon="21.77113"></trkpt><trkpt lat="53.963297" lon="21.770037"></trkpt><trkpt lat="53.963997" lon="21.767346"></trkpt><trkpt lat="53.964473" lon="21.766267"></trkpt><trkpt lat="53.965682" lon="21.762891"></trkpt><trkpt lat="53.965788" lon="21.761697"></trkpt><trkpt lat="53.965797" lon="21.761325"></trkpt><trkpt lat="53.965754" lon="21.760978"></trkpt><trkpt lat="53.965507" lon="21.760585"></trkpt><trkpt lat="53.965147" lon="21.760352"></trkpt><trkpt lat="53.964751" lon="21.760038"></trkpt><trkpt lat="53.964628" lon="21.759755"></trkpt><trkpt lat="53.964241" lon="21.759268"></trkpt><trkpt lat="53.9621" lon="21.757019"></trkpt><trkpt lat="53.961734" lon="21.756845"></trkpt><trkpt lat="53.953035" lon="21.76216"></trkpt><trkpt lat="53.952231" lon="21.762831"></trkpt><trkpt lat="53.951467" lon="21.763342"></trkpt><trkpt lat="53.949045" lon="21.764623"></trkpt><trkpt lat="53.949228" lon="21.763287"></trkpt><trkpt lat="53.949905" lon="21.75599"></trkpt><trkpt lat="53.949119" lon="21.754931"></trkpt><trkpt lat="53.945765" lon="21.74952"></trkpt><trkpt lat="53.945693" lon="21.748802"></trkpt><trkpt lat="53.94571" lon="21.748417"></trkpt><trkpt lat="53.945816" lon="21.747888"></trkpt><trkpt lat="53.946134" lon="21.747105"></trkpt><trkpt lat="53.946337" lon="21.746686"></trkpt><trkpt lat="53.946486" lon="21.746326"></trkpt><trkpt lat="53.948925" lon="21.741636"></trkpt><trkpt lat="53.949311" lon="21.741441"></trkpt><trkpt lat="53.950582" lon="21.740975"></trkpt><trkpt lat="53.950852" lon="21.740736"></trkpt><trkpt lat="53.951257" lon="21.740459"></trkpt><trkpt lat="53.954714" lon="21.736609"></trkpt><trkpt lat="53.954806" lon="21.735688"></trkpt><trkpt lat="53.955002" lon="21.734572"></trkpt><trkpt lat="53.955122" lon="21.734154"></trkpt><trkpt lat="53.955451" lon="21.733366"></trkpt><trkpt lat="53.955642" lon="21.733192"></trkpt><trkpt lat="53.956273" lon="21.733003"></trkpt><trkpt lat="53.957133" lon="21.733485"></trkpt><trkpt lat="53.957804" lon="21.734181"></trkpt><trkpt lat="53.958609" lon="21.735183"></trkpt><trkpt lat="53.961199" lon="21.73786"></trkpt><trkpt lat="53.961405" lon="21.737985"></trkpt><trkpt lat="53.961611" lon="21.738071"></trkpt><trkpt lat="53.962215" lon="21.738597"></trkpt><trkpt lat="53.96286" lon="21.739043"></trkpt><trkpt lat="53.963995" lon="21.74035"></trkpt><trkpt lat="53.964362" lon="21.74127"></trkpt><trkpt lat="53.965806" lon="21.745918"></trkpt><trkpt lat="53.966087" lon="21.745815"></trkpt><trkpt lat="53.96632" lon="21.745446"></trkpt><trkpt lat="53.966571" lon="21.744784"></trkpt><trkpt lat="53.967676" lon="21.741218"></trkpt><trkpt lat="53.967497" lon="21.740235"></trkpt><trkpt lat="53.96678" lon="21.734339"></trkpt><trkpt lat="53.966764" lon="21.732787"></trkpt><trkpt lat="53.967228" lon="21.722448"></trkpt><trkpt lat="53.967543" lon="21.721128"></trkpt><trkpt lat="53.967805" lon="21.720413"></trkpt><trkpt lat="53.968218" lon="21.719454"></trkpt><trkpt lat="53.968551" lon="21.718803"></trkpt><trkpt lat="53.968842" lon="21.718418"></trkpt><trkpt lat="53.972936" lon="21.712132"></trkpt><trkpt lat="53.973484" lon="21.710764"></trkpt><trkpt lat="53.974931" lon="21.708162"></trkpt><trkpt lat="53.975143" lon="21.707969"></trkpt><trkpt lat="53.974932" lon="21.708121"></trkpt><trkpt lat="53.974672" lon="21.708224"></trkpt><trkpt lat="53.973872" lon="21.707468"></trkpt><trkpt lat="53.973369" lon="21.7069"></trkpt><trkpt lat="53.972778" lon="21.706113"></trkpt><trkpt lat="53.971576" lon="21.704755"></trkpt><trkpt lat="53.970788" lon="21.704107"></trkpt><trkpt lat="53.967974" lon="21.702219"></trkpt><trkpt lat="53.966458" lon="21.701421"></trkpt><trkpt lat="53.964951" lon="21.700426"></trkpt><trkpt lat="53.9647" lon="21.700223"></trkpt><trkpt lat="53.964502" lon="21.700115"></trkpt><trkpt lat="53.964176" lon="21.699872"></trkpt><trkpt lat="53.963359" lon="21.698998"></trkpt><trkpt lat="53.962793" lon="21.698039"></trkpt><trkpt lat="53.961383" lon="21.696037"></trkpt><trkpt lat="53.960869" lon="21.6956"></trkpt><trkpt lat="53.95489" lon="21.691797"></trkpt><trkpt lat="53.954516" lon="21.69214"></trkpt><trkpt lat="53.954126" lon="21.69256"></trkpt><trkpt lat="53.953637" lon="21.693371"></trkpt><trkpt lat="53.953166" lon="21.694328"></trkpt><trkpt lat="53.95271" lon="21.695098"></trkpt><trkpt lat="53.952045" lon="21.696"></trkpt><trkpt lat="53.95066" lon="21.697279"></trkpt><trkpt lat="53.950715" lon="21.696871"></trkpt><trkpt lat="53.950789" lon="21.69539"></trkpt><trkpt lat="53.950647" lon="21.694623"></trkpt><trkpt lat="53.950542" lon="21.694268"></trkpt><trkpt lat="53.95012" lon="21.693538"></trkpt><trkpt lat="53.949782" lon="21.693181"></trkpt><trkpt lat="53.94927" lon="21.69255"></trkpt><trkpt lat="53.949047" lon="21.692152"></trkpt><trkpt lat="53.948942" lon="21.691836"></trkpt><trkpt lat="53.948807" lon="21.69119"></trkpt><trkpt lat="53.948742" lon="21.690662"></trkpt><trkpt lat="53.948098" lon="21.686841"></trkpt><trkpt lat="53.948001" lon="21.686433"></trkpt><trkpt lat="53.947739" lon="21.685048"></trkpt><trkpt lat="53.947717" lon="21.684411"></trkpt><trkpt lat="53.947761" lon="21.683482"></trkpt><trkpt lat="53.947993" lon="21.682304"></trkpt><trkpt lat="53.948085" lon="21.681995"></trkpt><trkpt lat="53.951266" lon="21.668691"></trkpt><trkpt lat="53.951204" lon="21.668273"></trkpt><trkpt lat="53.951056" lon="21.667526"></trkpt><trkpt lat="53.95086" lon="21.666164"></trkpt><trkpt lat="53.950885" lon="21.665369"></trkpt><trkpt lat="53.951135" lon="21.664604"></trkpt><trkpt lat="53.951325" lon="21.664209"></trkpt><trkpt lat="53.951641" lon="21.663654"></trkpt><trkpt lat="53.951773" lon="21.663314"></trkpt><trkpt lat="53.952699" lon="21.660402"></trkpt><trkpt lat="53.952514" lon="21.660275"></trkpt><trkpt lat="53.952167" lon="21.660194"></trkpt><trkpt lat="53.946971" lon="21.660716"></trkpt><trkpt lat="53.943769" lon="21.661493"></trkpt><trkpt lat="53.940127" lon="21.661683"></trkpt><trkpt lat="53.939549" lon="21.661478"></trkpt><trkpt lat="53.939112" lon="21.661261"></trkpt><trkpt lat="53.938868" lon="21.661064"></trkpt><trkpt lat="53.938212" lon="21.660797"></trkpt><trkpt lat="53.937828" lon="21.660745"></trkpt><trkpt lat="53.93713" lon="21.660239"></trkpt><trkpt lat="53.936259" lon="21.659738"></trkpt><trkpt lat="53.935862" lon="21.659563"></trkpt><trkpt lat="53.935394" lon="21.659242"></trkpt><trkpt lat="53.934545" lon="21.658913"></trkpt><trkpt lat="53.93382" lon="21.658876"></trkpt><trkpt lat="53.929083" lon="21.658038"></trkpt><trkpt lat="53.929046" lon="21.656574"></trkpt><trkpt lat="53.929347" lon="21.651757"></trkpt><trkpt lat="53.929423" lon="21.651437"></trkpt><trkpt lat="53.92945" lon="21.651013"></trkpt><trkpt lat="53.92923" lon="21.649686"></trkpt><trkpt lat="53.929012" lon="21.646916"></trkpt><trkpt lat="53.928941" lon="21.644952"></trkpt><trkpt lat="53.928956" lon="21.642796"></trkpt><trkpt lat="53.92922" lon="21.641716"></trkpt><trkpt lat="53.930656" lon="21.634269"></trkpt><trkpt lat="53.930621" lon="21.633421"></trkpt><trkpt lat="53.93049" lon="21.631954"></trkpt><trkpt lat="53.930339" lon="21.630826"></trkpt><trkpt lat="53.93021" lon="21.62899"></trkpt><trkpt lat="53.930226" lon="21.628304"></trkpt><trkpt lat="53.930571" lon="21.623757"></trkpt><trkpt lat="53.930999" lon="21.622351"></trkpt><trkpt lat="53.931562" lon="21.619805"></trkpt><trkpt lat="53.931499" lon="21.618747"></trkpt><trkpt lat="53.931367" lon="21.617605"></trkpt><trkpt lat="53.931245" lon="21.616908"></trkpt><trkpt lat="53.927944" lon="21.591495"></trkpt><trkpt lat="53.928037" lon="21.589989"></trkpt><trkpt lat="53.928768" lon="21.582943"></trkpt><trkpt lat="53.929285" lon="21.581714"></trkpt><trkpt lat="53.932178" lon="21.575809"></trkpt><trkpt lat="53.932587" lon="21.575175"></trkpt><trkpt lat="53.933625" lon="21.573094"></trkpt><trkpt lat="53.933966" lon="21.571973"></trkpt><trkpt lat="53.934148" lon="21.571003"></trkpt><trkpt lat="53.934368" lon="21.569234"></trkpt><trkpt lat="53.935532" lon="21.562468"></trkpt><trkpt lat="53.93584" lon="21.561755"></trkpt><trkpt lat="53.935947" lon="21.561458"></trkpt><trkpt lat="53.936165" lon="21.56103"></trkpt><trkpt lat="53.9378" lon="21.556984"></trkpt><trkpt lat="53.93782" lon="21.556546"></trkpt><trkpt lat="53.937802" lon="21.554972"></trkpt><trkpt lat="53.937841" lon="21.553897"></trkpt><trkpt lat="53.937902" lon="21.553536"></trkpt><trkpt lat="53.93799" lon="21.553219"></trkpt><trkpt lat="53.938103" lon="21.552933"></trkpt><trkpt lat="53.938482" lon="21.552468"></trkpt><trkpt lat="53.938291" lon="21.551669"></trkpt><trkpt lat="53.938222" lon="21.551275"></trkpt><trkpt lat="53.938205" lon="21.550905"></trkpt><trkpt lat="53.938143" lon="21.550398"></trkpt><trkpt lat="53.938048" lon="21.550065"></trkpt><trkpt lat="53.937978" lon="21.549712"></trkpt><trkpt lat="53.937971" lon="21.549361"></trkpt><trkpt lat="53.938025" lon="21.548686"></trkpt><trkpt lat="53.938156" lon="21.548117"></trkpt><trkpt lat="53.938177" lon="21.547397"></trkpt><trkpt lat="53.938131" lon="21.546471"></trkpt><trkpt lat="53.938182" lon="21.545316"></trkpt><trkpt lat="53.938284" lon="21.544962"></trkpt><trkpt lat="53.938686" lon="21.544221"></trkpt><trkpt lat="53.938883" lon="21.544164"></trkpt><trkpt lat="53.939099" lon="21.544342"></trkpt><trkpt lat="53.939328" lon="21.544226"></trkpt><trkpt lat="53.939529" lon="21.544044"></trkpt><trkpt lat="53.940061" lon="21.543459"></trkpt><trkpt lat="53.940473" lon="21.542653"></trkpt><trkpt lat="53.940768" lon="21.541981"></trkpt><trkpt lat="53.941415" lon="21.540938"></trkpt><trkpt lat="53.941701" lon="21.540587"></trkpt><trkpt lat="53.942967" lon="21.539453"></trkpt><trkpt lat="53.943169" lon="21.539414"></trkpt><trkpt lat="53.945094" lon="21.538786"></trkpt><trkpt lat="53.945238" lon="21.538169"></trkpt><trkpt lat="53.945403" lon="21.537633"></trkpt><trkpt lat="53.946067" lon="21.536418"></trkpt><trkpt lat="53.946657" lon="21.535823"></trkpt><trkpt lat="53.961093" lon="21.523735"></trkpt><trkpt lat="53.961774" lon="21.523575"></trkpt><trkpt lat="53.96878" lon="21.522935"></trkpt><trkpt lat="53.969448" lon="21.523281"></trkpt><trkpt lat="53.970083" lon="21.523321"></trkpt><trkpt lat="53.971061" lon="21.523101"></trkpt><trkpt lat="53.971276" lon="21.523097"></trkpt><trkpt lat="53.973165" lon="21.523389"></trkpt><trkpt lat="53.973637" lon="21.52381"></trkpt><trkpt lat="53.974249" lon="21.524518"></trkpt><trkpt lat="53.97501" lon="21.52485"></trkpt><trkpt lat="53.975386" lon="21.524862"></trkpt><trkpt lat="53.975584" lon="21.524658"></trkpt><trkpt lat="53.97604" lon="21.52368"></trkpt><trkpt lat="53.977041" lon="21.522284"></trkpt><trkpt lat="53.97737" lon="21.52207"></trkpt><trkpt lat="53.977987" lon="21.521798"></trkpt><trkpt lat="53.980553" lon="21.520316"></trkpt><trkpt lat="53.981091" lon="21.519774"></trkpt><trkpt lat="53.981773" lon="21.518927"></trkpt><trkpt lat="53.983607" lon="21.516296"></trkpt><trkpt lat="53.983907" lon="21.515759"></trkpt><trkpt lat="53.98462" lon="21.514722"></trkpt><trkpt lat="53.985226" lon="21.514473"></trkpt><trkpt lat="53.985808" lon="21.514414"></trkpt><trkpt lat="53.987185" lon="21.513738"></trkpt><trkpt lat="53.987797" lon="21.513162"></trkpt><trkpt lat="53.988569" lon="21.512601"></trkpt><trkpt lat="53.989325" lon="21.512514"></trkpt><trkpt lat="53.991149" lon="21.512069"></trkpt><trkpt lat="53.991493" lon="21.511898"></trkpt><trkpt lat="53.992935" lon="21.511365"></trkpt><trkpt lat="53.993413" lon="21.511253"></trkpt><trkpt lat="53.995935" lon="21.510135"></trkpt><trkpt lat="53.996453" lon="21.509167"></trkpt><trkpt lat="53.997584" lon="21.507373"></trkpt><trkpt lat="53.998029" lon="21.506244"></trkpt><trkpt lat="53.998273" lon="21.504837"></trkpt><trkpt lat="53.99833" lon="21.504382"></trkpt><trkpt lat="53.998524" lon="21.501633"></trkpt><trkpt lat="53.998829" lon="21.500401"></trkpt><trkpt lat="54.000128" lon="21.496539"></trkpt><trkpt lat="54.000689" lon="21.495276"></trkpt><trkpt lat="54.001141" lon="21.493938"></trkpt><trkpt lat="54.002935" lon="21.487479"></trkpt><trkpt lat="54.002661" lon="21.486187"></trkpt><trkpt lat="54.00242" lon="21.485402"></trkpt><trkpt lat="54.002176" lon="21.484218"></trkpt><trkpt lat="54.00217" lon="21.48387"></trkpt><trkpt lat="54.002352" lon="21.482288"></trkpt><trkpt lat="54.002832" lon="21.479727"></trkpt><trkpt lat="54.003132" lon="21.479075"></trkpt><trkpt lat="54.00413" lon="21.476527"></trkpt><trkpt lat="54.006484" lon="21.469471"></trkpt><trkpt lat="54.006584" lon="21.468527"></trkpt><trkpt lat="54.006593" lon="21.467344"></trkpt><trkpt lat="54.006491" lon="21.46636"></trkpt><trkpt lat="54.006413" lon="21.465079"></trkpt><trkpt lat="54.006355" lon="21.457564"></trkpt><trkpt lat="54.006917" lon="21.456487"></trkpt><trkpt lat="54.007026" lon="21.455832"></trkpt><trkpt lat="54.007066" lon="21.455153"></trkpt><trkpt lat="54.00736" lon="21.452915"></trkpt><trkpt lat="54.007732" lon="21.452716"></trkpt><trkpt lat="54.00998" lon="21.453475"></trkpt><trkpt lat="54.010474" lon="21.453158"></trkpt><trkpt lat="54.014532" lon="21.451096"></trkpt><trkpt lat="54.014872" lon="21.450975"></trkpt><trkpt lat="54.015418" lon="21.450672"></trkpt><trkpt lat="54.01714" lon="21.450005"></trkpt><trkpt lat="54.017597" lon="21.449747"></trkpt><trkpt lat="54.018286" lon="21.449261"></trkpt><trkpt lat="54.024058" lon="21.444309"></trkpt><trkpt lat="54.024281" lon="21.443894"></trkpt><trkpt lat="54.024485" lon="21.443565"></trkpt><trkpt lat="54.025258" lon="21.442486"></trkpt><trkpt lat="54.026568" lon="21.440996"></trkpt><trkpt lat="54.027071" lon="21.440873"></trkpt><trkpt lat="54.028617" lon="21.441041"></trkpt><trkpt lat="54.029253" lon="21.440436"></trkpt><trkpt lat="54.029817" lon="21.43956"></trkpt><trkpt lat="54.030268" lon="21.43825"></trkpt><trkpt lat="54.030457" lon="21.437998"></trkpt><trkpt lat="54.031059" lon="21.437715"></trkpt><trkpt lat="54.032027" lon="21.437108"></trkpt><trkpt lat="54.032584" lon="21.436215"></trkpt><trkpt lat="54.039703" lon="21.422481"></trkpt><trkpt lat="54.040353" lon="21.421499"></trkpt><trkpt lat="54.040984" lon="21.420684"></trkpt><trkpt lat="54.044187" lon="21.417413"></trkpt><trkpt lat="54.045111" lon="21.416855"></trkpt><trkpt lat="54.050036" lon="21.412844"></trkpt><trkpt lat="54.05073" lon="21.411725"></trkpt><trkpt lat="54.051415" lon="21.410238"></trkpt><trkpt lat="54.051549" lon="21.409867"></trkpt><trkpt lat="54.051662" lon="21.409438"></trkpt><trkpt lat="54.05178" lon="21.409142"></trkpt><trkpt lat="54.05226" lon="21.40842"></trkpt><trkpt lat="54.053189" lon="21.407235"></trkpt><trkpt lat="54.053804" lon="21.406981"></trkpt><trkpt lat="54.056575" lon="21.40534"></trkpt><trkpt lat="54.057127" lon="21.404403"></trkpt><trkpt lat="54.05748" lon="21.403523"></trkpt><trkpt lat="54.061864" lon="21.394772"></trkpt><trkpt lat="54.062253" lon="21.394917"></trkpt><trkpt lat="54.062468" lon="21.39488"></trkpt><trkpt lat="54.062825" lon="21.394631"></trkpt><trkpt lat="54.063326" lon="21.394175"></trkpt><trkpt lat="54.064482" lon="21.393461"></trkpt><trkpt lat="54.065169" lon="21.393374"></trkpt><trkpt lat="54.070358" lon="21.393364"></trkpt><trkpt lat="54.070611" lon="21.393539"></trkpt><trkpt lat="54.071092" lon="21.393725"></trkpt><trkpt lat="54.071296" lon="21.393504"></trkpt><trkpt lat="54.071296" lon="21.393136"></trkpt><trkpt lat="54.071332" lon="21.392749"></trkpt><trkpt lat="54.071655" lon="21.390836"></trkpt><trkpt lat="54.071729" lon="21.389799"></trkpt><trkpt lat="54.071902" lon="21.388477"></trkpt><trkpt lat="54.073294" lon="21.380666"></trkpt><trkpt lat="54.073403" lon="21.380996"></trkpt><trkpt lat="54.073277" lon="21.382155"></trkpt><trkpt lat="54.073034" lon="21.386194"></trkpt><trkpt lat="54.07303" lon="21.387751"></trkpt><trkpt lat="54.072844" lon="21.390268"></trkpt><trkpt lat="54.073019" lon="21.393282"></trkpt><trkpt lat="54.073089" lon="21.393617"></trkpt><trkpt lat="54.073148" lon="21.394229"></trkpt><trkpt lat="54.073228" lon="21.394588"></trkpt><trkpt lat="54.073307" lon="21.395304"></trkpt><trkpt lat="54.073453" lon="21.397764"></trkpt><trkpt lat="54.073437" lon="21.398539"></trkpt><trkpt lat="54.073512" lon="21.399369"></trkpt><trkpt lat="54.073685" lon="21.399788"></trkpt><trkpt lat="54.073975" lon="21.399893"></trkpt><trkpt lat="54.0742" lon="21.400137"></trkpt><trkpt lat="54.074377" lon="21.400538"></trkpt><trkpt lat="54.07545" lon="21.404347"></trkpt><trkpt lat="54.075" lon="21.405419"></trkpt><trkpt lat="54.074656" lon="21.406413"></trkpt><trkpt lat="54.074421" lon="21.407908"></trkpt><trkpt lat="54.074301" lon="21.409596"></trkpt><trkpt lat="54.073861" lon="21.412327"></trkpt><trkpt lat="54.07348" lon="21.413381"></trkpt><trkpt lat="54.073091" lon="21.41473"></trkpt><trkpt lat="54.073754" lon="21.415658"></trkpt><trkpt lat="54.079276" lon="21.425223"></trkpt><trkpt lat="54.07966" lon="21.426588"></trkpt><trkpt lat="54.080182" lon="21.42885"></trkpt><trkpt lat="54.080296" lon="21.429514"></trkpt><trkpt lat="54.080774" lon="21.431658"></trkpt><trkpt lat="54.08099" lon="21.431934"></trkpt><trkpt lat="54.081062" lon="21.432966"></trkpt><trkpt lat="54.081029" lon="21.434221"></trkpt><trkpt lat="54.080916" lon="21.435028"></trkpt><trkpt lat="54.080586" lon="21.436765"></trkpt><trkpt lat="54.080511" lon="21.437346"></trkpt><trkpt lat="54.080645" lon="21.437825"></trkpt><trkpt lat="54.081189" lon="21.438133"></trkpt><trkpt lat="54.081425" lon="21.438187"></trkpt><trkpt lat="54.081515" lon="21.437665"></trkpt></trkseg></trk></gpx>