<?xml version="1.0" encoding="UTF-8" standalone="no" ?><gpx xmlns="http://www.topografix.com/GPX/1/1" xmlns:gpxx="http://www.garmin.com/xmlschemas/GpxExtensions/v3" ><trk><trkseg><trkpt lat="50.3073927574" lon="17.5191414636"></trkpt><trkpt lat="50.3076541889" lon="17.51925244"></trkpt><trkpt lat="50.307892235" lon="17.5189312454"></trkpt><trkpt lat="50.3075527679" lon="17.5190953631"></trkpt><trkpt lat="50.3080437798" lon="17.5188095402"></trkpt><trkpt lat="50.3082987573" lon="17.5185921974"></trkpt><trkpt lat="50.3085323609" lon="17.5191465765"></trkpt><trkpt lat="50.308734281" lon="17.5194972754"></trkpt><trkpt lat="50.3089311719" lon="17.5199395884"></trkpt><trkpt lat="50.308823213" lon="17.5210683793"></trkpt><trkpt lat="50.3088388871" lon="17.5224601105"></trkpt><trkpt lat="50.3090765979" lon="17.5249192771"></trkpt><trkpt lat="50.3092455771" lon="17.5252552237"></trkpt><trkpt lat="50.309687471" lon="17.5264159497"></trkpt><trkpt lat="50.3097336553" lon="17.5268978253"></trkpt><trkpt lat="50.3100972623" lon="17.5282983575"></trkpt><trkpt lat="50.3105814848" lon="17.5282202382"></trkpt><trkpt lat="50.3108812217" lon="17.5292155053"></trkpt><trkpt lat="50.3113750834" lon="17.5301748142"></trkpt><trkpt lat="50.311912531" lon="17.5309110805"></trkpt><trkpt lat="50.3121653292" lon="17.5313681457"></trkpt><trkpt lat="50.3124181274" lon="17.5319181662"></trkpt><trkpt lat="50.3158360161" lon="17.5368064083"></trkpt><trkpt lat="50.3161189053" lon="17.53696776"></trkpt><trkpt lat="50.3165626433" lon="17.5380187668"></trkpt><trkpt lat="50.3172479477" lon="17.5388717093"></trkpt><trkpt lat="50.3190692514" lon="17.5421212055"></trkpt><trkpt lat="50.3193217143" lon="17.5431336556"></trkpt><trkpt lat="50.3198735788" lon="17.5466589164"></trkpt><trkpt lat="50.3199213557" lon="17.5498700235"></trkpt><trkpt lat="50.3211257514" lon="17.5666143838"></trkpt><trkpt lat="50.321581224" lon="17.5687937625"></trkpt><trkpt lat="50.3216362931" lon="17.5701745972"></trkpt><trkpt lat="50.3215596825" lon="17.5713273603"></trkpt><trkpt lat="50.3220038395" lon="17.571867574"></trkpt><trkpt lat="50.322256973" lon="17.5720738526"></trkpt><trkpt lat="50.3224248625" lon="17.5735731237"></trkpt><trkpt lat="50.322632147" lon="17.5747154932"></trkpt><trkpt lat="50.3233374842" lon="17.5744749326"></trkpt><trkpt lat="50.3240032587" lon="17.5739466213"></trkpt><trkpt lat="50.3253211454" lon="17.57342753"></trkpt><trkpt lat="50.3326854855" lon="17.5691277813"></trkpt><trkpt lat="50.3330549598" lon="17.5688064191"></trkpt><trkpt lat="50.3349853121" lon="17.5674792286"></trkpt><trkpt lat="50.3361286875" lon="17.5680517964"></trkpt><trkpt lat="50.3363710921" lon="17.5682543032"></trkpt><trkpt lat="50.3364734352" lon="17.5686938502"></trkpt><trkpt lat="50.336322058" lon="17.5704030879"></trkpt><trkpt lat="50.3359014541" lon="17.5883807614"></trkpt><trkpt lat="50.3375525214" lon="17.5885139499"></trkpt><trkpt lat="50.3399228398" lon="17.5892218016"></trkpt><trkpt lat="50.3407228924" lon="17.5900508557"></trkpt><trkpt lat="50.3415050916" lon="17.5913949776"></trkpt><trkpt lat="50.3543143999" lon="17.6094856393"></trkpt><trkpt lat="50.3550535161" lon="17.6100628171"></trkpt><trkpt lat="50.3562071174" lon="17.6111911889"></trkpt><trkpt lat="50.3561553173" lon="17.6116393693"></trkpt><trkpt lat="50.3559787944" lon="17.6122204028"></trkpt><trkpt lat="50.3559208754" lon="17.6127093192"></trkpt><trkpt lat="50.3559917863" lon="17.6131776161"></trkpt><trkpt lat="50.3562253062" lon="17.613544995"></trkpt><trkpt lat="50.3572864551" lon="17.6144045591"></trkpt><trkpt lat="50.3599580191" lon="17.6171714254"></trkpt><trkpt lat="50.3604899347" lon="17.6183555368"></trkpt><trkpt lat="50.3617653251" lon="17.6223376952"></trkpt><trkpt lat="50.3622156009" lon="17.624399811"></trkpt><trkpt lat="50.3627938684" lon="17.6256700885"></trkpt><trkpt lat="50.363732893" lon="17.6273746323"></trkpt><trkpt lat="50.3641913831" lon="17.6274445374"></trkpt><trkpt lat="50.365757877" lon="17.6281090546"></trkpt><trkpt lat="50.3661874495" lon="17.6284105517"></trkpt><trkpt lat="50.3729037009" lon="17.6347963046"></trkpt><trkpt lat="50.3733933717" lon="17.6357753109"></trkpt><trkpt lat="50.3736802842" lon="17.636254672"></trkpt><trkpt lat="50.3739678673" lon="17.6364271715"></trkpt><trkpt lat="50.3744190652" lon="17.6365201268"></trkpt><trkpt lat="50.3749358095" lon="17.6365254074"></trkpt><trkpt lat="50.3760603257" lon="17.6366924588"></trkpt><trkpt lat="50.3764199931" lon="17.6377512608"></trkpt><trkpt lat="50.3768645693" lon="17.6385377347"></trkpt><trkpt lat="50.3772147652" lon="17.639530655"></trkpt><trkpt lat="50.3777155839" lon="17.6398617402"></trkpt><trkpt lat="50.3776623588" lon="17.6404778939"></trkpt><trkpt lat="50.3776481934" lon="17.6414223667"></trkpt><trkpt lat="50.3779165819" lon="17.6448088232"></trkpt><trkpt lat="50.3780896682" lon="17.6455936208"></trkpt><trkpt lat="50.3781705536" lon="17.6512726955"></trkpt><trkpt lat="50.3778475989" lon="17.6516821515"></trkpt><trkpt lat="50.3770423494" lon="17.6524130534"></trkpt><trkpt lat="50.3768470511" lon="17.652724022"></trkpt><trkpt lat="50.3766022157" lon="17.6532162912"></trkpt><trkpt lat="50.3765070811" lon="17.653613342"></trkpt><trkpt lat="50.3764503356" lon="17.6542817988"></trkpt><trkpt lat="50.3765600547" lon="17.6548029855"></trkpt><trkpt lat="50.3767643217" lon="17.6551476493"></trkpt><trkpt lat="50.3773854207" lon="17.655620724"></trkpt><trkpt lat="50.3786246851" lon="17.6561231352"></trkpt><trkpt lat="50.3802572284" lon="17.6563252229"></trkpt><trkpt lat="50.3809640743" lon="17.6567060966"></trkpt><trkpt lat="50.3819978982" lon="17.6577199716"></trkpt><trkpt lat="50.3836627956" lon="17.6589026581"></trkpt><trkpt lat="50.3841013368" lon="17.6590825338"></trkpt><trkpt lat="50.3843102138" lon="17.6594549417"></trkpt><trkpt lat="50.3847389482" lon="17.659778567"></trkpt><trkpt lat="50.3849592246" lon="17.6595333964"></trkpt><trkpt lat="50.3857220616" lon="17.6601569261"></trkpt><trkpt lat="50.3862879239" lon="17.6604850776"></trkpt><trkpt lat="50.3862236347" lon="17.6609176677"></trkpt><trkpt lat="50.3859267477" lon="17.6618121006"></trkpt><trkpt lat="50.386107713" lon="17.6621441916"></trkpt><trkpt lat="50.3864182625" lon="17.6622837503"></trkpt><trkpt lat="50.3867185861" lon="17.6622192934"></trkpt><trkpt lat="50.3869175725" lon="17.6618857775"></trkpt><trkpt lat="50.3871608153" lon="17.6610870659"></trkpt><trkpt lat="50.3873794153" lon="17.6606978942"></trkpt><trkpt lat="50.3877130989" lon="17.6606218703"></trkpt><trkpt lat="50.3880057111" lon="17.6603496261"></trkpt><trkpt lat="50.3882606048" lon="17.6600089855"></trkpt><trkpt lat="50.3891117033" lon="17.6596568618"></trkpt><trkpt lat="50.3893950116" lon="17.6595837716"></trkpt><trkpt lat="50.3898276016" lon="17.6605139952"></trkpt><trkpt lat="50.3906516265" lon="17.6616006251"></trkpt><trkpt lat="50.3912582248" lon="17.6620185468"></trkpt><trkpt lat="50.3937531821" lon="17.6647880115"></trkpt><trkpt lat="50.3943710122" lon="17.6658204105"></trkpt><trkpt lat="50.3956187423" lon="17.66860798"></trkpt><trkpt lat="50.3960633185" lon="17.6703385077"></trkpt><trkpt lat="50.3963144403" lon="17.6707600337"></trkpt><trkpt lat="50.3966476209" lon="17.671056753"></trkpt><trkpt lat="50.3981262725" lon="17.6717756689"></trkpt><trkpt lat="50.3991288319" lon="17.6719360985"></trkpt><trkpt lat="50.4119207896" lon="17.676620828"></trkpt><trkpt lat="50.4121314269" lon="17.6770239137"></trkpt><trkpt lat="50.4129602294" lon="17.6781730726"></trkpt><trkpt lat="50.4136001039" lon="17.6785169821"></trkpt><trkpt lat="50.4269927088" lon="17.6830536034"></trkpt><trkpt lat="50.4295988102" lon="17.6825585682"></trkpt><trkpt lat="50.4307939019" lon="17.6825793553"></trkpt><trkpt lat="50.4440997541" lon="17.6847107057"></trkpt><trkpt lat="50.4450251162" lon="17.6858361438"></trkpt><trkpt lat="50.448497152" lon="17.6890796889"></trkpt><trkpt lat="50.4493231047" lon="17.690212084"></trkpt><trkpt lat="50.4498851113" lon="17.6915383525"></trkpt><trkpt lat="50.4521596245" lon="17.6959384326"></trkpt><trkpt lat="50.4525118321" lon="17.6960075833"></trkpt><trkpt lat="50.4552647006" lon="17.6950675528"></trkpt><trkpt lat="50.4562637396" lon="17.6948819775"></trkpt><trkpt lat="50.4578659404" lon="17.6948461868"></trkpt><trkpt lat="50.4589774646" lon="17.6951149944"></trkpt><trkpt lat="50.4608690087" lon="17.6951745059"></trkpt><trkpt lat="50.4615870863" lon="17.6945689972"></trkpt><trkpt lat="50.461855391" lon="17.6942135207"></trkpt><trkpt lat="50.4621645156" lon="17.6940309629"></trkpt><trkpt lat="50.4631610401" lon="17.6941675041"></trkpt><trkpt lat="50.4637061153" lon="17.6943202224"></trkpt><trkpt lat="50.4644056689" lon="17.6954170782"></trkpt><trkpt lat="50.4642251227" lon="17.6964316238"></trkpt><trkpt lat="50.4637984" lon="17.6976421382"></trkpt><trkpt lat="50.4592141695" lon="17.7152193245"></trkpt><trkpt lat="50.4591800552" lon="17.7182687446"></trkpt><trkpt lat="50.458565075" lon="17.7270748559"></trkpt><trkpt lat="50.4582942557" lon="17.7269932162"></trkpt><trkpt lat="50.4579533637" lon="17.7271608543"></trkpt><trkpt lat="50.4564510752" lon="17.7276220266"></trkpt><trkpt lat="50.4561707005" lon="17.7278262097"></trkpt><trkpt lat="50.4555991385" lon="17.7287443634"></trkpt><trkpt lat="50.4552707355" lon="17.7288964111"></trkpt><trkpt lat="50.4549074639" lon="17.729009483"></trkpt><trkpt lat="50.4539997876" lon="17.7295919415"></trkpt><trkpt lat="50.4530048557" lon="17.7300248668"></trkpt><trkpt lat="50.450347038" lon="17.7318542171"></trkpt><trkpt lat="50.4492924269" lon="17.7332376502"></trkpt><trkpt lat="50.448688427" lon="17.7337214537"></trkpt><trkpt lat="50.4479524121" lon="17.7340287343"></trkpt><trkpt lat="50.4407210089" lon="17.7381458413"></trkpt><trkpt lat="50.4406380281" lon="17.7385723125"></trkpt><trkpt lat="50.4400519654" lon="17.7388836164"></trkpt><trkpt lat="50.4303406086" lon="17.7459570207"></trkpt><trkpt lat="50.4313146695" lon="17.7473635878"></trkpt><trkpt lat="50.4335459322" lon="17.7513212711"></trkpt><trkpt lat="50.434093941" lon="17.7531172615"></trkpt><trkpt lat="50.4343733098" lon="17.7545964159"></trkpt><trkpt lat="50.4345132876" lon="17.7567164507"></trkpt><trkpt lat="50.4345180653" lon="17.7600304876"></trkpt><trkpt lat="50.4352756217" lon="17.7718912996"></trkpt><trkpt lat="50.4358884227" lon="17.7742152661"></trkpt><trkpt lat="50.4362259619" lon="17.7768783644"></trkpt><trkpt lat="50.4365230165" lon="17.776784068"></trkpt><trkpt lat="50.4362943582" lon="17.7755545266"></trkpt><trkpt lat="50.4358518776" lon="17.7738501504"></trkpt><trkpt lat="50.4354219697" lon="17.7695593704"></trkpt><trkpt lat="50.4361466691" lon="17.7686985489"></trkpt><trkpt lat="50.437031379" lon="17.7674417663"></trkpt><trkpt lat="50.4371001944" lon="17.7669042349"></trkpt><trkpt lat="50.4373753723" lon="17.7668220922"></trkpt><trkpt lat="50.4379533045" lon="17.7671101782"></trkpt><trkpt lat="50.4385267943" lon="17.7674949914"></trkpt><trkpt lat="50.4387512617" lon="17.7677341271"></trkpt><trkpt lat="50.4389525112" lon="17.7680419106"></trkpt><trkpt lat="50.4391388409" lon="17.7684094571"></trkpt><trkpt lat="50.439237915" lon="17.768865684"></trkpt><trkpt lat="50.4395274259" lon="17.7687562164"></trkpt><trkpt lat="50.4398254026" lon="17.7683480177"></trkpt><trkpt lat="50.4401083756" lon="17.7680319361"></trkpt><trkpt lat="50.4403967131" lon="17.7682537213"></trkpt><trkpt lat="50.4405878205" lon="17.768602157"></trkpt><trkpt lat="50.4408540297" lon="17.7684621792"></trkpt><trkpt lat="50.441176733" lon="17.7685828786"></trkpt><trkpt lat="50.4414330516" lon="17.7688043285"></trkpt><trkpt lat="50.4418535717" lon="17.7692679316"></trkpt><trkpt lat="50.4415612947" lon="17.7689353377"></trkpt><trkpt lat="50.4413666669" lon="17.7685051784"></trkpt><trkpt lat="50.4411234241" lon="17.7681961376"></trkpt><trkpt lat="50.4410726298" lon="17.7677016053"></trkpt><trkpt lat="50.4409446381" lon="17.7672682609"></trkpt><trkpt lat="50.4406714719" lon="17.7674596198"></trkpt><trkpt lat="50.4410644993" lon="17.7672471385"></trkpt><trkpt lat="50.4406329989" lon="17.7685166616"></trkpt><trkpt lat="50.440435186" lon="17.7677254099"></trkpt><trkpt lat="50.4401918594" lon="17.7679437585"></trkpt><trkpt lat="50.4399071261" lon="17.7682901826"></trkpt><trkpt lat="50.4396617878" lon="17.7685047593"></trkpt><trkpt lat="50.43931989" lon="17.7683323435"></trkpt><trkpt lat="50.4389090091" lon="17.7682217862"></trkpt><trkpt lat="50.4386082664" lon="17.7676844224"></trkpt><trkpt lat="50.4383786023" lon="17.7674374077"></trkpt><trkpt lat="50.4378135782" lon="17.7669810969"></trkpt><trkpt lat="50.4375364725" lon="17.7670856193"></trkpt><trkpt lat="50.4372942355" lon="17.7668489143"></trkpt><trkpt lat="50.4375124164" lon="17.7661470138"></trkpt><trkpt lat="50.4380118102" lon="17.7654335462"></trkpt><trkpt lat="50.4382817075" lon="17.7652746253"></trkpt><trkpt lat="50.4387142137" lon="17.7650892176"></trkpt><trkpt lat="50.4388581309" lon="17.7646940108"></trkpt><trkpt lat="50.4386224318" lon="17.7633514814"></trkpt><trkpt lat="50.4386009742" lon="17.7629224956"></trkpt><trkpt lat="50.4387435503" lon="17.7625607327"></trkpt><trkpt lat="50.4393167887" lon="17.7615871746"></trkpt><trkpt lat="50.4395535775" lon="17.760996921"></trkpt><trkpt lat="50.4423035122" lon="17.7554431558"></trkpt><trkpt lat="50.4426283948" lon="17.7549669798"></trkpt><trkpt lat="50.4429225158" lon="17.7548901178"></trkpt><trkpt lat="50.4437113367" lon="17.754868241"></trkpt><trkpt lat="50.4472452309" lon="17.7555477619"></trkpt><trkpt lat="50.4474864621" lon="17.7547443565"></trkpt><trkpt lat="50.4476607218" lon="17.7543492336"></trkpt><trkpt lat="50.4483017698" lon="17.7545367368"></trkpt><trkpt lat="50.4487885069" lon="17.7545493096"></trkpt><trkpt lat="50.4489665385" lon="17.7530323528"></trkpt><trkpt lat="50.4516162258" lon="17.7400461026"></trkpt><trkpt lat="50.4523742851" lon="17.740396047"></trkpt><trkpt lat="50.464596441" lon="17.7436681744"></trkpt><trkpt lat="50.4664659407" lon="17.7437058929"></trkpt><trkpt lat="50.4713292047" lon="17.7446009964"></trkpt><trkpt lat="50.4724491108" lon="17.7457946632"></trkpt><trkpt lat="50.4974273499" lon="17.7753157262"></trkpt><trkpt lat="50.5210150313" lon="17.8032116219"></trkpt><trkpt lat="50.5448415969" lon="17.8315418679"></trkpt><trkpt lat="50.5639198143" lon="17.8591227718"></trkpt><trkpt lat="50.5645919591" lon="17.8610774316"></trkpt><trkpt lat="50.5654506013" lon="17.8629629407"></trkpt><trkpt lat="50.5660928227" lon="17.8640195634"></trkpt><trkpt lat="50.573371416" lon="17.8728728648"></trkpt><trkpt lat="50.5748483911" lon="17.8726514988"></trkpt><trkpt lat="50.5757056922" lon="17.8722908255"></trkpt><trkpt lat="50.5764675234" lon="17.8715987317"></trkpt><trkpt lat="50.5767307151" lon="17.8714548983"></trkpt><trkpt lat="50.577101782" lon="17.8711725958"></trkpt><trkpt lat="50.5773524847" lon="17.8707606252"></trkpt><trkpt lat="50.5778434966" lon="17.8701552842"></trkpt><trkpt lat="50.5785417929" lon="17.8700969461"></trkpt><trkpt lat="50.5792024545" lon="17.869947413"></trkpt><trkpt lat="50.5803206004" lon="17.869890919"></trkpt><trkpt lat="50.5806225166" lon="17.870237343"></trkpt><trkpt lat="50.5813509878" lon="17.8713029344"></trkpt><trkpt lat="50.5824866518" lon="17.8721875604"></trkpt><trkpt lat="50.5835531652" lon="17.8723038174"></trkpt><trkpt lat="50.5868217722" lon="17.8712683171"></trkpt><trkpt lat="50.5887795333" lon="17.8691870067"></trkpt><trkpt lat="50.5934409611" lon="17.8652549721"></trkpt><trkpt lat="50.5949545652" lon="17.864689026"></trkpt><trkpt lat="50.6011890247" lon="17.863303246"></trkpt><trkpt lat="50.6019247044" lon="17.8638522606"></trkpt><trkpt lat="50.6025017984" lon="17.8644156922"></trkpt><trkpt lat="50.6027196441" lon="17.865061434"></trkpt><trkpt lat="50.6026881281" lon="17.8655434772"></trkpt><trkpt lat="50.6024822686" lon="17.8658189066"></trkpt><trkpt lat="50.6027080771" lon="17.8654758353"></trkpt><trkpt lat="50.6027549319" lon="17.8649984859"></trkpt><trkpt lat="50.6026952527" lon="17.8645404987"></trkpt><trkpt lat="50.6028422713" lon="17.8635075968"></trkpt><trkpt lat="50.6029125117" lon="17.8625896946"></trkpt><trkpt lat="50.6026631501" lon="17.8624008503"></trkpt><trkpt lat="50.6023779139" lon="17.8622521553"></trkpt><trkpt lat="50.6018226966" lon="17.8618540149"></trkpt><trkpt lat="50.6015517097" lon="17.8614481632"></trkpt><trkpt lat="50.601288937" lon="17.8612635098"></trkpt><trkpt lat="50.6016211119" lon="17.8615088481"></trkpt><trkpt lat="50.6018875726" lon="17.8618535958"></trkpt><trkpt lat="50.6021409575" lon="17.8620849364"></trkpt><trkpt lat="50.6024059094" lon="17.862272691"></trkpt><trkpt lat="50.6026414409" lon="17.8625682369"></trkpt><trkpt lat="50.6029358134" lon="17.862637639"></trkpt><trkpt lat="50.6030651461" lon="17.8616939206"></trkpt><trkpt lat="50.6029853504" lon="17.8604923747"></trkpt><trkpt lat="50.6026520859" lon="17.8591778409"></trkpt><trkpt lat="50.6020231079" lon="17.8577931505"></trkpt><trkpt lat="50.6013119873" lon="17.8555638995"></trkpt><trkpt lat="50.6013392285" lon="17.8540495411"></trkpt><trkpt lat="50.6014404818" lon="17.8536265064"></trkpt><trkpt lat="50.6019468326" lon="17.8536306974"></trkpt><trkpt lat="50.6052327901" lon="17.8526773397"></trkpt><trkpt lat="50.6069131102" lon="17.851821715"></trkpt><trkpt lat="50.6109113619" lon="17.8507464007"></trkpt><trkpt lat="50.611254517" lon="17.8516661469"></trkpt><trkpt lat="50.6124793645" lon="17.8543383814"></trkpt><trkpt lat="50.6140409969" lon="17.8548862226"></trkpt><trkpt lat="50.6191097014" lon="17.8574909829"></trkpt><trkpt lat="50.6185119879" lon="17.8594100196"></trkpt><trkpt lat="50.6181285996" lon="17.8611390386"></trkpt><trkpt lat="50.6188299134" lon="17.8609268088"></trkpt><trkpt lat="50.6199270207" lon="17.8608203586"></trkpt><trkpt lat="50.6218440458" lon="17.8597530909"></trkpt><trkpt lat="50.6225348823" lon="17.858988829"></trkpt><trkpt lat="50.623644311" lon="17.8574498277"></trkpt><trkpt lat="50.6239796709" lon="17.8561745211"></trkpt><trkpt lat="50.6242055632" lon="17.8558748681"></trkpt><trkpt lat="50.6245098263" lon="17.8557722736"></trkpt><trkpt lat="50.6257167365" lon="17.8559317812"></trkpt><trkpt lat="50.6265853532" lon="17.8562108986"></trkpt><trkpt lat="50.6268730201" lon="17.8559629619"></trkpt><trkpt lat="50.6273037661" lon="17.8556951601"></trkpt><trkpt lat="50.6276097056" lon="17.855704464"></trkpt><trkpt lat="50.628493242" lon="17.8560539894"></trkpt><trkpt lat="50.6312501337" lon="17.8576399293"></trkpt><trkpt lat="50.6437283568" lon="17.8670603503"></trkpt><trkpt lat="50.6438430212" lon="17.8674780205"></trkpt><trkpt lat="50.6440138444" lon="17.8678324074"></trkpt><trkpt lat="50.6443189457" lon="17.8677907493"></trkpt><trkpt lat="50.6449553836" lon="17.8674522042"></trkpt><trkpt lat="50.6489455048" lon="17.8664404247"></trkpt><trkpt lat="50.6492765062" lon="17.867237376"></trkpt><trkpt lat="50.6495047454" lon="17.8674874082"></trkpt><trkpt lat="50.6507042795" lon="17.8680021409"></trkpt><trkpt lat="50.6577351037" lon="17.8727669176"></trkpt><trkpt lat="50.6588268466" lon="17.8742621653"></trkpt><trkpt lat="50.6597347744" lon="17.8752000164"></trkpt><trkpt lat="50.6599178351" lon="17.875680048"></trkpt><trkpt lat="50.6599382032" lon="17.876179358"></trkpt><trkpt lat="50.6599306595" lon="17.8766087629"></trkpt><trkpt lat="50.6600567233" lon="17.8769867867"></trkpt><trkpt lat="50.6602950208" lon="17.8772267606"></trkpt><trkpt lat="50.6616230495" lon="17.8775837459"></trkpt><trkpt lat="50.6623966992" lon="17.8779372945"></trkpt><trkpt lat="50.6623210944" lon="17.8784019873"></trkpt><trkpt lat="50.6620527059" lon="17.8786347527"></trkpt><trkpt lat="50.6617887598" lon="17.879036162"></trkpt><trkpt lat="50.6618511211" lon="17.879722137"></trkpt><trkpt lat="50.6617158372" lon="17.881158879"></trkpt><trkpt lat="50.6616648752" lon="17.8941495717"></trkpt><trkpt lat="50.6621240359" lon="17.8952508699"></trkpt><trkpt lat="50.6681129057" lon="17.9067540262"></trkpt><trkpt lat="50.6685771793" lon="17.9074435215"></trkpt><trkpt lat="50.6722497102" lon="17.9142561648"></trkpt><trkpt lat="50.6730067637" lon="17.916280143"></trkpt><trkpt lat="50.6732438877" lon="17.9173542"></trkpt><trkpt lat="50.6733706221" lon="17.9181860201"></trkpt><trkpt lat="50.6725006644" lon="17.9189059418"></trkpt><trkpt lat="50.6697391625" lon="17.9205051251"></trkpt><trkpt lat="50.6690502539" lon="17.9211722407"></trkpt><trkpt lat="50.6687405426" lon="17.9216070101"></trkpt><trkpt lat="50.668888567" lon="17.9219733831"></trkpt><trkpt lat="50.6691281218" lon="17.9223007802"></trkpt><trkpt lat="50.6688556261" lon="17.9219370056"></trkpt><trkpt lat="50.6687660236" lon="17.9214792699"></trkpt><trkpt lat="50.6686496828" lon="17.9210628569"></trkpt><trkpt lat="50.6683843955" lon="17.920870157"></trkpt><trkpt lat="50.6681409851" lon="17.9211746715"></trkpt><trkpt lat="50.6679772865" lon="17.9215579759"></trkpt><trkpt lat="50.6676723529" lon="17.9214297328"></trkpt><trkpt lat="50.6679154281" lon="17.9209823906"></trkpt><trkpt lat="50.6677463651" lon="17.9214781802"></trkpt><trkpt lat="50.6679984089" lon="17.9218401946"></trkpt><trkpt lat="50.6680657994" lon="17.9222805798"></trkpt><trkpt lat="50.6683268957" lon="17.9227259103"></trkpt><trkpt lat="50.6686386187" lon="17.9227301851"></trkpt><trkpt lat="50.6688071787" lon="17.9223887064"></trkpt><trkpt lat="50.6688499264" lon="17.9218797572"></trkpt><trkpt lat="50.6686983816" lon="17.9214953631"></trkpt><trkpt lat="50.668568546" lon="17.9210390523"></trkpt><trkpt lat="50.6687360164" lon="17.9214640986"></trkpt><trkpt lat="50.6685946975" lon="17.9207111523"></trkpt><trkpt lat="50.6686585676" lon="17.9212356079"></trkpt><trkpt lat="50.6687790994" lon="17.9216993786"></trkpt><trkpt lat="50.6690872181" lon="17.9222960863"></trkpt><trkpt lat="50.6697140168" lon="17.9216707963"></trkpt><trkpt lat="50.6700465269" lon="17.9211982246"></trkpt><trkpt lat="50.6698685791" lon="17.9207040276"></trkpt><trkpt lat="50.6684294902" lon="17.9191592429"></trkpt><trkpt lat="50.6644625869" lon="17.9225503094"></trkpt><trkpt lat="50.6641643587" lon="17.9226061329"></trkpt><trkpt lat="50.6638090499" lon="17.9224689212"></trkpt><trkpt lat="50.66297438" lon="17.9217840359"></trkpt><trkpt lat="50.6627468113" lon="17.9220253509"></trkpt><trkpt lat="50.662630219" lon="17.9230906069"></trkpt><trkpt lat="50.6627146248" lon="17.924418468"></trkpt><trkpt lat="50.6629163772" lon="17.9253567383"></trkpt><trkpt lat="50.6630328018" lon="17.9261728004"></trkpt><trkpt lat="50.6629364938" lon="17.9266349785"></trkpt><trkpt lat="50.6627175584" lon="17.9273366276"></trkpt><trkpt lat="50.6616295036" lon="17.9301164858"></trkpt><trkpt lat="50.6610143557" lon="17.9299987201"></trkpt><trkpt lat="50.6601863913" lon="17.9296451714"></trkpt><trkpt lat="50.6589141861" lon="17.9293128289"></trkpt><trkpt lat="50.6583064143" lon="17.9301765841"></trkpt><trkpt lat="50.6579518598" lon="17.9312964901"></trkpt><trkpt lat="50.6577338465" lon="17.9317215364"></trkpt><trkpt lat="50.6575163361" lon="17.9321788531"></trkpt></trkseg></trk></gpx>