<?xml version="1.0" encoding="UTF-8" standalone="no" ?><gpx xmlns="http://www.topografix.com/GPX/1/1" xmlns:gpxx="http://www.garmin.com/xmlschemas/GpxExtensions/v3" ><trk><trkseg><trkpt lat="52.21388" lon="21.02632"></trkpt><trkpt lat="52.214" lon="21.02673"></trkpt><trkpt lat="52.21377" lon="21.02698"></trkpt><trkpt lat="52.21371" lon="21.02742"></trkpt><trkpt lat="52.21382" lon="21.02789"></trkpt><trkpt lat="52.2138" lon="21.02835"></trkpt><trkpt lat="52.21391" lon="21.02876"></trkpt><trkpt lat="52.21412" lon="21.02907"></trkpt><trkpt lat="52.21436" lon="21.02929"></trkpt><trkpt lat="52.21503" lon="21.03005"></trkpt><trkpt lat="52.21529" lon="21.03017"></trkpt><trkpt lat="52.21506" lon="21.03041"></trkpt><trkpt lat="52.21532" lon="21.03027"></trkpt><trkpt lat="52.21552" lon="21.03058"></trkpt><trkpt lat="52.21578" lon="21.03073"></trkpt><trkpt lat="52.21601" lon="21.03097"></trkpt><trkpt lat="52.21574" lon="21.03091"></trkpt><trkpt lat="52.21548" lon="21.03075"></trkpt><trkpt lat="52.21527" lon="21.03044"></trkpt><trkpt lat="52.21479" lon="21.02985"></trkpt><trkpt lat="52.21455" lon="21.02961"></trkpt><trkpt lat="52.21466" lon="21.0292"></trkpt><trkpt lat="52.21441" lon="21.02897"></trkpt><trkpt lat="52.21419" lon="21.0287"></trkpt><trkpt lat="52.21419" lon="21.02825"></trkpt><trkpt lat="52.21426" lon="21.02781"></trkpt><trkpt lat="52.21439" lon="21.02741"></trkpt><trkpt lat="52.2144" lon="21.02786"></trkpt><trkpt lat="52.21444" lon="21.0283"></trkpt><trkpt lat="52.21417" lon="21.02845"></trkpt><trkpt lat="52.21438" lon="21.02874"></trkpt><trkpt lat="52.21462" lon="21.02898"></trkpt><trkpt lat="52.21483" lon="21.02926"></trkpt><trkpt lat="52.21486" lon="21.02971"></trkpt><trkpt lat="52.2148" lon="21.03014"></trkpt><trkpt lat="52.21473" lon="21.03098"></trkpt><trkpt lat="52.21477" lon="21.03142"></trkpt><trkpt lat="52.2149" lon="21.03181"></trkpt><trkpt lat="52.2149" lon="21.03227"></trkpt><trkpt lat="52.21495" lon="21.03272"></trkpt><trkpt lat="52.21488" lon="21.03316"></trkpt><trkpt lat="52.21491" lon="21.03361"></trkpt><trkpt lat="52.21489" lon="21.03407"></trkpt><trkpt lat="52.21492" lon="21.03451"></trkpt><trkpt lat="52.21479" lon="21.0349"></trkpt><trkpt lat="52.21483" lon="21.03534"></trkpt><trkpt lat="52.21462" lon="21.03562"></trkpt><trkpt lat="52.21477" lon="21.03602"></trkpt><trkpt lat="52.21461" lon="21.0364"></trkpt><trkpt lat="52.21434" lon="21.03641"></trkpt><trkpt lat="52.21408" lon="21.03655"></trkpt><trkpt lat="52.21381" lon="21.03654"></trkpt><trkpt lat="52.21346" lon="21.03661"></trkpt><trkpt lat="52.21312" lon="21.03662"></trkpt><trkpt lat="52.2129" lon="21.03635"></trkpt><trkpt lat="52.21277" lon="21.03595"></trkpt><trkpt lat="52.21285" lon="21.03551"></trkpt><trkpt lat="52.21298" lon="21.03511"></trkpt><trkpt lat="52.21318" lon="21.0348"></trkpt><trkpt lat="52.21343" lon="21.03498"></trkpt><trkpt lat="52.21374" lon="21.03515"></trkpt><trkpt lat="52.21406" lon="21.03503"></trkpt><trkpt lat="52.21434" lon="21.03506"></trkpt><trkpt lat="52.21471" lon="21.03495"></trkpt><trkpt lat="52.21476" lon="21.0345"></trkpt><trkpt lat="52.215" lon="21.03429"></trkpt><trkpt lat="52.21527" lon="21.03432"></trkpt><trkpt lat="52.2153" lon="21.03388"></trkpt><trkpt lat="52.21543" lon="21.03289"></trkpt><trkpt lat="52.2157" lon="21.03283"></trkpt><trkpt lat="52.216" lon="21.03285"></trkpt><trkpt lat="52.21638" lon="21.03293"></trkpt><trkpt lat="52.21662" lon="21.0327"></trkpt><trkpt lat="52.21692" lon="21.03292"></trkpt><trkpt lat="52.21685" lon="21.03249"></trkpt><trkpt lat="52.21701" lon="21.03287"></trkpt><trkpt lat="52.21729" lon="21.03284"></trkpt><trkpt lat="52.21762" lon="21.03275"></trkpt><trkpt lat="52.21777" lon="21.03238"></trkpt><trkpt lat="52.21781" lon="21.03194"></trkpt><trkpt lat="52.21789" lon="21.03149"></trkpt><trkpt lat="52.21802" lon="21.03108"></trkpt><trkpt lat="52.21807" lon="21.03063"></trkpt><trkpt lat="52.21812" lon="21.02973"></trkpt><trkpt lat="52.21823" lon="21.02932"></trkpt><trkpt lat="52.21827" lon="21.02887"></trkpt><trkpt lat="52.21835" lon="21.02843"></trkpt><trkpt lat="52.21849" lon="21.02729"></trkpt><trkpt lat="52.21862" lon="21.02658"></trkpt><trkpt lat="52.21876" lon="21.02635"></trkpt></trkseg></trk></gpx>