<?xml version="1.0" encoding="UTF-8" standalone="no" ?><gpx xmlns="http://www.topografix.com/GPX/1/1" xmlns:gpxx="http://www.garmin.com/xmlschemas/GpxExtensions/v3" ><trk><trkseg><trkpt lat="50.321567" lon="17.573363"></trkpt><trkpt lat="50.321498" lon="17.573858"></trkpt><trkpt lat="50.320799" lon="17.57724"></trkpt><trkpt lat="50.320616" lon="17.577583"></trkpt><trkpt lat="50.320373" lon="17.577943"></trkpt><trkpt lat="50.320222" lon="17.578305"></trkpt><trkpt lat="50.320423" lon="17.578605"></trkpt><trkpt lat="50.32073" lon="17.578936"></trkpt><trkpt lat="50.320438" lon="17.579177"></trkpt><trkpt lat="50.320804" lon="17.579197"></trkpt><trkpt lat="50.320761" lon="17.578714"></trkpt><trkpt lat="50.320981" lon="17.579012"></trkpt><trkpt lat="50.320958" lon="17.579483"></trkpt><trkpt lat="50.320859" lon="17.579963"></trkpt><trkpt lat="50.320542" lon="17.58231"></trkpt><trkpt lat="50.320826" lon="17.582042"></trkpt><trkpt lat="50.32093" lon="17.58164"></trkpt><trkpt lat="50.320883" lon="17.581128"></trkpt><trkpt lat="50.321061" lon="17.580755"></trkpt><trkpt lat="50.3212" lon="17.580303"></trkpt><trkpt lat="50.321303" lon="17.579872"></trkpt><trkpt lat="50.321357" lon="17.579406"></trkpt><trkpt lat="50.321462" lon="17.578945"></trkpt><trkpt lat="50.321751" lon="17.578592"></trkpt><trkpt lat="50.32206" lon="17.578428"></trkpt><trkpt lat="50.322248" lon="17.578026"></trkpt><trkpt lat="50.32234" lon="17.577566"></trkpt><trkpt lat="50.322556" lon="17.57675"></trkpt><trkpt lat="50.322481" lon="17.576162"></trkpt><trkpt lat="50.322515" lon="17.575739"></trkpt><trkpt lat="50.322529" lon="17.575062"></trkpt><trkpt lat="50.322496" lon="17.574462"></trkpt><trkpt lat="50.322508" lon="17.573855"></trkpt><trkpt lat="50.322273" lon="17.573412"></trkpt><trkpt lat="50.321575" lon="17.57339"></trkpt></trkseg></trk></gpx>