<?xml version="1.0" encoding="UTF-8" standalone="no" ?><gpx xmlns="http://www.topografix.com/GPX/1/1" xmlns:gpxx="http://www.garmin.com/xmlschemas/GpxExtensions/v3" ><trk><trkseg><trkpt lat="53.392959" lon="19.162473"></trkpt><trkpt lat="53.392904" lon="19.162132"></trkpt><trkpt lat="53.392769" lon="19.161645"></trkpt><trkpt lat="53.392648" lon="19.161284"></trkpt><trkpt lat="53.392581" lon="19.16094"></trkpt><trkpt lat="53.392438" lon="19.160701"></trkpt><trkpt lat="53.392373" lon="19.160369"></trkpt><trkpt lat="53.391087" lon="19.155166"></trkpt><trkpt lat="53.390861" lon="19.155057"></trkpt><trkpt lat="53.390134" lon="19.15458"></trkpt><trkpt lat="53.39019" lon="19.154177"></trkpt><trkpt lat="53.390299" lon="19.153652"></trkpt><trkpt lat="53.390456" lon="19.15338"></trkpt><trkpt lat="53.390644" lon="19.153187"></trkpt><trkpt lat="53.39095" lon="19.153174"></trkpt><trkpt lat="53.391165" lon="19.153311"></trkpt><trkpt lat="53.391363" lon="19.153593"></trkpt><trkpt lat="53.391471" lon="19.153905"></trkpt><trkpt lat="53.39154" lon="19.154243"></trkpt><trkpt lat="53.391812" lon="19.155249"></trkpt><trkpt lat="53.391977" lon="19.155598"></trkpt><trkpt lat="53.39221" lon="19.155718"></trkpt><trkpt lat="53.392637" lon="19.155867"></trkpt><trkpt lat="53.395408" lon="19.157197"></trkpt><trkpt lat="53.395664" lon="19.157673"></trkpt><trkpt lat="53.396504" lon="19.158972"></trkpt><trkpt lat="53.396828" lon="19.159295"></trkpt><trkpt lat="53.398373" lon="19.161302"></trkpt><trkpt lat="53.398567" lon="19.161835"></trkpt><trkpt lat="53.401203" lon="19.167847"></trkpt><trkpt lat="53.401511" lon="19.16807"></trkpt><trkpt lat="53.407159" lon="19.17299"></trkpt><trkpt lat="53.408054" lon="19.17357"></trkpt><trkpt lat="53.408546" lon="19.173808"></trkpt><trkpt lat="53.410664" lon="19.175183"></trkpt><trkpt lat="53.410901" lon="19.175373"></trkpt><trkpt lat="53.411273" lon="19.175502"></trkpt><trkpt lat="53.413443" lon="19.176723"></trkpt><trkpt lat="53.41374" lon="19.17704"></trkpt><trkpt lat="53.416257" lon="19.179308"></trkpt><trkpt lat="53.416776" lon="19.179698"></trkpt><trkpt lat="53.417024" lon="19.179947"></trkpt><trkpt lat="53.417336" lon="19.180134"></trkpt><trkpt lat="53.419072" lon="19.181459"></trkpt><trkpt lat="53.420077" lon="19.181923"></trkpt><trkpt lat="53.420449" lon="19.18202"></trkpt><trkpt lat="53.423935" lon="19.183487"></trkpt><trkpt lat="53.424274" lon="19.183927"></trkpt><trkpt lat="53.427511" lon="19.188816"></trkpt><trkpt lat="53.427607" lon="19.189113"></trkpt><trkpt lat="53.427701" lon="19.18948"></trkpt><trkpt lat="53.427919" lon="19.19057"></trkpt><trkpt lat="53.427975" lon="19.190987"></trkpt><trkpt lat="53.428006" lon="19.191333"></trkpt><trkpt lat="53.42835" lon="19.198711"></trkpt><trkpt lat="53.428288" lon="19.19908"></trkpt><trkpt lat="53.427941" lon="19.202255"></trkpt><trkpt lat="53.428319" lon="19.202685"></trkpt><trkpt lat="53.428496" lon="19.202998"></trkpt><trkpt lat="53.42876" lon="19.203831"></trkpt><trkpt lat="53.432133" lon="19.212703"></trkpt><trkpt lat="53.432375" lon="19.212863"></trkpt><trkpt lat="53.433057" lon="19.213437"></trkpt><trkpt lat="53.433245" lon="19.213682"></trkpt><trkpt lat="53.433601" lon="19.21425"></trkpt><trkpt lat="53.433883" lon="19.214784"></trkpt><trkpt lat="53.435296" lon="19.217106"></trkpt><trkpt lat="53.435586" lon="19.217501"></trkpt><trkpt lat="53.436036" lon="19.218031"></trkpt><trkpt lat="53.436269" lon="19.218368"></trkpt><trkpt lat="53.443428" lon="19.230479"></trkpt><trkpt lat="53.443239" lon="19.230993"></trkpt><trkpt lat="53.442531" lon="19.233372"></trkpt><trkpt lat="53.442481" lon="19.233783"></trkpt><trkpt lat="53.441845" lon="19.242214"></trkpt><trkpt lat="53.441881" lon="19.243351"></trkpt><trkpt lat="53.441833" lon="19.245302"></trkpt><trkpt lat="53.441707" lon="19.245901"></trkpt><trkpt lat="53.441586" lon="19.246637"></trkpt><trkpt lat="53.441593" lon="19.247001"></trkpt><trkpt lat="53.441627" lon="19.246622"></trkpt><trkpt lat="53.441597" lon="19.247105"></trkpt><trkpt lat="53.441675" lon="19.247658"></trkpt><trkpt lat="53.441782" lon="19.248157"></trkpt><trkpt lat="53.442122" lon="19.250287"></trkpt><trkpt lat="53.442105" lon="19.25087"></trkpt><trkpt lat="53.442125" lon="19.251483"></trkpt><trkpt lat="53.442371" lon="19.251575"></trkpt><trkpt lat="53.442794" lon="19.251671"></trkpt><trkpt lat="53.445172" lon="19.251927"></trkpt><trkpt lat="53.44817" lon="19.251183"></trkpt><trkpt lat="53.448589" lon="19.251024"></trkpt><trkpt lat="53.454113" lon="19.249641"></trkpt><trkpt lat="53.454696" lon="19.249703"></trkpt><trkpt lat="53.45858" lon="19.250603"></trkpt><trkpt lat="53.458763" lon="19.250984"></trkpt><trkpt lat="53.458949" lon="19.251307"></trkpt><trkpt lat="53.459134" lon="19.251688"></trkpt><trkpt lat="53.459684" lon="19.253076"></trkpt><trkpt lat="53.459744" lon="19.253661"></trkpt><trkpt lat="53.459747" lon="19.254061"></trkpt><trkpt lat="53.459828" lon="19.255561"></trkpt><trkpt lat="53.459911" lon="19.256023"></trkpt><trkpt lat="53.460518" lon="19.258353"></trkpt><trkpt lat="53.460663" lon="19.258591"></trkpt><trkpt lat="53.460883" lon="19.258897"></trkpt><trkpt lat="53.461115" lon="19.25915"></trkpt><trkpt lat="53.461294" lon="19.259296"></trkpt><trkpt lat="53.461914" lon="19.259684"></trkpt><trkpt lat="53.462306" lon="19.259777"></trkpt><trkpt lat="53.464186" lon="19.259941"></trkpt><trkpt lat="53.464546" lon="19.259596"></trkpt><trkpt lat="53.46476" lon="19.259432"></trkpt><trkpt lat="53.465089" lon="19.259543"></trkpt><trkpt lat="53.465242" lon="19.25977"></trkpt><trkpt lat="53.466822" lon="19.262533"></trkpt><trkpt lat="53.46695" lon="19.262957"></trkpt><trkpt lat="53.467251" lon="19.263739"></trkpt><trkpt lat="53.467479" lon="19.264029"></trkpt><trkpt lat="53.467739" lon="19.264266"></trkpt><trkpt lat="53.467901" lon="19.263927"></trkpt><trkpt lat="53.469394" lon="19.261243"></trkpt><trkpt lat="53.469579" lon="19.260981"></trkpt><trkpt lat="53.472263" lon="19.256573"></trkpt><trkpt lat="53.47249" lon="19.255828"></trkpt><trkpt lat="53.472674" lon="19.25509"></trkpt><trkpt lat="53.474875" lon="19.248279"></trkpt><trkpt lat="53.47514" lon="19.247979"></trkpt><trkpt lat="53.477726" lon="19.245567"></trkpt><trkpt lat="53.478069" lon="19.245435"></trkpt><trkpt lat="53.47826" lon="19.245309"></trkpt><trkpt lat="53.478059" lon="19.245253"></trkpt><trkpt lat="53.478254" lon="19.245157"></trkpt><trkpt lat="53.47859" lon="19.245057"></trkpt><trkpt lat="53.480857" lon="19.244086"></trkpt><trkpt lat="53.481135" lon="19.243927"></trkpt><trkpt lat="53.48173" lon="19.243476"></trkpt><trkpt lat="53.482013" lon="19.24311"></trkpt><trkpt lat="53.482347" lon="19.242761"></trkpt><trkpt lat="53.483899" lon="19.241559"></trkpt><trkpt lat="53.484095" lon="19.241629"></trkpt><trkpt lat="53.486736" lon="19.242228"></trkpt><trkpt lat="53.492014" lon="19.240272"></trkpt><trkpt lat="53.492045" lon="19.239838"></trkpt><trkpt lat="53.492816" lon="19.2338"></trkpt><trkpt lat="53.492947" lon="19.233318"></trkpt><trkpt lat="53.499537" lon="19.213458"></trkpt><trkpt lat="53.499713" lon="19.21325"></trkpt><trkpt lat="53.501047" lon="19.2119"></trkpt><trkpt lat="53.501328" lon="19.211698"></trkpt><trkpt lat="53.502518" lon="19.211025"></trkpt><trkpt lat="53.502806" lon="19.21124"></trkpt><trkpt lat="53.50324" lon="19.211695"></trkpt><trkpt lat="53.50365" lon="19.212058"></trkpt><trkpt lat="53.503925" lon="19.212151"></trkpt><trkpt lat="53.504138" lon="19.212164"></trkpt><trkpt lat="53.505212" lon="19.212373"></trkpt><trkpt lat="53.506188" lon="19.212434"></trkpt><trkpt lat="53.506761" lon="19.212233"></trkpt><trkpt lat="53.507055" lon="19.211999"></trkpt><trkpt lat="53.507439" lon="19.211445"></trkpt><trkpt lat="53.508498" lon="19.209684"></trkpt><trkpt lat="53.50898" lon="19.20901"></trkpt><trkpt lat="53.50919" lon="19.208862"></trkpt><trkpt lat="53.509536" lon="19.208556"></trkpt><trkpt lat="53.509715" lon="19.208321"></trkpt><trkpt lat="53.509963" lon="19.207886"></trkpt><trkpt lat="53.510578" lon="19.206959"></trkpt><trkpt lat="53.510821" lon="19.206845"></trkpt><trkpt lat="53.511052" lon="19.206799"></trkpt><trkpt lat="53.512167" lon="19.206872"></trkpt><trkpt lat="53.515175" lon="19.206315"></trkpt><trkpt lat="53.515377" lon="19.206223"></trkpt><trkpt lat="53.515631" lon="19.206208"></trkpt><trkpt lat="53.515921" lon="19.206444"></trkpt><trkpt lat="53.51612" lon="19.20667"></trkpt><trkpt lat="53.516459" lon="19.206742"></trkpt><trkpt lat="53.51666" lon="19.206725"></trkpt><trkpt lat="53.517345" lon="19.206581"></trkpt><trkpt lat="53.522149" lon="19.204953"></trkpt><trkpt lat="53.522278" lon="19.204641"></trkpt><trkpt lat="53.52236" lon="19.20405"></trkpt><trkpt lat="53.522601" lon="19.20279"></trkpt><trkpt lat="53.522757" lon="19.202198"></trkpt><trkpt lat="53.523137" lon="19.201021"></trkpt><trkpt lat="53.523292" lon="19.200727"></trkpt><trkpt lat="53.523787" lon="19.199919"></trkpt><trkpt lat="53.523922" lon="19.199659"></trkpt><trkpt lat="53.524085" lon="19.19945"></trkpt><trkpt lat="53.524968" lon="19.198139"></trkpt><trkpt lat="53.525008" lon="19.197646"></trkpt><trkpt lat="53.525002" lon="19.197036"></trkpt><trkpt lat="53.525379" lon="19.190201"></trkpt><trkpt lat="53.525636" lon="19.190047"></trkpt><trkpt lat="53.529193" lon="19.187428"></trkpt><trkpt lat="53.531884" lon="19.185988"></trkpt><trkpt lat="53.532052" lon="19.186617"></trkpt><trkpt lat="53.533172" lon="19.190027"></trkpt><trkpt lat="53.53357" lon="19.190712"></trkpt><trkpt lat="53.535008" lon="19.192858"></trkpt><trkpt lat="53.536855" lon="19.196036"></trkpt><trkpt lat="53.537053" lon="19.196866"></trkpt><trkpt lat="53.538067" lon="19.202305"></trkpt><trkpt lat="53.538135" lon="19.20305"></trkpt><trkpt lat="53.538377" lon="19.208379"></trkpt><trkpt lat="53.538363" lon="19.209209"></trkpt><trkpt lat="53.538378" lon="19.209591"></trkpt><trkpt lat="53.538511" lon="19.210598"></trkpt><trkpt lat="53.5398" lon="19.21758"></trkpt><trkpt lat="53.539983" lon="19.218241"></trkpt><trkpt lat="53.540804" lon="19.22031"></trkpt><trkpt lat="53.541077" lon="19.220412"></trkpt><trkpt lat="53.541284" lon="19.220646"></trkpt><trkpt lat="53.543067" lon="19.222245"></trkpt><trkpt lat="53.543571" lon="19.222328"></trkpt><trkpt lat="53.54838" lon="19.222182"></trkpt><trkpt lat="53.548666" lon="19.222462"></trkpt><trkpt lat="53.549472" lon="19.223432"></trkpt><trkpt lat="53.549616" lon="19.224038"></trkpt><trkpt lat="53.549685" lon="19.224422"></trkpt><trkpt lat="53.549825" lon="19.224723"></trkpt><trkpt lat="53.550137" lon="19.224863"></trkpt><trkpt lat="53.550438" lon="19.224908"></trkpt><trkpt lat="53.551333" lon="19.225164"></trkpt><trkpt lat="53.551762" lon="19.225351"></trkpt><trkpt lat="53.552247" lon="19.225644"></trkpt><trkpt lat="53.55429" lon="19.227285"></trkpt><trkpt lat="53.554417" lon="19.227544"></trkpt><trkpt lat="53.554565" lon="19.22794"></trkpt><trkpt lat="53.55472" lon="19.228633"></trkpt><trkpt lat="53.555335" lon="19.230744"></trkpt><trkpt lat="53.555647" lon="19.231122"></trkpt><trkpt lat="53.555908" lon="19.231783"></trkpt><trkpt lat="53.556135" lon="19.232497"></trkpt><trkpt lat="53.556278" lon="19.232786"></trkpt><trkpt lat="53.556472" lon="19.233072"></trkpt><trkpt lat="53.55682" lon="19.23344"></trkpt><trkpt lat="53.557026" lon="19.233616"></trkpt><trkpt lat="53.557786" lon="19.234446"></trkpt><trkpt lat="53.558061" lon="19.23497"></trkpt><trkpt lat="53.558782" lon="19.236644"></trkpt><trkpt lat="53.558897" lon="19.237074"></trkpt><trkpt lat="53.559012" lon="19.23772"></trkpt><trkpt lat="53.559744" lon="19.240586"></trkpt><trkpt lat="53.559964" lon="19.240741"></trkpt><trkpt lat="53.560318" lon="19.241042"></trkpt><trkpt lat="53.560591" lon="19.241375"></trkpt><trkpt lat="53.560762" lon="19.241709"></trkpt><trkpt lat="53.560888" lon="19.242"></trkpt><trkpt lat="53.561862" lon="19.244767"></trkpt><trkpt lat="53.561855" lon="19.24531"></trkpt><trkpt lat="53.56177" lon="19.246007"></trkpt><trkpt lat="53.561681" lon="19.247153"></trkpt><trkpt lat="53.561714" lon="19.247771"></trkpt><trkpt lat="53.561724" lon="19.249789"></trkpt><trkpt lat="53.562041" lon="19.255816"></trkpt><trkpt lat="53.562002" lon="19.256484"></trkpt><trkpt lat="53.561961" lon="19.25688"></trkpt><trkpt lat="53.561756" lon="19.257144"></trkpt><trkpt lat="53.560772" lon="19.258221"></trkpt><trkpt lat="53.560497" lon="19.25838"></trkpt><trkpt lat="53.557465" lon="19.260711"></trkpt><trkpt lat="53.557293" lon="19.261196"></trkpt><trkpt lat="53.55704" lon="19.261784"></trkpt><trkpt lat="53.556107" lon="19.264338"></trkpt><trkpt lat="53.556066" lon="19.264785"></trkpt><trkpt lat="53.555986" lon="19.265371"></trkpt><trkpt lat="53.555833" lon="19.266157"></trkpt><trkpt lat="53.555642" lon="19.266615"></trkpt><trkpt lat="53.555459" lon="19.266916"></trkpt><trkpt lat="53.555093" lon="19.267634"></trkpt><trkpt lat="53.554969" lon="19.267959"></trkpt><trkpt lat="53.554832" lon="19.268443"></trkpt><trkpt lat="53.554367" lon="19.270852"></trkpt><trkpt lat="53.554384" lon="19.271216"></trkpt><trkpt lat="53.554588" lon="19.271641"></trkpt><trkpt lat="53.554942" lon="19.271805"></trkpt><trkpt lat="53.578844" lon="19.279854"></trkpt><trkpt lat="53.57919" lon="19.279818"></trkpt><trkpt lat="53.592265" lon="19.276796"></trkpt><trkpt lat="53.592589" lon="19.276488"></trkpt><trkpt lat="53.593413" lon="19.275524"></trkpt><trkpt lat="53.593657" lon="19.275146"></trkpt><trkpt lat="53.596651" lon="19.271195"></trkpt><trkpt lat="53.596869" lon="19.271034"></trkpt><trkpt lat="53.598277" lon="19.269688"></trkpt><trkpt lat="53.598665" lon="19.269131"></trkpt><trkpt lat="53.599966" lon="19.267584"></trkpt><trkpt lat="53.600259" lon="19.267351"></trkpt><trkpt lat="53.603689" lon="19.265238"></trkpt><trkpt lat="53.604005" lon="19.265239"></trkpt><trkpt lat="53.604205" lon="19.265148"></trkpt><trkpt lat="53.604429" lon="19.265426"></trkpt><trkpt lat="53.604633" lon="19.265568"></trkpt><trkpt lat="53.607842" lon="19.267298"></trkpt><trkpt lat="53.608198" lon="19.267606"></trkpt><trkpt lat="53.608381" lon="19.267808"></trkpt><trkpt lat="53.609877" lon="19.269216"></trkpt><trkpt lat="53.61743" lon="19.277594"></trkpt><trkpt lat="53.617765" lon="19.278063"></trkpt><trkpt lat="53.624587" lon="19.286224"></trkpt><trkpt lat="53.624824" lon="19.286397"></trkpt><trkpt lat="53.628279" lon="19.289423"></trkpt><trkpt lat="53.628573" lon="19.289742"></trkpt><trkpt lat="53.638233" lon="19.29863"></trkpt><trkpt lat="53.638605" lon="19.298727"></trkpt><trkpt lat="53.651237" lon="19.30032"></trkpt><trkpt lat="53.651787" lon="19.300104"></trkpt><trkpt lat="53.662965" lon="19.294022"></trkpt><trkpt lat="53.663272" lon="19.293525"></trkpt><trkpt lat="53.66632" lon="19.287782"></trkpt><trkpt lat="53.666534" lon="19.287291"></trkpt><trkpt lat="53.670851" lon="19.279078"></trkpt><trkpt lat="53.671351" lon="19.279375"></trkpt><trkpt lat="53.675223" lon="19.281166"></trkpt><trkpt lat="53.679747" lon="19.283975"></trkpt><trkpt lat="53.679991" lon="19.284429"></trkpt><trkpt lat="53.680212" lon="19.284905"></trkpt><trkpt lat="53.680632" lon="19.285953"></trkpt><trkpt lat="53.687673" lon="19.300989"></trkpt><trkpt lat="53.687927" lon="19.301413"></trkpt><trkpt lat="53.690253" lon="19.304787"></trkpt><trkpt lat="53.690622" lon="19.305246"></trkpt><trkpt lat="53.71943" lon="19.347326"></trkpt><trkpt lat="53.719424" lon="19.347675"></trkpt><trkpt lat="53.719463" lon="19.348054"></trkpt><trkpt lat="53.719477" lon="19.348423"></trkpt><trkpt lat="53.720024" lon="19.354696"></trkpt><trkpt lat="53.720137" lon="19.355148"></trkpt><trkpt lat="53.720653" lon="19.356857"></trkpt><trkpt lat="53.72263" lon="19.364919"></trkpt><trkpt lat="53.722654" lon="19.365648"></trkpt><trkpt lat="53.722617" lon="19.366746"></trkpt><trkpt lat="53.722471" lon="19.36757"></trkpt><trkpt lat="53.722362" lon="19.368014"></trkpt><trkpt lat="53.721874" lon="19.369474"></trkpt><trkpt lat="53.721472" lon="19.370444"></trkpt><trkpt lat="53.720911" lon="19.372092"></trkpt><trkpt lat="53.720767" lon="19.372608"></trkpt><trkpt lat="53.719814" lon="19.375383"></trkpt><trkpt lat="53.719237" lon="19.377516"></trkpt><trkpt lat="53.719291" lon="19.378275"></trkpt><trkpt lat="53.71967" lon="19.380714"></trkpt><trkpt lat="53.719858" lon="19.381605"></trkpt><trkpt lat="53.720427" lon="19.385055"></trkpt><trkpt lat="53.720755" lon="19.386434"></trkpt><trkpt lat="53.720979" lon="19.387079"></trkpt><trkpt lat="53.721024" lon="19.387571"></trkpt><trkpt lat="53.720978" lon="19.388206"></trkpt><trkpt lat="53.721022" lon="19.388829"></trkpt><trkpt lat="53.721112" lon="19.38916"></trkpt><trkpt lat="53.721358" lon="19.389707"></trkpt><trkpt lat="53.723438" lon="19.395104"></trkpt><trkpt lat="53.723547" lon="19.395604"></trkpt><trkpt lat="53.723686" lon="19.396044"></trkpt><trkpt lat="53.723797" lon="19.396496"></trkpt><trkpt lat="53.723904" lon="19.397056"></trkpt><trkpt lat="53.723939" lon="19.397571"></trkpt><trkpt lat="53.724268" lon="19.400315"></trkpt><trkpt lat="53.724398" lon="19.40087"></trkpt><trkpt lat="53.725319" lon="19.405897"></trkpt><trkpt lat="53.725383" lon="19.406464"></trkpt><trkpt lat="53.72542" lon="19.407202"></trkpt><trkpt lat="53.725379" lon="19.408093"></trkpt><trkpt lat="53.725377" lon="19.410246"></trkpt><trkpt lat="53.725272" lon="19.412457"></trkpt><trkpt lat="53.725327" lon="19.418304"></trkpt><trkpt lat="53.725773" lon="19.418331"></trkpt><trkpt lat="53.727049" lon="19.418808"></trkpt><trkpt lat="53.727113" lon="19.419286"></trkpt><trkpt lat="53.728741" lon="19.428316"></trkpt><trkpt lat="53.72902" lon="19.428743"></trkpt><trkpt lat="53.734876" lon="19.439089"></trkpt><trkpt lat="53.734987" lon="19.439395"></trkpt><trkpt lat="53.735413" lon="19.44023"></trkpt><trkpt lat="53.735611" lon="19.44039"></trkpt><trkpt lat="53.735813" lon="19.440624"></trkpt><trkpt lat="53.742864" lon="19.450093"></trkpt><trkpt lat="53.74317" lon="19.450647"></trkpt><trkpt lat="53.745397" lon="19.454135"></trkpt><trkpt lat="53.74564" lon="19.454295"></trkpt><trkpt lat="53.745826" lon="19.454449"></trkpt><trkpt lat="53.74606" lon="19.454728"></trkpt><trkpt lat="53.746428" lon="19.45533"></trkpt><trkpt lat="53.748413" lon="19.45909"></trkpt><trkpt lat="53.748499" lon="19.459412"></trkpt><trkpt lat="53.75001" lon="19.46384"></trkpt><trkpt lat="53.750451" lon="19.464574"></trkpt><trkpt lat="53.751533" lon="19.46678"></trkpt><trkpt lat="53.751635" lon="19.467155"></trkpt><trkpt lat="53.752048" lon="19.468361"></trkpt><trkpt lat="53.752637" lon="19.470696"></trkpt><trkpt lat="53.752555" lon="19.47106"></trkpt><trkpt lat="53.752429" lon="19.471372"></trkpt><trkpt lat="53.752178" lon="19.471905"></trkpt><trkpt lat="53.751983" lon="19.472134"></trkpt><trkpt lat="53.750805" lon="19.473763"></trkpt><trkpt lat="53.750728" lon="19.474372"></trkpt><trkpt lat="53.750871" lon="19.475226"></trkpt><trkpt lat="53.751116" lon="19.476291"></trkpt><trkpt lat="53.751582" lon="19.478853"></trkpt><trkpt lat="53.75231" lon="19.482013"></trkpt><trkpt lat="53.752431" lon="19.482386"></trkpt><trkpt lat="53.75256" lon="19.482717"></trkpt><trkpt lat="53.752723" lon="19.483068"></trkpt><trkpt lat="53.752942" lon="19.483465"></trkpt><trkpt lat="53.756699" lon="19.491559"></trkpt><trkpt lat="53.756815" lon="19.492099"></trkpt><trkpt lat="53.75908" lon="19.500558"></trkpt><trkpt lat="53.759237" lon="19.500845"></trkpt><trkpt lat="53.759384" lon="19.501161"></trkpt><trkpt lat="53.759845" lon="19.50202"></trkpt><trkpt lat="53.760217" lon="19.502583"></trkpt><trkpt lat="53.760742" lon="19.503248"></trkpt><trkpt lat="53.761177" lon="19.503722"></trkpt><trkpt lat="53.764606" lon="19.506785"></trkpt><trkpt lat="53.764863" lon="19.506848"></trkpt><trkpt lat="53.765127" lon="19.506986"></trkpt><trkpt lat="53.765316" lon="19.507128"></trkpt><trkpt lat="53.768028" lon="19.509572"></trkpt><trkpt lat="53.768252" lon="19.509992"></trkpt><trkpt lat="53.769286" lon="19.51167"></trkpt><trkpt lat="53.769509" lon="19.511822"></trkpt><trkpt lat="53.770084" lon="19.512109"></trkpt><trkpt lat="53.770428" lon="19.512169"></trkpt><trkpt lat="53.770776" lon="19.512162"></trkpt><trkpt lat="53.771075" lon="19.512206"></trkpt><trkpt lat="53.773598" lon="19.512905"></trkpt><trkpt lat="53.773835" lon="19.513004"></trkpt><trkpt lat="53.774373" lon="19.513317"></trkpt><trkpt lat="53.774662" lon="19.513605"></trkpt><trkpt lat="53.774958" lon="19.514015"></trkpt><trkpt lat="53.777035" lon="19.51648"></trkpt><trkpt lat="53.777275" lon="19.516703"></trkpt><trkpt lat="53.777586" lon="19.516945"></trkpt><trkpt lat="53.778281" lon="19.51768"></trkpt><trkpt lat="53.778416" lon="19.518243"></trkpt><trkpt lat="53.779704" lon="19.522639"></trkpt><trkpt lat="53.780071" lon="19.523122"></trkpt><trkpt lat="53.780399" lon="19.523646"></trkpt><trkpt lat="53.780525" lon="19.524025"></trkpt><trkpt lat="53.780715" lon="19.524741"></trkpt><trkpt lat="53.781351" lon="19.526697"></trkpt><trkpt lat="53.78144" lon="19.527151"></trkpt><trkpt lat="53.781317" lon="19.527656"></trkpt><trkpt lat="53.781211" lon="19.52797"></trkpt><trkpt lat="53.781339" lon="19.528297"></trkpt><trkpt lat="53.781538" lon="19.528605"></trkpt><trkpt lat="53.781731" lon="19.528843"></trkpt><trkpt lat="53.783155" lon="19.531215"></trkpt><trkpt lat="53.783237" lon="19.53164"></trkpt><trkpt lat="53.784031" lon="19.53725"></trkpt><trkpt lat="53.784061" lon="19.537836"></trkpt><trkpt lat="53.784574" lon="19.543076"></trkpt><trkpt lat="53.78475" lon="19.543548"></trkpt><trkpt lat="53.785633" lon="19.545404"></trkpt><trkpt lat="53.785916" lon="19.545833"></trkpt><trkpt lat="53.78694" lon="19.547972"></trkpt><trkpt lat="53.787012" lon="19.548784"></trkpt><trkpt lat="53.789258" lon="19.565292"></trkpt><trkpt lat="53.789463" lon="19.56552"></trkpt><trkpt lat="53.793693" lon="19.571042"></trkpt><trkpt lat="53.793949" lon="19.571495"></trkpt><trkpt lat="53.795329" lon="19.57358"></trkpt><trkpt lat="53.795611" lon="19.573655"></trkpt><trkpt lat="53.79714" lon="19.573842"></trkpt><trkpt lat="53.797539" lon="19.573578"></trkpt><trkpt lat="53.798241" lon="19.573005"></trkpt><trkpt lat="53.798826" lon="19.572615"></trkpt><trkpt lat="53.799117" lon="19.572655"></trkpt><trkpt lat="53.799319" lon="19.572798"></trkpt><trkpt lat="53.799613" lon="19.573108"></trkpt><trkpt lat="53.801588" lon="19.57486"></trkpt><trkpt lat="53.802012" lon="19.575069"></trkpt><trkpt lat="53.811501" lon="19.578319"></trkpt><trkpt lat="53.811634" lon="19.578015"></trkpt><trkpt lat="53.811471" lon="19.578331"></trkpt><trkpt lat="53.811355" lon="19.578855"></trkpt><trkpt lat="53.810922" lon="19.581496"></trkpt><trkpt lat="53.810899" lon="19.58212"></trkpt><trkpt lat="53.810823" lon="19.58297"></trkpt><trkpt lat="53.810671" lon="19.583468"></trkpt><trkpt lat="53.80967" lon="19.58753"></trkpt><trkpt lat="53.809623" lon="19.588002"></trkpt><trkpt lat="53.80952" lon="19.590448"></trkpt><trkpt lat="53.809712" lon="19.590929"></trkpt><trkpt lat="53.809831" lon="19.591495"></trkpt><trkpt lat="53.809979" lon="19.592395"></trkpt><trkpt lat="53.809702" lon="19.592562"></trkpt><trkpt lat="53.809501" lon="19.592477"></trkpt><trkpt lat="53.808886" lon="19.592321"></trkpt><trkpt lat="53.805533" lon="19.592658"></trkpt><trkpt lat="53.804803" lon="19.592855"></trkpt><trkpt lat="53.80448" lon="19.593119"></trkpt><trkpt lat="53.804244" lon="19.593199"></trkpt><trkpt lat="53.803647" lon="19.593319"></trkpt><trkpt lat="53.802884" lon="19.593628"></trkpt><trkpt lat="53.802617" lon="19.593866"></trkpt><trkpt lat="53.802009" lon="19.59452"></trkpt><trkpt lat="53.801851" lon="19.594765"></trkpt><trkpt lat="53.80097" lon="19.595929"></trkpt><trkpt lat="53.800702" lon="19.596141"></trkpt><trkpt lat="53.800379" lon="19.596298"></trkpt><trkpt lat="53.799393" lon="19.596634"></trkpt><trkpt lat="53.797187" lon="19.597007"></trkpt><trkpt lat="53.796746" lon="19.597468"></trkpt><trkpt lat="53.796643" lon="19.598352"></trkpt><trkpt lat="53.796594" lon="19.599013"></trkpt><trkpt lat="53.796551" lon="19.600977"></trkpt><trkpt lat="53.796459" lon="19.602221"></trkpt><trkpt lat="53.796411" lon="19.602622"></trkpt><trkpt lat="53.79593" lon="19.60968"></trkpt><trkpt lat="53.795973" lon="19.610646"></trkpt><trkpt lat="53.796173" lon="19.612242"></trkpt><trkpt lat="53.796035" lon="19.612786"></trkpt><trkpt lat="53.796109" lon="19.613565"></trkpt><trkpt lat="53.79621" lon="19.614057"></trkpt><trkpt lat="53.796293" lon="19.614633"></trkpt><trkpt lat="53.796199" lon="19.615023"></trkpt><trkpt lat="53.79621" lon="19.61545"></trkpt><trkpt lat="53.796363" lon="19.615887"></trkpt><trkpt lat="53.796548" lon="19.616539"></trkpt><trkpt lat="53.796769" lon="19.617589"></trkpt><trkpt lat="53.796759" lon="19.617965"></trkpt><trkpt lat="53.796772" lon="19.618843"></trkpt><trkpt lat="53.796812" lon="19.619298"></trkpt><trkpt lat="53.796842" lon="19.619965"></trkpt><trkpt lat="53.79683" lon="19.622224"></trkpt><trkpt lat="53.796729" lon="19.622579"></trkpt><trkpt lat="53.796431" lon="19.62387"></trkpt><trkpt lat="53.796142" lon="19.624851"></trkpt><trkpt lat="53.795243" lon="19.627404"></trkpt><trkpt lat="53.795055" lon="19.628148"></trkpt><trkpt lat="53.795236" lon="19.628834"></trkpt><trkpt lat="53.795388" lon="19.629273"></trkpt><trkpt lat="53.795701" lon="19.629481"></trkpt><trkpt lat="53.801209" lon="19.633982"></trkpt><trkpt lat="53.801199" lon="19.634785"></trkpt><trkpt lat="53.801125" lon="19.636069"></trkpt><trkpt lat="53.801079" lon="19.636523"></trkpt><trkpt lat="53.801129" lon="19.636959"></trkpt><trkpt lat="53.80127" lon="19.637437"></trkpt><trkpt lat="53.80359" lon="19.644068"></trkpt><trkpt lat="53.803653" lon="19.644459"></trkpt><trkpt lat="53.803539" lon="19.644979"></trkpt><trkpt lat="53.80337" lon="19.645351"></trkpt><trkpt lat="53.80317" lon="19.645665"></trkpt><trkpt lat="53.803" lon="19.645973"></trkpt><trkpt lat="53.802004" lon="19.647436"></trkpt><trkpt lat="53.801703" lon="19.647569"></trkpt><trkpt lat="53.801272" lon="19.647691"></trkpt><trkpt lat="53.799638" lon="19.648392"></trkpt><trkpt lat="53.799274" lon="19.648667"></trkpt><trkpt lat="53.798733" lon="19.649255"></trkpt><trkpt lat="53.79854" lon="19.649773"></trkpt><trkpt lat="53.798404" lon="19.650241"></trkpt><trkpt lat="53.798224" lon="19.651051"></trkpt><trkpt lat="53.798163" lon="19.65169"></trkpt><trkpt lat="53.79777" lon="19.654315"></trkpt><trkpt lat="53.797541" lon="19.655204"></trkpt><trkpt lat="53.796855" lon="19.657311"></trkpt><trkpt lat="53.796679" lon="19.657709"></trkpt><trkpt lat="53.79524" lon="19.661638"></trkpt><trkpt lat="53.795298" lon="19.662345"></trkpt><trkpt lat="53.795398" lon="19.662818"></trkpt><trkpt lat="53.795822" lon="19.664394"></trkpt><trkpt lat="53.795876" lon="19.664729"></trkpt><trkpt lat="53.795846" lon="19.665191"></trkpt><trkpt lat="53.795711" lon="19.665591"></trkpt><trkpt lat="53.795434" lon="19.665924"></trkpt><trkpt lat="53.79509" lon="19.666114"></trkpt><trkpt lat="53.793528" lon="19.667191"></trkpt><trkpt lat="53.788398" lon="19.6715"></trkpt><trkpt lat="53.788234" lon="19.672327"></trkpt><trkpt lat="53.788008" lon="19.673"></trkpt><trkpt lat="53.787639" lon="19.673763"></trkpt><trkpt lat="53.786645" lon="19.676241"></trkpt><trkpt lat="53.786785" lon="19.677208"></trkpt><trkpt lat="53.786775" lon="19.677589"></trkpt><trkpt lat="53.786725" lon="19.677915"></trkpt><trkpt lat="53.786568" lon="19.678391"></trkpt><trkpt lat="53.786423" lon="19.678739"></trkpt><trkpt lat="53.784661" lon="19.682383"></trkpt><trkpt lat="53.778452" lon="19.697279"></trkpt><trkpt lat="53.778465" lon="19.69764"></trkpt><trkpt lat="53.778388" lon="19.709505"></trkpt><trkpt lat="53.778265" lon="19.709989"></trkpt><trkpt lat="53.776001" lon="19.721022"></trkpt><trkpt lat="53.776188" lon="19.721999"></trkpt><trkpt lat="53.776688" lon="19.724078"></trkpt><trkpt lat="53.779172" lon="19.737461"></trkpt><trkpt lat="53.779088" lon="19.738153"></trkpt><trkpt lat="53.777202" lon="19.749494"></trkpt><trkpt lat="53.77702" lon="19.750066"></trkpt><trkpt lat="53.774516" lon="19.756741"></trkpt><trkpt lat="53.774192" lon="19.757145"></trkpt><trkpt lat="53.773677" lon="19.757935"></trkpt><trkpt lat="53.77348" lon="19.758586"></trkpt><trkpt lat="53.773382" lon="19.758977"></trkpt><trkpt lat="53.77193" lon="19.763749"></trkpt><trkpt lat="53.770041" lon="19.771844"></trkpt><trkpt lat="53.769987" lon="19.772898"></trkpt><trkpt lat="53.769804" lon="19.774794"></trkpt><trkpt lat="53.769674" lon="19.77534"></trkpt><trkpt lat="53.769049" lon="19.77861"></trkpt><trkpt lat="53.768783" lon="19.779462"></trkpt><trkpt lat="53.767036" lon="19.786201"></trkpt><trkpt lat="53.766882" lon="19.786978"></trkpt><trkpt lat="53.766673" lon="19.787724"></trkpt><trkpt lat="53.766433" lon="19.788392"></trkpt><trkpt lat="53.766032" lon="19.789711"></trkpt><trkpt lat="53.765879" lon="19.790337"></trkpt><trkpt lat="53.765789" lon="19.790853"></trkpt><trkpt lat="53.76332" lon="19.809885"></trkpt><trkpt lat="53.763232" lon="19.810932"></trkpt><trkpt lat="53.763185" lon="19.812248"></trkpt><trkpt lat="53.763205" lon="19.8128"></trkpt><trkpt lat="53.763155" lon="19.820633"></trkpt><trkpt lat="53.763025" lon="19.821141"></trkpt><trkpt lat="53.76285" lon="19.822099"></trkpt><trkpt lat="53.762967" lon="19.822482"></trkpt><trkpt lat="53.763194" lon="19.822947"></trkpt><trkpt lat="53.763382" lon="19.823614"></trkpt><trkpt lat="53.763458" lon="19.824015"></trkpt><trkpt lat="53.76347" lon="19.824909"></trkpt><trkpt lat="53.763392" lon="19.825496"></trkpt><trkpt lat="53.763205" lon="19.826347"></trkpt><trkpt lat="53.763026" lon="19.827397"></trkpt><trkpt lat="53.763005" lon="19.828008"></trkpt><trkpt lat="53.763033" lon="19.828733"></trkpt><trkpt lat="53.763293" lon="19.831686"></trkpt><trkpt lat="53.763384" lon="19.832132"></trkpt><trkpt lat="53.76355" lon="19.832455"></trkpt><trkpt lat="53.764023" lon="19.832432"></trkpt><trkpt lat="53.764158" lon="19.832943"></trkpt><trkpt lat="53.76423" lon="19.833339"></trkpt><trkpt lat="53.764269" lon="19.83367"></trkpt><trkpt lat="53.764503" lon="19.836958"></trkpt><trkpt lat="53.764468" lon="19.837302"></trkpt><trkpt lat="53.76424" lon="19.838494"></trkpt><trkpt lat="53.764095" lon="19.83889"></trkpt><trkpt lat="53.762529" lon="19.842557"></trkpt><trkpt lat="53.762145" lon="19.842357"></trkpt><trkpt lat="53.761086" lon="19.841951"></trkpt><trkpt lat="53.760792" lon="19.841957"></trkpt><trkpt lat="53.760565" lon="19.84199"></trkpt><trkpt lat="53.759751" lon="19.842346"></trkpt><trkpt lat="53.759374" lon="19.842456"></trkpt><trkpt lat="53.75916" lon="19.842469"></trkpt><trkpt lat="53.756974" lon="19.842965"></trkpt><trkpt lat="53.756369" lon="19.84338"></trkpt><trkpt lat="53.755529" lon="19.843806"></trkpt><trkpt lat="53.755306" lon="19.843863"></trkpt><trkpt lat="53.754442" lon="19.844229"></trkpt><trkpt lat="53.75423" lon="19.844378"></trkpt><trkpt lat="53.752177" lon="19.84613"></trkpt><trkpt lat="53.751952" lon="19.846377"></trkpt><trkpt lat="53.751756" lon="19.846556"></trkpt><trkpt lat="53.751362" lon="19.846785"></trkpt><trkpt lat="53.750923" lon="19.846892"></trkpt><trkpt lat="53.75055" lon="19.846912"></trkpt><trkpt lat="53.750299" lon="19.847203"></trkpt><trkpt lat="53.750146" lon="19.847548"></trkpt><trkpt lat="53.750075" lon="19.847894"></trkpt><trkpt lat="53.749878" lon="19.848183"></trkpt><trkpt lat="53.749435" lon="19.848731"></trkpt><trkpt lat="53.748623" lon="19.849908"></trkpt><trkpt lat="53.717708" lon="19.892476"></trkpt><trkpt lat="53.717329" lon="19.892926"></trkpt><trkpt lat="53.7147" lon="19.896603"></trkpt><trkpt lat="53.7145" lon="19.896954"></trkpt><trkpt lat="53.713098" lon="19.899793"></trkpt><trkpt lat="53.699232" lon="19.932259"></trkpt><trkpt lat="53.69904" lon="19.93282"></trkpt><trkpt lat="53.6982" lon="19.935732"></trkpt><trkpt lat="53.698117" lon="19.936253"></trkpt><trkpt lat="53.698087" lon="19.936674"></trkpt><trkpt lat="53.698002" lon="19.937314"></trkpt><trkpt lat="53.698047" lon="19.937762"></trkpt><trkpt lat="53.698463" lon="19.940464"></trkpt><trkpt lat="53.698585" lon="19.940759"></trkpt><trkpt lat="53.698737" lon="19.941193"></trkpt><trkpt lat="53.699439" lon="19.94363"></trkpt><trkpt lat="53.699626" lon="19.944564"></trkpt><trkpt lat="53.699678" lon="19.944936"></trkpt><trkpt lat="53.699567" lon="19.945333"></trkpt><trkpt lat="53.699303" lon="19.945658"></trkpt><trkpt lat="53.699265" lon="19.945988"></trkpt><trkpt lat="53.699308" lon="19.946553"></trkpt><trkpt lat="53.699374" lon="19.947082"></trkpt><trkpt lat="53.699984" lon="19.950534"></trkpt><trkpt lat="53.700116" lon="19.950973"></trkpt><trkpt lat="53.700198" lon="19.951482"></trkpt><trkpt lat="53.700235" lon="19.952114"></trkpt><trkpt lat="53.700441" lon="19.953789"></trkpt><trkpt lat="53.700745" lon="19.954379"></trkpt><trkpt lat="53.70096" lon="19.95488"></trkpt><trkpt lat="53.701052" lon="19.955377"></trkpt><trkpt lat="53.701065" lon="19.955868"></trkpt><trkpt lat="53.701016" lon="19.956314"></trkpt><trkpt lat="53.701003" lon="19.956751"></trkpt><trkpt lat="53.701028" lon="19.957169"></trkpt><trkpt lat="53.701333" lon="19.95993"></trkpt><trkpt lat="53.701557" lon="19.959945"></trkpt><trkpt lat="53.701343" lon="19.959766"></trkpt><trkpt lat="53.701319" lon="19.959341"></trkpt><trkpt lat="53.701186" lon="19.958901"></trkpt><trkpt lat="53.701151" lon="19.958294"></trkpt><trkpt lat="53.701138" lon="19.955793"></trkpt><trkpt lat="53.701093" lon="19.954946"></trkpt><trkpt lat="53.700864" lon="19.954408"></trkpt><trkpt lat="53.700649" lon="19.954014"></trkpt><trkpt lat="53.700388" lon="19.953398"></trkpt><trkpt lat="53.700347" lon="19.953051"></trkpt><trkpt lat="53.700321" lon="19.952434"></trkpt><trkpt lat="53.700256" lon="19.951785"></trkpt><trkpt lat="53.70016" lon="19.951466"></trkpt><trkpt lat="53.699962" lon="19.951247"></trkpt></trkseg></trk></gpx>