<?xml version="1.0" encoding="UTF-8" standalone="no" ?><gpx xmlns="http://www.topografix.com/GPX/1/1" xmlns:gpxx="http://www.garmin.com/xmlschemas/GpxExtensions/v3" ><trk><trkseg><trkpt lat="50.747588" lon="15.727603"></trkpt><trkpt lat="50.747144" lon="15.727403"></trkpt><trkpt lat="50.746745" lon="15.72715"></trkpt><trkpt lat="50.744907" lon="15.725661"></trkpt><trkpt lat="50.744759" lon="15.725289"></trkpt><trkpt lat="50.74466" lon="15.724877"></trkpt><trkpt lat="50.744451" lon="15.724393"></trkpt><trkpt lat="50.744238" lon="15.724085"></trkpt><trkpt lat="50.744009" lon="15.72385"></trkpt><trkpt lat="50.74357" lon="15.723483"></trkpt><trkpt lat="50.74326" lon="15.723595"></trkpt><trkpt lat="50.743015" lon="15.723835"></trkpt><trkpt lat="50.742494" lon="15.724231"></trkpt><trkpt lat="50.74213" lon="15.724288"></trkpt><trkpt lat="50.741674" lon="15.724293"></trkpt><trkpt lat="50.740469" lon="15.724501"></trkpt><trkpt lat="50.740261" lon="15.724851"></trkpt><trkpt lat="50.74011" lon="15.72523"></trkpt><trkpt lat="50.739921" lon="15.725855"></trkpt><trkpt lat="50.739845" lon="15.726292"></trkpt><trkpt lat="50.739822" lon="15.726765"></trkpt><trkpt lat="50.739758" lon="15.727334"></trkpt><trkpt lat="50.739662" lon="15.727779"></trkpt><trkpt lat="50.73949" lon="15.728355"></trkpt><trkpt lat="50.739297" lon="15.72886"></trkpt><trkpt lat="50.739292" lon="15.729305"></trkpt><trkpt lat="50.739054" lon="15.729531"></trkpt><trkpt lat="50.73893" lon="15.729913"></trkpt><trkpt lat="50.738518" lon="15.730826"></trkpt><trkpt lat="50.738282" lon="15.731049"></trkpt><trkpt lat="50.738049" lon="15.73138"></trkpt><trkpt lat="50.737781" lon="15.731659"></trkpt><trkpt lat="50.737576" lon="15.731943"></trkpt><trkpt lat="50.736808" lon="15.733256"></trkpt><trkpt lat="50.736697" lon="15.733675"></trkpt><trkpt lat="50.736726" lon="15.734112"></trkpt><trkpt lat="50.736732" lon="15.734824"></trkpt><trkpt lat="50.736493" lon="15.734607"></trkpt><trkpt lat="50.736226" lon="15.734485"></trkpt><trkpt lat="50.736293" lon="15.734968"></trkpt><trkpt lat="50.736333" lon="15.735516"></trkpt><trkpt lat="50.736241" lon="15.735963"></trkpt><trkpt lat="50.736303" lon="15.736418"></trkpt><trkpt lat="50.736409" lon="15.73694"></trkpt><trkpt lat="50.736468" lon="15.737376"></trkpt><trkpt lat="50.736412" lon="15.737829"></trkpt><trkpt lat="50.736409" lon="15.738355"></trkpt><trkpt lat="50.736381" lon="15.738784"></trkpt><trkpt lat="50.736282" lon="15.739567"></trkpt><trkpt lat="50.73612" lon="15.739955"></trkpt><trkpt lat="50.736056" lon="15.740372"></trkpt><trkpt lat="50.73632" lon="15.740256"></trkpt><trkpt lat="50.736131" lon="15.739876"></trkpt><trkpt lat="50.7361" lon="15.739443"></trkpt><trkpt lat="50.735882" lon="15.739782"></trkpt><trkpt lat="50.736153" lon="15.739778"></trkpt><trkpt lat="50.735972" lon="15.74028"></trkpt><trkpt lat="50.736147" lon="15.739892"></trkpt><trkpt lat="50.736282" lon="15.739468"></trkpt><trkpt lat="50.736332" lon="15.739004"></trkpt><trkpt lat="50.73642" lon="15.737115"></trkpt><trkpt lat="50.736356" lon="15.736698"></trkpt><trkpt lat="50.736295" lon="15.73581"></trkpt><trkpt lat="50.736303" lon="15.735357"></trkpt><trkpt lat="50.736276" lon="15.734916"></trkpt><trkpt lat="50.736111" lon="15.734577"></trkpt><trkpt lat="50.736402" lon="15.734522"></trkpt><trkpt lat="50.73669" lon="15.734778"></trkpt><trkpt lat="50.736731" lon="15.734338"></trkpt><trkpt lat="50.736726" lon="15.733866"></trkpt><trkpt lat="50.736841" lon="15.733375"></trkpt><trkpt lat="50.736891" lon="15.73291"></trkpt><trkpt lat="50.73711" lon="15.73254"></trkpt><trkpt lat="50.737351" lon="15.732245"></trkpt><trkpt lat="50.73904" lon="15.729718"></trkpt><trkpt lat="50.739189" lon="15.729346"></trkpt><trkpt lat="50.739498" lon="15.729437"></trkpt><trkpt lat="50.739247" lon="15.729213"></trkpt><trkpt lat="50.739361" lon="15.72881"></trkpt><trkpt lat="50.739526" lon="15.72837"></trkpt><trkpt lat="50.739788" lon="15.727481"></trkpt><trkpt lat="50.739833" lon="15.726927"></trkpt><trkpt lat="50.74003" lon="15.725568"></trkpt><trkpt lat="50.740209" lon="15.725094"></trkpt><trkpt lat="50.740547" lon="15.724495"></trkpt><trkpt lat="50.740888" lon="15.72435"></trkpt><trkpt lat="50.741246" lon="15.724299"></trkpt><trkpt lat="50.742274" lon="15.724299"></trkpt><trkpt lat="50.742554" lon="15.724249"></trkpt><trkpt lat="50.742812" lon="15.72409"></trkpt><trkpt lat="50.743123" lon="15.723767"></trkpt><trkpt lat="50.743396" lon="15.723545"></trkpt><trkpt lat="50.743763" lon="15.723605"></trkpt><trkpt lat="50.744047" lon="15.723854"></trkpt><trkpt lat="50.744277" lon="15.724104"></trkpt><trkpt lat="50.744545" lon="15.724506"></trkpt><trkpt lat="50.744693" lon="15.724916"></trkpt><trkpt lat="50.744807" lon="15.725431"></trkpt><trkpt lat="50.745044" lon="15.72592"></trkpt><trkpt lat="50.74534" lon="15.72627"></trkpt><trkpt lat="50.747495" lon="15.72753"></trkpt></trkseg><trkseg><trkpt lat="50.7724637445" lon="15.7294973452"></trkpt><trkpt lat="50.7724073343" lon="15.7299755327"></trkpt><trkpt lat="50.7724451367" lon="15.7304026745"></trkpt><trkpt lat="50.7726836018" lon="15.7307043392"></trkpt><trkpt lat="50.7728952449" lon="15.7312002126"></trkpt><trkpt lat="50.7729728613" lon="15.7317229081"></trkpt><trkpt lat="50.7729445305" lon="15.7321595214"></trkpt><trkpt lat="50.7727510761" lon="15.732496893"></trkpt><trkpt lat="50.7724881358" lon="15.732770646"></trkpt><trkpt lat="50.7722918317" lon="15.7323347032"></trkpt><trkpt lat="50.7720139716" lon="15.7320667338"></trkpt><trkpt lat="50.7717131451" lon="15.7322045323"></trkpt><trkpt lat="50.7714403979" lon="15.7322805561"></trkpt><trkpt lat="50.7711653039" lon="15.7321575936"></trkpt><trkpt lat="50.7709487155" lon="15.7318193838"></trkpt><trkpt lat="50.7707746234" lon="15.7314694393"></trkpt><trkpt lat="50.770575637" lon="15.7311723847"></trkpt><trkpt lat="50.7700052485" lon="15.7301518042"></trkpt><trkpt lat="50.7698192541" lon="15.7296873629"></trkpt><trkpt lat="50.7695655338" lon="15.7288842089"></trkpt><trkpt lat="50.7693108916" lon="15.7285936084"></trkpt><trkpt lat="50.7690320257" lon="15.728556728"></trkpt><trkpt lat="50.7688255794" lon="15.7281929534"></trkpt><trkpt lat="50.7688676566" lon="15.7286622562"></trkpt><trkpt lat="50.7687591109" lon="15.7290600613"></trkpt><trkpt lat="50.7686561812" lon="15.7295701839"></trkpt><trkpt lat="50.7686112542" lon="15.7300841622"></trkpt><trkpt lat="50.7686158642" lon="15.7306695543"></trkpt><trkpt lat="50.768661797" lon="15.7313740533"></trkpt><trkpt lat="50.7687770482" lon="15.7322373893"></trkpt><trkpt lat="50.768833207" lon="15.7330598217"></trkpt><trkpt lat="50.7688306924" lon="15.7335076667"></trkpt><trkpt lat="50.7687765453" lon="15.7340208907"></trkpt><trkpt lat="50.7687418442" lon="15.736249974"></trkpt><trkpt lat="50.7689614501" lon="15.7365900278"></trkpt><trkpt lat="50.7693382166" lon="15.7373908348"></trkpt><trkpt lat="50.7692804653" lon="15.7378195692"></trkpt><trkpt lat="50.7690777909" lon="15.7387492899"></trkpt><trkpt lat="50.7688944787" lon="15.7390689757"></trkpt><trkpt lat="50.7686277665" lon="15.7396264561"></trkpt><trkpt lat="50.7687710971" lon="15.7400258537"></trkpt><trkpt lat="50.7690731809" lon="15.7402741257"></trkpt><trkpt lat="50.7693758514" lon="15.7403097488"></trkpt><trkpt lat="50.770374136" lon="15.7400307991"></trkpt><trkpt lat="50.7706476375" lon="15.73976174"></trkpt><trkpt lat="50.7711332012" lon="15.7394299004"></trkpt><trkpt lat="50.7714462653" lon="15.7391270623"></trkpt><trkpt lat="50.7716783602" lon="15.7388533093"></trkpt><trkpt lat="50.7718152367" lon="15.7384477928"></trkpt><trkpt lat="50.7720971201" lon="15.7385402452"></trkpt><trkpt lat="50.7723089308" lon="15.7389034331"></trkpt><trkpt lat="50.7727017906" lon="15.7397194952"></trkpt><trkpt lat="50.772842858" lon="15.7402777299"></trkpt><trkpt lat="50.7729198877" lon="15.7407699153"></trkpt><trkpt lat="50.7731780503" lon="15.7409157604"></trkpt><trkpt lat="50.7734000869" lon="15.740646366"></trkpt><trkpt lat="50.7735830639" lon="15.740240179"></trkpt><trkpt lat="50.773607539" lon="15.7397930883"></trkpt><trkpt lat="50.773718264" lon="15.7393628452"></trkpt><trkpt lat="50.7735937089" lon="15.738949785"></trkpt><trkpt lat="50.7735776994" lon="15.7384645566"></trkpt><trkpt lat="50.7738069445" lon="15.73809986"></trkpt><trkpt lat="50.7739792764" lon="15.7377542742"></trkpt><trkpt lat="50.7738298271" lon="15.73736527"></trkpt><trkpt lat="50.7740888279" lon="15.7372264657"></trkpt><trkpt lat="50.774250431" lon="15.7367324363"></trkpt><trkpt lat="50.7743520197" lon="15.7363359723"></trkpt><trkpt lat="50.774512114" lon="15.7352153119"></trkpt><trkpt lat="50.7742446475" lon="15.7351098675"></trkpt><trkpt lat="50.7738737483" lon="15.734883137"></trkpt><trkpt lat="50.7736567408" lon="15.7344974019"></trkpt><trkpt lat="50.7736903522" lon="15.7339788135"></trkpt><trkpt lat="50.7738116384" lon="15.7330315746"></trkpt><trkpt lat="50.7739058509" lon="15.732622873"></trkpt><trkpt lat="50.7741575595" lon="15.7309905812"></trkpt><trkpt lat="50.7738607563" lon="15.7310867216"></trkpt><trkpt lat="50.7735527214" lon="15.7310544513"></trkpt><trkpt lat="50.7733373903" lon="15.7313949242"></trkpt><trkpt lat="50.7731955685" lon="15.731838746"></trkpt><trkpt lat="50.772939669" lon="15.7321551628"></trkpt><trkpt lat="50.7727422751" lon="15.7326054387"></trkpt><trkpt lat="50.7724153809" lon="15.7325524651"></trkpt><trkpt lat="50.772131905" lon="15.7322492916"></trkpt><trkpt lat="50.7716864906" lon="15.731889708"></trkpt><trkpt lat="50.7714021765" lon="15.7316005323"></trkpt><trkpt lat="50.7713280804" lon="15.7311892323"></trkpt><trkpt lat="50.7711389847" lon="15.7316203136"></trkpt><trkpt lat="50.7713396475" lon="15.7312577125"></trkpt><trkpt lat="50.7714057807" lon="15.7307724841"></trkpt><trkpt lat="50.7715088781" lon="15.7303681411"></trkpt><trkpt lat="50.7714534737" lon="15.7298425119"></trkpt><trkpt lat="50.7718365267" lon="15.7292409427"></trkpt></trkseg></trk></gpx>