<?xml version="1.0" encoding="UTF-8" standalone="no" ?><gpx xmlns="http://www.topografix.com/GPX/1/1" xmlns:gpxx="http://www.garmin.com/xmlschemas/GpxExtensions/v3" ><trk><trkseg><trkpt lat="52.47412" lon="17.2384"></trkpt><trkpt lat="52.474213" lon="17.239672"></trkpt><trkpt lat="52.474489" lon="17.239615"></trkpt><trkpt lat="52.474747" lon="17.239379"></trkpt><trkpt lat="52.475041" lon="17.239223"></trkpt><trkpt lat="52.475247" lon="17.238697"></trkpt><trkpt lat="52.48135" lon="17.225887"></trkpt><trkpt lat="52.481679" lon="17.225864"></trkpt><trkpt lat="52.482359" lon="17.225664"></trkpt><trkpt lat="52.482464" lon="17.225109"></trkpt><trkpt lat="52.482524" lon="17.224583"></trkpt><trkpt lat="52.482747" lon="17.223506"></trkpt><trkpt lat="52.48713" lon="17.207262"></trkpt><trkpt lat="52.487404" lon="17.207171"></trkpt><trkpt lat="52.491964" lon="17.206334"></trkpt><trkpt lat="52.492226" lon="17.206451"></trkpt><trkpt lat="52.493355" lon="17.206645"></trkpt><trkpt lat="52.493444" lon="17.206183"></trkpt><trkpt lat="52.493533" lon="17.205492"></trkpt><trkpt lat="52.493565" lon="17.204731"></trkpt><trkpt lat="52.493679" lon="17.203728"></trkpt><trkpt lat="52.493708" lon="17.203"></trkpt><trkpt lat="52.493804" lon="17.202053"></trkpt><trkpt lat="52.494103" lon="17.200264"></trkpt><trkpt lat="52.494587" lon="17.20032"></trkpt><trkpt lat="52.494968" lon="17.200468"></trkpt><trkpt lat="52.498463" lon="17.202394"></trkpt><trkpt lat="52.499694" lon="17.202852"></trkpt><trkpt lat="52.500062" lon="17.202903"></trkpt><trkpt lat="52.504729" lon="17.204333"></trkpt><trkpt lat="52.50479" lon="17.205002"></trkpt><trkpt lat="52.504914" lon="17.205741"></trkpt><trkpt lat="52.505142" lon="17.206007"></trkpt><trkpt lat="52.50691" lon="17.207667"></trkpt><trkpt lat="52.507136" lon="17.207374"></trkpt><trkpt lat="52.507463" lon="17.206865"></trkpt><trkpt lat="52.512881" lon="17.199802"></trkpt><trkpt lat="52.513158" lon="17.199593"></trkpt><trkpt lat="52.5145" lon="17.198236"></trkpt><trkpt lat="52.51468" lon="17.197887"></trkpt><trkpt lat="52.514871" lon="17.197398"></trkpt><trkpt lat="52.515058" lon="17.196789"></trkpt><trkpt lat="52.517121" lon="17.191574"></trkpt><trkpt lat="52.517409" lon="17.191791"></trkpt><trkpt lat="52.518157" lon="17.192182"></trkpt><trkpt lat="52.519113" lon="17.192534"></trkpt><trkpt lat="52.519581" lon="17.192633"></trkpt><trkpt lat="52.520706" lon="17.19323"></trkpt><trkpt lat="52.520925" lon="17.193585"></trkpt><trkpt lat="52.521257" lon="17.194366"></trkpt><trkpt lat="52.521957" lon="17.196463"></trkpt><trkpt lat="52.522079" lon="17.197008"></trkpt><trkpt lat="52.522607" lon="17.198761"></trkpt><trkpt lat="52.522772" lon="17.199168"></trkpt><trkpt lat="52.528657" lon="17.21092"></trkpt><trkpt lat="52.529352" lon="17.209219"></trkpt><trkpt lat="52.539656" lon="17.188921"></trkpt><trkpt lat="52.539962" lon="17.189153"></trkpt><trkpt lat="52.549228" lon="17.197876"></trkpt><trkpt lat="52.549405" lon="17.198263"></trkpt><trkpt lat="52.549657" lon="17.19895"></trkpt><trkpt lat="52.549994" lon="17.200218"></trkpt><trkpt lat="52.550102" lon="17.200877"></trkpt><trkpt lat="52.550165" lon="17.201525"></trkpt><trkpt lat="52.550158" lon="17.202062"></trkpt><trkpt lat="52.549998" lon="17.202937"></trkpt><trkpt lat="52.546102" lon="17.218943"></trkpt><trkpt lat="52.545666" lon="17.218599"></trkpt><trkpt lat="52.545298" lon="17.218467"></trkpt><trkpt lat="52.544479" lon="17.218043"></trkpt><trkpt lat="52.544053" lon="17.217633"></trkpt><trkpt lat="52.543486" lon="17.217224"></trkpt><trkpt lat="52.54293" lon="17.217063"></trkpt><trkpt lat="52.542423" lon="17.217088"></trkpt><trkpt lat="52.542268" lon="17.217455"></trkpt><trkpt lat="52.541683" lon="17.219521"></trkpt><trkpt lat="52.541634" lon="17.220136"></trkpt><trkpt lat="52.541553" lon="17.220644"></trkpt><trkpt lat="52.541487" lon="17.22163"></trkpt><trkpt lat="52.541526" lon="17.222079"></trkpt><trkpt lat="52.541657" lon="17.226259"></trkpt><trkpt lat="52.541908" lon="17.229166"></trkpt><trkpt lat="52.54218" lon="17.238062"></trkpt><trkpt lat="52.542118" lon="17.238521"></trkpt><trkpt lat="52.540019" lon="17.249399"></trkpt><trkpt lat="52.539617" lon="17.249821"></trkpt><trkpt lat="52.539351" lon="17.250027"></trkpt><trkpt lat="52.538921" lon="17.25047"></trkpt><trkpt lat="52.538533" lon="17.25122"></trkpt><trkpt lat="52.538287" lon="17.251404"></trkpt><trkpt lat="52.53802" lon="17.251251"></trkpt><trkpt lat="52.537703" lon="17.251149"></trkpt><trkpt lat="52.535372" lon="17.250001"></trkpt><trkpt lat="52.534963" lon="17.249337"></trkpt><trkpt lat="52.53202" lon="17.245512"></trkpt><trkpt lat="52.531678" lon="17.245334"></trkpt><trkpt lat="52.526205" lon="17.241589"></trkpt><trkpt lat="52.525417" lon="17.241293"></trkpt><trkpt lat="52.525343" lon="17.241746"></trkpt><trkpt lat="52.523657" lon="17.248736"></trkpt><trkpt lat="52.523268" lon="17.249175"></trkpt><trkpt lat="52.52284" lon="17.249416"></trkpt><trkpt lat="52.522404" lon="17.248595"></trkpt><trkpt lat="52.519946" lon="17.243058"></trkpt><trkpt lat="52.510138" lon="17.220798"></trkpt><trkpt lat="52.506452" lon="17.210446"></trkpt><trkpt lat="52.506453" lon="17.209856"></trkpt><trkpt lat="52.506487" lon="17.209345"></trkpt><trkpt lat="52.50665" lon="17.208104"></trkpt><trkpt lat="52.506465" lon="17.207753"></trkpt><trkpt lat="52.506204" lon="17.20734"></trkpt><trkpt lat="52.506369" lon="17.207703"></trkpt><trkpt lat="52.506645" lon="17.207872"></trkpt><trkpt lat="52.506891" lon="17.207552"></trkpt><trkpt lat="52.507441" lon="17.206695"></trkpt><trkpt lat="52.512708" lon="17.199827"></trkpt><trkpt lat="52.513022" lon="17.199629"></trkpt><trkpt lat="52.513494" lon="17.199418"></trkpt><trkpt lat="52.513793" lon="17.199235"></trkpt><trkpt lat="52.514251" lon="17.198605"></trkpt><trkpt lat="52.514454" lon="17.198203"></trkpt><trkpt lat="52.514839" lon="17.197261"></trkpt><trkpt lat="52.515025" lon="17.19669"></trkpt><trkpt lat="52.515138" lon="17.19625"></trkpt><trkpt lat="52.520362" lon="17.170229"></trkpt><trkpt lat="52.52038" lon="17.169668"></trkpt><trkpt lat="52.52023" lon="17.165962"></trkpt><trkpt lat="52.520115" lon="17.165461"></trkpt><trkpt lat="52.519018" lon="17.159008"></trkpt><trkpt lat="52.519032" lon="17.158102"></trkpt><trkpt lat="52.518379" lon="17.140876"></trkpt><trkpt lat="52.518173" lon="17.140435"></trkpt><trkpt lat="52.517873" lon="17.139934"></trkpt><trkpt lat="52.516052" lon="17.136238"></trkpt><trkpt lat="52.516362" lon="17.135756"></trkpt><trkpt lat="52.516639" lon="17.135405"></trkpt><trkpt lat="52.516836" lon="17.13508"></trkpt><trkpt lat="52.517523" lon="17.134137"></trkpt><trkpt lat="52.517927" lon="17.133429"></trkpt><trkpt lat="52.518137" lon="17.132917"></trkpt><trkpt lat="52.522158" lon="17.120961"></trkpt><trkpt lat="52.52225" lon="17.120418"></trkpt><trkpt lat="52.523177" lon="17.112244"></trkpt><trkpt lat="52.523174" lon="17.111786"></trkpt><trkpt lat="52.52308" lon="17.110784"></trkpt><trkpt lat="52.522996" lon="17.11027"></trkpt><trkpt lat="52.522831" lon="17.109532"></trkpt><trkpt lat="52.522628" lon="17.108216"></trkpt><trkpt lat="52.522599" lon="17.107641"></trkpt><trkpt lat="52.522608" lon="17.105101"></trkpt><trkpt lat="52.522674" lon="17.104095"></trkpt><trkpt lat="52.5232" lon="17.099802"></trkpt><trkpt lat="52.523401" lon="17.099407"></trkpt><trkpt lat="52.523552" lon="17.098987"></trkpt><trkpt lat="52.523675" lon="17.098551"></trkpt><trkpt lat="52.524106" lon="17.096569"></trkpt><trkpt lat="52.524097" lon="17.096045"></trkpt><trkpt lat="52.524714" lon="17.079318"></trkpt><trkpt lat="52.524823" lon="17.078866"></trkpt><trkpt lat="52.5249" lon="17.078418"></trkpt><trkpt lat="52.525391" lon="17.07639"></trkpt><trkpt lat="52.525543" lon="17.075996"></trkpt><trkpt lat="52.527558" lon="17.072127"></trkpt><trkpt lat="52.527981" lon="17.072092"></trkpt><trkpt lat="52.529086" lon="17.071679"></trkpt><trkpt lat="52.529318" lon="17.071393"></trkpt><trkpt lat="52.529802" lon="17.070665"></trkpt><trkpt lat="52.529992" lon="17.070196"></trkpt><trkpt lat="52.530177" lon="17.069583"></trkpt><trkpt lat="52.53024" lon="17.06913"></trkpt><trkpt lat="52.530272" lon="17.068397"></trkpt><trkpt lat="52.530682" lon="17.064694"></trkpt><trkpt lat="52.530927" lon="17.064184"></trkpt><trkpt lat="52.531203" lon="17.063705"></trkpt><trkpt lat="52.530966" lon="17.064048"></trkpt><trkpt lat="52.530768" lon="17.064436"></trkpt><trkpt lat="52.530585" lon="17.064921"></trkpt><trkpt lat="52.530484" lon="17.065388"></trkpt><trkpt lat="52.530455" lon="17.065842"></trkpt><trkpt lat="52.530706" lon="17.066273"></trkpt><trkpt lat="52.531075" lon="17.0668"></trkpt><trkpt lat="52.53133" lon="17.067104"></trkpt><trkpt lat="52.531725" lon="17.067674"></trkpt><trkpt lat="52.531954" lon="17.067938"></trkpt><trkpt lat="52.532264" lon="17.06822"></trkpt><trkpt lat="52.532665" lon="17.068479"></trkpt><trkpt lat="52.532993" lon="17.068606"></trkpt><trkpt lat="52.533257" lon="17.068428"></trkpt><trkpt lat="52.533726" lon="17.068012"></trkpt><trkpt lat="52.533998" lon="17.067625"></trkpt><trkpt lat="52.534268" lon="17.067327"></trkpt><trkpt lat="52.534678" lon="17.066729"></trkpt><trkpt lat="52.53487" lon="17.06622"></trkpt><trkpt lat="52.534989" lon="17.065731"></trkpt><trkpt lat="52.535157" lon="17.065363"></trkpt><trkpt lat="52.535591" lon="17.064185"></trkpt><trkpt lat="52.536307" lon="17.062754"></trkpt><trkpt lat="52.536727" lon="17.063194"></trkpt><trkpt lat="52.537054" lon="17.063615"></trkpt><trkpt lat="52.537304" lon="17.063834"></trkpt><trkpt lat="52.537028" lon="17.063513"></trkpt><trkpt lat="52.536183" lon="17.062201"></trkpt><trkpt lat="52.536286" lon="17.061786"></trkpt><trkpt lat="52.536396" lon="17.061181"></trkpt><trkpt lat="52.536603" lon="17.060424"></trkpt><trkpt lat="52.536821" lon="17.059962"></trkpt><trkpt lat="52.536891" lon="17.059417"></trkpt><trkpt lat="52.537012" lon="17.058829"></trkpt><trkpt lat="52.538017" lon="17.055333"></trkpt><trkpt lat="52.538206" lon="17.054931"></trkpt><trkpt lat="52.539864" lon="17.052104"></trkpt><trkpt lat="52.540129" lon="17.051867"></trkpt><trkpt lat="52.541838" lon="17.049999"></trkpt><trkpt lat="52.555824" lon="17.03765"></trkpt><trkpt lat="52.556122" lon="17.037613"></trkpt><trkpt lat="52.556483" lon="17.03747"></trkpt><trkpt lat="52.556718" lon="17.037171"></trkpt><trkpt lat="52.556887" lon="17.036807"></trkpt><trkpt lat="52.557022" lon="17.036297"></trkpt><trkpt lat="52.557123" lon="17.035764"></trkpt><trkpt lat="52.557174" lon="17.03528"></trkpt><trkpt lat="52.557389" lon="17.034118"></trkpt><trkpt lat="52.557814" lon="17.03411"></trkpt><trkpt lat="52.558099" lon="17.034197"></trkpt><trkpt lat="52.56671" lon="17.038425"></trkpt><trkpt lat="52.566957" lon="17.039092"></trkpt><trkpt lat="52.567426" lon="17.040682"></trkpt><trkpt lat="52.56733" lon="17.041433"></trkpt><trkpt lat="52.567316" lon="17.042152"></trkpt><trkpt lat="52.567609" lon="17.042561"></trkpt><trkpt lat="52.570167" lon="17.045523"></trkpt><trkpt lat="52.570497" lon="17.045699"></trkpt><trkpt lat="52.57452" lon="17.048869"></trkpt><trkpt lat="52.574786" lon="17.049584"></trkpt><trkpt lat="52.575704" lon="17.051435"></trkpt><trkpt lat="52.576159" lon="17.051741"></trkpt><trkpt lat="52.576423" lon="17.051983"></trkpt><trkpt lat="52.576831" lon="17.052281"></trkpt><trkpt lat="52.577173" lon="17.051969"></trkpt><trkpt lat="52.577357" lon="17.051635"></trkpt><trkpt lat="52.581875" lon="17.041771"></trkpt><trkpt lat="52.582072" lon="17.041127"></trkpt><trkpt lat="52.586274" lon="17.023169"></trkpt><trkpt lat="52.586315" lon="17.022609"></trkpt><trkpt lat="52.586313" lon="17.021035"></trkpt><trkpt lat="52.586018" lon="17.020887"></trkpt><trkpt lat="52.584552" lon="17.0199"></trkpt><trkpt lat="52.584385" lon="17.020446"></trkpt><trkpt lat="52.584514" lon="17.019982"></trkpt><trkpt lat="52.584937" lon="17.02028"></trkpt><trkpt lat="52.585592" lon="17.021082"></trkpt><trkpt lat="52.585516" lon="17.021742"></trkpt><trkpt lat="52.585388" lon="17.022335000000002"></trkpt><trkpt lat="52.585489" lon="17.021824"></trkpt><trkpt lat="52.585552" lon="17.021308"></trkpt><trkpt lat="52.585552" lon="17.020647"></trkpt><trkpt lat="52.58518" lon="17.020403"></trkpt><trkpt lat="52.584544" lon="17.01984"></trkpt><trkpt lat="52.58415" lon="17.019607"></trkpt><trkpt lat="52.58386" lon="17.01957"></trkpt><trkpt lat="52.58375" lon="17.020137"></trkpt><trkpt lat="52.583615" lon="17.020631"></trkpt><trkpt lat="52.583241" lon="17.02263"></trkpt></trkseg></trk></gpx>