<?xml version="1.0" encoding="UTF-8" standalone="no" ?><gpx xmlns="http://www.topografix.com/GPX/1/1" xmlns:gpxx="http://www.garmin.com/xmlschemas/GpxExtensions/v3" ><trk><trkseg><trkpt lat="51.47502" lon="16.90194"></trkpt><trkpt lat="51.474914" lon="16.902388"></trkpt><trkpt lat="51.474691" lon="16.902605"></trkpt><trkpt lat="51.474477" lon="16.90259"></trkpt><trkpt lat="51.471985" lon="16.903219"></trkpt><trkpt lat="51.471871" lon="16.903612"></trkpt><trkpt lat="51.470828" lon="16.90644"></trkpt><trkpt lat="51.470593" lon="16.906356"></trkpt><trkpt lat="51.470348" lon="16.906209"></trkpt><trkpt lat="51.469815" lon="16.905973"></trkpt><trkpt lat="51.46954" lon="16.905743"></trkpt><trkpt lat="51.466933" lon="16.903164"></trkpt><trkpt lat="51.466955" lon="16.902839"></trkpt><trkpt lat="51.467058" lon="16.89816"></trkpt><trkpt lat="51.466868" lon="16.897817"></trkpt><trkpt lat="51.466445" lon="16.897194"></trkpt><trkpt lat="51.464352" lon="16.893429"></trkpt><trkpt lat="51.464307" lon="16.892652"></trkpt><trkpt lat="51.464315" lon="16.891831"></trkpt><trkpt lat="51.46573" lon="16.867182"></trkpt><trkpt lat="51.465831" lon="16.866873"></trkpt><trkpt lat="51.46626" lon="16.865162"></trkpt><trkpt lat="51.466298" lon="16.864708"></trkpt><trkpt lat="51.466469" lon="16.860407"></trkpt><trkpt lat="51.466932" lon="16.855066"></trkpt><trkpt lat="51.467071" lon="16.854045"></trkpt><trkpt lat="51.470005" lon="16.839094"></trkpt><trkpt lat="51.470255" lon="16.838353"></trkpt><trkpt lat="51.470545" lon="16.837325"></trkpt><trkpt lat="51.471132" lon="16.834729"></trkpt><trkpt lat="51.47123" lon="16.834167"></trkpt><trkpt lat="51.476235" lon="16.794991"></trkpt><trkpt lat="51.476218" lon="16.794577"></trkpt><trkpt lat="51.476335" lon="16.793961"></trkpt><trkpt lat="51.476767" lon="16.792219"></trkpt><trkpt lat="51.477014" lon="16.791432"></trkpt><trkpt lat="51.479048" lon="16.783581"></trkpt><trkpt lat="51.478959" lon="16.784008"></trkpt><trkpt lat="51.47889" lon="16.78447"></trkpt><trkpt lat="51.479043" lon="16.783701"></trkpt><trkpt lat="51.481437" lon="16.767858"></trkpt><trkpt lat="51.481351" lon="16.767257"></trkpt><trkpt lat="51.481307" lon="16.766767"></trkpt><trkpt lat="51.480969" lon="16.764351"></trkpt><trkpt lat="51.480673" lon="16.763568"></trkpt><trkpt lat="51.476567" lon="16.750648"></trkpt><trkpt lat="51.476618" lon="16.750028"></trkpt><trkpt lat="51.476675" lon="16.748499"></trkpt><trkpt lat="51.476667" lon="16.747608"></trkpt><trkpt lat="51.476725" lon="16.747036"></trkpt><trkpt lat="51.476976" lon="16.739193"></trkpt><trkpt lat="51.47665" lon="16.738241"></trkpt><trkpt lat="51.472683" lon="16.724023"></trkpt><trkpt lat="51.472681" lon="16.722737"></trkpt><trkpt lat="51.472952" lon="16.717539"></trkpt><trkpt lat="51.472957" lon="16.715685"></trkpt><trkpt lat="51.473156" lon="16.71189"></trkpt><trkpt lat="51.473084" lon="16.707469"></trkpt><trkpt lat="51.472908" lon="16.706925"></trkpt><trkpt lat="51.472636" lon="16.70668"></trkpt><trkpt lat="51.472325" lon="16.706226"></trkpt><trkpt lat="51.472274" lon="16.705648"></trkpt><trkpt lat="51.472096" lon="16.701624"></trkpt><trkpt lat="51.471851" lon="16.699889"></trkpt><trkpt lat="51.471686" lon="16.699258"></trkpt><trkpt lat="51.471251" lon="16.698309"></trkpt><trkpt lat="51.471" lon="16.697628"></trkpt><trkpt lat="51.470966" lon="16.69724"></trkpt><trkpt lat="51.469406" lon="16.685914"></trkpt><trkpt lat="51.469303" lon="16.685634"></trkpt><trkpt lat="51.466646" lon="16.679478"></trkpt><trkpt lat="51.466077" lon="16.679193"></trkpt><trkpt lat="51.465222" lon="16.678655"></trkpt><trkpt lat="51.464141" lon="16.67773"></trkpt><trkpt lat="51.464128" lon="16.676804"></trkpt><trkpt lat="51.464187" lon="16.675934"></trkpt><trkpt lat="51.464351" lon="16.675482"></trkpt><trkpt lat="51.46465" lon="16.674833"></trkpt><trkpt lat="51.466683" lon="16.66946"></trkpt><trkpt lat="51.46668" lon="16.66896"></trkpt><trkpt lat="51.466737" lon="16.667861"></trkpt><trkpt lat="51.466835" lon="16.667168"></trkpt><trkpt lat="51.467035" lon="16.665038"></trkpt><trkpt lat="51.466939" lon="16.664342"></trkpt><trkpt lat="51.466893" lon="16.663779"></trkpt><trkpt lat="51.466893" lon="16.663406"></trkpt><trkpt lat="51.466981" lon="16.661485"></trkpt><trkpt lat="51.46703" lon="16.660942"></trkpt><trkpt lat="51.467058" lon="16.659621"></trkpt><trkpt lat="51.466978" lon="16.656055"></trkpt><trkpt lat="51.466924" lon="16.655715"></trkpt><trkpt lat="51.466902" lon="16.655394"></trkpt><trkpt lat="51.466732" lon="16.646773"></trkpt><trkpt lat="51.467002" lon="16.646272"></trkpt><trkpt lat="51.468481" lon="16.642979"></trkpt><trkpt lat="51.468593" lon="16.642593"></trkpt><trkpt lat="51.471105" lon="16.635317"></trkpt><trkpt lat="51.471254" lon="16.634785"></trkpt><trkpt lat="51.471336" lon="16.634379"></trkpt><trkpt lat="51.471455" lon="16.633603"></trkpt><trkpt lat="51.4714" lon="16.633029"></trkpt><trkpt lat="51.471292" lon="16.632333"></trkpt><trkpt lat="51.471278" lon="16.631981"></trkpt><trkpt lat="51.471297" lon="16.631372"></trkpt><trkpt lat="51.471342" lon="16.630979"></trkpt><trkpt lat="51.471717" lon="16.628764"></trkpt><trkpt lat="51.471931" lon="16.628505"></trkpt><trkpt lat="51.472196" lon="16.628367"></trkpt><trkpt lat="51.472347" lon="16.628149"></trkpt><trkpt lat="51.472505" lon="16.62752"></trkpt><trkpt lat="51.473998" lon="16.61974"></trkpt><trkpt lat="51.473973" lon="16.619205"></trkpt><trkpt lat="51.473865" lon="16.618748"></trkpt><trkpt lat="51.473555" lon="16.618498"></trkpt><trkpt lat="51.470925" lon="16.615833"></trkpt><trkpt lat="51.470892" lon="16.615499"></trkpt><trkpt lat="51.470807" lon="16.613941"></trkpt><trkpt lat="51.470679" lon="16.614184"></trkpt><trkpt lat="51.470517" lon="16.61445"></trkpt><trkpt lat="51.470598" lon="16.614157"></trkpt><trkpt lat="51.470427" lon="16.613915"></trkpt><trkpt lat="51.470202" lon="16.613961"></trkpt><trkpt lat="51.470118" lon="16.614492"></trkpt><trkpt lat="51.470463" lon="16.614797"></trkpt><trkpt lat="51.470662" lon="16.614812"></trkpt><trkpt lat="51.470811" lon="16.614594"></trkpt><trkpt lat="51.470869" lon="16.614232"></trkpt><trkpt lat="51.471948" lon="16.609129"></trkpt><trkpt lat="51.472205" lon="16.608566"></trkpt><trkpt lat="51.472341" lon="16.608193"></trkpt><trkpt lat="51.472448" lon="16.607809"></trkpt><trkpt lat="51.473026" lon="16.606095"></trkpt><trkpt lat="51.474913" lon="16.601431"></trkpt><trkpt lat="51.475167" lon="16.600954"></trkpt><trkpt lat="51.477882" lon="16.594821"></trkpt><trkpt lat="51.477953" lon="16.594181"></trkpt><trkpt lat="51.478387" lon="16.591408"></trkpt><trkpt lat="51.478505" lon="16.5909"></trkpt><trkpt lat="51.479319" lon="16.588146"></trkpt><trkpt lat="51.479637" lon="16.587334"></trkpt><trkpt lat="51.480632" lon="16.584114"></trkpt><trkpt lat="51.480693" lon="16.583473"></trkpt><trkpt lat="51.480726" lon="16.582815"></trkpt><trkpt lat="51.480732" lon="16.581886"></trkpt><trkpt lat="51.480692" lon="16.581375"></trkpt><trkpt lat="51.479863" lon="16.575649"></trkpt><trkpt lat="51.479654" lon="16.574736"></trkpt><trkpt lat="51.479548" lon="16.57394"></trkpt><trkpt lat="51.47955" lon="16.573357"></trkpt><trkpt lat="51.479654" lon="16.572552"></trkpt><trkpt lat="51.4817" lon="16.561357"></trkpt><trkpt lat="51.481882" lon="16.560859"></trkpt><trkpt lat="51.487267" lon="16.54343"></trkpt><trkpt lat="51.48725" lon="16.542766"></trkpt><trkpt lat="51.487123" lon="16.542164"></trkpt><trkpt lat="51.486965" lon="16.541701"></trkpt><trkpt lat="51.4868" lon="16.541386"></trkpt><trkpt lat="51.48506" lon="16.537519"></trkpt><trkpt lat="51.480084" lon="16.52449"></trkpt><trkpt lat="51.480173" lon="16.523983"></trkpt><trkpt lat="51.481207" lon="16.515276"></trkpt><trkpt lat="51.481004" lon="16.515122"></trkpt><trkpt lat="51.480921" lon="16.514825"></trkpt><trkpt lat="51.480879" lon="16.514423"></trkpt><trkpt lat="51.480698" lon="16.513816"></trkpt><trkpt lat="51.480617" lon="16.51334"></trkpt><trkpt lat="51.480532" lon="16.512629"></trkpt><trkpt lat="51.480508" lon="16.511983"></trkpt><trkpt lat="51.480522" lon="16.511197"></trkpt><trkpt lat="51.481659" lon="16.495929"></trkpt><trkpt lat="51.481777" lon="16.495648"></trkpt><trkpt lat="51.482965" lon="16.492251"></trkpt><trkpt lat="51.482526" lon="16.491813"></trkpt><trkpt lat="51.482139" lon="16.491266"></trkpt><trkpt lat="51.481901" lon="16.490801"></trkpt><trkpt lat="51.481791" lon="16.490418"></trkpt><trkpt lat="51.48089" lon="16.48814"></trkpt><trkpt lat="51.48056" lon="16.488036"></trkpt><trkpt lat="51.479538" lon="16.487498"></trkpt><trkpt lat="51.478967" lon="16.487047"></trkpt><trkpt lat="51.477124" lon="16.485267"></trkpt><trkpt lat="51.477027" lon="16.48491"></trkpt><trkpt lat="51.47703" lon="16.484219"></trkpt><trkpt lat="51.477115" lon="16.48334"></trkpt><trkpt lat="51.477506" lon="16.474718"></trkpt><trkpt lat="51.477237" lon="16.474702"></trkpt><trkpt lat="51.476882" lon="16.474789"></trkpt><trkpt lat="51.461529" lon="16.476744"></trkpt><trkpt lat="51.4615" lon="16.476424"></trkpt><trkpt lat="51.461492" lon="16.476761"></trkpt><trkpt lat="51.461504" lon="16.476296"></trkpt><trkpt lat="51.461463" lon="16.475931"></trkpt><trkpt lat="51.460753" lon="16.471873"></trkpt><trkpt lat="51.460381" lon="16.471784"></trkpt><trkpt lat="51.459992" lon="16.471797"></trkpt><trkpt lat="51.459533" lon="16.471941"></trkpt><trkpt lat="51.458096" lon="16.472035"></trkpt><trkpt lat="51.457521" lon="16.471858"></trkpt><trkpt lat="51.448273" lon="16.467678"></trkpt><trkpt lat="51.447835" lon="16.467166"></trkpt><trkpt lat="51.447486" lon="16.466923"></trkpt><trkpt lat="51.444556" lon="16.465348"></trkpt><trkpt lat="51.443972" lon="16.465177"></trkpt><trkpt lat="51.438233" lon="16.462686"></trkpt><trkpt lat="51.437906" lon="16.462313"></trkpt><trkpt lat="51.435877" lon="16.460395"></trkpt><trkpt lat="51.435347" lon="16.460019"></trkpt><trkpt lat="51.433402" lon="16.459053"></trkpt><trkpt lat="51.432844" lon="16.459442"></trkpt><trkpt lat="51.42949" lon="16.461342"></trkpt><trkpt lat="51.428849" lon="16.46146"></trkpt><trkpt lat="51.421738" lon="16.46364"></trkpt><trkpt lat="51.421311" lon="16.463892"></trkpt><trkpt lat="51.420946" lon="16.464193"></trkpt><trkpt lat="51.420622" lon="16.46456"></trkpt><trkpt lat="51.420154" lon="16.464998"></trkpt><trkpt lat="51.420004" lon="16.46472"></trkpt><trkpt lat="51.419874" lon="16.464409"></trkpt><trkpt lat="51.411867" lon="16.448802"></trkpt><trkpt lat="51.411206" lon="16.448722"></trkpt><trkpt lat="51.409797" lon="16.448299"></trkpt><trkpt lat="51.409599" lon="16.44809"></trkpt><trkpt lat="51.409466" lon="16.447808"></trkpt><trkpt lat="51.409376" lon="16.447392"></trkpt><trkpt lat="51.408339" lon="16.441064"></trkpt><trkpt lat="51.408543" lon="16.440567"></trkpt><trkpt lat="51.408865" lon="16.439895"></trkpt><trkpt lat="51.409226" lon="16.439454"></trkpt><trkpt lat="51.410795" lon="16.43711"></trkpt><trkpt lat="51.411035" lon="16.436347"></trkpt><trkpt lat="51.411655" lon="16.43477"></trkpt><trkpt lat="51.411945" lon="16.434348"></trkpt><trkpt lat="51.413085" lon="16.433061"></trkpt><trkpt lat="51.413758" lon="16.432777"></trkpt><trkpt lat="51.414571" lon="16.432271"></trkpt><trkpt lat="51.414662" lon="16.431951"></trkpt><trkpt lat="51.416179" lon="16.427513"></trkpt><trkpt lat="51.416397" lon="16.42733"></trkpt><trkpt lat="51.41649" lon="16.427046"></trkpt><trkpt lat="51.416584" lon="16.426578"></trkpt><trkpt lat="51.417005" lon="16.424938"></trkpt><trkpt lat="51.417228" lon="16.423584"></trkpt><trkpt lat="51.417206" lon="16.423044"></trkpt><trkpt lat="51.417291" lon="16.422653"></trkpt><trkpt lat="51.417462" lon="16.42217"></trkpt><trkpt lat="51.417605" lon="16.421561"></trkpt><trkpt lat="51.41766" lon="16.421017"></trkpt><trkpt lat="51.417843" lon="16.420311"></trkpt><trkpt lat="51.418041" lon="16.420213"></trkpt><trkpt lat="51.418007" lon="16.41974"></trkpt><trkpt lat="51.41789" lon="16.418977"></trkpt><trkpt lat="51.417858" lon="16.418643"></trkpt><trkpt lat="51.417744" lon="16.41784"></trkpt><trkpt lat="51.417532" lon="16.417834"></trkpt><trkpt lat="51.417111" lon="16.417943"></trkpt><trkpt lat="51.416724" lon="16.417984"></trkpt><trkpt lat="51.416968" lon="16.417922"></trkpt><trkpt lat="51.417304" lon="16.417878"></trkpt><trkpt lat="51.41777" lon="16.41807"></trkpt><trkpt lat="51.417863" lon="16.419004"></trkpt><trkpt lat="51.417959" lon="16.419627"></trkpt><trkpt lat="51.418108" lon="16.420269"></trkpt><trkpt lat="51.418307" lon="16.42029"></trkpt><trkpt lat="51.424431" lon="16.41863"></trkpt><trkpt lat="51.424598" lon="16.418374"></trkpt><trkpt lat="51.426563" lon="16.415921"></trkpt><trkpt lat="51.42704" lon="16.415505"></trkpt><trkpt lat="51.427553" lon="16.414971"></trkpt><trkpt lat="51.427848" lon="16.414448"></trkpt><trkpt lat="51.427982" lon="16.414014"></trkpt><trkpt lat="51.428141" lon="16.413287"></trkpt><trkpt lat="51.430831" lon="16.397261"></trkpt><trkpt lat="51.430879" lon="16.396682"></trkpt><trkpt lat="51.431042" lon="16.392433"></trkpt><trkpt lat="51.431036" lon="16.391981"></trkpt><trkpt lat="51.430837" lon="16.388846"></trkpt><trkpt lat="51.430668" lon="16.388357"></trkpt><trkpt lat="51.430629" lon="16.387991"></trkpt><trkpt lat="51.430669" lon="16.387332"></trkpt><trkpt lat="51.431151" lon="16.382814"></trkpt><trkpt lat="51.431393" lon="16.382063"></trkpt><trkpt lat="51.431658" lon="16.381493"></trkpt><trkpt lat="51.432084" lon="16.380831"></trkpt><trkpt lat="51.433762" lon="16.378813"></trkpt><trkpt lat="51.433981" lon="16.378729"></trkpt><trkpt lat="51.442008" lon="16.374526"></trkpt><trkpt lat="51.442381" lon="16.373849"></trkpt><trkpt lat="51.443205" lon="16.371855"></trkpt><trkpt lat="51.443268" lon="16.371476"></trkpt><trkpt lat="51.444715" lon="16.364721"></trkpt><trkpt lat="51.444917" lon="16.364297"></trkpt><trkpt lat="51.445165" lon="16.363849"></trkpt><trkpt lat="51.445574" lon="16.362909"></trkpt><trkpt lat="51.445766" lon="16.362347"></trkpt><trkpt lat="51.447775" lon="16.357546"></trkpt><trkpt lat="51.447966" lon="16.357401"></trkpt><trkpt lat="51.44853" lon="16.356882"></trkpt><trkpt lat="51.448767" lon="16.356512"></trkpt><trkpt lat="51.449807" lon="16.354552"></trkpt><trkpt lat="51.449923" lon="16.354079"></trkpt><trkpt lat="51.45035" lon="16.352754"></trkpt><trkpt lat="51.450712" lon="16.352457"></trkpt><trkpt lat="51.450881" lon="16.35223"></trkpt><trkpt lat="51.451032" lon="16.351895"></trkpt><trkpt lat="51.451264" lon="16.351162"></trkpt><trkpt lat="51.451426" lon="16.350975"></trkpt><trkpt lat="51.451554" lon="16.350657"></trkpt><trkpt lat="51.455261" lon="16.342797"></trkpt><trkpt lat="51.455662" lon="16.342186"></trkpt><trkpt lat="51.455962" lon="16.341798"></trkpt><trkpt lat="51.456116" lon="16.341524"></trkpt><trkpt lat="51.457082" lon="16.340031"></trkpt><trkpt lat="51.457733" lon="16.338813"></trkpt><trkpt lat="51.457887" lon="16.338458"></trkpt><trkpt lat="51.460869" lon="16.332837"></trkpt><trkpt lat="51.461296" lon="16.332483"></trkpt><trkpt lat="51.462719" lon="16.331054"></trkpt><trkpt lat="51.463252" lon="16.330395"></trkpt><trkpt lat="51.464602" lon="16.328363"></trkpt><trkpt lat="51.464845" lon="16.327724"></trkpt><trkpt lat="51.46501" lon="16.327128"></trkpt><trkpt lat="51.472412" lon="16.294274"></trkpt><trkpt lat="51.472435" lon="16.293688"></trkpt><trkpt lat="51.472388" lon="16.28362"></trkpt><trkpt lat="51.47233" lon="16.282618"></trkpt><trkpt lat="51.471358" lon="16.274191"></trkpt><trkpt lat="51.471043" lon="16.273165"></trkpt><trkpt lat="51.470882" lon="16.272201"></trkpt><trkpt lat="51.471089" lon="16.271999"></trkpt><trkpt lat="51.471308" lon="16.271873"></trkpt><trkpt lat="51.471501" lon="16.271719"></trkpt><trkpt lat="51.474937" lon="16.268363"></trkpt><trkpt lat="51.475419" lon="16.268178"></trkpt><trkpt lat="51.480436" lon="16.265575"></trkpt><trkpt lat="51.48066" lon="16.265412"></trkpt><trkpt lat="51.481275" lon="16.265049"></trkpt><trkpt lat="51.481805" lon="16.264837"></trkpt><trkpt lat="51.484762" lon="16.264115"></trkpt><trkpt lat="51.485353" lon="16.264097"></trkpt><trkpt lat="51.486884" lon="16.263855"></trkpt><trkpt lat="51.496157" lon="16.263485"></trkpt><trkpt lat="51.496539" lon="16.26355"></trkpt><trkpt lat="51.499417" lon="16.263691"></trkpt><trkpt lat="51.499851" lon="16.263475"></trkpt><trkpt lat="51.501353" lon="16.262964"></trkpt><trkpt lat="51.501558" lon="16.263071"></trkpt><trkpt lat="51.507678" lon="16.265177"></trkpt><trkpt lat="51.507857" lon="16.264988"></trkpt><trkpt lat="51.508061" lon="16.264844"></trkpt><trkpt lat="51.509224" lon="16.264206"></trkpt><trkpt lat="51.509435" lon="16.264272"></trkpt><trkpt lat="51.509637" lon="16.264251"></trkpt><trkpt lat="51.509952" lon="16.26414"></trkpt><trkpt lat="51.510165" lon="16.264104"></trkpt><trkpt lat="51.509984" lon="16.263965"></trkpt><trkpt lat="51.51023" lon="16.264063"></trkpt><trkpt lat="51.510536" lon="16.264005"></trkpt><trkpt lat="51.511315" lon="16.263687"></trkpt><trkpt lat="51.511505" lon="16.263548"></trkpt><trkpt lat="51.511951" lon="16.263479"></trkpt><trkpt lat="51.512525" lon="16.263201"></trkpt><trkpt lat="51.512673" lon="16.262871"></trkpt><trkpt lat="51.512927" lon="16.262622"></trkpt><trkpt lat="51.513145" lon="16.262459"></trkpt><trkpt lat="51.513612" lon="16.261982"></trkpt><trkpt lat="51.514982" lon="16.260308"></trkpt><trkpt lat="51.515339" lon="16.259744"></trkpt><trkpt lat="51.532037" lon="16.23686"></trkpt><trkpt lat="51.532452" lon="16.236371"></trkpt><trkpt lat="51.534436" lon="16.234447"></trkpt><trkpt lat="51.534632" lon="16.234331"></trkpt><trkpt lat="51.539879" lon="16.231916"></trkpt><trkpt lat="51.540151" lon="16.231913"></trkpt><trkpt lat="51.542261" lon="16.231538"></trkpt><trkpt lat="51.542583" lon="16.231203"></trkpt><trkpt lat="51.542838" lon="16.230983"></trkpt><trkpt lat="51.54311" lon="16.230956"></trkpt><trkpt lat="51.543619" lon="16.231089"></trkpt><trkpt lat="51.544048" lon="16.231043"></trkpt><trkpt lat="51.544377" lon="16.231189"></trkpt><trkpt lat="51.546144" lon="16.232284"></trkpt><trkpt lat="51.546725" lon="16.232518"></trkpt><trkpt lat="51.546889" lon="16.232182"></trkpt><trkpt lat="51.547015" lon="16.231776"></trkpt><trkpt lat="51.547245" lon="16.23121"></trkpt><trkpt lat="51.547428" lon="16.231032"></trkpt><trkpt lat="51.547635" lon="16.230942"></trkpt><trkpt lat="51.54826" lon="16.230745"></trkpt><trkpt lat="51.550738" lon="16.229622"></trkpt><trkpt lat="51.550812" lon="16.229234"></trkpt><trkpt lat="51.551576" lon="16.221048"></trkpt><trkpt lat="51.551086" lon="16.22055"></trkpt><trkpt lat="51.550645" lon="16.220018"></trkpt><trkpt lat="51.550647" lon="16.219451"></trkpt><trkpt lat="51.550881" lon="16.218873"></trkpt><trkpt lat="51.552692" lon="16.213239"></trkpt><trkpt lat="51.552768" lon="16.212539"></trkpt><trkpt lat="51.553143" lon="16.210575"></trkpt><trkpt lat="51.553201" lon="16.21015"></trkpt><trkpt lat="51.553169" lon="16.209603"></trkpt><trkpt lat="51.553058" lon="16.209085"></trkpt><trkpt lat="51.553013" lon="16.208722"></trkpt><trkpt lat="51.552966" lon="16.207713"></trkpt><trkpt lat="51.553028" lon="16.207161"></trkpt><trkpt lat="51.55307" lon="16.20649"></trkpt><trkpt lat="51.553005" lon="16.205979"></trkpt><trkpt lat="51.55292" lon="16.205565"></trkpt><trkpt lat="51.552747" lon="16.203936"></trkpt><trkpt lat="51.552727" lon="16.203099"></trkpt><trkpt lat="51.552548" lon="16.200627"></trkpt><trkpt lat="51.552357" lon="16.200317"></trkpt><trkpt lat="51.552121" lon="16.200054"></trkpt><trkpt lat="51.551932" lon="16.199674"></trkpt><trkpt lat="51.552103" lon="16.199345"></trkpt><trkpt lat="51.55237" lon="16.198957"></trkpt><trkpt lat="51.552901" lon="16.197965"></trkpt><trkpt lat="51.552966" lon="16.197603"></trkpt><trkpt lat="51.553183" lon="16.1958"></trkpt><trkpt lat="51.553242" lon="16.194558"></trkpt><trkpt lat="51.554223" lon="16.184636"></trkpt><trkpt lat="51.554303" lon="16.18425"></trkpt><trkpt lat="51.5551" lon="16.179186"></trkpt><trkpt lat="51.555077" lon="16.178718"></trkpt><trkpt lat="51.555013" lon="16.178376"></trkpt><trkpt lat="51.555154" lon="16.178038"></trkpt><trkpt lat="51.555519" lon="16.177998"></trkpt><trkpt lat="51.556096" lon="16.177857"></trkpt><trkpt lat="51.560484" lon="16.176265"></trkpt><trkpt lat="51.560743" lon="16.176221"></trkpt><trkpt lat="51.560746" lon="16.175748"></trkpt><trkpt lat="51.560918" lon="16.175569"></trkpt><trkpt lat="51.561168" lon="16.175435"></trkpt><trkpt lat="51.561957" lon="16.175128"></trkpt><trkpt lat="51.571343" lon="16.170174"></trkpt><trkpt lat="51.571824" lon="16.169411"></trkpt><trkpt lat="51.574984" lon="16.165194"></trkpt><trkpt lat="51.575295" lon="16.164917"></trkpt><trkpt lat="51.575585" lon="16.164794"></trkpt><trkpt lat="51.576192" lon="16.164832"></trkpt><trkpt lat="51.576943" lon="16.164645"></trkpt><trkpt lat="51.577134" lon="16.164316"></trkpt><trkpt lat="51.577373" lon="16.164093"></trkpt><trkpt lat="51.577777" lon="16.163958"></trkpt><trkpt lat="51.5782" lon="16.163965"></trkpt><trkpt lat="51.578599" lon="16.164034"></trkpt><trkpt lat="51.578888" lon="16.164272"></trkpt><trkpt lat="51.579252" lon="16.164646"></trkpt><trkpt lat="51.583331" lon="16.168023"></trkpt><trkpt lat="51.583727" lon="16.168063"></trkpt><trkpt lat="51.587035" lon="16.168854"></trkpt><trkpt lat="51.587231" lon="16.169222"></trkpt><trkpt lat="51.587409" lon="16.169409"></trkpt><trkpt lat="51.587646" lon="16.169507"></trkpt><trkpt lat="51.587925" lon="16.16953"></trkpt><trkpt lat="51.597826" lon="16.167358"></trkpt><trkpt lat="51.597742" lon="16.166813"></trkpt><trkpt lat="51.597349" lon="16.163121"></trkpt><trkpt lat="51.597318" lon="16.16261"></trkpt><trkpt lat="51.597354" lon="16.158897"></trkpt><trkpt lat="51.59744" lon="16.158545"></trkpt><trkpt lat="51.597432" lon="16.158027"></trkpt><trkpt lat="51.597473" lon="16.157588"></trkpt><trkpt lat="51.597613" lon="16.157353"></trkpt><trkpt lat="51.597903" lon="16.15709"></trkpt><trkpt lat="51.597978" lon="16.156576"></trkpt><trkpt lat="51.598011" lon="16.155855"></trkpt><trkpt lat="51.598118" lon="16.155405"></trkpt><trkpt lat="51.598387" lon="16.154554"></trkpt><trkpt lat="51.601104" lon="16.143398"></trkpt><trkpt lat="51.601044" lon="16.14232"></trkpt><trkpt lat="51.601058" lon="16.139046"></trkpt><trkpt lat="51.601126" lon="16.137763"></trkpt><trkpt lat="51.601206" lon="16.137032"></trkpt><trkpt lat="51.601295" lon="16.136639"></trkpt><trkpt lat="51.601424" lon="16.136383"></trkpt><trkpt lat="51.601878" lon="16.135867"></trkpt><trkpt lat="51.603203" lon="16.134041"></trkpt><trkpt lat="51.603485" lon="16.133745"></trkpt><trkpt lat="51.603739" lon="16.133644"></trkpt><trkpt lat="51.604309" lon="16.133657"></trkpt><trkpt lat="51.604568" lon="16.133465"></trkpt><trkpt lat="51.604735" lon="16.133247"></trkpt><trkpt lat="51.604975" lon="16.132659"></trkpt><trkpt lat="51.605147" lon="16.132364"></trkpt><trkpt lat="51.605392" lon="16.132094"></trkpt><trkpt lat="51.605611" lon="16.131785"></trkpt><trkpt lat="51.605847" lon="16.13121"></trkpt><trkpt lat="51.605966" lon="16.130832"></trkpt><trkpt lat="51.606113" lon="16.130239"></trkpt><trkpt lat="51.606256" lon="16.12978"></trkpt><trkpt lat="51.606418" lon="16.129426"></trkpt><trkpt lat="51.60976" lon="16.123174"></trkpt><trkpt lat="51.609938" lon="16.123014"></trkpt><trkpt lat="51.61128" lon="16.122055"></trkpt><trkpt lat="51.611589" lon="16.122149"></trkpt><trkpt lat="51.612075" lon="16.122233"></trkpt><trkpt lat="51.612317" lon="16.122144"></trkpt><trkpt lat="51.612633" lon="16.121895"></trkpt><trkpt lat="51.613602" lon="16.120982"></trkpt><trkpt lat="51.613874" lon="16.120648"></trkpt><trkpt lat="51.615241" lon="16.119241"></trkpt><trkpt lat="51.615378" lon="16.11963"></trkpt><trkpt lat="51.615555" lon="16.119905"></trkpt><trkpt lat="51.616135" lon="16.120683"></trkpt><trkpt lat="51.616499" lon="16.121039"></trkpt><trkpt lat="51.61679" lon="16.12109"></trkpt><trkpt lat="51.618363" lon="16.121165"></trkpt><trkpt lat="51.618994" lon="16.121267"></trkpt><trkpt lat="51.619253" lon="16.121476"></trkpt><trkpt lat="51.624516" lon="16.12652"></trkpt><trkpt lat="51.624291" lon="16.126638"></trkpt><trkpt lat="51.624097" lon="16.126765"></trkpt><trkpt lat="51.62387" lon="16.126948"></trkpt><trkpt lat="51.624185" lon="16.12673"></trkpt><trkpt lat="51.625042" lon="16.126254"></trkpt><trkpt lat="51.628446" lon="16.123888"></trkpt><trkpt lat="51.628698" lon="16.123847"></trkpt><trkpt lat="51.628863" lon="16.124103"></trkpt><trkpt lat="51.629188" lon="16.124711"></trkpt><trkpt lat="51.629454" lon="16.125068"></trkpt><trkpt lat="51.629676" lon="16.125274"></trkpt><trkpt lat="51.630185" lon="16.125909"></trkpt><trkpt lat="51.630384" lon="16.126301"></trkpt><trkpt lat="51.63081" lon="16.127321"></trkpt><trkpt lat="51.631176" lon="16.128068"></trkpt><trkpt lat="51.631402" lon="16.12811"></trkpt><trkpt lat="51.631699" lon="16.127968"></trkpt><trkpt lat="51.63265" lon="16.127386"></trkpt><trkpt lat="51.632836" lon="16.127171"></trkpt><trkpt lat="51.634509" lon="16.124921"></trkpt><trkpt lat="51.6346" lon="16.124592"></trkpt><trkpt lat="51.635415" lon="16.122466"></trkpt><trkpt lat="51.635684" lon="16.12201"></trkpt><trkpt lat="51.636276" lon="16.120681"></trkpt><trkpt lat="51.636406" lon="16.120106"></trkpt><trkpt lat="51.639282" lon="16.109838"></trkpt><trkpt lat="51.639518" lon="16.109853"></trkpt><trkpt lat="51.639631" lon="16.110116"></trkpt><trkpt lat="51.639666" lon="16.110566"></trkpt><trkpt lat="51.639912" lon="16.110973"></trkpt><trkpt lat="51.64016" lon="16.111054"></trkpt><trkpt lat="51.640563" lon="16.111056"></trkpt><trkpt lat="51.64083" lon="16.110926"></trkpt><trkpt lat="51.641202" lon="16.110556"></trkpt><trkpt lat="51.642046" lon="16.109889"></trkpt><trkpt lat="51.642414" lon="16.109828"></trkpt><trkpt lat="51.643435" lon="16.110166"></trkpt><trkpt lat="51.644673" lon="16.110758"></trkpt><trkpt lat="51.644882" lon="16.110918"></trkpt><trkpt lat="51.646466" lon="16.11236"></trkpt><trkpt lat="51.646522" lon="16.112877"></trkpt><trkpt lat="51.646618" lon="16.113369"></trkpt><trkpt lat="51.646737" lon="16.113803"></trkpt><trkpt lat="51.646968" lon="16.114364"></trkpt><trkpt lat="51.647126" lon="16.114646"></trkpt><trkpt lat="51.647315" lon="16.114921"></trkpt><trkpt lat="51.647698" lon="16.115363"></trkpt><trkpt lat="51.650525" lon="16.119161"></trkpt><trkpt lat="51.65071" lon="16.119456"></trkpt><trkpt lat="51.650956" lon="16.119439"></trkpt><trkpt lat="51.651223" lon="16.119029"></trkpt><trkpt lat="51.652426" lon="16.116883"></trkpt><trkpt lat="51.652625" lon="16.11611"></trkpt><trkpt lat="51.652609" lon="16.115602"></trkpt><trkpt lat="51.652647" lon="16.115279"></trkpt><trkpt lat="51.653019" lon="16.108707"></trkpt><trkpt lat="51.652777" lon="16.107993"></trkpt><trkpt lat="51.651703" lon="16.104055"></trkpt><trkpt lat="51.651678" lon="16.103729"></trkpt><trkpt lat="51.651687" lon="16.103294"></trkpt><trkpt lat="51.651909" lon="16.10323"></trkpt><trkpt lat="51.652099" lon="16.102892"></trkpt><trkpt lat="51.652097" lon="16.102415"></trkpt><trkpt lat="51.652408" lon="16.102371"></trkpt><trkpt lat="51.653432" lon="16.102384"></trkpt><trkpt lat="51.658113" lon="16.101775"></trkpt><trkpt lat="51.658287" lon="16.101572"></trkpt><trkpt lat="51.658249" lon="16.101193"></trkpt><trkpt lat="51.658238" lon="16.100873"></trkpt><trkpt lat="51.658311" lon="16.100496"></trkpt><trkpt lat="51.658474" lon="16.100248"></trkpt><trkpt lat="51.658725" lon="16.099991"></trkpt><trkpt lat="51.660247" lon="16.09869"></trkpt><trkpt lat="51.660508" lon="16.098684"></trkpt><trkpt lat="51.660586" lon="16.09835"></trkpt><trkpt lat="51.660772" lon="16.098489"></trkpt><trkpt lat="51.661034" lon="16.098565"></trkpt><trkpt lat="51.661314" lon="16.0986"></trkpt><trkpt lat="51.661732" lon="16.098746"></trkpt><trkpt lat="51.661942" lon="16.098581"></trkpt><trkpt lat="51.662059" lon="16.098137"></trkpt><trkpt lat="51.663337" lon="16.094293"></trkpt><trkpt lat="51.663608" lon="16.094423"></trkpt><trkpt lat="51.663777" lon="16.094218"></trkpt><trkpt lat="51.663854" lon="16.093908"></trkpt><trkpt lat="51.663905" lon="16.093597"></trkpt><trkpt lat="51.663981" lon="16.093279"></trkpt><trkpt lat="51.664085" lon="16.092945"></trkpt><trkpt lat="51.664124" lon="16.092559"></trkpt><trkpt lat="51.664198" lon="16.092872"></trkpt><trkpt lat="51.664076" lon="16.093164"></trkpt><trkpt lat="51.664076" lon="16.092837"></trkpt><trkpt lat="51.664147" lon="16.092517"></trkpt><trkpt lat="51.664326" lon="16.092254"></trkpt><trkpt lat="51.664452" lon="16.091892"></trkpt><trkpt lat="51.664537" lon="16.091401"></trkpt><trkpt lat="51.664613" lon="16.091105"></trkpt><trkpt lat="51.665143" lon="16.089892"></trkpt><trkpt lat="51.66534" lon="16.090179"></trkpt><trkpt lat="51.665525" lon="16.090344"></trkpt><trkpt lat="51.665763" lon="16.090175"></trkpt><trkpt lat="51.665928" lon="16.090353"></trkpt><trkpt lat="51.666124" lon="16.090609"></trkpt><trkpt lat="51.666888" lon="16.091435"></trkpt><trkpt lat="51.667089" lon="16.091343"></trkpt><trkpt lat="51.667284" lon="16.091594"></trkpt><trkpt lat="51.667536" lon="16.091787"></trkpt><trkpt lat="51.667719" lon="16.092042"></trkpt><trkpt lat="51.667932" lon="16.092242"></trkpt><trkpt lat="51.668126" lon="16.092393"></trkpt><trkpt lat="51.668386" lon="16.092636"></trkpt><trkpt lat="51.67352" lon="16.096578"></trkpt><trkpt lat="51.673792" lon="16.096519"></trkpt><trkpt lat="51.674044" lon="16.096417"></trkpt><trkpt lat="51.676369" lon="16.095173"></trkpt><trkpt lat="51.676579" lon="16.095021"></trkpt><trkpt lat="51.676806" lon="16.094822"></trkpt><trkpt lat="51.677521" lon="16.094358"></trkpt><trkpt lat="51.677768" lon="16.094299"></trkpt><trkpt lat="51.679224" lon="16.093536"></trkpt><trkpt lat="51.679599" lon="16.09304"></trkpt><trkpt lat="51.681528" lon="16.090102"></trkpt><trkpt lat="51.685344" lon="16.085308"></trkpt><trkpt lat="51.685546" lon="16.085195"></trkpt><trkpt lat="51.705685" lon="16.076899"></trkpt><trkpt lat="51.705935" lon="16.077365"></trkpt><trkpt lat="51.706076" lon="16.077669"></trkpt><trkpt lat="51.706229" lon="16.077904"></trkpt><trkpt lat="51.70644" lon="16.078298"></trkpt><trkpt lat="51.706823" lon="16.079138"></trkpt><trkpt lat="51.706955" lon="16.079626"></trkpt><trkpt lat="51.710319" lon="16.095407"></trkpt><trkpt lat="51.710268" lon="16.096278"></trkpt><trkpt lat="51.710261" lon="16.099792"></trkpt><trkpt lat="51.710606" lon="16.100009"></trkpt><trkpt lat="51.714135" lon="16.101713"></trkpt><trkpt lat="51.714379" lon="16.101786"></trkpt><trkpt lat="51.720324" lon="16.104283"></trkpt><trkpt lat="51.72057" lon="16.104455"></trkpt><trkpt lat="51.721469" lon="16.104875"></trkpt><trkpt lat="51.721937" lon="16.104449"></trkpt><trkpt lat="51.728635" lon="16.099442"></trkpt><trkpt lat="51.728835" lon="16.099415"></trkpt><trkpt lat="51.730405" lon="16.098996"></trkpt><trkpt lat="51.730783" lon="16.098849"></trkpt><trkpt lat="51.73154" lon="16.098429"></trkpt><trkpt lat="51.731883" lon="16.098398"></trkpt><trkpt lat="51.732191" lon="16.098256"></trkpt><trkpt lat="51.735288" lon="16.096284"></trkpt></trkseg></trk></gpx>