<?xml version="1.0" encoding="UTF-8" standalone="no" ?><gpx xmlns="http://www.topografix.com/GPX/1/1" xmlns:gpxx="http://www.garmin.com/xmlschemas/GpxExtensions/v3" ><trk><trkseg><trkpt lat="54.053275" lon="19.205053"></trkpt><trkpt lat="54.053485" lon="19.205064"></trkpt><trkpt lat="54.053445" lon="19.204428"></trkpt><trkpt lat="54.053234" lon="19.203449"></trkpt><trkpt lat="54.05187" lon="19.200662"></trkpt><trkpt lat="54.051208" lon="19.200819"></trkpt><trkpt lat="54.04965" lon="19.201439"></trkpt><trkpt lat="54.049007" lon="19.201937"></trkpt><trkpt lat="54.046322" lon="19.203607"></trkpt><trkpt lat="54.045656" lon="19.203912"></trkpt><trkpt lat="54.04504" lon="19.204339"></trkpt><trkpt lat="54.044928" lon="19.204645"></trkpt><trkpt lat="54.045003" lon="19.20496"></trkpt><trkpt lat="54.044862" lon="19.204465"></trkpt><trkpt lat="54.044664" lon="19.204574"></trkpt><trkpt lat="54.044016" lon="19.205258"></trkpt><trkpt lat="54.033199" lon="19.218535"></trkpt><trkpt lat="54.032842" lon="19.219327"></trkpt><trkpt lat="54.032088" lon="19.22032"></trkpt><trkpt lat="54.028843" lon="19.22366"></trkpt><trkpt lat="54.027842" lon="19.224184"></trkpt><trkpt lat="54.027585" lon="19.224354"></trkpt><trkpt lat="54.027419" lon="19.224543"></trkpt><trkpt lat="54.027283" lon="19.224811"></trkpt><trkpt lat="54.026939" lon="19.225797"></trkpt><trkpt lat="54.025684" lon="19.228741"></trkpt><trkpt lat="54.017507" lon="19.245168"></trkpt><trkpt lat="54.017302" lon="19.245146"></trkpt><trkpt lat="54.016438" lon="19.244742"></trkpt><trkpt lat="54.015692" lon="19.244526"></trkpt><trkpt lat="54.013859" lon="19.245355"></trkpt><trkpt lat="54.013915" lon="19.247036"></trkpt><trkpt lat="54.013876" lon="19.250456"></trkpt><trkpt lat="54.01382" lon="19.25143"></trkpt><trkpt lat="54.013866" lon="19.251783"></trkpt><trkpt lat="54.013867" lon="19.25262"></trkpt><trkpt lat="54.01394" lon="19.253213"></trkpt><trkpt lat="54.01411" lon="19.253511"></trkpt><trkpt lat="54.014692" lon="19.253731"></trkpt><trkpt lat="54.016204" lon="19.254499"></trkpt><trkpt lat="54.016582" lon="19.254783"></trkpt><trkpt lat="54.017464" lon="19.255756"></trkpt><trkpt lat="54.018061" lon="19.256592"></trkpt><trkpt lat="54.018282" lon="19.256829"></trkpt><trkpt lat="54.018485" lon="19.256921"></trkpt><trkpt lat="54.020919" lon="19.25892"></trkpt><trkpt lat="54.021434" lon="19.259939"></trkpt><trkpt lat="54.021642" lon="19.260499"></trkpt><trkpt lat="54.021834" lon="19.261187"></trkpt><trkpt lat="54.022207" lon="19.262128"></trkpt><trkpt lat="54.022665" lon="19.263024"></trkpt><trkpt lat="54.023075" lon="19.263969"></trkpt><trkpt lat="54.023391" lon="19.265064"></trkpt><trkpt lat="54.023578" lon="19.266158"></trkpt><trkpt lat="54.023635" lon="19.266626"></trkpt><trkpt lat="54.023696" lon="19.266991"></trkpt><trkpt lat="54.023894" lon="19.268691"></trkpt><trkpt lat="54.023837" lon="19.269074"></trkpt><trkpt lat="54.023664" lon="19.270908"></trkpt><trkpt lat="54.024057" lon="19.271622"></trkpt><trkpt lat="54.024305" lon="19.271779"></trkpt><trkpt lat="54.025139" lon="19.272069"></trkpt><trkpt lat="54.025301" lon="19.272313"></trkpt><trkpt lat="54.025357" lon="19.272993"></trkpt><trkpt lat="54.02535" lon="19.273333"></trkpt><trkpt lat="54.025224" lon="19.274422"></trkpt><trkpt lat="54.024834" lon="19.279966"></trkpt><trkpt lat="54.024811" lon="19.281497"></trkpt><trkpt lat="54.024494" lon="19.284087"></trkpt><trkpt lat="54.024417" lon="19.2845"></trkpt><trkpt lat="54.024427" lon="19.284923"></trkpt><trkpt lat="54.024539" lon="19.285625"></trkpt><trkpt lat="54.024944" lon="19.289419"></trkpt><trkpt lat="54.024911" lon="19.29094"></trkpt><trkpt lat="54.02507" lon="19.29556"></trkpt><trkpt lat="54.02534" lon="19.298955"></trkpt><trkpt lat="54.027559" lon="19.321947"></trkpt><trkpt lat="54.027782" lon="19.323179"></trkpt><trkpt lat="54.02873" lon="19.327266"></trkpt><trkpt lat="54.029178" lon="19.328808"></trkpt><trkpt lat="54.02929" lon="19.329327"></trkpt><trkpt lat="54.029442" lon="19.329851"></trkpt><trkpt lat="54.030392" lon="19.332086"></trkpt><trkpt lat="54.031075" lon="19.332803"></trkpt><trkpt lat="54.032718" lon="19.334884"></trkpt><trkpt lat="54.032834" lon="19.335369"></trkpt><trkpt lat="54.032985" lon="19.335692"></trkpt><trkpt lat="54.033738" lon="19.336647"></trkpt><trkpt lat="54.040483" lon="19.34654"></trkpt><trkpt lat="54.040713" lon="19.347452"></trkpt><trkpt lat="54.043972" lon="19.363508"></trkpt><trkpt lat="54.044148" lon="19.364646"></trkpt><trkpt lat="54.048169" lon="19.387059"></trkpt><trkpt lat="54.051972" lon="19.408767"></trkpt><trkpt lat="54.055707" lon="19.425014"></trkpt><trkpt lat="54.056427" lon="19.424696"></trkpt><trkpt lat="54.069261" lon="19.418792"></trkpt><trkpt lat="54.0702" lon="19.418228"></trkpt><trkpt lat="54.07051" lon="19.418213"></trkpt><trkpt lat="54.071083" lon="19.417942"></trkpt><trkpt lat="54.076068" lon="19.414915"></trkpt><trkpt lat="54.088317" lon="19.406591"></trkpt><trkpt lat="54.100847" lon="19.398034"></trkpt><trkpt lat="54.103108" lon="19.396839"></trkpt><trkpt lat="54.103761" lon="19.397513"></trkpt><trkpt lat="54.105619" lon="19.399104"></trkpt><trkpt lat="54.110205" lon="19.393537"></trkpt><trkpt lat="54.110449" lon="19.392153"></trkpt><trkpt lat="54.11107" lon="19.386937"></trkpt><trkpt lat="54.111306" lon="19.3855"></trkpt><trkpt lat="54.11153" lon="19.38487"></trkpt><trkpt lat="54.111694" lon="19.384504"></trkpt><trkpt lat="54.111957" lon="19.384112"></trkpt><trkpt lat="54.112163" lon="19.383899"></trkpt><trkpt lat="54.112716" lon="19.383481"></trkpt><trkpt lat="54.113615" lon="19.383201"></trkpt><trkpt lat="54.126927" lon="19.380076"></trkpt><trkpt lat="54.140312" lon="19.37693"></trkpt><trkpt lat="54.142102" lon="19.376811"></trkpt><trkpt lat="54.14215" lon="19.377161"></trkpt><trkpt lat="54.142218" lon="19.378042"></trkpt><trkpt lat="54.14233" lon="19.378908"></trkpt><trkpt lat="54.14254" lon="19.379795"></trkpt><trkpt lat="54.143364" lon="19.3842"></trkpt><trkpt lat="54.143496" lon="19.384652"></trkpt><trkpt lat="54.143779" lon="19.385076"></trkpt><trkpt lat="54.144732" lon="19.386191"></trkpt><trkpt lat="54.14523" lon="19.386633"></trkpt><trkpt lat="54.150993" lon="19.390888"></trkpt><trkpt lat="54.151226" lon="19.390953"></trkpt><trkpt lat="54.151445" lon="19.391044"></trkpt><trkpt lat="54.151654" lon="19.391163"></trkpt><trkpt lat="54.151934" lon="19.391189"></trkpt><trkpt lat="54.153337" lon="19.391702"></trkpt><trkpt lat="54.153604" lon="19.392252"></trkpt><trkpt lat="54.15384" lon="19.39324"></trkpt><trkpt lat="54.15529" lon="19.39794"></trkpt><trkpt lat="54.155579" lon="19.398666"></trkpt><trkpt lat="54.155627" lon="19.398996"></trkpt><trkpt lat="54.155664" lon="19.399524"></trkpt><trkpt lat="54.155855" lon="19.406211"></trkpt><trkpt lat="54.15572" lon="19.406803"></trkpt><trkpt lat="54.155469" lon="19.407659"></trkpt><trkpt lat="54.154924" lon="19.409198"></trkpt><trkpt lat="54.154806" lon="19.409478"></trkpt><trkpt lat="54.154635" lon="19.410045"></trkpt><trkpt lat="54.152133" lon="19.416755"></trkpt><trkpt lat="54.151915" lon="19.416485"></trkpt><trkpt lat="54.151688" lon="19.416308"></trkpt><trkpt lat="54.15142" lon="19.416281"></trkpt><trkpt lat="54.151886" lon="19.416199"></trkpt><trkpt lat="54.152552" lon="19.416223"></trkpt><trkpt lat="54.152794" lon="19.416462"></trkpt><trkpt lat="54.152486" lon="19.417475"></trkpt><trkpt lat="54.152403" lon="19.417825"></trkpt><trkpt lat="54.15273" lon="19.41685"></trkpt><trkpt lat="54.153189" lon="19.415688"></trkpt><trkpt lat="54.153416" lon="19.415723"></trkpt><trkpt lat="54.154006" lon="19.415938"></trkpt><trkpt lat="54.158793" lon="19.41853"></trkpt><trkpt lat="54.158996" lon="19.418818"></trkpt><trkpt lat="54.159023" lon="19.419202"></trkpt><trkpt lat="54.158244" lon="19.440108"></trkpt></trkseg></trk></gpx>