<?xml version="1.0" encoding="UTF-8" standalone="no" ?><gpx xmlns="http://www.topografix.com/GPX/1/1" xmlns:gpxx="http://www.garmin.com/xmlschemas/GpxExtensions/v3" ><trk><trkseg><trkpt lat="53.3140085824" lon="19.2576555535"></trkpt><trkpt lat="53.3142773062" lon="19.2574719898"></trkpt><trkpt lat="53.3145534899" lon="19.2570616957"></trkpt><trkpt lat="53.3158368431" lon="19.2547469493"></trkpt><trkpt lat="53.3158632461" lon="19.2542736232"></trkpt><trkpt lat="53.3158799261" lon="19.2483441811"></trkpt><trkpt lat="53.3156672772" lon="19.2480182089"></trkpt><trkpt lat="53.3155824523" lon="19.2474712059"></trkpt><trkpt lat="53.3156317379" lon="19.2467032559"></trkpt><trkpt lat="53.315750258" lon="19.2460914608"></trkpt><trkpt lat="53.3159328159" lon="19.2455543485"></trkpt><trkpt lat="53.3161303774" lon="19.2446826305"></trkpt><trkpt lat="53.3162417728" lon="19.2440125812"></trkpt><trkpt lat="53.3161505777" lon="19.2433404364"></trkpt><trkpt lat="53.3155269641" lon="19.2434255965"></trkpt><trkpt lat="53.3147207089" lon="19.2440477014"></trkpt><trkpt lat="53.3141017891" lon="19.2446824629"></trkpt><trkpt lat="53.3129904326" lon="19.245496681"></trkpt><trkpt lat="53.3124819025" lon="19.2457526643"></trkpt><trkpt lat="53.3108090423" lon="19.2463249806"></trkpt><trkpt lat="53.310271427000004" lon="19.2468557227"></trkpt><trkpt lat="53.3099980932" lon="19.2470170744"></trkpt><trkpt lat="53.3032424469" lon="19.2525591888"></trkpt><trkpt lat="53.3026614133" lon="19.2534190882"></trkpt><trkpt lat="53.2972713467" lon="19.2600805219"></trkpt><trkpt lat="53.2968861144" lon="19.260266684"></trkpt><trkpt lat="53.2966340706" lon="19.2605083343"></trkpt><trkpt lat="53.2964471541" lon="19.2608572729"></trkpt><trkpt lat="53.2960577309" lon="19.2621422186"></trkpt><trkpt lat="53.2945962623" lon="19.2648774851"></trkpt><trkpt lat="53.2938646898" lon="19.2651462927"></trkpt><trkpt lat="53.2911286689" lon="19.267002549"></trkpt><trkpt lat="53.2906529959" lon="19.2680678051"></trkpt><trkpt lat="53.2903779019" lon="19.2691424489"></trkpt><trkpt lat="53.2896763366" lon="19.2712917365"></trkpt><trkpt lat="53.2894304115" lon="19.2718928028"></trkpt><trkpt lat="53.2892873324" lon="19.272543909"></trkpt><trkpt lat="53.289834084" lon="19.2729316559"></trkpt><trkpt lat="53.2903152891" lon="19.2734646611"></trkpt><trkpt lat="53.2907229848" lon="19.2740180343"></trkpt><trkpt lat="53.306931071" lon="19.2961559817"></trkpt><trkpt lat="53.3071781695" lon="19.2976901215"></trkpt><trkpt lat="53.3077711053" lon="19.3001243938"></trkpt><trkpt lat="53.3081821539" lon="19.3009888195"></trkpt><trkpt lat="53.3085015044" lon="19.3013812602"></trkpt><trkpt lat="53.309052866" lon="19.3017623015"></trkpt><trkpt lat="53.309354363" lon="19.3020264152"></trkpt><trkpt lat="53.3097256813" lon="19.3021260761"></trkpt><trkpt lat="53.3113433886" lon="19.3020152673"></trkpt><trkpt lat="53.3123182878" lon="19.3022677302"></trkpt><trkpt lat="53.3126720879" lon="19.3030728959"></trkpt><trkpt lat="53.312932346" lon="19.3033197429"></trkpt><trkpt lat="53.313570125" lon="19.3034582119"></trkpt><trkpt lat="53.3138607256" lon="19.3038108386"></trkpt><trkpt lat="53.3144757058" lon="19.3041568436"></trkpt><trkpt lat="53.3148424141" lon="19.3044435885"></trkpt><trkpt lat="53.3269053977" lon="19.3162583839"></trkpt><trkpt lat="53.3271943219" lon="19.3168476317"></trkpt><trkpt lat="53.3275698312" lon="19.3178413901"></trkpt><trkpt lat="53.3373546973" lon="19.3496847432"></trkpt><trkpt lat="53.33751278" lon="19.3508324772"></trkpt><trkpt lat="53.3380254172" lon="19.3534515705"></trkpt><trkpt lat="53.3383005951" lon="19.3537107389"></trkpt><trkpt lat="53.3386029303" lon="19.3540779501"></trkpt><trkpt lat="53.3383891918" lon="19.3545447383"></trkpt><trkpt lat="53.3374550287" lon="19.3558935542"></trkpt><trkpt lat="53.3367275633" lon="19.3562372122"></trkpt><trkpt lat="53.3364299219" lon="19.35656243"></trkpt><trkpt lat="53.3357840963" lon="19.3576043844"></trkpt><trkpt lat="53.3354301285" lon="19.3584044371"></trkpt><trkpt lat="53.3351335768" lon="19.3595113512"></trkpt><trkpt lat="53.3349807747" lon="19.360473007"></trkpt><trkpt lat="53.3340683207" lon="19.3697401229"></trkpt><trkpt lat="53.3340395708" lon="19.3708518986"></trkpt><trkpt lat="53.3336991817" lon="19.3751725182"></trkpt><trkpt lat="53.3333908953" lon="19.3752724305"></trkpt><trkpt lat="53.3334018756" lon="19.3761323299"></trkpt><trkpt lat="53.3334872872" lon="19.3769486435"></trkpt><trkpt lat="53.3335989341" lon="19.3773898669"></trkpt><trkpt lat="53.3342720848" lon="19.3810929079"></trkpt><trkpt lat="53.3343686443" lon="19.3819200341"></trkpt><trkpt lat="53.3401829191" lon="19.4149154797"></trkpt><trkpt lat="53.3405453525" lon="19.4160897005"></trkpt><trkpt lat="53.3407788724" lon="19.4167069439"></trkpt><trkpt lat="53.3411832154" lon="19.417242799"></trkpt><trkpt lat="53.3414874785" lon="19.4177329727"></trkpt><trkpt lat="53.3416409511" lon="19.418236725"></trkpt><trkpt lat="53.3417185675" lon="19.4187965523"></trkpt><trkpt lat="53.341813786" lon="19.4207279943"></trkpt><trkpt lat="53.3420026302" lon="19.4225676544"></trkpt><trkpt lat="53.342171777" lon="19.4231085386"></trkpt><trkpt lat="53.3423425164" lon="19.423921667"></trkpt><trkpt lat="53.3422564343" lon="19.4245615415"></trkpt><trkpt lat="53.3420287818" lon="19.4253350236"></trkpt><trkpt lat="53.3418079186" lon="19.4256575592"></trkpt><trkpt lat="53.3415046614" lon="19.4259995408"></trkpt><trkpt lat="53.3400555979" lon="19.4280078448"></trkpt><trkpt lat="53.3400467131" lon="19.4294647034"></trkpt><trkpt lat="53.3401198033" lon="19.43030742"></trkpt><trkpt lat="53.3404192049" lon="19.4319029991"></trkpt><trkpt lat="53.3405704144" lon="19.4322921708"></trkpt><trkpt lat="53.3424906246" lon="19.4362834655"></trkpt><trkpt lat="53.3439388499" lon="19.440131681"></trkpt><trkpt lat="53.3439104352" lon="19.4410242699"></trkpt><trkpt lat="53.3439934161" lon="19.4449785165"></trkpt><trkpt lat="53.3443987649" lon="19.4450214319"></trkpt><trkpt lat="53.3460475691" lon="19.4455384277"></trkpt><trkpt lat="53.3461456373" lon="19.4459859375"></trkpt><trkpt lat="53.3468263317" lon="19.4479265995"></trkpt><trkpt lat="53.3471695706" lon="19.4479556847"></trkpt><trkpt lat="53.3476105426" lon="19.4476878829"></trkpt><trkpt lat="53.3505688515" lon="19.4453762379"></trkpt><trkpt lat="53.3508467954" lon="19.4452401157"></trkpt><trkpt lat="53.3513233066" lon="19.4456150383"></trkpt><trkpt lat="53.3516419865" lon="19.445810839499998"></trkpt><trkpt lat="53.3519027475" lon="19.4461424276"></trkpt><trkpt lat="53.3527815901" lon="19.4470381178"></trkpt><trkpt lat="53.3535790443" lon="19.4480478857"></trkpt><trkpt lat="53.3538613468" lon="19.4485658035"></trkpt><trkpt lat="53.3540281467" lon="19.4491845556"></trkpt><trkpt lat="53.3543258719" lon="19.4500409346"></trkpt><trkpt lat="53.3545195777" lon="19.4504697528"></trkpt><trkpt lat="53.3548383415" lon="19.4508050289"></trkpt><trkpt lat="53.3551205602" lon="19.4510316756"></trkpt><trkpt lat="53.355460614" lon="19.4514758326"></trkpt><trkpt lat="53.3557924535" lon="19.4517552014"></trkpt><trkpt lat="53.3561531268" lon="19.4519284554"></trkpt><trkpt lat="53.3566417918" lon="19.4519950077"></trkpt><trkpt lat="53.3569424506" lon="19.4520929921"></trkpt><trkpt lat="53.3573385794" lon="19.4523242489"></trkpt><trkpt lat="53.3577974048" lon="19.4527028594"></trkpt><trkpt lat="53.3582551405" lon="19.4531950448"></trkpt><trkpt lat="53.3584987186" lon="19.4535318296"></trkpt><trkpt lat="53.3591883816" lon="19.4548000116"></trkpt><trkpt lat="53.3593836799" lon="19.4552657939"></trkpt><trkpt lat="53.3596783038" lon="19.4555465039"></trkpt><trkpt lat="53.3603859879" lon="19.4558448158"></trkpt><trkpt lat="53.3611089271" lon="19.4557859749"></trkpt><trkpt lat="53.3615516592" lon="19.4556378666"></trkpt><trkpt lat="53.3620393183" lon="19.4552942086"></trkpt><trkpt lat="53.3623838145" lon="19.4549715891"></trkpt><trkpt lat="53.3626093715" lon="19.4546550885"></trkpt><trkpt lat="53.3630402852" lon="19.4542107638"></trkpt><trkpt lat="53.3633378427" lon="19.4541332312"></trkpt><trkpt lat="53.3638807386" lon="19.4548643008"></trkpt><trkpt lat="53.3642270789" lon="19.4551756047"></trkpt><trkpt lat="53.3645705692" lon="19.4553550612"></trkpt><trkpt lat="53.3649835456" lon="19.455467714"></trkpt><trkpt lat="53.3723458741" lon="19.4588172901"></trkpt><trkpt lat="53.3727723453" lon="19.4591500517"></trkpt><trkpt lat="53.3736319095" lon="19.4594540633"></trkpt><trkpt lat="53.381447196" lon="19.4635178614"></trkpt><trkpt lat="53.381657498" lon="19.4638792891"></trkpt><trkpt lat="53.3828409389" lon="19.4655631296"></trkpt><trkpt lat="53.3841343503" lon="19.4668594748"></trkpt><trkpt lat="53.3846812695" lon="19.4671566971"></trkpt><trkpt lat="53.3849436231" lon="19.4669396896"></trkpt><trkpt lat="53.3851480577" lon="19.4661591668"></trkpt><trkpt lat="53.3862877451" lon="19.4627198204"></trkpt><trkpt lat="53.3866348397" lon="19.4614156801"></trkpt><trkpt lat="53.3867290523" lon="19.4604844507"></trkpt><trkpt lat="53.3870789967" lon="19.4589509815"></trkpt><trkpt lat="53.3904874139" lon="19.4486782048"></trkpt><trkpt lat="53.3907413017" lon="19.4488416519"></trkpt><trkpt lat="53.3909879811" lon="19.4491111301"></trkpt><trkpt lat="53.391309008" lon="19.4493161514"></trkpt><trkpt lat="53.3920633793" lon="19.4496501703"></trkpt><trkpt lat="53.3924228791" lon="19.4496299699"></trkpt><trkpt lat="53.3930624183" lon="19.4494226854"></trkpt><trkpt lat="53.3933542762" lon="19.449082464"></trkpt><trkpt lat="53.3937950805" lon="19.4488191046"></trkpt><trkpt lat="53.3943747729" lon="19.4485894404"></trkpt><trkpt lat="53.394796215" lon="19.4485153444"></trkpt><trkpt lat="53.3956246823" lon="19.4480748754"></trkpt><trkpt lat="53.3959774766" lon="19.4476236776"></trkpt><trkpt lat="53.396402942" lon="19.4472173229"></trkpt><trkpt lat="53.3984574303" lon="19.4459007774"></trkpt><trkpt lat="53.3985546604" lon="19.4464381412"></trkpt><trkpt lat="53.4001716971" lon="19.4527639635"></trkpt><trkpt lat="53.4004923049" lon="19.4532221183"></trkpt><trkpt lat="53.400784079" lon="19.4533789437"></trkpt><trkpt lat="53.4015039168" lon="19.4536294788"></trkpt><trkpt lat="53.4017340839" lon="19.4533256348"></trkpt><trkpt lat="53.4019961022" lon="19.4531608466"></trkpt><trkpt lat="53.4025160316" lon="19.4531940389"></trkpt><trkpt lat="53.4028990008" lon="19.4533878285"></trkpt><trkpt lat="53.4034770168" lon="19.4539228454"></trkpt><trkpt lat="53.4035941958" lon="19.4546804018"></trkpt><trkpt lat="53.4040029813" lon="19.4546787255"></trkpt><trkpt lat="53.4043213259" lon="19.4545646477"></trkpt><trkpt lat="53.4047503117" lon="19.4541731291"></trkpt><trkpt lat="53.4078676254" lon="19.4523544237"></trkpt><trkpt lat="53.4087607171" lon="19.4522580318"></trkpt><trkpt lat="53.4191136248" lon="19.4495789241"></trkpt><trkpt lat="53.4192224219" lon="19.4491520338"></trkpt><trkpt lat="53.4193974361" lon="19.4475399423"></trkpt><trkpt lat="53.4197633062" lon="19.4460000191"></trkpt><trkpt lat="53.4201199561" lon="19.4451438077"></trkpt><trkpt lat="53.4202971496" lon="19.4445211999"></trkpt><trkpt lat="53.4209893271" lon="19.4425676297"></trkpt><trkpt lat="53.4212712105" lon="19.4423286617"></trkpt><trkpt lat="53.4222921263" lon="19.4425755925"></trkpt><trkpt lat="53.425947139" lon="19.4410408661"></trkpt><trkpt lat="53.4262674116" lon="19.4408446457"></trkpt><trkpt lat="53.4268763568" lon="19.4407260418"></trkpt><trkpt lat="53.4273988008" lon="19.4405408856"></trkpt><trkpt lat="53.4276642557" lon="19.4403863233"></trkpt><trkpt lat="53.428228274" lon="19.4396415073"></trkpt><trkpt lat="53.4289864171" lon="19.4388934225"></trkpt><trkpt lat="53.4295431431" lon="19.4385573082"></trkpt><trkpt lat="53.4300390165" lon="19.4381411467"></trkpt><trkpt lat="53.4304423537" lon="19.437980717"></trkpt><trkpt lat="53.435504688" lon="19.4369110186"></trkpt><trkpt lat="53.4362953529" lon="19.4369416125"></trkpt><trkpt lat="53.4398713242" lon="19.437933946"></trkpt><trkpt lat="53.4404645953" lon="19.43857776"></trkpt><trkpt lat="53.4416597709" lon="19.4396199659"></trkpt><trkpt lat="53.4428841155" lon="19.440938523"></trkpt><trkpt lat="53.4441648703" lon="19.442052478"></trkpt><trkpt lat="53.4460572526" lon="19.444234455"></trkpt><trkpt lat="53.4472567029" lon="19.4461453613"></trkpt><trkpt lat="53.4475663304" lon="19.4471654389"></trkpt><trkpt lat="53.4485424031" lon="19.4497606438"></trkpt><trkpt lat="53.4489791002" lon="19.449160751"></trkpt><trkpt lat="53.44981662" lon="19.4482145179"></trkpt><trkpt lat="53.450594712" lon="19.4478486478"></trkpt><trkpt lat="53.4507510345" lon="19.4482986722"></trkpt><trkpt lat="53.4521558415" lon="19.4515075162"></trkpt><trkpt lat="53.452823963" lon="19.4525424298"></trkpt><trkpt lat="53.4531090315" lon="19.4527896959"></trkpt><trkpt lat="53.4536425397" lon="19.4533604197"></trkpt><trkpt lat="53.4539566934" lon="19.4539073389"></trkpt><trkpt lat="53.4584858548" lon="19.4601158146"></trkpt><trkpt lat="53.4598677792" lon="19.4609343074"></trkpt><trkpt lat="53.4651197121" lon="19.465140095"></trkpt><trkpt lat="53.4650524054" lon="19.4656433444"></trkpt><trkpt lat="53.464578744" lon="19.4669132866"></trkpt><trkpt lat="53.4643034823" lon="19.468251206"></trkpt><trkpt lat="53.4644598048" lon="19.4696063083"></trkpt><trkpt lat="53.4648227412" lon="19.4706017431"></trkpt><trkpt lat="53.4656261466" lon="19.4734042324"></trkpt><trkpt lat="53.4657185152" lon="19.4742512237"></trkpt><trkpt lat="53.4659880772" lon="19.4744492881"></trkpt><trkpt lat="53.4662604053" lon="19.4744264055"></trkpt><trkpt lat="53.4672284313" lon="19.4747892581"></trkpt><trkpt lat="53.4676363785" lon="19.475250011300002"></trkpt><trkpt lat="53.4701407235" lon="19.4786620326"></trkpt><trkpt lat="53.4734282736" lon="19.4823101722"></trkpt><trkpt lat="53.4822176211" lon="19.4902775064"></trkpt><trkpt lat="53.4829653706" lon="19.4905753154"></trkpt><trkpt lat="53.4837603942" lon="19.4907535147"></trkpt><trkpt lat="53.487228239" lon="19.4920819625"></trkpt><trkpt lat="53.4872419015" lon="19.4927792531"></trkpt><trkpt lat="53.4876894951" lon="19.4954467099"></trkpt><trkpt lat="53.4879883099" lon="19.496269729"></trkpt><trkpt lat="53.4881934151" lon="19.4967072643"></trkpt><trkpt lat="53.4895150736" lon="19.5002173539"></trkpt><trkpt lat="53.4903159644" lon="19.501683265"></trkpt><trkpt lat="53.4915108886" lon="19.5034815185"></trkpt><trkpt lat="53.4922195785" lon="19.504985651"></trkpt><trkpt lat="53.4940617532" lon="19.5097840391"></trkpt><trkpt lat="53.4942641761" lon="19.5104782283"></trkpt><trkpt lat="53.4947252646" lon="19.5115119684"></trkpt><trkpt lat="53.4953305218" lon="19.5125031285"></trkpt><trkpt lat="53.4964344185" lon="19.514718717"></trkpt><trkpt lat="53.4966404457" lon="19.5152707491"></trkpt><trkpt lat="53.4967946727" lon="19.5164852031"></trkpt><trkpt lat="53.4972272627" lon="19.5184780844"></trkpt><trkpt lat="53.4973130934" lon="19.5191619638"></trkpt><trkpt lat="53.4970960021" lon="19.5204669423"></trkpt><trkpt lat="53.4965774976" lon="19.5254064817"></trkpt><trkpt lat="53.4961661976" lon="19.5279623754"></trkpt><trkpt lat="53.4960421454" lon="19.5284765214"></trkpt><trkpt lat="53.4960029181" lon="19.529007934"></trkpt><trkpt lat="53.4960323386" lon="19.5305745117"></trkpt><trkpt lat="53.4960106295" lon="19.5310658589"></trkpt><trkpt lat="53.4965364262" lon="19.5363589469"></trkpt><trkpt lat="53.4969416913" lon="19.5362183824"></trkpt><trkpt lat="53.5000748467" lon="19.5356049109"></trkpt><trkpt lat="53.5005905852" lon="19.5354048349"></trkpt><trkpt lat="53.5008308105" lon="19.53621394"></trkpt><trkpt lat="53.5007987916" lon="19.536845265"></trkpt><trkpt lat="53.5006855521" lon="19.5375079382"></trkpt><trkpt lat="53.5003603343" lon="19.5403807517"></trkpt><trkpt lat="53.5005093645" lon="19.5407651458"></trkpt><trkpt lat="53.5007934272" lon="19.5413640328"></trkpt><trkpt lat="53.5010134522" lon="19.5417313278"></trkpt><trkpt lat="53.5017330386" lon="19.5432641264"></trkpt><trkpt lat="53.5022704862" lon="19.5447939076"></trkpt><trkpt lat="53.5037913825" lon="19.548348086"></trkpt><trkpt lat="53.5042078793" lon="19.5490781497"></trkpt><trkpt lat="53.5054441262" lon="19.5508812647"></trkpt><trkpt lat="53.5058399197" lon="19.5509848651"></trkpt><trkpt lat="53.5064068716" lon="19.5512986835"></trkpt><trkpt lat="53.5067648627" lon="19.5515867695"></trkpt><trkpt lat="53.5070625041" lon="19.5516156033"></trkpt><trkpt lat="53.507342292" lon="19.551307736"></trkpt><trkpt lat="53.5076131951" lon="19.5514162816"></trkpt><trkpt lat="53.5077769775" lon="19.5518135838"></trkpt><trkpt lat="53.5081682447" lon="19.5518655516"></trkpt><trkpt lat="53.5084323585" lon="19.5520898513"></trkpt><trkpt lat="53.5087222885" lon="19.5527207572"></trkpt><trkpt lat="53.5090769269" lon="19.5532046445"></trkpt><trkpt lat="53.5092065949" lon="19.5536777191"></trkpt><trkpt lat="53.5091284756" lon="19.5545092039"></trkpt><trkpt lat="53.5089553893" lon="19.5553471427"></trkpt><trkpt lat="53.5087422375" lon="19.5569015667"></trkpt><trkpt lat="53.5087191872" lon="19.5574503299"></trkpt><trkpt lat="53.5087458417" lon="19.5579115022"></trkpt><trkpt lat="53.5088348575" lon="19.5583920367"></trkpt><trkpt lat="53.5107802134" lon="19.5662966743"></trkpt><trkpt lat="53.5110711493" lon="19.5663553476"></trkpt><trkpt lat="53.5111999791" lon="19.5667757001"></trkpt><trkpt lat="53.5115971975" lon="19.5662412699"></trkpt><trkpt lat="53.5120486468" lon="19.5653253794"></trkpt><trkpt lat="53.5123580229" lon="19.5648476109"></trkpt><trkpt lat="53.5132636037" lon="19.5648777857"></trkpt><trkpt lat="53.5138870496" lon="19.5647420827"></trkpt><trkpt lat="53.5148246493" lon="19.5641824231"></trkpt><trkpt lat="53.5154401325" lon="19.563481193"></trkpt><trkpt lat="53.5160984471" lon="19.5625218842"></trkpt><trkpt lat="53.5163807496" lon="19.5617769845"></trkpt><trkpt lat="53.5163929034" lon="19.561244566"></trkpt><trkpt lat="53.5161322262" lon="19.5598374121"></trkpt><trkpt lat="53.51596836" lon="19.5584258158"></trkpt><trkpt lat="53.5159588046" lon="19.5571604837"></trkpt><trkpt lat="53.5162227508" lon="19.5561607741"></trkpt><trkpt lat="53.516491726" lon="19.5558448602"></trkpt><trkpt lat="53.5184385069" lon="19.5543704834"></trkpt><trkpt lat="53.5189228971" lon="19.5544807054"></trkpt><trkpt lat="53.5305025801" lon="19.5588919334"></trkpt><trkpt lat="53.5310002975" lon="19.5592749026"></trkpt><trkpt lat="53.5318880249" lon="19.5601889491"></trkpt><trkpt lat="53.5331492499" lon="19.5609472599"></trkpt><trkpt lat="53.5334266908" lon="19.5608553104"></trkpt><trkpt lat="53.5338761285" lon="19.5608968846"></trkpt><trkpt lat="53.5357002821" lon="19.5603922941"></trkpt><trkpt lat="53.5362729337" lon="19.5600711834"></trkpt><trkpt lat="53.536741063" lon="19.5596060716"></trkpt><trkpt lat="53.5387658793" lon="19.5582413301"></trkpt><trkpt lat="53.5393337533" lon="19.5583450142"></trkpt><trkpt lat="53.5399530083" lon="19.5585833956"></trkpt><trkpt lat="53.543343069" lon="19.5593267027"></trkpt><trkpt lat="53.5436640121" lon="19.5591714699"></trkpt><trkpt lat="53.54516102" lon="19.5586856548"></trkpt><trkpt lat="53.5455802828" lon="19.5586191025"></trkpt><trkpt lat="53.5573582817" lon="19.5622859336"></trkpt><trkpt lat="53.5626468435" lon="19.5649418235"></trkpt><trkpt lat="53.5632650927" lon="19.565407522"></trkpt><trkpt lat="53.5651236959" lon="19.5664681681"></trkpt><trkpt lat="53.5674715508" lon="19.5673374552"></trkpt><trkpt lat="53.5682051349" lon="19.5678932592"></trkpt><trkpt lat="53.5685326997" lon="19.5680003799"></trkpt><trkpt lat="53.5689559858" lon="19.5680202451"></trkpt><trkpt lat="53.5698107723" lon="19.5677861385"></trkpt><trkpt lat="53.569921162" lon="19.5672873314"></trkpt><trkpt lat="53.570119394" lon="19.5669682324"></trkpt><trkpt lat="53.5704187118" lon="19.5669020992"></trkpt><trkpt lat="53.5733793676" lon="19.5681687724"></trkpt><trkpt lat="53.5737040825" lon="19.56824027"></trkpt><trkpt lat="53.5740921646" lon="19.5679625776"></trkpt><trkpt lat="53.5750929639" lon="19.5667586848"></trkpt><trkpt lat="53.5757020768" lon="19.5662442036"></trkpt><trkpt lat="53.5763382632" lon="19.5661212411"></trkpt><trkpt lat="53.577081067500004" lon="19.5664768014"></trkpt><trkpt lat="53.5778114665" lon="19.566998994"></trkpt><trkpt lat="53.584272489" lon="19.5704864524"></trkpt><trkpt lat="53.5855518188" lon="19.56957886"></trkpt><trkpt lat="53.5859564133" lon="19.5689321123"></trkpt><trkpt lat="53.5862060264" lon="19.5682732947"></trkpt><trkpt lat="53.5864375345" lon="19.5678101107"></trkpt><trkpt lat="53.5866250377" lon="19.5673230384"></trkpt><trkpt lat="53.586810194" lon="19.5669254847"></trkpt><trkpt lat="53.5871112719" lon="19.5666818228"></trkpt><trkpt lat="53.5873859469" lon="19.5668291766"></trkpt><trkpt lat="53.5869168118" lon="19.5667005144"></trkpt><trkpt lat="53.5865982994" lon="19.5671190228"></trkpt><trkpt lat="53.5863284022" lon="19.5678873081"></trkpt><trkpt lat="53.5860258993" lon="19.5683867857"></trkpt><trkpt lat="53.5858322773" lon="19.5688685775"></trkpt><trkpt lat="53.5852251761" lon="19.5700707939"></trkpt><trkpt lat="53.58453325" lon="19.5704179723"></trkpt><trkpt lat="53.5841279011" lon="19.5707850158"></trkpt><trkpt lat="53.5839763563" lon="19.5711872634"></trkpt><trkpt lat="53.5829764791" lon="19.5733242296"></trkpt><trkpt lat="53.5826257803" lon="19.5731553342"></trkpt><trkpt lat="53.5824783426" lon="19.5735775307"></trkpt><trkpt lat="53.5821193457" lon="19.5738221984"></trkpt></trkseg><trkseg><trkpt lat="53.3934339881" lon="19.1617954988"></trkpt><trkpt lat="53.393220501" lon="19.1614269465"></trkpt><trkpt lat="53.3933818527" lon="19.1619551741"></trkpt><trkpt lat="53.3933577966" lon="19.1624215432"></trkpt><trkpt lat="53.3930385299" lon="19.1626020055"></trkpt><trkpt lat="53.3929202612" lon="19.1619995981"></trkpt><trkpt lat="53.3927063551" lon="19.1613520961"></trkpt><trkpt lat="53.3921924606" lon="19.1592468973"></trkpt><trkpt lat="53.3919145167" lon="19.1573495697"></trkpt><trkpt lat="53.3915931545" lon="19.1563044302"></trkpt><trkpt lat="53.3911914099" lon="19.1552426107"></trkpt><trkpt lat="53.3909267932" lon="19.1550510004"></trkpt><trkpt lat="53.3900673967" lon="19.1547421273"></trkpt><trkpt lat="53.3874942362" lon="19.1532872804"></trkpt><trkpt lat="53.3871971816" lon="19.1529119387"></trkpt><trkpt lat="53.3799571451" lon="19.1636167187"></trkpt><trkpt lat="53.3777069394" lon="19.1663172841"></trkpt><trkpt lat="53.3773623593" lon="19.1660915595"></trkpt><trkpt lat="53.3754993137" lon="19.1644480359"></trkpt><trkpt lat="53.3745943196" lon="19.1634112783"></trkpt><trkpt lat="53.3710713219" lon="19.1602012608"></trkpt><trkpt lat="53.3708011732" lon="19.16090752"></trkpt><trkpt lat="53.3705324493" lon="19.1614404414"></trkpt><trkpt lat="53.3701955806" lon="19.1618954111"></trkpt><trkpt lat="53.3632076718" lon="19.17144835"></trkpt><trkpt lat="53.3594227396" lon="19.1756380443"></trkpt><trkpt lat="53.3586711343" lon="19.1758268047"></trkpt><trkpt lat="53.3566806" lon="19.1766870394"></trkpt><trkpt lat="53.3563060127" lon="19.1771342978"></trkpt><trkpt lat="53.3555987477" lon="19.1778148245"></trkpt><trkpt lat="53.3550305385" lon="19.1780095361"></trkpt><trkpt lat="53.3545899857" lon="19.1782456543"></trkpt><trkpt lat="53.3543297276" lon="19.1785086785"></trkpt><trkpt lat="53.3528789878" lon="19.1809374187"></trkpt><trkpt lat="53.3527510799" lon="19.1820499487"></trkpt><trkpt lat="53.352434244" lon="19.1831541806"></trkpt><trkpt lat="53.3516866621" lon="19.1848997958"></trkpt><trkpt lat="53.3496800344" lon="19.1887542978"></trkpt><trkpt lat="53.3475722373" lon="19.1921068076"></trkpt><trkpt lat="53.347009141" lon="19.1927239671"></trkpt><trkpt lat="53.3424982522" lon="19.1967677325"></trkpt><trkpt lat="53.3418404404" lon="19.1963365674"></trkpt><trkpt lat="53.3417126164" lon="19.1967802215"></trkpt><trkpt lat="53.3417580463" lon="19.1972537991"></trkpt><trkpt lat="53.3418743871" lon="19.1976651829"></trkpt><trkpt lat="53.3421543427" lon="19.1990556568"></trkpt><trkpt lat="53.3417036477" lon="19.1994587425"></trkpt><trkpt lat="53.3339096513" lon="19.2081169132"></trkpt><trkpt lat="53.3334359061" lon="19.2091147788"></trkpt><trkpt lat="53.3276506327" lon="19.221034348"></trkpt><trkpt lat="53.3262032457" lon="19.2249419075"></trkpt><trkpt lat="53.3258572407" lon="19.2261730414"></trkpt><trkpt lat="53.3253782149" lon="19.2272230424"></trkpt><trkpt lat="53.3251150232" lon="19.2276832927"></trkpt><trkpt lat="53.3248411026" lon="19.2283614725"></trkpt><trkpt lat="53.3245577943" lon="19.2288387381"></trkpt><trkpt lat="53.3242616616" lon="19.2292183544"></trkpt><trkpt lat="53.3239111304" lon="19.229463106"></trkpt><trkpt lat="53.3235582523" lon="19.230021676"></trkpt><trkpt lat="53.3233604394" lon="19.2304233368"></trkpt><trkpt lat="53.3227997739" lon="19.23121945"></trkpt><trkpt lat="53.3222234342" lon="19.2322191596"></trkpt><trkpt lat="53.3220065944" lon="19.2326678429"></trkpt><trkpt lat="53.3218043391" lon="19.2332557496"></trkpt><trkpt lat="53.320438927" lon="19.2361993901"></trkpt><trkpt lat="53.3200324047" lon="19.2372669932"></trkpt><trkpt lat="53.3197502699" lon="19.2378581688"></trkpt><trkpt lat="53.3186855167" lon="19.2405554652"></trkpt><trkpt lat="53.3182437066" lon="19.2411996145"></trkpt><trkpt lat="53.3178730588" lon="19.2414432764"></trkpt><trkpt lat="53.3168371394" lon="19.2427035794"></trkpt><trkpt lat="53.3163546771" lon="19.2436765507"></trkpt><trkpt lat="53.3161540143" lon="19.2449459899"></trkpt><trkpt lat="53.316005487" lon="19.2455390096"></trkpt><trkpt lat="53.3157217596" lon="19.2479391675"></trkpt><trkpt lat="53.3159353305" lon="19.2483476177"></trkpt><trkpt lat="53.3162053954" lon="19.2485294212"></trkpt><trkpt lat="53.3163992688" lon="19.2489075288"></trkpt><trkpt lat="53.3161155414" lon="19.2501799855"></trkpt><trkpt lat="53.3159446344" lon="19.2513508536"></trkpt><trkpt lat="53.3159313072" lon="19.2525435984"></trkpt><trkpt lat="53.3157541975" lon="19.2551925313"></trkpt><trkpt lat="53.3154730685" lon="19.2556614149"></trkpt><trkpt lat="53.3141060639" lon="19.2575438228"></trkpt><trkpt lat="53.3138293773" lon="19.2581449728"></trkpt><trkpt lat="53.3140529227" lon="19.2575466726"></trkpt></trkseg></trk></gpx>