<?xml version="1.0" encoding="UTF-8" standalone="no" ?><gpx xmlns="http://www.topografix.com/GPX/1/1" xmlns:gpxx="http://www.garmin.com/xmlschemas/GpxExtensions/v3" ><trk><trkseg><trkpt lat="53.159474" lon="15.550907"></trkpt><trkpt lat="53.159665" lon="15.551121"></trkpt><trkpt lat="53.159872" lon="15.551183"></trkpt><trkpt lat="53.159554" lon="15.550575"></trkpt><trkpt lat="53.159366" lon="15.550431"></trkpt><trkpt lat="53.159143" lon="15.550141"></trkpt><trkpt lat="53.158994" lon="15.549871"></trkpt><trkpt lat="53.158649" lon="15.549082"></trkpt><trkpt lat="53.158385" lon="15.548631"></trkpt><trkpt lat="53.157877" lon="15.547886"></trkpt><trkpt lat="53.157653" lon="15.54783"></trkpt><trkpt lat="53.157419" lon="15.54769"></trkpt><trkpt lat="53.157032" lon="15.548262"></trkpt><trkpt lat="53.156168" lon="15.549338"></trkpt><trkpt lat="53.155969" lon="15.549237"></trkpt><trkpt lat="53.155773" lon="15.548909"></trkpt><trkpt lat="53.155607" lon="15.548532"></trkpt><trkpt lat="53.152503" lon="15.542211"></trkpt><trkpt lat="53.152209" lon="15.541483"></trkpt><trkpt lat="53.15252" lon="15.541052"></trkpt><trkpt lat="53.153215" lon="15.540311"></trkpt><trkpt lat="53.153479" lon="15.539972"></trkpt><trkpt lat="53.153923" lon="15.539303"></trkpt><trkpt lat="53.156148" lon="15.535348"></trkpt><trkpt lat="53.156241" lon="15.534679"></trkpt><trkpt lat="53.156518" lon="15.528641"></trkpt><trkpt lat="53.156301" lon="15.527837"></trkpt><trkpt lat="53.15569" lon="15.524662"></trkpt><trkpt lat="53.155672" lon="15.524228"></trkpt><trkpt lat="53.155677" lon="15.523664"></trkpt><trkpt lat="53.155927" lon="15.521274"></trkpt><trkpt lat="53.156326" lon="15.519303"></trkpt><trkpt lat="53.158009" lon="15.510621"></trkpt><trkpt lat="53.159537" lon="15.502857"></trkpt><trkpt lat="53.16064" lon="15.499863"></trkpt><trkpt lat="53.161366" lon="15.49955"></trkpt><trkpt lat="53.16652" lon="15.497816"></trkpt><trkpt lat="53.167323" lon="15.497642"></trkpt><trkpt lat="53.16848" lon="15.497621"></trkpt><trkpt lat="53.169228" lon="15.497805"></trkpt><trkpt lat="53.172744" lon="15.498138"></trkpt><trkpt lat="53.173131" lon="15.498018"></trkpt><trkpt lat="53.174949" lon="15.498029"></trkpt><trkpt lat="53.175641" lon="15.498314"></trkpt><trkpt lat="53.176855" lon="15.498624"></trkpt><trkpt lat="53.176853" lon="15.49818"></trkpt><trkpt lat="53.17668" lon="15.497308"></trkpt><trkpt lat="53.176442" lon="15.495711"></trkpt><trkpt lat="53.175212" lon="15.48739"></trkpt><trkpt lat="53.173884" lon="15.478349"></trkpt><trkpt lat="53.172883" lon="15.473496"></trkpt><trkpt lat="53.172537" lon="15.472668"></trkpt><trkpt lat="53.169642" lon="15.465113"></trkpt><trkpt lat="53.168952" lon="15.462864"></trkpt><trkpt lat="53.168662" lon="15.461706"></trkpt><trkpt lat="53.168255" lon="15.459682"></trkpt><trkpt lat="53.167586" lon="15.455088"></trkpt><trkpt lat="53.167445" lon="15.453672"></trkpt><trkpt lat="53.167408" lon="15.452979"></trkpt><trkpt lat="53.167295" lon="15.444416"></trkpt><trkpt lat="53.167322" lon="15.443561"></trkpt><trkpt lat="53.167423" lon="15.434963"></trkpt><trkpt lat="53.167283" lon="15.434003"></trkpt><trkpt lat="53.167088" lon="15.433136"></trkpt><trkpt lat="53.166256" lon="15.430105"></trkpt><trkpt lat="53.165895" lon="15.429205"></trkpt><trkpt lat="53.165475" lon="15.427967"></trkpt><trkpt lat="53.165451" lon="15.427559"></trkpt><trkpt lat="53.165556" lon="15.42707"></trkpt><trkpt lat="53.16584" lon="15.426666"></trkpt><trkpt lat="53.169423" lon="15.420916"></trkpt><trkpt lat="53.169282" lon="15.419937"></trkpt><trkpt lat="53.169133" lon="15.419719"></trkpt><trkpt lat="53.168731" lon="15.419556"></trkpt><trkpt lat="53.168431" lon="15.41893"></trkpt><trkpt lat="53.168055" lon="15.417806"></trkpt><trkpt lat="53.16682" lon="15.412743"></trkpt><trkpt lat="53.166721" lon="15.411412"></trkpt><trkpt lat="53.165831" lon="15.404671"></trkpt><trkpt lat="53.165641" lon="15.404064"></trkpt><trkpt lat="53.165444" lon="15.403781"></trkpt><trkpt lat="53.165177" lon="15.403626"></trkpt></trkseg></trk></gpx>