<?xml version="1.0" encoding="UTF-8" standalone="no" ?><gpx xmlns="http://www.topografix.com/GPX/1/1" xmlns:gpxx="http://www.garmin.com/xmlschemas/GpxExtensions/v3" ><trk><trkseg><trkpt lat="52.309788" lon="16.399903"></trkpt><trkpt lat="52.309837" lon="16.400286"></trkpt><trkpt lat="52.30985" lon="16.400628"></trkpt><trkpt lat="52.30988" lon="16.400949"></trkpt><trkpt lat="52.309773" lon="16.401665"></trkpt><trkpt lat="52.309772" lon="16.402025"></trkpt><trkpt lat="52.30974" lon="16.402493"></trkpt><trkpt lat="52.309793" lon="16.402975"></trkpt><trkpt lat="52.30992" lon="16.403554"></trkpt><trkpt lat="52.310045" lon="16.403962"></trkpt><trkpt lat="52.31023" lon="16.404944"></trkpt><trkpt lat="52.310416" lon="16.40626"></trkpt><trkpt lat="52.310706" lon="16.406237"></trkpt><trkpt lat="52.310922" lon="16.40595"></trkpt><trkpt lat="52.313823" lon="16.401412"></trkpt><trkpt lat="52.314158" lon="16.400646"></trkpt><trkpt lat="52.321109" lon="16.381745"></trkpt><trkpt lat="52.321169" lon="16.381107"></trkpt><trkpt lat="52.321425" lon="16.375785"></trkpt><trkpt lat="52.321426" lon="16.375165"></trkpt><trkpt lat="52.321519" lon="16.373677"></trkpt><trkpt lat="52.321645" lon="16.373021"></trkpt><trkpt lat="52.322074" lon="16.371267"></trkpt><trkpt lat="52.329378" lon="16.346755"></trkpt><trkpt lat="52.329573" lon="16.346319"></trkpt><trkpt lat="52.330444" lon="16.344751"></trkpt><trkpt lat="52.33079" lon="16.344698"></trkpt><trkpt lat="52.333835" lon="16.343721"></trkpt><trkpt lat="52.3341" lon="16.343483"></trkpt><trkpt lat="52.334324" lon="16.343387"></trkpt><trkpt lat="52.334533" lon="16.343434"></trkpt><trkpt lat="52.334857" lon="16.343458"></trkpt><trkpt lat="52.335212" lon="16.343366"></trkpt><trkpt lat="52.336357" lon="16.342847"></trkpt><trkpt lat="52.336549" lon="16.34248"></trkpt><trkpt lat="52.336716" lon="16.342225"></trkpt><trkpt lat="52.344024" lon="16.33258"></trkpt><trkpt lat="52.344555" lon="16.33211"></trkpt><trkpt lat="52.354443" lon="16.321827"></trkpt><trkpt lat="52.354826" lon="16.321355"></trkpt><trkpt lat="52.358483" lon="16.317768"></trkpt><trkpt lat="52.359087" lon="16.317634"></trkpt><trkpt lat="52.362782" lon="16.316321"></trkpt><trkpt lat="52.362741" lon="16.315799"></trkpt><trkpt lat="52.362788" lon="16.315413"></trkpt><trkpt lat="52.362877" lon="16.31512"></trkpt><trkpt lat="52.3631" lon="16.314977"></trkpt><trkpt lat="52.363376" lon="16.314896"></trkpt><trkpt lat="52.370566" lon="16.311743"></trkpt><trkpt lat="52.370949" lon="16.311193"></trkpt><trkpt lat="52.377315" lon="16.303276"></trkpt><trkpt lat="52.377274" lon="16.30278"></trkpt><trkpt lat="52.37713" lon="16.302456"></trkpt><trkpt lat="52.377271" lon="16.302225"></trkpt><trkpt lat="52.377503" lon="16.302226"></trkpt><trkpt lat="52.380593" lon="16.3026"></trkpt><trkpt lat="52.380341" lon="16.302607"></trkpt><trkpt lat="52.3802" lon="16.302952"></trkpt><trkpt lat="52.380651" lon="16.303373"></trkpt><trkpt lat="52.380839" lon="16.303595"></trkpt><trkpt lat="52.381165" lon="16.303897"></trkpt><trkpt lat="52.383054" lon="16.305172"></trkpt><trkpt lat="52.3831" lon="16.304846"></trkpt><trkpt lat="52.383322" lon="16.304757"></trkpt><trkpt lat="52.384124" lon="16.304829"></trkpt><trkpt lat="52.384414" lon="16.30434"></trkpt><trkpt lat="52.397682" lon="16.285167"></trkpt><trkpt lat="52.398037" lon="16.284942"></trkpt><trkpt lat="52.401848" lon="16.28311"></trkpt><trkpt lat="52.402106" lon="16.283099"></trkpt><trkpt lat="52.402302" lon="16.283284"></trkpt><trkpt lat="52.402332" lon="16.283912"></trkpt><trkpt lat="52.402502" lon="16.285332"></trkpt><trkpt lat="52.40282" lon="16.285601"></trkpt><trkpt lat="52.409976" lon="16.290615"></trkpt><trkpt lat="52.410315" lon="16.290737"></trkpt><trkpt lat="52.431992" lon="16.297483"></trkpt><trkpt lat="52.432349" lon="16.297325"></trkpt><trkpt lat="52.432654" lon="16.297239"></trkpt><trkpt lat="52.432846" lon="16.297155"></trkpt><trkpt lat="52.435697" lon="16.296353"></trkpt><trkpt lat="52.43597" lon="16.296361"></trkpt><trkpt lat="52.436252" lon="16.296183"></trkpt><trkpt lat="52.436569" lon="16.29589"></trkpt><trkpt lat="52.437507" lon="16.295182"></trkpt><trkpt lat="52.437717" lon="16.295071"></trkpt><trkpt lat="52.437923" lon="16.29502"></trkpt><trkpt lat="52.439234" lon="16.294864"></trkpt><trkpt lat="52.439817" lon="16.295037"></trkpt><trkpt lat="52.440065" lon="16.295064"></trkpt><trkpt lat="52.440262" lon="16.295009"></trkpt><trkpt lat="52.440454" lon="16.294924"></trkpt><trkpt lat="52.443848" lon="16.292872"></trkpt><trkpt lat="52.444067" lon="16.292315"></trkpt><trkpt lat="52.448109" lon="16.280204"></trkpt><trkpt lat="52.4487" lon="16.278757"></trkpt><trkpt lat="52.448968" lon="16.278345"></trkpt><trkpt lat="52.44947" lon="16.277675"></trkpt><trkpt lat="52.449793" lon="16.277481"></trkpt><trkpt lat="52.450078" lon="16.277233"></trkpt><trkpt lat="52.450435" lon="16.276821"></trkpt><trkpt lat="52.450653" lon="16.276525"></trkpt><trkpt lat="52.450845" lon="16.276115"></trkpt><trkpt lat="52.451428" lon="16.275085"></trkpt><trkpt lat="52.451591" lon="16.274876"></trkpt><trkpt lat="52.451996" lon="16.274233"></trkpt><trkpt lat="52.452217" lon="16.273626"></trkpt><trkpt lat="52.452619" lon="16.272722"></trkpt><trkpt lat="52.452836" lon="16.2724"></trkpt><trkpt lat="52.45443" lon="16.269654"></trkpt><trkpt lat="52.454681" lon="16.269132"></trkpt><trkpt lat="52.455363" lon="16.267459"></trkpt><trkpt lat="52.455597" lon="16.266679"></trkpt><trkpt lat="52.457525" lon="16.261315"></trkpt><trkpt lat="52.45777" lon="16.260806"></trkpt><trkpt lat="52.460958" lon="16.253116"></trkpt><trkpt lat="52.460985" lon="16.252664"></trkpt><trkpt lat="52.462107" lon="16.242925"></trkpt><trkpt lat="52.462479" lon="16.243011"></trkpt><trkpt lat="52.464147" lon="16.243181"></trkpt><trkpt lat="52.464314" lon="16.242792"></trkpt><trkpt lat="52.464681" lon="16.242198"></trkpt><trkpt lat="52.46506" lon="16.242243"></trkpt><trkpt lat="52.471076" lon="16.24223"></trkpt><trkpt lat="52.471413" lon="16.242161"></trkpt><trkpt lat="52.471661" lon="16.24214"></trkpt><trkpt lat="52.477546" lon="16.240877"></trkpt><trkpt lat="52.477707" lon="16.240534"></trkpt><trkpt lat="52.477662" lon="16.240883"></trkpt><trkpt lat="52.47763" lon="16.241386"></trkpt><trkpt lat="52.47774" lon="16.241979"></trkpt><trkpt lat="52.477842" lon="16.242411"></trkpt><trkpt lat="52.477975" lon="16.242847"></trkpt><trkpt lat="52.478803" lon="16.245097"></trkpt><trkpt lat="52.480003" lon="16.247868"></trkpt><trkpt lat="52.480241" lon="16.248259"></trkpt><trkpt lat="52.480536" lon="16.248603"></trkpt><trkpt lat="52.483457" lon="16.252696"></trkpt><trkpt lat="52.483637" lon="16.253179"></trkpt><trkpt lat="52.483783" lon="16.253432"></trkpt><trkpt lat="52.483993" lon="16.253696"></trkpt><trkpt lat="52.484432" lon="16.254134"></trkpt><trkpt lat="52.485097" lon="16.254615"></trkpt><trkpt lat="52.485484" lon="16.254624"></trkpt><trkpt lat="52.502341" lon="16.256965"></trkpt><trkpt lat="52.50288" lon="16.25719"></trkpt><trkpt lat="52.508101" lon="16.258391"></trkpt><trkpt lat="52.508226" lon="16.258066"></trkpt><trkpt lat="52.508419" lon="16.257706"></trkpt><trkpt lat="52.50863" lon="16.257501"></trkpt><trkpt lat="52.508763" lon="16.257192"></trkpt><trkpt lat="52.508928" lon="16.256886"></trkpt><trkpt lat="52.509098" lon="16.256647"></trkpt><trkpt lat="52.509436" lon="16.256361"></trkpt><trkpt lat="52.509825" lon="16.256127"></trkpt><trkpt lat="52.511365" lon="16.254978"></trkpt><trkpt lat="52.511569" lon="16.254758"></trkpt><trkpt lat="52.512189" lon="16.253961"></trkpt><trkpt lat="52.512543" lon="16.253434"></trkpt><trkpt lat="52.516525" lon="16.248457"></trkpt><trkpt lat="52.516919" lon="16.248526"></trkpt><trkpt lat="52.53932" lon="16.252043"></trkpt><trkpt lat="52.539705" lon="16.251867"></trkpt><trkpt lat="52.55688" lon="16.246254"></trkpt><trkpt lat="52.557261" lon="16.246303"></trkpt><trkpt lat="52.564079" lon="16.244534"></trkpt><trkpt lat="52.564598" lon="16.244277"></trkpt><trkpt lat="52.574723" lon="16.237779"></trkpt><trkpt lat="52.574939" lon="16.237258"></trkpt><trkpt lat="52.575094" lon="16.236996"></trkpt><trkpt lat="52.575523" lon="16.237478"></trkpt><trkpt lat="52.575687" lon="16.237709"></trkpt><trkpt lat="52.575961" lon="16.23834"></trkpt><trkpt lat="52.58099" lon="16.248237"></trkpt><trkpt lat="52.581181" lon="16.248447"></trkpt><trkpt lat="52.581364" lon="16.248605"></trkpt><trkpt lat="52.581528" lon="16.248798"></trkpt><trkpt lat="52.587239" lon="16.256714"></trkpt><trkpt lat="52.587541" lon="16.257546"></trkpt><trkpt lat="52.587743" lon="16.258335"></trkpt><trkpt lat="52.587802" lon="16.258973"></trkpt><trkpt lat="52.587864" lon="16.260586"></trkpt><trkpt lat="52.587789" lon="16.261172"></trkpt><trkpt lat="52.587935" lon="16.261591"></trkpt><trkpt lat="52.588229" lon="16.26177"></trkpt><trkpt lat="52.589102" lon="16.262143"></trkpt><trkpt lat="52.58952" lon="16.262066"></trkpt><trkpt lat="52.590002" lon="16.261874"></trkpt><trkpt lat="52.590265" lon="16.261821"></trkpt><trkpt lat="52.590298" lon="16.262185"></trkpt><trkpt lat="52.590192" lon="16.262989"></trkpt><trkpt lat="52.58975" lon="16.268194"></trkpt><trkpt lat="52.589765" lon="16.268658"></trkpt><trkpt lat="52.592219" lon="16.300742"></trkpt><trkpt lat="52.592654" lon="16.300781"></trkpt><trkpt lat="52.593027" lon="16.300903"></trkpt><trkpt lat="52.593299" lon="16.301127"></trkpt><trkpt lat="52.593475" lon="16.30137"></trkpt><trkpt lat="52.593962" lon="16.302184"></trkpt><trkpt lat="52.594208" lon="16.3027"></trkpt><trkpt lat="52.597649" lon="16.308852"></trkpt><trkpt lat="52.597966" lon="16.308953"></trkpt><trkpt lat="52.60786" lon="16.31335"></trkpt><trkpt lat="52.60805" lon="16.313907"></trkpt><trkpt lat="52.608191" lon="16.314633"></trkpt><trkpt lat="52.611137" lon="16.325447"></trkpt><trkpt lat="52.611514" lon="16.325345"></trkpt><trkpt lat="52.618735" lon="16.322511"></trkpt><trkpt lat="52.618957" lon="16.322345"></trkpt><trkpt lat="52.621469" lon="16.319757"></trkpt><trkpt lat="52.621742" lon="16.318882"></trkpt><trkpt lat="52.622305" lon="16.317393"></trkpt><trkpt lat="52.622856" lon="16.316972"></trkpt><trkpt lat="52.623342" lon="16.316737"></trkpt><trkpt lat="52.626425" lon="16.315644"></trkpt><trkpt lat="52.629894" lon="16.314858"></trkpt><trkpt lat="52.631591" lon="16.31492"></trkpt><trkpt lat="52.632047" lon="16.314731"></trkpt><trkpt lat="52.63384" lon="16.314378"></trkpt><trkpt lat="52.650175" lon="16.319696"></trkpt><trkpt lat="52.65026" lon="16.320161"></trkpt><trkpt lat="52.650918" lon="16.325783"></trkpt><trkpt lat="52.650736" lon="16.326906"></trkpt><trkpt lat="52.650728" lon="16.327493"></trkpt><trkpt lat="52.650764" lon="16.327841"></trkpt><trkpt lat="52.650864" lon="16.330526"></trkpt><trkpt lat="52.650789" lon="16.331029"></trkpt><trkpt lat="52.650339" lon="16.333198"></trkpt><trkpt lat="52.65017" lon="16.333725"></trkpt><trkpt lat="52.650015" lon="16.334357"></trkpt><trkpt lat="52.649937" lon="16.334871"></trkpt><trkpt lat="52.649892" lon="16.335352"></trkpt><trkpt lat="52.649761" lon="16.335876"></trkpt><trkpt lat="52.649646" lon="16.336213"></trkpt><trkpt lat="52.649226" lon="16.338125"></trkpt><trkpt lat="52.649436" lon="16.338395"></trkpt><trkpt lat="52.662972" lon="16.359075"></trkpt><trkpt lat="52.662888" lon="16.359678"></trkpt><trkpt lat="52.66277" lon="16.360258"></trkpt><trkpt lat="52.662436" lon="16.362703"></trkpt><trkpt lat="52.662494" lon="16.363158"></trkpt><trkpt lat="52.662678" lon="16.363308"></trkpt><trkpt lat="52.665595" lon="16.365262"></trkpt><trkpt lat="52.666072" lon="16.36521"></trkpt><trkpt lat="52.667527" lon="16.365613"></trkpt><trkpt lat="52.668079" lon="16.365915"></trkpt><trkpt lat="52.674845" lon="16.370797"></trkpt><trkpt lat="52.67505" lon="16.371483"></trkpt><trkpt lat="52.675901" lon="16.373492"></trkpt><trkpt lat="52.67635" lon="16.373559"></trkpt><trkpt lat="52.67657" lon="16.373666"></trkpt><trkpt lat="52.67675" lon="16.374017"></trkpt><trkpt lat="52.686382" lon="16.390157"></trkpt><trkpt lat="52.687041" lon="16.390077"></trkpt><trkpt lat="52.691142" lon="16.388847"></trkpt><trkpt lat="52.69144" lon="16.388459"></trkpt><trkpt lat="52.691853" lon="16.388163"></trkpt><trkpt lat="52.692353" lon="16.387987"></trkpt><trkpt lat="52.695836" lon="16.387179"></trkpt><trkpt lat="52.696453" lon="16.38711"></trkpt><trkpt lat="52.704613" lon="16.384892"></trkpt><trkpt lat="52.704696" lon="16.384178"></trkpt><trkpt lat="52.705276" lon="16.380812"></trkpt><trkpt lat="52.705607" lon="16.380679"></trkpt><trkpt lat="52.705827" lon="16.380625"></trkpt><trkpt lat="52.705858" lon="16.381193"></trkpt><trkpt lat="52.705361" lon="16.385257"></trkpt></trkseg></trk></gpx>