<?xml version="1.0" encoding="UTF-8" standalone="no" ?><gpx xmlns="http://www.topografix.com/GPX/1/1" xmlns:gpxx="http://www.garmin.com/xmlschemas/GpxExtensions/v3" ><trk><trkseg><trkpt lat="52.303324" lon="17.04397"></trkpt><trkpt lat="52.303227" lon="17.04426"></trkpt><trkpt lat="52.303028" lon="17.044326"></trkpt><trkpt lat="52.302843" lon="17.044766"></trkpt><trkpt lat="52.302733" lon="17.045195"></trkpt><trkpt lat="52.302651" lon="17.04597"></trkpt><trkpt lat="52.302626" lon="17.046503"></trkpt><trkpt lat="52.302451" lon="17.046953"></trkpt><trkpt lat="52.30189" lon="17.047216"></trkpt><trkpt lat="52.301553" lon="17.047473"></trkpt><trkpt lat="52.301304" lon="17.047756"></trkpt><trkpt lat="52.30105" lon="17.047781"></trkpt><trkpt lat="52.300959" lon="17.048127"></trkpt><trkpt lat="52.300859" lon="17.048423"></trkpt><trkpt lat="52.300703" lon="17.048684"></trkpt><trkpt lat="52.300484" lon="17.048752"></trkpt><trkpt lat="52.300299" lon="17.048529"></trkpt><trkpt lat="52.300083" lon="17.048523"></trkpt><trkpt lat="52.299838" lon="17.048567"></trkpt><trkpt lat="52.299467" lon="17.048702"></trkpt><trkpt lat="52.298767" lon="17.049052"></trkpt><trkpt lat="52.297142" lon="17.050124"></trkpt><trkpt lat="52.295427" lon="17.050716"></trkpt><trkpt lat="52.295241" lon="17.050594"></trkpt><trkpt lat="52.294876" lon="17.050137"></trkpt><trkpt lat="52.294586" lon="17.049642"></trkpt><trkpt lat="52.291086" lon="17.044637"></trkpt><trkpt lat="52.290829" lon="17.044751"></trkpt><trkpt lat="52.290321" lon="17.045122"></trkpt><trkpt lat="52.289543" lon="17.045501"></trkpt><trkpt lat="52.289054" lon="17.045535"></trkpt><trkpt lat="52.288597" lon="17.045706"></trkpt><trkpt lat="52.284697" lon="17.046551"></trkpt><trkpt lat="52.284341" lon="17.046226"></trkpt><trkpt lat="52.282904" lon="17.045186"></trkpt><trkpt lat="52.282586" lon="17.045066"></trkpt><trkpt lat="52.282047" lon="17.044793"></trkpt><trkpt lat="52.281865" lon="17.044551"></trkpt><trkpt lat="52.281707" lon="17.044228"></trkpt><trkpt lat="52.281568" lon="17.043852"></trkpt><trkpt lat="52.281026" lon="17.042837"></trkpt><trkpt lat="52.280553" lon="17.042525"></trkpt><trkpt lat="52.28029" lon="17.042423"></trkpt><trkpt lat="52.280072" lon="17.042209"></trkpt><trkpt lat="52.279588" lon="17.042926"></trkpt><trkpt lat="52.279291" lon="17.043476"></trkpt><trkpt lat="52.278952" lon="17.043884"></trkpt><trkpt lat="52.278272" lon="17.044925"></trkpt><trkpt lat="52.278031" lon="17.045405"></trkpt><trkpt lat="52.275775" lon="17.048814"></trkpt><trkpt lat="52.275544" lon="17.048659"></trkpt><trkpt lat="52.275774" lon="17.048839"></trkpt><trkpt lat="52.275951" lon="17.049067"></trkpt><trkpt lat="52.27592" lon="17.049555"></trkpt><trkpt lat="52.275751" lon="17.049853"></trkpt><trkpt lat="52.275529" lon="17.050175"></trkpt><trkpt lat="52.275303" lon="17.05021"></trkpt><trkpt lat="52.275103" lon="17.050216"></trkpt><trkpt lat="52.272909" lon="17.049834"></trkpt><trkpt lat="52.271983" lon="17.049806"></trkpt><trkpt lat="52.271343" lon="17.05029"></trkpt><trkpt lat="52.269713" lon="17.051057"></trkpt><trkpt lat="52.269345" lon="17.051072"></trkpt><trkpt lat="52.263287" lon="17.052044"></trkpt><trkpt lat="52.262555" lon="17.052272"></trkpt><trkpt lat="52.262217" lon="17.052418"></trkpt><trkpt lat="52.260638" lon="17.052907"></trkpt><trkpt lat="52.260424" lon="17.05288"></trkpt><trkpt lat="52.260106" lon="17.053421"></trkpt><trkpt lat="52.259825" lon="17.05414"></trkpt><trkpt lat="52.259447" lon="17.054854"></trkpt><trkpt lat="52.258928" lon="17.055673"></trkpt><trkpt lat="52.258508" lon="17.056125"></trkpt><trkpt lat="52.258084" lon="17.056672"></trkpt><trkpt lat="52.257788" lon="17.05714"></trkpt><trkpt lat="52.257576" lon="17.057238"></trkpt><trkpt lat="52.257445" lon="17.05699"></trkpt><trkpt lat="52.256408" lon="17.054354"></trkpt><trkpt lat="52.256446" lon="17.053658"></trkpt><trkpt lat="52.256331" lon="17.053307"></trkpt><trkpt lat="52.256127" lon="17.053326"></trkpt><trkpt lat="52.255803" lon="17.053473"></trkpt><trkpt lat="52.255367" lon="17.053583"></trkpt><trkpt lat="52.251775" lon="17.054919"></trkpt><trkpt lat="52.25155" lon="17.054958"></trkpt><trkpt lat="52.251206" lon="17.054856"></trkpt><trkpt lat="52.246633" lon="17.054043"></trkpt><trkpt lat="52.244674" lon="17.053399"></trkpt><trkpt lat="52.244509" lon="17.053036"></trkpt><trkpt lat="52.243819" lon="17.051729"></trkpt><trkpt lat="52.243492" lon="17.051214"></trkpt><trkpt lat="52.242709" lon="17.050151"></trkpt><trkpt lat="52.23916" lon="17.046294"></trkpt><trkpt lat="52.239034" lon="17.046837"></trkpt><trkpt lat="52.238535" lon="17.048506"></trkpt><trkpt lat="52.238268" lon="17.048297"></trkpt><trkpt lat="52.238457" lon="17.048478"></trkpt><trkpt lat="52.238539" lon="17.048805"></trkpt><trkpt lat="52.238456" lon="17.049127"></trkpt><trkpt lat="52.234177" lon="17.066178"></trkpt><trkpt lat="52.234123" lon="17.066532"></trkpt><trkpt lat="52.23284" lon="17.072875"></trkpt><trkpt lat="52.232623" lon="17.073093"></trkpt><trkpt lat="52.223119" lon="17.082776"></trkpt><trkpt lat="52.223081" lon="17.083156"></trkpt><trkpt lat="52.223229" lon="17.083544"></trkpt><trkpt lat="52.226162" lon="17.090124"></trkpt><trkpt lat="52.226331" lon="17.089885"></trkpt><trkpt lat="52.226256" lon="17.090185"></trkpt><trkpt lat="52.226653" lon="17.09057"></trkpt><trkpt lat="52.227115" lon="17.09085"></trkpt><trkpt lat="52.227117" lon="17.091213"></trkpt><trkpt lat="52.226911" lon="17.091456"></trkpt><trkpt lat="52.226935" lon="17.091841"></trkpt><trkpt lat="52.227357" lon="17.09219"></trkpt><trkpt lat="52.230996" lon="17.095831"></trkpt><trkpt lat="52.231182" lon="17.096219"></trkpt><trkpt lat="52.231402" lon="17.096525"></trkpt><trkpt lat="52.231896" lon="17.096201"></trkpt><trkpt lat="52.233581" lon="17.095441"></trkpt><trkpt lat="52.233814" lon="17.095807"></trkpt><trkpt lat="52.233981" lon="17.096565"></trkpt><trkpt lat="52.234002" lon="17.097029"></trkpt><trkpt lat="52.233894" lon="17.097458"></trkpt><trkpt lat="52.233621" lon="17.098006"></trkpt><trkpt lat="52.233204" lon="17.098574"></trkpt><trkpt lat="52.231732" lon="17.100901"></trkpt><trkpt lat="52.231461" lon="17.101658"></trkpt><trkpt lat="52.231087" lon="17.102465"></trkpt><trkpt lat="52.2309" lon="17.102663"></trkpt><trkpt lat="52.221654" lon="17.111016"></trkpt><trkpt lat="52.221353" lon="17.111242"></trkpt><trkpt lat="52.220006" lon="17.112466"></trkpt><trkpt lat="52.214046" lon="17.117021"></trkpt><trkpt lat="52.213997" lon="17.117455"></trkpt><trkpt lat="52.214115" lon="17.117917"></trkpt><trkpt lat="52.215425" lon="17.121878"></trkpt><trkpt lat="52.215673" lon="17.12169"></trkpt><trkpt lat="52.21597" lon="17.121353"></trkpt><trkpt lat="52.21752" lon="17.120146"></trkpt><trkpt lat="52.217859" lon="17.120549"></trkpt><trkpt lat="52.218871" lon="17.122039"></trkpt><trkpt lat="52.218672" lon="17.122477"></trkpt><trkpt lat="52.212386" lon="17.13788"></trkpt><trkpt lat="52.210945" lon="17.142014"></trkpt><trkpt lat="52.210682" lon="17.142633"></trkpt><trkpt lat="52.210036" lon="17.143898"></trkpt><trkpt lat="52.209874" lon="17.144151"></trkpt><trkpt lat="52.209275" lon="17.145273"></trkpt><trkpt lat="52.209043" lon="17.145901"></trkpt><trkpt lat="52.207985" lon="17.148346"></trkpt><trkpt lat="52.20762" lon="17.149024"></trkpt><trkpt lat="52.201065" lon="17.16359"></trkpt><trkpt lat="52.201076" lon="17.16421"></trkpt><trkpt lat="52.200909" lon="17.164912"></trkpt><trkpt lat="52.199946" lon="17.167875"></trkpt><trkpt lat="52.199601" lon="17.168597"></trkpt><trkpt lat="52.197238" lon="17.174506"></trkpt><trkpt lat="52.197166" lon="17.174882"></trkpt><trkpt lat="52.196064" lon="17.182704"></trkpt><trkpt lat="52.196211" lon="17.183101"></trkpt><trkpt lat="52.201652" lon="17.199996"></trkpt><trkpt lat="52.202422" lon="17.201789"></trkpt><trkpt lat="52.202785" lon="17.202182"></trkpt><trkpt lat="52.203405" lon="17.202746"></trkpt><trkpt lat="52.209991" lon="17.209814"></trkpt><trkpt lat="52.210321" lon="17.210247"></trkpt><trkpt lat="52.216654" lon="17.219964"></trkpt><trkpt lat="52.216336" lon="17.220548"></trkpt><trkpt lat="52.213297" lon="17.227122"></trkpt><trkpt lat="52.213087" lon="17.228046"></trkpt><trkpt lat="52.212046" lon="17.234291"></trkpt><trkpt lat="52.211992" lon="17.235207"></trkpt><trkpt lat="52.210905" lon="17.254127"></trkpt><trkpt lat="52.210946" lon="17.259222"></trkpt><trkpt lat="52.211062" lon="17.260099"></trkpt><trkpt lat="52.211934" lon="17.271546"></trkpt><trkpt lat="52.211712" lon="17.271943"></trkpt><trkpt lat="52.210789" lon="17.273911"></trkpt><trkpt lat="52.210931" lon="17.274248"></trkpt><trkpt lat="52.211095" lon="17.274482"></trkpt><trkpt lat="52.213457" lon="17.277343"></trkpt><trkpt lat="52.21367" lon="17.277445"></trkpt><trkpt lat="52.216692" lon="17.278487"></trkpt><trkpt lat="52.216755" lon="17.278175"></trkpt><trkpt lat="52.21783" lon="17.275629"></trkpt></trkseg></trk></gpx>