<?xml version="1.0" encoding="UTF-8" standalone="no" ?><gpx xmlns="http://www.topografix.com/GPX/1/1" xmlns:gpxx="http://www.garmin.com/xmlschemas/GpxExtensions/v3" ><trk><trkseg><trkpt lat="52.1602744795" lon="21.8707753904"></trkpt><trkpt lat="52.160472041" lon="21.8712893687"></trkpt><trkpt lat="52.1606121864" lon="21.8718290795"></trkpt><trkpt lat="52.1608253382" lon="21.872264687"></trkpt><trkpt lat="52.1612068824" lon="21.8719555624"></trkpt><trkpt lat="52.1614835691" lon="21.871828828"></trkpt><trkpt lat="52.1618071944" lon="21.8717451766"></trkpt><trkpt lat="52.1662499383" lon="21.8712627143"></trkpt><trkpt lat="52.1668053232" lon="21.8711149413"></trkpt><trkpt lat="52.1700990759" lon="21.8707331456"></trkpt><trkpt lat="52.1703754272" lon="21.8709203973"></trkpt><trkpt lat="52.1719286777" lon="21.871678289"></trkpt><trkpt lat="52.1722764429" lon="21.8720851466"></trkpt><trkpt lat="52.1725123096" lon="21.8724321574"></trkpt><trkpt lat="52.1765066218" lon="21.87734982"></trkpt><trkpt lat="52.1767228749" lon="21.876992248"></trkpt><trkpt lat="52.1769461688" lon="21.8765361886"></trkpt><trkpt lat="52.1772745717" lon="21.8757259101"></trkpt><trkpt lat="52.1826959029" lon="21.8636798579"></trkpt><trkpt lat="52.1829953883" lon="21.8632478546"></trkpt><trkpt lat="52.1858330816" lon="21.8580898829"></trkpt><trkpt lat="52.1858071815" lon="21.857420085"></trkpt><trkpt lat="52.1858670283" lon="21.8564087246"></trkpt><trkpt lat="52.1860252786" lon="21.8559983466"></trkpt><trkpt lat="52.1862346586" lon="21.8556908984"></trkpt><trkpt lat="52.1864730399" lon="21.8551854696"></trkpt><trkpt lat="52.1865656599" lon="21.8546918593"></trkpt><trkpt lat="52.1864456311" lon="21.8542313576"></trkpt><trkpt lat="52.1862883866" lon="21.853784686"></trkpt><trkpt lat="52.186214542" lon="21.8531732261"></trkpt><trkpt lat="52.1861381829" lon="21.8527437374"></trkpt><trkpt lat="52.1852368768" lon="21.8493898865"></trkpt><trkpt lat="52.1849052887" lon="21.8495815806"></trkpt><trkpt lat="52.184682833" lon="21.8498367257"></trkpt><trkpt lat="52.1843089163" lon="21.8499984965"></trkpt><trkpt lat="52.1839926671" lon="21.8500654679"></trkpt><trkpt lat="52.1838074271" lon="21.8497404177"></trkpt><trkpt lat="52.1836808603" lon="21.8493013736"></trkpt><trkpt lat="52.1815432236" lon="21.839645924"></trkpt><trkpt lat="52.1815502644" lon="21.8390337937"></trkpt><trkpt lat="52.1815886535" lon="21.8385193124"></trkpt><trkpt lat="52.1814570576" lon="21.8381298892"></trkpt><trkpt lat="52.1811720729" lon="21.8381283805"></trkpt><trkpt lat="52.1805725992" lon="21.8380310666"></trkpt><trkpt lat="52.1792570595" lon="21.8380128779"></trkpt><trkpt lat="52.1789901797" lon="21.8377223611"></trkpt><trkpt lat="52.1789009962" lon="21.837245347"></trkpt><trkpt lat="52.1757762227" lon="21.8232325651"></trkpt><trkpt lat="52.1757046413" lon="21.822766196"></trkpt><trkpt lat="52.1735258494" lon="21.8084359914"></trkpt><trkpt lat="52.1724891756" lon="21.8037958536"></trkpt><trkpt lat="52.1721872594" lon="21.8037184887"></trkpt><trkpt lat="52.1718733571" lon="21.803701641"></trkpt><trkpt lat="52.1695017815" lon="21.8032234535"></trkpt><trkpt lat="52.1656661388" lon="21.8030915223"></trkpt><trkpt lat="52.1654414199" lon="21.8027415778"></trkpt><trkpt lat="52.1650852729" lon="21.8028953858"></trkpt><trkpt lat="52.1647581272" lon="21.8028673064"></trkpt><trkpt lat="52.1645701211" lon="21.8025182839"></trkpt><trkpt lat="52.1644388605" lon="21.8019841053"></trkpt><trkpt lat="52.1637027618" lon="21.7979535833"></trkpt><trkpt lat="52.1637752652" lon="21.7983822338"></trkpt><trkpt lat="52.1643273812" lon="21.7997624818"></trkpt></trkseg></trk></gpx>