<?xml version="1.0" encoding="UTF-8" standalone="no" ?><gpx xmlns="http://www.topografix.com/GPX/1/1" xmlns:gpxx="http://www.garmin.com/xmlschemas/GpxExtensions/v3" ><trk><trkseg><trkpt lat="52.365004" lon="16.912293"></trkpt><trkpt lat="52.361008" lon="16.909167"></trkpt><trkpt lat="52.36061" lon="16.908652"></trkpt><trkpt lat="52.355673" lon="16.903187"></trkpt><trkpt lat="52.355453" lon="16.90307"></trkpt><trkpt lat="52.355136" lon="16.902796"></trkpt><trkpt lat="52.354829" lon="16.902632"></trkpt><trkpt lat="52.351465" lon="16.900349"></trkpt><trkpt lat="52.351247" lon="16.900105"></trkpt><trkpt lat="52.351061" lon="16.899986"></trkpt><trkpt lat="52.350727" lon="16.900137"></trkpt><trkpt lat="52.350509" lon="16.900391"></trkpt><trkpt lat="52.35018" lon="16.900988"></trkpt><trkpt lat="52.349949" lon="16.901251"></trkpt><trkpt lat="52.34974" lon="16.901347"></trkpt><trkpt lat="52.349411" lon="16.901361"></trkpt><trkpt lat="52.347075" lon="16.901744"></trkpt><trkpt lat="52.346702" lon="16.902102"></trkpt><trkpt lat="52.345991" lon="16.902647"></trkpt><trkpt lat="52.345496" lon="16.902854"></trkpt><trkpt lat="52.345208" lon="16.902911"></trkpt><trkpt lat="52.344986" lon="16.902506"></trkpt><trkpt lat="52.344944" lon="16.902068"></trkpt><trkpt lat="52.345032" lon="16.901596"></trkpt><trkpt lat="52.345163" lon="16.900202"></trkpt><trkpt lat="52.34478" lon="16.899697"></trkpt><trkpt lat="52.344276" lon="16.899337"></trkpt><trkpt lat="52.344071" lon="16.899313"></trkpt><trkpt lat="52.343517" lon="16.899505"></trkpt><trkpt lat="52.342917" lon="16.899603"></trkpt><trkpt lat="52.342661" lon="16.89953"></trkpt><trkpt lat="52.341534" lon="16.899003"></trkpt><trkpt lat="52.340924" lon="16.898607"></trkpt><trkpt lat="52.340279" lon="16.898369"></trkpt><trkpt lat="52.338715" lon="16.898148"></trkpt><trkpt lat="52.338502" lon="16.898291"></trkpt><trkpt lat="52.338204" lon="16.898444"></trkpt><trkpt lat="52.337768" lon="16.898725"></trkpt><trkpt lat="52.337592" lon="16.898901"></trkpt><trkpt lat="52.337379" lon="16.898927"></trkpt><trkpt lat="52.337134" lon="16.899037"></trkpt><trkpt lat="52.336914" lon="16.8991"></trkpt><trkpt lat="52.336675" lon="16.899124"></trkpt><trkpt lat="52.336453" lon="16.898951"></trkpt><trkpt lat="52.336338" lon="16.898601"></trkpt><trkpt lat="52.336233" lon="16.898092"></trkpt><trkpt lat="52.336147" lon="16.897756"></trkpt><trkpt lat="52.335991" lon="16.897295"></trkpt><trkpt lat="52.335788" lon="16.897023"></trkpt><trkpt lat="52.33551" lon="16.896709"></trkpt><trkpt lat="52.335218" lon="16.896566"></trkpt><trkpt lat="52.334961" lon="16.896576"></trkpt><trkpt lat="52.334669" lon="16.896645"></trkpt><trkpt lat="52.33402" lon="16.896905"></trkpt><trkpt lat="52.33379" lon="16.896849"></trkpt><trkpt lat="52.33371" lon="16.896359"></trkpt><trkpt lat="52.333737" lon="16.895956"></trkpt><trkpt lat="52.333716" lon="16.895483"></trkpt><trkpt lat="52.333597" lon="16.894482"></trkpt><trkpt lat="52.333371" lon="16.894152"></trkpt><trkpt lat="52.333174" lon="16.893818"></trkpt><trkpt lat="52.332922" lon="16.893585"></trkpt><trkpt lat="52.332635" lon="16.893534"></trkpt><trkpt lat="52.332417" lon="16.893389"></trkpt><trkpt lat="52.332193" lon="16.893282"></trkpt><trkpt lat="52.332173" lon="16.892582"></trkpt><trkpt lat="52.332228" lon="16.892259"></trkpt><trkpt lat="52.332306" lon="16.891445"></trkpt><trkpt lat="52.332141" lon="16.89123"></trkpt><trkpt lat="52.331826" lon="16.891157"></trkpt><trkpt lat="52.331631" lon="16.891083"></trkpt><trkpt lat="52.331433" lon="16.890979"></trkpt><trkpt lat="52.331204" lon="16.891001"></trkpt><trkpt lat="52.330763" lon="16.891118"></trkpt><trkpt lat="52.330499" lon="16.891222"></trkpt><trkpt lat="52.330269" lon="16.891182"></trkpt><trkpt lat="52.330008" lon="16.8911"></trkpt><trkpt lat="52.329609" lon="16.891068"></trkpt><trkpt lat="52.326025" lon="16.89185"></trkpt><trkpt lat="52.325829" lon="16.892018"></trkpt><trkpt lat="52.325636" lon="16.892249"></trkpt><trkpt lat="52.325442" lon="16.892399"></trkpt><trkpt lat="52.325082" lon="16.892755"></trkpt><trkpt lat="52.324828" lon="16.893197"></trkpt><trkpt lat="52.324552" lon="16.893541"></trkpt><trkpt lat="52.323976" lon="16.894382"></trkpt><trkpt lat="52.323806" lon="16.894578"></trkpt><trkpt lat="52.323445" lon="16.894643"></trkpt><trkpt lat="52.323048" lon="16.894513"></trkpt><trkpt lat="52.322673" lon="16.894473"></trkpt><trkpt lat="52.322487" lon="16.894605"></trkpt><trkpt lat="52.322245" lon="16.894528"></trkpt><trkpt lat="52.322012" lon="16.894312"></trkpt><trkpt lat="52.321717" lon="16.894098"></trkpt><trkpt lat="52.319931" lon="16.893084"></trkpt><trkpt lat="52.319631" lon="16.89332"></trkpt><trkpt lat="52.319464" lon="16.893525"></trkpt><trkpt lat="52.31931" lon="16.893792"></trkpt><trkpt lat="52.31913" lon="16.893967"></trkpt><trkpt lat="52.318894" lon="16.89431"></trkpt><trkpt lat="52.318687" lon="16.894538"></trkpt><trkpt lat="52.318363" lon="16.895038"></trkpt><trkpt lat="52.317766" lon="16.895775"></trkpt><trkpt lat="52.31757" lon="16.895889"></trkpt><trkpt lat="52.317035" lon="16.896099"></trkpt><trkpt lat="52.316724" lon="16.896142"></trkpt><trkpt lat="52.316455" lon="16.89623"></trkpt><trkpt lat="52.316233" lon="16.896275"></trkpt><trkpt lat="52.315881" lon="16.896395"></trkpt><trkpt lat="52.315333" lon="16.896279"></trkpt><trkpt lat="52.315185" lon="16.89668"></trkpt><trkpt lat="52.314891" lon="16.897055"></trkpt><trkpt lat="52.314705" lon="16.897249"></trkpt><trkpt lat="52.314526" lon="16.897636"></trkpt><trkpt lat="52.314373" lon="16.898057"></trkpt><trkpt lat="52.314289" lon="16.898496"></trkpt><trkpt lat="52.314139" lon="16.899558"></trkpt><trkpt lat="52.314115" lon="16.899921"></trkpt><trkpt lat="52.314068" lon="16.900249"></trkpt><trkpt lat="52.314036" lon="16.900603"></trkpt><trkpt lat="52.313948" lon="16.901199"></trkpt><trkpt lat="52.313819" lon="16.902531"></trkpt><trkpt lat="52.313796" lon="16.903087"></trkpt><trkpt lat="52.313753" lon="16.903522"></trkpt><trkpt lat="52.313588" lon="16.904303"></trkpt><trkpt lat="52.313418" lon="16.904662"></trkpt><trkpt lat="52.313193" lon="16.905292"></trkpt><trkpt lat="52.313119" lon="16.905627"></trkpt><trkpt lat="52.312947" lon="16.906043"></trkpt><trkpt lat="52.312863" lon="16.906385"></trkpt><trkpt lat="52.312747" lon="16.906774"></trkpt><trkpt lat="52.312888" lon="16.907002"></trkpt><trkpt lat="52.312696" lon="16.906923"></trkpt><trkpt lat="52.312439" lon="16.907168"></trkpt><trkpt lat="52.31228" lon="16.90737"></trkpt><trkpt lat="52.312061" lon="16.907572"></trkpt><trkpt lat="52.311676" lon="16.907865"></trkpt><trkpt lat="52.311383" lon="16.908002"></trkpt><trkpt lat="52.311133" lon="16.90816"></trkpt><trkpt lat="52.310771" lon="16.908319"></trkpt><trkpt lat="52.310523" lon="16.908332"></trkpt><trkpt lat="52.3103" lon="16.908385"></trkpt><trkpt lat="52.310002" lon="16.90841"></trkpt><trkpt lat="52.309627" lon="16.908335"></trkpt><trkpt lat="52.308731" lon="16.908029"></trkpt><trkpt lat="52.307951" lon="16.907638"></trkpt><trkpt lat="52.307621" lon="16.90737"></trkpt><trkpt lat="52.307431" lon="16.907267"></trkpt><trkpt lat="52.307357" lon="16.906779"></trkpt><trkpt lat="52.307288" lon="16.905939"></trkpt><trkpt lat="52.307365" lon="16.905545"></trkpt><trkpt lat="52.307482" lon="16.905165"></trkpt><trkpt lat="52.307619" lon="16.904874"></trkpt><trkpt lat="52.308345" lon="16.903568"></trkpt><trkpt lat="52.308508" lon="16.90338"></trkpt><trkpt lat="52.308961" lon="16.902956"></trkpt><trkpt lat="52.309214" lon="16.902775"></trkpt><trkpt lat="52.309434" lon="16.902647"></trkpt><trkpt lat="52.309646" lon="16.902556"></trkpt><trkpt lat="52.309874" lon="16.902407"></trkpt><trkpt lat="52.310475" lon="16.901893"></trkpt><trkpt lat="52.310725" lon="16.901598"></trkpt><trkpt lat="52.310906" lon="16.901315"></trkpt><trkpt lat="52.311029" lon="16.901042"></trkpt><trkpt lat="52.311133" lon="16.900631"></trkpt><trkpt lat="52.311045" lon="16.900134"></trkpt><trkpt lat="52.310966" lon="16.899816"></trkpt><trkpt lat="52.310824" lon="16.899427"></trkpt><trkpt lat="52.310627" lon="16.899018"></trkpt><trkpt lat="52.310376" lon="16.8986"></trkpt><trkpt lat="52.310172" lon="16.898371"></trkpt><trkpt lat="52.309917" lon="16.898155"></trkpt><trkpt lat="52.309719" lon="16.898124"></trkpt><trkpt lat="52.309444" lon="16.897976"></trkpt><trkpt lat="52.308865" lon="16.897764"></trkpt><trkpt lat="52.308545" lon="16.897717"></trkpt><trkpt lat="52.308087" lon="16.897716"></trkpt><trkpt lat="52.307196" lon="16.897588"></trkpt><trkpt lat="52.307002" lon="16.897517"></trkpt><trkpt lat="52.306731" lon="16.897472"></trkpt><trkpt lat="52.306519" lon="16.897278"></trkpt><trkpt lat="52.306181" lon="16.89708"></trkpt><trkpt lat="52.305112" lon="16.896305"></trkpt><trkpt lat="52.304877" lon="16.896023"></trkpt><trkpt lat="52.304679" lon="16.895718"></trkpt><trkpt lat="52.304596" lon="16.89522"></trkpt><trkpt lat="52.304537" lon="16.8943"></trkpt><trkpt lat="52.30456" lon="16.893821"></trkpt><trkpt lat="52.304629" lon="16.89324"></trkpt><trkpt lat="52.304787" lon="16.892971"></trkpt><trkpt lat="52.304853" lon="16.892523"></trkpt><trkpt lat="52.30502" lon="16.891792"></trkpt><trkpt lat="52.305131" lon="16.891461"></trkpt><trkpt lat="52.305345" lon="16.890685"></trkpt><trkpt lat="52.305399" lon="16.89011"></trkpt><trkpt lat="52.305381" lon="16.889674"></trkpt><trkpt lat="52.305311" lon="16.888863"></trkpt><trkpt lat="52.305194" lon="16.887972"></trkpt><trkpt lat="52.305104" lon="16.88758"></trkpt><trkpt lat="52.304973" lon="16.887254"></trkpt><trkpt lat="52.305081" lon="16.886954"></trkpt><trkpt lat="52.305259" lon="16.886696"></trkpt><trkpt lat="52.3051" lon="16.886499"></trkpt><trkpt lat="52.304905" lon="16.88641"></trkpt><trkpt lat="52.304735" lon="16.886074"></trkpt><trkpt lat="52.304594" lon="16.885732"></trkpt><trkpt lat="52.304229" lon="16.885023"></trkpt><trkpt lat="52.303516" lon="16.883854"></trkpt><trkpt lat="52.303333" lon="16.883616"></trkpt><trkpt lat="52.302791" lon="16.883021"></trkpt><trkpt lat="52.302602" lon="16.882877"></trkpt><trkpt lat="52.302359" lon="16.882596"></trkpt><trkpt lat="52.302212" lon="16.882378"></trkpt><trkpt lat="52.301453" lon="16.881076"></trkpt><trkpt lat="52.301307" lon="16.88072"></trkpt><trkpt lat="52.300274" lon="16.878617"></trkpt><trkpt lat="52.3001" lon="16.878425"></trkpt><trkpt lat="52.2998" lon="16.878205"></trkpt><trkpt lat="52.29934" lon="16.877743"></trkpt><trkpt lat="52.299261" lon="16.877404"></trkpt><trkpt lat="52.299215" lon="16.877072"></trkpt><trkpt lat="52.299184" lon="16.876735"></trkpt><trkpt lat="52.299107" lon="16.876375"></trkpt><trkpt lat="52.298906" lon="16.876419"></trkpt><trkpt lat="52.298583" lon="16.87631"></trkpt><trkpt lat="52.29836" lon="16.87608"></trkpt><trkpt lat="52.298071" lon="16.875722"></trkpt><trkpt lat="52.297447" lon="16.874776"></trkpt><trkpt lat="52.297239" lon="16.87456"></trkpt><trkpt lat="52.29683" lon="16.874204"></trkpt><trkpt lat="52.296531" lon="16.874128"></trkpt><trkpt lat="52.296256" lon="16.873992"></trkpt><trkpt lat="52.296009" lon="16.873947"></trkpt><trkpt lat="52.295464" lon="16.873925"></trkpt><trkpt lat="52.295186" lon="16.873824"></trkpt><trkpt lat="52.294887" lon="16.873611"></trkpt><trkpt lat="52.294756" lon="16.873216"></trkpt><trkpt lat="52.294679" lon="16.872749"></trkpt><trkpt lat="52.294623" lon="16.872197"></trkpt><trkpt lat="52.294654" lon="16.871792"></trkpt><trkpt lat="52.294626" lon="16.871435"></trkpt><trkpt lat="52.294648" lon="16.871054"></trkpt><trkpt lat="52.294645" lon="16.870709"></trkpt><trkpt lat="52.294697" lon="16.870348"></trkpt><trkpt lat="52.294636" lon="16.869962"></trkpt><trkpt lat="52.294557" lon="16.869646"></trkpt><trkpt lat="52.294583" lon="16.869298"></trkpt><trkpt lat="52.294619" lon="16.868074"></trkpt><trkpt lat="52.294581" lon="16.866768"></trkpt><trkpt lat="52.294367" lon="16.866678"></trkpt><trkpt lat="52.294176" lon="16.866546"></trkpt><trkpt lat="52.290236" lon="16.864383"></trkpt><trkpt lat="52.290022" lon="16.86432"></trkpt><trkpt lat="52.287428" lon="16.863233"></trkpt><trkpt lat="52.287534" lon="16.862895"></trkpt><trkpt lat="52.287646" lon="16.862598"></trkpt><trkpt lat="52.289393" lon="16.858703"></trkpt><trkpt lat="52.289585" lon="16.858861"></trkpt><trkpt lat="52.289788" lon="16.85908"></trkpt><trkpt lat="52.290158" lon="16.859371"></trkpt><trkpt lat="52.290331" lon="16.859554"></trkpt><trkpt lat="52.290282" lon="16.859897"></trkpt><trkpt lat="52.290184" lon="16.860188"></trkpt><trkpt lat="52.289641" lon="16.861547"></trkpt><trkpt lat="52.288847" lon="16.863899"></trkpt><trkpt lat="52.289039" lon="16.864"></trkpt><trkpt lat="52.289311" lon="16.864098"></trkpt><trkpt lat="52.2937" lon="16.866256"></trkpt><trkpt lat="52.29398" lon="16.86644"></trkpt><trkpt lat="52.294549" lon="16.866981"></trkpt><trkpt lat="52.294546" lon="16.867316"></trkpt><trkpt lat="52.294651" lon="16.870322"></trkpt><trkpt lat="52.294619" lon="16.870691"></trkpt><trkpt lat="52.294866" lon="16.870859"></trkpt><trkpt lat="52.295255" lon="16.871028"></trkpt><trkpt lat="52.295668" lon="16.871269"></trkpt></trkseg></trk></gpx>