<?xml version="1.0" encoding="UTF-8" standalone="no" ?><gpx xmlns="http://www.topografix.com/GPX/1/1" xmlns:gpxx="http://www.garmin.com/xmlschemas/GpxExtensions/v3" ><trk><trkseg><trkpt lat="53.127764" lon="17.43551"></trkpt><trkpt lat="53.127823" lon="17.435828"></trkpt><trkpt lat="53.127961" lon="17.43608"></trkpt><trkpt lat="53.127964" lon="17.436431"></trkpt><trkpt lat="53.128005" lon="17.437176"></trkpt><trkpt lat="53.127789" lon="17.437188"></trkpt><trkpt lat="53.127617" lon="17.437005"></trkpt><trkpt lat="53.127227" lon="17.436516"></trkpt><trkpt lat="53.120351" lon="17.429115"></trkpt><trkpt lat="53.120002" lon="17.429177"></trkpt><trkpt lat="53.11964" lon="17.429288"></trkpt><trkpt lat="53.104094" lon="17.435986"></trkpt><trkpt lat="53.103673" lon="17.436335"></trkpt><trkpt lat="53.099714" lon="17.438908"></trkpt><trkpt lat="53.09941" lon="17.438379"></trkpt><trkpt lat="53.099308" lon="17.437902"></trkpt><trkpt lat="53.099246" lon="17.437471"></trkpt><trkpt lat="53.099203" lon="17.436938"></trkpt><trkpt lat="53.099053" lon="17.435846"></trkpt><trkpt lat="53.098854" lon="17.435311"></trkpt><trkpt lat="53.098691" lon="17.435019"></trkpt><trkpt lat="53.098518" lon="17.434772"></trkpt><trkpt lat="53.098049" lon="17.434198"></trkpt><trkpt lat="53.097809" lon="17.433827"></trkpt><trkpt lat="53.097618" lon="17.433462"></trkpt><trkpt lat="53.097431" lon="17.432904"></trkpt><trkpt lat="53.097349" lon="17.432583"></trkpt><trkpt lat="53.097239" lon="17.431983"></trkpt><trkpt lat="53.096797" lon="17.430101"></trkpt><trkpt lat="53.096669" lon="17.429802"></trkpt><trkpt lat="53.096519" lon="17.429551"></trkpt><trkpt lat="53.096044" lon="17.428634"></trkpt><trkpt lat="53.095594" lon="17.427574"></trkpt><trkpt lat="53.095371" lon="17.426611"></trkpt><trkpt lat="53.095324" lon="17.426031"></trkpt><trkpt lat="53.095312" lon="17.425624"></trkpt><trkpt lat="53.095341" lon="17.425123"></trkpt><trkpt lat="53.095333" lon="17.423635"></trkpt><trkpt lat="53.095243" lon="17.423009"></trkpt><trkpt lat="53.095133" lon="17.422501"></trkpt><trkpt lat="53.094513" lon="17.420176"></trkpt><trkpt lat="53.094253" lon="17.419795"></trkpt><trkpt lat="53.093946" lon="17.419487"></trkpt><trkpt lat="53.093725" lon="17.419451"></trkpt><trkpt lat="53.0935" lon="17.419538"></trkpt><trkpt lat="53.093292" lon="17.419584"></trkpt><trkpt lat="53.092996" lon="17.419729"></trkpt><trkpt lat="53.092535" lon="17.419736"></trkpt><trkpt lat="53.092309" lon="17.41951"></trkpt><trkpt lat="53.092163" lon="17.419231"></trkpt><trkpt lat="53.092069" lon="17.418866"></trkpt><trkpt lat="53.091939" lon="17.418478"></trkpt><trkpt lat="53.091359" lon="17.417059"></trkpt><trkpt lat="53.090983" lon="17.416722"></trkpt><trkpt lat="53.090663" lon="17.416548"></trkpt><trkpt lat="53.090298" lon="17.416506"></trkpt><trkpt lat="53.082658" lon="17.414716"></trkpt><trkpt lat="53.08224" lon="17.414161"></trkpt><trkpt lat="53.080796" lon="17.412603"></trkpt><trkpt lat="53.080234" lon="17.412211"></trkpt><trkpt lat="53.079763" lon="17.411969"></trkpt><trkpt lat="53.077349" lon="17.411034"></trkpt><trkpt lat="53.076742" lon="17.410878"></trkpt><trkpt lat="53.076533" lon="17.411071"></trkpt><trkpt lat="53.076361" lon="17.411279"></trkpt><trkpt lat="53.074723" lon="17.412861"></trkpt><trkpt lat="53.074166" lon="17.412925"></trkpt><trkpt lat="53.050715" lon="17.407331"></trkpt><trkpt lat="53.050679" lon="17.406952"></trkpt><trkpt lat="53.050676" lon="17.406603"></trkpt><trkpt lat="53.049406" lon="17.381772"></trkpt><trkpt lat="53.049289" lon="17.381424"></trkpt><trkpt lat="53.048148" lon="17.37729"></trkpt><trkpt lat="53.048109" lon="17.376855"></trkpt><trkpt lat="53.04817" lon="17.376263"></trkpt><trkpt lat="53.048383" lon="17.375994"></trkpt><trkpt lat="53.048561" lon="17.375816"></trkpt><trkpt lat="53.04877" lon="17.375791"></trkpt><trkpt lat="53.051119" lon="17.375228"></trkpt><trkpt lat="53.051374" lon="17.375134"></trkpt><trkpt lat="53.052304" lon="17.374613"></trkpt><trkpt lat="53.052408" lon="17.374206"></trkpt><trkpt lat="53.052805" lon="17.372162"></trkpt><trkpt lat="53.052787" lon="17.371143"></trkpt><trkpt lat="53.052366" lon="17.364464"></trkpt><trkpt lat="53.052193" lon="17.363455"></trkpt><trkpt lat="53.051369" lon="17.356894"></trkpt><trkpt lat="53.050528" lon="17.352105"></trkpt><trkpt lat="53.050319" lon="17.35204"></trkpt><trkpt lat="53.049893" lon="17.352339"></trkpt><trkpt lat="53.048057" lon="17.353323"></trkpt><trkpt lat="53.047744" lon="17.353233"></trkpt><trkpt lat="53.027832" lon="17.349956"></trkpt><trkpt lat="53.027528" lon="17.350332"></trkpt><trkpt lat="53.023384" lon="17.35472"></trkpt><trkpt lat="53.022785" lon="17.35522"></trkpt><trkpt lat="53.020167" lon="17.357842"></trkpt><trkpt lat="53.020033" lon="17.358279"></trkpt><trkpt lat="53.017767" lon="17.367474"></trkpt><trkpt lat="53.017782" lon="17.368227"></trkpt><trkpt lat="53.018056" lon="17.372224"></trkpt><trkpt lat="53.018108" lon="17.372659"></trkpt><trkpt lat="53.01851" lon="17.378279"></trkpt><trkpt lat="53.018139" lon="17.377917"></trkpt><trkpt lat="53.017797" lon="17.377487"></trkpt><trkpt lat="53.012459" lon="17.371704"></trkpt><trkpt lat="53.007607" lon="17.367236"></trkpt><trkpt lat="53.007219" lon="17.366959"></trkpt><trkpt lat="53.006787" lon="17.366576"></trkpt><trkpt lat="53.005903" lon="17.365585"></trkpt><trkpt lat="53.00583" lon="17.365271"></trkpt><trkpt lat="53.005751" lon="17.364683"></trkpt><trkpt lat="53.005673" lon="17.364249"></trkpt><trkpt lat="53.005555" lon="17.363875"></trkpt><trkpt lat="53.005363" lon="17.363515"></trkpt><trkpt lat="53.005105" lon="17.363159"></trkpt><trkpt lat="52.996208" lon="17.352538"></trkpt><trkpt lat="52.995993" lon="17.352369"></trkpt><trkpt lat="52.981943" lon="17.339116"></trkpt><trkpt lat="52.981138" lon="17.338585"></trkpt><trkpt lat="52.980576" lon="17.338369"></trkpt><trkpt lat="52.971581" lon="17.336078"></trkpt><trkpt lat="52.971381" lon="17.336182"></trkpt><trkpt lat="52.970913" lon="17.336356"></trkpt><trkpt lat="52.964232" lon="17.339706"></trkpt><trkpt lat="52.963567" lon="17.339956"></trkpt><trkpt lat="52.963349" lon="17.339725"></trkpt><trkpt lat="52.962873" lon="17.339114"></trkpt><trkpt lat="52.960333" lon="17.335241"></trkpt><trkpt lat="52.960242" lon="17.334727"></trkpt><trkpt lat="52.960298" lon="17.334006"></trkpt><trkpt lat="52.960385" lon="17.333405"></trkpt><trkpt lat="52.960441" lon="17.332706"></trkpt><trkpt lat="52.960372" lon="17.332356"></trkpt><trkpt lat="52.960181" lon="17.332066"></trkpt><trkpt lat="52.959818" lon="17.331645"></trkpt><trkpt lat="52.958938" lon="17.330904"></trkpt><trkpt lat="52.958361" lon="17.330826"></trkpt><trkpt lat="52.955149" lon="17.329813"></trkpt><trkpt lat="52.954971" lon="17.329176"></trkpt><trkpt lat="52.953505" lon="17.324863"></trkpt><trkpt lat="52.953163" lon="17.324066"></trkpt><trkpt lat="52.949923" lon="17.317775"></trkpt><trkpt lat="52.949418" lon="17.317337"></trkpt><trkpt lat="52.949175" lon="17.317197"></trkpt><trkpt lat="52.948833" lon="17.316843"></trkpt><trkpt lat="52.948652" lon="17.316684"></trkpt><trkpt lat="52.947656" lon="17.315636"></trkpt><trkpt lat="52.947464" lon="17.315198"></trkpt><trkpt lat="52.947324" lon="17.314615"></trkpt><trkpt lat="52.947198" lon="17.313845"></trkpt><trkpt lat="52.946303" lon="17.306034"></trkpt><trkpt lat="52.946743" lon="17.305976"></trkpt><trkpt lat="52.947173" lon="17.305836"></trkpt><trkpt lat="52.947103" lon="17.305469"></trkpt><trkpt lat="52.946113" lon="17.301344"></trkpt><trkpt lat="52.945904" lon="17.301441"></trkpt><trkpt lat="52.944814" lon="17.301632"></trkpt><trkpt lat="52.944698" lon="17.301244"></trkpt><trkpt lat="52.944587" lon="17.30096"></trkpt><trkpt lat="52.944125" lon="17.299959"></trkpt><trkpt lat="52.944096" lon="17.299523"></trkpt><trkpt lat="52.94431" lon="17.299333"></trkpt><trkpt lat="52.944078" lon="17.299495"></trkpt><trkpt lat="52.943867" lon="17.2996"></trkpt><trkpt lat="52.94366" lon="17.299643"></trkpt><trkpt lat="52.943342" lon="17.299664"></trkpt><trkpt lat="52.943227" lon="17.299195"></trkpt><trkpt lat="52.943124" lon="17.298606"></trkpt><trkpt lat="52.942487" lon="17.295883"></trkpt><trkpt lat="52.942275" lon="17.29531"></trkpt><trkpt lat="52.932781" lon="17.273369"></trkpt><trkpt lat="52.932495" lon="17.273202"></trkpt><trkpt lat="52.932252" lon="17.272973"></trkpt><trkpt lat="52.911022" lon="17.253717"></trkpt><trkpt lat="52.910439" lon="17.253401"></trkpt><trkpt lat="52.906142" lon="17.250341"></trkpt><trkpt lat="52.905861" lon="17.249911"></trkpt><trkpt lat="52.898798" lon="17.240557"></trkpt><trkpt lat="52.890225" lon="17.227328"></trkpt><trkpt lat="52.890102" lon="17.226928"></trkpt><trkpt lat="52.889985" lon="17.226613"></trkpt><trkpt lat="52.889827" lon="17.226028"></trkpt><trkpt lat="52.887533" lon="17.219354"></trkpt><trkpt lat="52.887255" lon="17.218991"></trkpt><trkpt lat="52.877152" lon="17.203778"></trkpt><trkpt lat="52.876945" lon="17.203235"></trkpt><trkpt lat="52.876716" lon="17.202488"></trkpt><trkpt lat="52.876582" lon="17.202244"></trkpt><trkpt lat="52.876432" lon="17.201872"></trkpt><trkpt lat="52.863699" lon="17.168155"></trkpt><trkpt lat="52.852201" lon="17.133053"></trkpt><trkpt lat="52.852028" lon="17.132619"></trkpt><trkpt lat="52.848306" lon="17.121654"></trkpt><trkpt lat="52.848547" lon="17.121385"></trkpt><trkpt lat="52.848681" lon="17.121088"></trkpt><trkpt lat="52.848433" lon="17.121483"></trkpt><trkpt lat="52.848228" lon="17.121593"></trkpt><trkpt lat="52.848049" lon="17.121936"></trkpt><trkpt lat="52.847859" lon="17.122096"></trkpt><trkpt lat="52.847673" lon="17.121676"></trkpt><trkpt lat="52.842596" lon="17.111869"></trkpt><trkpt lat="52.84234" lon="17.111655"></trkpt><trkpt lat="52.842153" lon="17.11147"></trkpt><trkpt lat="52.841184" lon="17.110153"></trkpt><trkpt lat="52.841021" lon="17.109744"></trkpt><trkpt lat="52.836816" lon="17.097246"></trkpt><trkpt lat="52.836693" lon="17.096588"></trkpt><trkpt lat="52.828912" lon="17.063419"></trkpt><trkpt lat="52.828525" lon="17.063036"></trkpt><trkpt lat="52.814901" lon="17.047274"></trkpt><trkpt lat="52.814543" lon="17.046737"></trkpt><trkpt lat="52.806474" lon="17.036351"></trkpt><trkpt lat="52.806198" lon="17.036303"></trkpt><trkpt lat="52.805171" lon="17.036274"></trkpt><trkpt lat="52.804993" lon="17.036698"></trkpt><trkpt lat="52.804925" lon="17.03714"></trkpt><trkpt lat="52.804795" lon="17.037508"></trkpt><trkpt lat="52.80459" lon="17.037583"></trkpt><trkpt lat="52.803057" lon="17.037915"></trkpt><trkpt lat="52.802862" lon="17.037704"></trkpt><trkpt lat="52.802442" lon="17.037165"></trkpt><trkpt lat="52.802274" lon="17.03685"></trkpt><trkpt lat="52.801948" lon="17.036339"></trkpt><trkpt lat="52.795947" lon="17.028246"></trkpt><trkpt lat="52.795405" lon="17.027335"></trkpt><trkpt lat="52.794944" lon="17.026404"></trkpt><trkpt lat="52.794835" lon="17.0261"></trkpt><trkpt lat="52.794693" lon="17.02583"></trkpt><trkpt lat="52.793046" lon="17.023214"></trkpt><trkpt lat="52.792878" lon="17.023004"></trkpt><trkpt lat="52.792163" lon="17.02224"></trkpt><trkpt lat="52.791983" lon="17.022097"></trkpt><trkpt lat="52.790688" lon="17.020854"></trkpt><trkpt lat="52.790511" lon="17.020652"></trkpt><trkpt lat="52.787658" lon="17.017976"></trkpt><trkpt lat="52.787239" lon="17.017733"></trkpt><trkpt lat="52.778976" lon="17.014029"></trkpt><trkpt lat="52.778779" lon="17.013987"></trkpt><trkpt lat="52.773746" lon="17.013623"></trkpt><trkpt lat="52.773499" lon="17.013774"></trkpt><trkpt lat="52.770523" lon="17.015146"></trkpt><trkpt lat="52.770246" lon="17.01519"></trkpt><trkpt lat="52.768724" lon="17.015623"></trkpt><trkpt lat="52.768569" lon="17.015868"></trkpt><trkpt lat="52.768346" lon="17.016172"></trkpt><trkpt lat="52.766629" lon="17.01809"></trkpt><trkpt lat="52.76634" lon="17.018086"></trkpt><trkpt lat="52.76365" lon="17.017654"></trkpt><trkpt lat="52.763418" lon="17.017526"></trkpt><trkpt lat="52.763072" lon="17.017234"></trkpt><trkpt lat="52.761779" lon="17.015943"></trkpt><trkpt lat="52.754418" lon="17.007341"></trkpt><trkpt lat="52.754348" lon="17.006581"></trkpt><trkpt lat="52.754229" lon="17.00597"></trkpt><trkpt lat="52.753896" lon="17.004674"></trkpt><trkpt lat="52.753603" lon="17.004848"></trkpt><trkpt lat="52.753394" lon="17.00492"></trkpt><trkpt lat="52.753137" lon="17.004944"></trkpt><trkpt lat="52.752928" lon="17.004824"></trkpt><trkpt lat="52.752489" lon="17.004722"></trkpt><trkpt lat="52.752142" lon="17.00476"></trkpt><trkpt lat="52.751925" lon="17.004578"></trkpt><trkpt lat="52.751968" lon="17.003924"></trkpt><trkpt lat="52.751811" lon="17.003666"></trkpt><trkpt lat="52.751575" lon="17.003597"></trkpt><trkpt lat="52.751287" lon="17.003365"></trkpt><trkpt lat="52.751181" lon="17.003083"></trkpt><trkpt lat="52.751355" lon="17.002836"></trkpt><trkpt lat="52.751561" lon="17.002703"></trkpt><trkpt lat="52.751819" lon="17.00268"></trkpt><trkpt lat="52.753117" lon="17.002276"></trkpt><trkpt lat="52.753182" lon="17.00179"></trkpt><trkpt lat="52.753204" lon="17.001147"></trkpt><trkpt lat="52.753188" lon="16.999631"></trkpt><trkpt lat="52.753127" lon="16.998557"></trkpt><trkpt lat="52.752994" lon="16.997522"></trkpt><trkpt lat="52.752712" lon="16.997042"></trkpt><trkpt lat="52.752617" lon="16.996721"></trkpt><trkpt lat="52.752555" lon="16.996394"></trkpt><trkpt lat="52.752512" lon="16.996051"></trkpt><trkpt lat="52.752494" lon="16.995722"></trkpt><trkpt lat="52.752514" lon="16.991759"></trkpt><trkpt lat="52.752623" lon="16.991442"></trkpt><trkpt lat="52.752963" lon="16.990243"></trkpt><trkpt lat="52.755086" lon="16.980732"></trkpt><trkpt lat="52.754849" lon="16.980502"></trkpt><trkpt lat="52.754398" lon="16.980147"></trkpt><trkpt lat="52.754062" lon="16.980195"></trkpt><trkpt lat="52.753592" lon="16.979659"></trkpt><trkpt lat="52.753576" lon="16.979195"></trkpt><trkpt lat="52.7536" lon="16.978182"></trkpt><trkpt lat="52.753641" lon="16.977828"></trkpt><trkpt lat="52.754016" lon="16.972207"></trkpt><trkpt lat="52.753807" lon="16.972224"></trkpt><trkpt lat="52.754144" lon="16.972088"></trkpt></trkseg></trk></gpx>