<?xml version="1.0" encoding="UTF-8" standalone="no" ?><gpx xmlns="http://www.topografix.com/GPX/1/1" xmlns:gpxx="http://www.garmin.com/xmlschemas/GpxExtensions/v3" ><trk><trkseg><trkpt lat="52.2588972934" lon="21.0011958517"></trkpt><trkpt lat="52.2597031295" lon="21.005291082"></trkpt><trkpt lat="52.260894198" lon="21.0090538021"></trkpt><trkpt lat="52.2688145097" lon="21.0279463604"></trkpt><trkpt lat="52.2697749082" lon="21.0276757088"></trkpt><trkpt lat="52.2707586084" lon="21.0269900691"></trkpt><trkpt lat="52.37466814" lon="20.9639161639"></trkpt><trkpt lat="52.377180364" lon="20.9630875289"></trkpt><trkpt lat="52.3911713529" lon="20.9547933005"></trkpt><trkpt lat="52.393522393" lon="20.9517406113"></trkpt><trkpt lat="52.4093612563" lon="20.9236929193"></trkpt><trkpt lat="52.4106027838" lon="20.9179834183"></trkpt><trkpt lat="52.4135346059" lon="20.8993972186"></trkpt><trkpt lat="52.4252532609" lon="20.7770516071"></trkpt><trkpt lat="52.4248148035" lon="20.7681859005"></trkpt><trkpt lat="52.4250127841" lon="20.7277846243"></trkpt><trkpt lat="52.4251742195" lon="20.7256243564"></trkpt><trkpt lat="52.4286235403" lon="20.7005328778"></trkpt><trkpt lat="52.4297323823" lon="20.698243361"></trkpt><trkpt lat="52.4302908685" lon="20.697330907"></trkpt><trkpt lat="52.4313143827" lon="20.6961418502"></trkpt><trkpt lat="52.4324705824" lon="20.6953277998"></trkpt><trkpt lat="52.433706494" lon="20.6949697249"></trkpt><trkpt lat="52.4349626899" lon="20.6950787734"></trkpt><trkpt lat="52.4364648107" lon="20.6957096793"></trkpt><trkpt lat="52.4407873582" lon="20.6983816624"></trkpt><trkpt lat="52.4415703118" lon="20.6997775007"></trkpt><trkpt lat="52.4435866624" lon="20.7041037362"></trkpt><trkpt lat="52.4459959567" lon="20.7083079312"></trkpt><trkpt lat="52.4483073503" lon="20.7115555834"></trkpt><trkpt lat="52.4505925085" lon="20.7140312623"></trkpt><trkpt lat="52.4529279582" lon="20.715994807"></trkpt><trkpt lat="52.4624292646" lon="20.7262129337"></trkpt><trkpt lat="52.4716216978" lon="20.7386831939"></trkpt><trkpt lat="52.4727514107" lon="20.7421449199"></trkpt><trkpt lat="52.4731140118" lon="20.74293877"></trkpt><trkpt lat="52.4742065929" lon="20.7446552999"></trkpt><trkpt lat="52.4755109008" lon="20.74589842"></trkpt><trkpt lat="52.4769558571" lon="20.7466277294"></trkpt><trkpt lat="52.4784546252" lon="20.7467839681"></trkpt><trkpt lat="52.484352719" lon="20.7451900654"></trkpt><trkpt lat="52.5086961128" lon="20.7446979638"></trkpt><trkpt lat="52.5135912281" lon="20.7478220668"></trkpt><trkpt lat="52.5196888112" lon="20.7506660465"></trkpt><trkpt lat="52.5199889671" lon="20.7507205289"></trkpt><trkpt lat="52.5750553887" lon="20.7689666748"></trkpt><trkpt lat="52.576402612" lon="20.7698124088"></trkpt><trkpt lat="52.5790097192" lon="20.7709230948"></trkpt><trkpt lat="52.5829275884" lon="20.7684435602"></trkpt><trkpt lat="52.5831888523" lon="20.7680625189"></trkpt><trkpt lat="52.5839974545" lon="20.7664630841"></trkpt><trkpt lat="52.5847242493" lon="20.7643196639"></trkpt><trkpt lat="52.5850031991" lon="20.7624624856"></trkpt><trkpt lat="52.5850031991" lon="20.7604888827"></trkpt><trkpt lat="52.584737828" lon="20.7584945764"></trkpt><trkpt lat="52.5803129375" lon="20.7367566973"></trkpt><trkpt lat="52.5758164655" lon="20.7005692553"></trkpt><trkpt lat="52.5757674314" lon="20.6952504348"></trkpt><trkpt lat="52.5766366348" lon="20.6801904179"></trkpt><trkpt lat="52.577342391" lon="20.6767455395"></trkpt><trkpt lat="52.5776423793" lon="20.6744737085"></trkpt><trkpt lat="52.5776428822" lon="20.6721977703"></trkpt><trkpt lat="52.582977796" lon="20.5822348874"></trkpt><trkpt lat="52.5838761684" lon="20.5785164237"></trkpt><trkpt lat="52.584314961" lon="20.5759872682"></trkpt><trkpt lat="52.5846988522" lon="20.5723493546"></trkpt><trkpt lat="52.6055279654" lon="20.3939604107"></trkpt><trkpt lat="52.6065158565" lon="20.389887644"></trkpt><trkpt lat="52.6079150476" lon="20.3855070099"></trkpt><trkpt lat="52.6116907597" lon="20.3760870919"></trkpt><trkpt lat="52.6198338624" lon="20.3599865455"></trkpt><trkpt lat="52.6211566944" lon="20.3591214493"></trkpt><trkpt lat="52.6226034109" lon="20.3585682437"></trkpt><trkpt lat="52.6239710022" lon="20.3583905473"></trkpt><trkpt lat="52.6356919203" lon="20.355104506"></trkpt><trkpt lat="52.6376236975" lon="20.3538424429"></trkpt><trkpt lat="52.6511908136" lon="20.3423183318"></trkpt><trkpt lat="52.6520795468" lon="20.3407598846"></trkpt><trkpt lat="52.6528374385" lon="20.3387799114"></trkpt><trkpt lat="52.6537920535" lon="20.3353165928"></trkpt><trkpt lat="52.6592069305" lon="20.3197607026"></trkpt><trkpt lat="52.6969027799" lon="20.2312377468"></trkpt><trkpt lat="52.6974360365" lon="20.2303994726"></trkpt><trkpt lat="52.7105644438" lon="20.2056533284"></trkpt><trkpt lat="52.7121047024" lon="20.2021282353"></trkpt><trkpt lat="52.7359103132" lon="20.1567797922"></trkpt><trkpt lat="52.7373480611" lon="20.1551512722"></trkpt><trkpt lat="52.7390906587" lon="20.1535313018"></trkpt><trkpt lat="52.7395310439" lon="20.1532168128"></trkpt><trkpt lat="52.7583346702" lon="20.1354051009"></trkpt><trkpt lat="52.7606486622" lon="20.1320577879"></trkpt><trkpt lat="52.7818678692" lon="20.0954380911"></trkpt><trkpt lat="52.7831238974" lon="20.0911557768"></trkpt><trkpt lat="52.7902076114" lon="20.0592801534"></trkpt><trkpt lat="52.7905597351" lon="20.0546404347"></trkpt><trkpt lat="52.7910629846" lon="20.0518995523"></trkpt><trkpt lat="52.7995951753" lon="19.9841775466"></trkpt><trkpt lat="52.8010599967" lon="19.9767654296"></trkpt><trkpt lat="52.831459567" lon="19.7994166799"></trkpt><trkpt lat="52.8318886366" lon="19.7955460846"></trkpt><trkpt lat="52.8356158175" lon="19.7301034536"></trkpt><trkpt lat="52.8352675494" lon="19.7258766275"></trkpt><trkpt lat="52.8350168467" lon="19.6936901193"></trkpt><trkpt lat="52.8357083537" lon="19.6902216878"></trkpt><trkpt lat="52.8375863191" lon="19.6756795887"></trkpt><trkpt lat="52.8376269713" lon="19.6725407336"></trkpt><trkpt lat="52.8378629219" lon="19.6703720838"></trkpt><trkpt lat="52.8383229207" lon="19.6686266363"></trkpt><trkpt lat="52.8391136695" lon="19.6668712981"></trkpt><trkpt lat="52.8400635906" lon="19.6655771323"></trkpt><trkpt lat="52.8417036775" lon="19.6640703175"></trkpt><trkpt lat="52.8455119114" lon="19.6593632083"></trkpt><trkpt lat="52.8463256266" lon="19.6574913617"></trkpt><trkpt lat="52.8619209118" lon="19.6127406321"></trkpt><trkpt lat="52.8621794097" lon="19.6098385658"></trkpt><trkpt lat="52.8659169003" lon="19.5012348332"></trkpt><trkpt lat="52.8657860588" lon="19.4951795787"></trkpt><trkpt lat="52.871771073" lon="19.3583256472"></trkpt><trkpt lat="52.8713640478" lon="19.3171990849"></trkpt><trkpt lat="52.8711726889" lon="19.3144057319"></trkpt><trkpt lat="52.8602013644" lon="19.2261716165"></trkpt><trkpt lat="52.8595499229" lon="19.2229675502"></trkpt><trkpt lat="52.8541352972" lon="19.1835922189"></trkpt><trkpt lat="52.8541351296" lon="19.1817502119"></trkpt><trkpt lat="52.8610267304" lon="19.1217815503"></trkpt><trkpt lat="52.8629703261" lon="19.1154703125"></trkpt><trkpt lat="52.8672055341" lon="19.1087791231"></trkpt><trkpt lat="52.8685407713" lon="19.1058893781"></trkpt><trkpt lat="52.9372694436" lon="18.9623865858"></trkpt><trkpt lat="52.9375232477" lon="18.9610329084"></trkpt><trkpt lat="52.9459257703" lon="18.9298561681"></trkpt><trkpt lat="52.9472690541" lon="18.9271280263"></trkpt><trkpt lat="53.0185673665" lon="18.7846891489"></trkpt><trkpt lat="53.0193224922" lon="18.7828497402"></trkpt><trkpt lat="53.0213439558" lon="18.7757741567"></trkpt><trkpt lat="53.0212890543" lon="18.7738228496"></trkpt><trkpt lat="53.0210089311" lon="18.7711081188"></trkpt><trkpt lat="53.0207377765" lon="18.7651574705"></trkpt><trkpt lat="53.0208066758" lon="18.7642953917"></trkpt><trkpt lat="53.0208837055" lon="18.7637864426"></trkpt><trkpt lat="53.0213282816" lon="18.7619088963"></trkpt><trkpt lat="53.0219625402" lon="18.7603325117"></trkpt><trkpt lat="53.0223107245" lon="18.759657098"></trkpt><trkpt lat="53.0279888771" lon="18.745205272"></trkpt><trkpt lat="53.0284549948" lon="18.7427079678"></trkpt><trkpt lat="53.0336837098" lon="18.7223444693"></trkpt><trkpt lat="53.0361183174" lon="18.7182463054"></trkpt><trkpt lat="53.04311838" lon="18.7019823119"></trkpt><trkpt lat="53.0443589855" lon="18.6967561953"></trkpt><trkpt lat="53.0484125577" lon="18.670483036"></trkpt><trkpt lat="53.0471649114" lon="18.6678653676"></trkpt><trkpt lat="53.0345981754" lon="18.6459030211"></trkpt><trkpt lat="53.0338148866" lon="18.6447663512"></trkpt><trkpt lat="53.025056133" lon="18.6267530546"></trkpt><trkpt lat="53.0250230245" lon="18.6262775492"></trkpt><trkpt lat="53.023113627" lon="18.6281654891"></trkpt><trkpt lat="53.0216176249" lon="18.6258665007"></trkpt><trkpt lat="53.0152457021" lon="18.6178306863"></trkpt><trkpt lat="53.0149483122" lon="18.617810905"></trkpt><trkpt lat="53.0146764871" lon="18.618515823"></trkpt><trkpt lat="53.0143170711" lon="18.6177591048"></trkpt><trkpt lat="53.0137737561" lon="18.6176829133"></trkpt><trkpt lat="53.0135238916" lon="18.6185124703"></trkpt><trkpt lat="53.0128559377" lon="18.6194150336"></trkpt><trkpt lat="53.0125745572" lon="18.6196144391"></trkpt><trkpt lat="53.0040328111" lon="18.6237125192"></trkpt><trkpt lat="53.0024391599" lon="18.6223130766"></trkpt><trkpt lat="53.0018536001" lon="18.6212029774"></trkpt><trkpt lat="53.0016296357" lon="18.6204519589"></trkpt><trkpt lat="53.001389578" lon="18.6193183064"></trkpt><trkpt lat="53.001703145" lon="18.6210309807"></trkpt><trkpt lat="53.0041369982" lon="18.6408039741"></trkpt><trkpt lat="53.0038173962" lon="18.6432218179"></trkpt><trkpt lat="53.0032423139" lon="18.6455574352"></trkpt><trkpt lat="53.0024179537" lon="18.6476976704"></trkpt><trkpt lat="53.0011970457" lon="18.6497753765"></trkpt><trkpt lat="52.9998630658" lon="18.6512661818"></trkpt><trkpt lat="52.9972910788" lon="18.6535902321"></trkpt><trkpt lat="52.9356154427" lon="18.696565507"></trkpt><trkpt lat="52.9320767708" lon="18.6964293011"></trkpt><trkpt lat="52.9149218649" lon="18.69309959"></trkpt><trkpt lat="52.8795619681" lon="18.6921867169"></trkpt><trkpt lat="52.8783681337" lon="18.6933068745"></trkpt><trkpt lat="52.8777798917" lon="18.6939884908"></trkpt><trkpt lat="52.8693780396" lon="18.7063334417"></trkpt><trkpt lat="52.8688459564" lon="18.7084663007"></trkpt><trkpt lat="52.8686655778" lon="18.7095914874"></trkpt><trkpt lat="52.8684745543" lon="18.7116808444"></trkpt><trkpt lat="52.8684598021" lon="18.7135650963"></trkpt><trkpt lat="52.87016619" lon="18.7493414059"></trkpt><trkpt lat="52.870643707" lon="18.7516121473"></trkpt><trkpt lat="52.8712308593" lon="18.7537118141"></trkpt><trkpt lat="52.8708944097" lon="18.7527107634"></trkpt><trkpt lat="52.8702946845" lon="18.7500292249"></trkpt><trkpt lat="52.8699837998" lon="18.7479999661"></trkpt><trkpt lat="52.8696641978" lon="18.7440033071"></trkpt><trkpt lat="52.8689491376" lon="18.7081712577"></trkpt><trkpt lat="52.8692038637" lon="18.7071354222"></trkpt><trkpt lat="52.8698890004" lon="18.7050083466"></trkpt><trkpt lat="52.8703868855" lon="18.7038411666"></trkpt><trkpt lat="52.870935984" lon="18.7028784212"></trkpt><trkpt lat="52.8721831273" lon="18.7011955027"></trkpt><trkpt lat="52.8827314172" lon="18.6903789081"></trkpt><trkpt lat="52.8844291717" lon="18.6899596453"></trkpt><trkpt lat="52.8858701885" lon="18.6898978706"></trkpt><trkpt lat="52.9782160465" lon="18.670941107"></trkpt><trkpt lat="52.9806138575" lon="18.6687736306"></trkpt><trkpt lat="53.0040090904" lon="18.6420178413"></trkpt><trkpt lat="53.0041895527" lon="18.6398668773"></trkpt><trkpt lat="53.0041714478" lon="18.6379041709"></trkpt><trkpt lat="53.004037505" lon="18.6359827034"></trkpt><trkpt lat="53.003623439" lon="18.6327515636"></trkpt><trkpt lat="53.0000509042" lon="18.6134530697"></trkpt><trkpt lat="52.9996981937" lon="18.6120698042"></trkpt><trkpt lat="52.9809774645" lon="18.5575021897"></trkpt><trkpt lat="52.9793046042" lon="18.5563505162"></trkpt><trkpt lat="52.9664978944" lon="18.5503360815"></trkpt><trkpt lat="52.9638254084" lon="18.5499762464"></trkpt><trkpt lat="52.9484280199" lon="18.5443754587"></trkpt><trkpt lat="52.9454670288" lon="18.5405564122"></trkpt><trkpt lat="52.9146535601" lon="18.4926930629"></trkpt><trkpt lat="52.9119239934" lon="18.4845435061"></trkpt><trkpt lat="52.8522740118" lon="18.3264181484"></trkpt><trkpt lat="52.8054273035" lon="18.2444246113"></trkpt></trkseg></trk></gpx>