<?xml version="1.0" encoding="UTF-8" standalone="no" ?><gpx xmlns="http://www.topografix.com/GPX/1/1" xmlns:gpxx="http://www.garmin.com/xmlschemas/GpxExtensions/v3" ><trk><trkseg><trkpt lat="52.417261" lon="15.617975"></trkpt><trkpt lat="52.417392" lon="15.618274"></trkpt><trkpt lat="52.417592" lon="15.618192"></trkpt><trkpt lat="52.417629" lon="15.617729"></trkpt><trkpt lat="52.417642" lon="15.617001"></trkpt><trkpt lat="52.417629" lon="15.616501"></trkpt><trkpt lat="52.417859" lon="15.616295"></trkpt><trkpt lat="52.418154" lon="15.616223"></trkpt><trkpt lat="52.418464" lon="15.616388"></trkpt><trkpt lat="52.418628" lon="15.61657"></trkpt><trkpt lat="52.418792" lon="15.616807"></trkpt><trkpt lat="52.419184" lon="15.617253"></trkpt><trkpt lat="52.419597" lon="15.617655"></trkpt><trkpt lat="52.420944" lon="15.618704"></trkpt><trkpt lat="52.421255" lon="15.618782"></trkpt><trkpt lat="52.421521" lon="15.618894"></trkpt><trkpt lat="52.421717" lon="15.619047"></trkpt><trkpt lat="52.42547" lon="15.621463"></trkpt><trkpt lat="52.425807" lon="15.621334"></trkpt><trkpt lat="52.426429" lon="15.62117"></trkpt><trkpt lat="52.426822" lon="15.621345"></trkpt><trkpt lat="52.427037" lon="15.621737"></trkpt><trkpt lat="52.427261" lon="15.622067"></trkpt><trkpt lat="52.42755" lon="15.622373"></trkpt><trkpt lat="52.42795" lon="15.622706"></trkpt><trkpt lat="52.428339" lon="15.622879"></trkpt><trkpt lat="52.428601" lon="15.622861"></trkpt><trkpt lat="52.428926" lon="15.622756"></trkpt><trkpt lat="52.431114" lon="15.62232"></trkpt><trkpt lat="52.431508" lon="15.622492"></trkpt><trkpt lat="52.439629" lon="15.625293"></trkpt><trkpt lat="52.440123" lon="15.62538"></trkpt><trkpt lat="52.440341" lon="15.625462"></trkpt><trkpt lat="52.445651" lon="15.628145"></trkpt><trkpt lat="52.445817" lon="15.628418"></trkpt><trkpt lat="52.446278" lon="15.628711"></trkpt><trkpt lat="52.446614" lon="15.628862"></trkpt><trkpt lat="52.454639" lon="15.63258"></trkpt><trkpt lat="52.454887" lon="15.632837"></trkpt><trkpt lat="52.455304" lon="15.633426"></trkpt><trkpt lat="52.455494" lon="15.633809"></trkpt><trkpt lat="52.460547" lon="15.644368"></trkpt><trkpt lat="52.461041" lon="15.645211"></trkpt><trkpt lat="52.461316" lon="15.645469"></trkpt><trkpt lat="52.461668" lon="15.645727"></trkpt><trkpt lat="52.462032" lon="15.645933"></trkpt><trkpt lat="52.4625" lon="15.646301"></trkpt><trkpt lat="52.46272" lon="15.646578"></trkpt><trkpt lat="52.463024" lon="15.646651"></trkpt><trkpt lat="52.463887" lon="15.646726"></trkpt><trkpt lat="52.465171" lon="15.646464"></trkpt><trkpt lat="52.465436" lon="15.64632"></trkpt><trkpt lat="52.466227" lon="15.645775"></trkpt><trkpt lat="52.466429" lon="15.645865"></trkpt><trkpt lat="52.466621" lon="15.64598"></trkpt><trkpt lat="52.467033" lon="15.646365"></trkpt><trkpt lat="52.467237" lon="15.646674"></trkpt><trkpt lat="52.467398" lon="15.647069"></trkpt><trkpt lat="52.467848" lon="15.648443"></trkpt><trkpt lat="52.467905" lon="15.648774"></trkpt><trkpt lat="52.468315" lon="15.650305"></trkpt><trkpt lat="52.468534" lon="15.650663"></trkpt><trkpt lat="52.468711" lon="15.650884"></trkpt><trkpt lat="52.468974" lon="15.651132"></trkpt><trkpt lat="52.469406" lon="15.651432"></trkpt><trkpt lat="52.469673" lon="15.651496"></trkpt><trkpt lat="52.469311" lon="15.651328"></trkpt><trkpt lat="52.469031" lon="15.651118"></trkpt><trkpt lat="52.468738" lon="15.65083"></trkpt><trkpt lat="52.468499" lon="15.650521"></trkpt><trkpt lat="52.468264" lon="15.650019"></trkpt><trkpt lat="52.468189" lon="15.649678"></trkpt><trkpt lat="52.467992" lon="15.649001"></trkpt><trkpt lat="52.468039" lon="15.649475"></trkpt><trkpt lat="52.46815" lon="15.649895"></trkpt><trkpt lat="52.46833" lon="15.650276"></trkpt><trkpt lat="52.468686" lon="15.650881"></trkpt><trkpt lat="52.468906" lon="15.651097"></trkpt><trkpt lat="52.469414" lon="15.65146"></trkpt><trkpt lat="52.469653" lon="15.651519"></trkpt><trkpt lat="52.469897" lon="15.651531"></trkpt><trkpt lat="52.47083" lon="15.651728"></trkpt><trkpt lat="52.471173" lon="15.652101"></trkpt><trkpt lat="52.471358" lon="15.652337"></trkpt><trkpt lat="52.473643" lon="15.654806"></trkpt><trkpt lat="52.473869" lon="15.654859"></trkpt><trkpt lat="52.474794" lon="15.654803"></trkpt><trkpt lat="52.475026" lon="15.654453"></trkpt><trkpt lat="52.47515" lon="15.654123"></trkpt><trkpt lat="52.475239" lon="15.653522"></trkpt><trkpt lat="52.475263" lon="15.653166"></trkpt><trkpt lat="52.475235" lon="15.652765"></trkpt><trkpt lat="52.475242" lon="15.652306"></trkpt><trkpt lat="52.475067" lon="15.651805"></trkpt><trkpt lat="52.474852" lon="15.651509"></trkpt><trkpt lat="52.474636" lon="15.65151"></trkpt><trkpt lat="52.474836" lon="15.651496"></trkpt><trkpt lat="52.475051" lon="15.651896"></trkpt><trkpt lat="52.47532" lon="15.651068"></trkpt><trkpt lat="52.475399" lon="15.650627"></trkpt><trkpt lat="52.475473" lon="15.649587"></trkpt><trkpt lat="52.475451" lon="15.649258"></trkpt><trkpt lat="52.475393" lon="15.648945"></trkpt><trkpt lat="52.475357" lon="15.648418"></trkpt><trkpt lat="52.475394" lon="15.648777"></trkpt><trkpt lat="52.475395" lon="15.649147"></trkpt><trkpt lat="52.475416" lon="15.64955"></trkpt><trkpt lat="52.475384" lon="15.650032"></trkpt><trkpt lat="52.474787" lon="15.654802"></trkpt><trkpt lat="52.47453" lon="15.65497"></trkpt><trkpt lat="52.474138" lon="15.654857"></trkpt><trkpt lat="52.47299" lon="15.654332"></trkpt><trkpt lat="52.472649" lon="15.654545"></trkpt><trkpt lat="52.472496" lon="15.654807"></trkpt><trkpt lat="52.47212" lon="15.65556"></trkpt><trkpt lat="52.47198" lon="15.655895"></trkpt><trkpt lat="52.470721" lon="15.659447"></trkpt><trkpt lat="52.470654" lon="15.659966"></trkpt><trkpt lat="52.470558" lon="15.660498"></trkpt><trkpt lat="52.47039" lon="15.661752"></trkpt><trkpt lat="52.470066" lon="15.663478"></trkpt><trkpt lat="52.469929" lon="15.663717"></trkpt><trkpt lat="52.469665" lon="15.66391"></trkpt><trkpt lat="52.469293" lon="15.664112"></trkpt><trkpt lat="52.469063" lon="15.664294"></trkpt><trkpt lat="52.468781" lon="15.664458"></trkpt><trkpt lat="52.46857" lon="15.664675"></trkpt><trkpt lat="52.468425" lon="15.664964"></trkpt><trkpt lat="52.468302" lon="15.665288"></trkpt><trkpt lat="52.468213" lon="15.66559"></trkpt><trkpt lat="52.46806" lon="15.666013"></trkpt><trkpt lat="52.46765" lon="15.666983"></trkpt><trkpt lat="52.465649" lon="15.673054"></trkpt><trkpt lat="52.465602" lon="15.673574"></trkpt><trkpt lat="52.465574" lon="15.674183"></trkpt><trkpt lat="52.465095" lon="15.679548"></trkpt><trkpt lat="52.463796" lon="15.692846"></trkpt><trkpt lat="52.463698" lon="15.693168"></trkpt><trkpt lat="52.463539" lon="15.693521"></trkpt><trkpt lat="52.463429" lon="15.693822"></trkpt><trkpt lat="52.463318" lon="15.694312"></trkpt><trkpt lat="52.463227" lon="15.694612"></trkpt><trkpt lat="52.463143" lon="15.695003"></trkpt><trkpt lat="52.461775" lon="15.700054"></trkpt><trkpt lat="52.461528" lon="15.700527"></trkpt><trkpt lat="52.459775" lon="15.703442"></trkpt><trkpt lat="52.459497" lon="15.703627"></trkpt><trkpt lat="52.459222" lon="15.703607"></trkpt><trkpt lat="52.459001" lon="15.703663"></trkpt><trkpt lat="52.458725" lon="15.703505"></trkpt><trkpt lat="52.458725" lon="15.703178"></trkpt><trkpt lat="52.458795" lon="15.702586"></trkpt><trkpt lat="52.458832" lon="15.701249"></trkpt><trkpt lat="52.45862" lon="15.700753"></trkpt><trkpt lat="52.458251" lon="15.699724"></trkpt><trkpt lat="52.45768" lon="15.698373"></trkpt><trkpt lat="52.457506" lon="15.69819"></trkpt><trkpt lat="52.455296" lon="15.695417"></trkpt><trkpt lat="52.455039" lon="15.694918"></trkpt><trkpt lat="52.454839" lon="15.694778"></trkpt><trkpt lat="52.454691" lon="15.694511"></trkpt><trkpt lat="52.453646" lon="15.692324"></trkpt><trkpt lat="52.450964" lon="15.685757"></trkpt><trkpt lat="52.450916" lon="15.685084"></trkpt><trkpt lat="52.450812" lon="15.684268"></trkpt><trkpt lat="52.449959" lon="15.673962"></trkpt><trkpt lat="52.44994" lon="15.673278"></trkpt><trkpt lat="52.449733" lon="15.670938"></trkpt><trkpt lat="52.44958" lon="15.670455"></trkpt><trkpt lat="52.446142" lon="15.657853"></trkpt><trkpt lat="52.446095" lon="15.657528"></trkpt><trkpt lat="52.445728" lon="15.655604"></trkpt><trkpt lat="52.444091" lon="15.644182"></trkpt><trkpt lat="52.444178" lon="15.643731"></trkpt><trkpt lat="52.446018" lon="15.63076"></trkpt><trkpt lat="52.445994" lon="15.630087"></trkpt><trkpt lat="52.445828" lon="15.6283"></trkpt><trkpt lat="52.445619" lon="15.628059"></trkpt><trkpt lat="52.445452" lon="15.627802"></trkpt><trkpt lat="52.444554" lon="15.626645"></trkpt><trkpt lat="52.444249" lon="15.62653"></trkpt><trkpt lat="52.436111" lon="15.624312"></trkpt><trkpt lat="52.433799" lon="15.623374"></trkpt><trkpt lat="52.430027" lon="15.622387"></trkpt><trkpt lat="52.428054" lon="15.622671"></trkpt><trkpt lat="52.427805" lon="15.622482"></trkpt><trkpt lat="52.427598" lon="15.622285"></trkpt><trkpt lat="52.427195" lon="15.621823"></trkpt><trkpt lat="52.42687" lon="15.621329"></trkpt><trkpt lat="52.426654" lon="15.621184"></trkpt><trkpt lat="52.426172" lon="15.621235"></trkpt><trkpt lat="52.425973" lon="15.621292"></trkpt><trkpt lat="52.424648" lon="15.621506"></trkpt><trkpt lat="52.42453" lon="15.621141"></trkpt><trkpt lat="52.424333" lon="15.620754"></trkpt><trkpt lat="52.424147" lon="15.620595"></trkpt><trkpt lat="52.423931" lon="15.620531"></trkpt><trkpt lat="52.423695" lon="15.620423"></trkpt><trkpt lat="52.423437" lon="15.620263"></trkpt><trkpt lat="52.423162" lon="15.62005"></trkpt><trkpt lat="52.420947" lon="15.618668"></trkpt><trkpt lat="52.420649" lon="15.618534"></trkpt><trkpt lat="52.420374" lon="15.618247"></trkpt><trkpt lat="52.417998" lon="15.616247"></trkpt><trkpt lat="52.417762" lon="15.616243"></trkpt><trkpt lat="52.417643" lon="15.616564"></trkpt><trkpt lat="52.417609" lon="15.617096"></trkpt><trkpt lat="52.417636" lon="15.617439"></trkpt><trkpt lat="52.417608" lon="15.617804"></trkpt><trkpt lat="52.417513" lon="15.618249"></trkpt><trkpt lat="52.41729" lon="15.618195"></trkpt></trkseg></trk></gpx>