<?xml version="1.0" encoding="UTF-8" standalone="no" ?><gpx xmlns="http://www.topografix.com/GPX/1/1" xmlns:gpxx="http://www.garmin.com/xmlschemas/GpxExtensions/v3" ><trk><trkseg><trkpt lat="52.490805" lon="17.36305"></trkpt><trkpt lat="52.491035" lon="17.363198"></trkpt><trkpt lat="52.492076" lon="17.363567"></trkpt><trkpt lat="52.492788" lon="17.363523"></trkpt><trkpt lat="52.495627" lon="17.362503"></trkpt><trkpt lat="52.496315" lon="17.361829"></trkpt><trkpt lat="52.497044" lon="17.361239"></trkpt><trkpt lat="52.498143" lon="17.361591"></trkpt><trkpt lat="52.508502" lon="17.365482"></trkpt><trkpt lat="52.512514" lon="17.366212"></trkpt><trkpt lat="52.512945" lon="17.365968"></trkpt><trkpt lat="52.515004" lon="17.365764"></trkpt><trkpt lat="52.516134" lon="17.366342"></trkpt><trkpt lat="52.518169" lon="17.366826"></trkpt><trkpt lat="52.519099" lon="17.36693"></trkpt><trkpt lat="52.529995" lon="17.366267"></trkpt><trkpt lat="52.530313" lon="17.366086"></trkpt><trkpt lat="52.535976" lon="17.363629"></trkpt><trkpt lat="52.541444" lon="17.360218"></trkpt><trkpt lat="52.541933" lon="17.359604"></trkpt><trkpt lat="52.546592" lon="17.352118"></trkpt><trkpt lat="52.546163" lon="17.351175"></trkpt><trkpt lat="52.540567" lon="17.341375"></trkpt><trkpt lat="52.539937" lon="17.342116"></trkpt><trkpt lat="52.540429" lon="17.341511"></trkpt><trkpt lat="52.5411" lon="17.339956"></trkpt><trkpt lat="52.54072" lon="17.339136"></trkpt><trkpt lat="52.534308" lon="17.324905"></trkpt><trkpt lat="52.533727" lon="17.324631"></trkpt><trkpt lat="52.530622" lon="17.322649"></trkpt><trkpt lat="52.530524" lon="17.321926"></trkpt><trkpt lat="52.52969" lon="17.317366"></trkpt><trkpt lat="52.529301" lon="17.316078"></trkpt><trkpt lat="52.525121" lon="17.304421"></trkpt><trkpt lat="52.525448" lon="17.304376"></trkpt><trkpt lat="52.525571" lon="17.30412"></trkpt><trkpt lat="52.525769" lon="17.30268"></trkpt><trkpt lat="52.526777" lon="17.297842"></trkpt><trkpt lat="52.527532" lon="17.296264"></trkpt><trkpt lat="52.527659" lon="17.295943"></trkpt><trkpt lat="52.527833" lon="17.294472"></trkpt><trkpt lat="52.527889" lon="17.293592"></trkpt><trkpt lat="52.527906" lon="17.292061"></trkpt><trkpt lat="52.527405" lon="17.291679"></trkpt><trkpt lat="52.526966" lon="17.291416"></trkpt><trkpt lat="52.520812" lon="17.286549"></trkpt><trkpt lat="52.520937" lon="17.28541"></trkpt><trkpt lat="52.522016" lon="17.268398"></trkpt><trkpt lat="52.52201" lon="17.266789"></trkpt><trkpt lat="52.521221" lon="17.253579"></trkpt><trkpt lat="52.521073" lon="17.253165"></trkpt><trkpt lat="52.521188" lon="17.252751"></trkpt><trkpt lat="52.521639" lon="17.251707"></trkpt><trkpt lat="52.522179" lon="17.250714"></trkpt><trkpt lat="52.522858" lon="17.249658"></trkpt><trkpt lat="52.522835" lon="17.24932"></trkpt><trkpt lat="52.522603" lon="17.24892"></trkpt><trkpt lat="52.521789" lon="17.247167"></trkpt><trkpt lat="52.515519" lon="17.232985"></trkpt><trkpt lat="52.509299" lon="17.218846"></trkpt><trkpt lat="52.509016" lon="17.218302"></trkpt><trkpt lat="52.509171" lon="17.218546"></trkpt><trkpt lat="52.508995" lon="17.21815"></trkpt><trkpt lat="52.507776" lon="17.214827"></trkpt><trkpt lat="52.507804" lon="17.214449"></trkpt><trkpt lat="52.507627" lon="17.214248"></trkpt><trkpt lat="52.507036" lon="17.213705"></trkpt><trkpt lat="52.506836" lon="17.213587"></trkpt><trkpt lat="52.506267" lon="17.213373"></trkpt><trkpt lat="52.50629" lon="17.212608"></trkpt><trkpt lat="52.50641" lon="17.211541"></trkpt><trkpt lat="52.506466" lon="17.209983"></trkpt><trkpt lat="52.506626" lon="17.208154"></trkpt><trkpt lat="52.506375" lon="17.207655"></trkpt><trkpt lat="52.506153" lon="17.207128"></trkpt><trkpt lat="52.505873" lon="17.206738"></trkpt><trkpt lat="52.505611" lon="17.206507"></trkpt><trkpt lat="52.504939" lon="17.20581"></trkpt><trkpt lat="52.504853" lon="17.205443"></trkpt><trkpt lat="52.504889" lon="17.204923"></trkpt><trkpt lat="52.504713" lon="17.204281"></trkpt><trkpt lat="52.504509" lon="17.204089"></trkpt><trkpt lat="52.504274" lon="17.203999"></trkpt><trkpt lat="52.503859" lon="17.203896"></trkpt><trkpt lat="52.500215" lon="17.203507"></trkpt><trkpt lat="52.500197" lon="17.203932"></trkpt><trkpt lat="52.5002" lon="17.204484"></trkpt><trkpt lat="52.50008" lon="17.2052"></trkpt><trkpt lat="52.49992" lon="17.206855"></trkpt><trkpt lat="52.499844" lon="17.207319"></trkpt><trkpt lat="52.499492" lon="17.207349"></trkpt><trkpt lat="52.497679" lon="17.207811"></trkpt><trkpt lat="52.497502" lon="17.207977"></trkpt><trkpt lat="52.497128" lon="17.208047"></trkpt><trkpt lat="52.49506" lon="17.207995"></trkpt><trkpt lat="52.49447" lon="17.207652"></trkpt><trkpt lat="52.493974" lon="17.207432"></trkpt><trkpt lat="52.493448" lon="17.207051"></trkpt><trkpt lat="52.493081" lon="17.206846"></trkpt><trkpt lat="52.492625" lon="17.206684"></trkpt><trkpt lat="52.492369" lon="17.206556"></trkpt><trkpt lat="52.477677" lon="17.2104"></trkpt><trkpt lat="52.477453" lon="17.210408"></trkpt><trkpt lat="52.47738" lon="17.209907"></trkpt><trkpt lat="52.475984" lon="17.195724"></trkpt><trkpt lat="52.47604" lon="17.194535"></trkpt><trkpt lat="52.476" lon="17.188486"></trkpt><trkpt lat="52.475946" lon="17.188125"></trkpt><trkpt lat="52.475768" lon="17.186373"></trkpt><trkpt lat="52.47585" lon="17.185643"></trkpt><trkpt lat="52.475729" lon="17.185353"></trkpt><trkpt lat="52.475507" lon="17.185055"></trkpt><trkpt lat="52.475392" lon="17.184767"></trkpt><trkpt lat="52.475106" lon="17.184351"></trkpt><trkpt lat="52.474662" lon="17.183602"></trkpt><trkpt lat="52.474488" lon="17.183416"></trkpt><trkpt lat="52.47423" lon="17.183045"></trkpt><trkpt lat="52.474067" lon="17.182764"></trkpt><trkpt lat="52.474106" lon="17.182442"></trkpt><trkpt lat="52.474131" lon="17.181773"></trkpt><trkpt lat="52.474123" lon="17.181201"></trkpt><trkpt lat="52.473908" lon="17.179726"></trkpt><trkpt lat="52.473433" lon="17.178796"></trkpt><trkpt lat="52.472779" lon="17.177313"></trkpt><trkpt lat="52.472817" lon="17.176312"></trkpt><trkpt lat="52.47276" lon="17.172432"></trkpt><trkpt lat="52.472397" lon="17.172431"></trkpt><trkpt lat="52.471686" lon="17.172333"></trkpt><trkpt lat="52.469449" lon="17.171705"></trkpt><trkpt lat="52.469409" lon="17.170919"></trkpt><trkpt lat="52.468936" lon="17.170678"></trkpt><trkpt lat="52.466879" lon="17.169968"></trkpt><trkpt lat="52.465981" lon="17.169785"></trkpt><trkpt lat="52.465295" lon="17.169757"></trkpt><trkpt lat="52.464676" lon="17.169616"></trkpt><trkpt lat="52.462067" lon="17.16936"></trkpt><trkpt lat="52.461875" lon="17.169479"></trkpt><trkpt lat="52.461648" lon="17.170879"></trkpt><trkpt lat="52.461121" lon="17.173317"></trkpt><trkpt lat="52.460992" lon="17.173716"></trkpt><trkpt lat="52.460859" lon="17.174005"></trkpt><trkpt lat="52.460729" lon="17.174888"></trkpt><trkpt lat="52.460658" lon="17.175923"></trkpt><trkpt lat="52.460794" lon="17.174717"></trkpt><trkpt lat="52.460912" lon="17.174001"></trkpt><trkpt lat="52.461268" lon="17.172815"></trkpt><trkpt lat="52.461497" lon="17.171806"></trkpt><trkpt lat="52.461688" lon="17.170731"></trkpt><trkpt lat="52.462012" lon="17.169341"></trkpt><trkpt lat="52.462249" lon="17.169162"></trkpt><trkpt lat="52.462463" lon="17.169064"></trkpt><trkpt lat="52.462931" lon="17.169206"></trkpt><trkpt lat="52.466871" lon="17.169932"></trkpt></trkseg></trk></gpx>