<?xml version="1.0" encoding="UTF-8" standalone="no" ?><gpx xmlns="http://www.topografix.com/GPX/1/1" xmlns:gpxx="http://www.garmin.com/xmlschemas/GpxExtensions/v3" ><trk><trkseg><trkpt lat="50.8655051328" lon="15.9792938177"></trkpt><trkpt lat="50.8652852755" lon="15.9797700774"></trkpt><trkpt lat="50.8649281226" lon="15.9796759486"></trkpt><trkpt lat="50.8646777552" lon="15.9794430155"></trkpt><trkpt lat="50.8644721471" lon="15.9790652432"></trkpt><trkpt lat="50.8643302415" lon="15.9786396939"></trkpt><trkpt lat="50.8640792035" lon="15.9780282341"></trkpt><trkpt lat="50.8627494983" lon="15.9754227195"></trkpt><trkpt lat="50.8624750748" lon="15.9752708394"></trkpt><trkpt lat="50.8621846419" lon="15.9751995932"></trkpt><trkpt lat="50.861860849" lon="15.9749555122"></trkpt><trkpt lat="50.8598695602" lon="15.9739407152"></trkpt><trkpt lat="50.8597781975" lon="15.9743926674"></trkpt><trkpt lat="50.8593557496" lon="15.9773534909"></trkpt><trkpt lat="50.8596241381" lon="15.9774966538"></trkpt><trkpt lat="50.8598837256" lon="15.9777231328"></trkpt><trkpt lat="50.8600884117" lon="15.9780175053"></trkpt><trkpt lat="50.8606792521" lon="15.9787184838"></trkpt><trkpt lat="50.8609459642" lon="15.9787867125"></trkpt><trkpt lat="50.8628449682" lon="15.9780037589"></trkpt><trkpt lat="50.8632172085" lon="15.9776043613"></trkpt><trkpt lat="50.8637259901" lon="15.9772670735"></trkpt><trkpt lat="50.863966886" lon="15.9776296746"></trkpt><trkpt lat="50.8641483542" lon="15.9780928586"></trkpt><trkpt lat="50.8649945073" lon="15.979711907"></trkpt><trkpt lat="50.8652736247" lon="15.9798276611"></trkpt><trkpt lat="50.8654439449" lon="15.9802523721"></trkpt><trkpt lat="50.8656958211" lon="15.9800859075"></trkpt><trkpt lat="50.8664192632" lon="15.9803813696"></trkpt><trkpt lat="50.8666913398" lon="15.9803729877"></trkpt><trkpt lat="50.8670594729" lon="15.9805221017"></trkpt><trkpt lat="50.8672846109" lon="15.9809435438"></trkpt><trkpt lat="50.8673909772" lon="15.9813429415"></trkpt><trkpt lat="50.8675775584" lon="15.9817962348"></trkpt><trkpt lat="50.8678929694" lon="15.9827697091"></trkpt><trkpt lat="50.8681077976" lon="15.9832170513"></trkpt><trkpt lat="50.8683737554" lon="15.9836354759"></trkpt><trkpt lat="50.8685482666" lon="15.9840717539"></trkpt><trkpt lat="50.8688424714" lon="15.9846584871"></trkpt><trkpt lat="50.8690829482" lon="15.9849539492"></trkpt><trkpt lat="50.8694280311" lon="15.9855113458"></trkpt><trkpt lat="50.8695743792" lon="15.9859419242"></trkpt><trkpt lat="50.8696812484" lon="15.9865125641"></trkpt><trkpt lat="50.8697246667" lon="15.9870050009"></trkpt><trkpt lat="50.8698206395" lon="15.987478327"></trkpt><trkpt lat="50.8700734377" lon="15.9892736468"></trkpt><trkpt lat="50.8700668998" lon="15.9897252638"></trkpt><trkpt lat="50.8699742798" lon="15.9902423434"></trkpt><trkpt lat="50.8698405884" lon="15.9913817793"></trkpt><trkpt lat="50.8701535687" lon="15.9915413707"></trkpt><trkpt lat="50.8712351695" lon="15.9919097554"></trkpt><trkpt lat="50.8715987764" lon="15.991863152"></trkpt><trkpt lat="50.8724417444" lon="15.9921047185"></trkpt><trkpt lat="50.8760043886" lon="15.9916911554"></trkpt><trkpt lat="50.8762352262" lon="15.9914085176"></trkpt><trkpt lat="50.876533119" lon="15.9912370238"></trkpt><trkpt lat="50.8768270724" lon="15.9911191743"></trkpt><trkpt lat="50.8770602569" lon="15.9914225992"></trkpt><trkpt lat="50.8773016557" lon="15.9916505869"></trkpt><trkpt lat="50.8776153065" lon="15.991633907"></trkpt><trkpt lat="50.8780199848" lon="15.9917884693"></trkpt><trkpt lat="50.8782744594" lon="15.991932638"></trkpt><trkpt lat="50.8790577482" lon="15.9925092291"></trkpt><trkpt lat="50.8793197665" lon="15.9929069504"></trkpt><trkpt lat="50.8795936033" lon="15.9932245407"></trkpt><trkpt lat="50.8811165951" lon="15.9946549963"></trkpt><trkpt lat="50.8812795393" lon="15.9943102486"></trkpt><trkpt lat="50.8811313473" lon="15.9946840815"></trkpt><trkpt lat="50.8811174333" lon="15.99514517"></trkpt><trkpt lat="50.8810513839" lon="15.9956121258"></trkpt><trkpt lat="50.8808907028" lon="15.9979199152"></trkpt><trkpt lat="50.8810679801" lon="15.998473959"></trkpt><trkpt lat="50.8815876581" lon="16.0006317124"></trkpt><trkpt lat="50.8814125601" lon="16.0011186171"></trkpt><trkpt lat="50.881288927" lon="16.0016232915"></trkpt><trkpt lat="50.8812105563" lon="16.0020625871"></trkpt><trkpt lat="50.8807108272" lon="16.0040826257"></trkpt><trkpt lat="50.8805213124" lon="16.0045670997"></trkpt><trkpt lat="50.8797521889" lon="16.0061702225"></trkpt><trkpt lat="50.8794794418" lon="16.006345069"></trkpt><trkpt lat="50.87921164" lon="16.0064001381"></trkpt><trkpt lat="50.8791577443" lon="16.0068209097"></trkpt><trkpt lat="50.8793268912" lon="16.0073153581"></trkpt><trkpt lat="50.8793622628" lon="16.0078886803"></trkpt><trkpt lat="50.8793262206" lon="16.008422859"></trkpt><trkpt lat="50.8791661263" lon="16.0090739653"></trkpt><trkpt lat="50.8789681457" lon="16.0094856843"></trkpt><trkpt lat="50.8787530661" lon="16.0098472796"></trkpt><trkpt lat="50.8785260003" lon="16.0101294983"></trkpt><trkpt lat="50.8779832721" lon="16.0109754838"></trkpt><trkpt lat="50.877821669" lon="16.0113880411"></trkpt><trkpt lat="50.8779748902" lon="16.0109245218"></trkpt><trkpt lat="50.8781311288" lon="16.0105462465"></trkpt><trkpt lat="50.8783489745" lon="16.0102633573"></trkpt><trkpt lat="50.8786056284" lon="16.0099898558"></trkpt><trkpt lat="50.8790380508" lon="16.0093640629"></trkpt><trkpt lat="50.8791864943" lon="16.00898562"></trkpt><trkpt lat="50.879289927" lon="16.0085630044"></trkpt><trkpt lat="50.879329741" lon="16.0081123095"></trkpt><trkpt lat="50.879341308" lon="16.0076604411"></trkpt><trkpt lat="50.8792488556" lon="16.0072545893"></trkpt><trkpt lat="50.8791610133" lon="16.0066875536"></trkpt><trkpt lat="50.8794107102" lon="16.0063958634"></trkpt><trkpt lat="50.8797022328" lon="16.0062725656"></trkpt><trkpt lat="50.8799793385" lon="16.0059034266"></trkpt><trkpt lat="50.8801616449" lon="16.0054447688"></trkpt><trkpt lat="50.8810991608" lon="16.0025454685"></trkpt><trkpt lat="50.8812200278" lon="16.0020264611"></trkpt><trkpt lat="50.8812995721" lon="16.0015600082"></trkpt><trkpt lat="50.8814254683" lon="16.0010979977"></trkpt><trkpt lat="50.8815285657" lon="16.0002313089"></trkpt><trkpt lat="50.8814136498" lon="15.999592524"></trkpt><trkpt lat="50.8812471852" lon="15.9991560783"></trkpt><trkpt lat="50.8811127394" lon="15.9986881167"></trkpt><trkpt lat="50.8808641322" lon="15.9974995628"></trkpt><trkpt lat="50.8809093107" lon="15.9969333652"></trkpt><trkpt lat="50.8809396531" lon="15.9947451856"></trkpt><trkpt lat="50.8807068877" lon="15.9945161082"></trkpt><trkpt lat="50.880496921" lon="15.9942359012"></trkpt><trkpt lat="50.8784981724" lon="15.9920369089"></trkpt><trkpt lat="50.8781617228" lon="15.9918528423"></trkpt><trkpt lat="50.8776188269" lon="15.9917039797"></trkpt><trkpt lat="50.8771999832" lon="15.9915100224"></trkpt><trkpt lat="50.8769849036" lon="15.9912464954"></trkpt><trkpt lat="50.876677623" lon="15.9911881573"></trkpt><trkpt lat="50.8762216475" lon="15.9914210066"></trkpt><trkpt lat="50.8760842681" lon="15.9919510782"></trkpt><trkpt lat="50.8758517541" lon="15.9913774207"></trkpt><trkpt lat="50.8760382514" lon="15.9917449672"></trkpt><trkpt lat="50.8760581166" lon="15.9921747074"></trkpt><trkpt lat="50.876019476" lon="15.9917200729"></trkpt><trkpt lat="50.8758586273" lon="15.9913324099"></trkpt><trkpt lat="50.8755501732" lon="15.99141296"></trkpt><trkpt lat="50.8750377037" lon="15.9914702084"></trkpt><trkpt lat="50.8736463916" lon="15.9918253496"></trkpt><trkpt lat="50.8722604439" lon="15.9918655828"></trkpt><trkpt lat="50.8699439373" lon="15.9914349206"></trkpt><trkpt lat="50.8698672429" lon="15.9909459203"></trkpt><trkpt lat="50.8699519001" lon="15.9904431738"></trkpt><trkpt lat="50.8701051213" lon="15.9888704773"></trkpt><trkpt lat="50.8700620383" lon="15.9884151723"></trkpt><trkpt lat="50.8699834999" lon="15.9880011063"></trkpt><trkpt lat="50.8691906556" lon="15.984970713"></trkpt><trkpt lat="50.8689023182" lon="15.9846019931"></trkpt><trkpt lat="50.8684592508" lon="15.9838865139"></trkpt><trkpt lat="50.8682937082" lon="15.9834971745"></trkpt><trkpt lat="50.868037641" lon="15.9831020515"></trkpt><trkpt lat="50.8678772114" lon="15.9826920088"></trkpt><trkpt lat="50.8668101951" lon="15.9805087745"></trkpt><trkpt lat="50.866511045" lon="15.9803967085"></trkpt><trkpt lat="50.8662284072" lon="15.9803948645"></trkpt><trkpt lat="50.8659180254" lon="15.980244074"></trkpt><trkpt lat="50.8657056279" lon="15.9799557365"></trkpt><trkpt lat="50.8654588647" lon="15.9797536489"></trkpt><trkpt lat="50.8654685877" lon="15.9805164021"></trkpt></trkseg><trkseg><trkpt lat="50.883471407" lon="15.8711465634"></trkpt><trkpt lat="50.8832694031" lon="15.8715068176"></trkpt><trkpt lat="50.8829652239" lon="15.8714587055"></trkpt><trkpt lat="50.8826839272" lon="15.8712635748"></trkpt><trkpt lat="50.8824665844" lon="15.8709515166"></trkpt><trkpt lat="50.8822515048" lon="15.8705439884"></trkpt><trkpt lat="50.882048076" lon="15.870242659"></trkpt><trkpt lat="50.8818182442" lon="15.8698203787"></trkpt><trkpt lat="50.8814356942" lon="15.8692435361"></trkpt><trkpt lat="50.8810896892" lon="15.8688232675"></trkpt><trkpt lat="50.8810494561" lon="15.868346421"></trkpt><trkpt lat="50.8811924513" lon="15.8688448928"></trkpt><trkpt lat="50.8814082015" lon="15.8691828512"></trkpt><trkpt lat="50.8816385362" lon="15.8694683388"></trkpt><trkpt lat="50.8818112034" lon="15.8697976638"></trkpt><trkpt lat="50.8823779877" lon="15.870693773"></trkpt><trkpt lat="50.8825691789" lon="15.8710646722"></trkpt><trkpt lat="50.8828365617" lon="15.8713753056"></trkpt><trkpt lat="50.8831296768" lon="15.8714771457"></trkpt><trkpt lat="50.8831049502" lon="15.8719650563"></trkpt><trkpt lat="50.8828923851" lon="15.8724119794"></trkpt><trkpt lat="50.882645119" lon="15.8728025761"></trkpt><trkpt lat="50.8823717013" lon="15.8731489163"></trkpt><trkpt lat="50.8821110241" lon="15.8733927459"></trkpt><trkpt lat="50.8816190064" lon="15.873734979"></trkpt><trkpt lat="50.8808521461" lon="15.8741168585"></trkpt><trkpt lat="50.8805509005" lon="15.8742036112"></trkpt><trkpt lat="50.8802582882" lon="15.8738259226"></trkpt><trkpt lat="50.87973685" lon="15.8732996229"></trkpt><trkpt lat="50.8799919952" lon="15.8735142834"></trkpt><trkpt lat="50.8802663349" lon="15.873860456"></trkpt><trkpt lat="50.8806551713" lon="15.8742404915"></trkpt><trkpt lat="50.8810352068" lon="15.8741006814"></trkpt><trkpt lat="50.8813226223" lon="15.8739298582"></trkpt><trkpt lat="50.8822831884" lon="15.8731558733"></trkpt><trkpt lat="50.8825993538" lon="15.8729847148"></trkpt><trkpt lat="50.8827969152" lon="15.8725597523"></trkpt><trkpt lat="50.8831951395" lon="15.8714909758"></trkpt><trkpt lat="50.8835844789" lon="15.8707214333"></trkpt><trkpt lat="50.8834698144" lon="15.8711953461"></trkpt><trkpt lat="50.8836506959" lon="15.8708331641"></trkpt><trkpt lat="50.8835720737" lon="15.871245889"></trkpt><trkpt lat="50.8837732393" lon="15.8709124569"></trkpt><trkpt lat="50.8833144139" lon="15.8718155231"></trkpt></trkseg></trk></gpx>