<?xml version="1.0" encoding="UTF-8" standalone="no" ?><gpx xmlns="http://www.topografix.com/GPX/1/1" xmlns:gpxx="http://www.garmin.com/xmlschemas/GpxExtensions/v3" ><trk><trkseg><trkpt lat="52.3080825526" lon="20.7678111456"></trkpt><trkpt lat="52.3083568085" lon="20.7682077773"></trkpt><trkpt lat="52.3085806053" lon="20.7688371744"></trkpt><trkpt lat="52.3086407036" lon="20.769293569"></trkpt><trkpt lat="52.3083129711" lon="20.7693379931"></trkpt><trkpt lat="52.3086061701" lon="20.7687740587"></trkpt><trkpt lat="52.3084604926" lon="20.7682625111"></trkpt><trkpt lat="52.3082431499" lon="20.7678482775"></trkpt><trkpt lat="52.3079469334" lon="20.7674284279"></trkpt><trkpt lat="52.3079285771" lon="20.766789224"></trkpt><trkpt lat="52.3081001546" lon="20.7664096914"></trkpt><trkpt lat="52.3099845741" lon="20.7610459439"></trkpt><trkpt lat="52.3097323626" lon="20.7608075626"></trkpt><trkpt lat="52.3093628883" lon="20.7605637331"></trkpt><trkpt lat="52.3091135267" lon="20.7603515871"></trkpt><trkpt lat="52.3093845975" lon="20.7606027927"></trkpt><trkpt lat="52.3095706757" lon="20.7601415366"></trkpt><trkpt lat="52.309669666" lon="20.7597247045"></trkpt><trkpt lat="52.3095197137" lon="20.7601543609"></trkpt><trkpt lat="52.3093996849" lon="20.7606449537"></trkpt><trkpt lat="52.3097895272" lon="20.7608731929"></trkpt><trkpt lat="52.3100589216" lon="20.7611879334"></trkpt><trkpt lat="52.3101861589" lon="20.7615819667"></trkpt><trkpt lat="52.3101807106" lon="20.7620364334"></trkpt><trkpt lat="52.3099275772" lon="20.762585029"></trkpt><trkpt lat="52.3070364073" lon="20.7677938789"></trkpt><trkpt lat="52.3067441303" lon="20.7676080521"></trkpt><trkpt lat="52.3057084624" lon="20.7667619828"></trkpt><trkpt lat="52.305548368" lon="20.766327465"></trkpt><trkpt lat="52.3053490464" lon="20.7658828888"></trkpt><trkpt lat="52.3051447794" lon="20.7655086368"></trkpt><trkpt lat="52.3038991448" lon="20.7636352815"></trkpt><trkpt lat="52.3035601806" lon="20.7634384744"></trkpt><trkpt lat="52.303255247" lon="20.7633695751"></trkpt><trkpt lat="52.3030197155" lon="20.7630811539"></trkpt><trkpt lat="52.302671615" lon="20.7627797406"></trkpt><trkpt lat="52.3023453075" lon="20.7625634037"></trkpt><trkpt lat="52.3014844023" lon="20.7621574681"></trkpt><trkpt lat="52.3011995852" lon="20.7617790252"></trkpt><trkpt lat="52.3009062186" lon="20.7616211101"></trkpt><trkpt lat="52.3006475531" lon="20.7613879256"></trkpt><trkpt lat="52.3003950063" lon="20.7612206228"></trkpt><trkpt lat="52.3000453971" lon="20.7611328643"></trkpt><trkpt lat="52.299770806" lon="20.761013506"></trkpt><trkpt lat="52.2994333506" lon="20.7607918046"></trkpt><trkpt lat="52.299120957" lon="20.7605110947"></trkpt><trkpt lat="52.2988622077" lon="20.7603310514"></trkpt><trkpt lat="52.2924265824" lon="20.7547211275"></trkpt><trkpt lat="52.2922358941" lon="20.7543928083"></trkpt><trkpt lat="52.2919079103" lon="20.7539581228"></trkpt><trkpt lat="52.2916339058" lon="20.7536741439"></trkpt><trkpt lat="52.2913372703" lon="20.7534231059"></trkpt><trkpt lat="52.2906606831" lon="20.7526795473"></trkpt><trkpt lat="52.2908838931" lon="20.7524136733"></trkpt><trkpt lat="52.2909919359" lon="20.7518233359"></trkpt><trkpt lat="52.2911376972" lon="20.7514515147"></trkpt><trkpt lat="52.2912994679" lon="20.7509325072"></trkpt><trkpt lat="52.2915198281" lon="20.7503727637"></trkpt><trkpt lat="52.2916368395" lon="20.7499312051"></trkpt><trkpt lat="52.2916982789" lon="20.7494075038"></trkpt><trkpt lat="52.2917562816" lon="20.74844216"></trkpt><trkpt lat="52.2917203233" lon="20.7478933129"></trkpt><trkpt lat="52.2914205026" lon="20.7455734536"></trkpt><trkpt lat="52.2910097055" lon="20.7456022874"></trkpt><trkpt lat="52.2907409817" lon="20.7454682607"></trkpt><trkpt lat="52.2904647142" lon="20.7455302868"></trkpt><trkpt lat="52.2901849262" lon="20.7455276884"></trkpt><trkpt lat="52.2898726165" lon="20.7454110961"></trkpt><trkpt lat="52.2895266954" lon="20.7454235852"></trkpt><trkpt lat="52.2892307304" lon="20.7452914026"></trkpt><trkpt lat="52.2888308298" lon="20.7452111878"></trkpt><trkpt lat="52.2884831484" lon="20.7450635824"></trkpt><trkpt lat="52.2881922126" lon="20.7448490895"></trkpt><trkpt lat="52.2867858969" lon="20.7440694049"></trkpt><trkpt lat="52.2865591664" lon="20.7443775237"></trkpt><trkpt lat="52.2862669732" lon="20.7441918645"></trkpt><trkpt lat="52.2859684937" lon="20.744251376"></trkpt><trkpt lat="52.2856794856" lon="20.7443678007"></trkpt><trkpt lat="52.2851900663" lon="20.7444729097"></trkpt><trkpt lat="52.2849163972" lon="20.7446154021"></trkpt><trkpt lat="52.2846356034" lon="20.7446727343"></trkpt><trkpt lat="52.2840660531" lon="20.7446888275"></trkpt><trkpt lat="52.2833514959" lon="20.7445336785"></trkpt><trkpt lat="52.2830346599" lon="20.7443672977"></trkpt><trkpt lat="52.2821976431" lon="20.7438455243"></trkpt></trkseg></trk></gpx>