<?xml version="1.0" encoding="UTF-8" standalone="no" ?><gpx xmlns="http://www.topografix.com/GPX/1/1" xmlns:gpxx="http://www.garmin.com/xmlschemas/GpxExtensions/v3" ><trk><trkseg><trkpt lat="52.498474" lon="17.424179"></trkpt><trkpt lat="52.498378" lon="17.423818"></trkpt><trkpt lat="52.498329" lon="17.423472"></trkpt><trkpt lat="52.497958" lon="17.421652"></trkpt><trkpt lat="52.497552" lon="17.421828"></trkpt><trkpt lat="52.493042" lon="17.423115"></trkpt><trkpt lat="52.492965" lon="17.422231"></trkpt><trkpt lat="52.492864" lon="17.418847"></trkpt><trkpt lat="52.492978" lon="17.417706"></trkpt><trkpt lat="52.494277" lon="17.409057"></trkpt><trkpt lat="52.494512" lon="17.408153"></trkpt><trkpt lat="52.495353" lon="17.405632"></trkpt><trkpt lat="52.49581" lon="17.405185"></trkpt><trkpt lat="52.496002" lon="17.405033"></trkpt><trkpt lat="52.496259" lon="17.40466"></trkpt><trkpt lat="52.496198" lon="17.404207"></trkpt><trkpt lat="52.496104" lon="17.403145"></trkpt><trkpt lat="52.496284" lon="17.402847"></trkpt><trkpt lat="52.501864" lon="17.392151"></trkpt><trkpt lat="52.50208" lon="17.391323"></trkpt><trkpt lat="52.502769" lon="17.389166"></trkpt><trkpt lat="52.504681" lon="17.384197"></trkpt><trkpt lat="52.505045" lon="17.383943"></trkpt><trkpt lat="52.505525" lon="17.383789"></trkpt><trkpt lat="52.508533" lon="17.382439"></trkpt><trkpt lat="52.508443" lon="17.381967"></trkpt><trkpt lat="52.508337" lon="17.381526"></trkpt><trkpt lat="52.507135" lon="17.375222"></trkpt><trkpt lat="52.50712" lon="17.374516"></trkpt><trkpt lat="52.50715" lon="17.374178"></trkpt><trkpt lat="52.507341" lon="17.372815"></trkpt><trkpt lat="52.507803" lon="17.372604"></trkpt><trkpt lat="52.508092" lon="17.372626"></trkpt><trkpt lat="52.508338" lon="17.372791"></trkpt><trkpt lat="52.508545" lon="17.372872"></trkpt><trkpt lat="52.508816" lon="17.372859"></trkpt><trkpt lat="52.509039" lon="17.37273"></trkpt><trkpt lat="52.509249" lon="17.372543"></trkpt><trkpt lat="52.509488" lon="17.372366"></trkpt><trkpt lat="52.509744" lon="17.372295"></trkpt><trkpt lat="52.510165" lon="17.372233"></trkpt><trkpt lat="52.510352" lon="17.37211"></trkpt><trkpt lat="52.510682" lon="17.371805"></trkpt><trkpt lat="52.511766" lon="17.371004"></trkpt><trkpt lat="52.511968" lon="17.370946"></trkpt><trkpt lat="52.513616" lon="17.370809"></trkpt><trkpt lat="52.513673" lon="17.371171"></trkpt><trkpt lat="52.513636" lon="17.371501"></trkpt><trkpt lat="52.513697" lon="17.371883"></trkpt><trkpt lat="52.513894" lon="17.372036"></trkpt><trkpt lat="52.514016" lon="17.3723"></trkpt><trkpt lat="52.513884" lon="17.372054"></trkpt><trkpt lat="52.513666" lon="17.371945"></trkpt><trkpt lat="52.513692" lon="17.371547"></trkpt><trkpt lat="52.513685" lon="17.371002"></trkpt><trkpt lat="52.513632" lon="17.370662"></trkpt><trkpt lat="52.513598" lon="17.370065"></trkpt><trkpt lat="52.513543" lon="17.369703"></trkpt><trkpt lat="52.513299" lon="17.368587"></trkpt><trkpt lat="52.513256" lon="17.368252"></trkpt><trkpt lat="52.512573" lon="17.364612"></trkpt><trkpt lat="52.512474" lon="17.364224"></trkpt><trkpt lat="52.506519" lon="17.334759"></trkpt><trkpt lat="52.506924" lon="17.334074"></trkpt><trkpt lat="52.50742" lon="17.333084"></trkpt><trkpt lat="52.509786" lon="17.327183"></trkpt><trkpt lat="52.509795" lon="17.32685"></trkpt><trkpt lat="52.509677" lon="17.326518"></trkpt><trkpt lat="52.509482" lon="17.326112"></trkpt><trkpt lat="52.509165" lon="17.325212"></trkpt><trkpt lat="52.509159" lon="17.324874"></trkpt><trkpt lat="52.50932" lon="17.320233"></trkpt><trkpt lat="52.509414" lon="17.31969"></trkpt><trkpt lat="52.510014" lon="17.317021"></trkpt><trkpt lat="52.510827" lon="17.314534"></trkpt><trkpt lat="52.511216" lon="17.313916"></trkpt><trkpt lat="52.512289" lon="17.312471"></trkpt><trkpt lat="52.512536" lon="17.312477"></trkpt><trkpt lat="52.512827" lon="17.312595"></trkpt><trkpt lat="52.514527" lon="17.313078"></trkpt><trkpt lat="52.514592" lon="17.31277"></trkpt><trkpt lat="52.514569" lon="17.312234"></trkpt><trkpt lat="52.514569" lon="17.310588"></trkpt><trkpt lat="52.514611" lon="17.309641"></trkpt><trkpt lat="52.514576" lon="17.306245"></trkpt><trkpt lat="52.514162" lon="17.306118"></trkpt><trkpt lat="52.510751" lon="17.304571"></trkpt><trkpt lat="52.510456" lon="17.304371"></trkpt><trkpt lat="52.504151" lon="17.298517"></trkpt><trkpt lat="52.504074" lon="17.297496"></trkpt><trkpt lat="52.501663" lon="17.277902"></trkpt><trkpt lat="52.501132" lon="17.278014"></trkpt><trkpt lat="52.500802" lon="17.278044"></trkpt><trkpt lat="52.500742" lon="17.277467"></trkpt><trkpt lat="52.500753" lon="17.276954"></trkpt><trkpt lat="52.500692" lon="17.275855"></trkpt><trkpt lat="52.500585" lon="17.27525"></trkpt><trkpt lat="52.500482" lon="17.274948"></trkpt><trkpt lat="52.500191" lon="17.274475"></trkpt><trkpt lat="52.493981" lon="17.262825"></trkpt><trkpt lat="52.49401" lon="17.262474"></trkpt><trkpt lat="52.494046" lon="17.261518"></trkpt><trkpt lat="52.493978" lon="17.261025"></trkpt><trkpt lat="52.493761" lon="17.260782"></trkpt><trkpt lat="52.491922" lon="17.258242"></trkpt><trkpt lat="52.491916" lon="17.257859"></trkpt><trkpt lat="52.491953" lon="17.257146"></trkpt><trkpt lat="52.492013" lon="17.256815"></trkpt><trkpt lat="52.492107" lon="17.256484"></trkpt><trkpt lat="52.492193" lon="17.256098"></trkpt><trkpt lat="52.492731" lon="17.252726"></trkpt><trkpt lat="52.492764" lon="17.25222"></trkpt><trkpt lat="52.492847" lon="17.251801"></trkpt><trkpt lat="52.493448" lon="17.247392"></trkpt><trkpt lat="52.493169" lon="17.247404"></trkpt><trkpt lat="52.492904" lon="17.24727"></trkpt><trkpt lat="52.4927" lon="17.247108"></trkpt><trkpt lat="52.492227" lon="17.246597"></trkpt><trkpt lat="52.4919" lon="17.246348"></trkpt><trkpt lat="52.491653" lon="17.246224"></trkpt><trkpt lat="52.491222" lon="17.246076"></trkpt><trkpt lat="52.490954" lon="17.246022"></trkpt><trkpt lat="52.490936" lon="17.24542"></trkpt><trkpt lat="52.491015" lon="17.244628"></trkpt><trkpt lat="52.491389" lon="17.237615"></trkpt><trkpt lat="52.491328" lon="17.237105"></trkpt><trkpt lat="52.491262" lon="17.236756"></trkpt><trkpt lat="52.491135" lon="17.236231"></trkpt><trkpt lat="52.48735" lon="17.22403"></trkpt><trkpt lat="52.487053" lon="17.223964"></trkpt><trkpt lat="52.484547" lon="17.223052"></trkpt><trkpt lat="52.484395" lon="17.222785"></trkpt><trkpt lat="52.484212" lon="17.222353"></trkpt><trkpt lat="52.483987" lon="17.221932"></trkpt><trkpt lat="52.483621" lon="17.221898"></trkpt><trkpt lat="52.483218" lon="17.221791"></trkpt><trkpt lat="52.483232" lon="17.221365"></trkpt><trkpt lat="52.483359" lon="17.220589"></trkpt><trkpt lat="52.483931" lon="17.217933"></trkpt><trkpt lat="52.484268" lon="17.215871"></trkpt><trkpt lat="52.484477" lon="17.214069"></trkpt><trkpt lat="52.484853" lon="17.208093"></trkpt><trkpt lat="52.484614" lon="17.208163"></trkpt><trkpt lat="52.477347" lon="17.20932"></trkpt><trkpt lat="52.477238" lon="17.208623"></trkpt><trkpt lat="52.475957" lon="17.19663"></trkpt><trkpt lat="52.47599" lon="17.195926"></trkpt><trkpt lat="52.475999" lon="17.188504"></trkpt><trkpt lat="52.475953" lon="17.188166"></trkpt><trkpt lat="52.475817" lon="17.186183"></trkpt><trkpt lat="52.475936" lon="17.185891"></trkpt><trkpt lat="52.476182" lon="17.185776"></trkpt><trkpt lat="52.476713" lon="17.185896"></trkpt><trkpt lat="52.476959" lon="17.18574"></trkpt><trkpt lat="52.477149" lon="17.185419"></trkpt><trkpt lat="52.477474" lon="17.185081"></trkpt><trkpt lat="52.477687" lon="17.185238"></trkpt><trkpt lat="52.477937" lon="17.185522"></trkpt><trkpt lat="52.478082" lon="17.18587"></trkpt><trkpt lat="52.478272" lon="17.186143"></trkpt><trkpt lat="52.47863" lon="17.186588"></trkpt><trkpt lat="52.480049" lon="17.188108"></trkpt><trkpt lat="52.483596" lon="17.191228"></trkpt><trkpt lat="52.483893" lon="17.191185"></trkpt><trkpt lat="52.489429" lon="17.189517"></trkpt><trkpt lat="52.489618" lon="17.189347"></trkpt><trkpt lat="52.494493" lon="17.186203"></trkpt><trkpt lat="52.494809" lon="17.186293"></trkpt><trkpt lat="52.495406" lon="17.186287"></trkpt><trkpt lat="52.495366" lon="17.185775"></trkpt><trkpt lat="52.49517" lon="17.180163"></trkpt><trkpt lat="52.495201" lon="17.17815"></trkpt><trkpt lat="52.495246" lon="17.17781"></trkpt><trkpt lat="52.496756" lon="17.160307"></trkpt><trkpt lat="52.496419" lon="17.160151"></trkpt><trkpt lat="52.484835" lon="17.153263"></trkpt><trkpt lat="52.484853" lon="17.15267"></trkpt><trkpt lat="52.484798" lon="17.151726"></trkpt><trkpt lat="52.484645" lon="17.151458"></trkpt><trkpt lat="52.484393" lon="17.151147"></trkpt><trkpt lat="52.48394" lon="17.150433"></trkpt><trkpt lat="52.483896" lon="17.149982"></trkpt><trkpt lat="52.483974" lon="17.149451"></trkpt><trkpt lat="52.48679" lon="17.135162"></trkpt><trkpt lat="52.487193" lon="17.134876"></trkpt><trkpt lat="52.495832" lon="17.127384"></trkpt><trkpt lat="52.495951" lon="17.126744"></trkpt><trkpt lat="52.496002" lon="17.126275"></trkpt><trkpt lat="52.496026" lon="17.125903"></trkpt><trkpt lat="52.496455" lon="17.104832"></trkpt><trkpt lat="52.496121" lon="17.103974"></trkpt><trkpt lat="52.494995" lon="17.10149"></trkpt><trkpt lat="52.494809" lon="17.10121"></trkpt><trkpt lat="52.49426" lon="17.100496"></trkpt><trkpt lat="52.493443" lon="17.099585"></trkpt><trkpt lat="52.492929" lon="17.099108"></trkpt><trkpt lat="52.492743" lon="17.098979"></trkpt><trkpt lat="52.492526" lon="17.098625"></trkpt><trkpt lat="52.48783" lon="17.091984"></trkpt><trkpt lat="52.487634" lon="17.092101"></trkpt><trkpt lat="52.487413" lon="17.092123"></trkpt><trkpt lat="52.487118" lon="17.092228"></trkpt><trkpt lat="52.48689" lon="17.092359"></trkpt><trkpt lat="52.483353" lon="17.093926"></trkpt><trkpt lat="52.482903" lon="17.093941"></trkpt><trkpt lat="52.478429" lon="17.094801"></trkpt><trkpt lat="52.478192" lon="17.095254"></trkpt><trkpt lat="52.47794" lon="17.095205"></trkpt><trkpt lat="52.477678" lon="17.094756"></trkpt><trkpt lat="52.476338" lon="17.092047"></trkpt><trkpt lat="52.476088" lon="17.091449"></trkpt><trkpt lat="52.468527" lon="17.076093"></trkpt><trkpt lat="52.468183" lon="17.075667"></trkpt><trkpt lat="52.464444" lon="17.071792"></trkpt><trkpt lat="52.463897" lon="17.071485"></trkpt><trkpt lat="52.46368" lon="17.071257"></trkpt><trkpt lat="52.46285" lon="17.070155"></trkpt><trkpt lat="52.462731" lon="17.069867"></trkpt><trkpt lat="52.462391" lon="17.068879"></trkpt><trkpt lat="52.461717" lon="17.067461"></trkpt><trkpt lat="52.461428" lon="17.067846"></trkpt><trkpt lat="52.461215" lon="17.068185"></trkpt><trkpt lat="52.460738" lon="17.069059"></trkpt><trkpt lat="52.460478" lon="17.069609"></trkpt><trkpt lat="52.460339" lon="17.069995"></trkpt><trkpt lat="52.460125" lon="17.0702"></trkpt><trkpt lat="52.459895" lon="17.070137"></trkpt><trkpt lat="52.459589" lon="17.0701"></trkpt><trkpt lat="52.459382" lon="17.070385"></trkpt><trkpt lat="52.459206" lon="17.070738"></trkpt><trkpt lat="52.458864" lon="17.071539"></trkpt><trkpt lat="52.458786" lon="17.071935"></trkpt><trkpt lat="52.4587" lon="17.072523"></trkpt><trkpt lat="52.458622" lon="17.072891"></trkpt><trkpt lat="52.458531" lon="17.073463"></trkpt><trkpt lat="52.458483" lon="17.073888"></trkpt><trkpt lat="52.45837" lon="17.074602"></trkpt><trkpt lat="52.45804" lon="17.076192"></trkpt><trkpt lat="52.457896" lon="17.076707"></trkpt><trkpt lat="52.456612" lon="17.080541"></trkpt><trkpt lat="52.456376" lon="17.080734"></trkpt><trkpt lat="52.456004" lon="17.080927"></trkpt><trkpt lat="52.455781" lon="17.081011"></trkpt><trkpt lat="52.45354" lon="17.081503"></trkpt><trkpt lat="52.453401" lon="17.08117"></trkpt><trkpt lat="52.452522" lon="17.079507"></trkpt><trkpt lat="52.45229" lon="17.079359"></trkpt><trkpt lat="52.452043" lon="17.079252"></trkpt><trkpt lat="52.450895" lon="17.078591"></trkpt><trkpt lat="52.44618" lon="17.076512"></trkpt><trkpt lat="52.445835" lon="17.076478"></trkpt><trkpt lat="52.445391" lon="17.07635"></trkpt><trkpt lat="52.431136" lon="17.070292"></trkpt><trkpt lat="52.431057" lon="17.069984"></trkpt><trkpt lat="52.430851" lon="17.069957"></trkpt><trkpt lat="52.430542" lon="17.070292"></trkpt><trkpt lat="52.429681" lon="17.071069"></trkpt><trkpt lat="52.429631" lon="17.070741"></trkpt><trkpt lat="52.429543" lon="17.070309"></trkpt><trkpt lat="52.429326" lon="17.069659"></trkpt><trkpt lat="52.426708" lon="17.063563"></trkpt><trkpt lat="52.426359" lon="17.063805"></trkpt><trkpt lat="52.423931" lon="17.06516"></trkpt><trkpt lat="52.423607" lon="17.065153"></trkpt><trkpt lat="52.423378" lon="17.065076"></trkpt><trkpt lat="52.422581" lon="17.064661"></trkpt><trkpt lat="52.422361" lon="17.064391"></trkpt><trkpt lat="52.422125" lon="17.064247"></trkpt><trkpt lat="52.421904" lon="17.064201"></trkpt><trkpt lat="52.421668" lon="17.064206"></trkpt><trkpt lat="52.420769" lon="17.063984"></trkpt><trkpt lat="52.420435" lon="17.063824"></trkpt><trkpt lat="52.419969" lon="17.063676"></trkpt><trkpt lat="52.417657" lon="17.062516"></trkpt><trkpt lat="52.41746" lon="17.062136"></trkpt><trkpt lat="52.416491" lon="17.059961"></trkpt><trkpt lat="52.416421" lon="17.059623"></trkpt><trkpt lat="52.416093" lon="17.058422"></trkpt><trkpt lat="52.415894" lon="17.058012"></trkpt><trkpt lat="52.414593" lon="17.054884"></trkpt><trkpt lat="52.414564" lon="17.05432"></trkpt><trkpt lat="52.414495" lon="17.053632"></trkpt><trkpt lat="52.414378" lon="17.053148"></trkpt><trkpt lat="52.414194" lon="17.052527"></trkpt><trkpt lat="52.414042" lon="17.052135"></trkpt><trkpt lat="52.413915" lon="17.051715"></trkpt><trkpt lat="52.413571" lon="17.05085"></trkpt><trkpt lat="52.413295" lon="17.050522"></trkpt><trkpt lat="52.412826" lon="17.05005"></trkpt><trkpt lat="52.412643" lon="17.049896"></trkpt><trkpt lat="52.41205" lon="17.04951"></trkpt><trkpt lat="52.411777" lon="17.049468"></trkpt><trkpt lat="52.410286" lon="17.048945"></trkpt><trkpt lat="52.410013" lon="17.048517"></trkpt><trkpt lat="52.40981" lon="17.048014"></trkpt><trkpt lat="52.408214" lon="17.044933"></trkpt><trkpt lat="52.408008" lon="17.045105"></trkpt><trkpt lat="52.407527" lon="17.045293"></trkpt><trkpt lat="52.407232" lon="17.04499"></trkpt><trkpt lat="52.407073" lon="17.044789"></trkpt><trkpt lat="52.406856" lon="17.044595"></trkpt><trkpt lat="52.406593" lon="17.044305"></trkpt><trkpt lat="52.405773" lon="17.043187"></trkpt><trkpt lat="52.405927" lon="17.042628"></trkpt><trkpt lat="52.406044" lon="17.042298"></trkpt><trkpt lat="52.406129" lon="17.041936"></trkpt><trkpt lat="52.406044" lon="17.041606"></trkpt><trkpt lat="52.405863" lon="17.041468"></trkpt><trkpt lat="52.405678" lon="17.041243"></trkpt><trkpt lat="52.405778" lon="17.04077"></trkpt><trkpt lat="52.405913" lon="17.040476"></trkpt><trkpt lat="52.405985" lon="17.04011"></trkpt><trkpt lat="52.405806" lon="17.03973"></trkpt><trkpt lat="52.405725" lon="17.039352"></trkpt><trkpt lat="52.405669" lon="17.038953"></trkpt><trkpt lat="52.405645" lon="17.038473"></trkpt><trkpt lat="52.405701" lon="17.037915"></trkpt><trkpt lat="52.405727" lon="17.03739"></trkpt><trkpt lat="52.405606" lon="17.036633"></trkpt><trkpt lat="52.405461" lon="17.036039"></trkpt><trkpt lat="52.405338" lon="17.035212"></trkpt><trkpt lat="52.405339" lon="17.034787"></trkpt><trkpt lat="52.405474" lon="17.034045"></trkpt><trkpt lat="52.405635" lon="17.033551"></trkpt><trkpt lat="52.405872" lon="17.032988"></trkpt><trkpt lat="52.406108" lon="17.032237"></trkpt><trkpt lat="52.406191" lon="17.031828"></trkpt><trkpt lat="52.406172" lon="17.031327"></trkpt><trkpt lat="52.406053" lon="17.030869"></trkpt><trkpt lat="52.405851" lon="17.030871"></trkpt><trkpt lat="52.404818" lon="17.030708"></trkpt><trkpt lat="52.404644" lon="17.030433"></trkpt><trkpt lat="52.404432" lon="17.030239"></trkpt><trkpt lat="52.403028" lon="17.028683"></trkpt><trkpt lat="52.402926" lon="17.028398"></trkpt><trkpt lat="52.402577" lon="17.027242"></trkpt><trkpt lat="52.399491" lon="17.018957"></trkpt><trkpt lat="52.399235" lon="17.018821"></trkpt><trkpt lat="52.398942" lon="17.018581"></trkpt><trkpt lat="52.398745" lon="17.018456"></trkpt><trkpt lat="52.395485" lon="17.015898"></trkpt><trkpt lat="52.39542" lon="17.015396"></trkpt><trkpt lat="52.39535" lon="17.015024"></trkpt><trkpt lat="52.395261" lon="17.014668"></trkpt><trkpt lat="52.395265" lon="17.014072"></trkpt><trkpt lat="52.395143" lon="17.013624"></trkpt><trkpt lat="52.395072" lon="17.013255"></trkpt><trkpt lat="52.394913" lon="17.011971"></trkpt><trkpt lat="52.394966" lon="17.011573"></trkpt><trkpt lat="52.395114" lon="17.011001"></trkpt><trkpt lat="52.395346" lon="17.010607"></trkpt><trkpt lat="52.39549" lon="17.01021"></trkpt><trkpt lat="52.395565" lon="17.009659"></trkpt><trkpt lat="52.395606" lon="17.009188"></trkpt><trkpt lat="52.395605" lon="17.008236"></trkpt><trkpt lat="52.395478" lon="17.007544"></trkpt><trkpt lat="52.395452" lon="17.007151"></trkpt><trkpt lat="52.395495" lon="17.00674"></trkpt><trkpt lat="52.395592" lon="17.005105"></trkpt><trkpt lat="52.3957" lon="17.004468"></trkpt><trkpt lat="52.395876" lon="17.004062"></trkpt><trkpt lat="52.396276" lon="17.00279"></trkpt><trkpt lat="52.396257" lon="17.002393"></trkpt><trkpt lat="52.396349" lon="16.995667"></trkpt><trkpt lat="52.396555" lon="16.995177"></trkpt><trkpt lat="52.396798" lon="16.99468"></trkpt><trkpt lat="52.397209" lon="16.994006"></trkpt><trkpt lat="52.39756" lon="16.993636"></trkpt><trkpt lat="52.397949" lon="16.993298"></trkpt><trkpt lat="52.398642" lon="16.992929"></trkpt><trkpt lat="52.399233" lon="16.993155"></trkpt><trkpt lat="52.399482" lon="16.993105"></trkpt><trkpt lat="52.399718" lon="16.992958"></trkpt><trkpt lat="52.40092" lon="16.992043"></trkpt><trkpt lat="52.401254" lon="16.991708"></trkpt><trkpt lat="52.401933" lon="16.990883"></trkpt><trkpt lat="52.402228" lon="16.990465"></trkpt><trkpt lat="52.40237" lon="16.990137"></trkpt><trkpt lat="52.402546" lon="16.989805"></trkpt><trkpt lat="52.402424" lon="16.989419"></trkpt><trkpt lat="52.402442" lon="16.989092"></trkpt><trkpt lat="52.40251" lon="16.988676"></trkpt><trkpt lat="52.402725" lon="16.987919"></trkpt><trkpt lat="52.402974" lon="16.986622"></trkpt><trkpt lat="52.402695" lon="16.98642"></trkpt><trkpt lat="52.402435" lon="16.986334"></trkpt><trkpt lat="52.402252" lon="16.986486"></trkpt><trkpt lat="52.402268" lon="16.986042"></trkpt><trkpt lat="52.402253" lon="16.985657"></trkpt><trkpt lat="52.402103" lon="16.985254"></trkpt><trkpt lat="52.402107" lon="16.984901"></trkpt><trkpt lat="52.402146" lon="16.984548"></trkpt><trkpt lat="52.402978" lon="16.979493"></trkpt><trkpt lat="52.403104" lon="16.979149"></trkpt><trkpt lat="52.40325" lon="16.978884"></trkpt><trkpt lat="52.403235" lon="16.978262"></trkpt><trkpt lat="52.403209" lon="16.977896"></trkpt><trkpt lat="52.403293" lon="16.97755"></trkpt><trkpt lat="52.403487" lon="16.977438"></trkpt><trkpt lat="52.403803" lon="16.977296"></trkpt><trkpt lat="52.403866" lon="16.976792"></trkpt><trkpt lat="52.403957" lon="16.97627"></trkpt><trkpt lat="52.403961" lon="16.975888"></trkpt><trkpt lat="52.403887" lon="16.975446"></trkpt><trkpt lat="52.403866" lon="16.974971"></trkpt><trkpt lat="52.40397" lon="16.974504"></trkpt><trkpt lat="52.403994" lon="16.973785"></trkpt><trkpt lat="52.403974" lon="16.972851"></trkpt><trkpt lat="52.403891" lon="16.971989"></trkpt><trkpt lat="52.403762" lon="16.96933"></trkpt><trkpt lat="52.40381" lon="16.968684"></trkpt><trkpt lat="52.403941" lon="16.967638"></trkpt><trkpt lat="52.40415" lon="16.966669"></trkpt><trkpt lat="52.405156" lon="16.963179"></trkpt><trkpt lat="52.405382" lon="16.962824"></trkpt><trkpt lat="52.405699" lon="16.962408"></trkpt><trkpt lat="52.407898" lon="16.959008"></trkpt><trkpt lat="52.407919" lon="16.958625"></trkpt><trkpt lat="52.407911" lon="16.958247"></trkpt><trkpt lat="52.407964" lon="16.956933"></trkpt><trkpt lat="52.407754" lon="16.956724"></trkpt><trkpt lat="52.407455" lon="16.956507"></trkpt><trkpt lat="52.406746" lon="16.956173"></trkpt><trkpt lat="52.405659" lon="16.955511"></trkpt><trkpt lat="52.40525" lon="16.955175"></trkpt><trkpt lat="52.405022" lon="16.95506"></trkpt><trkpt lat="52.404266" lon="16.954845"></trkpt><trkpt lat="52.404049" lon="16.954822"></trkpt><trkpt lat="52.403716" lon="16.954706"></trkpt><trkpt lat="52.403664" lon="16.954314"></trkpt><trkpt lat="52.403557" lon="16.95386"></trkpt><trkpt lat="52.403547" lon="16.953438"></trkpt><trkpt lat="52.403566" lon="16.952659"></trkpt><trkpt lat="52.403717" lon="16.951504"></trkpt><trkpt lat="52.403625" lon="16.951007"></trkpt><trkpt lat="52.403345" lon="16.950709"></trkpt><trkpt lat="52.401107" lon="16.9479"></trkpt><trkpt lat="52.401231" lon="16.947505"></trkpt><trkpt lat="52.402746" lon="16.943486"></trkpt><trkpt lat="52.402898" lon="16.943725"></trkpt><trkpt lat="52.403024" lon="16.94409"></trkpt><trkpt lat="52.402771" lon="16.944107"></trkpt><trkpt lat="52.402335" lon="16.943721"></trkpt><trkpt lat="52.401775" lon="16.943133"></trkpt><trkpt lat="52.396835" lon="16.93874"></trkpt><trkpt lat="52.397036" lon="16.938518"></trkpt><trkpt lat="52.397099" lon="16.937935"></trkpt><trkpt lat="52.397018" lon="16.937227"></trkpt><trkpt lat="52.396993" lon="16.936741"></trkpt><trkpt lat="52.396649" lon="16.936702"></trkpt><trkpt lat="52.395043" lon="16.937151"></trkpt><trkpt lat="52.394856" lon="16.937295"></trkpt><trkpt lat="52.394562" lon="16.937455"></trkpt><trkpt lat="52.394027" lon="16.937362"></trkpt><trkpt lat="52.393673" lon="16.93725"></trkpt><trkpt lat="52.39199" lon="16.936494"></trkpt><trkpt lat="52.391761" lon="16.936275"></trkpt><trkpt lat="52.391084" lon="16.935806"></trkpt><trkpt lat="52.390682" lon="16.935772"></trkpt><trkpt lat="52.389982" lon="16.935616"></trkpt><trkpt lat="52.389463" lon="16.935369"></trkpt></trkseg></trk></gpx>