<?xml version="1.0" encoding="UTF-8" standalone="no" ?><gpx xmlns="http://www.topografix.com/GPX/1/1" xmlns:gpxx="http://www.garmin.com/xmlschemas/GpxExtensions/v3" ><trk><trkseg><trkpt lat="52.5384515338" lon="17.7182973269"></trkpt><trkpt lat="52.5381857436" lon="17.7178069018"></trkpt><trkpt lat="52.538331002" lon="17.7183145937"></trkpt><trkpt lat="52.538595451" lon="17.71985678"></trkpt><trkpt lat="52.5383487716" lon="17.7200982627"></trkpt><trkpt lat="52.538085999" lon="17.7202364802"></trkpt><trkpt lat="52.5378215499" lon="17.7205068804"></trkpt><trkpt lat="52.5375100784" lon="17.7207234688"></trkpt><trkpt lat="52.5365780946" lon="17.7210835554"></trkpt><trkpt lat="52.5347966887" lon="17.7207066212"></trkpt><trkpt lat="52.5344770029" lon="17.7205842454"></trkpt><trkpt lat="52.5341566466" lon="17.7203743625"></trkpt><trkpt lat="52.5339209475" lon="17.7201362327"></trkpt><trkpt lat="52.5337021798" lon="17.719847979"></trkpt><trkpt lat="52.5326676015" lon="17.7187237982"></trkpt><trkpt lat="52.5322884042" lon="17.7189053502"></trkpt><trkpt lat="52.5326166395" lon="17.7187320963"></trkpt><trkpt lat="52.5329713617" lon="17.7188344393"></trkpt><trkpt lat="52.5331721082" lon="17.7191758342"></trkpt><trkpt lat="52.5334136747" lon="17.719455706"></trkpt><trkpt lat="52.534144409" lon="17.720496906"></trkpt><trkpt lat="52.5342210196" lon="17.7210104652"></trkpt><trkpt lat="52.5342330057" lon="17.7215161454"></trkpt><trkpt lat="52.5341136474" lon="17.721984107"></trkpt><trkpt lat="52.5338346139" lon="17.7220930718"></trkpt><trkpt lat="52.533412585" lon="17.7220969275"></trkpt><trkpt lat="52.5328692701" lon="17.7221926488"></trkpt><trkpt lat="52.5326237641" lon="17.7226069663"></trkpt><trkpt lat="52.5325540267" lon="17.7232964616"></trkpt><trkpt lat="52.5324800983" lon="17.7237666026"></trkpt><trkpt lat="52.5321908388" lon="17.7240483183"></trkpt><trkpt lat="52.5323845446" lon="17.7246405836"></trkpt><trkpt lat="52.532074498" lon="17.7247887757"></trkpt><trkpt lat="52.5316375494" lon="17.7249280829"></trkpt><trkpt lat="52.5312021933" lon="17.7252874989"></trkpt><trkpt lat="52.5311378203" lon="17.725722855"></trkpt><trkpt lat="52.5311114173" lon="17.7263403498"></trkpt><trkpt lat="52.5311633851" lon="17.726870589"></trkpt><trkpt lat="52.5311254989" lon="17.7264274377"></trkpt><trkpt lat="52.5311378203" lon="17.7258560434"></trkpt><trkpt lat="52.5311949011" lon="17.7252859063"></trkpt><trkpt lat="52.5315569155" lon="17.7249837387"></trkpt><trkpt lat="52.5319176726" lon="17.7248706669"></trkpt><trkpt lat="52.5323011447" lon="17.7248088922"></trkpt><trkpt lat="52.5325211696" lon="17.7252583299"></trkpt><trkpt lat="52.5326092634" lon="17.7257675305"></trkpt><trkpt lat="52.532640947" lon="17.726226775"></trkpt><trkpt lat="52.5328047294" lon="17.7275427338"></trkpt><trkpt lat="52.5332025345" lon="17.7296273969"></trkpt><trkpt lat="52.5332167838" lon="17.7302054968"></trkpt><trkpt lat="52.5331730302" lon="17.730810754"></trkpt><trkpt lat="52.5331674144" lon="17.7312760334"></trkpt><trkpt lat="52.5332005229" lon="17.7317420673"></trkpt><trkpt lat="52.5334930513" lon="17.7339743357"></trkpt><trkpt lat="52.5335217174" lon="17.7344894875"></trkpt><trkpt lat="52.533502942" lon="17.7349646576"></trkpt><trkpt lat="52.5335354637" lon="17.7354511432"></trkpt><trkpt lat="52.5335923769" lon="17.7359146625"></trkpt><trkpt lat="52.5337046944" lon="17.7364008129"></trkpt><trkpt lat="52.5337770302" lon="17.7368823532"></trkpt><trkpt lat="52.5338453427" lon="17.7376347128"></trkpt><trkpt lat="52.5337770302" lon="17.7382294927"></trkpt><trkpt lat="52.5336666405" lon="17.7386645135"></trkpt><trkpt lat="52.5336119067" lon="17.7391774021"></trkpt><trkpt lat="52.533513587" lon="17.739605885"></trkpt><trkpt lat="52.5336288381" lon="17.7402035147"></trkpt><trkpt lat="52.5335086416" lon="17.7406521142"></trkpt><trkpt lat="52.533190297" lon="17.7406180836"></trkpt><trkpt lat="52.5329070725" lon="17.7405046765"></trkpt><trkpt lat="52.5325229298" lon="17.7404373698"></trkpt><trkpt lat="52.532206513" lon="17.7403267287"></trkpt><trkpt lat="52.5319171697" lon="17.7401196957"></trkpt><trkpt lat="52.5316137448" lon="17.7400387265"></trkpt><trkpt lat="52.5313512236" lon="17.7398238983"></trkpt><trkpt lat="52.5309819169" lon="17.7396348026"></trkpt><trkpt lat="52.5312645547" lon="17.7399109863"></trkpt><trkpt lat="52.5312987529" lon="17.7403934486"></trkpt><trkpt lat="52.5313787162" lon="17.7408764139"></trkpt><trkpt lat="52.5313852541" lon="17.7413236722"></trkpt><trkpt lat="52.5310803205" lon="17.7414530888"></trkpt><trkpt lat="52.5310643949" lon="17.7420347091"></trkpt><trkpt lat="52.5311846752" lon="17.7424551453"></trkpt><trkpt lat="52.5312914606" lon="17.743043052"></trkpt><trkpt lat="52.5314461067" lon="17.7434335649"></trkpt><trkpt lat="52.5316485297" lon="17.7437803242"></trkpt><trkpt lat="52.5317399763" lon="17.7443146706"></trkpt><trkpt lat="52.5317482743" lon="17.7448851429"></trkpt><trkpt lat="52.531673843" lon="17.7454170585"></trkpt><trkpt lat="52.531620618" lon="17.7460802346"></trkpt><trkpt lat="52.5319354422" lon="17.7463154308"></trkpt><trkpt lat="52.5322870631" lon="17.7464077994"></trkpt><trkpt lat="52.5321211852" lon="17.7468740847"></trkpt><trkpt lat="52.532145828" lon="17.7474228479"></trkpt><trkpt lat="52.5321358535" lon="17.7481974196"></trkpt><trkpt lat="52.5321737397" lon="17.7487843204"></trkpt><trkpt lat="52.5321599096" lon="17.7493651863"></trkpt><trkpt lat="52.5319882482" lon="17.749908166"></trkpt><trkpt lat="52.53187811" lon="17.7504349686"></trkpt><trkpt lat="52.5316509604" lon="17.7512354404"></trkpt><trkpt lat="52.5313806441" lon="17.7525244094"></trkpt><trkpt lat="52.5312353019" lon="17.7529875096"></trkpt><trkpt lat="52.5295148324" lon="17.7573826443"></trkpt><trkpt lat="52.5292600226" lon="17.7577069402"></trkpt><trkpt lat="52.5290372316" lon="17.7581032366"></trkpt><trkpt lat="52.5287759677" lon="17.7583955973"></trkpt><trkpt lat="52.5285225827" lon="17.7588436939"></trkpt><trkpt lat="52.5278728176" lon="17.7602278814"></trkpt><trkpt lat="52.5276682992" lon="17.7605548594"></trkpt><trkpt lat="52.5274063647" lon="17.7608789876"></trkpt><trkpt lat="52.5269135088" lon="17.7616246417"></trkpt><trkpt lat="52.5266489759" lon="17.762131663"></trkpt><trkpt lat="52.5264325552" lon="17.7624252811"></trkpt><trkpt lat="52.5261740573" lon="17.7626525983"></trkpt><trkpt lat="52.5257855561" lon="17.7629184723"></trkpt><trkpt lat="52.5254590809" lon="17.7629323024"></trkpt><trkpt lat="52.5253010821" lon="17.7624615747"></trkpt><trkpt lat="52.525179293" lon="17.7618011646"></trkpt><trkpt lat="52.5249953941" lon="17.7613325324"></trkpt><trkpt lat="52.5246674102" lon="17.7609466296"></trkpt><trkpt lat="52.5243543461" lon="17.7606443781"></trkpt><trkpt lat="52.524123257" lon="17.7603185736"></trkpt><trkpt lat="52.5237812754" lon="17.759671323"></trkpt><trkpt lat="52.5236231089" lon="17.7591623738"></trkpt><trkpt lat="52.5235692132" lon="17.758699609"></trkpt><trkpt lat="52.5236072671" lon="17.7582330722"></trkpt><trkpt lat="52.5236893259" lon="17.7577351872"></trkpt><trkpt lat="52.5237426348" lon="17.7567892894"></trkpt><trkpt lat="52.523560077" lon="17.7561527677"></trkpt><trkpt lat="52.5233566482" lon="17.7556597441"></trkpt><trkpt lat="52.5223802403" lon="17.7536990494"></trkpt><trkpt lat="52.5221461337" lon="17.7533369511"></trkpt><trkpt lat="52.5215257891" lon="17.7521546837"></trkpt><trkpt lat="52.5213345978" lon="17.7516821958"></trkpt><trkpt lat="52.5210246351" lon="17.7513848059"></trkpt><trkpt lat="52.5206766184" lon="17.7511567343"></trkpt><trkpt lat="52.5203830004" lon="17.7508949675"></trkpt><trkpt lat="52.5190549716" lon="17.7494498435"></trkpt><trkpt lat="52.5182129256" lon="17.748304205"></trkpt><trkpt lat="52.51803766" lon="17.7478048112"></trkpt><trkpt lat="52.5179477222" lon="17.7473529428"></trkpt><trkpt lat="52.5180431083" lon="17.7468767669"></trkpt><trkpt lat="52.5180773064" lon="17.7462842502"></trkpt><trkpt lat="52.5182176195" lon="17.745072227"></trkpt><trkpt lat="52.5188108906" lon="17.7352862712"></trkpt><trkpt lat="52.5188051071" lon="17.7348260209"></trkpt><trkpt lat="52.51835634" lon="17.7282653376"></trkpt><trkpt lat="52.5182675757" lon="17.7275983896"></trkpt><trkpt lat="52.5182114169" lon="17.7265854366"></trkpt><trkpt lat="52.5184937194" lon="17.7262519207"></trkpt><trkpt lat="52.5188842323" lon="17.7255551331"></trkpt><trkpt lat="52.5190258026" lon="17.7250811365"></trkpt><trkpt lat="52.5193376932" lon="17.724250406"></trkpt><trkpt lat="52.5196266174" lon="17.7239917405"></trkpt><trkpt lat="52.5199204031" lon="17.7237916645"></trkpt><trkpt lat="52.5202182122" lon="17.72372704"></trkpt><trkpt lat="52.5205107406" lon="17.7236173209"></trkpt><trkpt lat="52.520838473" lon="17.7235813625"></trkpt><trkpt lat="52.5212839711" lon="17.7236970328"></trkpt><trkpt lat="52.5215977058" lon="17.723707594"></trkpt><trkpt lat="52.521865759" lon="17.7236190811"></trkpt><trkpt lat="52.5222044718" lon="17.7235867269"></trkpt><trkpt lat="52.5225903746" lon="17.7237141319"></trkpt><trkpt lat="52.5227378123" lon="17.7241890505"></trkpt><trkpt lat="52.5231310911" lon="17.7252108045"></trkpt><trkpt lat="52.5229846593" lon="17.7247457765"></trkpt><trkpt lat="52.5224675797" lon="17.723568622"></trkpt><trkpt lat="52.5220859516" lon="17.7235391177"></trkpt><trkpt lat="52.5217961054" lon="17.7236222662"></trkpt><trkpt lat="52.5213040877" lon="17.72367239"></trkpt><trkpt lat="52.5208512135" lon="17.7235514391"></trkpt><trkpt lat="52.5205611158" lon="17.7235454042"></trkpt><trkpt lat="52.5202742871" lon="17.7236543689"></trkpt><trkpt lat="52.5199748017" lon="17.7236258704"></trkpt><trkpt lat="52.5198593829" lon="17.7231829707"></trkpt><trkpt lat="52.5198490731" lon="17.7226687409"></trkpt><trkpt lat="52.5197655894" lon="17.7220936585"></trkpt><trkpt lat="52.5197877176" lon="17.7214341704"></trkpt><trkpt lat="52.5198410265" lon="17.7209806256"></trkpt><trkpt lat="52.5199930742" lon="17.7201223187"></trkpt><trkpt lat="52.522920873" lon="17.7061041724"></trkpt><trkpt lat="52.5233725738" lon="17.7044327371"></trkpt><trkpt lat="52.5244050566" lon="17.7013952192"></trkpt><trkpt lat="52.5247606169" lon="17.701299414"></trkpt><trkpt lat="52.5250348728" lon="17.7014614362"></trkpt><trkpt lat="52.528515961" lon="17.7029620484"></trkpt><trkpt lat="52.5288958289" lon="17.7025420312"></trkpt><trkpt lat="52.5293811411" lon="17.7018966246"></trkpt><trkpt lat="52.5294744316" lon="17.701430507"></trkpt><trkpt lat="52.5296651199" lon="17.7010726836"></trkpt><trkpt lat="52.5299271382" lon="17.7009537444"></trkpt><trkpt lat="52.5321054272" lon="17.7003009617"></trkpt><trkpt lat="52.5320498552" lon="17.7008336317"></trkpt><trkpt lat="52.531900825" lon="17.7014652919"></trkpt><trkpt lat="52.5318195205" lon="17.7019445691"></trkpt><trkpt lat="52.531797057" lon="17.7024875488"></trkpt><trkpt lat="52.5318224542" lon="17.7029356454"></trkpt><trkpt lat="52.5319811236" lon="17.7035672218"></trkpt><trkpt lat="52.5321669504" lon="17.7039753366"></trkpt><trkpt lat="52.532421425" lon="17.7044422086"></trkpt><trkpt lat="52.5327407755" lon="17.7048431989"></trkpt><trkpt lat="52.5330403447" lon="17.705040006"></trkpt><trkpt lat="52.5332521554" lon="17.7053443529"></trkpt><trkpt lat="52.5334160216" lon="17.7057077922"></trkpt><trkpt lat="52.5337588415" lon="17.7063405421"></trkpt><trkpt lat="52.5350183062" lon="17.7091349848"></trkpt><trkpt lat="52.5350481458" lon="17.7096499689"></trkpt><trkpt lat="52.5352184661" lon="17.7109632455"></trkpt><trkpt lat="52.5355308596" lon="17.7113784011"></trkpt><trkpt lat="52.5355777144" lon="17.7119565848"></trkpt><trkpt lat="52.5353542529" lon="17.7125426475"></trkpt><trkpt lat="52.5352203939" lon="17.7131619863"></trkpt><trkpt lat="52.5351297855" lon="17.7137415111"></trkpt><trkpt lat="52.5349700265" lon="17.7141507156"></trkpt><trkpt lat="52.534794258" lon="17.7145114727"></trkpt><trkpt lat="52.5342952833" lon="17.7151303925"></trkpt><trkpt lat="52.5339673832" lon="17.7151697874"></trkpt><trkpt lat="52.5336129125" lon="17.7153691091"></trkpt><trkpt lat="52.5334221404" lon="17.7158730291"></trkpt><trkpt lat="52.5332899578" lon="17.7163469419"></trkpt><trkpt lat="52.5331353117" lon="17.7167877462"></trkpt><trkpt lat="52.5330226589" lon="17.7172779199"></trkpt><trkpt lat="52.5328614749" lon="17.7183513902"></trkpt><trkpt lat="52.5329778157" lon="17.7187634446"></trkpt><trkpt lat="52.5332757086" lon="17.7193002217"></trkpt><trkpt lat="52.533510318" lon="17.7195808478"></trkpt><trkpt lat="52.5345397834" lon="17.7205888554"></trkpt><trkpt lat="52.5349613093" lon="17.7206537314"></trkpt><trkpt lat="52.5358220469" lon="17.7206540667"></trkpt><trkpt lat="52.5361729134" lon="17.7209388837"></trkpt><trkpt lat="52.5364770927" lon="17.7211104613"></trkpt><trkpt lat="52.536823852" lon="17.7211632673"></trkpt><trkpt lat="52.5371513329" lon="17.7209511213"></trkpt><trkpt lat="52.5377509743" lon="17.7204451896"></trkpt><trkpt lat="52.5383940339" lon="17.720015198"></trkpt><trkpt lat="52.5387321599" lon="17.7197103482"></trkpt><trkpt lat="52.5391113572" lon="17.720101364"></trkpt></trkseg></trk></gpx>