<?xml version="1.0" encoding="UTF-8" standalone="no" ?><gpx xmlns="http://www.topografix.com/GPX/1/1" xmlns:gpxx="http://www.garmin.com/xmlschemas/GpxExtensions/v3" ><trk><trkseg><trkpt lat="52.445857" lon="17.079362"></trkpt><trkpt lat="52.445649" lon="17.079016"></trkpt><trkpt lat="52.445367" lon="17.078887"></trkpt><trkpt lat="52.445173" lon="17.078213"></trkpt><trkpt lat="52.445022" lon="17.07779"></trkpt><trkpt lat="52.444943" lon="17.077356"></trkpt><trkpt lat="52.444862" lon="17.076355"></trkpt><trkpt lat="52.445158" lon="17.07645"></trkpt><trkpt lat="52.446105" lon="17.076584"></trkpt><trkpt lat="52.446406" lon="17.076476"></trkpt><trkpt lat="52.446679" lon="17.076676"></trkpt><trkpt lat="52.447262" lon="17.076968"></trkpt><trkpt lat="52.44753" lon="17.077037"></trkpt><trkpt lat="52.448351" lon="17.077397"></trkpt><trkpt lat="52.452588" lon="17.079937"></trkpt><trkpt lat="52.452781" lon="17.080325"></trkpt><trkpt lat="52.453025" lon="17.080955"></trkpt><trkpt lat="52.453163" lon="17.081404"></trkpt><trkpt lat="52.453359" lon="17.081715"></trkpt><trkpt lat="52.453729" lon="17.081608"></trkpt><trkpt lat="52.456333" lon="17.080374"></trkpt><trkpt lat="52.45658" lon="17.079933"></trkpt><trkpt lat="52.456803" lon="17.079404"></trkpt><trkpt lat="52.456957" lon="17.078946"></trkpt><trkpt lat="52.458474" lon="17.073237"></trkpt><trkpt lat="52.458479" lon="17.072662"></trkpt><trkpt lat="52.458617" lon="17.071939"></trkpt><trkpt lat="52.458821" lon="17.071402"></trkpt><trkpt lat="52.459043" lon="17.07092"></trkpt><trkpt lat="52.459266" lon="17.070561"></trkpt><trkpt lat="52.459613" lon="17.070329"></trkpt><trkpt lat="52.459917" lon="17.070294"></trkpt><trkpt lat="52.460189" lon="17.070154"></trkpt><trkpt lat="52.460373" lon="17.069825"></trkpt><trkpt lat="52.461915" lon="17.067542"></trkpt><trkpt lat="52.462056" lon="17.067921"></trkpt><trkpt lat="52.462503" lon="17.069444"></trkpt><trkpt lat="52.46291" lon="17.0704"></trkpt><trkpt lat="52.463223" lon="17.070819"></trkpt><trkpt lat="52.463564" lon="17.071193"></trkpt><trkpt lat="52.463988" lon="17.071563"></trkpt><trkpt lat="52.464261" lon="17.071588"></trkpt><trkpt lat="52.464661" lon="17.071994"></trkpt><trkpt lat="52.464929" lon="17.072145"></trkpt><trkpt lat="52.46559" lon="17.072655"></trkpt><trkpt lat="52.466247" lon="17.073285"></trkpt><trkpt lat="52.466998" lon="17.074202"></trkpt><trkpt lat="52.471388" lon="17.080636"></trkpt><trkpt lat="52.471619" lon="17.081192"></trkpt><trkpt lat="52.478583" lon="17.094661"></trkpt><trkpt lat="52.479216" lon="17.093774"></trkpt><trkpt lat="52.479593" lon="17.093936"></trkpt><trkpt lat="52.480212" lon="17.094066"></trkpt><trkpt lat="52.480522" lon="17.094064"></trkpt><trkpt lat="52.485496" lon="17.093293"></trkpt><trkpt lat="52.485998" lon="17.092978"></trkpt><trkpt lat="52.488626" lon="17.091826"></trkpt><trkpt lat="52.488868" lon="17.092255"></trkpt><trkpt lat="52.497594" lon="17.107331"></trkpt><trkpt lat="52.497546" lon="17.107883"></trkpt><trkpt lat="52.495335" lon="17.128475"></trkpt><trkpt lat="52.495086" lon="17.128805"></trkpt><trkpt lat="52.494595" lon="17.129337"></trkpt><trkpt lat="52.493678" lon="17.130109"></trkpt><trkpt lat="52.485053" lon="17.139189"></trkpt><trkpt lat="52.485023" lon="17.140193"></trkpt><trkpt lat="52.484958" lon="17.140809"></trkpt><trkpt lat="52.48464" lon="17.151506"></trkpt><trkpt lat="52.484825" lon="17.151894"></trkpt><trkpt lat="52.484832" lon="17.152534"></trkpt><trkpt lat="52.484748" lon="17.15444"></trkpt><trkpt lat="52.484636" lon="17.154866"></trkpt><trkpt lat="52.484473" lon="17.155249"></trkpt><trkpt lat="52.48259" lon="17.161106"></trkpt><trkpt lat="52.482475" lon="17.162017"></trkpt><trkpt lat="52.479559" lon="17.17787"></trkpt><trkpt lat="52.479276" lon="17.178335"></trkpt><trkpt lat="52.479032" lon="17.178618"></trkpt><trkpt lat="52.477857" lon="17.180416"></trkpt><trkpt lat="52.477581" lon="17.181003"></trkpt><trkpt lat="52.477427" lon="17.181578"></trkpt><trkpt lat="52.477416" lon="17.182107"></trkpt><trkpt lat="52.477284" lon="17.182972"></trkpt><trkpt lat="52.477175" lon="17.183467"></trkpt><trkpt lat="52.477105" lon="17.184062"></trkpt><trkpt lat="52.477152" lon="17.184825"></trkpt><trkpt lat="52.477053" lon="17.185461"></trkpt><trkpt lat="52.476594" lon="17.185866"></trkpt><trkpt lat="52.476234" lon="17.185774"></trkpt><trkpt lat="52.47579" lon="17.186069"></trkpt><trkpt lat="52.475712" lon="17.186651"></trkpt><trkpt lat="52.475745" lon="17.187179"></trkpt><trkpt lat="52.475833" lon="17.18775"></trkpt><trkpt lat="52.476159" lon="17.191397"></trkpt><trkpt lat="52.476107" lon="17.191892"></trkpt><trkpt lat="52.476093" lon="17.192483"></trkpt><trkpt lat="52.476019" lon="17.195598"></trkpt><trkpt lat="52.476051" lon="17.194852"></trkpt><trkpt lat="52.475957" lon="17.188065"></trkpt><trkpt lat="52.475877" lon="17.187557"></trkpt><trkpt lat="52.475803" lon="17.186338"></trkpt><trkpt lat="52.475942" lon="17.185919"></trkpt><trkpt lat="52.4763" lon="17.185833"></trkpt><trkpt lat="52.47687" lon="17.185804"></trkpt><trkpt lat="52.477137" lon="17.185423"></trkpt><trkpt lat="52.477227" lon="17.184855"></trkpt><trkpt lat="52.477179" lon="17.184292"></trkpt><trkpt lat="52.477175" lon="17.183732"></trkpt><trkpt lat="52.477313" lon="17.18321"></trkpt><trkpt lat="52.477488" lon="17.18217"></trkpt><trkpt lat="52.477533" lon="17.181399"></trkpt><trkpt lat="52.477683" lon="17.180954"></trkpt><trkpt lat="52.478061" lon="17.180151"></trkpt><trkpt lat="52.478684" lon="17.179081"></trkpt><trkpt lat="52.479102" lon="17.178614"></trkpt><trkpt lat="52.479615" lon="17.177875"></trkpt><trkpt lat="52.47986" lon="17.177046"></trkpt><trkpt lat="52.481556" lon="17.169566"></trkpt><trkpt lat="52.481689" lon="17.168505"></trkpt><trkpt lat="52.48387" lon="17.15652"></trkpt><trkpt lat="52.484113" lon="17.156064"></trkpt><trkpt lat="52.484811" lon="17.154399"></trkpt><trkpt lat="52.484827" lon="17.153751"></trkpt><trkpt lat="52.484751" lon="17.151603"></trkpt><trkpt lat="52.484519" lon="17.151293"></trkpt><trkpt lat="52.483907" lon="17.150274"></trkpt><trkpt lat="52.484047" lon="17.148943"></trkpt><trkpt lat="52.486298" lon="17.135488"></trkpt><trkpt lat="52.486677" lon="17.135213"></trkpt><trkpt lat="52.495982" lon="17.126363"></trkpt><trkpt lat="52.496055" lon="17.125524"></trkpt><trkpt lat="52.496604" lon="17.105163"></trkpt><trkpt lat="52.496279" lon="17.104369"></trkpt><trkpt lat="52.494402" lon="17.100632"></trkpt><trkpt lat="52.49414" lon="17.100334"></trkpt><trkpt lat="52.491825" lon="17.097112"></trkpt><trkpt lat="52.491418" lon="17.096431"></trkpt><trkpt lat="52.487972" lon="17.091717"></trkpt><trkpt lat="52.48768" lon="17.091896"></trkpt><trkpt lat="52.483211" lon="17.093918"></trkpt><trkpt lat="52.482628" lon="17.09393"></trkpt><trkpt lat="52.478504" lon="17.094621"></trkpt><trkpt lat="52.478265" lon="17.095134"></trkpt><trkpt lat="52.477942" lon="17.095201"></trkpt><trkpt lat="52.477406" lon="17.094255"></trkpt><trkpt lat="52.476281" lon="17.091841"></trkpt><trkpt lat="52.468201" lon="17.075668"></trkpt><trkpt lat="52.467749" lon="17.075073"></trkpt><trkpt lat="52.465036" lon="17.072127"></trkpt><trkpt lat="52.464598" lon="17.071875"></trkpt><trkpt lat="52.46425" lon="17.071602"></trkpt><trkpt lat="52.464523" lon="17.071445"></trkpt><trkpt lat="52.464222" lon="17.071631"></trkpt><trkpt lat="52.463492" lon="17.071004"></trkpt><trkpt lat="52.463144" lon="17.070616"></trkpt><trkpt lat="52.462889" lon="17.070204"></trkpt><trkpt lat="52.462677" lon="17.069733"></trkpt><trkpt lat="52.462492" lon="17.069112"></trkpt><trkpt lat="52.461838" lon="17.067335"></trkpt><trkpt lat="52.461429" lon="17.067828"></trkpt><trkpt lat="52.461231" lon="17.068145"></trkpt><trkpt lat="52.46061" lon="17.069333"></trkpt><trkpt lat="52.460428" lon="17.069788"></trkpt><trkpt lat="52.460129" lon="17.070128"></trkpt><trkpt lat="52.459807" lon="17.070038"></trkpt><trkpt lat="52.459389" lon="17.070424"></trkpt><trkpt lat="52.459029" lon="17.071102"></trkpt><trkpt lat="52.458861" lon="17.071597"></trkpt><trkpt lat="52.458798" lon="17.072081"></trkpt><trkpt lat="52.458585" lon="17.073083"></trkpt><trkpt lat="52.458143" lon="17.074691"></trkpt><trkpt lat="52.455761" lon="17.081383"></trkpt><trkpt lat="52.455478" lon="17.081499"></trkpt><trkpt lat="52.453591" lon="17.081965"></trkpt><trkpt lat="52.453409" lon="17.081557"></trkpt><trkpt lat="52.452664" lon="17.080162"></trkpt><trkpt lat="52.452023" lon="17.079829"></trkpt><trkpt lat="52.444876" lon="17.077309"></trkpt><trkpt lat="52.44496" lon="17.077825"></trkpt><trkpt lat="52.445082" lon="17.078357"></trkpt><trkpt lat="52.445345" lon="17.078874"></trkpt><trkpt lat="52.445464" lon="17.079373"></trkpt><trkpt lat="52.445697" lon="17.07962"></trkpt><trkpt lat="52.446005" lon="17.079613"></trkpt></trkseg></trk></gpx>