<?xml version="1.0" encoding="UTF-8" standalone="no" ?><gpx xmlns="http://www.topografix.com/GPX/1/1" xmlns:gpxx="http://www.garmin.com/xmlschemas/GpxExtensions/v3" ><trk><trkseg><trkpt lat="52.1098494" lon="17.31977847"></trkpt><trkpt lat="52.10970443" lon="17.32018585"></trkpt><trkpt lat="52.10666119" lon="17.32721859"></trkpt><trkpt lat="52.10638398" lon="17.32723572"></trkpt><trkpt lat="52.10524308" lon="17.32699496"></trkpt><trkpt lat="52.10493938" lon="17.32697495"></trkpt><trkpt lat="52.10467855" lon="17.32678961"></trkpt><trkpt lat="52.10438478" lon="17.32664713"></trkpt><trkpt lat="52.10410731" lon="17.32673266"></trkpt><trkpt lat="52.10364016" lon="17.32697248"></trkpt><trkpt lat="52.1034218" lon="17.32723353"></trkpt><trkpt lat="52.10304997" lon="17.32777073"></trkpt><trkpt lat="52.10281789" lon="17.32801409"></trkpt><trkpt lat="52.10253783" lon="17.32796217"></trkpt><trkpt lat="52.1022713" lon="17.3280687"></trkpt><trkpt lat="52.10216479" lon="17.32849184"></trkpt><trkpt lat="52.10226007" lon="17.32891342"></trkpt><trkpt lat="52.10237903" lon="17.32931688"></trkpt><trkpt lat="52.10241694" lon="17.32975389"></trkpt><trkpt lat="52.10250176" lon="17.33018899"></trkpt><trkpt lat="52.10245928" lon="17.33062321"></trkpt><trkpt lat="52.10239176" lon="17.33105396"></trkpt><trkpt lat="52.1022859" lon="17.33148448"></trkpt><trkpt lat="52.10215202" lon="17.33186691"></trkpt><trkpt lat="52.10196641" lon="17.3321903"></trkpt><trkpt lat="52.10182857" lon="17.33258348"></trkpt><trkpt lat="52.10166519" lon="17.33294552"></trkpt><trkpt lat="52.10147464" lon="17.33326089"></trkpt><trkpt lat="52.10130327" lon="17.33363686"></trkpt><trkpt lat="52.10114903" lon="17.33405135"></trkpt><trkpt lat="52.10095066" lon="17.33435199"></trkpt><trkpt lat="52.10081249" lon="17.33473788"></trkpt><trkpt lat="52.10062824" lon="17.3350922"></trkpt><trkpt lat="52.10039762" lon="17.33544596"></trkpt><trkpt lat="52.10027667" lon="17.33584419"></trkpt><trkpt lat="52.10011112" lon="17.33625256"></trkpt><trkpt lat="52.09963624" lon="17.33721659"></trkpt><trkpt lat="52.09948787" lon="17.33758657"></trkpt><trkpt lat="52.09931034" lon="17.33792594"></trkpt><trkpt lat="52.09914144" lon="17.33831544"></trkpt><trkpt lat="52.09896055" lon="17.33883183"></trkpt><trkpt lat="52.09877435" lon="17.33926096"></trkpt><trkpt lat="52.09857882" lon="17.33957024"></trkpt><trkpt lat="52.0987509" lon="17.33921256"></trkpt><trkpt lat="52.09889462" lon="17.3388306"></trkpt><trkpt lat="52.09906817" lon="17.33848303"></trkpt><trkpt lat="52.09954677" lon="17.33731398"></trkpt><trkpt lat="52.09981658" lon="17.33712751"></trkpt><trkpt lat="52.10004989" lon="17.33738374"></trkpt><trkpt lat="52.09981225" lon="17.33715734"></trkpt><trkpt lat="52.09989208" lon="17.33672575"></trkpt><trkpt lat="52.10007355" lon="17.33638421"></trkpt><trkpt lat="52.10015975" lon="17.33594311"></trkpt><trkpt lat="52.10033379" lon="17.33558526"></trkpt><trkpt lat="52.10063214" lon="17.33507637"></trkpt><trkpt lat="52.10092488" lon="17.33447769"></trkpt><trkpt lat="52.10246702" lon="17.33067986"></trkpt><trkpt lat="52.10245276" lon="17.33022166"></trkpt><trkpt lat="52.10240182" lon="17.32977295"></trkpt><trkpt lat="52.10228602" lon="17.32911954"></trkpt><trkpt lat="52.10218264" lon="17.3281076"></trkpt><trkpt lat="52.10243058" lon="17.32792275"></trkpt><trkpt lat="52.10270044" lon="17.32789319"></trkpt><trkpt lat="52.10320223" lon="17.32776493"></trkpt><trkpt lat="52.10338057" lon="17.32741828"></trkpt><trkpt lat="52.10358875" lon="17.32712198"></trkpt><trkpt lat="52.10384322" lon="17.32682629"></trkpt><trkpt lat="52.10411748" lon="17.32671098"></trkpt><trkpt lat="52.10453563" lon="17.32662021"></trkpt><trkpt lat="52.10480377" lon="17.32672734"></trkpt><trkpt lat="52.10506792" lon="17.32689445"></trkpt><trkpt lat="52.10541071" lon="17.32704692"></trkpt><trkpt lat="52.10584882" lon="17.32717494"></trkpt><trkpt lat="52.10611124" lon="17.32704962"></trkpt><trkpt lat="52.10640138" lon="17.32705357"></trkpt><trkpt lat="52.10667397" lon="17.3271087"></trkpt><trkpt lat="52.10727422" lon="17.32714397"></trkpt><trkpt lat="52.1074136" lon="17.32675847"></trkpt><trkpt lat="52.10923803" lon="17.31986798"></trkpt></trkseg></trk></gpx>