<?xml version="1.0" encoding="UTF-8" standalone="no" ?><gpx xmlns="http://www.topografix.com/GPX/1/1" xmlns:gpxx="http://www.garmin.com/xmlschemas/GpxExtensions/v3" ><trk><trkseg><trkpt lat="52.109879" lon="17.31953"></trkpt><trkpt lat="52.109667" lon="17.319804"></trkpt><trkpt lat="52.109407" lon="17.320407"></trkpt><trkpt lat="52.109444" lon="17.320856"></trkpt><trkpt lat="52.109315" lon="17.321275"></trkpt><trkpt lat="52.107094" lon="17.327121"></trkpt><trkpt lat="52.106642" lon="17.327025"></trkpt><trkpt lat="52.106182" lon="17.327045"></trkpt><trkpt lat="52.105182" lon="17.326851"></trkpt><trkpt lat="52.104778" lon="17.326636"></trkpt><trkpt lat="52.104105" lon="17.326599"></trkpt><trkpt lat="52.10382" lon="17.326763"></trkpt><trkpt lat="52.10351" lon="17.327013"></trkpt><trkpt lat="52.103331" lon="17.327347"></trkpt><trkpt lat="52.102891" lon="17.327833"></trkpt><trkpt lat="52.102502" lon="17.327917"></trkpt><trkpt lat="52.102156" lon="17.328101"></trkpt><trkpt lat="52.102262" lon="17.328768"></trkpt><trkpt lat="52.102458" lon="17.330736"></trkpt><trkpt lat="52.102416" lon="17.331174"></trkpt><trkpt lat="52.102279" lon="17.331593"></trkpt><trkpt lat="52.102104" lon="17.331984"></trkpt><trkpt lat="52.101822" lon="17.332507"></trkpt><trkpt lat="52.10158" lon="17.332882"></trkpt><trkpt lat="52.101227" lon="17.333106"></trkpt><trkpt lat="52.100913" lon="17.333024"></trkpt><trkpt lat="52.100633" lon="17.333269"></trkpt><trkpt lat="52.100405" lon="17.33366"></trkpt><trkpt lat="52.100136" lon="17.333989"></trkpt><trkpt lat="52.099836" lon="17.334099"></trkpt><trkpt lat="52.099665" lon="17.334448"></trkpt><trkpt lat="52.099554" lon="17.33488"></trkpt><trkpt lat="52.099264" lon="17.335537"></trkpt><trkpt lat="52.098897" lon="17.335738"></trkpt><trkpt lat="52.098584" lon="17.335974"></trkpt><trkpt lat="52.098314" lon="17.336026"></trkpt><trkpt lat="52.097156" lon="17.33562"></trkpt><trkpt lat="52.096927" lon="17.335355"></trkpt><trkpt lat="52.096672" lon="17.33512"></trkpt><trkpt lat="52.096391" lon="17.334801"></trkpt><trkpt lat="52.096096" lon="17.334586"></trkpt><trkpt lat="52.095742" lon="17.334409"></trkpt><trkpt lat="52.09544" lon="17.334405"></trkpt><trkpt lat="52.095128" lon="17.334513"></trkpt><trkpt lat="52.094835" lon="17.334693"></trkpt><trkpt lat="52.094577" lon="17.335058"></trkpt><trkpt lat="52.094417" lon="17.33548"></trkpt><trkpt lat="52.094321" lon="17.335931"></trkpt><trkpt lat="52.09426" lon="17.336379"></trkpt><trkpt lat="52.094122" lon="17.336976"></trkpt><trkpt lat="52.093988" lon="17.337375"></trkpt><trkpt lat="52.093925" lon="17.337886"></trkpt><trkpt lat="52.093804" lon="17.338362"></trkpt><trkpt lat="52.093846" lon="17.339001"></trkpt><trkpt lat="52.09383" lon="17.339522"></trkpt><trkpt lat="52.093697" lon="17.340015"></trkpt><trkpt lat="52.093438" lon="17.34019"></trkpt><trkpt lat="52.093463" lon="17.340649"></trkpt><trkpt lat="52.093556" lon="17.341078"></trkpt><trkpt lat="52.093518" lon="17.341525"></trkpt><trkpt lat="52.093551" lon="17.341978"></trkpt><trkpt lat="52.093331" lon="17.342339"></trkpt><trkpt lat="52.093252" lon="17.342867"></trkpt><trkpt lat="52.093105" lon="17.343276"></trkpt><trkpt lat="52.093149" lon="17.343915"></trkpt><trkpt lat="52.093046" lon="17.344346"></trkpt><trkpt lat="52.09285" lon="17.344787"></trkpt><trkpt lat="52.092731" lon="17.345228"></trkpt><trkpt lat="52.092651" lon="17.345687"></trkpt><trkpt lat="52.092138" lon="17.347739"></trkpt><trkpt lat="52.091928" lon="17.348093"></trkpt><trkpt lat="52.091855" lon="17.348547"></trkpt><trkpt lat="52.091882" lon="17.349232"></trkpt><trkpt lat="52.091958" lon="17.34969"></trkpt><trkpt lat="52.092143" lon="17.350112"></trkpt><trkpt lat="52.092352" lon="17.350457"></trkpt><trkpt lat="52.093647" lon="17.352215"></trkpt><trkpt lat="52.09394" lon="17.351616"></trkpt><trkpt lat="52.094039" lon="17.351133"></trkpt><trkpt lat="52.094203" lon="17.35055"></trkpt><trkpt lat="52.096214" lon="17.344799"></trkpt><trkpt lat="52.096416" lon="17.344338"></trkpt><trkpt lat="52.101897" lon="17.332415"></trkpt><trkpt lat="52.102395" lon="17.331087"></trkpt><trkpt lat="52.102449" lon="17.330497"></trkpt><trkpt lat="52.102429" lon="17.330042"></trkpt><trkpt lat="52.102349" lon="17.329546"></trkpt><trkpt lat="52.102358" lon="17.328024"></trkpt><trkpt lat="52.102779" lon="17.327908"></trkpt><trkpt lat="52.103215" lon="17.32754"></trkpt><trkpt lat="52.103416" lon="17.327157"></trkpt><trkpt lat="52.103851" lon="17.326798"></trkpt><trkpt lat="52.10418" lon="17.326583"></trkpt><trkpt lat="52.104454" lon="17.326559"></trkpt><trkpt lat="52.10483" lon="17.326892"></trkpt><trkpt lat="52.105248" lon="17.327019"></trkpt><trkpt lat="52.106163" lon="17.327126"></trkpt><trkpt lat="52.107307" lon="17.326563"></trkpt><trkpt lat="52.107416" lon="17.326109"></trkpt><trkpt lat="52.107554" lon="17.325727"></trkpt><trkpt lat="52.108078" lon="17.326135"></trkpt><trkpt lat="52.107632" lon="17.325714"></trkpt><trkpt lat="52.108393" lon="17.326682"></trkpt><trkpt lat="52.108589" lon="17.327513"></trkpt><trkpt lat="52.108373" lon="17.327119"></trkpt><trkpt lat="52.107689" lon="17.325544"></trkpt><trkpt lat="52.107828" lon="17.325154"></trkpt><trkpt lat="52.108153" lon="17.324591"></trkpt><trkpt lat="52.1083" lon="17.324175"></trkpt><trkpt lat="52.109506" lon="17.319798"></trkpt><trkpt lat="52.109122" lon="17.320012"></trkpt></trkseg></trk></gpx>