<?xml version="1.0" encoding="UTF-8" standalone="no" ?><gpx xmlns="http://www.topografix.com/GPX/1/1" xmlns:gpxx="http://www.garmin.com/xmlschemas/GpxExtensions/v3" ><trk><trkseg><trkpt lat="53.393211" lon="19.161997"></trkpt><trkpt lat="53.39336" lon="19.162273"></trkpt><trkpt lat="53.393225" lon="19.162596"></trkpt><trkpt lat="53.393113" lon="19.162206"></trkpt><trkpt lat="53.39303" lon="19.161844"></trkpt><trkpt lat="53.392846" lon="19.161213"></trkpt><trkpt lat="53.392077" lon="19.15802"></trkpt><trkpt lat="53.391989" lon="19.157475"></trkpt><trkpt lat="53.391813" lon="19.156942"></trkpt><trkpt lat="53.391084" lon="19.155166"></trkpt><trkpt lat="53.390879" lon="19.155049"></trkpt><trkpt lat="53.390511" lon="19.154906"></trkpt><trkpt lat="53.387405" lon="19.153108"></trkpt><trkpt lat="53.387337" lon="19.152796"></trkpt><trkpt lat="53.387524" lon="19.152493"></trkpt><trkpt lat="53.387652" lon="19.152148"></trkpt><trkpt lat="53.387776" lon="19.151695"></trkpt><trkpt lat="53.387859" lon="19.151112"></trkpt><trkpt lat="53.387954" lon="19.149683"></trkpt><trkpt lat="53.387832" lon="19.148978"></trkpt><trkpt lat="53.387754" lon="19.148631"></trkpt><trkpt lat="53.387185" lon="19.145396"></trkpt><trkpt lat="53.387228" lon="19.144994"></trkpt><trkpt lat="53.387287" lon="19.144618"></trkpt><trkpt lat="53.387279" lon="19.144191"></trkpt><trkpt lat="53.387191" lon="19.143612"></trkpt><trkpt lat="53.38704" lon="19.142157"></trkpt><trkpt lat="53.386991" lon="19.140922"></trkpt><trkpt lat="53.386796" lon="19.140566"></trkpt><trkpt lat="53.386567" lon="19.140386"></trkpt><trkpt lat="53.385404" lon="19.13965"></trkpt><trkpt lat="53.38519" lon="19.139649"></trkpt><trkpt lat="53.384983" lon="19.139883"></trkpt><trkpt lat="53.384772" lon="19.139918"></trkpt><trkpt lat="53.384576" lon="19.139828"></trkpt><trkpt lat="53.384247" lon="19.139746"></trkpt><trkpt lat="53.382586" lon="19.139561"></trkpt><trkpt lat="53.382334" lon="19.13973"></trkpt><trkpt lat="53.38191" lon="19.140082"></trkpt><trkpt lat="53.380794" lon="19.140744"></trkpt><trkpt lat="53.380552" lon="19.140633"></trkpt><trkpt lat="53.380361" lon="19.14049"></trkpt><trkpt lat="53.373253" lon="19.13626"></trkpt><trkpt lat="53.373051" lon="19.136426"></trkpt><trkpt lat="53.372808" lon="19.137099"></trkpt><trkpt lat="53.37268" lon="19.13755"></trkpt><trkpt lat="53.372438" lon="19.13817"></trkpt><trkpt lat="53.372154" lon="19.138477"></trkpt><trkpt lat="53.371834" lon="19.138699"></trkpt><trkpt lat="53.37121" lon="19.138969"></trkpt><trkpt lat="53.370891" lon="19.139003"></trkpt><trkpt lat="53.370566" lon="19.139211"></trkpt><trkpt lat="53.37024" lon="19.139535"></trkpt><trkpt lat="53.369984" lon="19.139747"></trkpt><trkpt lat="53.36962" lon="19.139828"></trkpt><trkpt lat="53.368534" lon="19.139454"></trkpt><trkpt lat="53.368078" lon="19.139364"></trkpt><trkpt lat="53.367863" lon="19.139463"></trkpt><trkpt lat="53.367489" lon="19.139698"></trkpt><trkpt lat="53.367076" lon="19.139822"></trkpt><trkpt lat="53.366108" lon="19.139995"></trkpt><trkpt lat="53.364849" lon="19.140384"></trkpt><trkpt lat="53.364382" lon="19.140629"></trkpt><trkpt lat="53.364017" lon="19.140997"></trkpt><trkpt lat="53.363732" lon="19.141158"></trkpt><trkpt lat="53.363454" lon="19.141167"></trkpt><trkpt lat="53.363175" lon="19.141107"></trkpt><trkpt lat="53.360853" lon="19.141026"></trkpt><trkpt lat="53.360686" lon="19.141296"></trkpt><trkpt lat="53.36051" lon="19.141655"></trkpt><trkpt lat="53.359288" lon="19.143456"></trkpt><trkpt lat="53.358916" lon="19.143266"></trkpt><trkpt lat="53.358671" lon="19.143228"></trkpt><trkpt lat="53.358224" lon="19.143651"></trkpt><trkpt lat="53.357927" lon="19.144055"></trkpt><trkpt lat="53.355924" lon="19.146205"></trkpt><trkpt lat="53.355503" lon="19.146082"></trkpt><trkpt lat="53.35371" lon="19.145324"></trkpt><trkpt lat="53.353488" lon="19.144847"></trkpt><trkpt lat="53.353025" lon="19.143984"></trkpt><trkpt lat="53.352699" lon="19.143778"></trkpt><trkpt lat="53.352373" lon="19.14365"></trkpt><trkpt lat="53.351305" lon="19.14337"></trkpt><trkpt lat="53.350744" lon="19.143444"></trkpt><trkpt lat="53.350461" lon="19.143337"></trkpt><trkpt lat="53.347421" lon="19.142571"></trkpt><trkpt lat="53.34704" lon="19.142758"></trkpt><trkpt lat="53.34678" lon="19.142739"></trkpt><trkpt lat="53.34608" lon="19.142385"></trkpt><trkpt lat="53.344059" lon="19.141727"></trkpt><trkpt lat="53.343736" lon="19.141874"></trkpt><trkpt lat="53.343523" lon="19.142148"></trkpt><trkpt lat="53.343347" lon="19.14265"></trkpt><trkpt lat="53.343303" lon="19.143171"></trkpt><trkpt lat="53.343186" lon="19.146379"></trkpt><trkpt lat="53.34327" lon="19.146854"></trkpt><trkpt lat="53.343293" lon="19.147343"></trkpt><trkpt lat="53.343229" lon="19.148167"></trkpt><trkpt lat="53.343218" lon="19.152433"></trkpt><trkpt lat="53.343422" lon="19.153404"></trkpt><trkpt lat="53.343643" lon="19.155055"></trkpt><trkpt lat="53.343575" lon="19.155549"></trkpt><trkpt lat="53.342781" lon="19.159724"></trkpt><trkpt lat="53.34262" lon="19.160883"></trkpt><trkpt lat="53.342588" lon="19.161495"></trkpt><trkpt lat="53.341932" lon="19.168264"></trkpt><trkpt lat="53.341824" lon="19.16897"></trkpt><trkpt lat="53.341478" lon="19.170485"></trkpt><trkpt lat="53.341338" lon="19.170918"></trkpt><trkpt lat="53.340185" lon="19.17529"></trkpt><trkpt lat="53.340183" lon="19.175766"></trkpt><trkpt lat="53.340011" lon="19.178526"></trkpt><trkpt lat="53.339906" lon="19.179002"></trkpt><trkpt lat="53.339423" lon="19.181918"></trkpt><trkpt lat="53.339419" lon="19.182508"></trkpt><trkpt lat="53.339582" lon="19.187061"></trkpt><trkpt lat="53.33952" lon="19.189997"></trkpt><trkpt lat="53.339454" lon="19.190381"></trkpt><trkpt lat="53.339419" lon="19.19079"></trkpt><trkpt lat="53.339452" lon="19.191361"></trkpt><trkpt lat="53.339689" lon="19.191998"></trkpt><trkpt lat="53.339998" lon="19.192386"></trkpt><trkpt lat="53.340359" lon="19.192935"></trkpt><trkpt lat="53.340561" lon="19.19362"></trkpt><trkpt lat="53.34061" lon="19.194038"></trkpt><trkpt lat="53.340895" lon="19.195134"></trkpt><trkpt lat="53.341126" lon="19.195445"></trkpt><trkpt lat="53.341768" lon="19.196169"></trkpt><trkpt lat="53.341824" lon="19.196523"></trkpt><trkpt lat="53.341727" lon="19.196919"></trkpt><trkpt lat="53.341786" lon="19.197307"></trkpt><trkpt lat="53.341872" lon="19.197621"></trkpt><trkpt lat="53.342112" lon="19.199096"></trkpt><trkpt lat="53.341864" lon="19.199324"></trkpt><trkpt lat="53.341242" lon="19.199746"></trkpt><trkpt lat="53.340891" lon="19.199688"></trkpt><trkpt lat="53.333986" lon="19.197594"></trkpt><trkpt lat="53.333757" lon="19.197199"></trkpt><trkpt lat="53.327095" lon="19.187457"></trkpt><trkpt lat="53.326803" lon="19.187443"></trkpt><trkpt lat="53.323276" lon="19.186806"></trkpt><trkpt lat="53.322787" lon="19.186495"></trkpt><trkpt lat="53.319646" lon="19.185135"></trkpt><trkpt lat="53.318974" lon="19.185309"></trkpt><trkpt lat="53.318667" lon="19.185192"></trkpt><trkpt lat="53.318285" lon="19.184828"></trkpt><trkpt lat="53.316573" lon="19.183473"></trkpt><trkpt lat="53.316328" lon="19.183347"></trkpt><trkpt lat="53.316" lon="19.183349"></trkpt><trkpt lat="53.315724" lon="19.183597"></trkpt><trkpt lat="53.315318" lon="19.18416"></trkpt><trkpt lat="53.313401" lon="19.186286"></trkpt><trkpt lat="53.312917" lon="19.186603"></trkpt><trkpt lat="53.31089" lon="19.187609"></trkpt><trkpt lat="53.308773" lon="19.186851"></trkpt><trkpt lat="53.306916" lon="19.186411"></trkpt><trkpt lat="53.306416" lon="19.186393"></trkpt><trkpt lat="53.304374" lon="19.186762"></trkpt><trkpt lat="53.30411" lon="19.186878"></trkpt><trkpt lat="53.303584" lon="19.187236"></trkpt><trkpt lat="53.303374" lon="19.187611"></trkpt><trkpt lat="53.303179" lon="19.188017"></trkpt><trkpt lat="53.30293" lon="19.188405"></trkpt><trkpt lat="53.302653" lon="19.188484"></trkpt><trkpt lat="53.302122" lon="19.188427"></trkpt><trkpt lat="53.290681" lon="19.188104"></trkpt><trkpt lat="53.288075" lon="19.187694"></trkpt><trkpt lat="53.287628" lon="19.187529"></trkpt><trkpt lat="53.287148" lon="19.187286"></trkpt><trkpt lat="53.286538" lon="19.186804"></trkpt><trkpt lat="53.286218" lon="19.18644"></trkpt><trkpt lat="53.28591" lon="19.186009"></trkpt><trkpt lat="53.285502" lon="19.185539"></trkpt><trkpt lat="53.285658" lon="19.185281"></trkpt><trkpt lat="53.285777" lon="19.184884"></trkpt><trkpt lat="53.286143" lon="19.183865"></trkpt><trkpt lat="53.286384" lon="19.183317"></trkpt><trkpt lat="53.28779" lon="19.17928"></trkpt><trkpt lat="53.287897" lon="19.178616"></trkpt><trkpt lat="53.28803" lon="19.17808"></trkpt><trkpt lat="53.288244" lon="19.177536"></trkpt><trkpt lat="53.289426" lon="19.175034"></trkpt><trkpt lat="53.289624" lon="19.174792"></trkpt><trkpt lat="53.290222" lon="19.174188"></trkpt><trkpt lat="53.299977" lon="19.163774"></trkpt><trkpt lat="53.305736" lon="19.156541"></trkpt><trkpt lat="53.305912" lon="19.155847"></trkpt><trkpt lat="53.307343" lon="19.151386"></trkpt><trkpt lat="53.307582" lon="19.151393"></trkpt><trkpt lat="53.307573" lon="19.150864"></trkpt><trkpt lat="53.307517" lon="19.150489"></trkpt><trkpt lat="53.306659" lon="19.146113"></trkpt><trkpt lat="53.306428" lon="19.145446"></trkpt><trkpt lat="53.30607" lon="19.144575"></trkpt><trkpt lat="53.299653" lon="19.131135"></trkpt><trkpt lat="53.299429" lon="19.130991"></trkpt><trkpt lat="53.288713" lon="19.123599"></trkpt><trkpt lat="53.288333" lon="19.123232"></trkpt><trkpt lat="53.288025" lon="19.122744"></trkpt><trkpt lat="53.287834" lon="19.122287"></trkpt><trkpt lat="53.287716" lon="19.121754"></trkpt><trkpt lat="53.287677" lon="19.121338"></trkpt><trkpt lat="53.287696" lon="19.120659"></trkpt><trkpt lat="53.287805" lon="19.120084"></trkpt><trkpt lat="53.287914" lon="19.11966"></trkpt><trkpt lat="53.288782" lon="19.115494"></trkpt><trkpt lat="53.288829" lon="19.11505"></trkpt><trkpt lat="53.289012" lon="19.113866"></trkpt><trkpt lat="53.289109" lon="19.113558"></trkpt><trkpt lat="53.289467" lon="19.112081"></trkpt><trkpt lat="53.289593" lon="19.111756"></trkpt><trkpt lat="53.289728" lon="19.111215"></trkpt><trkpt lat="53.290375" lon="19.107914"></trkpt><trkpt lat="53.290443" lon="19.107362"></trkpt><trkpt lat="53.290696" lon="19.106141"></trkpt><trkpt lat="53.290991" lon="19.105576"></trkpt><trkpt lat="53.291704" lon="19.103956"></trkpt><trkpt lat="53.292023" lon="19.103"></trkpt><trkpt lat="53.292109" lon="19.102265"></trkpt><trkpt lat="53.292099" lon="19.101685"></trkpt><trkpt lat="53.29203" lon="19.101067"></trkpt><trkpt lat="53.291782" lon="19.096224"></trkpt><trkpt lat="53.29218" lon="19.095904"></trkpt><trkpt lat="53.302806" lon="19.087219"></trkpt><trkpt lat="53.307811" lon="19.083843"></trkpt><trkpt lat="53.308029" lon="19.083791"></trkpt><trkpt lat="53.308561" lon="19.083554"></trkpt><trkpt lat="53.308811" lon="19.083316"></trkpt><trkpt lat="53.311569" lon="19.081133"></trkpt><trkpt lat="53.311799" lon="19.081034"></trkpt><trkpt lat="53.31615" lon="19.078598"></trkpt><trkpt lat="53.316575" lon="19.078301"></trkpt><trkpt lat="53.32732" lon="19.070557"></trkpt><trkpt lat="53.328405" lon="19.069609"></trkpt><trkpt lat="53.328643" lon="19.069551"></trkpt><trkpt lat="53.32887" lon="19.069186"></trkpt><trkpt lat="53.329063" lon="19.068819"></trkpt><trkpt lat="53.329685" lon="19.067796"></trkpt><trkpt lat="53.329989" lon="19.067735"></trkpt></trkseg></trk></gpx>