<?xml version="1.0" encoding="UTF-8" standalone="no" ?><gpx xmlns="http://www.topografix.com/GPX/1/1" xmlns:gpxx="http://www.garmin.com/xmlschemas/GpxExtensions/v3" ><trk><trkseg><trkpt lat="52.67452" lon="17.16219"></trkpt><trkpt lat="52.674423" lon="17.161821"></trkpt><trkpt lat="52.674265" lon="17.1615"></trkpt><trkpt lat="52.673973" lon="17.161371"></trkpt><trkpt lat="52.672182" lon="17.16081"></trkpt><trkpt lat="52.671961" lon="17.161161"></trkpt><trkpt lat="52.669639" lon="17.16427"></trkpt><trkpt lat="52.669241" lon="17.164629"></trkpt><trkpt lat="52.668866" lon="17.165094"></trkpt><trkpt lat="52.668621" lon="17.165522"></trkpt><trkpt lat="52.668388" lon="17.166045"></trkpt><trkpt lat="52.668229" lon="17.166513"></trkpt><trkpt lat="52.668087" lon="17.167168"></trkpt><trkpt lat="52.667958" lon="17.168177"></trkpt><trkpt lat="52.665531" lon="17.181815"></trkpt><trkpt lat="52.665277" lon="17.182107"></trkpt><trkpt lat="52.658221" lon="17.191492"></trkpt><trkpt lat="52.657913" lon="17.191982"></trkpt><trkpt lat="52.65281" lon="17.20142"></trkpt><trkpt lat="52.652727" lon="17.201791"></trkpt><trkpt lat="52.650006" lon="17.217915"></trkpt><trkpt lat="52.650104" lon="17.218664"></trkpt><trkpt lat="52.651237" lon="17.231779"></trkpt><trkpt lat="52.651197" lon="17.232316"></trkpt><trkpt lat="52.650375" lon="17.238236"></trkpt><trkpt lat="52.650183" lon="17.238597"></trkpt><trkpt lat="52.64987" lon="17.239402"></trkpt><trkpt lat="52.649701" lon="17.240257"></trkpt><trkpt lat="52.649644" lon="17.240681"></trkpt><trkpt lat="52.649235" lon="17.245418"></trkpt><trkpt lat="52.649253" lon="17.246522"></trkpt><trkpt lat="52.649115" lon="17.251538"></trkpt><trkpt lat="52.648946" lon="17.253532"></trkpt><trkpt lat="52.648758" lon="17.254136"></trkpt><trkpt lat="52.648584" lon="17.254528"></trkpt><trkpt lat="52.648354" lon="17.254906"></trkpt><trkpt lat="52.648202" lon="17.255123"></trkpt><trkpt lat="52.648042" lon="17.255431"></trkpt><trkpt lat="52.647802" lon="17.255996"></trkpt><trkpt lat="52.647711" lon="17.25631"></trkpt><trkpt lat="52.647667" lon="17.256643"></trkpt><trkpt lat="52.647591" lon="17.257006"></trkpt><trkpt lat="52.647521" lon="17.257512"></trkpt><trkpt lat="52.647471" lon="17.25809"></trkpt><trkpt lat="52.647258" lon="17.259562"></trkpt><trkpt lat="52.647174" lon="17.25987"></trkpt><trkpt lat="52.645742" lon="17.266368"></trkpt><trkpt lat="52.645944" lon="17.266435"></trkpt><trkpt lat="52.658819" lon="17.269119"></trkpt><trkpt lat="52.659197" lon="17.269102"></trkpt><trkpt lat="52.661629" lon="17.269519"></trkpt><trkpt lat="52.661599" lon="17.270209"></trkpt><trkpt lat="52.659355" lon="17.301944"></trkpt><trkpt lat="52.659172" lon="17.302602"></trkpt><trkpt lat="52.658457" lon="17.304676"></trkpt><trkpt lat="52.658468" lon="17.305193"></trkpt><trkpt lat="52.658404" lon="17.305694"></trkpt><trkpt lat="52.654348" lon="17.33684"></trkpt><trkpt lat="52.653466" lon="17.347664"></trkpt><trkpt lat="52.653171" lon="17.348094"></trkpt><trkpt lat="52.65291" lon="17.348134"></trkpt><trkpt lat="52.652643" lon="17.348144"></trkpt><trkpt lat="52.652436" lon="17.348531"></trkpt><trkpt lat="52.652349" lon="17.348924"></trkpt><trkpt lat="52.651861" lon="17.351726"></trkpt><trkpt lat="52.651663" lon="17.352587"></trkpt><trkpt lat="52.651564" lon="17.353138"></trkpt><trkpt lat="52.646407" lon="17.383858"></trkpt><trkpt lat="52.646285" lon="17.38432"></trkpt><trkpt lat="52.644173" lon="17.39414"></trkpt><trkpt lat="52.641704" lon="17.40348"></trkpt><trkpt lat="52.641438" lon="17.404246"></trkpt><trkpt lat="52.637813" lon="17.417128"></trkpt><trkpt lat="52.637894" lon="17.417448"></trkpt><trkpt lat="52.639522" lon="17.426084"></trkpt><trkpt lat="52.639295" lon="17.426367"></trkpt><trkpt lat="52.638061" lon="17.427666"></trkpt><trkpt lat="52.637803" lon="17.427809"></trkpt><trkpt lat="52.635479" lon="17.428674"></trkpt><trkpt lat="52.634971" lon="17.428409"></trkpt><trkpt lat="52.634804" lon="17.428031"></trkpt><trkpt lat="52.634591" lon="17.427864"></trkpt><trkpt lat="52.634423" lon="17.42769"></trkpt><trkpt lat="52.634598" lon="17.427845"></trkpt><trkpt lat="52.634784" lon="17.428139"></trkpt><trkpt lat="52.634919" lon="17.428541"></trkpt><trkpt lat="52.634807" lon="17.428888"></trkpt><trkpt lat="52.634751" lon="17.429539"></trkpt><trkpt lat="52.634383" lon="17.432292"></trkpt><trkpt lat="52.634284" lon="17.432707"></trkpt><trkpt lat="52.633663" lon="17.43483"></trkpt><trkpt lat="52.632643" lon="17.437241"></trkpt><trkpt lat="52.632468" lon="17.437036"></trkpt><trkpt lat="52.631991" lon="17.436566"></trkpt><trkpt lat="52.631792" lon="17.437237"></trkpt><trkpt lat="52.629825" lon="17.442661"></trkpt><trkpt lat="52.629583" lon="17.443167"></trkpt><trkpt lat="52.628307" lon="17.446273"></trkpt><trkpt lat="52.628076" lon="17.447204"></trkpt><trkpt lat="52.627227" lon="17.451496"></trkpt><trkpt lat="52.627185" lon="17.452197"></trkpt><trkpt lat="52.626462" lon="17.458525"></trkpt><trkpt lat="52.626309" lon="17.459"></trkpt><trkpt lat="52.621495" lon="17.471292"></trkpt><trkpt lat="52.621133" lon="17.471858"></trkpt><trkpt lat="52.620281" lon="17.473446"></trkpt><trkpt lat="52.620129" lon="17.473782"></trkpt><trkpt lat="52.615622" lon="17.482309"></trkpt><trkpt lat="52.615011" lon="17.482928"></trkpt><trkpt lat="52.61474" lon="17.483279"></trkpt><trkpt lat="52.614648" lon="17.483718"></trkpt><trkpt lat="52.608323" lon="17.514231"></trkpt><trkpt lat="52.605913" lon="17.529231"></trkpt><trkpt lat="52.604274" lon="17.543654"></trkpt><trkpt lat="52.604355" lon="17.544122"></trkpt><trkpt lat="52.604492" lon="17.544484"></trkpt><trkpt lat="52.605094" lon="17.54646"></trkpt><trkpt lat="52.605078" lon="17.546809"></trkpt><trkpt lat="52.605104" lon="17.547829"></trkpt><trkpt lat="52.605301" lon="17.547886"></trkpt><trkpt lat="52.605673" lon="17.547925"></trkpt><trkpt lat="52.621278" lon="17.551598"></trkpt><trkpt lat="52.621123" lon="17.55195"></trkpt><trkpt lat="52.620914" lon="17.552608"></trkpt><trkpt lat="52.62092" lon="17.553039"></trkpt><trkpt lat="52.620744" lon="17.553191"></trkpt><trkpt lat="52.620556" lon="17.55332"></trkpt><trkpt lat="52.619896" lon="17.553674"></trkpt><trkpt lat="52.619695" lon="17.553697"></trkpt><trkpt lat="52.618258" lon="17.55403"></trkpt><trkpt lat="52.617807" lon="17.554653"></trkpt><trkpt lat="52.614609" lon="17.559757"></trkpt><trkpt lat="52.614474" lon="17.560429"></trkpt><trkpt lat="52.609094" lon="17.581384"></trkpt><trkpt lat="52.608616" lon="17.58148"></trkpt><trkpt lat="52.601559" lon="17.583908"></trkpt><trkpt lat="52.60175" lon="17.58453"></trkpt><trkpt lat="52.604986" lon="17.593439"></trkpt><trkpt lat="52.605378" lon="17.593968"></trkpt><trkpt lat="52.605993" lon="17.595003"></trkpt><trkpt lat="52.606036" lon="17.595404"></trkpt><trkpt lat="52.605976" lon="17.595823"></trkpt><trkpt lat="52.605734" lon="17.596726"></trkpt><trkpt lat="52.604571" lon="17.60009"></trkpt><trkpt lat="52.604462" lon="17.601021"></trkpt><trkpt lat="52.604596" lon="17.601637"></trkpt><trkpt lat="52.604693" lon="17.603"></trkpt><trkpt lat="52.604606" lon="17.603878"></trkpt><trkpt lat="52.60391" lon="17.607822"></trkpt><trkpt lat="52.603707" lon="17.608465"></trkpt><trkpt lat="52.603366" lon="17.60978"></trkpt><trkpt lat="52.600789" lon="17.617829"></trkpt><trkpt lat="52.600221" lon="17.618022"></trkpt><trkpt lat="52.594808" lon="17.620576"></trkpt><trkpt lat="52.594571" lon="17.620877"></trkpt><trkpt lat="52.593471" lon="17.621875"></trkpt><trkpt lat="52.59312" lon="17.621873"></trkpt><trkpt lat="52.592746" lon="17.621698"></trkpt><trkpt lat="52.592456" lon="17.621375"></trkpt><trkpt lat="52.592239" lon="17.620959"></trkpt><trkpt lat="52.592097" lon="17.620491"></trkpt><trkpt lat="52.591943" lon="17.61986"></trkpt><trkpt lat="52.591233" lon="17.617865"></trkpt><trkpt lat="52.590938" lon="17.617631"></trkpt><trkpt lat="52.590375" lon="17.617332"></trkpt><trkpt lat="52.589316" lon="17.616986"></trkpt><trkpt lat="52.589308" lon="17.617733"></trkpt><trkpt lat="52.589443" lon="17.62145"></trkpt><trkpt lat="52.589505" lon="17.621893"></trkpt><trkpt lat="52.589312" lon="17.622162"></trkpt><trkpt lat="52.589105" lon="17.622397"></trkpt><trkpt lat="52.588715" lon="17.622729"></trkpt><trkpt lat="52.588509" lon="17.622777"></trkpt><trkpt lat="52.588235" lon="17.622878"></trkpt><trkpt lat="52.588242" lon="17.623428"></trkpt><trkpt lat="52.588312" lon="17.62396"></trkpt><trkpt lat="52.588169" lon="17.624344"></trkpt><trkpt lat="52.58795" lon="17.62443"></trkpt><trkpt lat="52.577254" lon="17.630137"></trkpt><trkpt lat="52.577414" lon="17.630643"></trkpt><trkpt lat="52.584186" lon="17.656461"></trkpt><trkpt lat="52.583912" lon="17.656803"></trkpt><trkpt lat="52.583197" lon="17.657548"></trkpt><trkpt lat="52.581256" lon="17.660123"></trkpt><trkpt lat="52.581514" lon="17.6603"></trkpt><trkpt lat="52.582373" lon="17.661059"></trkpt><trkpt lat="52.582545" lon="17.661473"></trkpt><trkpt lat="52.582718" lon="17.662055"></trkpt><trkpt lat="52.582974" lon="17.663596"></trkpt><trkpt lat="52.582822" lon="17.664005"></trkpt><trkpt lat="52.582574" lon="17.664362"></trkpt><trkpt lat="52.582009" lon="17.665035"></trkpt><trkpt lat="52.581668" lon="17.665337"></trkpt><trkpt lat="52.581284" lon="17.665601"></trkpt><trkpt lat="52.58076" lon="17.665889"></trkpt><trkpt lat="52.579456" lon="17.666777"></trkpt><trkpt lat="52.579099" lon="17.667109"></trkpt><trkpt lat="52.576771" lon="17.668793"></trkpt><trkpt lat="52.576494" lon="17.668662"></trkpt><trkpt lat="52.576217" lon="17.668619"></trkpt><trkpt lat="52.575455" lon="17.668843"></trkpt><trkpt lat="52.575288" lon="17.669117"></trkpt><trkpt lat="52.57518" lon="17.669562"></trkpt><trkpt lat="52.575164" lon="17.669952"></trkpt><trkpt lat="52.575187" lon="17.670364"></trkpt><trkpt lat="52.57524" lon="17.670895"></trkpt><trkpt lat="52.575539" lon="17.676306"></trkpt><trkpt lat="52.575562" lon="17.678465"></trkpt><trkpt lat="52.575262" lon="17.678656"></trkpt><trkpt lat="52.574977" lon="17.678978"></trkpt><trkpt lat="52.565684" lon="17.691162"></trkpt><trkpt lat="52.565455" lon="17.692215"></trkpt><trkpt lat="52.565443" lon="17.692829"></trkpt><trkpt lat="52.565035" lon="17.696162"></trkpt><trkpt lat="52.564666" lon="17.696728"></trkpt><trkpt lat="52.562653" lon="17.699272"></trkpt><trkpt lat="52.562415" lon="17.699168"></trkpt><trkpt lat="52.555031" lon="17.69697"></trkpt><trkpt lat="52.554826" lon="17.697091"></trkpt><trkpt lat="52.553006" lon="17.698425"></trkpt><trkpt lat="52.552819" lon="17.698758"></trkpt><trkpt lat="52.552572" lon="17.698891"></trkpt><trkpt lat="52.552365" lon="17.698975"></trkpt><trkpt lat="52.551862" lon="17.699561"></trkpt><trkpt lat="52.551614" lon="17.700041"></trkpt><trkpt lat="52.55135" lon="17.700686"></trkpt><trkpt lat="52.551162" lon="17.70128"></trkpt><trkpt lat="52.550993" lon="17.702081"></trkpt><trkpt lat="52.550926" lon="17.702778"></trkpt><trkpt lat="52.550794" lon="17.703655"></trkpt><trkpt lat="52.548461" lon="17.715085"></trkpt><trkpt lat="52.548122" lon="17.715581"></trkpt><trkpt lat="52.547673" lon="17.716149"></trkpt><trkpt lat="52.547036" lon="17.7168"></trkpt><trkpt lat="52.546712" lon="17.716983"></trkpt><trkpt lat="52.546454" lon="17.717171"></trkpt><trkpt lat="52.546104" lon="17.717478"></trkpt><trkpt lat="52.545252" lon="17.718101"></trkpt><trkpt lat="52.544514" lon="17.718539"></trkpt><trkpt lat="52.5439" lon="17.719005"></trkpt><trkpt lat="52.543515" lon="17.719139"></trkpt><trkpt lat="52.543249" lon="17.719091"></trkpt><trkpt lat="52.54272" lon="17.718931"></trkpt><trkpt lat="52.542502" lon="17.71883"></trkpt><trkpt lat="52.542193" lon="17.718741"></trkpt><trkpt lat="52.541935" lon="17.718745"></trkpt><trkpt lat="52.541646" lon="17.718822"></trkpt><trkpt lat="52.540334" lon="17.719006"></trkpt><trkpt lat="52.540019" lon="17.718885"></trkpt><trkpt lat="52.539412" lon="17.719237"></trkpt><trkpt lat="52.539027" lon="17.719527"></trkpt><trkpt lat="52.539071" lon="17.71997"></trkpt><trkpt lat="52.539165" lon="17.720275"></trkpt></trkseg></trk></gpx>