<?xml version="1.0" encoding="UTF-8" standalone="no" ?><gpx xmlns="http://www.topografix.com/GPX/1/1" xmlns:gpxx="http://www.garmin.com/xmlschemas/GpxExtensions/v3" ><trk><trkseg><trkpt lat="52.5774" lon="17.070576"></trkpt><trkpt lat="52.577478" lon="17.071039"></trkpt><trkpt lat="52.577495" lon="17.0715"></trkpt><trkpt lat="52.577477" lon="17.071954"></trkpt><trkpt lat="52.577511" lon="17.072405"></trkpt><trkpt lat="52.577481" lon="17.072848"></trkpt><trkpt lat="52.577383" lon="17.073625"></trkpt><trkpt lat="52.577283" lon="17.07405"></trkpt><trkpt lat="52.577543" lon="17.074219"></trkpt><trkpt lat="52.577789" lon="17.073963"></trkpt><trkpt lat="52.577974" lon="17.074315"></trkpt><trkpt lat="52.578252" lon="17.074173"></trkpt><trkpt lat="52.578474" lon="17.073878"></trkpt><trkpt lat="52.57875" lon="17.073927"></trkpt><trkpt lat="52.578998" lon="17.073729"></trkpt><trkpt lat="52.579264" lon="17.073645"></trkpt><trkpt lat="52.579742" lon="17.073873"></trkpt><trkpt lat="52.579981" lon="17.074082"></trkpt><trkpt lat="52.580254" lon="17.074099"></trkpt><trkpt lat="52.579987" lon="17.073939"></trkpt><trkpt lat="52.57972" lon="17.073831"></trkpt><trkpt lat="52.57924" lon="17.073709"></trkpt><trkpt lat="52.578944" lon="17.073875"></trkpt><trkpt lat="52.57776" lon="17.074323"></trkpt><trkpt lat="52.577478" lon="17.074337"></trkpt><trkpt lat="52.577203" lon="17.074412"></trkpt><trkpt lat="52.577074" lon="17.074807"></trkpt><trkpt lat="52.576802" lon="17.075408"></trkpt><trkpt lat="52.576743" lon="17.075863"></trkpt><trkpt lat="52.576627" lon="17.076278"></trkpt><trkpt lat="52.575885" lon="17.078408"></trkpt><trkpt lat="52.576119" lon="17.078182"></trkpt><trkpt lat="52.576218" lon="17.077761"></trkpt><trkpt lat="52.576351" lon="17.077318"></trkpt><trkpt lat="52.576428" lon="17.076873"></trkpt><trkpt lat="52.576561" lon="17.076309"></trkpt><trkpt lat="52.576687" lon="17.075912"></trkpt><trkpt lat="52.576855" lon="17.075559"></trkpt><trkpt lat="52.577139" lon="17.074813"></trkpt><trkpt lat="52.577334" lon="17.074474"></trkpt><trkpt lat="52.577395" lon="17.07402"></trkpt><trkpt lat="52.577417" lon="17.073575"></trkpt><trkpt lat="52.577477" lon="17.073131"></trkpt><trkpt lat="52.577449" lon="17.072689"></trkpt><trkpt lat="52.577445" lon="17.071385"></trkpt><trkpt lat="52.577412" lon="17.070651"></trkpt></trkseg></trk></gpx>