<?xml version="1.0" encoding="UTF-8" standalone="no" ?><gpx xmlns="http://www.topografix.com/GPX/1/1" xmlns:gpxx="http://www.garmin.com/xmlschemas/GpxExtensions/v3" ><trk><trkseg><trkpt lat="52.81576302" lon="17.20314929"></trkpt><trkpt lat="52.81601854" lon="17.20299033"></trkpt><trkpt lat="52.81629301" lon="17.2031052"></trkpt><trkpt lat="52.81664541" lon="17.20331258"></trkpt><trkpt lat="52.81656551" lon="17.20376611"></trkpt><trkpt lat="52.81647179" lon="17.20458282"></trkpt><trkpt lat="52.81633278" lon="17.20497985"></trkpt><trkpt lat="52.81605301" lon="17.20504635"></trkpt><trkpt lat="52.81581981" lon="17.20532388"></trkpt><trkpt lat="52.81554967" lon="17.20536902"></trkpt><trkpt lat="52.81531319" lon="17.20558548"></trkpt><trkpt lat="52.8150228" lon="17.2056692"></trkpt><trkpt lat="52.81478764" lon="17.20592815"></trkpt><trkpt lat="52.81453885" lon="17.20611688"></trkpt><trkpt lat="52.81426614" lon="17.20637888"></trkpt><trkpt lat="52.81417093" lon="17.20680681"></trkpt><trkpt lat="52.81434828" lon="17.20716622"></trkpt><trkpt lat="52.81446807" lon="17.20757401"></trkpt><trkpt lat="52.8142781" lon="17.20789617"></trkpt><trkpt lat="52.81412693" lon="17.20827065"></trkpt><trkpt lat="52.81384742" lon="17.20884447"></trkpt><trkpt lat="52.81365201" lon="17.20915664"></trkpt><trkpt lat="52.81365672" lon="17.20961927"></trkpt><trkpt lat="52.81386162" lon="17.20991297"></trkpt><trkpt lat="52.81400421" lon="17.21030771"></trkpt><trkpt lat="52.81383082" lon="17.20996103"></trkpt><trkpt lat="52.81362061" lon="17.20967851"></trkpt><trkpt lat="52.8135229" lon="17.20923946"></trkpt><trkpt lat="52.81327035" lon="17.20904035"></trkpt><trkpt lat="52.81310663" lon="17.20866333"></trkpt><trkpt lat="52.81280166" lon="17.20809273"></trkpt><trkpt lat="52.81253595" lon="17.20799144"></trkpt><trkpt lat="52.81226588" lon="17.20802921"></trkpt><trkpt lat="52.81200622" lon="17.20819649"></trkpt><trkpt lat="52.8118167" lon="17.20852701"></trkpt><trkpt lat="52.81160194" lon="17.20882587"></trkpt><trkpt lat="52.81130032" lon="17.20933779"></trkpt><trkpt lat="52.81109307" lon="17.20976436"></trkpt><trkpt lat="52.81080164" lon="17.20974581"></trkpt><trkpt lat="52.81056734" lon="17.2095002"></trkpt><trkpt lat="52.81038889" lon="17.20915703"></trkpt><trkpt lat="52.81022923" lon="17.20878549"></trkpt><trkpt lat="52.81004689" lon="17.20932222"></trkpt><trkpt lat="52.81002983" lon="17.2097782"></trkpt><trkpt lat="52.80998855" lon="17.21022242"></trkpt><trkpt lat="52.80998914" lon="17.21067112"></trkpt><trkpt lat="52.80976" lon="17.21092813"></trkpt><trkpt lat="52.80948861" lon="17.21098901"></trkpt><trkpt lat="52.8091859" lon="17.21097248"></trkpt><trkpt lat="52.80896494" lon="17.21125627"></trkpt><trkpt lat="52.80869308" lon="17.2113548"></trkpt><trkpt lat="52.80834631" lon="17.21129523"></trkpt><trkpt lat="52.80808069" lon="17.2114446"></trkpt><trkpt lat="52.80800771" lon="17.21187606"></trkpt><trkpt lat="52.80799896" lon="17.21233419"></trkpt><trkpt lat="52.80801676" lon="17.21281618"></trkpt><trkpt lat="52.80797238" lon="17.2132616"></trkpt><trkpt lat="52.80797791" lon="17.21371531"></trkpt><trkpt lat="52.80794821" lon="17.21417912"></trkpt><trkpt lat="52.80794242" lon="17.21474421"></trkpt><trkpt lat="52.80798108" lon="17.2154684"></trkpt><trkpt lat="52.80803431" lon="17.21593687"></trkpt><trkpt lat="52.80799889" lon="17.21638007"></trkpt><trkpt lat="52.80782082" lon="17.21671619"></trkpt><trkpt lat="52.8076198" lon="17.21717228"></trkpt><trkpt lat="52.80756543" lon="17.2176291"></trkpt><trkpt lat="52.80748482" lon="17.21805705"></trkpt><trkpt lat="52.80770503" lon="17.21833316"></trkpt><trkpt lat="52.80796674" lon="17.21852364"></trkpt><trkpt lat="52.80821224" lon="17.21827922"></trkpt><trkpt lat="52.80832022" lon="17.21783483"></trkpt><trkpt lat="52.80845575" lon="17.21743564"></trkpt><trkpt lat="52.80863761" lon="17.21675466"></trkpt><trkpt lat="52.80870512" lon="17.21629781"></trkpt><trkpt lat="52.80882661" lon="17.21589818"></trkpt><trkpt lat="52.80898322" lon="17.21552043"></trkpt><trkpt lat="52.80923695" lon="17.21568341"></trkpt><trkpt lat="52.80936906" lon="17.21609102"></trkpt><trkpt lat="52.80954257" lon="17.21644368"></trkpt><trkpt lat="52.80968456" lon="17.21683476"></trkpt><trkpt lat="52.81002495" lon="17.21802634"></trkpt><trkpt lat="52.80968953" lon="17.21814653"></trkpt><trkpt lat="52.80957365" lon="17.21768975"></trkpt><trkpt lat="52.80956961" lon="17.21732291"></trkpt></trkseg></trk></gpx>