<?xml version="1.0" encoding="UTF-8" standalone="no" ?><gpx xmlns="http://www.topografix.com/GPX/1/1" xmlns:gpxx="http://www.garmin.com/xmlschemas/GpxExtensions/v3" ><trk><trkseg><trkpt lat="52.417495" lon="15.617703"></trkpt><trkpt lat="52.417504" lon="15.617366"></trkpt><trkpt lat="52.417566" lon="15.616911"></trkpt><trkpt lat="52.417576" lon="15.616561"></trkpt><trkpt lat="52.417515" lon="15.616115"></trkpt><trkpt lat="52.41756" lon="15.615552"></trkpt><trkpt lat="52.417543" lon="15.615187"></trkpt><trkpt lat="52.417272" lon="15.615551"></trkpt><trkpt lat="52.417032" lon="15.616112"></trkpt><trkpt lat="52.41683" lon="15.616264"></trkpt><trkpt lat="52.416551" lon="15.616199"></trkpt><trkpt lat="52.416363" lon="15.616089"></trkpt><trkpt lat="52.416164" lon="15.616002"></trkpt><trkpt lat="52.415874" lon="15.615831"></trkpt><trkpt lat="52.415297" lon="15.615607"></trkpt><trkpt lat="52.413172" lon="15.61451"></trkpt><trkpt lat="52.41231" lon="15.613943"></trkpt><trkpt lat="52.411883" lon="15.613564"></trkpt><trkpt lat="52.411623" lon="15.61339"></trkpt><trkpt lat="52.41001" lon="15.612071"></trkpt><trkpt lat="52.409842" lon="15.611897"></trkpt><trkpt lat="52.409629" lon="15.611589"></trkpt><trkpt lat="52.40723" lon="15.608607"></trkpt><trkpt lat="52.407014" lon="15.608436"></trkpt><trkpt lat="52.405973" lon="15.607394"></trkpt><trkpt lat="52.405727" lon="15.606899"></trkpt><trkpt lat="52.405419" lon="15.606108"></trkpt><trkpt lat="52.405406" lon="15.605768"></trkpt><trkpt lat="52.405266" lon="15.604125"></trkpt><trkpt lat="52.404977" lon="15.603833"></trkpt><trkpt lat="52.404727" lon="15.603826"></trkpt><trkpt lat="52.404378" lon="15.603914"></trkpt><trkpt lat="52.404087" lon="15.604023"></trkpt><trkpt lat="52.402715" lon="15.604716"></trkpt><trkpt lat="52.402931" lon="15.604592"></trkpt><trkpt lat="52.402655" lon="15.604768"></trkpt><trkpt lat="52.402483" lon="15.604931"></trkpt><trkpt lat="52.402277" lon="15.605189"></trkpt><trkpt lat="52.402091" lon="15.60546"></trkpt><trkpt lat="52.401917" lon="15.605757"></trkpt><trkpt lat="52.401147" lon="15.606879"></trkpt><trkpt lat="52.400965" lon="15.60701"></trkpt><trkpt lat="52.4001" lon="15.607516"></trkpt><trkpt lat="52.399703" lon="15.607648"></trkpt><trkpt lat="52.399418" lon="15.607688"></trkpt><trkpt lat="52.399159" lon="15.607777"></trkpt><trkpt lat="52.398952" lon="15.60789"></trkpt><trkpt lat="52.396206" lon="15.609009"></trkpt><trkpt lat="52.395727" lon="15.608748"></trkpt><trkpt lat="52.395552" lon="15.608568"></trkpt><trkpt lat="52.395395" lon="15.608361"></trkpt><trkpt lat="52.395231" lon="15.608068"></trkpt><trkpt lat="52.395046" lon="15.607424"></trkpt><trkpt lat="52.394911" lon="15.607079"></trkpt><trkpt lat="52.394651" lon="15.60655"></trkpt><trkpt lat="52.394415" lon="15.606288"></trkpt><trkpt lat="52.394069" lon="15.606021"></trkpt><trkpt lat="52.39371" lon="15.605652"></trkpt><trkpt lat="52.393548" lon="15.605448"></trkpt><trkpt lat="52.392909" lon="15.604768"></trkpt><trkpt lat="52.392715" lon="15.604664"></trkpt><trkpt lat="52.392361" lon="15.604576"></trkpt><trkpt lat="52.391789" lon="15.604503"></trkpt><trkpt lat="52.390825" lon="15.604225"></trkpt><trkpt lat="52.390608" lon="15.604009"></trkpt><trkpt lat="52.389856" lon="15.60312"></trkpt><trkpt lat="52.389721" lon="15.602836"></trkpt><trkpt lat="52.389611" lon="15.602453"></trkpt><trkpt lat="52.389484" lon="15.602097"></trkpt><trkpt lat="52.389312" lon="15.601476"></trkpt><trkpt lat="52.389254" lon="15.60112"></trkpt><trkpt lat="52.38914" lon="15.600776"></trkpt><trkpt lat="52.388745" lon="15.599323"></trkpt><trkpt lat="52.388629" lon="15.598799"></trkpt><trkpt lat="52.388482" lon="15.597869"></trkpt><trkpt lat="52.388479" lon="15.597541"></trkpt><trkpt lat="52.388382" lon="15.596082"></trkpt><trkpt lat="52.388247" lon="15.595712"></trkpt><trkpt lat="52.388056" lon="15.595278"></trkpt><trkpt lat="52.387869" lon="15.594924"></trkpt><trkpt lat="52.387649" lon="15.594576"></trkpt><trkpt lat="52.386357" lon="15.592193"></trkpt><trkpt lat="52.386262" lon="15.591848"></trkpt><trkpt lat="52.386231" lon="15.591426"></trkpt><trkpt lat="52.38622" lon="15.590813"></trkpt><trkpt lat="52.385713" lon="15.583017"></trkpt><trkpt lat="52.385603" lon="15.58269"></trkpt><trkpt lat="52.385437" lon="15.58229"></trkpt><trkpt lat="52.385217" lon="15.581861"></trkpt><trkpt lat="52.385051" lon="15.581625"></trkpt><trkpt lat="52.382006" lon="15.576601"></trkpt><trkpt lat="52.381905" lon="15.576307"></trkpt><trkpt lat="52.380893" lon="15.573812"></trkpt><trkpt lat="52.380607" lon="15.574072"></trkpt><trkpt lat="52.380423" lon="15.574199"></trkpt><trkpt lat="52.3773" lon="15.575828"></trkpt><trkpt lat="52.37678" lon="15.576173"></trkpt><trkpt lat="52.37653" lon="15.576417"></trkpt><trkpt lat="52.37457" lon="15.578018"></trkpt><trkpt lat="52.373905" lon="15.578469"></trkpt><trkpt lat="52.373682" lon="15.578486"></trkpt><trkpt lat="52.373408" lon="15.578366"></trkpt><trkpt lat="52.373123" lon="15.578106"></trkpt><trkpt lat="52.372924" lon="15.577881"></trkpt><trkpt lat="52.372613" lon="15.577463"></trkpt><trkpt lat="52.372292" lon="15.577175"></trkpt><trkpt lat="52.37208" lon="15.577121"></trkpt><trkpt lat="52.371208" lon="15.577004"></trkpt><trkpt lat="52.370581" lon="15.577008"></trkpt><trkpt lat="52.370379" lon="15.577044"></trkpt><trkpt lat="52.369732" lon="15.577084"></trkpt><trkpt lat="52.366478" lon="15.577707"></trkpt><trkpt lat="52.366242" lon="15.577811"></trkpt><trkpt lat="52.358105" lon="15.580319"></trkpt><trkpt lat="52.358178" lon="15.579984"></trkpt><trkpt lat="52.358174" lon="15.579592"></trkpt><trkpt lat="52.358293" lon="15.576813"></trkpt><trkpt lat="52.358426" lon="15.576161"></trkpt><trkpt lat="52.35848" lon="15.575624"></trkpt><trkpt lat="52.358481" lon="15.575274"></trkpt><trkpt lat="52.358549" lon="15.574759"></trkpt><trkpt lat="52.358642" lon="15.574421"></trkpt><trkpt lat="52.35938" lon="15.572223"></trkpt><trkpt lat="52.35958" lon="15.571739"></trkpt><trkpt lat="52.36024" lon="15.569873"></trkpt><trkpt lat="52.362611" lon="15.561935"></trkpt><trkpt lat="52.362699" lon="15.561575"></trkpt><trkpt lat="52.363435" lon="15.557177"></trkpt><trkpt lat="52.363231" lon="15.557088"></trkpt><trkpt lat="52.363436" lon="15.557155"></trkpt><trkpt lat="52.36369" lon="15.557106"></trkpt><trkpt lat="52.363791" lon="15.556789"></trkpt><trkpt lat="52.369157" lon="15.536384"></trkpt><trkpt lat="52.369178" lon="15.535985"></trkpt><trkpt lat="52.369148" lon="15.535599"></trkpt><trkpt lat="52.369093" lon="15.535246"></trkpt><trkpt lat="52.369127" lon="15.534745"></trkpt><trkpt lat="52.369126" lon="15.534418"></trkpt><trkpt lat="52.369221" lon="15.532067"></trkpt><trkpt lat="52.369205" lon="15.531737"></trkpt><trkpt lat="52.369189" lon="15.526956"></trkpt><trkpt lat="52.369233" lon="15.526294"></trkpt><trkpt lat="52.369389" lon="15.524885"></trkpt><trkpt lat="52.371731" lon="15.509817"></trkpt><trkpt lat="52.376261" lon="15.480172"></trkpt><trkpt lat="52.376305" lon="15.479716"></trkpt><trkpt lat="52.377145" lon="15.463164"></trkpt><trkpt lat="52.376944" lon="15.463118"></trkpt><trkpt lat="52.37696" lon="15.46272"></trkpt><trkpt lat="52.376857" lon="15.462427"></trkpt><trkpt lat="52.375268" lon="15.458693"></trkpt><trkpt lat="52.374993" lon="15.458268"></trkpt><trkpt lat="52.374282" lon="15.457377"></trkpt><trkpt lat="52.374068" lon="15.45728"></trkpt><trkpt lat="52.374262" lon="15.457365"></trkpt><trkpt lat="52.374415" lon="15.457623"></trkpt><trkpt lat="52.374469" lon="15.458178"></trkpt><trkpt lat="52.374452" lon="15.458776"></trkpt><trkpt lat="52.374271" lon="15.459288"></trkpt><trkpt lat="52.374079" lon="15.460129"></trkpt><trkpt lat="52.374142" lon="15.460719"></trkpt><trkpt lat="52.374122" lon="15.462126"></trkpt><trkpt lat="52.373976" lon="15.462489"></trkpt><trkpt lat="52.373352" lon="15.46378"></trkpt><trkpt lat="52.373091" lon="15.464046"></trkpt><trkpt lat="52.372819" lon="15.464106"></trkpt><trkpt lat="52.372576" lon="15.464092"></trkpt><trkpt lat="52.371571" lon="15.464363"></trkpt><trkpt lat="52.371525" lon="15.464712"></trkpt><trkpt lat="52.371498" lon="15.465062"></trkpt><trkpt lat="52.37155" lon="15.464627"></trkpt><trkpt lat="52.371487" lon="15.463978"></trkpt><trkpt lat="52.371227" lon="15.463917"></trkpt><trkpt lat="52.362091" lon="15.460613"></trkpt><trkpt lat="52.362048" lon="15.460196"></trkpt><trkpt lat="52.361561" lon="15.457225"></trkpt><trkpt lat="52.361331" lon="15.456929"></trkpt><trkpt lat="52.361116" lon="15.456798"></trkpt><trkpt lat="52.360425" lon="15.456481"></trkpt><trkpt lat="52.358025" lon="15.455713"></trkpt><trkpt lat="52.357558" lon="15.455505"></trkpt><trkpt lat="52.357301" lon="15.455191"></trkpt><trkpt lat="52.35684" lon="15.454536"></trkpt><trkpt lat="52.355715" lon="15.452674"></trkpt><trkpt lat="52.355685" lon="15.452272"></trkpt><trkpt lat="52.355714" lon="15.451844"></trkpt><trkpt lat="52.355825" lon="15.451242"></trkpt><trkpt lat="52.355965" lon="15.450884"></trkpt><trkpt lat="52.356102" lon="15.450609"></trkpt><trkpt lat="52.35639" lon="15.449881"></trkpt><trkpt lat="52.356565" lon="15.449345"></trkpt><trkpt lat="52.356649" lon="15.449015"></trkpt><trkpt lat="52.357102" lon="15.44782"></trkpt><trkpt lat="52.357481" lon="15.447706"></trkpt><trkpt lat="52.35849" lon="15.447814"></trkpt><trkpt lat="52.360908" lon="15.447202"></trkpt><trkpt lat="52.361306" lon="15.446889"></trkpt><trkpt lat="52.37816" lon="15.433691"></trkpt><trkpt lat="52.380526" lon="15.431438"></trkpt><trkpt lat="52.380759" lon="15.431089"></trkpt><trkpt lat="52.381154" lon="15.430386"></trkpt><trkpt lat="52.38134" lon="15.429946"></trkpt><trkpt lat="52.38213" lon="15.427755"></trkpt><trkpt lat="52.382352" lon="15.42702"></trkpt><trkpt lat="52.382506" lon="15.426623"></trkpt><trkpt lat="52.382678" lon="15.426268"></trkpt><trkpt lat="52.383086" lon="15.426003"></trkpt><trkpt lat="52.38343" lon="15.425884"></trkpt><trkpt lat="52.38365" lon="15.425749"></trkpt><trkpt lat="52.383848" lon="15.425656"></trkpt><trkpt lat="52.384122" lon="15.425566"></trkpt><trkpt lat="52.38529" lon="15.424986"></trkpt><trkpt lat="52.385404" lon="15.424637"></trkpt><trkpt lat="52.385382" lon="15.424243"></trkpt><trkpt lat="52.385012" lon="15.420561"></trkpt><trkpt lat="52.385052" lon="15.420975"></trkpt><trkpt lat="52.385573" lon="15.424665"></trkpt><trkpt lat="52.385812" lon="15.424617"></trkpt><trkpt lat="52.387246" lon="15.424149"></trkpt><trkpt lat="52.387445" lon="15.423782"></trkpt><trkpt lat="52.387615" lon="15.423548"></trkpt><trkpt lat="52.38789" lon="15.423446"></trkpt><trkpt lat="52.388198" lon="15.423439"></trkpt><trkpt lat="52.388711" lon="15.423612"></trkpt><trkpt lat="52.388718" lon="15.423952"></trkpt><trkpt lat="52.388635" lon="15.426467"></trkpt><trkpt lat="52.388542" lon="15.426836"></trkpt><trkpt lat="52.388329" lon="15.427925"></trkpt><trkpt lat="52.384111" lon="15.444695"></trkpt><trkpt lat="52.383865" lon="15.445191"></trkpt><trkpt lat="52.383726" lon="15.445524"></trkpt><trkpt lat="52.38324" lon="15.446957"></trkpt><trkpt lat="52.382971" lon="15.447919"></trkpt><trkpt lat="52.379405" lon="15.458487"></trkpt><trkpt lat="52.379098" lon="15.458607"></trkpt><trkpt lat="52.378874" lon="15.458643"></trkpt><trkpt lat="52.377672" lon="15.459127"></trkpt><trkpt lat="52.37745" lon="15.459348"></trkpt><trkpt lat="52.377189" lon="15.459567"></trkpt><trkpt lat="52.376993" lon="15.459672"></trkpt><trkpt lat="52.376768" lon="15.459701"></trkpt><trkpt lat="52.375647" lon="15.459388"></trkpt><trkpt lat="52.375427" lon="15.458972"></trkpt><trkpt lat="52.374924" lon="15.458171"></trkpt><trkpt lat="52.374326" lon="15.457364"></trkpt><trkpt lat="52.374078" lon="15.457437"></trkpt><trkpt lat="52.374314" lon="15.457373"></trkpt><trkpt lat="52.374528" lon="15.457515"></trkpt><trkpt lat="52.374708" lon="15.457851"></trkpt><trkpt lat="52.375994" lon="15.459891"></trkpt><trkpt lat="52.376263" lon="15.459844"></trkpt><trkpt lat="52.376516" lon="15.459767"></trkpt><trkpt lat="52.376739" lon="15.459733"></trkpt><trkpt lat="52.377246" lon="15.459569"></trkpt><trkpt lat="52.377498" lon="15.459283"></trkpt><trkpt lat="52.377993" lon="15.458873"></trkpt><trkpt lat="52.378202" lon="15.458843"></trkpt><trkpt lat="52.379339" lon="15.458544"></trkpt><trkpt lat="52.379532" lon="15.458389"></trkpt><trkpt lat="52.385957" lon="15.454112"></trkpt><trkpt lat="52.386442" lon="15.453894"></trkpt><trkpt lat="52.386527" lon="15.454466"></trkpt><trkpt lat="52.386526" lon="15.454807"></trkpt><trkpt lat="52.38659" lon="15.45566"></trkpt><trkpt lat="52.386668" lon="15.456203"></trkpt><trkpt lat="52.386807" lon="15.45761"></trkpt><trkpt lat="52.386828" lon="15.458135"></trkpt><trkpt lat="52.386868" lon="15.45848"></trkpt><trkpt lat="52.386884" lon="15.45896"></trkpt><trkpt lat="52.386725" lon="15.459168"></trkpt><trkpt lat="52.386814" lon="15.459525"></trkpt><trkpt lat="52.38676" lon="15.459965"></trkpt><trkpt lat="52.386713" lon="15.460656"></trkpt><trkpt lat="52.386715" lon="15.46471"></trkpt><trkpt lat="52.387082" lon="15.464707"></trkpt><trkpt lat="52.387384" lon="15.464763"></trkpt><trkpt lat="52.387582" lon="15.464763"></trkpt><trkpt lat="52.38815" lon="15.464835"></trkpt><trkpt lat="52.392793" lon="15.465971"></trkpt><trkpt lat="52.392998" lon="15.46608"></trkpt><trkpt lat="52.393222" lon="15.466162"></trkpt><trkpt lat="52.393608" lon="15.466257"></trkpt><trkpt lat="52.393788" lon="15.46642"></trkpt><trkpt lat="52.393964" lon="15.46664"></trkpt><trkpt lat="52.394172" lon="15.4667"></trkpt><trkpt lat="52.395763" lon="15.466005"></trkpt><trkpt lat="52.396135" lon="15.465726"></trkpt><trkpt lat="52.396326" lon="15.465627"></trkpt><trkpt lat="52.396558" lon="15.46556"></trkpt><trkpt lat="52.396792" lon="15.465411"></trkpt><trkpt lat="52.404308" lon="15.461592"></trkpt><trkpt lat="52.404479" lon="15.461782"></trkpt><trkpt lat="52.404724" lon="15.462005"></trkpt><trkpt lat="52.404986" lon="15.462192"></trkpt><trkpt lat="52.405251" lon="15.462577"></trkpt><trkpt lat="52.405531" lon="15.463048"></trkpt><trkpt lat="52.405645" lon="15.463423"></trkpt><trkpt lat="52.405777" lon="15.463749"></trkpt><trkpt lat="52.405986" lon="15.463898"></trkpt><trkpt lat="52.407245" lon="15.465017"></trkpt><trkpt lat="52.407458" lon="15.465262"></trkpt><trkpt lat="52.407641" lon="15.465437"></trkpt><trkpt lat="52.408055" lon="15.466047"></trkpt><trkpt lat="52.408265" lon="15.466259"></trkpt><trkpt lat="52.408447" lon="15.466412"></trkpt><trkpt lat="52.408674" lon="15.466549"></trkpt><trkpt lat="52.408844" lon="15.466731"></trkpt><trkpt lat="52.408901" lon="15.467236"></trkpt><trkpt lat="52.409126" lon="15.467004"></trkpt><trkpt lat="52.409214" lon="15.466709"></trkpt><trkpt lat="52.409218" lon="15.466361"></trkpt><trkpt lat="52.409247" lon="15.465905"></trkpt><trkpt lat="52.40936" lon="15.465592"></trkpt><trkpt lat="52.409435" lon="15.465249"></trkpt><trkpt lat="52.409478" lon="15.464839"></trkpt><trkpt lat="52.409405" lon="15.4645"></trkpt><trkpt lat="52.409393" lon="15.464129"></trkpt><trkpt lat="52.409442" lon="15.463716"></trkpt><trkpt lat="52.40961" lon="15.461225"></trkpt><trkpt lat="52.409542" lon="15.461582"></trkpt><trkpt lat="52.409382" lon="15.461778"></trkpt><trkpt lat="52.409344" lon="15.462108"></trkpt><trkpt lat="52.409277" lon="15.462458"></trkpt><trkpt lat="52.409111" lon="15.463793"></trkpt><trkpt lat="52.409229" lon="15.464166"></trkpt><trkpt lat="52.409279" lon="15.464649"></trkpt><trkpt lat="52.409213" lon="15.465071"></trkpt><trkpt lat="52.409171" lon="15.465474"></trkpt><trkpt lat="52.409078" lon="15.46609"></trkpt><trkpt lat="52.408991" lon="15.466531"></trkpt><trkpt lat="52.408833" lon="15.466966"></trkpt><trkpt lat="52.408741" lon="15.467274"></trkpt><trkpt lat="52.408758" lon="15.467911"></trkpt><trkpt lat="52.408724" lon="15.468252"></trkpt><trkpt lat="52.408632" lon="15.468835"></trkpt><trkpt lat="52.408549" lon="15.469804"></trkpt><trkpt lat="52.408549" lon="15.470291"></trkpt><trkpt lat="52.40859" lon="15.470652"></trkpt><trkpt lat="52.408593" lon="15.471193"></trkpt><trkpt lat="52.408557" lon="15.47168"></trkpt><trkpt lat="52.408489" lon="15.472073"></trkpt><trkpt lat="52.408533" lon="15.472404"></trkpt><trkpt lat="52.408634" lon="15.472737"></trkpt><trkpt lat="52.408609" lon="15.473276"></trkpt><trkpt lat="52.408547" lon="15.47364"></trkpt><trkpt lat="52.408509" lon="15.474288"></trkpt><trkpt lat="52.408511" lon="15.474662"></trkpt><trkpt lat="52.408534" lon="15.47501"></trkpt><trkpt lat="52.408855" lon="15.477562"></trkpt><trkpt lat="52.408872" lon="15.477933"></trkpt><trkpt lat="52.408868" lon="15.478262"></trkpt><trkpt lat="52.40888" lon="15.478651"></trkpt><trkpt lat="52.409019" lon="15.480131"></trkpt><trkpt lat="52.409115" lon="15.480544"></trkpt><trkpt lat="52.409637" lon="15.483447"></trkpt><trkpt lat="52.409645" lon="15.483885"></trkpt><trkpt lat="52.409699" lon="15.484736"></trkpt><trkpt lat="52.409715" lon="15.485587"></trkpt><trkpt lat="52.409595" lon="15.485923"></trkpt><trkpt lat="52.409409" lon="15.486361"></trkpt><trkpt lat="52.409198" lon="15.487122"></trkpt><trkpt lat="52.409156" lon="15.487469"></trkpt><trkpt lat="52.408991" lon="15.487684"></trkpt><trkpt lat="52.408684" lon="15.488016"></trkpt><trkpt lat="52.408487" lon="15.488196"></trkpt><trkpt lat="52.408295" lon="15.488513"></trkpt><trkpt lat="52.408003" lon="15.488807"></trkpt><trkpt lat="52.407764" lon="15.489104"></trkpt><trkpt lat="52.407529" lon="15.48951"></trkpt><trkpt lat="52.407271" lon="15.489839"></trkpt><trkpt lat="52.406648" lon="15.490861"></trkpt><trkpt lat="52.406468" lon="15.491262"></trkpt><trkpt lat="52.406259" lon="15.491814"></trkpt><trkpt lat="52.406332" lon="15.492414"></trkpt><trkpt lat="52.406504" lon="15.492876"></trkpt><trkpt lat="52.407688" lon="15.496678"></trkpt><trkpt lat="52.407778" lon="15.497141"></trkpt><trkpt lat="52.407901" lon="15.497618"></trkpt><trkpt lat="52.408483" lon="15.500414"></trkpt><trkpt lat="52.408824" lon="15.50168"></trkpt><trkpt lat="52.408974" lon="15.501939"></trkpt><trkpt lat="52.410545" lon="15.505202"></trkpt><trkpt lat="52.410487" lon="15.505608"></trkpt><trkpt lat="52.410281" lon="15.507914"></trkpt><trkpt lat="52.410116" lon="15.508264"></trkpt><trkpt lat="52.410026" lon="15.508652"></trkpt><trkpt lat="52.409974" lon="15.50903"></trkpt><trkpt lat="52.409941" lon="15.509532"></trkpt><trkpt lat="52.40993" lon="15.51173"></trkpt><trkpt lat="52.409775" lon="15.514951"></trkpt><trkpt lat="52.409726" lon="15.515282"></trkpt><trkpt lat="52.40941" lon="15.518986"></trkpt><trkpt lat="52.409548" lon="15.51982"></trkpt><trkpt lat="52.409693" lon="15.520488"></trkpt><trkpt lat="52.409809" lon="15.521279"></trkpt><trkpt lat="52.409794" lon="15.521821"></trkpt><trkpt lat="52.409351" lon="15.528007"></trkpt><trkpt lat="52.409262" lon="15.528389"></trkpt><trkpt lat="52.407992" lon="15.532793"></trkpt><trkpt lat="52.407869" lon="15.533141"></trkpt><trkpt lat="52.407701" lon="15.533478"></trkpt><trkpt lat="52.404436" lon="15.538899"></trkpt><trkpt lat="52.40416" lon="15.538865"></trkpt><trkpt lat="52.404002" lon="15.539108"></trkpt><trkpt lat="52.403946" lon="15.539444"></trkpt><trkpt lat="52.403891" lon="15.539923"></trkpt><trkpt lat="52.403744" lon="15.540806"></trkpt><trkpt lat="52.403688" lon="15.541371"></trkpt><trkpt lat="52.403889" lon="15.541596"></trkpt><trkpt lat="52.404276" lon="15.541628"></trkpt><trkpt lat="52.413514" lon="15.543564"></trkpt><trkpt lat="52.413745" lon="15.543768"></trkpt><trkpt lat="52.414427" lon="15.544483"></trkpt><trkpt lat="52.414934" lon="15.545105"></trkpt><trkpt lat="52.415218" lon="15.545545"></trkpt><trkpt lat="52.416159" lon="15.54679"></trkpt><trkpt lat="52.416372" lon="15.546972"></trkpt><trkpt lat="52.417752" lon="15.548374"></trkpt><trkpt lat="52.417986" lon="15.548855"></trkpt><trkpt lat="52.418116" lon="15.549228"></trkpt><trkpt lat="52.418392" lon="15.550195"></trkpt><trkpt lat="52.421591" lon="15.559555"></trkpt><trkpt lat="52.421812" lon="15.559753"></trkpt><trkpt lat="52.422995" lon="15.560622"></trkpt><trkpt lat="52.429923" lon="15.566708"></trkpt><trkpt lat="52.430053" lon="15.566983"></trkpt><trkpt lat="52.430289" lon="15.567122"></trkpt><trkpt lat="52.430482" lon="15.567287"></trkpt><trkpt lat="52.439154" lon="15.57605"></trkpt><trkpt lat="52.438964" lon="15.57632"></trkpt><trkpt lat="52.438461" lon="15.577201"></trkpt><trkpt lat="52.438298" lon="15.577573"></trkpt><trkpt lat="52.437823" lon="15.578958"></trkpt><trkpt lat="52.437895" lon="15.579752"></trkpt><trkpt lat="52.438014" lon="15.580555"></trkpt><trkpt lat="52.438266" lon="15.58141"></trkpt><trkpt lat="52.438514" lon="15.582536"></trkpt><trkpt lat="52.438499" lon="15.582892"></trkpt><trkpt lat="52.438639" lon="15.583352"></trkpt><trkpt lat="52.438774" lon="15.583591"></trkpt><trkpt lat="52.438503" lon="15.583829"></trkpt><trkpt lat="52.437462" lon="15.584911"></trkpt><trkpt lat="52.437264" lon="15.585174"></trkpt><trkpt lat="52.436892" lon="15.585546"></trkpt><trkpt lat="52.436662" lon="15.585922"></trkpt><trkpt lat="52.436418" lon="15.586206"></trkpt><trkpt lat="52.423007" lon="15.604345"></trkpt><trkpt lat="52.422761" lon="15.604812"></trkpt><trkpt lat="52.417565" lon="15.616228"></trkpt><trkpt lat="52.417555" lon="15.616633"></trkpt><trkpt lat="52.417629" lon="15.617076"></trkpt><trkpt lat="52.417649" lon="15.617497"></trkpt><trkpt lat="52.417641" lon="15.617836"></trkpt><trkpt lat="52.417526" lon="15.618148"></trkpt><trkpt lat="52.417306" lon="15.618086"></trkpt></trkseg></trk></gpx>