<?xml version="1.0" encoding="UTF-8" standalone="no" ?><gpx xmlns="http://www.topografix.com/GPX/1/1" xmlns:gpxx="http://www.garmin.com/xmlschemas/GpxExtensions/v3" ><trk><trkseg><trkpt lat="52.4668667279" lon="17.1698848251"></trkpt><trkpt lat="52.4672843143" lon="17.1699990705"></trkpt><trkpt lat="52.4690460227" lon="17.1707759053"></trkpt><trkpt lat="52.4693394732" lon="17.1707912441"></trkpt><trkpt lat="52.4694241304" lon="17.1712309588"></trkpt><trkpt lat="52.4694342725" lon="17.1717721783"></trkpt><trkpt lat="52.4699886516" lon="17.171919113"></trkpt><trkpt lat="52.4702455569" lon="17.1721072868"></trkpt><trkpt lat="52.4706782307" lon="17.1721790358"></trkpt><trkpt lat="52.472864734" lon="17.1734094154"></trkpt><trkpt lat="52.472838331" lon="17.1742132399"></trkpt><trkpt lat="52.4729267601" lon="17.1780161932"></trkpt><trkpt lat="52.4731983338" lon="17.1785315126"></trkpt><trkpt lat="52.4734225497" lon="17.1788517013"></trkpt><trkpt lat="52.4737396371" lon="17.179441452"></trkpt><trkpt lat="52.473959662" lon="17.1799762174"></trkpt><trkpt lat="52.4740817863" lon="17.180592455"></trkpt><trkpt lat="52.4741012324" lon="17.1813592315"></trkpt><trkpt lat="52.4740603287" lon="17.1824711747"></trkpt><trkpt lat="52.4740899168" lon="17.1829536371"></trkpt><trkpt lat="52.4745942559" lon="17.1836554538"></trkpt><trkpt lat="52.4757885095" lon="17.1856796835"></trkpt><trkpt lat="52.47569656" lon="17.1862991061"></trkpt><trkpt lat="52.4756858312" lon="17.1868147608"></trkpt><trkpt lat="52.4757797923" lon="17.1876027435"></trkpt><trkpt lat="52.4762324989" lon="17.1900264546"></trkpt><trkpt lat="52.4762660265" lon="17.1905152034"></trkpt><trkpt lat="52.4761608336" lon="17.1915078722"></trkpt><trkpt lat="52.4758993182" lon="17.1967032272"></trkpt><trkpt lat="52.4759467598" lon="17.2008325718"></trkpt><trkpt lat="52.4760716502" lon="17.2016992606"></trkpt><trkpt lat="52.4765151367" lon="17.2102590278"></trkpt><trkpt lat="52.4761569779" lon="17.2100994363"></trkpt><trkpt lat="52.4756246433" lon="17.2100840975"></trkpt><trkpt lat="52.4753545783" lon="17.2102063056"></trkpt><trkpt lat="52.475790102" lon="17.2100179642"></trkpt><trkpt lat="52.475315351" lon="17.2102361452"></trkpt><trkpt lat="52.4749778118" lon="17.2104449384"></trkpt><trkpt lat="52.4746154621" lon="17.2106078826"></trkpt><trkpt lat="52.4733263254" lon="17.2114250343"></trkpt><trkpt lat="52.4729512352" lon="17.2119090892"></trkpt><trkpt lat="52.4714324344" lon="17.2133764252"></trkpt><trkpt lat="52.4705967586" lon="17.2123488039"></trkpt><trkpt lat="52.4704100937" lon="17.2120266873"></trkpt><trkpt lat="52.4701640848" lon="17.211039383"></trkpt><trkpt lat="52.4699575547" lon="17.2104188707"></trkpt><trkpt lat="52.4694776069" lon="17.2100828402"></trkpt><trkpt lat="52.4688026961" lon="17.2092640121"></trkpt><trkpt lat="52.4685447849" lon="17.2090246249"></trkpt><trkpt lat="52.4626763631" lon="17.2048005648"></trkpt><trkpt lat="52.4621748738" lon="17.2046299931"></trkpt><trkpt lat="52.4608347751" lon="17.2044754308"></trkpt><trkpt lat="52.4606392253" lon="17.2054135334"></trkpt><trkpt lat="52.4600347225" lon="17.2099095024"></trkpt><trkpt lat="52.4601188768" lon="17.2108005825"></trkpt><trkpt lat="52.4601633847" lon="17.2121339757"></trkpt><trkpt lat="52.4600610416" lon="17.2159141302"></trkpt><trkpt lat="52.4598834291" lon="17.2163918987"></trkpt><trkpt lat="52.4596648291" lon="17.2168202978"></trkpt><trkpt lat="52.4562463537" lon="17.2250945773"></trkpt><trkpt lat="52.4558206368" lon="17.226647744"></trkpt><trkpt lat="52.4519063719" lon="17.2405088972"></trkpt><trkpt lat="52.4517261609" lon="17.2418175638"></trkpt><trkpt lat="52.4517497141" lon="17.2424917202"></trkpt><trkpt lat="52.4516613688" lon="17.2431284934"></trkpt><trkpt lat="52.451417204" lon="17.2434087843"></trkpt><trkpt lat="52.4511330575" lon="17.2435718123"></trkpt><trkpt lat="52.4507966079" lon="17.2442421131"></trkpt><trkpt lat="52.4507057481" lon="17.244838737"></trkpt><trkpt lat="52.4507004675" lon="17.245281972"></trkpt><trkpt lat="52.4501548056" lon="17.2454897594"></trkpt><trkpt lat="52.4498906918" lon="17.245632587"></trkpt><trkpt lat="52.4493343849" lon="17.2458149772"></trkpt><trkpt lat="52.4487885553" lon="17.2458207607"></trkpt><trkpt lat="52.4479312543" lon="17.2455536295"></trkpt><trkpt lat="52.4476165976" lon="17.2450604383"></trkpt><trkpt lat="52.4478583317" lon="17.24542832"></trkpt><trkpt lat="52.4480898399" lon="17.2456972115"></trkpt><trkpt lat="52.4483780935" lon="17.2457263805"></trkpt><trkpt lat="52.4482942745" lon="17.2452740092"></trkpt><trkpt lat="52.4479388818" lon="17.2446736135"></trkpt><trkpt lat="52.4482643511" lon="17.2452398948"></trkpt><trkpt lat="52.4483499303" lon="17.2458305676"></trkpt><trkpt lat="52.4476578366" lon="17.2451057006"></trkpt><trkpt lat="52.4452094827" lon="17.2430549003"></trkpt><trkpt lat="52.444851324" lon="17.2429509647"></trkpt><trkpt lat="52.4438778497" lon="17.2424990963"></trkpt><trkpt lat="52.4439993873" lon="17.2420743015"></trkpt><trkpt lat="52.4441511836" lon="17.2416584753"></trkpt><trkpt lat="52.4444951769" lon="17.2404704243"></trkpt><trkpt lat="52.4453970697" lon="17.236271929"></trkpt><trkpt lat="52.4455372989" lon="17.2353387717"></trkpt><trkpt lat="52.4460501876" lon="17.2337834258"></trkpt><trkpt lat="52.4464599788" lon="17.2339336295"></trkpt><trkpt lat="52.4464222603" lon="17.2345655411"></trkpt><trkpt lat="52.4463091046" lon="17.2353851236"></trkpt><trkpt lat="52.4464080948" lon="17.234604517"></trkpt><trkpt lat="52.4462992139" lon="17.2338250838"></trkpt><trkpt lat="52.4460081104" lon="17.2337680031"></trkpt><trkpt lat="52.4458041787" lon="17.233353015"></trkpt><trkpt lat="52.4458790291" lon="17.232797714"></trkpt><trkpt lat="52.446582187" lon="17.2218513675"></trkpt><trkpt lat="52.4464678578" lon="17.2213967331"></trkpt><trkpt lat="52.4464226793" lon="17.2207539249"></trkpt><trkpt lat="52.4465341587" lon="17.2200229391"></trkpt><trkpt lat="52.4471044634" lon="17.2118991986"></trkpt><trkpt lat="52.4466318917" lon="17.2116452269"></trkpt><trkpt lat="52.445740141" lon="17.2107963916"></trkpt><trkpt lat="52.44584064" lon="17.2102197167"></trkpt><trkpt lat="52.4460189231" lon="17.2079280205"></trkpt><trkpt lat="52.4458933622" lon="17.2075220011"></trkpt><trkpt lat="52.4458227865" lon="17.2070918418"></trkpt><trkpt lat="52.4437981378" lon="17.192463493"></trkpt><trkpt lat="52.4437974673" lon="17.1917758416"></trkpt><trkpt lat="52.4436874967" lon="17.1760915406"></trkpt><trkpt lat="52.4438522011" lon="17.1725618374"></trkpt><trkpt lat="52.4441949371" lon="17.1723466739"></trkpt><trkpt lat="52.4461418856" lon="17.1706531104"></trkpt><trkpt lat="52.4459905084" lon="17.170220688"></trkpt><trkpt lat="52.4455802981" lon="17.1681932732"></trkpt><trkpt lat="52.4462201726" lon="17.1676845755"></trkpt><trkpt lat="52.4475606065" lon="17.1662722249"></trkpt><trkpt lat="52.4476422463" lon="17.1656546462"></trkpt><trkpt lat="52.4479446653" lon="17.164089242"></trkpt><trkpt lat="52.4485866353" lon="17.1631367225"></trkpt><trkpt lat="52.4507365096" lon="17.1605831757"></trkpt><trkpt lat="52.4513272662" lon="17.1603604686"></trkpt><trkpt lat="52.451906791" lon="17.160773864"></trkpt><trkpt lat="52.4562238064" lon="17.1647892147"></trkpt><trkpt lat="52.4564235471" lon="17.1654015966"></trkpt><trkpt lat="52.4568796903" lon="17.1663132124"></trkpt><trkpt lat="52.4571739789" lon="17.1664750669"></trkpt><trkpt lat="52.4575556908" lon="17.1666099317"></trkpt><trkpt lat="52.4618981872" lon="17.1689149551"></trkpt><trkpt lat="52.4617843609" lon="17.1696651354"></trkpt><trkpt lat="52.4607693125" lon="17.1745016612"></trkpt><trkpt lat="52.4606591742" lon="17.1756310388"></trkpt><trkpt lat="52.4600694235" lon="17.1794671845"></trkpt><trkpt lat="52.4593432155" lon="17.1791847143"></trkpt><trkpt lat="52.4581066333" lon="17.1789292339"></trkpt><trkpt lat="52.4579665717" lon="17.1798546799"></trkpt><trkpt lat="52.4579537474" lon="17.1793290507"></trkpt><trkpt lat="52.4580669869" lon="17.1788515337"></trkpt><trkpt lat="52.4585482758" lon="17.1788582392"></trkpt><trkpt lat="52.4589970428" lon="17.1790501848"></trkpt><trkpt lat="52.4604839925" lon="17.1787476819"></trkpt><trkpt lat="52.4605139997" lon="17.1779708471"></trkpt><trkpt lat="52.4609461706" lon="17.1740231384"></trkpt><trkpt lat="52.4611258786" lon="17.1733801626"></trkpt><trkpt lat="52.4616459757" lon="17.1709785797"></trkpt><trkpt lat="52.4617595505" lon="17.1701474302"></trkpt><trkpt lat="52.4619157892" lon="17.1693984233"></trkpt><trkpt lat="52.462242851" lon="17.1691484749"></trkpt><trkpt lat="52.4628181849" lon="17.1691778116"></trkpt><trkpt lat="52.463312801" lon="17.1693083178"></trkpt><trkpt lat="52.4669362139" lon="17.1690618061"></trkpt></trkseg></trk></gpx>