<?xml version="1.0" encoding="UTF-8" standalone="no" ?><gpx xmlns="http://www.topografix.com/GPX/1/1" xmlns:gpxx="http://www.garmin.com/xmlschemas/GpxExtensions/v3" ><trk><trkseg><trkpt lat="53.364725" lon="14.923835"></trkpt><trkpt lat="53.36468" lon="14.924221"></trkpt><trkpt lat="53.3646" lon="14.924557"></trkpt><trkpt lat="53.364415" lon="14.924795"></trkpt><trkpt lat="53.364057" lon="14.925078"></trkpt><trkpt lat="53.363549" lon="14.925637"></trkpt><trkpt lat="53.362831" lon="14.926284"></trkpt><trkpt lat="53.362075" lon="14.926849"></trkpt><trkpt lat="53.361788" lon="14.92695"></trkpt><trkpt lat="53.360259" lon="14.926717"></trkpt><trkpt lat="53.357238" lon="14.926782"></trkpt><trkpt lat="53.354888" lon="14.926425"></trkpt><trkpt lat="53.354521" lon="14.926012"></trkpt><trkpt lat="53.353794" lon="14.925913"></trkpt><trkpt lat="53.351901" lon="14.925327"></trkpt><trkpt lat="53.351922" lon="14.924928"></trkpt><trkpt lat="53.352074" lon="14.923938"></trkpt><trkpt lat="53.35237" lon="14.92122"></trkpt><trkpt lat="53.352303" lon="14.922343"></trkpt><trkpt lat="53.352152" lon="14.923462"></trkpt><trkpt lat="53.351424" lon="14.927028"></trkpt><trkpt lat="53.351068" lon="14.92686"></trkpt><trkpt lat="53.350167" lon="14.926273"></trkpt><trkpt lat="53.349975" lon="14.926175"></trkpt><trkpt lat="53.349753" lon="14.92615"></trkpt><trkpt lat="53.349694" lon="14.925719"></trkpt><trkpt lat="53.349502" lon="14.926122"></trkpt><trkpt lat="53.349338" lon="14.92654"></trkpt><trkpt lat="53.349565" lon="14.926888"></trkpt><trkpt lat="53.349877" lon="14.927281"></trkpt><trkpt lat="53.349787" lon="14.927694"></trkpt><trkpt lat="53.349593" lon="14.928296"></trkpt><trkpt lat="53.349439" lon="14.928893"></trkpt><trkpt lat="53.349318" lon="14.929269"></trkpt><trkpt lat="53.349724" lon="14.92992"></trkpt><trkpt lat="53.34999" lon="14.93027"></trkpt><trkpt lat="53.350144" lon="14.930529"></trkpt><trkpt lat="53.350362" lon="14.930826"></trkpt><trkpt lat="53.350951" lon="14.931947"></trkpt><trkpt lat="53.350797" lon="14.932977"></trkpt><trkpt lat="53.350494" lon="14.934488"></trkpt><trkpt lat="53.349893" lon="14.935378"></trkpt><trkpt lat="53.34741" lon="14.938546"></trkpt><trkpt lat="53.345142" lon="14.940867"></trkpt><trkpt lat="53.344445" lon="14.941165"></trkpt><trkpt lat="53.343473" lon="14.941425"></trkpt><trkpt lat="53.336832" lon="14.942163"></trkpt><trkpt lat="53.335743" lon="14.941809"></trkpt><trkpt lat="53.334724" lon="14.941722"></trkpt><trkpt lat="53.334102" lon="14.941868"></trkpt><trkpt lat="53.333467" lon="14.941922"></trkpt><trkpt lat="53.332871" lon="14.941574"></trkpt><trkpt lat="53.33208" lon="14.940833"></trkpt><trkpt lat="53.32995" lon="14.938445"></trkpt><trkpt lat="53.329509" lon="14.937685"></trkpt><trkpt lat="53.328576" lon="14.935715"></trkpt><trkpt lat="53.327916" lon="14.935127"></trkpt><trkpt lat="53.327334" lon="14.934844"></trkpt><trkpt lat="53.325023" lon="14.933406"></trkpt><trkpt lat="53.324717" lon="14.933098"></trkpt><trkpt lat="53.324533" lon="14.932951"></trkpt><trkpt lat="53.323678" lon="14.932022"></trkpt><trkpt lat="53.322239" lon="14.930192"></trkpt><trkpt lat="53.321813" lon="14.929552"></trkpt><trkpt lat="53.321318" lon="14.929202"></trkpt><trkpt lat="53.320734" lon="14.928994"></trkpt><trkpt lat="53.313654" lon="14.925359"></trkpt><trkpt lat="53.312878" lon="14.92437"></trkpt><trkpt lat="53.31015" lon="14.921912"></trkpt><trkpt lat="53.309346" lon="14.921776"></trkpt><trkpt lat="53.308053" lon="14.921392"></trkpt><trkpt lat="53.307882" lon="14.921071"></trkpt><trkpt lat="53.307798" lon="14.920765"></trkpt><trkpt lat="53.307718" lon="14.920236"></trkpt><trkpt lat="53.306246" lon="14.912864"></trkpt><trkpt lat="53.306043" lon="14.912808"></trkpt><trkpt lat="53.302167" lon="14.913361"></trkpt><trkpt lat="53.301305" lon="14.913033"></trkpt><trkpt lat="53.288294" lon="14.908408"></trkpt><trkpt lat="53.285689" lon="14.907141"></trkpt><trkpt lat="53.284091" lon="14.906156"></trkpt><trkpt lat="53.284575" lon="14.905606"></trkpt><trkpt lat="53.284818" lon="14.905215"></trkpt><trkpt lat="53.285012" lon="14.904955"></trkpt><trkpt lat="53.285436" lon="14.904507"></trkpt><trkpt lat="53.285725" lon="14.904953"></trkpt><trkpt lat="53.28597" lon="14.904925"></trkpt><trkpt lat="53.286129" lon="14.905143"></trkpt><trkpt lat="53.285787" lon="14.905022"></trkpt><trkpt lat="53.285579" lon="14.904718"></trkpt><trkpt lat="53.28539" lon="14.904506"></trkpt><trkpt lat="53.285217" lon="14.904735"></trkpt><trkpt lat="53.283832" lon="14.90627"></trkpt><trkpt lat="53.283257" lon="14.905974"></trkpt><trkpt lat="53.281259" lon="14.905505"></trkpt><trkpt lat="53.268909" lon="14.910639"></trkpt><trkpt lat="53.268927" lon="14.911069"></trkpt><trkpt lat="53.268926" lon="14.91191"></trkpt><trkpt lat="53.268572" lon="14.912838"></trkpt><trkpt lat="53.261127" lon="14.932517"></trkpt><trkpt lat="53.25486" lon="14.952344"></trkpt><trkpt lat="53.254727" lon="14.953991"></trkpt><trkpt lat="53.254737" lon="14.955451"></trkpt><trkpt lat="53.254872" lon="14.956123"></trkpt><trkpt lat="53.25492" lon="14.956592"></trkpt><trkpt lat="53.254868" lon="14.957584"></trkpt><trkpt lat="53.254925" lon="14.958811"></trkpt><trkpt lat="53.255149" lon="14.959737"></trkpt><trkpt lat="53.25521" lon="14.960167"></trkpt><trkpt lat="53.254764" lon="14.961053"></trkpt><trkpt lat="53.253602" lon="14.962475"></trkpt><trkpt lat="53.252943" lon="14.963005"></trkpt><trkpt lat="53.250947" lon="14.964972"></trkpt><trkpt lat="53.251212" lon="14.966109"></trkpt><trkpt lat="53.25148" lon="14.967051"></trkpt><trkpt lat="53.25207" lon="14.968097"></trkpt><trkpt lat="53.252522" lon="14.969078"></trkpt><trkpt lat="53.252476" lon="14.969939"></trkpt><trkpt lat="53.250655" lon="14.988018"></trkpt><trkpt lat="53.250233" lon="14.988649"></trkpt><trkpt lat="53.249566" lon="14.989869"></trkpt><trkpt lat="53.247098" lon="14.995138"></trkpt><trkpt lat="53.244721" lon="15.00103"></trkpt><trkpt lat="53.241966" lon="15.0066"></trkpt><trkpt lat="53.241395" lon="15.007441"></trkpt><trkpt lat="53.240381" lon="15.008535"></trkpt><trkpt lat="53.240167" lon="15.008665"></trkpt><trkpt lat="53.239738" lon="15.008816"></trkpt><trkpt lat="53.236946" lon="15.010179"></trkpt><trkpt lat="53.23689" lon="15.010535"></trkpt><trkpt lat="53.237139" lon="15.011921"></trkpt><trkpt lat="53.237346" lon="15.016798"></trkpt><trkpt lat="53.237146" lon="15.017247"></trkpt><trkpt lat="53.236885" lon="15.017418"></trkpt><trkpt lat="53.236596" lon="15.017823"></trkpt><trkpt lat="53.231341" lon="15.026364"></trkpt><trkpt lat="53.230866" lon="15.027293"></trkpt><trkpt lat="53.227636" lon="15.032679"></trkpt><trkpt lat="53.227087" lon="15.033408"></trkpt><trkpt lat="53.22533" lon="15.035293"></trkpt><trkpt lat="53.224671" lon="15.035811"></trkpt><trkpt lat="53.213684" lon="15.046355"></trkpt><trkpt lat="53.213403" lon="15.047432"></trkpt><trkpt lat="53.208127" lon="15.068314"></trkpt><trkpt lat="53.204292" lon="15.079658"></trkpt><trkpt lat="53.203405" lon="15.080181"></trkpt><trkpt lat="53.199161" lon="15.084168"></trkpt><trkpt lat="53.199318" lon="15.085235"></trkpt><trkpt lat="53.199299" lon="15.08771"></trkpt><trkpt lat="53.198981" lon="15.088459"></trkpt><trkpt lat="53.198131" lon="15.090857"></trkpt><trkpt lat="53.198253" lon="15.09132"></trkpt><trkpt lat="53.198347" lon="15.091761"></trkpt><trkpt lat="53.198454" lon="15.092587"></trkpt><trkpt lat="53.199274" lon="15.102105"></trkpt><trkpt lat="53.199636" lon="15.110926"></trkpt><trkpt lat="53.19955" lon="15.112101"></trkpt><trkpt lat="53.199211" lon="15.123124"></trkpt><trkpt lat="53.199325" lon="15.124067"></trkpt><trkpt lat="53.199929" lon="15.132182"></trkpt><trkpt lat="53.199945" lon="15.132954"></trkpt><trkpt lat="53.20029" lon="15.13382"></trkpt><trkpt lat="53.205327" lon="15.144406"></trkpt><trkpt lat="53.205752" lon="15.145625"></trkpt><trkpt lat="53.205993" lon="15.146186"></trkpt><trkpt lat="53.206171" lon="15.146376"></trkpt><trkpt lat="53.206388" lon="15.146539"></trkpt><trkpt lat="53.206705" lon="15.146714"></trkpt><trkpt lat="53.207331" lon="15.14663"></trkpt><trkpt lat="53.2108" lon="15.148175"></trkpt><trkpt lat="53.210983" lon="15.148617"></trkpt><trkpt lat="53.211169" lon="15.148797"></trkpt><trkpt lat="53.211718" lon="15.148834"></trkpt><trkpt lat="53.212511" lon="15.149008"></trkpt><trkpt lat="53.215768" lon="15.150595"></trkpt><trkpt lat="53.216239" lon="15.151301"></trkpt><trkpt lat="53.218605" lon="15.15568"></trkpt><trkpt lat="53.218413" lon="15.156134"></trkpt><trkpt lat="53.218523" lon="15.155808"></trkpt><trkpt lat="53.218734" lon="15.1553"></trkpt><trkpt lat="53.218942" lon="15.154912"></trkpt></trkseg></trk></gpx>