<?xml version="1.0" encoding="UTF-8" standalone="no" ?><gpx xmlns="http://www.topografix.com/GPX/1/1" xmlns:gpxx="http://www.garmin.com/xmlschemas/GpxExtensions/v3" ><trk><trkseg><trkpt lat="52.109754" lon="17.320294"></trkpt><trkpt lat="52.109648" lon="17.31986"></trkpt><trkpt lat="52.109766" lon="17.319446"></trkpt><trkpt lat="52.109761" lon="17.31989"></trkpt><trkpt lat="52.109654" lon="17.320295"></trkpt><trkpt lat="52.108525" lon="17.323674"></trkpt><trkpt lat="52.107693" lon="17.325678"></trkpt><trkpt lat="52.10683" lon="17.327185"></trkpt><trkpt lat="52.106531" lon="17.32715"></trkpt><trkpt lat="52.106251" lon="17.327065"></trkpt><trkpt lat="52.105516" lon="17.327149"></trkpt><trkpt lat="52.105242" lon="17.327048"></trkpt><trkpt lat="52.104941" lon="17.32683"></trkpt><trkpt lat="52.104591" lon="17.326635"></trkpt><trkpt lat="52.104341" lon="17.326447"></trkpt><trkpt lat="52.103313" lon="17.327417"></trkpt><trkpt lat="52.103087" lon="17.327815"></trkpt><trkpt lat="52.102812" lon="17.327891"></trkpt><trkpt lat="52.102173" lon="17.328171"></trkpt><trkpt lat="52.102201" lon="17.328611"></trkpt><trkpt lat="52.102288" lon="17.329103"></trkpt><trkpt lat="52.102419" lon="17.33033"></trkpt><trkpt lat="52.102445" lon="17.330847"></trkpt><trkpt lat="52.102318" lon="17.331454"></trkpt><trkpt lat="52.102176" lon="17.331834"></trkpt><trkpt lat="52.102005" lon="17.332206"></trkpt><trkpt lat="52.10156" lon="17.332946"></trkpt><trkpt lat="52.101311" lon="17.33244"></trkpt><trkpt lat="52.101385" lon="17.33196"></trkpt><trkpt lat="52.101447" lon="17.331259"></trkpt><trkpt lat="52.101217" lon="17.330989"></trkpt><trkpt lat="52.100946" lon="17.330784"></trkpt><trkpt lat="52.100681" lon="17.330675"></trkpt><trkpt lat="52.100465" lon="17.330384"></trkpt><trkpt lat="52.100318" lon="17.329938"></trkpt><trkpt lat="52.100111" lon="17.329567"></trkpt><trkpt lat="52.099776" lon="17.329067"></trkpt><trkpt lat="52.099638" lon="17.328672"></trkpt><trkpt lat="52.0994" lon="17.328175"></trkpt><trkpt lat="52.099206" lon="17.327844"></trkpt><trkpt lat="52.09906" lon="17.327456"></trkpt><trkpt lat="52.098861" lon="17.327099"></trkpt><trkpt lat="52.098655" lon="17.32664"></trkpt><trkpt lat="52.098321" lon="17.325688"></trkpt><trkpt lat="52.098518" lon="17.325379"></trkpt><trkpt lat="52.098797" lon="17.325256"></trkpt><trkpt lat="52.099218" lon="17.324992"></trkpt><trkpt lat="52.100355" lon="17.323961"></trkpt><trkpt lat="52.100241" lon="17.323478"></trkpt><trkpt lat="52.100162" lon="17.322925"></trkpt><trkpt lat="52.100075" lon="17.321908"></trkpt><trkpt lat="52.10008" lon="17.321427"></trkpt><trkpt lat="52.100118" lon="17.320852"></trkpt><trkpt lat="52.100176" lon="17.320419"></trkpt><trkpt lat="52.100327" lon="17.320043"></trkpt><trkpt lat="52.100641" lon="17.319072"></trkpt><trkpt lat="52.10079" lon="17.318358"></trkpt><trkpt lat="52.100712" lon="17.317831"></trkpt><trkpt lat="52.100595" lon="17.317413"></trkpt><trkpt lat="52.100818" lon="17.317752"></trkpt><trkpt lat="52.10082" lon="17.318262"></trkpt><trkpt lat="52.100725" lon="17.318675"></trkpt><trkpt lat="52.100556" lon="17.319191"></trkpt><trkpt lat="52.100394" lon="17.319856"></trkpt><trkpt lat="52.100639" lon="17.320169"></trkpt><trkpt lat="52.100824" lon="17.32053"></trkpt><trkpt lat="52.101185" lon="17.321094"></trkpt><trkpt lat="52.101428" lon="17.321295"></trkpt><trkpt lat="52.103343" lon="17.32254"></trkpt><trkpt lat="52.108903" lon="17.320023"></trkpt></trkseg></trk></gpx>