<?xml version="1.0" encoding="UTF-8" standalone="no" ?><gpx xmlns="http://www.topografix.com/GPX/1/1" xmlns:gpxx="http://www.garmin.com/xmlschemas/GpxExtensions/v3" ><trk><trkseg><trkpt lat="52.47894" lon="17.278604"></trkpt><trkpt lat="52.479119" lon="17.278957"></trkpt><trkpt lat="52.479106" lon="17.279562"></trkpt><trkpt lat="52.479198" lon="17.280039"></trkpt><trkpt lat="52.47934" lon="17.281282"></trkpt><trkpt lat="52.479272" lon="17.28182"></trkpt><trkpt lat="52.479158" lon="17.282311"></trkpt><trkpt lat="52.478995" lon="17.282699"></trkpt><trkpt lat="52.478859" lon="17.283109"></trkpt><trkpt lat="52.477265" lon="17.286989"></trkpt><trkpt lat="52.476934" lon="17.287084"></trkpt><trkpt lat="52.476858" lon="17.287518"></trkpt><trkpt lat="52.476866" lon="17.287968"></trkpt><trkpt lat="52.47681" lon="17.288762"></trkpt><trkpt lat="52.476531" lon="17.288667"></trkpt><trkpt lat="52.47639" lon="17.289069"></trkpt><trkpt lat="52.476206" lon="17.289484"></trkpt><trkpt lat="52.476134" lon="17.290005"></trkpt><trkpt lat="52.476107" lon="17.290505"></trkpt><trkpt lat="52.47602" lon="17.290932"></trkpt><trkpt lat="52.475883" lon="17.291315"></trkpt><trkpt lat="52.476164" lon="17.291553"></trkpt><trkpt lat="52.476025" lon="17.291976"></trkpt><trkpt lat="52.475708" lon="17.292357"></trkpt><trkpt lat="52.4735" lon="17.294451"></trkpt><trkpt lat="52.473188" lon="17.294476"></trkpt><trkpt lat="52.472876" lon="17.294588"></trkpt><trkpt lat="52.472606" lon="17.294857"></trkpt><trkpt lat="52.472345" lon="17.295053"></trkpt><trkpt lat="52.472088" lon="17.295409"></trkpt><trkpt lat="52.471869" lon="17.295793"></trkpt><trkpt lat="52.47171" lon="17.296165"></trkpt><trkpt lat="52.47146" lon="17.296499"></trkpt><trkpt lat="52.470643" lon="17.297379"></trkpt><trkpt lat="52.470292" lon="17.297648"></trkpt><trkpt lat="52.469991" lon="17.297825"></trkpt><trkpt lat="52.46874" lon="17.298785"></trkpt><trkpt lat="52.46898" lon="17.298526"></trkpt><trkpt lat="52.469324" lon="17.298313"></trkpt><trkpt lat="52.469568" lon="17.298093"></trkpt><trkpt lat="52.46985" lon="17.297892"></trkpt><trkpt lat="52.471374" lon="17.296514"></trkpt><trkpt lat="52.471647" lon="17.296136"></trkpt><trkpt lat="52.471806" lon="17.295776"></trkpt><trkpt lat="52.472072" lon="17.295382"></trkpt><trkpt lat="52.472393" lon="17.295021"></trkpt><trkpt lat="52.47296" lon="17.29451"></trkpt><trkpt lat="52.47323" lon="17.294391"></trkpt><trkpt lat="52.47354" lon="17.294359"></trkpt><trkpt lat="52.473956" lon="17.294222"></trkpt><trkpt lat="52.474249" lon="17.293909"></trkpt><trkpt lat="52.476348" lon="17.291074"></trkpt><trkpt lat="52.476513" lon="17.290618"></trkpt><trkpt lat="52.476602" lon="17.29016"></trkpt><trkpt lat="52.476691" lon="17.289479"></trkpt><trkpt lat="52.476671" lon="17.289013"></trkpt><trkpt lat="52.476777" lon="17.288458"></trkpt><trkpt lat="52.476908" lon="17.288051"></trkpt><trkpt lat="52.477143" lon="17.287731"></trkpt><trkpt lat="52.477338" lon="17.287356"></trkpt><trkpt lat="52.477625" lon="17.286918"></trkpt><trkpt lat="52.477809" lon="17.286512"></trkpt><trkpt lat="52.477923" lon="17.286105"></trkpt><trkpt lat="52.478" lon="17.285674"></trkpt><trkpt lat="52.47773" lon="17.285368"></trkpt><trkpt lat="52.478052" lon="17.28554"></trkpt><trkpt lat="52.478279" lon="17.285295"></trkpt><trkpt lat="52.478407" lon="17.284858"></trkpt><trkpt lat="52.478491" lon="17.284402"></trkpt><trkpt lat="52.478609" lon="17.283981"></trkpt><trkpt lat="52.47913" lon="17.28253"></trkpt><trkpt lat="52.479309" lon="17.281883"></trkpt><trkpt lat="52.479411" lon="17.281335"></trkpt><trkpt lat="52.479398" lon="17.280829"></trkpt><trkpt lat="52.479263" lon="17.280355"></trkpt><trkpt lat="52.4792" lon="17.279861"></trkpt><trkpt lat="52.478977" lon="17.278452"></trkpt></trkseg></trk></gpx>