<?xml version="1.0" encoding="UTF-8" standalone="no" ?><gpx xmlns="http://www.topografix.com/GPX/1/1" xmlns:gpxx="http://www.garmin.com/xmlschemas/GpxExtensions/v3" ><trk><trkseg><trkpt lat="52.320744" lon="16.639615"></trkpt><trkpt lat="52.320406" lon="16.639716"></trkpt><trkpt lat="52.320634" lon="16.639335"></trkpt><trkpt lat="52.320386" lon="16.639019"></trkpt><trkpt lat="52.320147" lon="16.638802"></trkpt><trkpt lat="52.319824" lon="16.6387"></trkpt><trkpt lat="52.319526" lon="16.638713"></trkpt><trkpt lat="52.319258" lon="16.638232"></trkpt><trkpt lat="52.3192" lon="16.637784"></trkpt><trkpt lat="52.319019" lon="16.637424"></trkpt><trkpt lat="52.318887" lon="16.637037"></trkpt><trkpt lat="52.318795" lon="16.636611"></trkpt><trkpt lat="52.318831" lon="16.636075"></trkpt><trkpt lat="52.318987" lon="16.635691"></trkpt><trkpt lat="52.319056" lon="16.63526"></trkpt><trkpt lat="52.319255" lon="16.634857"></trkpt><trkpt lat="52.319441" lon="16.634397"></trkpt><trkpt lat="52.319674" lon="16.634123"></trkpt><trkpt lat="52.319836" lon="16.633704"></trkpt><trkpt lat="52.32005" lon="16.633348"></trkpt><trkpt lat="52.320262" lon="16.632899"></trkpt><trkpt lat="52.320503" lon="16.63269"></trkpt><trkpt lat="52.321133" lon="16.632283"></trkpt><trkpt lat="52.320948" lon="16.632606"></trkpt><trkpt lat="52.32071" lon="16.632842"></trkpt><trkpt lat="52.319641" lon="16.634166"></trkpt><trkpt lat="52.319359" lon="16.634607"></trkpt><trkpt lat="52.319178" lon="16.634957"></trkpt><trkpt lat="52.318947" lon="16.635587"></trkpt><trkpt lat="52.318849" lon="16.636083"></trkpt><trkpt lat="52.318807" lon="16.636547"></trkpt><trkpt lat="52.318892" lon="16.636975"></trkpt><trkpt lat="52.319072" lon="16.637336"></trkpt><trkpt lat="52.319209" lon="16.637763"></trkpt><trkpt lat="52.31931" lon="16.638173"></trkpt><trkpt lat="52.319537" lon="16.638668"></trkpt><trkpt lat="52.319868" lon="16.638671"></trkpt><trkpt lat="52.320159" lon="16.638784"></trkpt><trkpt lat="52.320473" lon="16.638957"></trkpt><trkpt lat="52.32065" lon="16.639478"></trkpt></trkseg></trk></gpx>