<?xml version="1.0" encoding="UTF-8" standalone="no" ?><gpx xmlns="http://www.topografix.com/GPX/1/1" xmlns:gpxx="http://www.garmin.com/xmlschemas/GpxExtensions/v3" ><trk><trkseg><trkpt lat="52.444932" lon="15.593896"></trkpt><trkpt lat="52.445076" lon="15.593652"></trkpt><trkpt lat="52.4452" lon="15.593378"></trkpt><trkpt lat="52.445039" lon="15.593177"></trkpt><trkpt lat="52.44485" lon="15.593055"></trkpt><trkpt lat="52.444841" lon="15.592717"></trkpt><trkpt lat="52.444736" lon="15.592379"></trkpt><trkpt lat="52.444588" lon="15.592111"></trkpt><trkpt lat="52.44451" lon="15.591799"></trkpt><trkpt lat="52.44448" lon="15.591445"></trkpt><trkpt lat="52.444318" lon="15.587454"></trkpt><trkpt lat="52.444433" lon="15.587135"></trkpt><trkpt lat="52.444701" lon="15.586257"></trkpt><trkpt lat="52.445127" lon="15.584485"></trkpt><trkpt lat="52.445253" lon="15.584068"></trkpt><trkpt lat="52.446041" lon="15.580891"></trkpt><trkpt lat="52.446058" lon="15.580524"></trkpt><trkpt lat="52.446051" lon="15.580071"></trkpt><trkpt lat="52.445939" lon="15.579756"></trkpt><trkpt lat="52.445777" lon="15.579494"></trkpt><trkpt lat="52.445634" lon="15.579168"></trkpt><trkpt lat="52.445691" lon="15.578832"></trkpt><trkpt lat="52.445819" lon="15.578562"></trkpt><trkpt lat="52.446044" lon="15.578582"></trkpt><trkpt lat="52.460161" lon="15.58147"></trkpt><trkpt lat="52.46038" lon="15.581639"></trkpt><trkpt lat="52.484187" lon="15.599252"></trkpt><trkpt lat="52.497819" lon="15.611288"></trkpt><trkpt lat="52.509529" lon="15.623485"></trkpt><trkpt lat="52.509606" lon="15.623806"></trkpt><trkpt lat="52.509688" lon="15.624243"></trkpt><trkpt lat="52.509779" lon="15.624888"></trkpt><trkpt lat="52.510121" lon="15.626716"></trkpt><trkpt lat="52.510282" lon="15.626997"></trkpt><trkpt lat="52.51049" lon="15.627226"></trkpt><trkpt lat="52.510708" lon="15.627431"></trkpt><trkpt lat="52.51088" lon="15.627636"></trkpt><trkpt lat="52.511006" lon="15.627896"></trkpt><trkpt lat="52.51112" lon="15.628177"></trkpt><trkpt lat="52.511261" lon="15.628584"></trkpt><trkpt lat="52.513129" lon="15.633162"></trkpt><trkpt lat="52.5133" lon="15.633377"></trkpt><trkpt lat="52.521045" lon="15.644617"></trkpt><trkpt lat="52.521216" lon="15.644939"></trkpt><trkpt lat="52.523167" lon="15.648128"></trkpt><trkpt lat="52.523357" lon="15.648376"></trkpt><trkpt lat="52.523634" lon="15.648684"></trkpt><trkpt lat="52.525352" lon="15.650308"></trkpt><trkpt lat="52.525586" lon="15.65047"></trkpt><trkpt lat="52.529809" lon="15.654009"></trkpt><trkpt lat="52.529926" lon="15.654359"></trkpt><trkpt lat="52.530009" lon="15.654672"></trkpt><trkpt lat="52.537841" lon="15.679335"></trkpt><trkpt lat="52.537989" lon="15.679674"></trkpt><trkpt lat="52.545239" lon="15.699091"></trkpt><trkpt lat="52.545222" lon="15.699469"></trkpt><trkpt lat="52.545233" lon="15.699843"></trkpt><trkpt lat="52.54522" lon="15.700782"></trkpt><trkpt lat="52.54548" lon="15.708188"></trkpt><trkpt lat="52.545685" lon="15.70827"></trkpt><trkpt lat="52.545881" lon="15.708384"></trkpt><trkpt lat="52.546058" lon="15.70854"></trkpt><trkpt lat="52.546588" lon="15.709097"></trkpt><trkpt lat="52.54679" lon="15.709362"></trkpt><trkpt lat="52.546972" lon="15.709666"></trkpt><trkpt lat="52.547138" lon="15.709986"></trkpt><trkpt lat="52.547327" lon="15.710409"></trkpt><trkpt lat="52.547557" lon="15.711012"></trkpt><trkpt lat="52.552668" lon="15.722536"></trkpt><trkpt lat="52.552899" lon="15.722702"></trkpt><trkpt lat="52.576611" lon="15.740667"></trkpt><trkpt lat="52.576792" lon="15.740964"></trkpt><trkpt lat="52.577024" lon="15.741255"></trkpt><trkpt lat="52.577274" lon="15.741173"></trkpt><trkpt lat="52.577523" lon="15.741059"></trkpt><trkpt lat="52.580794" lon="15.739994"></trkpt><trkpt lat="52.58087" lon="15.740334"></trkpt><trkpt lat="52.580993" lon="15.740634"></trkpt><trkpt lat="52.581116" lon="15.740989"></trkpt><trkpt lat="52.581267" lon="15.741355"></trkpt><trkpt lat="52.581376" lon="15.74167"></trkpt><trkpt lat="52.582021" lon="15.74388"></trkpt><trkpt lat="52.582104" lon="15.744252"></trkpt><trkpt lat="52.582749" lon="15.747969"></trkpt><trkpt lat="52.582751" lon="15.748303"></trkpt><trkpt lat="52.582735" lon="15.748635"></trkpt><trkpt lat="52.582644" lon="15.765856"></trkpt><trkpt lat="52.582744" lon="15.76618"></trkpt><trkpt lat="52.58463" lon="15.771358"></trkpt><trkpt lat="52.585288" lon="15.772907"></trkpt><trkpt lat="52.585303" lon="15.773282"></trkpt><trkpt lat="52.587123" lon="15.795143"></trkpt><trkpt lat="52.587252" lon="15.795394"></trkpt><trkpt lat="52.587593" lon="15.796172"></trkpt><trkpt lat="52.587702" lon="15.796476"></trkpt><trkpt lat="52.587725" lon="15.796846"></trkpt><trkpt lat="52.587641" lon="15.797175"></trkpt><trkpt lat="52.587383" lon="15.797997"></trkpt><trkpt lat="52.58721" lon="15.798213"></trkpt><trkpt lat="52.587005" lon="15.798389"></trkpt><trkpt lat="52.586306" lon="15.798882"></trkpt><trkpt lat="52.585981" lon="15.799167"></trkpt><trkpt lat="52.585924" lon="15.799488"></trkpt><trkpt lat="52.58589" lon="15.799826"></trkpt><trkpt lat="52.585715" lon="15.802893"></trkpt><trkpt lat="52.58594" lon="15.802879"></trkpt><trkpt lat="52.586868" lon="15.803052"></trkpt><trkpt lat="52.58708" lon="15.803178"></trkpt><trkpt lat="52.587306" lon="15.803231"></trkpt><trkpt lat="52.588742" lon="15.803739"></trkpt><trkpt lat="52.588983" lon="15.803793"></trkpt><trkpt lat="52.589348" lon="15.803918"></trkpt><trkpt lat="52.589555" lon="15.804015"></trkpt><trkpt lat="52.591087" lon="15.804954"></trkpt><trkpt lat="52.591275" lon="15.805213"></trkpt><trkpt lat="52.591462" lon="15.80538"></trkpt><trkpt lat="52.592347" lon="15.806315"></trkpt><trkpt lat="52.592503" lon="15.806539"></trkpt><trkpt lat="52.593219" lon="15.807733"></trkpt><trkpt lat="52.593312" lon="15.808038"></trkpt><trkpt lat="52.593441" lon="15.808375"></trkpt><trkpt lat="52.594491" lon="15.810726"></trkpt><trkpt lat="52.594717" lon="15.810935"></trkpt><trkpt lat="52.595176" lon="15.811292"></trkpt><trkpt lat="52.595497" lon="15.811615"></trkpt><trkpt lat="52.595658" lon="15.811942"></trkpt><trkpt lat="52.595779" lon="15.812277"></trkpt><trkpt lat="52.596204" lon="15.813283"></trkpt><trkpt lat="52.596345" lon="15.813528"></trkpt><trkpt lat="52.596427" lon="15.813841"></trkpt><trkpt lat="52.59646" lon="15.814176"></trkpt><trkpt lat="52.596548" lon="15.815963"></trkpt><trkpt lat="52.596533" lon="15.816321"></trkpt><trkpt lat="52.596534" lon="15.816665"></trkpt><trkpt lat="52.596609" lon="15.817013"></trkpt><trkpt lat="52.596664" lon="15.817354"></trkpt><trkpt lat="52.596812" lon="15.818633"></trkpt><trkpt lat="52.597388" lon="15.822159"></trkpt><trkpt lat="52.597465" lon="15.82247"></trkpt><trkpt lat="52.597593" lon="15.82278"></trkpt><trkpt lat="52.597707" lon="15.823114"></trkpt><trkpt lat="52.597798" lon="15.823451"></trkpt><trkpt lat="52.598058" lon="15.824207"></trkpt><trkpt lat="52.598207" lon="15.824497"></trkpt><trkpt lat="52.598376" lon="15.824725"></trkpt><trkpt lat="52.598572" lon="15.824944"></trkpt><trkpt lat="52.600187" lon="15.826481"></trkpt><trkpt lat="52.600395" lon="15.826526"></trkpt><trkpt lat="52.603814" lon="15.826866"></trkpt><trkpt lat="52.604034" lon="15.826764"></trkpt><trkpt lat="52.604361" lon="15.826653"></trkpt><trkpt lat="52.604583" lon="15.826643"></trkpt><trkpt lat="52.606835" lon="15.827028"></trkpt><trkpt lat="52.606989" lon="15.827239"></trkpt><trkpt lat="52.607129" lon="15.82753"></trkpt><trkpt lat="52.60751" lon="15.828469"></trkpt><trkpt lat="52.607551" lon="15.828837"></trkpt><trkpt lat="52.607734" lon="15.829067"></trkpt><trkpt lat="52.607927" lon="15.82923"></trkpt><trkpt lat="52.608552" lon="15.829864"></trkpt><trkpt lat="52.608701" lon="15.830132"></trkpt><trkpt lat="52.608833" lon="15.830461"></trkpt><trkpt lat="52.608921" lon="15.830804"></trkpt><trkpt lat="52.608981" lon="15.831157"></trkpt><trkpt lat="52.608985" lon="15.831527"></trkpt><trkpt lat="52.608938" lon="15.832924"></trkpt><trkpt lat="52.608882" lon="15.833274"></trkpt><trkpt lat="52.608811" lon="15.833596"></trkpt><trkpt lat="52.608626" lon="15.834281"></trkpt><trkpt lat="52.608501" lon="15.834603"></trkpt><trkpt lat="52.608268" lon="15.835109"></trkpt><trkpt lat="52.6081" lon="15.835335"></trkpt><trkpt lat="52.607889" lon="15.835579"></trkpt><trkpt lat="52.607705" lon="15.835752"></trkpt><trkpt lat="52.607473" lon="15.835891"></trkpt><trkpt lat="52.606635" lon="15.836281"></trkpt><trkpt lat="52.606419" lon="15.836344"></trkpt><trkpt lat="52.603639" lon="15.837493"></trkpt><trkpt lat="52.603429" lon="15.83768"></trkpt><trkpt lat="52.603221" lon="15.8378"></trkpt><trkpt lat="52.602773" lon="15.838159"></trkpt><trkpt lat="52.602712" lon="15.838476"></trkpt><trkpt lat="52.60276" lon="15.838892"></trkpt><trkpt lat="52.603034" lon="15.840598"></trkpt><trkpt lat="52.603118" lon="15.840973"></trkpt><trkpt lat="52.603076" lon="15.841302"></trkpt><trkpt lat="52.602878" lon="15.841495"></trkpt><trkpt lat="52.602586" lon="15.841833"></trkpt><trkpt lat="52.602436" lon="15.84206"></trkpt><trkpt lat="52.60231" lon="15.842322"></trkpt><trkpt lat="52.602217" lon="15.84266"></trkpt><trkpt lat="52.602161" lon="15.843036"></trkpt><trkpt lat="52.602123" lon="15.843404"></trkpt><trkpt lat="52.601329" lon="15.848693"></trkpt><trkpt lat="52.601192" lon="15.849008"></trkpt><trkpt lat="52.60024" lon="15.850887"></trkpt><trkpt lat="52.600082" lon="15.851116"></trkpt><trkpt lat="52.599943" lon="15.851355"></trkpt><trkpt lat="52.599815" lon="15.851621"></trkpt><trkpt lat="52.599411" lon="15.852348"></trkpt><trkpt lat="52.59923" lon="15.852611"></trkpt><trkpt lat="52.59904" lon="15.852834"></trkpt><trkpt lat="52.59884" lon="15.853032"></trkpt><trkpt lat="52.598381" lon="15.853566"></trkpt><trkpt lat="52.598254" lon="15.853826"></trkpt><trkpt lat="52.598071" lon="15.853951"></trkpt><trkpt lat="52.598189" lon="15.854222"></trkpt><trkpt lat="52.598374" lon="15.854719"></trkpt><trkpt lat="52.59865" lon="15.855639"></trkpt><trkpt lat="52.598676" lon="15.856041"></trkpt><trkpt lat="52.598655" lon="15.856386"></trkpt><trkpt lat="52.598648" lon="15.857256"></trkpt><trkpt lat="52.598667" lon="15.857807"></trkpt><trkpt lat="52.598653" lon="15.859472"></trkpt><trkpt lat="52.598589" lon="15.859868"></trkpt><trkpt lat="52.598349" lon="15.862005"></trkpt><trkpt lat="52.598371" lon="15.862399"></trkpt><trkpt lat="52.59843" lon="15.862797"></trkpt><trkpt lat="52.598623" lon="15.86377"></trkpt><trkpt lat="52.598761" lon="15.86468"></trkpt><trkpt lat="52.598785" lon="15.865152"></trkpt><trkpt lat="52.598774" lon="15.865627"></trkpt><trkpt lat="52.598808" lon="15.86697"></trkpt><trkpt lat="52.598848" lon="15.86739"></trkpt><trkpt lat="52.598827" lon="15.867785"></trkpt><trkpt lat="52.598795" lon="15.871198"></trkpt><trkpt lat="52.598811" lon="15.871568"></trkpt><trkpt lat="52.598818" lon="15.881934"></trkpt><trkpt lat="52.598797" lon="15.882336"></trkpt><trkpt lat="52.59889" lon="15.882731"></trkpt><trkpt lat="52.59902" lon="15.882986"></trkpt><trkpt lat="52.601633" lon="15.888939"></trkpt><trkpt lat="52.601484" lon="15.889163"></trkpt><trkpt lat="52.601067" lon="15.889957"></trkpt><trkpt lat="52.601225" lon="15.890217"></trkpt><trkpt lat="52.601438" lon="15.890505"></trkpt><trkpt lat="52.601603" lon="15.890686"></trkpt><trkpt lat="52.601757" lon="15.890984"></trkpt><trkpt lat="52.602045" lon="15.891444"></trkpt><trkpt lat="52.60223" lon="15.891672"></trkpt><trkpt lat="52.602416" lon="15.891865"></trkpt><trkpt lat="52.602633" lon="15.891952"></trkpt><trkpt lat="52.60288" lon="15.892001"></trkpt><trkpt lat="52.603042" lon="15.891813"></trkpt><trkpt lat="52.602887" lon="15.892022"></trkpt><trkpt lat="52.603004" lon="15.892369"></trkpt><trkpt lat="52.603135" lon="15.892666"></trkpt><trkpt lat="52.603297" lon="15.89286"></trkpt><trkpt lat="52.603453" lon="15.89315"></trkpt><trkpt lat="52.6036" lon="15.893467"></trkpt><trkpt lat="52.603773" lon="15.893904"></trkpt><trkpt lat="52.604265" lon="15.895421"></trkpt><trkpt lat="52.604268" lon="15.895827"></trkpt><trkpt lat="52.604241" lon="15.89621"></trkpt><trkpt lat="52.604239" lon="15.89658"></trkpt><trkpt lat="52.604285" lon="15.896942"></trkpt><trkpt lat="52.604356" lon="15.89726"></trkpt><trkpt lat="52.604468" lon="15.897542"></trkpt><trkpt lat="52.6046" lon="15.897799"></trkpt><trkpt lat="52.604773" lon="15.897967"></trkpt><trkpt lat="52.604869" lon="15.898283"></trkpt><trkpt lat="52.604911" lon="15.898609"></trkpt><trkpt lat="52.604902" lon="15.898945"></trkpt><trkpt lat="52.60483" lon="15.899297"></trkpt><trkpt lat="52.604907" lon="15.899671"></trkpt><trkpt lat="52.605076" lon="15.899934"></trkpt><trkpt lat="52.605409" lon="15.900574"></trkpt><trkpt lat="52.605465" lon="15.900898"></trkpt><trkpt lat="52.60558" lon="15.901419"></trkpt><trkpt lat="52.605672" lon="15.901727"></trkpt><trkpt lat="52.605816" lon="15.902131"></trkpt><trkpt lat="52.606009" lon="15.902589"></trkpt><trkpt lat="52.606142" lon="15.902832"></trkpt><trkpt lat="52.606325" lon="15.903246"></trkpt><trkpt lat="52.606343" lon="15.903628"></trkpt><trkpt lat="52.606343" lon="15.90464"></trkpt><trkpt lat="52.606296" lon="15.905012"></trkpt><trkpt lat="52.605257" lon="15.917662"></trkpt><trkpt lat="52.605315" lon="15.918026"></trkpt><trkpt lat="52.606075" lon="15.921703"></trkpt><trkpt lat="52.606178" lon="15.922028"></trkpt><trkpt lat="52.606345" lon="15.922467"></trkpt><trkpt lat="52.606489" lon="15.922747"></trkpt><trkpt lat="52.606685" lon="15.923075"></trkpt><trkpt lat="52.61122" lon="15.931809"></trkpt><trkpt lat="52.611337" lon="15.932111"></trkpt><trkpt lat="52.613417" lon="15.938426"></trkpt><trkpt lat="52.613414" lon="15.9388"></trkpt><trkpt lat="52.613434" lon="15.939208"></trkpt><trkpt lat="52.613674" lon="15.941743"></trkpt><trkpt lat="52.61376" lon="15.942049"></trkpt><trkpt lat="52.615456" lon="15.947087"></trkpt><trkpt lat="52.615639" lon="15.947401"></trkpt><trkpt lat="52.624678" lon="15.960887"></trkpt><trkpt lat="52.624898" lon="15.961039"></trkpt><trkpt lat="52.627534" lon="15.963234"></trkpt><trkpt lat="52.62773" lon="15.963496"></trkpt><trkpt lat="52.632645" lon="15.969151"></trkpt><trkpt lat="52.632887" lon="15.969194"></trkpt><trkpt lat="52.633065" lon="15.968948"></trkpt><trkpt lat="52.633155" lon="15.968545"></trkpt><trkpt lat="52.633521" lon="15.96729"></trkpt><trkpt lat="52.633717" lon="15.967101"></trkpt><trkpt lat="52.633919" lon="15.967021"></trkpt><trkpt lat="52.634149" lon="15.967011"></trkpt><trkpt lat="52.634353" lon="15.966843"></trkpt><trkpt lat="52.634698" lon="15.967179"></trkpt><trkpt lat="52.635141" lon="15.967526"></trkpt><trkpt lat="52.635418" lon="15.967522"></trkpt><trkpt lat="52.635634" lon="15.967553"></trkpt><trkpt lat="52.635834" lon="15.96765"></trkpt><trkpt lat="52.636015" lon="15.967786"></trkpt><trkpt lat="52.636494" lon="15.968223"></trkpt><trkpt lat="52.636627" lon="15.968558"></trkpt><trkpt lat="52.636722" lon="15.968874"></trkpt><trkpt lat="52.636911" lon="15.969391"></trkpt><trkpt lat="52.637103" lon="15.969473"></trkpt><trkpt lat="52.637392" lon="15.969385"></trkpt><trkpt lat="52.637591" lon="15.969393"></trkpt><trkpt lat="52.638239" lon="15.969496"></trkpt><trkpt lat="52.63894" lon="15.969718"></trkpt><trkpt lat="52.639062" lon="15.970018"></trkpt><trkpt lat="52.639963" lon="15.972647"></trkpt><trkpt lat="52.640001" lon="15.97297"></trkpt><trkpt lat="52.640127" lon="15.974685"></trkpt><trkpt lat="52.640233" lon="15.978345"></trkpt><trkpt lat="52.640193" lon="15.978741"></trkpt><trkpt lat="52.639074" lon="15.998427"></trkpt><trkpt lat="52.639162" lon="15.998765"></trkpt><trkpt lat="52.63928" lon="15.999334"></trkpt><trkpt lat="52.63932" lon="15.999735"></trkpt><trkpt lat="52.640009" lon="16.012494"></trkpt><trkpt lat="52.639855" lon="16.012812"></trkpt><trkpt lat="52.639686" lon="16.013098"></trkpt><trkpt lat="52.639542" lon="16.013415"></trkpt><trkpt lat="52.639494" lon="16.013787"></trkpt><trkpt lat="52.639511" lon="16.014137"></trkpt><trkpt lat="52.639565" lon="16.014469"></trkpt><trkpt lat="52.642302" lon="16.027541"></trkpt><trkpt lat="52.642405" lon="16.027872"></trkpt><trkpt lat="52.645053" lon="16.035004"></trkpt><trkpt lat="52.645315" lon="16.035038"></trkpt><trkpt lat="52.645541" lon="16.035036"></trkpt><trkpt lat="52.646747" lon="16.035198"></trkpt><trkpt lat="52.646961" lon="16.035331"></trkpt><trkpt lat="52.655615" lon="16.041895"></trkpt><trkpt lat="52.655747" lon="16.042156"></trkpt><trkpt lat="52.655913" lon="16.042399"></trkpt><trkpt lat="52.656083" lon="16.042604"></trkpt><trkpt lat="52.657298" lon="16.044329"></trkpt><trkpt lat="52.657373" lon="16.04466"></trkpt><trkpt lat="52.657421" lon="16.04503"></trkpt><trkpt lat="52.657445" lon="16.045414"></trkpt><trkpt lat="52.65849" lon="16.055283"></trkpt><trkpt lat="52.658581" lon="16.055638"></trkpt><trkpt lat="52.659796" lon="16.061487"></trkpt><trkpt lat="52.659819" lon="16.061916"></trkpt><trkpt lat="52.660083" lon="16.064403"></trkpt><trkpt lat="52.660319" lon="16.064415"></trkpt><trkpt lat="52.664115" lon="16.065136"></trkpt><trkpt lat="52.664137" lon="16.065527"></trkpt><trkpt lat="52.664199" lon="16.066119"></trkpt><trkpt lat="52.664298" lon="16.066744"></trkpt><trkpt lat="52.664323" lon="16.067219"></trkpt><trkpt lat="52.664284" lon="16.06768"></trkpt><trkpt lat="52.664196" lon="16.068095"></trkpt><trkpt lat="52.66404" lon="16.068423"></trkpt><trkpt lat="52.663872" lon="16.068726"></trkpt><trkpt lat="52.662897" lon="16.070791"></trkpt><trkpt lat="52.662832" lon="16.071142"></trkpt><trkpt lat="52.662721" lon="16.0716"></trkpt><trkpt lat="52.66257" lon="16.071886"></trkpt><trkpt lat="52.66238" lon="16.072126"></trkpt><trkpt lat="52.659087" lon="16.075688"></trkpt><trkpt lat="52.658886" lon="16.075765"></trkpt><trkpt lat="52.657232" lon="16.076604"></trkpt><trkpt lat="52.65702" lon="16.076794"></trkpt><trkpt lat="52.656388" lon="16.07749"></trkpt><trkpt lat="52.656333" lon="16.077877"></trkpt><trkpt lat="52.656372" lon="16.078234"></trkpt><trkpt lat="52.656645" lon="16.079959"></trkpt><trkpt lat="52.656749" lon="16.080324"></trkpt><trkpt lat="52.657012" lon="16.081474"></trkpt><trkpt lat="52.656971" lon="16.0818"></trkpt><trkpt lat="52.657188" lon="16.081883"></trkpt><trkpt lat="52.657407" lon="16.081901"></trkpt><trkpt lat="52.658207" lon="16.082071"></trkpt><trkpt lat="52.658196" lon="16.082425"></trkpt><trkpt lat="52.658232" lon="16.085439"></trkpt><trkpt lat="52.658303" lon="16.085792"></trkpt><trkpt lat="52.658851" lon="16.087982"></trkpt><trkpt lat="52.658991" lon="16.088317"></trkpt><trkpt lat="52.659293" lon="16.088926"></trkpt><trkpt lat="52.659461" lon="16.089187"></trkpt><trkpt lat="52.659648" lon="16.089429"></trkpt><trkpt lat="52.659861" lon="16.089662"></trkpt><trkpt lat="52.661527" lon="16.091791"></trkpt><trkpt lat="52.661667" lon="16.092057"></trkpt><trkpt lat="52.662218" lon="16.093267"></trkpt><trkpt lat="52.662329" lon="16.093551"></trkpt><trkpt lat="52.662511" lon="16.093931"></trkpt><trkpt lat="52.662673" lon="16.094175"></trkpt><trkpt lat="52.662859" lon="16.094391"></trkpt><trkpt lat="52.663062" lon="16.094585"></trkpt><trkpt lat="52.663784" lon="16.095404"></trkpt><trkpt lat="52.663918" lon="16.095714"></trkpt><trkpt lat="52.664015" lon="16.09606"></trkpt><trkpt lat="52.664086" lon="16.096413"></trkpt><trkpt lat="52.664347" lon="16.097431"></trkpt><trkpt lat="52.664473" lon="16.097714"></trkpt><trkpt lat="52.664633" lon="16.097967"></trkpt><trkpt lat="52.664808" lon="16.098159"></trkpt><trkpt lat="52.665001" lon="16.098298"></trkpt><trkpt lat="52.6652" lon="16.098372"></trkpt><trkpt lat="52.665404" lon="16.098367"></trkpt><trkpt lat="52.66565" lon="16.098282"></trkpt><trkpt lat="52.665878" lon="16.098163"></trkpt><trkpt lat="52.677302" lon="16.093626"></trkpt><trkpt lat="52.677548" lon="16.093585"></trkpt><trkpt lat="52.688632" lon="16.09303"></trkpt><trkpt lat="52.688858" lon="16.093193"></trkpt><trkpt lat="52.693495" lon="16.097215"></trkpt><trkpt lat="52.693668" lon="16.097434"></trkpt><trkpt lat="52.694513" lon="16.098347"></trkpt><trkpt lat="52.694724" lon="16.098519"></trkpt><trkpt lat="52.696903" lon="16.099979"></trkpt><trkpt lat="52.697105" lon="16.100024"></trkpt><trkpt lat="52.697564" lon="16.100066"></trkpt><trkpt lat="52.705475" lon="16.101782"></trkpt><trkpt lat="52.70548" lon="16.102169"></trkpt><trkpt lat="52.705864" lon="16.108999"></trkpt><trkpt lat="52.705923" lon="16.109355"></trkpt><trkpt lat="52.707285" lon="16.115744"></trkpt><trkpt lat="52.707418" lon="16.116055"></trkpt><trkpt lat="52.708024" lon="16.117711"></trkpt><trkpt lat="52.70808" lon="16.118061"></trkpt><trkpt lat="52.712035" lon="16.137224"></trkpt><trkpt lat="52.712167" lon="16.137558"></trkpt><trkpt lat="52.712275" lon="16.137918"></trkpt><trkpt lat="52.712333" lon="16.1383"></trkpt><trkpt lat="52.712387" lon="16.138818"></trkpt><trkpt lat="52.712453" lon="16.139911"></trkpt><trkpt lat="52.712456" lon="16.140287"></trkpt><trkpt lat="52.712434" lon="16.140853"></trkpt><trkpt lat="52.71239" lon="16.141207"></trkpt><trkpt lat="52.712215" lon="16.142183"></trkpt><trkpt lat="52.712189" lon="16.142545"></trkpt><trkpt lat="52.712169" lon="16.143312"></trkpt><trkpt lat="52.712177" lon="16.143679"></trkpt><trkpt lat="52.712156" lon="16.14401"></trkpt><trkpt lat="52.712092" lon="16.144329"></trkpt><trkpt lat="52.711855" lon="16.145919"></trkpt><trkpt lat="52.711868" lon="16.14625"></trkpt><trkpt lat="52.711909" lon="16.146604"></trkpt><trkpt lat="52.712052" lon="16.147488"></trkpt><trkpt lat="52.714098" lon="16.164956"></trkpt><trkpt lat="52.714189" lon="16.166241"></trkpt><trkpt lat="52.714163" lon="16.166591"></trkpt><trkpt lat="52.714086" lon="16.16723"></trkpt><trkpt lat="52.714019" lon="16.167633"></trkpt><trkpt lat="52.713749" lon="16.169921"></trkpt><trkpt lat="52.713772" lon="16.170303"></trkpt><trkpt lat="52.713814" lon="16.170627"></trkpt><trkpt lat="52.713886" lon="16.170966"></trkpt><trkpt lat="52.717958" lon="16.195557"></trkpt><trkpt lat="52.717936" lon="16.195905"></trkpt><trkpt lat="52.717896" lon="16.198237"></trkpt><trkpt lat="52.717913" lon="16.198584"></trkpt><trkpt lat="52.718228" lon="16.201983"></trkpt><trkpt lat="52.718307" lon="16.202336"></trkpt><trkpt lat="52.72013" lon="16.208978"></trkpt><trkpt lat="52.720292" lon="16.209221"></trkpt><trkpt lat="52.720484" lon="16.209442"></trkpt><trkpt lat="52.722652" lon="16.212337"></trkpt><trkpt lat="52.722768" lon="16.212658"></trkpt><trkpt lat="52.722924" lon="16.212969"></trkpt><trkpt lat="52.725207" lon="16.21692"></trkpt><trkpt lat="52.725378" lon="16.217155"></trkpt><trkpt lat="52.72547" lon="16.217451"></trkpt><trkpt lat="52.725595" lon="16.217752"></trkpt><trkpt lat="52.725693" lon="16.218111"></trkpt><trkpt lat="52.725797" lon="16.21843"></trkpt><trkpt lat="52.725931" lon="16.218706"></trkpt><trkpt lat="52.726037" lon="16.219042"></trkpt><trkpt lat="52.726194" lon="16.219334"></trkpt><trkpt lat="52.727064" lon="16.220733"></trkpt><trkpt lat="52.727262" lon="16.220982"></trkpt><trkpt lat="52.727593" lon="16.221465"></trkpt><trkpt lat="52.730194" lon="16.22474"></trkpt><trkpt lat="52.730388" lon="16.224914"></trkpt><trkpt lat="52.734528" lon="16.228014"></trkpt><trkpt lat="52.734729" lon="16.228104"></trkpt><trkpt lat="52.736421" lon="16.228643"></trkpt><trkpt lat="52.736668" lon="16.228647"></trkpt><trkpt lat="52.736868" lon="16.228681"></trkpt><trkpt lat="52.737648" lon="16.228909"></trkpt><trkpt lat="52.737829" lon="16.22906"></trkpt><trkpt lat="52.738028" lon="16.229313"></trkpt><trkpt lat="52.738167" lon="16.229554"></trkpt><trkpt lat="52.738293" lon="16.229885"></trkpt><trkpt lat="52.73838" lon="16.230186"></trkpt><trkpt lat="52.738533" lon="16.230852"></trkpt><trkpt lat="52.746059" lon="16.272112"></trkpt><trkpt lat="52.746042" lon="16.272518"></trkpt><trkpt lat="52.745912" lon="16.273768"></trkpt><trkpt lat="52.741643" lon="16.276742"></trkpt></trkseg></trk></gpx>