<?xml version="1.0" encoding="UTF-8" standalone="no" ?><gpx xmlns="http://www.topografix.com/GPX/1/1" xmlns:gpxx="http://www.garmin.com/xmlschemas/GpxExtensions/v3" ><trk><trkseg><trkpt lat="52.708867" lon="17.176158"></trkpt><trkpt lat="52.708823" lon="17.175822"></trkpt><trkpt lat="52.708715" lon="17.175497"></trkpt><trkpt lat="52.708504" lon="17.175426"></trkpt><trkpt lat="52.708272" lon="17.175388"></trkpt><trkpt lat="52.706696" lon="17.175317"></trkpt><trkpt lat="52.706521" lon="17.175611"></trkpt><trkpt lat="52.705975" lon="17.176408"></trkpt><trkpt lat="52.703423" lon="17.180701"></trkpt><trkpt lat="52.703352" lon="17.181013"></trkpt><trkpt lat="52.703315" lon="17.181342"></trkpt><trkpt lat="52.703311" lon="17.181703"></trkpt><trkpt lat="52.70329" lon="17.182055"></trkpt><trkpt lat="52.703082" lon="17.184054"></trkpt><trkpt lat="52.702883" lon="17.184058"></trkpt><trkpt lat="52.701551" lon="17.183873"></trkpt><trkpt lat="52.701318" lon="17.183768"></trkpt><trkpt lat="52.698606" lon="17.182907"></trkpt><trkpt lat="52.698625" lon="17.183255"></trkpt><trkpt lat="52.700495" lon="17.212281"></trkpt><trkpt lat="52.70337" lon="17.238966"></trkpt><trkpt lat="52.703434" lon="17.239289"></trkpt><trkpt lat="52.703631" lon="17.240023"></trkpt><trkpt lat="52.703742" lon="17.240567"></trkpt><trkpt lat="52.703675" lon="17.240937"></trkpt><trkpt lat="52.70374" lon="17.241299"></trkpt><trkpt lat="52.703871" lon="17.241619"></trkpt><trkpt lat="52.703969" lon="17.241968"></trkpt><trkpt lat="52.704046" lon="17.242336"></trkpt><trkpt lat="52.707914" lon="17.266314"></trkpt><trkpt lat="52.707788" lon="17.266684"></trkpt><trkpt lat="52.707638" lon="17.267055"></trkpt><trkpt lat="52.707536" lon="17.267408"></trkpt><trkpt lat="52.70743" lon="17.267693"></trkpt><trkpt lat="52.697235" lon="17.291244"></trkpt><trkpt lat="52.686489" lon="17.314417"></trkpt><trkpt lat="52.686335" lon="17.314638"></trkpt><trkpt lat="52.686302" lon="17.314991"></trkpt><trkpt lat="52.686242" lon="17.315424"></trkpt><trkpt lat="52.68618" lon="17.315741"></trkpt><trkpt lat="52.685811" lon="17.318273"></trkpt><trkpt lat="52.685861" lon="17.317905"></trkpt><trkpt lat="52.685846" lon="17.31754"></trkpt><trkpt lat="52.685637" lon="17.317369"></trkpt><trkpt lat="52.685403" lon="17.317282"></trkpt><trkpt lat="52.684877" lon="17.317155"></trkpt><trkpt lat="52.684662" lon="17.317383"></trkpt><trkpt lat="52.684408" lon="17.317596"></trkpt><trkpt lat="52.684181" lon="17.317576"></trkpt><trkpt lat="52.683956" lon="17.31752"></trkpt><trkpt lat="52.683327" lon="17.317443"></trkpt><trkpt lat="52.683103" lon="17.317552"></trkpt><trkpt lat="52.682886" lon="17.317689"></trkpt><trkpt lat="52.675623" lon="17.323279"></trkpt><trkpt lat="52.675537" lon="17.323613"></trkpt><trkpt lat="52.675403" lon="17.32426"></trkpt><trkpt lat="52.674832" lon="17.327812"></trkpt><trkpt lat="52.674815" lon="17.328151"></trkpt><trkpt lat="52.673776" lon="17.339296"></trkpt><trkpt lat="52.673677" lon="17.339633"></trkpt><trkpt lat="52.669393" lon="17.351941"></trkpt><trkpt lat="52.66923" lon="17.352257"></trkpt><trkpt lat="52.668798" lon="17.353251"></trkpt><trkpt lat="52.668707" lon="17.353584"></trkpt><trkpt lat="52.668147" lon="17.356111"></trkpt><trkpt lat="52.668108" lon="17.356499"></trkpt><trkpt lat="52.667483" lon="17.367393"></trkpt><trkpt lat="52.667654" lon="17.367588"></trkpt><trkpt lat="52.668486" lon="17.368694"></trkpt><trkpt lat="52.668551" lon="17.369048"></trkpt><trkpt lat="52.668558" lon="17.369444"></trkpt><trkpt lat="52.668536" lon="17.369837"></trkpt><trkpt lat="52.668487" lon="17.370234"></trkpt><trkpt lat="52.668407" lon="17.37063"></trkpt><trkpt lat="52.668204" lon="17.371427"></trkpt><trkpt lat="52.668089" lon="17.371765"></trkpt><trkpt lat="52.667705" lon="17.373105"></trkpt><trkpt lat="52.667618" lon="17.373507"></trkpt><trkpt lat="52.666869" lon="17.37793"></trkpt><trkpt lat="52.66684" lon="17.378301"></trkpt><trkpt lat="52.66684" lon="17.378701"></trkpt><trkpt lat="52.66718" lon="17.407832"></trkpt><trkpt lat="52.666904" lon="17.415474"></trkpt><trkpt lat="52.666755" lon="17.415703"></trkpt><trkpt lat="52.665316" lon="17.417619"></trkpt><trkpt lat="52.665131" lon="17.417461"></trkpt><trkpt lat="52.66366" lon="17.416426"></trkpt><trkpt lat="52.663447" lon="17.416326"></trkpt><trkpt lat="52.656204" lon="17.41384"></trkpt><trkpt lat="52.654326" lon="17.414717"></trkpt><trkpt lat="52.654096" lon="17.414855"></trkpt><trkpt lat="52.642219" lon="17.423577"></trkpt><trkpt lat="52.642045" lon="17.423794"></trkpt><trkpt lat="52.640806" lon="17.425111"></trkpt><trkpt lat="52.640534" lon="17.425199"></trkpt><trkpt lat="52.640343" lon="17.425287"></trkpt><trkpt lat="52.640154" lon="17.425429"></trkpt><trkpt lat="52.639969" lon="17.425624"></trkpt><trkpt lat="52.639796" lon="17.425849"></trkpt><trkpt lat="52.638111" lon="17.42772"></trkpt><trkpt lat="52.637834" lon="17.427867"></trkpt><trkpt lat="52.635651" lon="17.428716"></trkpt><trkpt lat="52.635429" lon="17.428686"></trkpt><trkpt lat="52.635176" lon="17.4286"></trkpt><trkpt lat="52.634995" lon="17.428351"></trkpt><trkpt lat="52.634827" lon="17.428157"></trkpt><trkpt lat="52.634769" lon="17.427828"></trkpt><trkpt lat="52.634558" lon="17.427865"></trkpt><trkpt lat="52.634358" lon="17.427963"></trkpt><trkpt lat="52.634145" lon="17.428041"></trkpt><trkpt lat="52.633919" lon="17.427918"></trkpt><trkpt lat="52.633713" lon="17.427835"></trkpt><trkpt lat="52.633514" lon="17.427844"></trkpt><trkpt lat="52.633276" lon="17.42789"></trkpt><trkpt lat="52.632651" lon="17.427925"></trkpt><trkpt lat="52.632436" lon="17.427809"></trkpt><trkpt lat="52.631095" lon="17.426908"></trkpt><trkpt lat="52.629276" lon="17.425926"></trkpt><trkpt lat="52.629039" lon="17.425885"></trkpt><trkpt lat="52.628815" lon="17.42581"></trkpt><trkpt lat="52.627277" lon="17.425087"></trkpt><trkpt lat="52.627111" lon="17.424862"></trkpt><trkpt lat="52.626889" lon="17.424944"></trkpt><trkpt lat="52.626701" lon="17.425084"></trkpt><trkpt lat="52.62647" lon="17.425151"></trkpt><trkpt lat="52.626244" lon="17.425114"></trkpt><trkpt lat="52.625515" lon="17.424907"></trkpt><trkpt lat="52.610249" lon="17.422377"></trkpt><trkpt lat="52.606592" lon="17.422551"></trkpt><trkpt lat="52.60639" lon="17.422518"></trkpt><trkpt lat="52.599633" lon="17.420609"></trkpt><trkpt lat="52.599683" lon="17.420216"></trkpt><trkpt lat="52.600235" lon="17.413367"></trkpt><trkpt lat="52.600007" lon="17.413527"></trkpt><trkpt lat="52.599789" lon="17.413639"></trkpt><trkpt lat="52.599542" lon="17.413684"></trkpt><trkpt lat="52.598999" lon="17.413714"></trkpt><trkpt lat="52.598719" lon="17.413663"></trkpt><trkpt lat="52.598278" lon="17.413523"></trkpt><trkpt lat="52.59847" lon="17.41362"></trkpt><trkpt lat="52.598692" lon="17.413685"></trkpt><trkpt lat="52.599062" lon="17.413747"></trkpt><trkpt lat="52.599263" lon="17.413753"></trkpt><trkpt lat="52.599521" lon="17.413712"></trkpt><trkpt lat="52.599737" lon="17.413645"></trkpt><trkpt lat="52.599947" lon="17.413551"></trkpt><trkpt lat="52.600135" lon="17.41343"></trkpt><trkpt lat="52.600385" lon="17.413311"></trkpt><trkpt lat="52.600404" lon="17.413689"></trkpt><trkpt lat="52.600364" lon="17.414061"></trkpt><trkpt lat="52.59919" lon="17.421481"></trkpt><trkpt lat="52.598961" lon="17.421408"></trkpt><trkpt lat="52.598288" lon="17.421099"></trkpt><trkpt lat="52.598099" lon="17.420964"></trkpt><trkpt lat="52.597912" lon="17.4208"></trkpt><trkpt lat="52.597747" lon="17.420574"></trkpt><trkpt lat="52.595758" lon="17.418237"></trkpt><trkpt lat="52.595511" lon="17.418147"></trkpt><trkpt lat="52.588641" lon="17.414786"></trkpt><trkpt lat="52.588459" lon="17.414627"></trkpt><trkpt lat="52.583427" lon="17.410983"></trkpt><trkpt lat="52.583174" lon="17.410949"></trkpt><trkpt lat="52.579611" lon="17.410021"></trkpt><trkpt lat="52.579423" lon="17.40988"></trkpt><trkpt lat="52.569255" lon="17.400779"></trkpt><trkpt lat="52.569124" lon="17.400412"></trkpt><trkpt lat="52.56856" lon="17.398444"></trkpt><trkpt lat="52.568653" lon="17.398145"></trkpt><trkpt lat="52.568895" lon="17.3972"></trkpt><trkpt lat="52.569229" lon="17.395566"></trkpt><trkpt lat="52.569296" lon="17.395138"></trkpt><trkpt lat="52.570115" lon="17.387575"></trkpt><trkpt lat="52.569913" lon="17.387528"></trkpt><trkpt lat="52.566171" lon="17.386207"></trkpt><trkpt lat="52.566007" lon="17.385999"></trkpt><trkpt lat="52.564791" lon="17.38467"></trkpt><trkpt lat="52.564565" lon="17.384474"></trkpt><trkpt lat="52.562376" lon="17.382916"></trkpt><trkpt lat="52.562127" lon="17.382953"></trkpt><trkpt lat="52.55973" lon="17.382986"></trkpt><trkpt lat="52.559682" lon="17.382599"></trkpt><trkpt lat="52.559449" lon="17.3813"></trkpt><trkpt lat="52.559366" lon="17.381004"></trkpt><trkpt lat="52.555467" lon="17.369344"></trkpt><trkpt lat="52.555299" lon="17.369072"></trkpt><trkpt lat="52.547667" lon="17.35485"></trkpt><trkpt lat="52.547496" lon="17.354481"></trkpt><trkpt lat="52.546861" lon="17.353309"></trkpt><trkpt lat="52.546815" lon="17.352955"></trkpt><trkpt lat="52.546689" lon="17.352683"></trkpt><trkpt lat="52.536306" lon="17.32918"></trkpt><trkpt lat="52.536192" lon="17.328879"></trkpt><trkpt lat="52.534452" lon="17.324952"></trkpt><trkpt lat="52.534211" lon="17.324848"></trkpt><trkpt lat="52.530638" lon="17.322823"></trkpt><trkpt lat="52.530605" lon="17.322438"></trkpt><trkpt lat="52.53056" lon="17.322107"></trkpt><trkpt lat="52.529667" lon="17.317216"></trkpt><trkpt lat="52.52956" lon="17.316835"></trkpt><trkpt lat="52.526685" lon="17.308277"></trkpt><trkpt lat="52.526847" lon="17.308071"></trkpt><trkpt lat="52.526851" lon="17.307727"></trkpt><trkpt lat="52.526782" lon="17.307361"></trkpt><trkpt lat="52.526655" lon="17.306855"></trkpt><trkpt lat="52.526711" lon="17.307179"></trkpt><trkpt lat="52.526751" lon="17.307501"></trkpt><trkpt lat="52.526552" lon="17.307553"></trkpt><trkpt lat="52.526325" lon="17.307566"></trkpt><trkpt lat="52.511328" lon="17.304946"></trkpt><trkpt lat="52.511105" lon="17.304793"></trkpt><trkpt lat="52.494616" lon="17.294239"></trkpt><trkpt lat="52.494415" lon="17.29414"></trkpt><trkpt lat="52.493838" lon="17.293927"></trkpt><trkpt lat="52.481641" lon="17.290876"></trkpt><trkpt lat="52.480808" lon="17.290568"></trkpt><trkpt lat="52.48057" lon="17.290434"></trkpt><trkpt lat="52.478765" lon="17.289178"></trkpt><trkpt lat="52.478599" lon="17.288974"></trkpt><trkpt lat="52.477937" lon="17.288284"></trkpt><trkpt lat="52.47773" lon="17.288152"></trkpt><trkpt lat="52.477496" lon="17.287951"></trkpt><trkpt lat="52.477544" lon="17.287627"></trkpt><trkpt lat="52.477367" lon="17.287776"></trkpt><trkpt lat="52.477157" lon="17.287794"></trkpt><trkpt lat="52.477329" lon="17.287598"></trkpt><trkpt lat="52.477536" lon="17.28742"></trkpt><trkpt lat="52.47768" lon="17.287185"></trkpt><trkpt lat="52.477771" lon="17.28683"></trkpt><trkpt lat="52.478735" lon="17.283715"></trkpt><trkpt lat="52.478921" lon="17.283216"></trkpt><trkpt lat="52.479417" lon="17.281626"></trkpt><trkpt lat="52.479439" lon="17.281264"></trkpt><trkpt lat="52.479397" lon="17.280884"></trkpt><trkpt lat="52.47933" lon="17.280552"></trkpt><trkpt lat="52.479017" lon="17.278452"></trkpt><trkpt lat="52.479234" lon="17.278415"></trkpt><trkpt lat="52.479378" lon="17.278828"></trkpt></trkseg></trk></gpx>