<?xml version="1.0" encoding="UTF-8" standalone="no" ?><gpx xmlns="http://www.topografix.com/GPX/1/1" xmlns:gpxx="http://www.garmin.com/xmlschemas/GpxExtensions/v3" ><trk><trkseg><trkpt lat="52.445966" lon="17.079995"></trkpt><trkpt lat="52.445857" lon="17.079566"></trkpt><trkpt lat="52.445718" lon="17.079122"></trkpt><trkpt lat="52.445537" lon="17.078978"></trkpt><trkpt lat="52.445245" lon="17.078488"></trkpt><trkpt lat="52.445124" lon="17.07807"></trkpt><trkpt lat="52.444804" lon="17.077735"></trkpt><trkpt lat="52.444697" lon="17.077431"></trkpt><trkpt lat="52.44472" lon="17.077075"></trkpt><trkpt lat="52.444669" lon="17.07659"></trkpt><trkpt lat="52.444802" lon="17.076339"></trkpt><trkpt lat="52.445089" lon="17.076392"></trkpt><trkpt lat="52.445912" lon="17.076436"></trkpt><trkpt lat="52.446174" lon="17.076624"></trkpt><trkpt lat="52.446369" lon="17.076709"></trkpt><trkpt lat="52.446573" lon="17.076748"></trkpt><trkpt lat="52.446959" lon="17.076876"></trkpt><trkpt lat="52.45072" lon="17.078611"></trkpt><trkpt lat="52.450991" lon="17.078774"></trkpt><trkpt lat="52.452821" lon="17.080162"></trkpt><trkpt lat="52.453024" lon="17.080703"></trkpt><trkpt lat="52.453505" lon="17.081745"></trkpt><trkpt lat="52.453797" lon="17.081689"></trkpt><trkpt lat="52.454264" lon="17.081532"></trkpt><trkpt lat="52.45657" lon="17.080397"></trkpt><trkpt lat="52.456714" lon="17.080086"></trkpt><trkpt lat="52.457493" lon="17.078119"></trkpt><trkpt lat="52.457794" lon="17.077225"></trkpt><trkpt lat="52.457872" lon="17.076852"></trkpt><trkpt lat="52.459558" lon="17.070352"></trkpt><trkpt lat="52.459806" lon="17.070229"></trkpt><trkpt lat="52.460042" lon="17.070278"></trkpt><trkpt lat="52.460305" lon="17.070176"></trkpt><trkpt lat="52.460474" lon="17.069828"></trkpt><trkpt lat="52.461901" lon="17.067464"></trkpt><trkpt lat="52.462032" lon="17.067738"></trkpt><trkpt lat="52.462243" lon="17.068404"></trkpt><trkpt lat="52.462725" lon="17.069595"></trkpt><trkpt lat="52.462755" lon="17.069997"></trkpt><trkpt lat="52.46296" lon="17.070382"></trkpt><trkpt lat="52.463132" lon="17.070647"></trkpt><trkpt lat="52.463345" lon="17.070905"></trkpt><trkpt lat="52.464102" lon="17.07165"></trkpt><trkpt lat="52.464332" lon="17.071764"></trkpt><trkpt lat="52.464701" lon="17.072004"></trkpt><trkpt lat="52.465973" lon="17.073006"></trkpt><trkpt lat="52.46615" lon="17.073176"></trkpt><trkpt lat="52.466952" lon="17.074118"></trkpt><trkpt lat="52.470884" lon="17.079512"></trkpt><trkpt lat="52.471041" lon="17.079859"></trkpt><trkpt lat="52.478045" lon="17.095391"></trkpt><trkpt lat="52.478358" lon="17.095238"></trkpt><trkpt lat="52.478576" lon="17.094776"></trkpt><trkpt lat="52.479184" lon="17.09375"></trkpt><trkpt lat="52.47947" lon="17.093882"></trkpt><trkpt lat="52.48013" lon="17.094078"></trkpt><trkpt lat="52.480428" lon="17.094062"></trkpt><trkpt lat="52.48596" lon="17.093004"></trkpt><trkpt lat="52.486177" lon="17.092871"></trkpt><trkpt lat="52.488691" lon="17.091914"></trkpt><trkpt lat="52.488923" lon="17.092318"></trkpt><trkpt lat="52.495292" lon="17.101889"></trkpt><trkpt lat="52.495493" lon="17.102413"></trkpt><trkpt lat="52.495848" lon="17.103703"></trkpt><trkpt lat="52.495808" lon="17.104071"></trkpt><trkpt lat="52.495783" lon="17.10451"></trkpt><trkpt lat="52.495873" lon="17.105666"></trkpt><trkpt lat="52.496133" lon="17.105769"></trkpt><trkpt lat="52.496584" lon="17.106071"></trkpt><trkpt lat="52.497005" lon="17.106279"></trkpt><trkpt lat="52.497453" lon="17.106702"></trkpt><trkpt lat="52.49763" lon="17.107118"></trkpt><trkpt lat="52.49759" lon="17.107476"></trkpt><trkpt lat="52.495902" lon="17.126889"></trkpt><trkpt lat="52.495827" lon="17.127254"></trkpt><trkpt lat="52.495697" lon="17.127726"></trkpt><trkpt lat="52.495582" lon="17.128064"></trkpt><trkpt lat="52.495446" lon="17.12836"></trkpt><trkpt lat="52.495106" lon="17.128853"></trkpt><trkpt lat="52.494633" lon="17.129367"></trkpt><trkpt lat="52.494172" lon="17.129759"></trkpt><trkpt lat="52.485099" lon="17.139306"></trkpt><trkpt lat="52.485077" lon="17.139906"></trkpt><trkpt lat="52.484973" lon="17.141011"></trkpt><trkpt lat="52.484723" lon="17.151641"></trkpt><trkpt lat="52.484854" lon="17.152035"></trkpt><trkpt lat="52.484854" lon="17.152512"></trkpt><trkpt lat="52.484765" lon="17.154567"></trkpt><trkpt lat="52.484607" lon="17.155009"></trkpt><trkpt lat="52.484198" lon="17.155841"></trkpt><trkpt lat="52.482828" lon="17.159417"></trkpt><trkpt lat="52.482682" lon="17.160563"></trkpt><trkpt lat="52.479783" lon="17.177224"></trkpt><trkpt lat="52.479702" lon="17.177532"></trkpt><trkpt lat="52.479558" lon="17.177976"></trkpt><trkpt lat="52.479332" lon="17.178316"></trkpt><trkpt lat="52.478906" lon="17.178782"></trkpt><trkpt lat="52.478264" lon="17.179638"></trkpt><trkpt lat="52.477941" lon="17.180264"></trkpt><trkpt lat="52.477486" lon="17.181313"></trkpt><trkpt lat="52.477434" lon="17.181783"></trkpt><trkpt lat="52.477429" lon="17.182314"></trkpt><trkpt lat="52.477342" lon="17.182843"></trkpt><trkpt lat="52.477181" lon="17.183477"></trkpt><trkpt lat="52.477117" lon="17.183813"></trkpt><trkpt lat="52.477127" lon="17.184289"></trkpt><trkpt lat="52.477166" lon="17.184639"></trkpt><trkpt lat="52.477154" lon="17.185247"></trkpt><trkpt lat="52.476992" lon="17.185644"></trkpt><trkpt lat="52.476735" lon="17.185826"></trkpt><trkpt lat="52.476473" lon="17.185839"></trkpt><trkpt lat="52.476182" lon="17.185747"></trkpt><trkpt lat="52.475793" lon="17.18615"></trkpt><trkpt lat="52.475741" lon="17.186529"></trkpt><trkpt lat="52.47577" lon="17.186892"></trkpt><trkpt lat="52.475925" lon="17.187969"></trkpt><trkpt lat="52.476235" lon="17.191192"></trkpt><trkpt lat="52.476167" lon="17.19188"></trkpt><trkpt lat="52.476132" lon="17.192765"></trkpt><trkpt lat="52.476165" lon="17.201899"></trkpt><trkpt lat="52.476234" lon="17.202525"></trkpt><trkpt lat="52.476482" lon="17.204012"></trkpt><trkpt lat="52.477931" lon="17.210337"></trkpt><trkpt lat="52.477712" lon="17.210355"></trkpt><trkpt lat="52.473467" lon="17.211229"></trkpt><trkpt lat="52.473292" lon="17.211424"></trkpt><trkpt lat="52.471054" lon="17.214312"></trkpt><trkpt lat="52.4709" lon="17.214612"></trkpt><trkpt lat="52.470379" lon="17.215923"></trkpt><trkpt lat="52.470279" lon="17.216314"></trkpt><trkpt lat="52.470005" lon="17.217055"></trkpt><trkpt lat="52.469814" lon="17.217258"></trkpt><trkpt lat="52.469689" lon="17.217856"></trkpt><trkpt lat="52.469592" lon="17.218505"></trkpt><trkpt lat="52.469535" lon="17.219196"></trkpt><trkpt lat="52.469676" lon="17.21944"></trkpt><trkpt lat="52.469943" lon="17.219769"></trkpt><trkpt lat="52.470082" lon="17.220305"></trkpt><trkpt lat="52.470033" lon="17.220771"></trkpt><trkpt lat="52.470042" lon="17.221158"></trkpt><trkpt lat="52.470124" lon="17.221587"></trkpt><trkpt lat="52.470146" lon="17.222151"></trkpt><trkpt lat="52.4701" lon="17.222599"></trkpt><trkpt lat="52.470102" lon="17.222953"></trkpt><trkpt lat="52.470181" lon="17.223399"></trkpt><trkpt lat="52.470055" lon="17.223687"></trkpt><trkpt lat="52.469788" lon="17.223876"></trkpt><trkpt lat="52.469687" lon="17.224162"></trkpt><trkpt lat="52.469624" lon="17.224538"></trkpt><trkpt lat="52.469579" lon="17.224942"></trkpt><trkpt lat="52.46944" lon="17.225432"></trkpt><trkpt lat="52.469252" lon="17.225693"></trkpt><trkpt lat="52.469027" lon="17.225909"></trkpt><trkpt lat="52.468538" lon="17.226285"></trkpt><trkpt lat="52.468307" lon="17.226349"></trkpt><trkpt lat="52.467987" lon="17.226586"></trkpt><trkpt lat="52.467778" lon="17.226786"></trkpt><trkpt lat="52.467494" lon="17.227181"></trkpt><trkpt lat="52.467262" lon="17.227634"></trkpt><trkpt lat="52.466925" lon="17.228466"></trkpt><trkpt lat="52.466852" lon="17.228998"></trkpt><trkpt lat="52.466768" lon="17.229438"></trkpt><trkpt lat="52.466664" lon="17.229865"></trkpt><trkpt lat="52.466645" lon="17.230385"></trkpt><trkpt lat="52.466527" lon="17.231618"></trkpt><trkpt lat="52.466462" lon="17.231999"></trkpt><trkpt lat="52.466427" lon="17.232368"></trkpt><trkpt lat="52.466347" lon="17.232721"></trkpt><trkpt lat="52.466272" lon="17.233192"></trkpt><trkpt lat="52.466173" lon="17.233673"></trkpt><trkpt lat="52.465987" lon="17.234176"></trkpt><trkpt lat="52.465853" lon="17.234441"></trkpt><trkpt lat="52.465729" lon="17.234742"></trkpt><trkpt lat="52.465305" lon="17.235625"></trkpt><trkpt lat="52.46504" lon="17.236081"></trkpt><trkpt lat="52.46427" lon="17.23721"></trkpt><trkpt lat="52.463993" lon="17.237734"></trkpt><trkpt lat="52.463918" lon="17.238064"></trkpt><trkpt lat="52.463744" lon="17.238584"></trkpt><trkpt lat="52.463514" lon="17.239082"></trkpt><trkpt lat="52.463313" lon="17.239263"></trkpt><trkpt lat="52.462573" lon="17.240048"></trkpt><trkpt lat="52.462452" lon="17.24059"></trkpt><trkpt lat="52.462425" lon="17.24097"></trkpt><trkpt lat="52.462423" lon="17.241311"></trkpt><trkpt lat="52.462476" lon="17.242309"></trkpt><trkpt lat="52.46268" lon="17.244246"></trkpt><trkpt lat="52.462818" lon="17.246876"></trkpt><trkpt lat="52.462711" lon="17.247192"></trkpt><trkpt lat="52.462457" lon="17.248117"></trkpt><trkpt lat="52.462422" lon="17.248489"></trkpt><trkpt lat="52.462402" lon="17.248919"></trkpt><trkpt lat="52.462361" lon="17.249264"></trkpt><trkpt lat="52.462196" lon="17.24986"></trkpt><trkpt lat="52.461867" lon="17.250051"></trkpt><trkpt lat="52.461683" lon="17.250201"></trkpt><trkpt lat="52.461468" lon="17.250322"></trkpt><trkpt lat="52.461228" lon="17.250271"></trkpt><trkpt lat="52.461011" lon="17.250097"></trkpt><trkpt lat="52.458806" lon="17.248663"></trkpt><trkpt lat="52.458497" lon="17.248675"></trkpt><trkpt lat="52.458217" lon="17.248721"></trkpt><trkpt lat="52.457937" lon="17.24871"></trkpt><trkpt lat="52.457718" lon="17.248676"></trkpt><trkpt lat="52.456495" lon="17.248318"></trkpt><trkpt lat="52.456265" lon="17.248183"></trkpt><trkpt lat="52.455906" lon="17.247847"></trkpt><trkpt lat="52.45572" lon="17.247641"></trkpt><trkpt lat="52.455405" lon="17.247236"></trkpt><trkpt lat="52.455186" lon="17.246901"></trkpt><trkpt lat="52.454978" lon="17.24668"></trkpt><trkpt lat="52.454712" lon="17.246263"></trkpt><trkpt lat="52.454447" lon="17.245652"></trkpt><trkpt lat="52.453588" lon="17.243264"></trkpt><trkpt lat="52.453314" lon="17.243022"></trkpt><trkpt lat="52.453108" lon="17.243055"></trkpt><trkpt lat="52.452749" lon="17.243185"></trkpt><trkpt lat="52.45236" lon="17.243271"></trkpt><trkpt lat="52.452126" lon="17.243285"></trkpt><trkpt lat="52.451681" lon="17.243366"></trkpt><trkpt lat="52.451191" lon="17.243541"></trkpt><trkpt lat="52.451012" lon="17.243797"></trkpt><trkpt lat="52.45087" lon="17.244132"></trkpt><trkpt lat="52.450779" lon="17.244524"></trkpt><trkpt lat="52.450754" lon="17.244993"></trkpt><trkpt lat="52.450841" lon="17.245309"></trkpt><trkpt lat="52.450934" lon="17.245763"></trkpt><trkpt lat="52.450962" lon="17.246145"></trkpt><trkpt lat="52.451013" lon="17.248347"></trkpt><trkpt lat="52.450891" lon="17.248756"></trkpt><trkpt lat="52.450722" lon="17.249037"></trkpt><trkpt lat="52.450537" lon="17.249253"></trkpt><trkpt lat="52.450236" lon="17.24968"></trkpt><trkpt lat="52.450012" lon="17.250057"></trkpt><trkpt lat="52.449543" lon="17.250986"></trkpt><trkpt lat="52.449062" lon="17.252105"></trkpt><trkpt lat="52.449022" lon="17.252462"></trkpt><trkpt lat="52.448979" lon="17.253108"></trkpt><trkpt lat="52.448997" lon="17.25356"></trkpt><trkpt lat="52.448957" lon="17.253991"></trkpt><trkpt lat="52.448949" lon="17.254438"></trkpt><trkpt lat="52.448727" lon="17.257834"></trkpt><trkpt lat="52.448599" lon="17.258958"></trkpt><trkpt lat="52.448339" lon="17.260297"></trkpt><trkpt lat="52.4482" lon="17.260677"></trkpt><trkpt lat="52.448124" lon="17.260996"></trkpt><trkpt lat="52.44788" lon="17.261764"></trkpt><trkpt lat="52.447745" lon="17.262007"></trkpt><trkpt lat="52.447641" lon="17.262354"></trkpt><trkpt lat="52.447541" lon="17.262882"></trkpt><trkpt lat="52.447524" lon="17.263236"></trkpt><trkpt lat="52.447483" lon="17.263598"></trkpt><trkpt lat="52.447337" lon="17.263891"></trkpt><trkpt lat="52.447224" lon="17.264241"></trkpt><trkpt lat="52.447189" lon="17.26471"></trkpt><trkpt lat="52.447091" lon="17.265174"></trkpt><trkpt lat="52.446961" lon="17.265479"></trkpt><trkpt lat="52.446736" lon="17.266165"></trkpt><trkpt lat="52.446673" lon="17.266473"></trkpt><trkpt lat="52.446587" lon="17.267105"></trkpt><trkpt lat="52.446565" lon="17.267519"></trkpt><trkpt lat="52.446444" lon="17.267859"></trkpt><trkpt lat="52.446046" lon="17.268691"></trkpt><trkpt lat="52.446007" lon="17.269016"></trkpt><trkpt lat="52.446017" lon="17.269356"></trkpt><trkpt lat="52.446158" lon="17.268914"></trkpt><trkpt lat="52.446322" lon="17.268689"></trkpt><trkpt lat="52.446573" lon="17.268865"></trkpt><trkpt lat="52.446654" lon="17.269197"></trkpt><trkpt lat="52.446577" lon="17.269498"></trkpt><trkpt lat="52.44655" lon="17.26993"></trkpt><trkpt lat="52.446406" lon="17.270505"></trkpt><trkpt lat="52.446369" lon="17.270886"></trkpt><trkpt lat="52.446394" lon="17.271413"></trkpt><trkpt lat="52.446393" lon="17.271748"></trkpt><trkpt lat="52.446484" lon="17.273785"></trkpt><trkpt lat="52.446479" lon="17.274187"></trkpt><trkpt lat="52.446411" lon="17.274598"></trkpt><trkpt lat="52.446213" lon="17.275245"></trkpt><trkpt lat="52.446047" lon="17.275426"></trkpt><trkpt lat="52.445914" lon="17.275818"></trkpt><trkpt lat="52.445794" lon="17.276097"></trkpt><trkpt lat="52.445652" lon="17.276366"></trkpt><trkpt lat="52.44528" lon="17.277211"></trkpt><trkpt lat="52.445099" lon="17.277419"></trkpt><trkpt lat="52.445249" lon="17.277762"></trkpt><trkpt lat="52.445387" lon="17.277995"></trkpt><trkpt lat="52.445606" lon="17.278263"></trkpt><trkpt lat="52.445925" lon="17.278727"></trkpt><trkpt lat="52.446589" lon="17.279562"></trkpt><trkpt lat="52.44681" lon="17.279751"></trkpt><trkpt lat="52.446951" lon="17.279984"></trkpt><trkpt lat="52.447049" lon="17.280312"></trkpt><trkpt lat="52.447899" lon="17.282431"></trkpt><trkpt lat="52.448181" lon="17.282234"></trkpt><trkpt lat="52.448392" lon="17.282053"></trkpt><trkpt lat="52.448599" lon="17.282078"></trkpt><trkpt lat="52.448799" lon="17.282193"></trkpt><trkpt lat="52.449002" lon="17.282418"></trkpt><trkpt lat="52.449026" lon="17.282819"></trkpt><trkpt lat="52.448969" lon="17.28333"></trkpt><trkpt lat="52.448984" lon="17.283745"></trkpt><trkpt lat="52.448924" lon="17.284194"></trkpt><trkpt lat="52.448756" lon="17.284607"></trkpt><trkpt lat="52.448528" lon="17.285076"></trkpt><trkpt lat="52.448582" lon="17.285459"></trkpt><trkpt lat="52.448854" lon="17.285482"></trkpt><trkpt lat="52.450586" lon="17.28584"></trkpt><trkpt lat="52.450835" lon="17.286052"></trkpt><trkpt lat="52.451052" lon="17.286358"></trkpt><trkpt lat="52.451357" lon="17.287034"></trkpt><trkpt lat="52.451466" lon="17.287329"></trkpt><trkpt lat="52.451609" lon="17.287928"></trkpt><trkpt lat="52.452158" lon="17.289394"></trkpt><trkpt lat="52.452434" lon="17.289336"></trkpt><trkpt lat="52.452793" lon="17.289565"></trkpt><trkpt lat="52.45316" lon="17.289666"></trkpt><trkpt lat="52.453373" lon="17.28967"></trkpt><trkpt lat="52.45424" lon="17.289538"></trkpt><trkpt lat="52.455332" lon="17.289513"></trkpt><trkpt lat="52.455805" lon="17.289672"></trkpt><trkpt lat="52.456103" lon="17.289685"></trkpt><trkpt lat="52.456443" lon="17.289742"></trkpt><trkpt lat="52.456741" lon="17.289843"></trkpt><trkpt lat="52.456947" lon="17.289881"></trkpt><trkpt lat="52.457306" lon="17.289992"></trkpt><trkpt lat="52.457604" lon="17.290124"></trkpt><trkpt lat="52.45956" lon="17.290587"></trkpt><trkpt lat="52.466727" lon="17.288017"></trkpt><trkpt lat="52.467225" lon="17.287724"></trkpt><trkpt lat="52.47191" lon="17.285836"></trkpt><trkpt lat="52.472223" lon="17.286113"></trkpt><trkpt lat="52.472432" lon="17.2862"></trkpt><trkpt lat="52.472726" lon="17.286274"></trkpt><trkpt lat="52.4741" lon="17.286797"></trkpt><trkpt lat="52.477245" lon="17.287584"></trkpt><trkpt lat="52.477453" lon="17.287459"></trkpt><trkpt lat="52.477694" lon="17.287145"></trkpt><trkpt lat="52.477788" lon="17.28685"></trkpt><trkpt lat="52.477867" lon="17.286535"></trkpt><trkpt lat="52.478401" lon="17.284789"></trkpt><trkpt lat="52.484272" lon="17.267871"></trkpt><trkpt lat="52.486114" lon="17.263616"></trkpt><trkpt lat="52.485823" lon="17.263814"></trkpt><trkpt lat="52.48559" lon="17.264081"></trkpt><trkpt lat="52.485467" lon="17.264481"></trkpt><trkpt lat="52.484904" lon="17.266021"></trkpt><trkpt lat="52.479101" lon="17.279168"></trkpt><trkpt lat="52.479016" lon="17.278756"></trkpt><trkpt lat="52.479101" lon="17.278417"></trkpt><trkpt lat="52.479368" lon="17.278808"></trkpt></trkseg></trk></gpx>