<?xml version="1.0" encoding="UTF-8" standalone="no" ?><gpx xmlns="http://www.topografix.com/GPX/1/1" xmlns:gpxx="http://www.garmin.com/xmlschemas/GpxExtensions/v3" ><trk><trkseg><trkpt lat="52.47150042128472" lon="17.214624502721776"></trkpt><trkpt lat="52.473052" lon="17.211761"></trkpt><trkpt lat="52.472837" lon="17.21203"></trkpt><trkpt lat="52.471623" lon="17.213338"></trkpt><trkpt lat="52.471335" lon="17.213264"></trkpt><trkpt lat="52.471088" lon="17.212942"></trkpt><trkpt lat="52.470354" lon="17.211836"></trkpt><trkpt lat="52.470243" lon="17.211386"></trkpt><trkpt lat="52.469937" lon="17.210391"></trkpt><trkpt lat="52.469688" lon="17.210218"></trkpt><trkpt lat="52.469014" lon="17.209632"></trkpt><trkpt lat="52.468832" lon="17.209304"></trkpt><trkpt lat="52.46858" lon="17.209045"></trkpt><trkpt lat="52.464915" lon="17.205699"></trkpt><trkpt lat="52.464657" lon="17.205554"></trkpt><trkpt lat="52.464014" lon="17.205275"></trkpt><trkpt lat="52.460928" lon="17.203514"></trkpt><trkpt lat="52.460919" lon="17.203056"></trkpt><trkpt lat="52.460808" lon="17.196188"></trkpt><trkpt lat="52.460509" lon="17.189363"></trkpt><trkpt lat="52.460117" lon="17.184897"></trkpt><trkpt lat="52.460054" lon="17.183446"></trkpt><trkpt lat="52.460075" lon="17.183"></trkpt><trkpt lat="52.460388" lon="17.179555"></trkpt><trkpt lat="52.461252" lon="17.172868"></trkpt><trkpt lat="52.461366" lon="17.172403"></trkpt><trkpt lat="52.461452" lon="17.17195"></trkpt><trkpt lat="52.461925" lon="17.168522"></trkpt><trkpt lat="52.461836" lon="17.168024"></trkpt><trkpt lat="52.461776" lon="17.167472"></trkpt><trkpt lat="52.461394" lon="17.165126"></trkpt><trkpt lat="52.461198" lon="17.164812"></trkpt><trkpt lat="52.461001" lon="17.164418"></trkpt><trkpt lat="52.460773" lon="17.164038"></trkpt><trkpt lat="52.457888" lon="17.158969"></trkpt><trkpt lat="52.457781" lon="17.158493"></trkpt><trkpt lat="52.457661" lon="17.157798"></trkpt><trkpt lat="52.457525" lon="17.157316"></trkpt><trkpt lat="52.457158" lon="17.155705"></trkpt><trkpt lat="52.457076" lon="17.155237"></trkpt><trkpt lat="52.456049" lon="17.148564"></trkpt><trkpt lat="52.455043" lon="17.141904"></trkpt><trkpt lat="52.454101" lon="17.135221"></trkpt><trkpt lat="52.454088" lon="17.134682"></trkpt><trkpt lat="52.453811" lon="17.130762"></trkpt><trkpt lat="52.453653" lon="17.130313"></trkpt><trkpt lat="52.453407" lon="17.129989"></trkpt><trkpt lat="52.4532" lon="17.12966"></trkpt><trkpt lat="52.453224" lon="17.129171"></trkpt><trkpt lat="52.453393" lon="17.128752"></trkpt><trkpt lat="52.453523" lon="17.128356"></trkpt><trkpt lat="52.453625" lon="17.127879"></trkpt><trkpt lat="52.453667" lon="17.12743"></trkpt><trkpt lat="52.453638" lon="17.126947"></trkpt><trkpt lat="52.453577" lon="17.12647"></trkpt><trkpt lat="52.45312" lon="17.123899"></trkpt><trkpt lat="52.452833" lon="17.124078"></trkpt><trkpt lat="52.452541" lon="17.124323"></trkpt><trkpt lat="52.452248" lon="17.124432"></trkpt><trkpt lat="52.451971" lon="17.124427"></trkpt><trkpt lat="52.449974" lon="17.124096"></trkpt><trkpt lat="52.449876" lon="17.123589"></trkpt><trkpt lat="52.449755" lon="17.123184"></trkpt><trkpt lat="52.449585" lon="17.122809"></trkpt><trkpt lat="52.449385" lon="17.122276"></trkpt><trkpt lat="52.447658" lon="17.118321"></trkpt><trkpt lat="52.446958" lon="17.116435"></trkpt><trkpt lat="52.446986" lon="17.115983"></trkpt><trkpt lat="52.447195" lon="17.115598"></trkpt><trkpt lat="52.447417" lon="17.115243"></trkpt><trkpt lat="52.450375" lon="17.110434"></trkpt><trkpt lat="52.45126" lon="17.108766"></trkpt><trkpt lat="52.451314" lon="17.108314"></trkpt><trkpt lat="52.451673" lon="17.103284"></trkpt><trkpt lat="52.45157" lon="17.102872"></trkpt><trkpt lat="52.450037" lon="17.096432"></trkpt><trkpt lat="52.448904" lon="17.092506"></trkpt><trkpt lat="52.447096" lon="17.086353"></trkpt><trkpt lat="52.445439" lon="17.080005"></trkpt><trkpt lat="52.445462" lon="17.079371"></trkpt></trkseg></trk></gpx>