<?xml version="1.0" encoding="UTF-8" standalone="no" ?><gpx xmlns="http://www.topografix.com/GPX/1/1" xmlns:gpxx="http://www.garmin.com/xmlschemas/GpxExtensions/v3" ><trk><trkseg><trkpt lat="52.527027" lon="17.36776"></trkpt><trkpt lat="52.526753" lon="17.367595"></trkpt><trkpt lat="52.526466" lon="17.367633"></trkpt><trkpt lat="52.51748" lon="17.36676"></trkpt><trkpt lat="52.516765" lon="17.366572"></trkpt><trkpt lat="52.516486" lon="17.366438"></trkpt><trkpt lat="52.513559" lon="17.365496"></trkpt><trkpt lat="52.513301" lon="17.365666"></trkpt><trkpt lat="52.511585" lon="17.366479000000002"></trkpt><trkpt lat="52.511271" lon="17.366379"></trkpt><trkpt lat="52.502448" lon="17.363108"></trkpt><trkpt lat="52.496331" lon="17.361798"></trkpt><trkpt lat="52.496088" lon="17.362034"></trkpt><trkpt lat="52.494243" lon="17.363435"></trkpt><trkpt lat="52.491012" lon="17.363405"></trkpt></trkseg><trkseg><trkpt lat="52.674377" lon="17.161815"></trkpt><trkpt lat="52.674165" lon="17.161485"></trkpt><trkpt lat="52.673862" lon="17.161345"></trkpt><trkpt lat="52.672139" lon="17.160822"></trkpt><trkpt lat="52.671932" lon="17.161184"></trkpt><trkpt lat="52.670097" lon="17.163859"></trkpt><trkpt lat="52.669834" lon="17.164073"></trkpt><trkpt lat="52.668827" lon="17.165094"></trkpt><trkpt lat="52.668599" lon="17.165491"></trkpt><trkpt lat="52.668393" lon="17.165947"></trkpt><trkpt lat="52.668213" lon="17.166466"></trkpt><trkpt lat="52.668097" lon="17.166883"></trkpt><trkpt lat="52.668019" lon="17.167329"></trkpt><trkpt lat="52.664289" lon="17.183214"></trkpt><trkpt lat="52.664053" lon="17.183502"></trkpt><trkpt lat="52.659204" lon="17.190579"></trkpt><trkpt lat="52.652647" lon="17.201998"></trkpt><trkpt lat="52.652536" lon="17.202449"></trkpt><trkpt lat="52.652455" lon="17.202903"></trkpt><trkpt lat="52.65119" lon="17.208218"></trkpt><trkpt lat="52.651052" lon="17.208669"></trkpt><trkpt lat="52.649923" lon="17.213363"></trkpt><trkpt lat="52.649892" lon="17.213818"></trkpt><trkpt lat="52.64986" lon="17.216043"></trkpt><trkpt lat="52.649908" lon="17.217253"></trkpt><trkpt lat="52.649957" lon="17.217704"></trkpt><trkpt lat="52.65092" lon="17.235413"></trkpt><trkpt lat="52.650883" lon="17.235924"></trkpt><trkpt lat="52.650673" lon="17.2375"></trkpt><trkpt lat="52.6505" lon="17.237908"></trkpt><trkpt lat="52.650305" lon="17.238286"></trkpt><trkpt lat="52.649845" lon="17.239373"></trkpt><trkpt lat="52.649734" lon="17.239845"></trkpt><trkpt lat="52.649652" lon="17.240369"></trkpt><trkpt lat="52.649211" lon="17.244777"></trkpt><trkpt lat="52.649209" lon="17.245311"></trkpt><trkpt lat="52.648703" lon="17.254197"></trkpt><trkpt lat="52.648499" lon="17.254615"></trkpt><trkpt lat="52.648265" lon="17.25495"></trkpt><trkpt lat="52.64806" lon="17.255302"></trkpt><trkpt lat="52.647789" lon="17.255864"></trkpt><trkpt lat="52.647663" lon="17.25629"></trkpt><trkpt lat="52.647589" lon="17.256723"></trkpt><trkpt lat="52.647497" lon="17.257568"></trkpt><trkpt lat="52.647054" lon="17.260247"></trkpt><trkpt lat="52.646927" lon="17.260656"></trkpt><trkpt lat="52.644598" lon="17.27012"></trkpt><trkpt lat="52.644517" lon="17.270667"></trkpt><trkpt lat="52.640903" lon="17.288829"></trkpt><trkpt lat="52.640775" lon="17.289281"></trkpt><trkpt lat="52.640538" lon="17.290404"></trkpt><trkpt lat="52.640535" lon="17.290865"></trkpt><trkpt lat="52.64004" lon="17.298575"></trkpt><trkpt lat="52.639746" lon="17.2984"></trkpt><trkpt lat="52.628599" lon="17.293098"></trkpt><trkpt lat="52.628306" lon="17.293012"></trkpt><trkpt lat="52.626304" lon="17.292119"></trkpt><trkpt lat="52.626063" lon="17.291866"></trkpt><trkpt lat="52.625867" lon="17.291554"></trkpt><trkpt lat="52.62167" lon="17.286053"></trkpt><trkpt lat="52.62135" lon="17.286045"></trkpt><trkpt lat="52.618856" lon="17.285606"></trkpt><trkpt lat="52.618579" lon="17.285477"></trkpt><trkpt lat="52.617093" lon="17.285026"></trkpt><trkpt lat="52.616818" lon="17.28501"></trkpt><trkpt lat="52.613365" lon="17.285803"></trkpt><trkpt lat="52.613144" lon="17.286242"></trkpt><trkpt lat="52.612838000000004" lon="17.286511"></trkpt><trkpt lat="52.612555" lon="17.286621"></trkpt><trkpt lat="52.612308" lon="17.286417"></trkpt><trkpt lat="52.612319" lon="17.285932"></trkpt><trkpt lat="52.612298" lon="17.285347"></trkpt><trkpt lat="52.61208" lon="17.285034"></trkpt><trkpt lat="52.611809" lon="17.284896"></trkpt><trkpt lat="52.611392" lon="17.284753"></trkpt><trkpt lat="52.609165" lon="17.283587"></trkpt><trkpt lat="52.609179" lon="17.283088"></trkpt><trkpt lat="52.609161" lon="17.282388"></trkpt><trkpt lat="52.608888" lon="17.282413"></trkpt><trkpt lat="52.608692" lon="17.282805"></trkpt><trkpt lat="52.607858" lon="17.28418"></trkpt><trkpt lat="52.607605" lon="17.28437"></trkpt><trkpt lat="52.607415" lon="17.283972"></trkpt><trkpt lat="52.600086" lon="17.271124"></trkpt><trkpt lat="52.599802" lon="17.270868"></trkpt><trkpt lat="52.599061" lon="17.27034"></trkpt><trkpt lat="52.598417" lon="17.269993"></trkpt><trkpt lat="52.598141" lon="17.269888"></trkpt><trkpt lat="52.589871" lon="17.265446"></trkpt><trkpt lat="52.589689" lon="17.265075"></trkpt><trkpt lat="52.586572" lon="17.259765"></trkpt><trkpt lat="52.586255" lon="17.259782"></trkpt><trkpt lat="52.585952" lon="17.25994"></trkpt><trkpt lat="52.585697" lon="17.260167"></trkpt><trkpt lat="52.585012" lon="17.260651"></trkpt><trkpt lat="52.584796" lon="17.26096"></trkpt><trkpt lat="52.584527" lon="17.261218"></trkpt><trkpt lat="52.578081" lon="17.266203"></trkpt><trkpt lat="52.577809" lon="17.266257"></trkpt><trkpt lat="52.577512" lon="17.266378"></trkpt><trkpt lat="52.575257" lon="17.26765"></trkpt><trkpt lat="52.565756" lon="17.271513"></trkpt><trkpt lat="52.565437" lon="17.271551"></trkpt><trkpt lat="52.554278" lon="17.274506"></trkpt><trkpt lat="52.553991" lon="17.274697"></trkpt><trkpt lat="52.548942" lon="17.277238"></trkpt><trkpt lat="52.548664" lon="17.27727"></trkpt><trkpt lat="52.548191" lon="17.277404"></trkpt><trkpt lat="52.548027" lon="17.277761"></trkpt><trkpt lat="52.547933" lon="17.278257"></trkpt><trkpt lat="52.547455" lon="17.281888"></trkpt><trkpt lat="52.547437" lon="17.282347"></trkpt><trkpt lat="52.547625" lon="17.29496"></trkpt><trkpt lat="52.547736" lon="17.29544"></trkpt><trkpt lat="52.551597" lon="17.308527"></trkpt><trkpt lat="52.557189" lon="17.325257"></trkpt><trkpt lat="52.558037" lon="17.328492"></trkpt><trkpt lat="52.558074" lon="17.328934"></trkpt><trkpt lat="52.558254" lon="17.335141"></trkpt><trkpt lat="52.558204" lon="17.33558"></trkpt><trkpt lat="52.557955" lon="17.336967"></trkpt><trkpt lat="52.557786" lon="17.337346"></trkpt><trkpt lat="52.557546" lon="17.338019"></trkpt><trkpt lat="52.557485" lon="17.338486"></trkpt><trkpt lat="52.557568" lon="17.338962"></trkpt><trkpt lat="52.557747" lon="17.339357"></trkpt><trkpt lat="52.558851" lon="17.34139"></trkpt><trkpt lat="52.559122" lon="17.341622"></trkpt><trkpt lat="52.559379" lon="17.341895"></trkpt><trkpt lat="52.559427" lon="17.342389"></trkpt><trkpt lat="52.559608" lon="17.343538"></trkpt><trkpt lat="52.55989" lon="17.343661"></trkpt><trkpt lat="52.560245" lon="17.343904"></trkpt><trkpt lat="52.560222" lon="17.344351"></trkpt><trkpt lat="52.560152" lon="17.344782"></trkpt><trkpt lat="52.559295" lon="17.348471"></trkpt><trkpt lat="52.558986" lon="17.348595"></trkpt><trkpt lat="52.549365" lon="17.351008"></trkpt><trkpt lat="52.549399" lon="17.350556"></trkpt><trkpt lat="52.549337" lon="17.351062"></trkpt><trkpt lat="52.549298" lon="17.351665"></trkpt><trkpt lat="52.549222" lon="17.352109"></trkpt><trkpt lat="52.548924" lon="17.352183"></trkpt><trkpt lat="52.548493" lon="17.352357"></trkpt><trkpt lat="52.548183" lon="17.352531"></trkpt><trkpt lat="52.546604" lon="17.353702"></trkpt><trkpt lat="52.546368" lon="17.353977"></trkpt><trkpt lat="52.536612" lon="17.363336"></trkpt><trkpt lat="52.527034" lon="17.367756"></trkpt></trkseg></trk></gpx>