<?xml version="1.0" encoding="UTF-8" standalone="no" ?><gpx xmlns="http://www.topografix.com/GPX/1/1" xmlns:gpxx="http://www.garmin.com/xmlschemas/GpxExtensions/v3" ><trk><trkseg><trkpt lat="52.584041" lon="17.024379"></trkpt><trkpt lat="52.584207" lon="17.024754"></trkpt><trkpt lat="52.584406" lon="17.025071"></trkpt><trkpt lat="52.584742" lon="17.025716"></trkpt><trkpt lat="52.584885" lon="17.026102"></trkpt><trkpt lat="52.585063" lon="17.026437"></trkpt><trkpt lat="52.58628" lon="17.029243"></trkpt><trkpt lat="52.586397" lon="17.029799"></trkpt><trkpt lat="52.58628" lon="17.029362"></trkpt><trkpt lat="52.586333" lon="17.028925"></trkpt><trkpt lat="52.586102" lon="17.028665"></trkpt><trkpt lat="52.58378" lon="17.023976"></trkpt></trkseg></trk></gpx>