<?xml version="1.0" encoding="UTF-8" standalone="no" ?><gpx xmlns="http://www.topografix.com/GPX/1/1" xmlns:gpxx="http://www.garmin.com/xmlschemas/GpxExtensions/v3" ><trk><trkseg><trkpt lat="52.46695855213895" lon="17.170419761371093"></trkpt><trkpt lat="52.46697577334377" lon="17.170061414989817"></trkpt><trkpt lat="52.46712798756294" lon="17.170026595319097"></trkpt><trkpt lat="52.46741723476993" lon="17.170053322299285"></trkpt><trkpt lat="52.46748853730143" lon="17.170129395844086"></trkpt><trkpt lat="52.467518900383155" lon="17.170230498692867"></trkpt><trkpt lat="52.467582098515685" lon="17.170275681144847"></trkpt><trkpt lat="52.46764941431363" lon="17.170311503291153"></trkpt><trkpt lat="52.46762529702043" lon="17.17033684024586"></trkpt><trkpt lat="52.46768866325496" lon="17.17052248262704"></trkpt><trkpt lat="52.46814173624143" lon="17.172309857652618"></trkpt><trkpt lat="52.46837837216755" lon="17.173009697631006"></trkpt><trkpt lat="52.46846162014487" lon="17.173387327080565"></trkpt><trkpt lat="52.468576716743605" lon="17.17384954571392"></trkpt><trkpt lat="52.46863086986768" lon="17.174155930511148"></trkpt><trkpt lat="52.46875016278166" lon="17.17432147923946"></trkpt><trkpt lat="52.46876457997407" lon="17.17449555524484"></trkpt><trkpt lat="52.46877893754335" lon="17.174588285250287"></trkpt><trkpt lat="52.46891418588175" lon="17.17489710463911"></trkpt><trkpt lat="52.46895350512367" lon="17.175060408331824"></trkpt><trkpt lat="52.469207722987456" lon="17.175578926903295"></trkpt><trkpt lat="52.469577867519135" lon="17.17629985807144"></trkpt><trkpt lat="52.46996102278893" lon="17.177105154331716"></trkpt><trkpt lat="52.47070019694865" lon="17.178525294133518"></trkpt><trkpt lat="52.470763252110714" lon="17.178743438999096"></trkpt><trkpt lat="52.470901945383936" lon="17.179071074157896"></trkpt><trkpt lat="52.4710406221976" lon="17.179138189161993"></trkpt><trkpt lat="52.471213239582376" lon="17.17943468341532"></trkpt><trkpt lat="52.47207261551373" lon="17.180088189547913"></trkpt><trkpt lat="52.47221395760352" lon="17.180250389510253"></trkpt><trkpt lat="52.472314980504635" lon="17.18037120365046"></trkpt><trkpt lat="52.4724187586426" lon="17.18051674588991"></trkpt><trkpt lat="52.47250694729942" lon="17.180694304169048"></trkpt><trkpt lat="52.473060518579366" lon="17.18171496869373"></trkpt><trkpt lat="52.47323993421963" lon="17.181964696384448"></trkpt><trkpt lat="52.47384660881976" lon="17.182552366109096"></trkpt><trkpt lat="52.47382968059466" lon="17.18264576151175"></trkpt><trkpt lat="52.47389942075255" lon="17.182708550841404"></trkpt><trkpt lat="52.47401187833621" lon="17.182892838755475"></trkpt><trkpt lat="52.474088930143665" lon="17.182903183980173"></trkpt><trkpt lat="52.474133384581805" lon="17.183002214262583"></trkpt><trkpt lat="52.474228000112" lon="17.183080749550573"></trkpt><trkpt lat="52.474364196023735" lon="17.18326069377335"></trkpt><trkpt lat="52.47440376857897" lon="17.18333066887578"></trkpt><trkpt lat="52.474884820726466" lon="17.18405429631269"></trkpt><trkpt lat="52.47494361229432" lon="17.184141679786297"></trkpt><trkpt lat="52.47546278482841" lon="17.184834068431925"></trkpt><trkpt lat="52.47576920833333" lon="17.18540335742137"></trkpt><trkpt lat="52.47597343300397" lon="17.185618081021612"></trkpt><trkpt lat="52.47610100515199" lon="17.185700257387666"></trkpt><trkpt lat="52.47619980402826" lon="17.185777871124813"></trkpt><trkpt lat="52.47627610067909" lon="17.185807026204227"></trkpt><trkpt lat="52.47638923207918" lon="17.185926507794242"></trkpt><trkpt lat="52.47645449708164" lon="17.18581176200028"></trkpt><trkpt lat="52.476481493001565" lon="17.185839605133168"></trkpt><trkpt lat="52.47660338399687" lon="17.185876033487755"></trkpt><trkpt lat="52.47670455591314" lon="17.185828546031583"></trkpt><trkpt lat="52.476759097706726" lon="17.18583437985484"></trkpt><trkpt lat="52.476805997488164" lon="17.185715992605065"></trkpt><trkpt lat="52.47685332943445" lon="17.185712741082412"></trkpt><trkpt lat="52.47692663684984" lon="17.185735733275976"></trkpt><trkpt lat="52.47699695516666" lon="17.18563331916528"></trkpt><trkpt lat="52.47702117113727" lon="17.18558576241642"></trkpt><trkpt lat="52.477079045237495" lon="17.185489441917554"></trkpt><trkpt lat="52.47710974680314" lon="17.185461951475343"></trkpt><trkpt lat="52.47712167795879" lon="17.185322243627294"></trkpt><trkpt lat="52.477118519700944" lon="17.185145644710815"></trkpt><trkpt lat="52.47716686673446" lon="17.1851009660099"></trkpt><trkpt lat="52.47720221438074" lon="17.184919922449172"></trkpt><trkpt lat="52.47717681519412" lon="17.184822766541412"></trkpt><trkpt lat="52.477131662099595" lon="17.184707207623315"></trkpt><trkpt lat="52.477148940250004" lon="17.1846173167063"></trkpt><trkpt lat="52.47716779096327" lon="17.184450116933235"></trkpt><trkpt lat="52.47714468480803" lon="17.18427564837302"></trkpt><trkpt lat="52.47711269024304" lon="17.184198712256844"></trkpt><trkpt lat="52.47708910513239" lon="17.18402931768195"></trkpt><trkpt lat="52.47709298989178" lon="17.183924751383465"></trkpt><trkpt lat="52.47711150669008" lon="17.183832374656813"></trkpt><trkpt lat="52.47711889357758" lon="17.183786724067115"></trkpt><trkpt lat="52.47717021016349" lon="17.18345356177389"></trkpt><trkpt lat="52.47723501720927" lon="17.18319350036433"></trkpt><trkpt lat="52.47732896727329" lon="17.182828785355046"></trkpt><trkpt lat="52.47736061734631" lon="17.18263710399028"></trkpt><trkpt lat="52.4774039207679" lon="17.18262123724483"></trkpt><trkpt lat="52.47740234125738" lon="17.182431609852895"></trkpt><trkpt lat="52.47742563516545" lon="17.182331725272093"></trkpt><trkpt lat="52.47741310572566" lon="17.182203442757714"></trkpt><trkpt lat="52.47741233146292" lon="17.181775059205844"></trkpt><trkpt lat="52.47741679530969" lon="17.181705564625986"></trkpt><trkpt lat="52.477414283336614" lon="17.181589283446097"></trkpt><trkpt lat="52.47744495228875" lon="17.181567765015476"></trkpt><trkpt lat="52.47744382196734" lon="17.181474524652955"></trkpt><trkpt lat="52.47748758830589" lon="17.181384094571136"></trkpt><trkpt lat="52.47750225508509" lon="17.181144526495636"></trkpt><trkpt lat="52.47749733827128" lon="17.181113653649966"></trkpt><trkpt lat="52.47751857548984" lon="17.18098181979293"></trkpt><trkpt lat="52.47761013151459" lon="17.180983855047153"></trkpt><trkpt lat="52.477656584612475" lon="17.180795758990623"></trkpt><trkpt lat="52.47776539543676" lon="17.180555248717955"></trkpt><trkpt lat="52.47782692184689" lon="17.18048359748037"></trkpt><trkpt lat="52.47803551669786" lon="17.18003501582772"></trkpt><trkpt lat="52.47833478688345" lon="17.1794857925712"></trkpt><trkpt lat="52.478407338895956" lon="17.179372991416802"></trkpt><trkpt lat="52.47845410534494" lon="17.179277204723494"></trkpt><trkpt lat="52.47853203844116" lon="17.179223501721975"></trkpt><trkpt lat="52.47861220892872" lon="17.179087033375858"></trkpt><trkpt lat="52.47869452925452" lon="17.178981586338207"></trkpt><trkpt lat="52.478813149863626" lon="17.17883648706584"></trkpt><trkpt lat="52.47887081569619" lon="17.17873599293019"></trkpt><trkpt lat="52.47929609379534" lon="17.17827096641006"></trkpt><trkpt lat="52.479364336500616" lon="17.178231975184648"></trkpt><trkpt lat="52.47940809810958" lon="17.17821099364714"></trkpt><trkpt lat="52.47944537194447" lon="17.17814547279976"></trkpt><trkpt lat="52.47950906388096" lon="17.178161911815955"></trkpt><trkpt lat="52.479604032560886" lon="17.17819887430416"></trkpt><trkpt lat="52.479755263605824" lon="17.17822891315229"></trkpt><trkpt lat="52.47975770396073" lon="17.178190015672413"></trkpt><trkpt lat="52.480637630994615" lon="17.177652273966725"></trkpt><trkpt lat="52.48147613706983" lon="17.177054889081962"></trkpt><trkpt lat="52.482773789064865" lon="17.176277103856528"></trkpt><trkpt lat="52.48347697791209" lon="17.175852641185926"></trkpt><trkpt lat="52.483439149740285" lon="17.175904177053607"></trkpt><trkpt lat="52.48440617727478" lon="17.175165503687438"></trkpt><trkpt lat="52.485248424108356" lon="17.17465533069001"></trkpt><trkpt lat="52.485699681712354" lon="17.174356106388167"></trkpt><trkpt lat="52.48625250602139" lon="17.174033503368"></trkpt><trkpt lat="52.486589268742804" lon="17.17374450329038"></trkpt><trkpt lat="52.48718766065204" lon="17.17345819327009"></trkpt><trkpt lat="52.48723722175595" lon="17.17333628611715"></trkpt><trkpt lat="52.48749200631032" lon="17.173151972716916"></trkpt><trkpt lat="52.48767369876271" lon="17.173052373596256"></trkpt><trkpt lat="52.48799928176704" lon="17.172762803029983"></trkpt><trkpt lat="52.48835162283354" lon="17.172497466324177"></trkpt><trkpt lat="52.48924176365191" lon="17.17208935763446"></trkpt><trkpt lat="52.490669811333746" lon="17.171481149369463"></trkpt><trkpt lat="52.49065573354665" lon="17.171600778971136"></trkpt><trkpt lat="52.4911332265071" lon="17.172274475484503"></trkpt><trkpt lat="52.491817929019696" lon="17.17331565207357"></trkpt><trkpt lat="52.49298692089384" lon="17.175143638315355"></trkpt><trkpt lat="52.49360747582222" lon="17.176273153043745"></trkpt><trkpt lat="52.49468015986471" lon="17.177944407296938"></trkpt><trkpt lat="52.4948987741874" lon="17.17817498833416"></trkpt><trkpt lat="52.495051358806144" lon="17.178698381157982"></trkpt><trkpt lat="52.495098322304415" lon="17.179441290552763"></trkpt><trkpt lat="52.49511750072302" lon="17.181372779420734"></trkpt><trkpt lat="52.49509856143529" lon="17.182316398334937"></trkpt><trkpt lat="52.4951471166435" lon="17.182968436948293"></trkpt><trkpt lat="52.4951438753058" lon="17.18357057254698"></trkpt><trkpt lat="52.495132807473894" lon="17.183802583372348"></trkpt><trkpt lat="52.49523861226814" lon="17.184277425658962"></trkpt><trkpt lat="52.49546203643683" lon="17.184464981129707"></trkpt><trkpt lat="52.49555822660187" lon="17.18453826301988"></trkpt><trkpt lat="52.49565071045294" lon="17.184400714699265"></trkpt><trkpt lat="52.49570935038889" lon="17.184407987812765"></trkpt><trkpt lat="52.495780922825176" lon="17.184302593502544"></trkpt><trkpt lat="52.495938961078615" lon="17.184290471758874"></trkpt><trkpt lat="52.49599287655275" lon="17.184232402322635"></trkpt><trkpt lat="52.49604408610563" lon="17.18424829356112"></trkpt><trkpt lat="52.496220066649826" lon="17.184284696494547"></trkpt><trkpt lat="52.497441725807576" lon="17.184422137311167"></trkpt><trkpt lat="52.49755439062759" lon="17.184414170285564"></trkpt><trkpt lat="52.49763279593033" lon="17.18500966721848"></trkpt><trkpt lat="52.49776447879796" lon="17.185830431115367"></trkpt><trkpt lat="52.49795387882139" lon="17.187363794192777"></trkpt><trkpt lat="52.49829397805112" lon="17.1884300726505"></trkpt><trkpt lat="52.49875593629649" lon="17.189585970591672"></trkpt><trkpt lat="52.49945796160772" lon="17.19161018089718"></trkpt><trkpt lat="52.49985009643185" lon="17.192928088338245"></trkpt><trkpt lat="52.500163907870494" lon="17.19493139866082"></trkpt><trkpt lat="52.500178115640765" lon="17.19519399124087"></trkpt><trkpt lat="52.50014824359862" lon="17.195594103390146"></trkpt><trkpt lat="52.50015360993406" lon="17.195989418435094"></trkpt><trkpt lat="52.50006570739059" lon="17.19645485112847"></trkpt><trkpt lat="52.500081842042185" lon="17.197009090758517"></trkpt><trkpt lat="52.500142041677975" lon="17.19775772032132"></trkpt><trkpt lat="52.50027002582861" lon="17.19854703525552"></trkpt><trkpt lat="52.5003029945879" lon="17.199499246106868"></trkpt><trkpt lat="52.50031723516153" lon="17.20022162972086"></trkpt><trkpt lat="52.50024849893559" lon="17.201573806352762"></trkpt><trkpt lat="52.50115742604296" lon="17.201750727389076"></trkpt><trkpt lat="52.50293757843494" lon="17.202278471906435"></trkpt><trkpt lat="52.503437351527836" lon="17.202570705845755"></trkpt><trkpt lat="52.503707384463574" lon="17.203016822345965"></trkpt><trkpt lat="52.50379245357204" lon="17.203374712586772"></trkpt><trkpt lat="52.50372003624923" lon="17.20385814331189"></trkpt><trkpt lat="52.504388988051716" lon="17.204010029861138"></trkpt><trkpt lat="52.50452830087114" lon="17.203991137580157"></trkpt><trkpt lat="52.50460993467202" lon="17.20406681194109"></trkpt><trkpt lat="52.50476531278217" lon="17.20430941686389"></trkpt><trkpt lat="52.50480808297153" lon="17.204443696430022"></trkpt><trkpt lat="52.504875816075916" lon="17.204663217487692"></trkpt><trkpt lat="52.504906944062746" lon="17.20494357324641"></trkpt><trkpt lat="52.50481732449642" lon="17.20526424803419"></trkpt><trkpt lat="52.50480091359175" lon="17.205457762299194"></trkpt><trkpt lat="52.50481179843335" lon="17.205530218508184"></trkpt><trkpt lat="52.50490162073151" lon="17.205723419947162"></trkpt><trkpt lat="52.50494544405656" lon="17.205816832537472"></trkpt><trkpt lat="52.50524140195298" lon="17.206118557536676"></trkpt><trkpt lat="52.50566524806761" lon="17.20656211251419"></trkpt><trkpt lat="52.505879032148556" lon="17.206753196688187"></trkpt><trkpt lat="52.50601090851554" lon="17.206961926485487"></trkpt><trkpt lat="52.50620188813461" lon="17.20723198992318"></trkpt><trkpt lat="52.506311124918476" lon="17.20750940935892"></trkpt><trkpt lat="52.50668708442582" lon="17.208030835050447"></trkpt><trkpt lat="52.506552595432986" lon="17.208091020388512"></trkpt><trkpt lat="52.50655012554189" lon="17.208299876885"></trkpt><trkpt lat="52.506502349667215" lon="17.208431322404316"></trkpt><trkpt lat="52.506453148049545" lon="17.208645700053182"></trkpt><trkpt lat="52.506478930523656" lon="17.208830704980176"></trkpt><trkpt lat="52.50643565006338" lon="17.20963056103764"></trkpt><trkpt lat="52.50648303527766" lon="17.209934011428263"></trkpt><trkpt lat="52.50642758042606" lon="17.21016223176636"></trkpt><trkpt lat="52.50641544860845" lon="17.21048187451353"></trkpt><trkpt lat="52.50648943171581" lon="17.21073776040966"></trkpt><trkpt lat="52.50647263064262" lon="17.211000915456818"></trkpt><trkpt lat="52.50642291893854" lon="17.21104933807941"></trkpt><trkpt lat="52.50640951768295" lon="17.211326236901854"></trkpt><trkpt lat="52.50635922116259" lon="17.211797925036777"></trkpt><trkpt lat="52.50632384200212" lon="17.211984971087094"></trkpt><trkpt lat="52.50632534142743" lon="17.212093065477266"></trkpt><trkpt lat="52.5061862318533" lon="17.213362511455504"></trkpt><trkpt lat="52.50560627200755" lon="17.21278674440864"></trkpt><trkpt lat="52.50648943171581" lon="17.21073776040966"></trkpt><trkpt lat="52.50640951768295" lon="17.211326236901854"></trkpt><trkpt lat="52.50560627200755" lon="17.21278674440864"></trkpt><trkpt lat="52.50643" lon="17.209661"></trkpt><trkpt lat="52.506418" lon="17.21013"></trkpt><trkpt lat="52.506431" lon="17.210575"></trkpt><trkpt lat="52.506421" lon="17.211077"></trkpt><trkpt lat="52.506369" lon="17.211564"></trkpt><trkpt lat="52.506269" lon="17.212125"></trkpt><trkpt lat="52.506027" lon="17.212348"></trkpt><trkpt lat="52.506296" lon="17.212256"></trkpt><trkpt lat="52.506243" lon="17.212744"></trkpt><trkpt lat="52.506244" lon="17.213247"></trkpt><trkpt lat="52.506493" lon="17.21355"></trkpt><trkpt lat="52.506794" lon="17.213612"></trkpt><trkpt lat="52.507086" lon="17.213814"></trkpt><trkpt lat="52.507329" lon="17.214035"></trkpt><trkpt lat="52.507789" lon="17.214577"></trkpt><trkpt lat="52.507673" lon="17.215052"></trkpt><trkpt lat="52.507791" lon="17.215528"></trkpt><trkpt lat="52.507975" lon="17.215962"></trkpt><trkpt lat="52.51277" lon="17.226878"></trkpt><trkpt lat="52.517573" lon="17.237755"></trkpt><trkpt lat="52.522386" lon="17.248603"></trkpt><trkpt lat="52.522608" lon="17.249"></trkpt><trkpt lat="52.522851" lon="17.249515"></trkpt><trkpt lat="52.522656" lon="17.249858"></trkpt><trkpt lat="52.521051" lon="17.25313"></trkpt><trkpt lat="52.521174" lon="17.253577"></trkpt><trkpt lat="52.521411" lon="17.253901"></trkpt><trkpt lat="52.521943" lon="17.254779"></trkpt><trkpt lat="52.521976" lon="17.255258"></trkpt><trkpt lat="52.521978" lon="17.255737"></trkpt><trkpt lat="52.521981" lon="17.26919"></trkpt><trkpt lat="52.52154" lon="17.279605"></trkpt><trkpt lat="52.521488" lon="17.280055"></trkpt><trkpt lat="52.519644" lon="17.293148"></trkpt><trkpt lat="52.51954" lon="17.29358"></trkpt><trkpt lat="52.519468" lon="17.294024"></trkpt><trkpt lat="52.519001" lon="17.296241"></trkpt><trkpt lat="52.518882" lon="17.296645"></trkpt><trkpt lat="52.51844" lon="17.298535"></trkpt><trkpt lat="52.518433" lon="17.299033"></trkpt><trkpt lat="52.518165" lon="17.30319"></trkpt><trkpt lat="52.517891" lon="17.303186"></trkpt><trkpt lat="52.517006" lon="17.303322"></trkpt><trkpt lat="52.516849" lon="17.303756"></trkpt><trkpt lat="52.516785" lon="17.304208"></trkpt><trkpt lat="52.516315" lon="17.306572"></trkpt><trkpt lat="52.516046" lon="17.306642"></trkpt><trkpt lat="52.514705" lon="17.306477"></trkpt><trkpt lat="52.514685" lon="17.306952"></trkpt><trkpt lat="52.514131" lon="17.313007"></trkpt><trkpt lat="52.51386" lon="17.312953"></trkpt><trkpt lat="52.512523" lon="17.312521"></trkpt><trkpt lat="52.51224" lon="17.312545"></trkpt><trkpt lat="52.512001" lon="17.312843"></trkpt><trkpt lat="52.510929" lon="17.314387"></trkpt><trkpt lat="52.510483" lon="17.315134"></trkpt><trkpt lat="52.510338" lon="17.315509"></trkpt><trkpt lat="52.51022" lon="17.315943"></trkpt><trkpt lat="52.510132" lon="17.31637"></trkpt><trkpt lat="52.510053" lon="17.316874"></trkpt><trkpt lat="52.509894" lon="17.317333"></trkpt><trkpt lat="52.509718" lon="17.317755"></trkpt><trkpt lat="52.509632" lon="17.318241"></trkpt><trkpt lat="52.509119" lon="17.322163"></trkpt><trkpt lat="52.509168" lon="17.322688"></trkpt><trkpt lat="52.509142" lon="17.323211"></trkpt><trkpt lat="52.509136" lon="17.324296"></trkpt><trkpt lat="52.509189" lon="17.325505"></trkpt><trkpt lat="52.50934" lon="17.325914"></trkpt><trkpt lat="52.509539" lon="17.326281"></trkpt><trkpt lat="52.509747" lon="17.326732"></trkpt><trkpt lat="52.509768" lon="17.327221"></trkpt><trkpt lat="52.509721" lon="17.327697"></trkpt><trkpt lat="52.509711" lon="17.328178"></trkpt><trkpt lat="52.509604" lon="17.328587"></trkpt><trkpt lat="52.509445" lon="17.329088"></trkpt><trkpt lat="52.509216" lon="17.329672"></trkpt><trkpt lat="52.508973" lon="17.329998"></trkpt><trkpt lat="52.508788" lon="17.330336"></trkpt><trkpt lat="52.508099" lon="17.331791"></trkpt><trkpt lat="52.507909" lon="17.332121"></trkpt><trkpt lat="52.50718" lon="17.333579"></trkpt><trkpt lat="52.505535" lon="17.336435"></trkpt><trkpt lat="52.50354" lon="17.340432"></trkpt><trkpt lat="52.503354" lon="17.340755"></trkpt><trkpt lat="52.503119" lon="17.341079"></trkpt><trkpt lat="52.502941" lon="17.34142"></trkpt><trkpt lat="52.501193" lon="17.34529"></trkpt><trkpt lat="52.501412" lon="17.345555"></trkpt><trkpt lat="52.501616" lon="17.345868"></trkpt><trkpt lat="52.503309" lon="17.348865"></trkpt><trkpt lat="52.503427" lon="17.349286"></trkpt><trkpt lat="52.506651" lon="17.36171"></trkpt><trkpt lat="52.507329" lon="17.365022"></trkpt><trkpt lat="52.507068" lon="17.364892"></trkpt><trkpt lat="52.500637" lon="17.36248"></trkpt><trkpt lat="52.496664" lon="17.361483"></trkpt><trkpt lat="52.496422" lon="17.361739"></trkpt><trkpt lat="52.494506" lon="17.363429"></trkpt><trkpt lat="52.491016" lon="17.363454"></trkpt></trkseg></trk></gpx>