<?xml version="1.0" encoding="UTF-8" standalone="no" ?><gpx xmlns="http://www.topografix.com/GPX/1/1" xmlns:gpxx="http://www.garmin.com/xmlschemas/GpxExtensions/v3" ><trk><trkseg><trkpt lat="50.60547" lon="17.035101"></trkpt><trkpt lat="50.605651" lon="17.035519"></trkpt><trkpt lat="50.605607" lon="17.035941"></trkpt><trkpt lat="50.605497" lon="17.036564"></trkpt><trkpt lat="50.605123" lon="17.038124"></trkpt><trkpt lat="50.604018" lon="17.041707"></trkpt><trkpt lat="50.603998" lon="17.041199"></trkpt><trkpt lat="50.603927" lon="17.040663"></trkpt><trkpt lat="50.603714" lon="17.040401"></trkpt><trkpt lat="50.603392" lon="17.040573"></trkpt><trkpt lat="50.603157" lon="17.040824"></trkpt><trkpt lat="50.602893" lon="17.041046"></trkpt><trkpt lat="50.602422" lon="17.041335"></trkpt><trkpt lat="50.602208" lon="17.041005"></trkpt><trkpt lat="50.601925" lon="17.04084"></trkpt><trkpt lat="50.601695" lon="17.041164"></trkpt><trkpt lat="50.601374" lon="17.041324"></trkpt><trkpt lat="50.600863" lon="17.041457"></trkpt><trkpt lat="50.600644" lon="17.041183"></trkpt><trkpt lat="50.60042" lon="17.040812"></trkpt><trkpt lat="50.600174" lon="17.040627"></trkpt><trkpt lat="50.599754" lon="17.040186"></trkpt><trkpt lat="50.599568" lon="17.03983"></trkpt><trkpt lat="50.599312" lon="17.039645"></trkpt><trkpt lat="50.598886" lon="17.039257"></trkpt><trkpt lat="50.598569" lon="17.039045"></trkpt><trkpt lat="50.597435" lon="17.038073"></trkpt><trkpt lat="50.594832" lon="17.036338"></trkpt><trkpt lat="50.59447" lon="17.036366"></trkpt><trkpt lat="50.594198" lon="17.036481"></trkpt><trkpt lat="50.593816" lon="17.036487"></trkpt><trkpt lat="50.593502" lon="17.036615"></trkpt><trkpt lat="50.593242" lon="17.036828"></trkpt><trkpt lat="50.593025" lon="17.037107"></trkpt><trkpt lat="50.592843" lon="17.037489"></trkpt><trkpt lat="50.592564" lon="17.03797"></trkpt><trkpt lat="50.592402" lon="17.038468"></trkpt><trkpt lat="50.592172" lon="17.038857"></trkpt><trkpt lat="50.591912" lon="17.039218"></trkpt><trkpt lat="50.589963" lon="17.041416"></trkpt><trkpt lat="50.589605" lon="17.041665"></trkpt><trkpt lat="50.589157" lon="17.042137"></trkpt><trkpt lat="50.589016" lon="17.042528"></trkpt><trkpt lat="50.588947" lon="17.042967"></trkpt><trkpt lat="50.588944" lon="17.043561"></trkpt><trkpt lat="50.588893" lon="17.044365"></trkpt><trkpt lat="50.588823" lon="17.044832"></trkpt><trkpt lat="50.588695" lon="17.045295"></trkpt><trkpt lat="50.588096" lon="17.047004"></trkpt><trkpt lat="50.587915" lon="17.047423"></trkpt><trkpt lat="50.58246" lon="17.058824"></trkpt><trkpt lat="50.582275" lon="17.059134"></trkpt><trkpt lat="50.581898" lon="17.059662"></trkpt><trkpt lat="50.582096" lon="17.059346"></trkpt><trkpt lat="50.582318" lon="17.058921"></trkpt><trkpt lat="50.582523" lon="17.058592"></trkpt><trkpt lat="50.582694" lon="17.05826"></trkpt><trkpt lat="50.582944" lon="17.057861"></trkpt><trkpt lat="50.587312" lon="17.04888"></trkpt></trkseg><trkseg><trkpt lat="50.602196" lon="17.040323"></trkpt><trkpt lat="50.601348" lon="17.040245"></trkpt><trkpt lat="50.601473" lon="17.039839"></trkpt><trkpt lat="50.601726" lon="17.039597"></trkpt><trkpt lat="50.602002" lon="17.039485"></trkpt><trkpt lat="50.602187" lon="17.039175"></trkpt><trkpt lat="50.602394" lon="17.038712"></trkpt><trkpt lat="50.602538" lon="17.03831"></trkpt><trkpt lat="50.602754" lon="17.037944"></trkpt><trkpt lat="50.60291" lon="17.037561"></trkpt><trkpt lat="50.60311" lon="17.037193"></trkpt><trkpt lat="50.603335" lon="17.036925"></trkpt><trkpt lat="50.603622" lon="17.03643"></trkpt><trkpt lat="50.603866" lon="17.036236"></trkpt><trkpt lat="50.604169" lon="17.035863"></trkpt><trkpt lat="50.605877" lon="17.034136"></trkpt><trkpt lat="50.60618" lon="17.03402"></trkpt><trkpt lat="50.606456" lon="17.033963"></trkpt><trkpt lat="50.607321" lon="17.034006"></trkpt><trkpt lat="50.607679" lon="17.0339"></trkpt><trkpt lat="50.607994" lon="17.033906"></trkpt><trkpt lat="50.608463" lon="17.033992"></trkpt></trkseg></trk></gpx>