<?xml version="1.0" encoding="UTF-8" standalone="no" ?><gpx xmlns="http://www.topografix.com/GPX/1/1" xmlns:gpxx="http://www.garmin.com/xmlschemas/GpxExtensions/v3" ><trk><trkseg><trkpt lat="50.842938" lon="16.484744"></trkpt><trkpt lat="50.842633" lon="16.48563"></trkpt><trkpt lat="50.842433" lon="16.485988"></trkpt><trkpt lat="50.842424" lon="16.486435"></trkpt><trkpt lat="50.842196" lon="16.486954"></trkpt><trkpt lat="50.842176" lon="16.487389"></trkpt><trkpt lat="50.842325" lon="16.487793"></trkpt><trkpt lat="50.842582" lon="16.48794"></trkpt><trkpt lat="50.842792" lon="16.488232"></trkpt><trkpt lat="50.842736" lon="16.488682"></trkpt><trkpt lat="50.84259" lon="16.489051"></trkpt><trkpt lat="50.842208" lon="16.4893"></trkpt><trkpt lat="50.842262" lon="16.489881"></trkpt><trkpt lat="50.84232" lon="16.491623"></trkpt><trkpt lat="50.842295" lon="16.492549"></trkpt><trkpt lat="50.842118" lon="16.492896"></trkpt><trkpt lat="50.842063" lon="16.492424"></trkpt><trkpt lat="50.841839" lon="16.492079"></trkpt><trkpt lat="50.841645" lon="16.491644"></trkpt><trkpt lat="50.841546" lon="16.491181"></trkpt><trkpt lat="50.841448" lon="16.490464"></trkpt><trkpt lat="50.841464" lon="16.489996"></trkpt><trkpt lat="50.841516" lon="16.489525"></trkpt><trkpt lat="50.8416" lon="16.48904"></trkpt><trkpt lat="50.84165" lon="16.48858"></trkpt><trkpt lat="50.841757" lon="16.488168"></trkpt><trkpt lat="50.84193" lon="16.487797"></trkpt><trkpt lat="50.842007" lon="16.487326"></trkpt><trkpt lat="50.842218" lon="16.487049"></trkpt><trkpt lat="50.842393" lon="16.486647"></trkpt><trkpt lat="50.842539" lon="16.4862"></trkpt><trkpt lat="50.842474" lon="16.485652"></trkpt><trkpt lat="50.842735" lon="16.485162"></trkpt></trkseg></trk></gpx>