<?xml version="1.0" encoding="UTF-8" standalone="no" ?><gpx xmlns="http://www.topografix.com/GPX/1/1" xmlns:gpxx="http://www.garmin.com/xmlschemas/GpxExtensions/v3" ><trk><trkseg><trkpt lat="50.935942" lon="15.684544"></trkpt><trkpt lat="50.935594" lon="15.684612"></trkpt><trkpt lat="50.933584" lon="15.685364"></trkpt><trkpt lat="50.933332" lon="15.685622"></trkpt><trkpt lat="50.933195" lon="15.685248"></trkpt><trkpt lat="50.933071" lon="15.684772"></trkpt><trkpt lat="50.932721" lon="15.684776"></trkpt><trkpt lat="50.932431" lon="15.684993"></trkpt><trkpt lat="50.932123" lon="15.685129"></trkpt><trkpt lat="50.931769" lon="15.685167"></trkpt><trkpt lat="50.930348" lon="15.685523"></trkpt><trkpt lat="50.930085" lon="15.685753"></trkpt><trkpt lat="50.929948" lon="15.68614"></trkpt><trkpt lat="50.929825" lon="15.686589"></trkpt><trkpt lat="50.929684" lon="15.686976"></trkpt><trkpt lat="50.929508" lon="15.687649"></trkpt><trkpt lat="50.929271" lon="15.68835"></trkpt><trkpt lat="50.927605" lon="15.692265"></trkpt><trkpt lat="50.927234" lon="15.692342"></trkpt><trkpt lat="50.926894" lon="15.692495"></trkpt><trkpt lat="50.926312" lon="15.692665"></trkpt><trkpt lat="50.925997" lon="15.692839"></trkpt><trkpt lat="50.925514" lon="15.692695"></trkpt><trkpt lat="50.925004" lon="15.692639"></trkpt><trkpt lat="50.924745" lon="15.692812"></trkpt><trkpt lat="50.924474" lon="15.693056"></trkpt><trkpt lat="50.924117" lon="15.693307"></trkpt><trkpt lat="50.923883" lon="15.69355"></trkpt><trkpt lat="50.923476" lon="15.693885"></trkpt><trkpt lat="50.9233" lon="15.694273"></trkpt><trkpt lat="50.923126" lon="15.694755"></trkpt><trkpt lat="50.922898" lon="15.695003"></trkpt><trkpt lat="50.922799" lon="15.695418"></trkpt><trkpt lat="50.922985" lon="15.695794"></trkpt><trkpt lat="50.923252" lon="15.695984"></trkpt><trkpt lat="50.923528" lon="15.696093"></trkpt><trkpt lat="50.923249" lon="15.695929"></trkpt><trkpt lat="50.922943" lon="15.695805"></trkpt><trkpt lat="50.92269" lon="15.695964"></trkpt><trkpt lat="50.922643" lon="15.696412"></trkpt><trkpt lat="50.922411" lon="15.69679"></trkpt><trkpt lat="50.922435" lon="15.696316"></trkpt><trkpt lat="50.922663" lon="15.696596"></trkpt><trkpt lat="50.922691" lon="15.696117"></trkpt><trkpt lat="50.92268" lon="15.695591"></trkpt><trkpt lat="50.922837" lon="15.695219"></trkpt><trkpt lat="50.922998" lon="15.694725"></trkpt><trkpt lat="50.92319" lon="15.694367"></trkpt><trkpt lat="50.923314" lon="15.693978"></trkpt><trkpt lat="50.923612" lon="15.693771"></trkpt><trkpt lat="50.923862" lon="15.693508"></trkpt><trkpt lat="50.92412" lon="15.693335"></trkpt><trkpt lat="50.924328" lon="15.69304"></trkpt><trkpt lat="50.924575" lon="15.692754"></trkpt><trkpt lat="50.924864" lon="15.692565"></trkpt><trkpt lat="50.925285" lon="15.692483"></trkpt><trkpt lat="50.925834" lon="15.692669"></trkpt><trkpt lat="50.926109" lon="15.692687"></trkpt><trkpt lat="50.926489" lon="15.692607"></trkpt><trkpt lat="50.926777" lon="15.692475"></trkpt><trkpt lat="50.927879" lon="15.691791"></trkpt><trkpt lat="50.928079" lon="15.691374"></trkpt><trkpt lat="50.928286" lon="15.690764"></trkpt><trkpt lat="50.928497" lon="15.690387"></trkpt><trkpt lat="50.928684" lon="15.689982"></trkpt><trkpt lat="50.928796" lon="15.689573"></trkpt><trkpt lat="50.928954" lon="15.68921"></trkpt><trkpt lat="50.929043" lon="15.688789"></trkpt><trkpt lat="50.929275" lon="15.688295"></trkpt><trkpt lat="50.929513" lon="15.68766"></trkpt><trkpt lat="50.92957" lon="15.687183"></trkpt><trkpt lat="50.929722" lon="15.686795"></trkpt><trkpt lat="50.929837" lon="15.686405"></trkpt><trkpt lat="50.929922" lon="15.685997"></trkpt><trkpt lat="50.930116" lon="15.685583"></trkpt><trkpt lat="50.93042" lon="15.685347"></trkpt><trkpt lat="50.930825" lon="15.6852"></trkpt><trkpt lat="50.931095" lon="15.685194"></trkpt><trkpt lat="50.931375" lon="15.685133"></trkpt><trkpt lat="50.931777" lon="15.685124"></trkpt><trkpt lat="50.932324" lon="15.685028"></trkpt><trkpt lat="50.932633" lon="15.684838"></trkpt><trkpt lat="50.933044" lon="15.684706"></trkpt><trkpt lat="50.933228" lon="15.685277"></trkpt><trkpt lat="50.933421" lon="15.685644"></trkpt><trkpt lat="50.933643" lon="15.685331"></trkpt><trkpt lat="50.933916" lon="15.685078"></trkpt><trkpt lat="50.934179" lon="15.684966"></trkpt><trkpt lat="50.935226" lon="15.684681"></trkpt><trkpt lat="50.935625" lon="15.684642"></trkpt><trkpt lat="50.935914" lon="15.6848"></trkpt><trkpt lat="50.93619" lon="15.684115"></trkpt></trkseg></trk></gpx>