<?xml version="1.0" encoding="UTF-8" standalone="no" ?><gpx xmlns="http://www.topografix.com/GPX/1/1" xmlns:gpxx="http://www.garmin.com/xmlschemas/GpxExtensions/v3" ><trk><trkseg><trkpt lat="52.50576025507234" lon="17.21335029250342"></trkpt><trkpt lat="52.506438" lon="17.20968"></trkpt><trkpt lat="52.506428" lon="17.210186"></trkpt><trkpt lat="52.506442" lon="17.210687"></trkpt><trkpt lat="52.506417" lon="17.211171"></trkpt><trkpt lat="52.506374" lon="17.211619"></trkpt><trkpt lat="52.506281" lon="17.213421"></trkpt><trkpt lat="52.506564" lon="17.21358"></trkpt><trkpt lat="52.50685" lon="17.213634"></trkpt><trkpt lat="52.507111" lon="17.213824"></trkpt><trkpt lat="52.507375" lon="17.214061"></trkpt><trkpt lat="52.507796" lon="17.214555"></trkpt><trkpt lat="52.5077" lon="17.215037"></trkpt><trkpt lat="52.507804" lon="17.21554"></trkpt><trkpt lat="52.507993" lon="17.215963"></trkpt><trkpt lat="52.513572" lon="17.228648"></trkpt><trkpt lat="52.519176" lon="17.241399"></trkpt><trkpt lat="52.522441" lon="17.250207"></trkpt><trkpt lat="52.522241" lon="17.25056"></trkpt><trkpt lat="52.52105" lon="17.253027"></trkpt><trkpt lat="52.521135" lon="17.253469"></trkpt><trkpt lat="52.521345" lon="17.2538"></trkpt><trkpt lat="52.521582" lon="17.254105"></trkpt><trkpt lat="52.528859" lon="17.26432"></trkpt><trkpt lat="52.534231" lon="17.270849"></trkpt><trkpt lat="52.534301" lon="17.270412"></trkpt><trkpt lat="52.534347" lon="17.269971"></trkpt><trkpt lat="52.536118" lon="17.254562"></trkpt><trkpt lat="52.536328" lon="17.254232"></trkpt><trkpt lat="52.538403" lon="17.251404"></trkpt><trkpt lat="52.538637" lon="17.251136"></trkpt><trkpt lat="52.53884" lon="17.25075"></trkpt><trkpt lat="52.539245" lon="17.25012"></trkpt><trkpt lat="52.539544" lon="17.249924"></trkpt><trkpt lat="52.539805" lon="17.249638"></trkpt><trkpt lat="52.540074" lon="17.249388"></trkpt><trkpt lat="52.540362" lon="17.249233"></trkpt><trkpt lat="52.54064" lon="17.249161"></trkpt><trkpt lat="52.540921" lon="17.249054"></trkpt><trkpt lat="52.548389" lon="17.245274"></trkpt><trkpt lat="52.548647" lon="17.244966"></trkpt><trkpt lat="52.552213" lon="17.241324"></trkpt><trkpt lat="52.552525" lon="17.241288"></trkpt><trkpt lat="52.554167" lon="17.240861"></trkpt><trkpt lat="52.554177" lon="17.240373"></trkpt><trkpt lat="52.554212" lon="17.239897"></trkpt><trkpt lat="52.554311" lon="17.23943"></trkpt><trkpt lat="52.554546" lon="17.239142"></trkpt><trkpt lat="52.554804" lon="17.238933"></trkpt><trkpt lat="52.555102" lon="17.238736"></trkpt><trkpt lat="52.55557" lon="17.238352"></trkpt><trkpt lat="52.555756" lon="17.238027"></trkpt><trkpt lat="52.555907" lon="17.2376"></trkpt><trkpt lat="52.556023" lon="17.237169"></trkpt><trkpt lat="52.556106" lon="17.236744"></trkpt><trkpt lat="52.556162" lon="17.236308"></trkpt><trkpt lat="52.556423" lon="17.234841"></trkpt><trkpt lat="52.55658" lon="17.234406"></trkpt><trkpt lat="52.557242" lon="17.232891"></trkpt><trkpt lat="52.55749" lon="17.232605"></trkpt><trkpt lat="52.557818" lon="17.232293"></trkpt><trkpt lat="52.558149" lon="17.232323"></trkpt><trkpt lat="52.558429" lon="17.232381"></trkpt><trkpt lat="52.559152" lon="17.232439"></trkpt><trkpt lat="52.559419" lon="17.232263"></trkpt><trkpt lat="52.559703" lon="17.232003"></trkpt><trkpt lat="52.55999" lon="17.231922"></trkpt><trkpt lat="52.569319" lon="17.235266"></trkpt><trkpt lat="52.57874" lon="17.237468"></trkpt><trkpt lat="52.578976" lon="17.237215"></trkpt><trkpt lat="52.579257" lon="17.237087"></trkpt><trkpt lat="52.583112" lon="17.234834"></trkpt><trkpt lat="52.58333" lon="17.234476"></trkpt><trkpt lat="52.584515" lon="17.232237"></trkpt><trkpt lat="52.58437" lon="17.231811"></trkpt><trkpt lat="52.584152" lon="17.231267"></trkpt><trkpt lat="52.581894" lon="17.224643"></trkpt><trkpt lat="52.581875" lon="17.224186"></trkpt><trkpt lat="52.58069" lon="17.208628"></trkpt><trkpt lat="52.580594" lon="17.208166"></trkpt><trkpt lat="52.577188" lon="17.193528"></trkpt><trkpt lat="52.576567" lon="17.191465"></trkpt><trkpt lat="52.576297" lon="17.191693"></trkpt><trkpt lat="52.574372" lon="17.193011"></trkpt><trkpt lat="52.57406" lon="17.192926"></trkpt><trkpt lat="52.572992" lon="17.192773"></trkpt><trkpt lat="52.5727" lon="17.192906"></trkpt><trkpt lat="52.56952" lon="17.193945"></trkpt><trkpt lat="52.569277" lon="17.193626"></trkpt><trkpt lat="52.562904" lon="17.186408"></trkpt><trkpt lat="52.562651" lon="17.186237"></trkpt><trkpt lat="52.562385" lon="17.186096"></trkpt><trkpt lat="52.559112" lon="17.184784"></trkpt><trkpt lat="52.558572" lon="17.184933"></trkpt><trkpt lat="52.555815" lon="17.185369"></trkpt><trkpt lat="52.554795" lon="17.185654"></trkpt><trkpt lat="52.554531" lon="17.185796"></trkpt><trkpt lat="52.553955" lon="17.186031"></trkpt><trkpt lat="52.55365" lon="17.186198"></trkpt><trkpt lat="52.553429" lon="17.186517"></trkpt><trkpt lat="52.552874" lon="17.187474"></trkpt><trkpt lat="52.552797" lon="17.187912"></trkpt><trkpt lat="52.552375" lon="17.189776"></trkpt><trkpt lat="52.552106" lon="17.189543"></trkpt><trkpt lat="52.552028" lon="17.190004"></trkpt><trkpt lat="52.551762" lon="17.190187"></trkpt><trkpt lat="52.551349" lon="17.189844"></trkpt><trkpt lat="52.549795" lon="17.188316"></trkpt><trkpt lat="52.54959" lon="17.188016"></trkpt><trkpt lat="52.548556" lon="17.186721"></trkpt><trkpt lat="52.548252" lon="17.186528"></trkpt><trkpt lat="52.54326" lon="17.184017"></trkpt><trkpt lat="52.542952" lon="17.183943"></trkpt><trkpt lat="52.539618" lon="17.183532"></trkpt><trkpt lat="52.539338" lon="17.183533"></trkpt><trkpt lat="52.538227" lon="17.183687"></trkpt><trkpt lat="52.53811" lon="17.184112"></trkpt><trkpt lat="52.537916" lon="17.184463"></trkpt><trkpt lat="52.53764" lon="17.184279"></trkpt><trkpt lat="52.537265" lon="17.184082"></trkpt><trkpt lat="52.537224" lon="17.184548"></trkpt><trkpt lat="52.5373" lon="17.184109"></trkpt><trkpt lat="52.537014" lon="17.183931"></trkpt><trkpt lat="52.528006" lon="17.178831"></trkpt><trkpt lat="52.527018" lon="17.178404"></trkpt><trkpt lat="52.526885" lon="17.178859"></trkpt><trkpt lat="52.526775" lon="17.179331"></trkpt><trkpt lat="52.526347" lon="17.180803"></trkpt><trkpt lat="52.526133" lon="17.181159"></trkpt><trkpt lat="52.525879" lon="17.181498"></trkpt><trkpt lat="52.525507" lon="17.182074"></trkpt><trkpt lat="52.520116" lon="17.189299"></trkpt><trkpt lat="52.519833" lon="17.189418"></trkpt><trkpt lat="52.519222" lon="17.189599"></trkpt><trkpt lat="52.517833" lon="17.190184"></trkpt><trkpt lat="52.516926" lon="17.190681"></trkpt><trkpt lat="52.516624" lon="17.190886"></trkpt><trkpt lat="52.516429" lon="17.191214"></trkpt><trkpt lat="52.516321" lon="17.191645"></trkpt><trkpt lat="52.514232" lon="17.198537"></trkpt><trkpt lat="52.513977" lon="17.198818"></trkpt><trkpt lat="52.513704" lon="17.199039"></trkpt><trkpt lat="52.509921" lon="17.202662"></trkpt><trkpt lat="52.509723" lon="17.202986"></trkpt><trkpt lat="52.506448" lon="17.209156"></trkpt><trkpt lat="52.506422" lon="17.209637"></trkpt><trkpt lat="52.506416" lon="17.210212"></trkpt><trkpt lat="52.506316" lon="17.212095"></trkpt><trkpt lat="52.50642" lon="17.211655"></trkpt><trkpt lat="52.506465" lon="17.211197"></trkpt><trkpt lat="52.506479" lon="17.210698"></trkpt><trkpt lat="52.506464" lon="17.210196"></trkpt><trkpt lat="52.506475" lon="17.209747"></trkpt><trkpt lat="52.5057129027661" lon="17.212873500133824"></trkpt></trkseg></trk></gpx>