<?xml version="1.0" encoding="UTF-8" standalone="no" ?><gpx xmlns="http://www.topografix.com/GPX/1/1" xmlns:gpxx="http://www.garmin.com/xmlschemas/GpxExtensions/v3" ><trk><trkseg><trkpt lat="52.505755875133815" lon="17.212724646662075"></trkpt><trkpt lat="52.506412" lon="17.209767"></trkpt><trkpt lat="52.506419" lon="17.210293"></trkpt><trkpt lat="52.506385" lon="17.211365"></trkpt><trkpt lat="52.506331" lon="17.211905"></trkpt><trkpt lat="52.506253" lon="17.213381"></trkpt><trkpt lat="52.506539" lon="17.213542"></trkpt><trkpt lat="52.506863" lon="17.213611"></trkpt><trkpt lat="52.507169" lon="17.213854"></trkpt><trkpt lat="52.50776" lon="17.214422"></trkpt><trkpt lat="52.507698" lon="17.214892"></trkpt><trkpt lat="52.507726" lon="17.215362"></trkpt><trkpt lat="52.507926" lon="17.215819"></trkpt><trkpt lat="52.51128" lon="17.223491"></trkpt><trkpt lat="52.51464" lon="17.231065"></trkpt><trkpt lat="52.517982" lon="17.238698"></trkpt><trkpt lat="52.521321" lon="17.246201"></trkpt><trkpt lat="52.523023" lon="17.24949"></trkpt><trkpt lat="52.523238" lon="17.249218"></trkpt><trkpt lat="52.523475" lon="17.248961"></trkpt><trkpt lat="52.5245" lon="17.247663"></trkpt><trkpt lat="52.524575" lon="17.247176"></trkpt><trkpt lat="52.525749" lon="17.241369"></trkpt><trkpt lat="52.526023" lon="17.241586"></trkpt><trkpt lat="52.531259" lon="17.245215"></trkpt><trkpt lat="52.531568" lon="17.24536"></trkpt><trkpt lat="52.533035" lon="17.246253"></trkpt><trkpt lat="52.533242" lon="17.246566"></trkpt><trkpt lat="52.536448" lon="17.250738"></trkpt><trkpt lat="52.536756" lon="17.250852"></trkpt><trkpt lat="52.538149" lon="17.251573"></trkpt><trkpt lat="52.53792" lon="17.251833"></trkpt><trkpt lat="52.537683" lon="17.252157"></trkpt><trkpt lat="52.535769" lon="17.255254"></trkpt><trkpt lat="52.535696" lon="17.255828"></trkpt><trkpt lat="52.534772" lon="17.264999"></trkpt><trkpt lat="52.533879" lon="17.274178"></trkpt><trkpt lat="52.532791" lon="17.281845"></trkpt><trkpt lat="52.532689" lon="17.28237"></trkpt><trkpt lat="52.531724" lon="17.288946"></trkpt><trkpt lat="52.531715" lon="17.289443"></trkpt><trkpt lat="52.531862" lon="17.29501"></trkpt><trkpt lat="52.532008" lon="17.295397"></trkpt><trkpt lat="52.531837" lon="17.294941"></trkpt><trkpt lat="52.531463" lon="17.2941"></trkpt><trkpt lat="52.531169" lon="17.293886"></trkpt><trkpt lat="52.530626" lon="17.293567"></trkpt><trkpt lat="52.525282" lon="17.290424"></trkpt><trkpt lat="52.519974" lon="17.287216"></trkpt><trkpt lat="52.519731" lon="17.287015"></trkpt><trkpt lat="52.518722" lon="17.286321"></trkpt><trkpt lat="52.518354" lon="17.286117"></trkpt><trkpt lat="52.513025" lon="17.282749"></trkpt><trkpt lat="52.512724" lon="17.28261"></trkpt><trkpt lat="52.510931" lon="17.281555"></trkpt><trkpt lat="52.510665" lon="17.281362"></trkpt><trkpt lat="52.508159" lon="17.279187"></trkpt><trkpt lat="52.507944" lon="17.278873"></trkpt><trkpt lat="52.507261" lon="17.278014"></trkpt><trkpt lat="52.506971" lon="17.27781"></trkpt><trkpt lat="52.506728" lon="17.277585"></trkpt><trkpt lat="52.506399" lon="17.277608"></trkpt><trkpt lat="52.50576108069006" lon="17.277728067716513"></trkpt><trkpt lat="52.504880650751055" lon="17.278198776688484"></trkpt><trkpt lat="52.50394679433485" lon="17.27803864453947"></trkpt><trkpt lat="52.503075942552364" lon="17.27862243599862"></trkpt><trkpt lat="52.50216893368351" lon="17.278779306633815"></trkpt><trkpt lat="52.495840140712595" lon="17.280116740217466"></trkpt><trkpt lat="52.49400792388947" lon="17.28021567002543"></trkpt><trkpt lat="52.493105154890216" lon="17.280422610183095"></trkpt><trkpt lat="52.492213334027376" lon="17.280758785348414"></trkpt><trkpt lat="52.4913341453833" lon="17.281244066558937"></trkpt><trkpt lat="52.490436992231125" lon="17.28151728667325"></trkpt><trkpt lat="52.48862097882853" lon="17.281807502719065"></trkpt><trkpt lat="52.48770413843315" lon="17.281848349686705"></trkpt><trkpt lat="52.48679850892192" lon="17.282021523734137"></trkpt><trkpt lat="52.48587992292612" lon="17.28204177895379"></trkpt><trkpt lat="52.484990399441436" lon="17.282405047934866"></trkpt><trkpt lat="52.484076186361676" lon="17.282476921049486"></trkpt><trkpt lat="52.483174926546404" lon="17.282701672457023"></trkpt><trkpt lat="52.48228903044004" lon="17.28310773991843"></trkpt><trkpt lat="52.481379520850886" lon="17.283235127315333"></trkpt><trkpt lat="52.48048245406126" lon="17.283509357243503"></trkpt></trkseg></trk></gpx>