<?xml version="1.0" encoding="UTF-8" standalone="no" ?><gpx xmlns="http://www.topografix.com/GPX/1/1" xmlns:gpxx="http://www.garmin.com/xmlschemas/GpxExtensions/v3" ><trk><trkseg><trkpt lat="54.14856" lon="21.078482"></trkpt><trkpt lat="54.1484" lon="21.078265"></trkpt><trkpt lat="54.137067" lon="21.062244"></trkpt><trkpt lat="54.134678" lon="21.059405"></trkpt><trkpt lat="54.13419" lon="21.058967"></trkpt><trkpt lat="54.133556" lon="21.058583"></trkpt><trkpt lat="54.129669" lon="21.056791"></trkpt><trkpt lat="54.128956" lon="21.056632"></trkpt><trkpt lat="54.114412" lon="21.05362"></trkpt><trkpt lat="54.113717" lon="21.053295"></trkpt><trkpt lat="54.113033" lon="21.052857"></trkpt><trkpt lat="54.112372" lon="21.052335"></trkpt><trkpt lat="54.110734" lon="21.050611"></trkpt><trkpt lat="54.110369" lon="21.050117"></trkpt><trkpt lat="54.109989" lon="21.049684"></trkpt><trkpt lat="54.109465" lon="21.048835"></trkpt><trkpt lat="54.098588" lon="21.031773"></trkpt><trkpt lat="54.098406" lon="21.031534"></trkpt><trkpt lat="54.097644" lon="21.030676"></trkpt><trkpt lat="54.09621" lon="21.029346"></trkpt><trkpt lat="54.095758" lon="21.029088"></trkpt><trkpt lat="54.092792" lon="21.027836"></trkpt><trkpt lat="54.092039" lon="21.027768"></trkpt><trkpt lat="54.077246" lon="21.025121"></trkpt><trkpt lat="54.076926" lon="21.025018"></trkpt><trkpt lat="54.067328" lon="21.023112"></trkpt><trkpt lat="54.067037" lon="21.023129"></trkpt><trkpt lat="54.066908" lon="21.022873"></trkpt><trkpt lat="54.066805" lon="21.022384"></trkpt><trkpt lat="54.0666" lon="21.022903"></trkpt><trkpt lat="54.066354" lon="21.022977"></trkpt><trkpt lat="54.066086" lon="21.022969"></trkpt><trkpt lat="54.065827" lon="21.022912"></trkpt><trkpt lat="54.058708" lon="21.020166"></trkpt><trkpt lat="54.058006" lon="21.01967"></trkpt><trkpt lat="54.057711" lon="21.019354"></trkpt><trkpt lat="54.055138" lon="21.016089"></trkpt><trkpt lat="54.054982" lon="21.015837"></trkpt><trkpt lat="54.04444" lon="20.99852"></trkpt><trkpt lat="54.03344" lon="20.98105"></trkpt><trkpt lat="54.032691" lon="20.980054"></trkpt><trkpt lat="54.03197" lon="20.979311"></trkpt><trkpt lat="54.03098" lon="20.978454"></trkpt><trkpt lat="54.030546" lon="20.978172"></trkpt><trkpt lat="54.028966" lon="20.977424"></trkpt><trkpt lat="54.027808" lon="20.977124"></trkpt><trkpt lat="54.027113" lon="20.977096"></trkpt><trkpt lat="54.024541" lon="20.977612"></trkpt><trkpt lat="54.02389" lon="20.977916"></trkpt><trkpt lat="54.023014" lon="20.978499"></trkpt><trkpt lat="54.01129" lon="20.984643"></trkpt><trkpt lat="54.010514" lon="20.984665"></trkpt><trkpt lat="54.00155" lon="20.986004"></trkpt><trkpt lat="54.001354" lon="20.986111"></trkpt><trkpt lat="54.000947" lon="20.986391"></trkpt><trkpt lat="53.98972" lon="20.992268"></trkpt><trkpt lat="53.975112" lon="20.986025"></trkpt><trkpt lat="53.974912" lon="20.986037"></trkpt><trkpt lat="53.960202" lon="20.98455"></trkpt><trkpt lat="53.952088" lon="20.982693"></trkpt><trkpt lat="53.951526" lon="20.982446"></trkpt><trkpt lat="53.950843" lon="20.982041"></trkpt><trkpt lat="53.950142" lon="20.981525"></trkpt><trkpt lat="53.949452" lon="20.980887"></trkpt><trkpt lat="53.94756" lon="20.978728"></trkpt><trkpt lat="53.947398" lon="20.978496"></trkpt><trkpt lat="53.946608" lon="20.977192"></trkpt><trkpt lat="53.946178" lon="20.976344"></trkpt><trkpt lat="53.944662" lon="20.972876"></trkpt><trkpt lat="53.944324" lon="20.971957"></trkpt><trkpt lat="53.933622" lon="20.944836"></trkpt><trkpt lat="53.925846" lon="20.923704"></trkpt><trkpt lat="53.925662" lon="20.923036"></trkpt><trkpt lat="53.919433" lon="20.904122"></trkpt><trkpt lat="53.919217" lon="20.903699"></trkpt><trkpt lat="53.912385" lon="20.888263"></trkpt><trkpt lat="53.912299" lon="20.887832"></trkpt><trkpt lat="53.90757" lon="20.8641"></trkpt><trkpt lat="53.902837" lon="20.840373"></trkpt><trkpt lat="53.897452" lon="20.813417"></trkpt><trkpt lat="53.893019" lon="20.789641"></trkpt><trkpt lat="53.892739" lon="20.788735"></trkpt><trkpt lat="53.892341" lon="20.787697"></trkpt><trkpt lat="53.892243" lon="20.787367"></trkpt><trkpt lat="53.891916" lon="20.786485"></trkpt><trkpt lat="53.884731" lon="20.769873"></trkpt></trkseg></trk></gpx>