<?xml version="1.0" encoding="UTF-8" standalone="no" ?><gpx xmlns="http://www.topografix.com/GPX/1/1" xmlns:gpxx="http://www.garmin.com/xmlschemas/GpxExtensions/v3" ><trk><trkseg><trkpt lat="52.451892" lon="17.24361"></trkpt><trkpt lat="52.452112" lon="17.243352"></trkpt><trkpt lat="52.452404" lon="17.24333"></trkpt><trkpt lat="52.452757" lon="17.243178"></trkpt><trkpt lat="52.45329" lon="17.243033"></trkpt><trkpt lat="52.453575" lon="17.243282"></trkpt><trkpt lat="52.453716" lon="17.243711"></trkpt><trkpt lat="52.453715" lon="17.243182"></trkpt><trkpt lat="52.454029" lon="17.243106"></trkpt><trkpt lat="52.453834" lon="17.243498"></trkpt><trkpt lat="52.453577" lon="17.243298"></trkpt><trkpt lat="52.453096" lon="17.243095"></trkpt><trkpt lat="52.452215" lon="17.243332"></trkpt><trkpt lat="52.451735" lon="17.243286"></trkpt></trkseg></trk></gpx>