<?xml version="1.0" encoding="UTF-8" standalone="no" ?><gpx xmlns="http://www.topografix.com/GPX/1/1" xmlns:gpxx="http://www.garmin.com/xmlschemas/GpxExtensions/v3" ><trk><trkseg><trkpt lat="52.4448633101" lon="15.5939922296"></trkpt><trkpt lat="52.4444116093" lon="15.5954215955"></trkpt><trkpt lat="52.4435043521" lon="15.6001045648"></trkpt><trkpt lat="52.4434677232" lon="15.6021767389"></trkpt><trkpt lat="52.4435926136" lon="15.6042557023"></trkpt><trkpt lat="52.4445827678" lon="15.6202498823"></trkpt><trkpt lat="52.4459001515" lon="15.6360051781"></trkpt><trkpt lat="52.4467509985" lon="15.6421404798"></trkpt><trkpt lat="52.4491917249" lon="15.6565742847"></trkpt><trkpt lat="52.4519766122" lon="15.6731925812"></trkpt><trkpt lat="52.4551534373" lon="15.6881681923"></trkpt><trkpt lat="52.456406951" lon="15.6900667772"></trkpt><trkpt lat="52.4578309525" lon="15.6916707382"></trkpt><trkpt lat="52.4642710201" lon="15.7008962799"></trkpt><trkpt lat="52.4644600321" lon="15.701498352"></trkpt><trkpt lat="52.4649409857" lon="15.7036221586"></trkpt><trkpt lat="52.4682245962" lon="15.7145036291"></trkpt><trkpt lat="52.4691693205" lon="15.7160050794"></trkpt><trkpt lat="52.4704851117" lon="15.7175459247"></trkpt><trkpt lat="52.475005053" lon="15.7239785325"></trkpt><trkpt lat="52.4756472744" lon="15.7261105534"></trkpt><trkpt lat="52.4801881704" lon="15.7394840475"></trkpt><trkpt lat="52.4848990515" lon="15.7543113828"></trkpt><trkpt lat="52.4852701183" lon="15.7566284761"></trkpt><trkpt lat="52.4874313921" lon="15.7662446145"></trkpt><trkpt lat="52.4881705921" lon="15.7677829452"></trkpt><trkpt lat="52.4890896678" lon="15.7690825593"></trkpt><trkpt lat="52.4901204742" lon="15.7701676805"></trkpt><trkpt lat="52.4979507644" lon="15.7765407767"></trkpt><trkpt lat="52.4990896974" lon="15.7767343149"></trkpt><trkpt lat="52.5034781266" lon="15.7768211514"></trkpt><trkpt lat="52.5047733821" lon="15.7764520962"></trkpt><trkpt lat="52.5061690528" lon="15.7756810449"></trkpt><trkpt lat="52.5130531099" lon="15.7707196288"></trkpt><trkpt lat="52.5223969202" lon="15.7653330825"></trkpt><trkpt lat="52.5239471532" lon="15.7651266363"></trkpt><trkpt lat="52.5343920942" lon="15.7639094163"></trkpt><trkpt lat="52.5419045426" lon="15.7659685146"></trkpt><trkpt lat="52.5491243787" lon="15.7690726686"></trkpt><trkpt lat="52.5581742357" lon="15.773110399"></trkpt><trkpt lat="52.566073006" lon="15.7788644917"></trkpt><trkpt lat="52.5668314006" lon="15.7808369212"></trkpt><trkpt lat="52.5675985962" lon="15.7823462505"></trkpt></trkseg></trk></gpx>