<?xml version="1.0" encoding="UTF-8" standalone="no" ?><gpx xmlns="http://www.topografix.com/GPX/1/1" xmlns:gpxx="http://www.garmin.com/xmlschemas/GpxExtensions/v3" ><trk><trkseg><trkpt lat="52.474220203097836" lon="17.24088709058696"></trkpt><trkpt lat="52.474695" lon="17.237805"></trkpt><trkpt lat="52.474748" lon="17.238335"></trkpt><trkpt lat="52.474769" lon="17.238845"></trkpt><trkpt lat="52.474768" lon="17.239343"></trkpt><trkpt lat="52.47452" lon="17.239592"></trkpt><trkpt lat="52.474239" lon="17.23977"></trkpt><trkpt lat="52.473515" lon="17.240109"></trkpt><trkpt lat="52.47321" lon="17.239916"></trkpt><trkpt lat="52.472968" lon="17.239693"></trkpt><trkpt lat="52.471923" lon="17.238916"></trkpt><trkpt lat="52.471775" lon="17.239293"></trkpt><trkpt lat="52.471649" lon="17.239747"></trkpt><trkpt lat="52.471548" lon="17.240199"></trkpt><trkpt lat="52.470961" lon="17.242316"></trkpt><trkpt lat="52.470673" lon="17.242162"></trkpt><trkpt lat="52.469542" lon="17.24141"></trkpt><trkpt lat="52.468889" lon="17.241083"></trkpt><trkpt lat="52.468735" lon="17.24152"></trkpt><trkpt lat="52.468608" lon="17.241957"></trkpt><trkpt lat="52.467371" lon="17.247224"></trkpt><trkpt lat="52.467651" lon="17.247424"></trkpt><trkpt lat="52.467899" lon="17.247682"></trkpt><trkpt lat="52.46777" lon="17.248122"></trkpt><trkpt lat="52.46757" lon="17.24845"></trkpt><trkpt lat="52.467372" lon="17.248871"></trkpt><trkpt lat="52.465084" lon="17.254539"></trkpt><trkpt lat="52.465085" lon="17.25499"></trkpt><trkpt lat="52.465195" lon="17.255442"></trkpt><trkpt lat="52.465345" lon="17.255826"></trkpt><trkpt lat="52.465556" lon="17.256117"></trkpt><trkpt lat="52.465802" lon="17.256335"></trkpt><trkpt lat="52.466019" lon="17.256632"></trkpt><trkpt lat="52.466194" lon="17.257035"></trkpt><trkpt lat="52.468837" lon="17.263025"></trkpt><trkpt lat="52.469108" lon="17.263754"></trkpt><trkpt lat="52.469195" lon="17.264203"></trkpt><trkpt lat="52.469374" lon="17.264536"></trkpt><trkpt lat="52.471134" lon="17.268313"></trkpt><trkpt lat="52.471295" lon="17.268734"></trkpt><trkpt lat="52.471658" lon="17.269545"></trkpt><trkpt lat="52.473412" lon="17.274131"></trkpt><trkpt lat="52.473175" lon="17.274432"></trkpt><trkpt lat="52.472158" lon="17.27595"></trkpt><trkpt lat="52.472026" lon="17.276387"></trkpt><trkpt lat="52.47198" lon="17.276872"></trkpt><trkpt lat="52.472121" lon="17.277286"></trkpt><trkpt lat="52.472564" lon="17.278393"></trkpt><trkpt lat="52.474106" lon="17.281712"></trkpt><trkpt lat="52.474381" lon="17.281853"></trkpt><trkpt lat="52.474632" lon="17.282057"></trkpt><trkpt lat="52.47458" lon="17.282537"></trkpt><trkpt lat="52.474266" lon="17.284559"></trkpt><trkpt lat="52.473975" lon="17.284443"></trkpt><trkpt lat="52.474231" lon="17.284623"></trkpt><trkpt lat="52.474221" lon="17.285098"></trkpt><trkpt lat="52.47414" lon="17.285577"></trkpt><trkpt lat="52.474003" lon="17.286717"></trkpt><trkpt lat="52.474291" lon="17.286861"></trkpt><trkpt lat="52.476514" lon="17.287696"></trkpt><trkpt lat="52.476807" lon="17.287751"></trkpt><trkpt lat="52.477093" lon="17.287771"></trkpt><trkpt lat="52.476883" lon="17.288057"></trkpt><trkpt lat="52.476783" lon="17.288491"></trkpt><trkpt lat="52.476728" lon="17.28903"></trkpt><trkpt lat="52.476461" lon="17.290537"></trkpt><trkpt lat="52.476228" lon="17.290277"></trkpt><trkpt lat="52.476183" lon="17.289828"></trkpt><trkpt lat="52.475927" lon="17.28965"></trkpt><trkpt lat="52.475677" lon="17.289437"></trkpt><trkpt lat="52.475402" lon="17.289285"></trkpt><trkpt lat="52.475048" lon="17.289027"></trkpt><trkpt lat="52.47466" lon="17.288807"></trkpt><trkpt lat="52.474374" lon="17.288774"></trkpt><trkpt lat="52.473252" lon="17.289109"></trkpt><trkpt lat="52.473032" lon="17.28947"></trkpt><trkpt lat="52.472625" lon="17.290251"></trkpt><trkpt lat="52.472205" lon="17.291242"></trkpt><trkpt lat="52.47194" lon="17.291065"></trkpt><trkpt lat="52.47221" lon="17.291252"></trkpt><trkpt lat="52.472434" lon="17.291595"></trkpt><trkpt lat="52.472583" lon="17.291972"></trkpt><trkpt lat="52.472654" lon="17.292476"></trkpt><trkpt lat="52.472668" lon="17.29294"></trkpt><trkpt lat="52.47266" lon="17.29343"></trkpt><trkpt lat="52.47256" lon="17.293868"></trkpt><trkpt lat="52.472625" lon="17.294309"></trkpt><trkpt lat="52.472931" lon="17.294406"></trkpt><trkpt lat="52.473654" lon="17.294542"></trkpt><trkpt lat="52.47394" lon="17.294562"></trkpt><trkpt lat="52.478429" lon="17.294267"></trkpt><trkpt lat="52.478733" lon="17.294197"></trkpt><trkpt lat="52.481622" lon="17.293163"></trkpt><trkpt lat="52.481507" lon="17.29267"></trkpt><trkpt lat="52.481087" lon="17.291196"></trkpt><trkpt lat="52.4809" lon="17.290659"></trkpt><trkpt lat="52.480641" lon="17.2905"></trkpt><trkpt lat="52.479466" lon="17.28957"></trkpt><trkpt lat="52.479709" lon="17.289356"></trkpt><trkpt lat="52.479832" lon="17.288923"></trkpt><trkpt lat="52.479981" lon="17.28849"></trkpt><trkpt lat="52.480088" lon="17.288044"></trkpt><trkpt lat="52.48017" lon="17.287592"></trkpt><trkpt lat="52.480354" lon="17.287241"></trkpt><trkpt lat="52.480589" lon="17.286976"></trkpt><trkpt lat="52.480611" lon="17.286504"></trkpt><trkpt lat="52.480499" lon="17.286051"></trkpt><trkpt lat="52.480421" lon="17.285625"></trkpt><trkpt lat="52.480394" lon="17.285137"></trkpt><trkpt lat="52.480328" lon="17.284683"></trkpt><trkpt lat="52.480148" lon="17.284333"></trkpt><trkpt lat="52.479931" lon="17.284026"></trkpt><trkpt lat="52.479692" lon="17.283741"></trkpt><trkpt lat="52.479589" lon="17.283307"></trkpt><trkpt lat="52.479345" lon="17.283058"></trkpt><trkpt lat="52.47793" lon="17.281363"></trkpt><trkpt lat="52.477727" lon="17.280996"></trkpt><trkpt lat="52.477493" lon="17.280714"></trkpt><trkpt lat="52.477239" lon="17.280475"></trkpt><trkpt lat="52.476021" lon="17.279516"></trkpt><trkpt lat="52.475948" lon="17.279077"></trkpt><trkpt lat="52.475955" lon="17.278587"></trkpt><trkpt lat="52.475936" lon="17.278087"></trkpt><trkpt lat="52.475588" lon="17.270711"></trkpt><trkpt lat="52.475245" lon="17.263314"></trkpt><trkpt lat="52.474933" lon="17.255958"></trkpt><trkpt lat="52.474585" lon="17.248628"></trkpt><trkpt lat="52.474229" lon="17.241243"></trkpt><trkpt lat="52.474153" lon="17.240765"></trkpt><trkpt lat="52.474064" lon="17.239949"></trkpt><trkpt lat="52.474333" lon="17.239802"></trkpt><trkpt lat="52.474839" lon="17.239428"></trkpt><trkpt lat="52.474821" lon="17.238943"></trkpt><trkpt lat="52.47435854215218" lon="17.240855277426466"></trkpt></trkseg></trk></gpx>