<?xml version="1.0" encoding="UTF-8" standalone="no" ?><gpx xmlns="http://www.topografix.com/GPX/1/1" xmlns:gpxx="http://www.garmin.com/xmlschemas/GpxExtensions/v3" ><trk><trkseg><trkpt lat="50.784736" lon="16.024456"></trkpt><trkpt lat="50.784505" lon="16.02482"></trkpt><trkpt lat="50.784403" lon="16.025218"></trkpt><trkpt lat="50.78423" lon="16.02563"></trkpt><trkpt lat="50.783961" lon="16.025972"></trkpt><trkpt lat="50.783607" lon="16.026261"></trkpt><trkpt lat="50.78344" lon="16.026607"></trkpt><trkpt lat="50.783106" lon="16.026895"></trkpt><trkpt lat="50.782811" lon="16.02728"></trkpt><trkpt lat="50.782601" lon="16.027651"></trkpt><trkpt lat="50.782387" lon="16.027939"></trkpt><trkpt lat="50.782401" lon="16.028397"></trkpt><trkpt lat="50.782476" lon="16.028837"></trkpt><trkpt lat="50.782507" lon="16.029321"></trkpt><trkpt lat="50.782574" lon="16.029812"></trkpt><trkpt lat="50.782779" lon="16.030176"></trkpt><trkpt lat="50.782629" lon="16.030542"></trkpt><trkpt lat="50.782608" lon="16.030995"></trkpt><trkpt lat="50.782752" lon="16.031477"></trkpt><trkpt lat="50.782614" lon="16.031875"></trkpt><trkpt lat="50.782663" lon="16.032431"></trkpt><trkpt lat="50.78284" lon="16.032767"></trkpt><trkpt lat="50.78305" lon="16.033101"></trkpt><trkpt lat="50.783231" lon="16.033461"></trkpt><trkpt lat="50.783569" lon="16.03362"></trkpt><trkpt lat="50.783792" lon="16.033996"></trkpt><trkpt lat="50.78372" lon="16.034444"></trkpt><trkpt lat="50.78381" lon="16.03486"></trkpt><trkpt lat="50.784116" lon="16.035158"></trkpt><trkpt lat="50.784392" lon="16.035053"></trkpt><trkpt lat="50.784396" lon="16.034626"></trkpt><trkpt lat="50.784267" lon="16.034238"></trkpt><trkpt lat="50.784089" lon="16.033857"></trkpt><trkpt lat="50.784044" lon="16.033433"></trkpt><trkpt lat="50.783899" lon="16.033046"></trkpt><trkpt lat="50.783679" lon="16.032655"></trkpt><trkpt lat="50.78339" lon="16.032455"></trkpt><trkpt lat="50.783244" lon="16.031947"></trkpt><trkpt lat="50.783001" lon="16.03167"></trkpt><trkpt lat="50.782737" lon="16.031564"></trkpt><trkpt lat="50.78255" lon="16.031101"></trkpt><trkpt lat="50.782452" lon="16.030673"></trkpt><trkpt lat="50.782662" lon="16.030386"></trkpt><trkpt lat="50.782378" lon="16.029784"></trkpt><trkpt lat="50.782461" lon="16.02921"></trkpt><trkpt lat="50.782391" lon="16.028673"></trkpt><trkpt lat="50.782374" lon="16.028169"></trkpt><trkpt lat="50.782606" lon="16.027719"></trkpt><trkpt lat="50.782813" lon="16.027407"></trkpt><trkpt lat="50.783017" lon="16.027032"></trkpt><trkpt lat="50.783259" lon="16.026802"></trkpt><trkpt lat="50.783498" lon="16.026516"></trkpt><trkpt lat="50.78379" lon="16.026082"></trkpt><trkpt lat="50.784064" lon="16.025866"></trkpt><trkpt lat="50.784273" lon="16.025572"></trkpt><trkpt lat="50.784431" lon="16.02515"></trkpt><trkpt lat="50.784783" lon="16.024241"></trkpt></trkseg><trkseg><trkpt lat="50.784718" lon="16.0243"></trkpt><trkpt lat="50.784585" lon="16.024685"></trkpt><trkpt lat="50.784411" lon="16.025055"></trkpt><trkpt lat="50.784246" lon="16.025481"></trkpt><trkpt lat="50.784039" lon="16.025887"></trkpt><trkpt lat="50.783727" lon="16.026206"></trkpt><trkpt lat="50.782778" lon="16.027382"></trkpt><trkpt lat="50.782562" lon="16.027741"></trkpt><trkpt lat="50.782288" lon="16.027828"></trkpt><trkpt lat="50.781872" lon="16.027609"></trkpt><trkpt lat="50.781343" lon="16.027209"></trkpt><trkpt lat="50.781088" lon="16.026873"></trkpt><trkpt lat="50.780875" lon="16.027321"></trkpt><trkpt lat="50.780939" lon="16.027754"></trkpt><trkpt lat="50.780985" lon="16.028299"></trkpt><trkpt lat="50.780972" lon="16.028755"></trkpt><trkpt lat="50.781141" lon="16.029093"></trkpt><trkpt lat="50.780995" lon="16.029466"></trkpt><trkpt lat="50.780992" lon="16.029908"></trkpt><trkpt lat="50.781271" lon="16.030084"></trkpt><trkpt lat="50.78154" lon="16.030134"></trkpt><trkpt lat="50.781836" lon="16.030435"></trkpt><trkpt lat="50.782269" lon="16.03077"></trkpt><trkpt lat="50.782474" lon="16.031061"></trkpt><trkpt lat="50.782706" lon="16.031329"></trkpt><trkpt lat="50.78265" lon="16.031861"></trkpt><trkpt lat="50.782414" lon="16.032134"></trkpt><trkpt lat="50.782594" lon="16.032462"></trkpt><trkpt lat="50.782808" lon="16.032766"></trkpt><trkpt lat="50.783001" lon="16.033155"></trkpt><trkpt lat="50.783216" lon="16.033431"></trkpt><trkpt lat="50.783474" lon="16.03356"></trkpt><trkpt lat="50.783699" lon="16.033814"></trkpt><trkpt lat="50.784037" lon="16.033347"></trkpt><trkpt lat="50.784268" lon="16.033081"></trkpt><trkpt lat="50.784276" lon="16.032612"></trkpt><trkpt lat="50.784549" lon="16.032401"></trkpt><trkpt lat="50.784523" lon="16.031961"></trkpt><trkpt lat="50.784606" lon="16.031398"></trkpt><trkpt lat="50.784364" lon="16.031115"></trkpt><trkpt lat="50.784067" lon="16.03124"></trkpt><trkpt lat="50.783798" lon="16.03092"></trkpt><trkpt lat="50.783177" lon="16.030308"></trkpt><trkpt lat="50.782858" lon="16.030323"></trkpt><trkpt lat="50.782637" lon="16.029954"></trkpt><trkpt lat="50.782512" lon="16.029524"></trkpt><trkpt lat="50.782409" lon="16.028929"></trkpt><trkpt lat="50.782356" lon="16.028418"></trkpt><trkpt lat="50.782425" lon="16.027904"></trkpt><trkpt lat="50.782687" lon="16.027595"></trkpt><trkpt lat="50.782868" lon="16.02727"></trkpt><trkpt lat="50.783117" lon="16.026912"></trkpt><trkpt lat="50.783461" lon="16.026529"></trkpt><trkpt lat="50.783789" lon="16.02649"></trkpt><trkpt lat="50.783904" lon="16.025994"></trkpt><trkpt lat="50.784189" lon="16.025675"></trkpt><trkpt lat="50.784419" lon="16.025327"></trkpt><trkpt lat="50.784518" lon="16.024849"></trkpt><trkpt lat="50.784765" lon="16.024387"></trkpt></trkseg></trk></gpx>