<?xml version="1.0" encoding="UTF-8" standalone="no" ?><gpx xmlns="http://www.topografix.com/GPX/1/1" xmlns:gpxx="http://www.garmin.com/xmlschemas/GpxExtensions/v3" ><trk><trkseg><trkpt lat="52.4449640606" lon="15.5932851322"></trkpt><trkpt lat="52.4448853545" lon="15.5938272737"></trkpt><trkpt lat="52.4444375094" lon="15.5950624309"></trkpt><trkpt lat="52.444110699" lon="15.5963093229"></trkpt><trkpt lat="52.4443833623" lon="15.595636256"></trkpt><trkpt lat="52.4507135432" lon="15.5743642431"></trkpt><trkpt lat="52.4508573767" lon="15.5724883731"></trkpt><trkpt lat="52.4516736064" lon="15.5396319833"></trkpt><trkpt lat="52.4514879473" lon="15.5374597292"></trkpt><trkpt lat="52.4488557782" lon="15.5068952031"></trkpt><trkpt lat="52.4443066679" lon="15.4787070304"></trkpt><trkpt lat="52.4431218021" lon="15.4778882861"></trkpt><trkpt lat="52.4411979876" lon="15.4757778905"></trkpt><trkpt lat="52.4406200554" lon="15.4740716703"></trkpt><trkpt lat="52.4402702786" lon="15.4724522028"></trkpt><trkpt lat="52.4387964886" lon="15.4614571575"></trkpt><trkpt lat="52.4391791224" lon="15.4597996362"></trkpt><trkpt lat="52.4400171451" lon="15.4576577246"></trkpt><trkpt lat="52.4443976115" lon="15.4425228573"></trkpt><trkpt lat="52.444159314" lon="15.43972129"></trkpt><trkpt lat="52.4441458192" lon="15.437183585"></trkpt><trkpt lat="52.445611814" lon="15.4086872097"></trkpt><trkpt lat="52.4463077635" lon="15.4049804807"></trkpt><trkpt lat="52.4487835262" lon="15.3859004192"></trkpt><trkpt lat="52.4481635168" lon="15.3842100408"></trkpt><trkpt lat="52.4446198158" lon="15.3714375291"></trkpt><trkpt lat="52.4445085879" lon="15.3686541505"></trkpt><trkpt lat="52.4430283438" lon="15.3533855081"></trkpt><trkpt lat="52.4421738926" lon="15.351383239"></trkpt><trkpt lat="52.438508654" lon="15.3409472667"></trkpt><trkpt lat="52.4382629804" lon="15.3387937043"></trkpt><trkpt lat="52.4381915666" lon="15.3364589252"></trkpt><trkpt lat="52.4383373279" lon="15.3344467655"></trkpt><trkpt lat="52.4387134239" lon="15.332100587"></trkpt><trkpt lat="52.4392198585" lon="15.3300911933"></trkpt><trkpt lat="52.4410694931" lon="15.3188761231"></trkpt><trkpt lat="52.4405183829" lon="15.3170867544"></trkpt><trkpt lat="52.4396393728" lon="15.3153458331"></trkpt><trkpt lat="52.4363667425" lon="15.3060011845"></trkpt><trkpt lat="52.4362109229" lon="15.3031642456"></trkpt><trkpt lat="52.4337689392" lon="15.2860160451"></trkpt><trkpt lat="52.4323079735" lon="15.2692500595"></trkpt><trkpt lat="52.4321778025" lon="15.2621098515"></trkpt><trkpt lat="52.4325067922" lon="15.2603873704"></trkpt><trkpt lat="52.433289662" lon="15.2575150598"></trkpt><trkpt lat="52.4367937166" lon="15.2476275992"></trkpt><trkpt lat="52.4364467058" lon="15.2472692728"></trkpt><trkpt lat="52.4363428541" lon="15.2477154415"></trkpt><trkpt lat="52.4360305443" lon="15.2487357706"></trkpt><trkpt lat="52.4319472164" lon="15.2663359232"></trkpt><trkpt lat="52.4320850987" lon="15.2679169178"></trkpt><trkpt lat="52.4359364156" lon="15.2930181194"></trkpt><trkpt lat="52.4360646587" lon="15.2950825822"></trkpt><trkpt lat="52.439387748" lon="15.3153331764"></trkpt><trkpt lat="52.4407464545" lon="15.3180601448"></trkpt><trkpt lat="52.4412155058" lon="15.319797378"></trkpt><trkpt lat="52.441383563" lon="15.3217690531"></trkpt><trkpt lat="52.4412227981" lon="15.3234144207"></trkpt><trkpt lat="52.440752238" lon="15.3253986686"></trkpt><trkpt lat="52.4394532107" lon="15.3292541765"></trkpt><trkpt lat="52.4385281838" lon="15.3329686169"></trkpt><trkpt lat="52.4382068217" lon="15.3356198967"></trkpt><trkpt lat="52.4381423648" lon="15.3382346313"></trkpt><trkpt lat="52.4383725319" lon="15.3405882698"></trkpt><trkpt lat="52.4386370648" lon="15.3420937434"></trkpt><trkpt lat="52.4391322676" lon="15.3439537715"></trkpt><trkpt lat="52.4402655009" lon="15.3469583485"></trkpt><trkpt lat="52.4440117925" lon="15.3611166403"></trkpt><trkpt lat="52.4442188255" lon="15.3643862531"></trkpt><trkpt lat="52.4462544546" lon="15.3793435078"></trkpt><trkpt lat="52.4471920542" lon="15.381807955"></trkpt><trkpt lat="52.4492391665" lon="15.3885493521"></trkpt><trkpt lat="52.4490913097" lon="15.390024567"></trkpt><trkpt lat="52.4486133736" lon="15.3925432451"></trkpt><trkpt lat="52.4448365718" lon="15.4224160966"></trkpt><trkpt lat="52.444641944" lon="15.4265391547"></trkpt><trkpt lat="52.4420075119" lon="15.4523867648"></trkpt><trkpt lat="52.4412800465" lon="15.4541266803"></trkpt><trkpt lat="52.4385405891" lon="15.4628550913"></trkpt><trkpt lat="52.438521646" lon="15.4645945039"></trkpt><trkpt lat="52.4388383143" lon="15.4662811942"></trkpt><trkpt lat="52.4419863895" lon="15.4771405365"></trkpt><trkpt lat="52.4429414235" lon="15.478008315"></trkpt><trkpt lat="52.4468028825" lon="15.4831776861"></trkpt><trkpt lat="52.4468535092" lon="15.4843850993"></trkpt><trkpt lat="52.4495206308" lon="15.5149660539"></trkpt><trkpt lat="52.4521417357" lon="15.5463897251"></trkpt><trkpt lat="52.4522910174" lon="15.5527544394"></trkpt><trkpt lat="52.452183729" lon="15.5548691098"></trkpt><trkpt lat="52.4490782339" lon="15.5838051997"></trkpt><trkpt lat="52.4481623434" lon="15.5858845823"></trkpt><trkpt lat="52.4473645538" lon="15.5880791321"></trkpt><trkpt lat="52.4450628832" lon="15.5933344178"></trkpt></trkseg></trk></gpx>