<?xml version="1.0" encoding="UTF-8" standalone="no" ?><gpx xmlns="http://www.topografix.com/GPX/1/1" xmlns:gpxx="http://www.garmin.com/xmlschemas/GpxExtensions/v3" ><trk><trkseg><trkpt lat="53.167265" lon="15.301482"></trkpt><trkpt lat="53.167245" lon="15.301841"></trkpt><trkpt lat="53.167248" lon="15.302301"></trkpt><trkpt lat="53.167412" lon="15.302564"></trkpt><trkpt lat="53.167561" lon="15.302846"></trkpt><trkpt lat="53.167714" lon="15.303064"></trkpt><trkpt lat="53.173646" lon="15.312818"></trkpt><trkpt lat="53.173754" lon="15.313137"></trkpt><trkpt lat="53.174923" lon="15.317235"></trkpt><trkpt lat="53.174991" lon="15.317562"></trkpt><trkpt lat="53.175367" lon="15.318975"></trkpt><trkpt lat="53.17551" lon="15.319301"></trkpt><trkpt lat="53.17623" lon="15.321224"></trkpt><trkpt lat="53.176406" lon="15.32178"></trkpt><trkpt lat="53.177601" lon="15.324932"></trkpt><trkpt lat="53.177796" lon="15.324852"></trkpt><trkpt lat="53.179141" lon="15.324468"></trkpt><trkpt lat="53.179297" lon="15.324684"></trkpt><trkpt lat="53.179408" lon="15.325004"></trkpt><trkpt lat="53.180204" lon="15.326945"></trkpt><trkpt lat="53.180355" lon="15.327197"></trkpt><trkpt lat="53.182059" lon="15.330487"></trkpt><trkpt lat="53.182139" lon="15.330797"></trkpt><trkpt lat="53.182217" lon="15.331221"></trkpt><trkpt lat="53.183565" lon="15.337025"></trkpt><trkpt lat="53.183681" lon="15.337389"></trkpt><trkpt lat="53.183852" lon="15.337832"></trkpt><trkpt lat="53.184012" lon="15.338127"></trkpt><trkpt lat="53.184158" lon="15.33836"></trkpt><trkpt lat="53.184372" lon="15.338529"></trkpt><trkpt lat="53.18459" lon="15.338598"></trkpt><trkpt lat="53.185149" lon="15.338848"></trkpt><trkpt lat="53.185349" lon="15.339008"></trkpt><trkpt lat="53.189094" lon="15.34148"></trkpt><trkpt lat="53.189318" lon="15.341538"></trkpt><trkpt lat="53.189516" lon="15.341683"></trkpt><trkpt lat="53.190118" lon="15.342212"></trkpt><trkpt lat="53.190363" lon="15.342473"></trkpt><trkpt lat="53.191641" lon="15.344092"></trkpt><trkpt lat="53.191674" lon="15.344467"></trkpt><trkpt lat="53.191757" lon="15.344992"></trkpt><trkpt lat="53.19187" lon="15.345271"></trkpt><trkpt lat="53.192696" lon="15.34766"></trkpt><trkpt lat="53.192699" lon="15.348047"></trkpt><trkpt lat="53.192738" lon="15.348385"></trkpt><trkpt lat="53.192825" lon="15.34874"></trkpt><trkpt lat="53.192954" lon="15.349058"></trkpt><trkpt lat="53.193112" lon="15.349337"></trkpt><trkpt lat="53.193247" lon="15.349613"></trkpt><trkpt lat="53.19669" lon="15.355671"></trkpt><trkpt lat="53.196904" lon="15.355766"></trkpt><trkpt lat="53.197135" lon="15.355835"></trkpt><trkpt lat="53.197361" lon="15.355866"></trkpt><trkpt lat="53.197603" lon="15.355865"></trkpt><trkpt lat="53.198562" lon="15.355742"></trkpt><trkpt lat="53.198604" lon="15.355415"></trkpt><trkpt lat="53.201327" lon="15.33967"></trkpt><trkpt lat="53.201418" lon="15.339332"></trkpt><trkpt lat="53.203569" lon="15.332768"></trkpt><trkpt lat="53.203756" lon="15.332922"></trkpt><trkpt lat="53.21276" lon="15.339043"></trkpt><trkpt lat="53.213047" lon="15.339138"></trkpt><trkpt lat="53.225101" lon="15.34168"></trkpt><trkpt lat="53.227255" lon="15.342415"></trkpt><trkpt lat="53.227456" lon="15.342626"></trkpt><trkpt lat="53.228651" lon="15.344092"></trkpt><trkpt lat="53.228822" lon="15.34438"></trkpt><trkpt lat="53.230882" lon="15.347378"></trkpt><trkpt lat="53.231073" lon="15.347569"></trkpt><trkpt lat="53.231985" lon="15.348332"></trkpt><trkpt lat="53.23223" lon="15.348441"></trkpt><trkpt lat="53.232708" lon="15.348731"></trkpt><trkpt lat="53.232889" lon="15.348934"></trkpt><trkpt lat="53.233097" lon="15.349211"></trkpt><trkpt lat="53.233224" lon="15.349476"></trkpt><trkpt lat="53.233341" lon="15.349805"></trkpt><trkpt lat="53.233433" lon="15.350176"></trkpt><trkpt lat="53.233489" lon="15.350587"></trkpt><trkpt lat="53.233471" lon="15.35102"></trkpt><trkpt lat="53.233414" lon="15.351438"></trkpt><trkpt lat="53.233386" lon="15.351877"></trkpt><trkpt lat="53.233396" lon="15.352323"></trkpt><trkpt lat="53.233367" lon="15.35355"></trkpt><trkpt lat="53.233221" lon="15.353802"></trkpt><trkpt lat="53.233002" lon="15.354029"></trkpt><trkpt lat="53.232821" lon="15.354289"></trkpt><trkpt lat="53.232674" lon="15.35457"></trkpt><trkpt lat="53.232545" lon="15.354867"></trkpt><trkpt lat="53.232437" lon="15.355172"></trkpt><trkpt lat="53.232343" lon="15.3555"></trkpt><trkpt lat="53.232142" lon="15.356373"></trkpt><trkpt lat="53.231899" lon="15.357227"></trkpt><trkpt lat="53.23174" lon="15.357535"></trkpt><trkpt lat="53.231563" lon="15.357772"></trkpt><trkpt lat="53.231373" lon="15.357965"></trkpt><trkpt lat="53.23041" lon="15.35914"></trkpt><trkpt lat="53.230273" lon="15.359494"></trkpt><trkpt lat="53.229252" lon="15.362596"></trkpt><trkpt lat="53.229228" lon="15.362925"></trkpt><trkpt lat="53.229218" lon="15.363277"></trkpt><trkpt lat="53.229503" lon="15.381806"></trkpt><trkpt lat="53.229709" lon="15.381927"></trkpt><trkpt lat="53.23089" lon="15.382469"></trkpt><trkpt lat="53.231114" lon="15.382541"></trkpt><trkpt lat="53.232166" lon="15.382744"></trkpt><trkpt lat="53.251461" lon="15.384199"></trkpt><trkpt lat="53.251428" lon="15.383865"></trkpt><trkpt lat="53.251384" lon="15.383037"></trkpt><trkpt lat="53.251469" lon="15.382696"></trkpt><trkpt lat="53.251581" lon="15.38242"></trkpt><trkpt lat="53.251705" lon="15.382161"></trkpt><trkpt lat="53.251811" lon="15.381872"></trkpt><trkpt lat="53.252598" lon="15.379341"></trkpt><trkpt lat="53.252653" lon="15.379005"></trkpt><trkpt lat="53.252837" lon="15.378863"></trkpt><trkpt lat="53.253037" lon="15.378766"></trkpt><trkpt lat="53.253208" lon="15.378568"></trkpt><trkpt lat="53.253394" lon="15.378407"></trkpt><trkpt lat="53.2536" lon="15.378376"></trkpt><trkpt lat="53.253844" lon="15.378296"></trkpt><trkpt lat="53.254022" lon="15.378148"></trkpt><trkpt lat="53.254231" lon="15.378033"></trkpt><trkpt lat="53.25454" lon="15.377816"></trkpt><trkpt lat="53.25494" lon="15.377478"></trkpt><trkpt lat="53.255118" lon="15.377298"></trkpt><trkpt lat="53.255302" lon="15.377162"></trkpt><trkpt lat="53.255489" lon="15.376946"></trkpt><trkpt lat="53.255669" lon="15.376774"></trkpt><trkpt lat="53.255838" lon="15.376576"></trkpt><trkpt lat="53.256859" lon="15.375568"></trkpt><trkpt lat="53.257138" lon="15.375335"></trkpt><trkpt lat="53.257515" lon="15.375074"></trkpt><trkpt lat="53.258598" lon="15.374481"></trkpt><trkpt lat="53.258801" lon="15.374489"></trkpt><trkpt lat="53.259007" lon="15.374523"></trkpt><trkpt lat="53.260186" lon="15.374577"></trkpt><trkpt lat="53.260673" lon="15.374494"></trkpt><trkpt lat="53.260889" lon="15.374401"></trkpt><trkpt lat="53.261654" lon="15.373972"></trkpt><trkpt lat="53.26685" lon="15.370359"></trkpt><trkpt lat="53.267004" lon="15.370131"></trkpt><trkpt lat="53.267191" lon="15.369891"></trkpt><trkpt lat="53.268635" lon="15.367751"></trkpt><trkpt lat="53.268753" lon="15.367483"></trkpt><trkpt lat="53.268862" lon="15.367169"></trkpt><trkpt lat="53.269094" lon="15.3666"></trkpt><trkpt lat="53.269407" lon="15.365692"></trkpt><trkpt lat="53.269538" lon="15.365416"></trkpt><trkpt lat="53.272742" lon="15.359581"></trkpt><trkpt lat="53.272934" lon="15.359719"></trkpt><trkpt lat="53.273145" lon="15.359902"></trkpt><trkpt lat="53.273284" lon="15.360144"></trkpt><trkpt lat="53.273941" lon="15.361132"></trkpt><trkpt lat="53.274146" lon="15.361213"></trkpt><trkpt lat="53.274376" lon="15.361241"></trkpt><trkpt lat="53.275578" lon="15.361239"></trkpt><trkpt lat="53.278003" lon="15.361527"></trkpt><trkpt lat="53.298137" lon="15.366313"></trkpt><trkpt lat="53.298378" lon="15.36646"></trkpt><trkpt lat="53.301012" lon="15.368428"></trkpt><trkpt lat="53.301177" lon="15.368627"></trkpt><trkpt lat="53.301895" lon="15.369365"></trkpt><trkpt lat="53.302093" lon="15.369431"></trkpt><trkpt lat="53.302695" lon="15.369558"></trkpt><trkpt lat="53.303178" lon="15.3696"></trkpt><trkpt lat="53.303796" lon="15.369472"></trkpt><trkpt lat="53.303998" lon="15.369386"></trkpt><trkpt lat="53.305858" lon="15.368292"></trkpt><trkpt lat="53.30594" lon="15.367948"></trkpt><trkpt lat="53.306167" lon="15.367849"></trkpt><trkpt lat="53.307351" lon="15.368538"></trkpt><trkpt lat="53.307503" lon="15.368754"></trkpt><trkpt lat="53.307702" lon="15.368983"></trkpt><trkpt lat="53.307922" lon="15.369083"></trkpt><trkpt lat="53.308134" lon="15.36915"></trkpt><trkpt lat="53.308514" lon="15.369322"></trkpt><trkpt lat="53.308699" lon="15.369554"></trkpt><trkpt lat="53.308928" lon="15.369893"></trkpt><trkpt lat="53.309073" lon="15.370142"></trkpt><trkpt lat="53.309271" lon="15.370433"></trkpt><trkpt lat="53.309464" lon="15.370607"></trkpt><trkpt lat="53.309667" lon="15.370709"></trkpt><trkpt lat="53.309892" lon="15.370793"></trkpt><trkpt lat="53.312224" lon="15.371971"></trkpt><trkpt lat="53.312422" lon="15.372188"></trkpt><trkpt lat="53.319117" lon="15.380722"></trkpt><trkpt lat="53.319224" lon="15.381083"></trkpt><trkpt lat="53.3193" lon="15.381412"></trkpt><trkpt lat="53.319365" lon="15.381793"></trkpt><trkpt lat="53.319463" lon="15.38258"></trkpt><trkpt lat="53.319725" lon="15.384063"></trkpt><trkpt lat="53.319868" lon="15.384424"></trkpt><trkpt lat="53.321193" lon="15.387309"></trkpt><trkpt lat="53.321377" lon="15.387478"></trkpt><trkpt lat="53.321597" lon="15.387596"></trkpt><trkpt lat="53.335588" lon="15.39333"></trkpt><trkpt lat="53.341664" lon="15.396623"></trkpt><trkpt lat="53.3418" lon="15.396875"></trkpt><trkpt lat="53.341987" lon="15.397138"></trkpt><trkpt lat="53.342206" lon="15.39756"></trkpt><trkpt lat="53.34228" lon="15.397903"></trkpt><trkpt lat="53.342385" lon="15.398226"></trkpt><trkpt lat="53.342542" lon="15.398479"></trkpt><trkpt lat="53.342732" lon="15.398647"></trkpt><trkpt lat="53.342932" lon="15.398716"></trkpt><trkpt lat="53.343455" lon="15.398825"></trkpt><trkpt lat="53.343654" lon="15.398825"></trkpt><trkpt lat="53.344002" lon="15.398884"></trkpt><trkpt lat="53.344179" lon="15.39911"></trkpt><trkpt lat="53.344386" lon="15.399292"></trkpt><trkpt lat="53.344602" lon="15.399308"></trkpt><trkpt lat="53.344791" lon="15.399424"></trkpt><trkpt lat="53.344997" lon="15.399499"></trkpt><trkpt lat="53.345204" lon="15.399614"></trkpt><trkpt lat="53.345374" lon="15.399839"></trkpt><trkpt lat="53.345525" lon="15.400073"></trkpt><trkpt lat="53.346017" lon="15.400732"></trkpt><trkpt lat="53.346215" lon="15.400783"></trkpt><trkpt lat="53.346397" lon="15.401025"></trkpt><trkpt lat="53.346506" lon="15.401353"></trkpt><trkpt lat="53.346743" lon="15.401953"></trkpt><trkpt lat="53.346911" lon="15.402155"></trkpt><trkpt lat="53.347259" lon="15.402639"></trkpt><trkpt lat="53.347376" lon="15.402908"></trkpt><trkpt lat="53.347557" lon="15.403249"></trkpt><trkpt lat="53.347721" lon="15.403436"></trkpt><trkpt lat="53.348053" lon="15.403875"></trkpt><trkpt lat="53.348207" lon="15.404116"></trkpt><trkpt lat="53.348377" lon="15.404335"></trkpt><trkpt lat="53.348589" lon="15.404654"></trkpt><trkpt lat="53.34873" lon="15.404946"></trkpt><trkpt lat="53.3491" lon="15.405599"></trkpt><trkpt lat="53.349276" lon="15.405817"></trkpt><trkpt lat="53.34949" lon="15.406001"></trkpt><trkpt lat="53.349693" lon="15.40613"></trkpt><trkpt lat="53.350002" lon="15.406285"></trkpt><trkpt lat="53.350101" lon="15.40663"></trkpt><trkpt lat="53.350158" lon="15.407018"></trkpt><trkpt lat="53.350268" lon="15.407588"></trkpt><trkpt lat="53.351602" lon="15.413058"></trkpt><trkpt lat="53.351748" lon="15.41333"></trkpt><trkpt lat="53.352128" lon="15.413941"></trkpt><trkpt lat="53.352308" lon="15.414183"></trkpt><trkpt lat="53.353514" lon="15.416068"></trkpt><trkpt lat="53.353663" lon="15.416387"></trkpt><trkpt lat="53.354061" lon="15.417374"></trkpt><trkpt lat="53.354147" lon="15.417723"></trkpt><trkpt lat="53.354215" lon="15.418081"></trkpt><trkpt lat="53.354699" lon="15.420077"></trkpt><trkpt lat="53.35484" lon="15.420348"></trkpt><trkpt lat="53.355733" lon="15.422373"></trkpt><trkpt lat="53.355803" lon="15.422726"></trkpt><trkpt lat="53.35589" lon="15.423064"></trkpt><trkpt lat="53.356032" lon="15.423754"></trkpt><trkpt lat="53.356869" lon="15.427045"></trkpt><trkpt lat="53.356972" lon="15.42735"></trkpt><trkpt lat="53.357392" lon="15.428869"></trkpt><trkpt lat="53.357404" lon="15.429212"></trkpt><trkpt lat="53.357351" lon="15.429551"></trkpt><trkpt lat="53.357548" lon="15.429455"></trkpt><trkpt lat="53.358437" lon="15.429138"></trkpt><trkpt lat="53.359257" lon="15.428946"></trkpt><trkpt lat="53.360249" lon="15.428586"></trkpt><trkpt lat="53.36005" lon="15.428628"></trkpt><trkpt lat="53.359849" lon="15.428615"></trkpt><trkpt lat="53.360038" lon="15.428744"></trkpt><trkpt lat="53.360242" lon="15.428701"></trkpt><trkpt lat="53.360951" lon="15.428636"></trkpt><trkpt lat="53.361932" lon="15.428426"></trkpt><trkpt lat="53.361811" lon="15.428128"></trkpt><trkpt lat="53.361941" lon="15.428395"></trkpt><trkpt lat="53.362142" lon="15.428504"></trkpt><trkpt lat="53.362364" lon="15.428489"></trkpt><trkpt lat="53.366221" lon="15.429206"></trkpt><trkpt lat="53.366447" lon="15.429364"></trkpt><trkpt lat="53.377432" lon="15.435565"></trkpt><trkpt lat="53.377667" lon="15.435623"></trkpt><trkpt lat="53.378181" lon="15.43582"></trkpt><trkpt lat="53.378387" lon="15.43598"></trkpt><trkpt lat="53.37859" lon="15.436169"></trkpt><trkpt lat="53.379743" lon="15.437067"></trkpt><trkpt lat="53.379992" lon="15.437064"></trkpt><trkpt lat="53.380238" lon="15.437016"></trkpt><trkpt lat="53.381094" lon="15.436724"></trkpt><trkpt lat="53.381209" lon="15.436403"></trkpt><trkpt lat="53.381246" lon="15.436046"></trkpt><trkpt lat="53.381324" lon="15.435715"></trkpt><trkpt lat="53.381522" lon="15.435495"></trkpt><trkpt lat="53.381742" lon="15.435426"></trkpt><trkpt lat="53.382648" lon="15.435251"></trkpt><trkpt lat="53.392685" lon="15.432102"></trkpt><trkpt lat="53.392904" lon="15.431946"></trkpt><trkpt lat="53.393539" lon="15.431581"></trkpt><trkpt lat="53.393776" lon="15.431502"></trkpt><trkpt lat="53.396832" lon="15.430861"></trkpt><trkpt lat="53.397036" lon="15.430867"></trkpt><trkpt lat="53.401588" lon="15.43155"></trkpt><trkpt lat="53.401794" lon="15.431643"></trkpt><trkpt lat="53.404879" lon="15.432647"></trkpt><trkpt lat="53.405071" lon="15.432386"></trkpt><trkpt lat="53.410874" lon="15.425615"></trkpt><trkpt lat="53.411" lon="15.425873"></trkpt><trkpt lat="53.411183" lon="15.42631"></trkpt><trkpt lat="53.412922" lon="15.431152"></trkpt><trkpt lat="53.413412" lon="15.432761"></trkpt><trkpt lat="53.413476" lon="15.433079"></trkpt><trkpt lat="53.413532" lon="15.433455"></trkpt><trkpt lat="53.413646" lon="15.434042"></trkpt><trkpt lat="53.417742" lon="15.450938"></trkpt><trkpt lat="53.417946" lon="15.451085"></trkpt><trkpt lat="53.418308" lon="15.45128"></trkpt><trkpt lat="53.418507" lon="15.451237"></trkpt><trkpt lat="53.418705" lon="15.451347"></trkpt><trkpt lat="53.419026" lon="15.451479"></trkpt><trkpt lat="53.419413" lon="15.451373"></trkpt><trkpt lat="53.419619" lon="15.451367"></trkpt><trkpt lat="53.419965" lon="15.451311"></trkpt><trkpt lat="53.420193" lon="15.451305"></trkpt><trkpt lat="53.42037" lon="15.451463"></trkpt><trkpt lat="53.420586" lon="15.451422"></trkpt><trkpt lat="53.42091" lon="15.451531"></trkpt><trkpt lat="53.421096" lon="15.451681"></trkpt><trkpt lat="53.421259" lon="15.451889"></trkpt><trkpt lat="53.421411" lon="15.452133"></trkpt><trkpt lat="53.421941" lon="15.452857"></trkpt><trkpt lat="53.422171" lon="15.453227"></trkpt><trkpt lat="53.42229" lon="15.453515"></trkpt><trkpt lat="53.422428" lon="15.453795"></trkpt><trkpt lat="53.424666" lon="15.459083"></trkpt><trkpt lat="53.424617" lon="15.459413"></trkpt><trkpt lat="53.424507" lon="15.45973"></trkpt><trkpt lat="53.423905" lon="15.461784"></trkpt><trkpt lat="53.423897" lon="15.462121"></trkpt><trkpt lat="53.423921" lon="15.462464"></trkpt><trkpt lat="53.423923" lon="15.462813"></trkpt><trkpt lat="53.42417" lon="15.46801"></trkpt><trkpt lat="53.424268" lon="15.468365"></trkpt><trkpt lat="53.424338" lon="15.468678"></trkpt><trkpt lat="53.424449" lon="15.469063"></trkpt><trkpt lat="53.424494" lon="15.469416"></trkpt><trkpt lat="53.424555" lon="15.469764"></trkpt><trkpt lat="53.424607" lon="15.470165"></trkpt><trkpt lat="53.42479" lon="15.472462"></trkpt><trkpt lat="53.424696" lon="15.47278"></trkpt><trkpt lat="53.424573" lon="15.473044"></trkpt><trkpt lat="53.424433" lon="15.473396"></trkpt><trkpt lat="53.424351" lon="15.473749"></trkpt><trkpt lat="53.424325" lon="15.474159"></trkpt><trkpt lat="53.424359" lon="15.474566"></trkpt><trkpt lat="53.424427" lon="15.475092"></trkpt><trkpt lat="53.425106" lon="15.478975"></trkpt><trkpt lat="53.42518" lon="15.479291"></trkpt><trkpt lat="53.425211" lon="15.479651"></trkpt><trkpt lat="53.425226" lon="15.480016"></trkpt><trkpt lat="53.42802" lon="15.513238"></trkpt><trkpt lat="53.428171" lon="15.513507"></trkpt><trkpt lat="53.428304" lon="15.513795"></trkpt><trkpt lat="53.436908" lon="15.535392"></trkpt><trkpt lat="53.43694" lon="15.535777"></trkpt><trkpt lat="53.43708" lon="15.539341"></trkpt><trkpt lat="53.437049" lon="15.539683"></trkpt><trkpt lat="53.436723" lon="15.54694"></trkpt><trkpt lat="53.436926" lon="15.546997"></trkpt><trkpt lat="53.438255" lon="15.547576"></trkpt><trkpt lat="53.438132" lon="15.54787"></trkpt><trkpt lat="53.43795" lon="15.548128"></trkpt><trkpt lat="53.437803" lon="15.548396"></trkpt><trkpt lat="53.437918" lon="15.548701"></trkpt><trkpt lat="53.437982" lon="15.549031"></trkpt><trkpt lat="53.438198" lon="15.549142"></trkpt><trkpt lat="53.438381" lon="15.549292"></trkpt><trkpt lat="53.438567" lon="15.549487"></trkpt><trkpt lat="53.438711" lon="15.549751"></trkpt><trkpt lat="53.438914" lon="15.549942"></trkpt><trkpt lat="53.439121" lon="15.550174"></trkpt><trkpt lat="53.439323" lon="15.550323"></trkpt><trkpt lat="53.439486" lon="15.550516"></trkpt><trkpt lat="53.439614" lon="15.550779"></trkpt><trkpt lat="53.439568" lon="15.551104"></trkpt><trkpt lat="53.439654" lon="15.551416"></trkpt><trkpt lat="53.439834" lon="15.551563"></trkpt><trkpt lat="53.439888" lon="15.551911"></trkpt><trkpt lat="53.440035" lon="15.552136"></trkpt><trkpt lat="53.440181" lon="15.552414"></trkpt><trkpt lat="53.440271" lon="15.552729"></trkpt><trkpt lat="53.441049" lon="15.555017"></trkpt><trkpt lat="53.441232" lon="15.555277"></trkpt><trkpt lat="53.441408" lon="15.555459"></trkpt><trkpt lat="53.441578" lon="15.555714"></trkpt><trkpt lat="53.442475" lon="15.556844"></trkpt><trkpt lat="53.442672" lon="15.556917"></trkpt><trkpt lat="53.442892" lon="15.556957"></trkpt><trkpt lat="53.444496" lon="15.557459"></trkpt><trkpt lat="53.444606" lon="15.557747"></trkpt><trkpt lat="53.444746" lon="15.558043"></trkpt><trkpt lat="53.444874" lon="15.558389"></trkpt><trkpt lat="53.445604" lon="15.560076"></trkpt><trkpt lat="53.445783" lon="15.560312"></trkpt><trkpt lat="53.445987" lon="15.56054"></trkpt><trkpt lat="53.446195" lon="15.560648"></trkpt><trkpt lat="53.446415" lon="15.560628"></trkpt><trkpt lat="53.446637" lon="15.56057"></trkpt><trkpt lat="53.447282" lon="15.560495"></trkpt><trkpt lat="53.447285" lon="15.560843"></trkpt><trkpt lat="53.447116" lon="15.561032"></trkpt><trkpt lat="53.446917" lon="15.56108"></trkpt><trkpt lat="53.446696" lon="15.561189"></trkpt><trkpt lat="53.446527" lon="15.56139"></trkpt><trkpt lat="53.446393" lon="15.561651"></trkpt><trkpt lat="53.44624" lon="15.561896"></trkpt><trkpt lat="53.44609" lon="15.562173"></trkpt><trkpt lat="53.444971" lon="15.564566"></trkpt><trkpt lat="53.445174" lon="15.564782"></trkpt><trkpt lat="53.446299" lon="15.566182"></trkpt><trkpt lat="53.446426" lon="15.566494"></trkpt><trkpt lat="53.446533" lon="15.566824"></trkpt><trkpt lat="53.447728" lon="15.569941"></trkpt><trkpt lat="53.447908" lon="15.570185"></trkpt><trkpt lat="53.448871" lon="15.571722"></trkpt><trkpt lat="53.449008" lon="15.572015"></trkpt><trkpt lat="53.449191" lon="15.572272"></trkpt><trkpt lat="53.452322" lon="15.576066"></trkpt><trkpt lat="53.452507" lon="15.576251"></trkpt><trkpt lat="53.468739" lon="15.595217"></trkpt><trkpt lat="53.468876" lon="15.595509"></trkpt><trkpt lat="53.469639" lon="15.596908"></trkpt><trkpt lat="53.469805" lon="15.597131"></trkpt><trkpt lat="53.470029" lon="15.59739"></trkpt><trkpt lat="53.470321" lon="15.597671"></trkpt><trkpt lat="53.470514" lon="15.597786"></trkpt><trkpt lat="53.473622" lon="15.600063"></trkpt><trkpt lat="53.473826" lon="15.600339"></trkpt><trkpt lat="53.4971" lon="15.636647"></trkpt><trkpt lat="53.497179" lon="15.636969"></trkpt><trkpt lat="53.498147" lon="15.640187"></trkpt><trkpt lat="53.498383" lon="15.640458"></trkpt><trkpt lat="53.498568" lon="15.640604"></trkpt><trkpt lat="53.498762" lon="15.64073"></trkpt><trkpt lat="53.500464" lon="15.64208"></trkpt><trkpt lat="53.500627" lon="15.642296"></trkpt><trkpt lat="53.50383" lon="15.645942"></trkpt><trkpt lat="53.504022" lon="15.646057"></trkpt><trkpt lat="53.504231" lon="15.646217"></trkpt><trkpt lat="53.504502" lon="15.646471"></trkpt><trkpt lat="53.504717" lon="15.646733"></trkpt><trkpt lat="53.50621" lon="15.64828"></trkpt><trkpt lat="53.506463" lon="15.648491"></trkpt><trkpt lat="53.506706" lon="15.648649"></trkpt><trkpt lat="53.506922" lon="15.648756"></trkpt><trkpt lat="53.507127" lon="15.648911"></trkpt><trkpt lat="53.507426" lon="15.649083"></trkpt><trkpt lat="53.507634" lon="15.649134"></trkpt><trkpt lat="53.508179" lon="15.649202"></trkpt><trkpt lat="53.508729" lon="15.649201"></trkpt><trkpt lat="53.51268" lon="15.648722"></trkpt><trkpt lat="53.512879" lon="15.648672"></trkpt><trkpt lat="53.515964" lon="15.648284"></trkpt><trkpt lat="53.516164" lon="15.648383"></trkpt><trkpt lat="53.516407" lon="15.648468"></trkpt><trkpt lat="53.51663" lon="15.648511"></trkpt><trkpt lat="53.5166" lon="15.648846"></trkpt><trkpt lat="53.516488" lon="15.649671"></trkpt><trkpt lat="53.516421" lon="15.650011"></trkpt><trkpt lat="53.516271" lon="15.650616"></trkpt><trkpt lat="53.516351" lon="15.650245"></trkpt><trkpt lat="53.516573" lon="15.648917"></trkpt><trkpt lat="53.516646" lon="15.648575"></trkpt><trkpt lat="53.516868" lon="15.648444"></trkpt><trkpt lat="53.517069" lon="15.648241"></trkpt><trkpt lat="53.517468" lon="15.647913"></trkpt><trkpt lat="53.517708" lon="15.647783"></trkpt><trkpt lat="53.518008" lon="15.647661"></trkpt><trkpt lat="53.519835" lon="15.647158"></trkpt><trkpt lat="53.520134" lon="15.647198"></trkpt><trkpt lat="53.520484" lon="15.647097"></trkpt><trkpt lat="53.520732" lon="15.646989"></trkpt><trkpt lat="53.52328" lon="15.646211"></trkpt><trkpt lat="53.523485" lon="15.646304"></trkpt><trkpt lat="53.525094" lon="15.647243"></trkpt><trkpt lat="53.525299" lon="15.647419"></trkpt><trkpt lat="53.525534" lon="15.647584"></trkpt><trkpt lat="53.526133" lon="15.647922"></trkpt><trkpt lat="53.52659" lon="15.648268"></trkpt><trkpt lat="53.5266" lon="15.648652"></trkpt><trkpt lat="53.526489" lon="15.648998"></trkpt><trkpt lat="53.52645" lon="15.649353"></trkpt><trkpt lat="53.526596" lon="15.649591"></trkpt><trkpt lat="53.526778" lon="15.649405"></trkpt><trkpt lat="53.526868" lon="15.649071"></trkpt><trkpt lat="53.526971" lon="15.64877"></trkpt><trkpt lat="53.527195" lon="15.648219"></trkpt><trkpt lat="53.527375" lon="15.64808"></trkpt><trkpt lat="53.527577" lon="15.648018"></trkpt><trkpt lat="53.527797" lon="15.648022"></trkpt><trkpt lat="53.528042" lon="15.648099"></trkpt><trkpt lat="53.52828" lon="15.648272"></trkpt><trkpt lat="53.528448" lon="15.64847"></trkpt><trkpt lat="53.528625" lon="15.648735"></trkpt><trkpt lat="53.528782" lon="15.649081"></trkpt><trkpt lat="53.528915" lon="15.649475"></trkpt><trkpt lat="53.529214" lon="15.650226"></trkpt><trkpt lat="53.529397" lon="15.65051"></trkpt><trkpt lat="53.529593" lon="15.65072"></trkpt><trkpt lat="53.529816" lon="15.650855"></trkpt><trkpt lat="53.530679" lon="15.651535"></trkpt><trkpt lat="53.530819" lon="15.651859"></trkpt><trkpt lat="53.53105" lon="15.652497"></trkpt><trkpt lat="53.538371" lon="15.67633"></trkpt><trkpt lat="53.538311" lon="15.676678"></trkpt><trkpt lat="53.53799" lon="15.67942"></trkpt><trkpt lat="53.53803" lon="15.679834"></trkpt><trkpt lat="53.538257" lon="15.681419"></trkpt><trkpt lat="53.538311" lon="15.681984"></trkpt><trkpt lat="53.538306" lon="15.682394"></trkpt><trkpt lat="53.538233" lon="15.68356"></trkpt><trkpt lat="53.538134" lon="15.683933"></trkpt><trkpt lat="53.53803" lon="15.684234"></trkpt><trkpt lat="53.53785" lon="15.684855"></trkpt><trkpt lat="53.537627" lon="15.685492"></trkpt><trkpt lat="53.537483" lon="15.685777"></trkpt><trkpt lat="53.537311" lon="15.686171"></trkpt><trkpt lat="53.537135" lon="15.686662"></trkpt><trkpt lat="53.537049" lon="15.687082"></trkpt><trkpt lat="53.536294" lon="15.69188"></trkpt><trkpt lat="53.536312" lon="15.692229"></trkpt><trkpt lat="53.536402" lon="15.692526"></trkpt><trkpt lat="53.536479" lon="15.692852"></trkpt><trkpt lat="53.53661" lon="15.693306"></trkpt><trkpt lat="53.536935" lon="15.69425"></trkpt><trkpt lat="53.53709" lon="15.694492"></trkpt><trkpt lat="53.537224" lon="15.694748"></trkpt><trkpt lat="53.537347" lon="15.695034"></trkpt><trkpt lat="53.5376" lon="15.695535"></trkpt><trkpt lat="53.53775" lon="15.695761"></trkpt><trkpt lat="53.538567" lon="15.697185"></trkpt><trkpt lat="53.53869" lon="15.697506"></trkpt><trkpt lat="53.538853" lon="15.697844"></trkpt><trkpt lat="53.539829" lon="15.699598"></trkpt><trkpt lat="53.540031" lon="15.699701"></trkpt><trkpt lat="53.540227" lon="15.699767"></trkpt><trkpt lat="53.540436" lon="15.699742"></trkpt><trkpt lat="53.541048" lon="15.699915"></trkpt><trkpt lat="53.541266" lon="15.700124"></trkpt><trkpt lat="53.541517" lon="15.700434"></trkpt><trkpt lat="53.541619" lon="15.700778"></trkpt><trkpt lat="53.541655" lon="15.701135"></trkpt><trkpt lat="53.541664" lon="15.701496"></trkpt><trkpt lat="53.541622" lon="15.701862"></trkpt><trkpt lat="53.541531" lon="15.702197"></trkpt><trkpt lat="53.541274" lon="15.702986"></trkpt><trkpt lat="53.54105" lon="15.703848"></trkpt><trkpt lat="53.541051" lon="15.704211"></trkpt><trkpt lat="53.54094" lon="15.704489"></trkpt><trkpt lat="53.540795" lon="15.704724"></trkpt><trkpt lat="53.540588" lon="15.704863"></trkpt><trkpt lat="53.540439" lon="15.705097"></trkpt><trkpt lat="53.54033" lon="15.705395"></trkpt><trkpt lat="53.540246" lon="15.70571"></trkpt><trkpt lat="53.540188" lon="15.706042"></trkpt><trkpt lat="53.540196" lon="15.706375"></trkpt><trkpt lat="53.540254" lon="15.706708"></trkpt><trkpt lat="53.54027" lon="15.707059"></trkpt><trkpt lat="53.540229" lon="15.707399"></trkpt><trkpt lat="53.539988" lon="15.708857"></trkpt><trkpt lat="53.53877" lon="15.719026"></trkpt><trkpt lat="53.538818" lon="15.719416"></trkpt><trkpt lat="53.538824" lon="15.719763"></trkpt><trkpt lat="53.538802" lon="15.7201"></trkpt><trkpt lat="53.538829" lon="15.720436"></trkpt><trkpt lat="53.538826" lon="15.720797"></trkpt><trkpt lat="53.538795" lon="15.721147"></trkpt><trkpt lat="53.538778" lon="15.721525"></trkpt><trkpt lat="53.538705" lon="15.722264"></trkpt><trkpt lat="53.538595" lon="15.722605"></trkpt><trkpt lat="53.537572" lon="15.726387"></trkpt><trkpt lat="53.537493" lon="15.726802"></trkpt><trkpt lat="53.537406" lon="15.727112"></trkpt><trkpt lat="53.537174" lon="15.728167"></trkpt><trkpt lat="53.537151" lon="15.728623"></trkpt><trkpt lat="53.53707" lon="15.729396"></trkpt><trkpt lat="53.536982" lon="15.729759"></trkpt><trkpt lat="53.533664" lon="15.746909"></trkpt><trkpt lat="53.533701" lon="15.74733"></trkpt><trkpt lat="53.533751" lon="15.748434"></trkpt><trkpt lat="53.533743" lon="15.748785"></trkpt><trkpt lat="53.533633" lon="15.750377"></trkpt><trkpt lat="53.533514" lon="15.750721"></trkpt><trkpt lat="53.533371" lon="15.751067"></trkpt><trkpt lat="53.533131" lon="15.751745"></trkpt><trkpt lat="53.5324" lon="15.754183"></trkpt><trkpt lat="53.532287" lon="15.754636"></trkpt><trkpt lat="53.530757" lon="15.759736"></trkpt><trkpt lat="53.530634" lon="15.760035"></trkpt><trkpt lat="53.530069" lon="15.761216"></trkpt><trkpt lat="53.529888" lon="15.76149"></trkpt><trkpt lat="53.529453" lon="15.762278"></trkpt><trkpt lat="53.529381" lon="15.762664"></trkpt><trkpt lat="53.529361" lon="15.763054"></trkpt><trkpt lat="53.529325" lon="15.767137"></trkpt><trkpt lat="53.529391" lon="15.767471"></trkpt><trkpt lat="53.529616" lon="15.768974"></trkpt><trkpt lat="53.529639" lon="15.769313"></trkpt><trkpt lat="53.529645" lon="15.769659"></trkpt><trkpt lat="53.52963" lon="15.770268"></trkpt><trkpt lat="53.529636" lon="15.77062"></trkpt><trkpt lat="53.529934" lon="15.77564"></trkpt><trkpt lat="53.530051" lon="15.776733"></trkpt><trkpt lat="53.530141" lon="15.777113"></trkpt><trkpt lat="53.530547" lon="15.778518"></trkpt><trkpt lat="53.530858" lon="15.779421"></trkpt><trkpt lat="53.531" lon="15.779768"></trkpt><trkpt lat="53.532026" lon="15.782714"></trkpt><trkpt lat="53.532036" lon="15.783077"></trkpt><trkpt lat="53.532017" lon="15.783446"></trkpt><trkpt lat="53.531974" lon="15.783798"></trkpt><trkpt lat="53.531843" lon="15.785447"></trkpt><trkpt lat="53.530857" lon="15.812189"></trkpt><trkpt lat="53.531061" lon="15.812046"></trkpt><trkpt lat="53.531197" lon="15.811781"></trkpt><trkpt lat="53.531163" lon="15.811434"></trkpt><trkpt lat="53.531105" lon="15.811096"></trkpt><trkpt lat="53.530932" lon="15.810858"></trkpt><trkpt lat="53.531144" lon="15.810805"></trkpt><trkpt lat="53.531336" lon="15.810719"></trkpt><trkpt lat="53.531403" lon="15.810385"></trkpt><trkpt lat="53.531404" lon="15.810037"></trkpt><trkpt lat="53.531616" lon="15.809888"></trkpt><trkpt lat="53.531923" lon="15.809715"></trkpt><trkpt lat="53.532352" lon="15.809386"></trkpt><trkpt lat="53.532314" lon="15.809015"></trkpt><trkpt lat="53.532233" lon="15.808709"></trkpt><trkpt lat="53.532162" lon="15.808357"></trkpt><trkpt lat="53.53207" lon="15.807989"></trkpt><trkpt lat="53.531972" lon="15.807695"></trkpt><trkpt lat="53.531632" lon="15.807871"></trkpt><trkpt lat="53.53182" lon="15.807737"></trkpt><trkpt lat="53.531992" lon="15.807535"></trkpt><trkpt lat="53.532128" lon="15.807286"></trkpt><trkpt lat="53.531932" lon="15.807087"></trkpt><trkpt lat="53.53185" lon="15.806773"></trkpt><trkpt lat="53.531794" lon="15.806388"></trkpt><trkpt lat="53.531833" lon="15.806059"></trkpt><trkpt lat="53.531767" lon="15.805735"></trkpt><trkpt lat="53.531857" lon="15.805422"></trkpt><trkpt lat="53.532058" lon="15.80534"></trkpt><trkpt lat="53.536498" lon="15.804126"></trkpt><trkpt lat="53.53643" lon="15.804503"></trkpt><trkpt lat="53.536293" lon="15.805521"></trkpt><trkpt lat="53.536352" lon="15.805865"></trkpt><trkpt lat="53.53647" lon="15.806209"></trkpt><trkpt lat="53.536632" lon="15.806406"></trkpt><trkpt lat="53.537184" lon="15.805629"></trkpt><trkpt lat="53.537365" lon="15.805424"></trkpt><trkpt lat="53.537504" lon="15.805686"></trkpt><trkpt lat="53.538017" lon="15.806526"></trkpt><trkpt lat="53.538349" lon="15.807159"></trkpt><trkpt lat="53.539673" lon="15.809288"></trkpt><trkpt lat="53.539974" lon="15.808874"></trkpt><trkpt lat="53.54015" lon="15.809074"></trkpt><trkpt lat="53.540294" lon="15.809334"></trkpt><trkpt lat="53.541755" lon="15.812377"></trkpt><trkpt lat="53.541845" lon="15.812683"></trkpt><trkpt lat="53.542179" lon="15.813565"></trkpt><trkpt lat="53.542417" lon="15.813576"></trkpt><trkpt lat="53.552069" lon="15.811991"></trkpt><trkpt lat="53.552282" lon="15.81189"></trkpt><trkpt lat="53.554933" lon="15.810969"></trkpt><trkpt lat="53.555299" lon="15.810791"></trkpt><trkpt lat="53.55549" lon="15.810618"></trkpt><trkpt lat="53.555657" lon="15.810425"></trkpt><trkpt lat="53.556688" lon="15.80942"></trkpt><trkpt lat="53.556923" lon="15.809399"></trkpt><trkpt lat="53.557121" lon="15.809457"></trkpt><trkpt lat="53.557328" lon="15.809662"></trkpt><trkpt lat="53.558211" lon="15.810391"></trkpt><trkpt lat="53.558419" lon="15.810509"></trkpt><trkpt lat="53.560161" lon="15.811274"></trkpt><trkpt lat="53.56047" lon="15.81145"></trkpt><trkpt lat="53.560684" lon="15.811616"></trkpt><trkpt lat="53.560901" lon="15.811825"></trkpt><trkpt lat="53.561125" lon="15.811984"></trkpt><trkpt lat="53.561341" lon="15.812049"></trkpt><trkpt lat="53.561597" lon="15.812093"></trkpt><trkpt lat="53.56262" lon="15.812394"></trkpt><trkpt lat="53.562824" lon="15.812495"></trkpt><trkpt lat="53.564423" lon="15.813505"></trkpt><trkpt lat="53.564584" lon="15.813718"></trkpt><trkpt lat="53.566691" lon="15.816112"></trkpt><trkpt lat="53.566898" lon="15.81625"></trkpt><trkpt lat="53.567104" lon="15.816342"></trkpt><trkpt lat="53.567308" lon="15.816393"></trkpt><trkpt lat="53.56764" lon="15.816436"></trkpt><trkpt lat="53.568218" lon="15.816432"></trkpt><trkpt lat="53.568435" lon="15.816484"></trkpt><trkpt lat="53.568572" lon="15.816727"></trkpt><trkpt lat="53.568771" lon="15.816728"></trkpt><trkpt lat="53.568942" lon="15.816549"></trkpt><trkpt lat="53.569156" lon="15.816545"></trkpt><trkpt lat="53.569677" lon="15.816618"></trkpt><trkpt lat="53.569888" lon="15.816735"></trkpt><trkpt lat="53.571374" lon="15.817769"></trkpt><trkpt lat="53.571566" lon="15.817956"></trkpt><trkpt lat="53.571776" lon="15.81802"></trkpt><trkpt lat="53.571988" lon="15.818051"></trkpt><trkpt lat="53.572191" lon="15.818171"></trkpt><trkpt lat="53.572413" lon="15.818363"></trkpt><trkpt lat="53.572591" lon="15.818556"></trkpt><trkpt lat="53.572808" lon="15.818754"></trkpt><trkpt lat="53.573017" lon="15.818836"></trkpt><trkpt lat="53.573233" lon="15.818845"></trkpt><trkpt lat="53.573475" lon="15.818785"></trkpt><trkpt lat="53.576918" lon="15.817505"></trkpt><trkpt lat="53.577039" lon="15.817232"></trkpt><trkpt lat="53.577159" lon="15.816897"></trkpt><trkpt lat="53.577249" lon="15.816554"></trkpt><trkpt lat="53.577371" lon="15.816185"></trkpt><trkpt lat="53.577568" lon="15.81607"></trkpt><trkpt lat="53.57778" lon="15.816087"></trkpt><trkpt lat="53.577993" lon="15.816032"></trkpt><trkpt lat="53.578679" lon="15.815769"></trkpt><trkpt lat="53.578881" lon="15.815633"></trkpt><trkpt lat="53.579104" lon="15.815551"></trkpt><trkpt lat="53.579678" lon="15.81542"></trkpt><trkpt lat="53.579927" lon="15.815418"></trkpt><trkpt lat="53.580162" lon="15.815342"></trkpt><trkpt lat="53.580395" lon="15.815232"></trkpt><trkpt lat="53.581" lon="15.814849"></trkpt><trkpt lat="53.581166" lon="15.814611"></trkpt><trkpt lat="53.581311" lon="15.814316"></trkpt><trkpt lat="53.581369" lon="15.81395"></trkpt><trkpt lat="53.581561" lon="15.813717"></trkpt><trkpt lat="53.581762" lon="15.813675"></trkpt><trkpt lat="53.581976" lon="15.813679"></trkpt><trkpt lat="53.582188" lon="15.813718"></trkpt><trkpt lat="53.58251" lon="15.813825"></trkpt><trkpt lat="53.582723" lon="15.81399"></trkpt><trkpt lat="53.582967" lon="15.814044"></trkpt><trkpt lat="53.583148" lon="15.813903"></trkpt><trkpt lat="53.583334" lon="15.813689"></trkpt><trkpt lat="53.583538" lon="15.813535"></trkpt><trkpt lat="53.583748" lon="15.813408"></trkpt><trkpt lat="53.583968" lon="15.813337"></trkpt><trkpt lat="53.584199" lon="15.813315"></trkpt><trkpt lat="53.58642" lon="15.8138"></trkpt><trkpt lat="53.586657" lon="15.813914"></trkpt><trkpt lat="53.589148" lon="15.814788"></trkpt><trkpt lat="53.589377" lon="15.814788"></trkpt><trkpt lat="53.589601" lon="15.81474"></trkpt><trkpt lat="53.590006" lon="15.814733"></trkpt><trkpt lat="53.590216" lon="15.814854"></trkpt><trkpt lat="53.590417" lon="15.814818"></trkpt><trkpt lat="53.59072" lon="15.814916"></trkpt><trkpt lat="53.590921" lon="15.814943"></trkpt><trkpt lat="53.591571" lon="15.814936"></trkpt><trkpt lat="53.603759" lon="15.816516"></trkpt><trkpt lat="53.603839" lon="15.816822"></trkpt><trkpt lat="53.604016" lon="15.817663"></trkpt><trkpt lat="53.604103" lon="15.817991"></trkpt><trkpt lat="53.604312" lon="15.817914"></trkpt><trkpt lat="53.605669" lon="15.81758"></trkpt><trkpt lat="53.605879" lon="15.817557"></trkpt><trkpt lat="53.606118" lon="15.817493"></trkpt><trkpt lat="53.608141" lon="15.817206"></trkpt><trkpt lat="53.608379" lon="15.817294"></trkpt><trkpt lat="53.608608" lon="15.817338"></trkpt><trkpt lat="53.609602" lon="15.817405"></trkpt><trkpt lat="53.6119" lon="15.817841"></trkpt><trkpt lat="53.612088" lon="15.817999"></trkpt><trkpt lat="53.61273" lon="15.818442"></trkpt><trkpt lat="53.613142" lon="15.818794"></trkpt><trkpt lat="53.613302" lon="15.819008"></trkpt><trkpt lat="53.613517" lon="15.819195"></trkpt><trkpt lat="53.613756" lon="15.819315"></trkpt><trkpt lat="53.614015" lon="15.81941"></trkpt><trkpt lat="53.614234" lon="15.819522"></trkpt><trkpt lat="53.61436" lon="15.819802"></trkpt><trkpt lat="53.614413" lon="15.820171"></trkpt><trkpt lat="53.614473" lon="15.820807"></trkpt><trkpt lat="53.614486" lon="15.821163"></trkpt><trkpt lat="53.614473" lon="15.821525"></trkpt><trkpt lat="53.614489" lon="15.821862"></trkpt><trkpt lat="53.614525" lon="15.822259"></trkpt><trkpt lat="53.614724" lon="15.822271"></trkpt><trkpt lat="53.617884" lon="15.821683"></trkpt><trkpt lat="53.618068" lon="15.821406"></trkpt><trkpt lat="53.618212" lon="15.821098"></trkpt><trkpt lat="53.618249" lon="15.82076"></trkpt><trkpt lat="53.618245" lon="15.820415"></trkpt><trkpt lat="53.617757" lon="15.81159"></trkpt><trkpt lat="53.617651" lon="15.811255"></trkpt><trkpt lat="53.617265" lon="15.809765"></trkpt><trkpt lat="53.617268" lon="15.809425"></trkpt><trkpt lat="53.617312" lon="15.809058"></trkpt><trkpt lat="53.617369" lon="15.808728"></trkpt><trkpt lat="53.61734" lon="15.808382"></trkpt><trkpt lat="53.617331" lon="15.807992"></trkpt><trkpt lat="53.61736" lon="15.807603"></trkpt><trkpt lat="53.617635" lon="15.805306"></trkpt><trkpt lat="53.617733" lon="15.804992"></trkpt><trkpt lat="53.618576" lon="15.80271"></trkpt><trkpt lat="53.618718" lon="15.802408"></trkpt><trkpt lat="53.618848" lon="15.802084"></trkpt><trkpt lat="53.619892" lon="15.799851"></trkpt><trkpt lat="53.620161" lon="15.79916"></trkpt><trkpt lat="53.620247" lon="15.798818"></trkpt><trkpt lat="53.620963" lon="15.796447"></trkpt><trkpt lat="53.621334" lon="15.795416"></trkpt><trkpt lat="53.621496" lon="15.795187"></trkpt><trkpt lat="53.621689" lon="15.794997"></trkpt><trkpt lat="53.622072" lon="15.794551"></trkpt><trkpt lat="53.62223" lon="15.794302"></trkpt><trkpt lat="53.622372" lon="15.794042"></trkpt><trkpt lat="53.622688" lon="15.79334"></trkpt><trkpt lat="53.622738" lon="15.792993"></trkpt><trkpt lat="53.622759" lon="15.792568"></trkpt><trkpt lat="53.622782" lon="15.789589"></trkpt><trkpt lat="53.622766" lon="15.78923"></trkpt><trkpt lat="53.622687" lon="15.788855"></trkpt><trkpt lat="53.622553" lon="15.788605"></trkpt><trkpt lat="53.622471" lon="15.788297"></trkpt><trkpt lat="53.622336" lon="15.787874"></trkpt><trkpt lat="53.622213" lon="15.78756"></trkpt><trkpt lat="53.622065" lon="15.787277"></trkpt><trkpt lat="53.621251" lon="15.785478"></trkpt><trkpt lat="53.62098" lon="15.784782"></trkpt><trkpt lat="53.620873" lon="15.784429"></trkpt><trkpt lat="53.620417" lon="15.783174"></trkpt><trkpt lat="53.620347" lon="15.782837"></trkpt><trkpt lat="53.620423" lon="15.78251"></trkpt><trkpt lat="53.620485" lon="15.782147"></trkpt><trkpt lat="53.620582" lon="15.781705"></trkpt><trkpt lat="53.62071" lon="15.781357"></trkpt><trkpt lat="53.62084" lon="15.780919"></trkpt><trkpt lat="53.620805" lon="15.780521"></trkpt><trkpt lat="53.620754" lon="15.780147"></trkpt><trkpt lat="53.620746" lon="15.77976"></trkpt><trkpt lat="53.620756" lon="15.779385"></trkpt><trkpt lat="53.620728" lon="15.777803"></trkpt><trkpt lat="53.620707" lon="15.777453"></trkpt><trkpt lat="53.62071" lon="15.776855"></trkpt><trkpt lat="53.62079" lon="15.776542"></trkpt><trkpt lat="53.621091" lon="15.775087"></trkpt><trkpt lat="53.621118" lon="15.774747"></trkpt><trkpt lat="53.621451" lon="15.772126"></trkpt><trkpt lat="53.621552" lon="15.771836"></trkpt><trkpt lat="53.621639" lon="15.771519"></trkpt><trkpt lat="53.621686" lon="15.771085"></trkpt><trkpt lat="53.622228" lon="15.762838"></trkpt><trkpt lat="53.622205" lon="15.762441"></trkpt><trkpt lat="53.622232" lon="15.762037"></trkpt><trkpt lat="53.622545" lon="15.749108"></trkpt><trkpt lat="53.622323" lon="15.748949"></trkpt><trkpt lat="53.622083" lon="15.748896"></trkpt><trkpt lat="53.618867" lon="15.74777"></trkpt><trkpt lat="53.618671" lon="15.747576"></trkpt><trkpt lat="53.61659" lon="15.745867"></trkpt><trkpt lat="53.616388" lon="15.745801"></trkpt><trkpt lat="53.611296" lon="15.74349"></trkpt><trkpt lat="53.611102" lon="15.743329"></trkpt><trkpt lat="53.610103" lon="15.742644"></trkpt><trkpt lat="53.599942" lon="15.734212"></trkpt><trkpt lat="53.599766" lon="15.733933"></trkpt><trkpt lat="53.599266" lon="15.733262"></trkpt><trkpt lat="53.599065" lon="15.733155"></trkpt><trkpt lat="53.598841" lon="15.733079"></trkpt><trkpt lat="53.598636" lon="15.733036"></trkpt><trkpt lat="53.594292" lon="15.732645"></trkpt><trkpt lat="53.594079" lon="15.732773"></trkpt><trkpt lat="53.593753" lon="15.732918"></trkpt><trkpt lat="53.59353" lon="15.732946"></trkpt><trkpt lat="53.592928" lon="15.732794"></trkpt><trkpt lat="53.591907" lon="15.732411"></trkpt><trkpt lat="53.590727" lon="15.731806"></trkpt><trkpt lat="53.590555" lon="15.731603"></trkpt><trkpt lat="53.590393" lon="15.731371"></trkpt><trkpt lat="53.590085" lon="15.731007"></trkpt><trkpt lat="53.589875" lon="15.731161"></trkpt><trkpt lat="53.589689" lon="15.731378"></trkpt><trkpt lat="53.589554" lon="15.731678"></trkpt><trkpt lat="53.589432" lon="15.732027"></trkpt><trkpt lat="53.588921" lon="15.733186"></trkpt><trkpt lat="53.588695" lon="15.733125"></trkpt><trkpt lat="53.588474" lon="15.733025"></trkpt><trkpt lat="53.587109" lon="15.732597"></trkpt><trkpt lat="53.586932" lon="15.732804"></trkpt><trkpt lat="53.586806" lon="15.733084"></trkpt><trkpt lat="53.586513" lon="15.733619"></trkpt><trkpt lat="53.586301" lon="15.733768"></trkpt><trkpt lat="53.586074" lon="15.73372"></trkpt><trkpt lat="53.585861" lon="15.733606"></trkpt><trkpt lat="53.585637" lon="15.733524"></trkpt><trkpt lat="53.585449" lon="15.733721"></trkpt><trkpt lat="53.585334" lon="15.734005"></trkpt><trkpt lat="53.584712" lon="15.735331"></trkpt><trkpt lat="53.584542" lon="15.735583"></trkpt><trkpt lat="53.58435" lon="15.735807"></trkpt><trkpt lat="53.584144" lon="15.735987"></trkpt><trkpt lat="53.583948" lon="15.73612"></trkpt><trkpt lat="53.583746" lon="15.736065"></trkpt><trkpt lat="53.583532" lon="15.735942"></trkpt><trkpt lat="53.554904" lon="15.723172"></trkpt><trkpt lat="53.554701" lon="15.723198"></trkpt><trkpt lat="53.554514" lon="15.723311"></trkpt><trkpt lat="53.554297" lon="15.723474"></trkpt><trkpt lat="53.554096" lon="15.723659"></trkpt><trkpt lat="53.553849" lon="15.723847"></trkpt><trkpt lat="53.553631" lon="15.723953"></trkpt><trkpt lat="53.553459" lon="15.72412"></trkpt><trkpt lat="53.553349" lon="15.724411"></trkpt><trkpt lat="53.553162" lon="15.725045"></trkpt><trkpt lat="53.552978" lon="15.725527"></trkpt><trkpt lat="53.552893" lon="15.725829"></trkpt><trkpt lat="53.552934" lon="15.72619"></trkpt><trkpt lat="53.553107" lon="15.726459"></trkpt><trkpt lat="53.55296" lon="15.726206"></trkpt><trkpt lat="53.552894" lon="15.725846"></trkpt><trkpt lat="53.552994" lon="15.72552"></trkpt><trkpt lat="53.553143" lon="15.72523"></trkpt><trkpt lat="53.553197" lon="15.724837"></trkpt><trkpt lat="53.553291" lon="15.724524"></trkpt><trkpt lat="53.553405" lon="15.724248"></trkpt><trkpt lat="53.553201" lon="15.724086"></trkpt><trkpt lat="53.552982" lon="15.724158"></trkpt><trkpt lat="53.546209" lon="15.727226"></trkpt><trkpt lat="53.545821" lon="15.727351"></trkpt><trkpt lat="53.545639" lon="15.727566"></trkpt><trkpt lat="53.545449" lon="15.727682"></trkpt><trkpt lat="53.543117" lon="15.728792"></trkpt><trkpt lat="53.541502" lon="15.727803"></trkpt><trkpt lat="53.541346" lon="15.727595"></trkpt><trkpt lat="53.540652" lon="15.726513"></trkpt><trkpt lat="53.540523" lon="15.726177"></trkpt><trkpt lat="53.538718" lon="15.722174"></trkpt><trkpt lat="53.538635" lon="15.722494"></trkpt><trkpt lat="53.53854" lon="15.722793"></trkpt><trkpt lat="53.53754" lon="15.726571"></trkpt><trkpt lat="53.537155" lon="15.728439"></trkpt><trkpt lat="53.537155" lon="15.7288"></trkpt><trkpt lat="53.53712" lon="15.729142"></trkpt><trkpt lat="53.537044" lon="15.729527"></trkpt><trkpt lat="53.535386" lon="15.736302"></trkpt><trkpt lat="53.535264" lon="15.73663"></trkpt><trkpt lat="53.534642" lon="15.738598"></trkpt><trkpt lat="53.534045" lon="15.740855"></trkpt><trkpt lat="53.533997" lon="15.741189"></trkpt><trkpt lat="53.533985" lon="15.741587"></trkpt><trkpt lat="53.534013" lon="15.74194"></trkpt><trkpt lat="53.534075" lon="15.743653"></trkpt><trkpt lat="53.53403" lon="15.744005"></trkpt><trkpt lat="53.533767" lon="15.745453"></trkpt><trkpt lat="53.533669" lon="15.745845"></trkpt><trkpt lat="53.533639" lon="15.746278"></trkpt><trkpt lat="53.533657" lon="15.746722"></trkpt><trkpt lat="53.533707" lon="15.747301"></trkpt><trkpt lat="53.533751" lon="15.748395"></trkpt><trkpt lat="53.533738" lon="15.748746"></trkpt><trkpt lat="53.533559" lon="15.750609"></trkpt><trkpt lat="53.533399" lon="15.750955"></trkpt><trkpt lat="53.533245" lon="15.751345"></trkpt><trkpt lat="53.533112" lon="15.751791"></trkpt><trkpt lat="53.529314" lon="15.767127"></trkpt><trkpt lat="53.52938" lon="15.767448"></trkpt><trkpt lat="53.529593" lon="15.768788"></trkpt><trkpt lat="53.529628" lon="15.769203"></trkpt><trkpt lat="53.52964" lon="15.769635"></trkpt><trkpt lat="53.530166" lon="15.777101"></trkpt><trkpt lat="53.530266" lon="15.777482"></trkpt><trkpt lat="53.530917" lon="15.779548"></trkpt><trkpt lat="53.531051" lon="15.779875"></trkpt><trkpt lat="53.531209" lon="15.780198"></trkpt><trkpt lat="53.531871" lon="15.781809"></trkpt><trkpt lat="53.531952" lon="15.782198"></trkpt><trkpt lat="53.532012" lon="15.782585"></trkpt><trkpt lat="53.532039" lon="15.782961"></trkpt><trkpt lat="53.532033" lon="15.783323"></trkpt><trkpt lat="53.531987" lon="15.783749"></trkpt><trkpt lat="53.530444" lon="15.807377"></trkpt><trkpt lat="53.530488" lon="15.807742"></trkpt><trkpt lat="53.530622" lon="15.808008"></trkpt><trkpt lat="53.530842" lon="15.807951"></trkpt><trkpt lat="53.531067" lon="15.807816"></trkpt><trkpt lat="53.531926" lon="15.80743"></trkpt><trkpt lat="53.531643" lon="15.807796"></trkpt></trkseg></trk></gpx>