<?xml version="1.0" encoding="UTF-8" standalone="no" ?><gpx xmlns="http://www.topografix.com/GPX/1/1" xmlns:gpxx="http://www.garmin.com/xmlschemas/GpxExtensions/v3" ><trk><trkseg><trkpt lat="54.240289" lon="20.124634"></trkpt><trkpt lat="54.240102" lon="20.124806"></trkpt><trkpt lat="54.239978" lon="20.125087"></trkpt><trkpt lat="54.240063" lon="20.125427"></trkpt><trkpt lat="54.239963" lon="20.125072"></trkpt><trkpt lat="54.239803" lon="20.124784"></trkpt><trkpt lat="54.239644" lon="20.124543"></trkpt><trkpt lat="54.23945" lon="20.124364"></trkpt><trkpt lat="54.239243" lon="20.124264"></trkpt><trkpt lat="54.239009" lon="20.124196"></trkpt><trkpt lat="54.238846" lon="20.12398"></trkpt><trkpt lat="54.238965" lon="20.1237"></trkpt><trkpt lat="54.239117" lon="20.123401"></trkpt><trkpt lat="54.23923" lon="20.123098"></trkpt><trkpt lat="54.239135" lon="20.122777"></trkpt><trkpt lat="54.238994" lon="20.122525"></trkpt><trkpt lat="54.238859" lon="20.122246"></trkpt><trkpt lat="54.238814" lon="20.121882"></trkpt><trkpt lat="54.238812" lon="20.121536"></trkpt><trkpt lat="54.238883" lon="20.121217"></trkpt><trkpt lat="54.239014" lon="20.120922"></trkpt><trkpt lat="54.239161" lon="20.120649"></trkpt><trkpt lat="54.239143" lon="20.120295"></trkpt><trkpt lat="54.23901" lon="20.120021"></trkpt><trkpt lat="54.238767" lon="20.11959"></trkpt><trkpt lat="54.238633" lon="20.119266"></trkpt><trkpt lat="54.238545" lon="20.118926"></trkpt><trkpt lat="54.238098" lon="20.117501"></trkpt><trkpt lat="54.237869" lon="20.117502"></trkpt><trkpt lat="54.237697" lon="20.117728"></trkpt><trkpt lat="54.237558" lon="20.118002"></trkpt><trkpt lat="54.235915" lon="20.12079"></trkpt><trkpt lat="54.235739" lon="20.12061"></trkpt><trkpt lat="54.235539" lon="20.120461"></trkpt><trkpt lat="54.235347" lon="20.120268"></trkpt><trkpt lat="54.234838" lon="20.119667"></trkpt><trkpt lat="54.234672" lon="20.119434"></trkpt><trkpt lat="54.2345" lon="20.119266"></trkpt><trkpt lat="54.234453" lon="20.119609"></trkpt><trkpt lat="54.23451" lon="20.119934"></trkpt><trkpt lat="54.235069" lon="20.12425"></trkpt><trkpt lat="54.235089" lon="20.124673"></trkpt><trkpt lat="54.235127" lon="20.125098"></trkpt><trkpt lat="54.235205" lon="20.125608"></trkpt><trkpt lat="54.235309" lon="20.126063"></trkpt><trkpt lat="54.235383" lon="20.126512"></trkpt><trkpt lat="54.235508" lon="20.126938"></trkpt><trkpt lat="54.235689" lon="20.127292"></trkpt><trkpt lat="54.236151" lon="20.128359"></trkpt><trkpt lat="54.236266" lon="20.128678"></trkpt><trkpt lat="54.236475" lon="20.128857"></trkpt><trkpt lat="54.236826" lon="20.129218"></trkpt><trkpt lat="54.237495" lon="20.129795"></trkpt><trkpt lat="54.237729" lon="20.129949"></trkpt><trkpt lat="54.240429" lon="20.132145"></trkpt><trkpt lat="54.240569" lon="20.132452"></trkpt><trkpt lat="54.249937" lon="20.150273"></trkpt><trkpt lat="54.249955" lon="20.149932"></trkpt><trkpt lat="54.249965" lon="20.148706"></trkpt><trkpt lat="54.249997" lon="20.148182"></trkpt><trkpt lat="54.250097" lon="20.147828"></trkpt><trkpt lat="54.250223" lon="20.147565"></trkpt><trkpt lat="54.250684" lon="20.146441"></trkpt><trkpt lat="54.250757" lon="20.146101"></trkpt><trkpt lat="54.250809" lon="20.145753"></trkpt><trkpt lat="54.251097" lon="20.144287"></trkpt><trkpt lat="54.251238" lon="20.144039"></trkpt><trkpt lat="54.251405" lon="20.143786"></trkpt><trkpt lat="54.252487" lon="20.142412"></trkpt><trkpt lat="54.252594" lon="20.142729"></trkpt><trkpt lat="54.253538" lon="20.146046"></trkpt><trkpt lat="54.255382" lon="20.151447"></trkpt><trkpt lat="54.255575" lon="20.151597"></trkpt><trkpt lat="54.255839" lon="20.151764"></trkpt><trkpt lat="54.256063" lon="20.151867"></trkpt><trkpt lat="54.261044" lon="20.153509"></trkpt><trkpt lat="54.261244" lon="20.15348"></trkpt><trkpt lat="54.261473" lon="20.153418"></trkpt><trkpt lat="54.264117" lon="20.152373"></trkpt><trkpt lat="54.264369" lon="20.152238"></trkpt><trkpt lat="54.264824" lon="20.151933"></trkpt><trkpt lat="54.265006" lon="20.151774"></trkpt><trkpt lat="54.265747" lon="20.151246"></trkpt><trkpt lat="54.265971" lon="20.151165"></trkpt><trkpt lat="54.267232" lon="20.150878"></trkpt><trkpt lat="54.267463" lon="20.150983"></trkpt><trkpt lat="54.267629" lon="20.151243"></trkpt><trkpt lat="54.267904" lon="20.151587"></trkpt><trkpt lat="54.268129" lon="20.151692"></trkpt><trkpt lat="54.2683" lon="20.151889"></trkpt><trkpt lat="54.268534" lon="20.151924"></trkpt><trkpt lat="54.268721" lon="20.151751"></trkpt><trkpt lat="54.268892" lon="20.151493"></trkpt><trkpt lat="54.26905" lon="20.151216"></trkpt><trkpt lat="54.269303" lon="20.150841"></trkpt><trkpt lat="54.269495" lon="20.150663"></trkpt><trkpt lat="54.269671" lon="20.150463"></trkpt><trkpt lat="54.269835" lon="20.150222"></trkpt><trkpt lat="54.27032" lon="20.149374"></trkpt><trkpt lat="54.270428" lon="20.149057"></trkpt><trkpt lat="54.270631" lon="20.148571"></trkpt><trkpt lat="54.270798" lon="20.148335"></trkpt><trkpt lat="54.271031" lon="20.148207"></trkpt><trkpt lat="54.271242" lon="20.148122"></trkpt><trkpt lat="54.271643" lon="20.1479"></trkpt><trkpt lat="54.271817" lon="20.147674"></trkpt><trkpt lat="54.271979" lon="20.14741"></trkpt><trkpt lat="54.272164" lon="20.147191"></trkpt><trkpt lat="54.273418" lon="20.145921"></trkpt><trkpt lat="54.273629" lon="20.145871"></trkpt><trkpt lat="54.27574" lon="20.146109"></trkpt><trkpt lat="54.282976" lon="20.147811"></trkpt><trkpt lat="54.283148" lon="20.147992"></trkpt><trkpt lat="54.284519" lon="20.149187"></trkpt><trkpt lat="54.284724" lon="20.149203"></trkpt><trkpt lat="54.28495" lon="20.14931"></trkpt><trkpt lat="54.285141" lon="20.149432"></trkpt><trkpt lat="54.286327" lon="20.150012"></trkpt><trkpt lat="54.28654" lon="20.150025"></trkpt><trkpt lat="54.286769" lon="20.150118"></trkpt><trkpt lat="54.287232" lon="20.150374"></trkpt><trkpt lat="54.287428" lon="20.150522"></trkpt><trkpt lat="54.287665" lon="20.150742"></trkpt><trkpt lat="54.287837" lon="20.15099"></trkpt><trkpt lat="54.288943" lon="20.152827"></trkpt><trkpt lat="54.289073" lon="20.153117"></trkpt><trkpt lat="54.290906" lon="20.156663"></trkpt><trkpt lat="54.291179" lon="20.157121"></trkpt><trkpt lat="54.294518" lon="20.161976"></trkpt><trkpt lat="54.294764" lon="20.162036"></trkpt><trkpt lat="54.295179" lon="20.16186"></trkpt><trkpt lat="54.295381" lon="20.161646"></trkpt><trkpt lat="54.299652" lon="20.157804"></trkpt><trkpt lat="54.299843" lon="20.15771"></trkpt><trkpt lat="54.301034" lon="20.157278"></trkpt><trkpt lat="54.301232" lon="20.157246"></trkpt><trkpt lat="54.301698" lon="20.157232"></trkpt><trkpt lat="54.301984" lon="20.157189"></trkpt><trkpt lat="54.30309" lon="20.156887"></trkpt><trkpt lat="54.30328" lon="20.157005"></trkpt><trkpt lat="54.30348" lon="20.157054"></trkpt><trkpt lat="54.303684" lon="20.157143"></trkpt><trkpt lat="54.303894" lon="20.157197"></trkpt><trkpt lat="54.313311" lon="20.158447"></trkpt><trkpt lat="54.313495" lon="20.158272"></trkpt><trkpt lat="54.314316" lon="20.157621"></trkpt><trkpt lat="54.316026" lon="20.156547"></trkpt><trkpt lat="54.316282" lon="20.156574"></trkpt><trkpt lat="54.316521" lon="20.156635"></trkpt><trkpt lat="54.316872" lon="20.156775"></trkpt><trkpt lat="54.317078" lon="20.156897"></trkpt><trkpt lat="54.317338" lon="20.15709"></trkpt><trkpt lat="54.317565" lon="20.157226"></trkpt><trkpt lat="54.317786" lon="20.157315"></trkpt><trkpt lat="54.318104" lon="20.157402"></trkpt><trkpt lat="54.319499" lon="20.157576"></trkpt><trkpt lat="54.319696" lon="20.157433"></trkpt><trkpt lat="54.322814" lon="20.155605"></trkpt><trkpt lat="54.323039" lon="20.155536"></trkpt><trkpt lat="54.323417" lon="20.155468"></trkpt><trkpt lat="54.324269" lon="20.155729"></trkpt><trkpt lat="54.327915" lon="20.157321"></trkpt><trkpt lat="54.328127" lon="20.157499"></trkpt><trkpt lat="54.330046" lon="20.159423"></trkpt><trkpt lat="54.330198" lon="20.159646"></trkpt><trkpt lat="54.33051" lon="20.160184"></trkpt><trkpt lat="54.330613" lon="20.160475"></trkpt><trkpt lat="54.331365" lon="20.162281"></trkpt><trkpt lat="54.331532" lon="20.162556"></trkpt><trkpt lat="54.333611" lon="20.16552"></trkpt><trkpt lat="54.33386" lon="20.165586"></trkpt><trkpt lat="54.33412" lon="20.16561"></trkpt><trkpt lat="54.337255" lon="20.166309"></trkpt><trkpt lat="54.337342" lon="20.166637"></trkpt><trkpt lat="54.337286" lon="20.166977"></trkpt><trkpt lat="54.337089" lon="20.167129"></trkpt><trkpt lat="54.336917" lon="20.167311"></trkpt><trkpt lat="54.336735" lon="20.167566"></trkpt><trkpt lat="54.336578" lon="20.167858"></trkpt><trkpt lat="54.336466" lon="20.168155"></trkpt><trkpt lat="54.336369" lon="20.168494"></trkpt><trkpt lat="54.336195" lon="20.169231"></trkpt><trkpt lat="54.327952" lon="20.209144"></trkpt><trkpt lat="54.327908" lon="20.209523"></trkpt><trkpt lat="54.325845" lon="20.222453"></trkpt><trkpt lat="54.325653" lon="20.222683"></trkpt><trkpt lat="54.324742" lon="20.22396"></trkpt><trkpt lat="54.324526" lon="20.224314"></trkpt><trkpt lat="54.324407" lon="20.224611"></trkpt><trkpt lat="54.324305" lon="20.224915"></trkpt><trkpt lat="54.324173" lon="20.225206"></trkpt><trkpt lat="54.324012" lon="20.225428"></trkpt><trkpt lat="54.323524" lon="20.226219"></trkpt><trkpt lat="54.323385" lon="20.226566"></trkpt><trkpt lat="54.322071" lon="20.230408"></trkpt><trkpt lat="54.32203" lon="20.230763"></trkpt><trkpt lat="54.321879" lon="20.232815"></trkpt><trkpt lat="54.321721" lon="20.234161"></trkpt><trkpt lat="54.321646" lon="20.23452"></trkpt><trkpt lat="54.317714" lon="20.258517"></trkpt><trkpt lat="54.31775" lon="20.258907"></trkpt><trkpt lat="54.317751" lon="20.259301"></trkpt><trkpt lat="54.317479" lon="20.266078"></trkpt><trkpt lat="54.317578" lon="20.266387"></trkpt><trkpt lat="54.317559" lon="20.266767"></trkpt><trkpt lat="54.317491" lon="20.267134"></trkpt><trkpt lat="54.317398" lon="20.267492"></trkpt><trkpt lat="54.317268" lon="20.267825"></trkpt><trkpt lat="54.317122" lon="20.268097"></trkpt><trkpt lat="54.314501" lon="20.273788"></trkpt><trkpt lat="54.314504" lon="20.274196"></trkpt><trkpt lat="54.313751" lon="20.296056"></trkpt><trkpt lat="54.313587" lon="20.296304"></trkpt><trkpt lat="54.313086" lon="20.297176"></trkpt><trkpt lat="54.312448" lon="20.298461"></trkpt><trkpt lat="54.312356" lon="20.29879"></trkpt><trkpt lat="54.309959" lon="20.309216"></trkpt><trkpt lat="54.310046" lon="20.309555"></trkpt><trkpt lat="54.310183" lon="20.309855"></trkpt><trkpt lat="54.310404" lon="20.31004"></trkpt><trkpt lat="54.310604" lon="20.310159"></trkpt><trkpt lat="54.311332" lon="20.310718"></trkpt><trkpt lat="54.311396" lon="20.311076"></trkpt><trkpt lat="54.311414" lon="20.311425"></trkpt><trkpt lat="54.31147" lon="20.311778"></trkpt><trkpt lat="54.31156" lon="20.312098"></trkpt><trkpt lat="54.315792" lon="20.330302"></trkpt><trkpt lat="54.315684" lon="20.330701"></trkpt><trkpt lat="54.315614" lon="20.331121"></trkpt><trkpt lat="54.315628" lon="20.331466"></trkpt><trkpt lat="54.315741" lon="20.331863"></trkpt><trkpt lat="54.315798" lon="20.332235"></trkpt><trkpt lat="54.315869" lon="20.332581"></trkpt><trkpt lat="54.317673" lon="20.343911"></trkpt><trkpt lat="54.317625" lon="20.344254"></trkpt><trkpt lat="54.317594" lon="20.344607"></trkpt><trkpt lat="54.31758" lon="20.344946"></trkpt><trkpt lat="54.317013" lon="20.351652"></trkpt><trkpt lat="54.316908" lon="20.352035"></trkpt><trkpt lat="54.314962" lon="20.360716"></trkpt><trkpt lat="54.315004" lon="20.361155"></trkpt><trkpt lat="54.315474" lon="20.364495"></trkpt><trkpt lat="54.315555" lon="20.364809"></trkpt><trkpt lat="54.315624" lon="20.365181"></trkpt><trkpt lat="54.315779" lon="20.365848"></trkpt><trkpt lat="54.315896" lon="20.366253"></trkpt><trkpt lat="54.316041" lon="20.366644"></trkpt><trkpt lat="54.31662" lon="20.368479"></trkpt><trkpt lat="54.316759" lon="20.36885"></trkpt><trkpt lat="54.316919" lon="20.369133"></trkpt><trkpt lat="54.317138" lon="20.369469"></trkpt><trkpt lat="54.317432" lon="20.369844"></trkpt><trkpt lat="54.317287" lon="20.369576"></trkpt><trkpt lat="54.317406" lon="20.369895"></trkpt><trkpt lat="54.317556" lon="20.370138"></trkpt><trkpt lat="54.317826" lon="20.370666"></trkpt><trkpt lat="54.317875" lon="20.371041"></trkpt><trkpt lat="54.317883" lon="20.371419"></trkpt><trkpt lat="54.317982" lon="20.372917"></trkpt><trkpt lat="54.318055" lon="20.373287"></trkpt><trkpt lat="54.31819" lon="20.374215"></trkpt><trkpt lat="54.318138" lon="20.374567"></trkpt><trkpt lat="54.31804" lon="20.37492"></trkpt><trkpt lat="54.315433" lon="20.386343"></trkpt><trkpt lat="54.315471" lon="20.38675"></trkpt><trkpt lat="54.316687" lon="20.410216"></trkpt><trkpt lat="54.31661" lon="20.410554"></trkpt><trkpt lat="54.314134" lon="20.419511"></trkpt><trkpt lat="54.31401" lon="20.419787"></trkpt><trkpt lat="54.298487" lon="20.452631"></trkpt><trkpt lat="54.294223" lon="20.463065"></trkpt><trkpt lat="54.294117" lon="20.463419"></trkpt><trkpt lat="54.286249" lon="20.485669"></trkpt><trkpt lat="54.286046" lon="20.485935"></trkpt><trkpt lat="54.285115" lon="20.486979"></trkpt><trkpt lat="54.2849" lon="20.487148"></trkpt><trkpt lat="54.282711" lon="20.489247"></trkpt><trkpt lat="54.282795" lon="20.489555"></trkpt><trkpt lat="54.282857" lon="20.489879"></trkpt><trkpt lat="54.282654" lon="20.489887"></trkpt><trkpt lat="54.282856" lon="20.489808"></trkpt><trkpt lat="54.282813" lon="20.489475"></trkpt><trkpt lat="54.282801" lon="20.489073"></trkpt><trkpt lat="54.282999" lon="20.488893"></trkpt><trkpt lat="54.285269" lon="20.486438"></trkpt><trkpt lat="54.285227" lon="20.486084"></trkpt><trkpt lat="54.285129" lon="20.484646"></trkpt><trkpt lat="54.285074" lon="20.484986"></trkpt><trkpt lat="54.285118" lon="20.485398"></trkpt><trkpt lat="54.28517" lon="20.487002"></trkpt><trkpt lat="54.28498" lon="20.487141"></trkpt><trkpt lat="54.284771" lon="20.487346"></trkpt><trkpt lat="54.284466" lon="20.487596"></trkpt><trkpt lat="54.282741" lon="20.489328"></trkpt><trkpt lat="54.282799" lon="20.489673"></trkpt><trkpt lat="54.282679" lon="20.489944"></trkpt><trkpt lat="54.282883" lon="20.489911"></trkpt><trkpt lat="54.282978" lon="20.490235"></trkpt><trkpt lat="54.283006" lon="20.490663"></trkpt><trkpt lat="54.282983" lon="20.49109"></trkpt><trkpt lat="54.28293" lon="20.491461"></trkpt><trkpt lat="54.282743" lon="20.493506"></trkpt><trkpt lat="54.282902" lon="20.493811"></trkpt><trkpt lat="54.283092" lon="20.494038"></trkpt><trkpt lat="54.283333" lon="20.494284"></trkpt><trkpt lat="54.283602" lon="20.494608"></trkpt><trkpt lat="54.283908" lon="20.495042"></trkpt><trkpt lat="54.284053" lon="20.495312"></trkpt><trkpt lat="54.284209" lon="20.495522"></trkpt><trkpt lat="54.284414" lon="20.495568"></trkpt><trkpt lat="54.284543" lon="20.495281"></trkpt><trkpt lat="54.284684" lon="20.495016"></trkpt><trkpt lat="54.284851" lon="20.494606"></trkpt><trkpt lat="54.284716" lon="20.494344"></trkpt><trkpt lat="54.284769" lon="20.494005"></trkpt><trkpt lat="54.284901" lon="20.493738"></trkpt><trkpt lat="54.284817" lon="20.493417"></trkpt><trkpt lat="54.284633" lon="20.493204"></trkpt><trkpt lat="54.284325" lon="20.493634"></trkpt><trkpt lat="54.284171" lon="20.493928"></trkpt><trkpt lat="54.283977" lon="20.494369"></trkpt><trkpt lat="54.28398" lon="20.494711"></trkpt><trkpt lat="54.283941" lon="20.495048"></trkpt><trkpt lat="54.284091" lon="20.495346"></trkpt><trkpt lat="54.284251" lon="20.495603"></trkpt><trkpt lat="54.284381" lon="20.495895"></trkpt><trkpt lat="54.284498" lon="20.496211"></trkpt><trkpt lat="54.284791" lon="20.496891"></trkpt><trkpt lat="54.284943" lon="20.497145"></trkpt><trkpt lat="54.285279" lon="20.497617"></trkpt><trkpt lat="54.285461" lon="20.497762"></trkpt><trkpt lat="54.285674" lon="20.497791"></trkpt><trkpt lat="54.285877" lon="20.497721"></trkpt><trkpt lat="54.28636" lon="20.497619"></trkpt><trkpt lat="54.286636" lon="20.497716"></trkpt><trkpt lat="54.286814" lon="20.497868"></trkpt><trkpt lat="54.286987" lon="20.498044"></trkpt><trkpt lat="54.287542" lon="20.498521"></trkpt><trkpt lat="54.287747" lon="20.498647"></trkpt><trkpt lat="54.287956" lon="20.498743"></trkpt><trkpt lat="54.288148" lon="20.498858"></trkpt><trkpt lat="54.290845" lon="20.500846"></trkpt><trkpt lat="54.291022" lon="20.501042"></trkpt><trkpt lat="54.302613" lon="20.515957"></trkpt><trkpt lat="54.302735" lon="20.516257"></trkpt><trkpt lat="54.306577" lon="20.524406"></trkpt><trkpt lat="54.30674" lon="20.524638"></trkpt><trkpt lat="54.311521" lon="20.532511"></trkpt><trkpt lat="54.311549" lon="20.532877"></trkpt><trkpt lat="54.311579" lon="20.533738"></trkpt><trkpt lat="54.311567" lon="20.534879"></trkpt><trkpt lat="54.311543" lon="20.535237"></trkpt><trkpt lat="54.311508" lon="20.537351"></trkpt><trkpt lat="54.311629" lon="20.537742"></trkpt><trkpt lat="54.311792" lon="20.538045"></trkpt><trkpt lat="54.311968" lon="20.53832"></trkpt><trkpt lat="54.312045" lon="20.538653"></trkpt><trkpt lat="54.312006" lon="20.539112"></trkpt><trkpt lat="54.31128" lon="20.544795"></trkpt><trkpt lat="54.311027" lon="20.547855"></trkpt><trkpt lat="54.311054" lon="20.548236"></trkpt><trkpt lat="54.31117" lon="20.55239"></trkpt><trkpt lat="54.311066" lon="20.552756"></trkpt><trkpt lat="54.310438" lon="20.554605"></trkpt><trkpt lat="54.310285" lon="20.55487"></trkpt><trkpt lat="54.30988" lon="20.555702"></trkpt><trkpt lat="54.309785" lon="20.556056"></trkpt><trkpt lat="54.309712" lon="20.556416"></trkpt><trkpt lat="54.309591" lon="20.557256"></trkpt><trkpt lat="54.309652" lon="20.557591"></trkpt><trkpt lat="54.309765" lon="20.557896"></trkpt><trkpt lat="54.309941" lon="20.558463"></trkpt><trkpt lat="54.310013" lon="20.558825"></trkpt><trkpt lat="54.310085" lon="20.559303"></trkpt><trkpt lat="54.310099" lon="20.559672"></trkpt><trkpt lat="54.310056" lon="20.560011"></trkpt><trkpt lat="54.310035" lon="20.560362"></trkpt><trkpt lat="54.309999" lon="20.560702"></trkpt><trkpt lat="54.308507" lon="20.570624"></trkpt><trkpt lat="54.30831" lon="20.570828"></trkpt><trkpt lat="54.30786" lon="20.571393"></trkpt><trkpt lat="54.307744" lon="20.571689"></trkpt><trkpt lat="54.307115" lon="20.573625"></trkpt><trkpt lat="54.307027" lon="20.574085"></trkpt><trkpt lat="54.305016" lon="20.58246"></trkpt><trkpt lat="54.304807" lon="20.58257"></trkpt><trkpt lat="54.303694" lon="20.583311"></trkpt><trkpt lat="54.303541" lon="20.583578"></trkpt><trkpt lat="54.303409" lon="20.583871"></trkpt><trkpt lat="54.294384" lon="20.601224"></trkpt><trkpt lat="54.294168" lon="20.601191"></trkpt><trkpt lat="54.292606" lon="20.60117"></trkpt><trkpt lat="54.292415" lon="20.601409"></trkpt><trkpt lat="54.290321" lon="20.604442"></trkpt><trkpt lat="54.290185" lon="20.604713"></trkpt><trkpt lat="54.28915" lon="20.606464"></trkpt><trkpt lat="54.288955" lon="20.606622"></trkpt><trkpt lat="54.288624" lon="20.606827"></trkpt><trkpt lat="54.288371" lon="20.606833"></trkpt><trkpt lat="54.288168" lon="20.606791"></trkpt><trkpt lat="54.287741" lon="20.60676"></trkpt><trkpt lat="54.287568" lon="20.606959"></trkpt><trkpt lat="54.287456" lon="20.60724"></trkpt><trkpt lat="54.287386" lon="20.607581"></trkpt><trkpt lat="54.287338" lon="20.607947"></trkpt><trkpt lat="54.287229" lon="20.609215"></trkpt><trkpt lat="54.287232" lon="20.609565"></trkpt><trkpt lat="54.28722" lon="20.609922"></trkpt><trkpt lat="54.286709" lon="20.616698"></trkpt><trkpt lat="54.286614" lon="20.617006"></trkpt><trkpt lat="54.286533" lon="20.617337"></trkpt><trkpt lat="54.286423" lon="20.61765"></trkpt><trkpt lat="54.286294" lon="20.617909"></trkpt><trkpt lat="54.286131" lon="20.618167"></trkpt><trkpt lat="54.283039" lon="20.623854"></trkpt><trkpt lat="54.283174" lon="20.624119"></trkpt><trkpt lat="54.287468" lon="20.633872"></trkpt><trkpt lat="54.287442" lon="20.634233"></trkpt><trkpt lat="54.286947" lon="20.650423"></trkpt><trkpt lat="54.286973" lon="20.650831"></trkpt><trkpt lat="54.286897" lon="20.651186"></trkpt><trkpt lat="54.286782" lon="20.651536"></trkpt><trkpt lat="54.286843" lon="20.651901"></trkpt><trkpt lat="54.286982" lon="20.652164"></trkpt><trkpt lat="54.287166" lon="20.652399"></trkpt><trkpt lat="54.28751" lon="20.65277"></trkpt><trkpt lat="54.287671" lon="20.653031"></trkpt><trkpt lat="54.287735" lon="20.653396"></trkpt><trkpt lat="54.287761" lon="20.653758"></trkpt><trkpt lat="54.287805" lon="20.655384"></trkpt><trkpt lat="54.287784" lon="20.655787"></trkpt><trkpt lat="54.287377" lon="20.660064"></trkpt><trkpt lat="54.2873" lon="20.660401"></trkpt><trkpt lat="54.286597" lon="20.664284"></trkpt><trkpt lat="54.284023" lon="20.683239"></trkpt><trkpt lat="54.2841" lon="20.683631"></trkpt><trkpt lat="54.284375" lon="20.685444"></trkpt><trkpt lat="54.284356" lon="20.685867"></trkpt><trkpt lat="54.284318" lon="20.68624"></trkpt><trkpt lat="54.282556" lon="20.71577"></trkpt><trkpt lat="54.282658" lon="20.716144"></trkpt><trkpt lat="54.283185" lon="20.718493"></trkpt><trkpt lat="54.283159" lon="20.718902"></trkpt><trkpt lat="54.283077" lon="20.719241"></trkpt><trkpt lat="54.282968" lon="20.719588"></trkpt><trkpt lat="54.279842" lon="20.728038"></trkpt><trkpt lat="54.279642" lon="20.727873"></trkpt><trkpt lat="54.278951" lon="20.727418"></trkpt><trkpt lat="54.278869" lon="20.727779"></trkpt><trkpt lat="54.278813" lon="20.728144"></trkpt><trkpt lat="54.278721" lon="20.72845"></trkpt><trkpt lat="54.278649" lon="20.728779"></trkpt><trkpt lat="54.278472" lon="20.729865"></trkpt><trkpt lat="54.278459" lon="20.730268"></trkpt><trkpt lat="54.278412" lon="20.730657"></trkpt><trkpt lat="54.278322" lon="20.731027"></trkpt><trkpt lat="54.277289" lon="20.734541"></trkpt><trkpt lat="54.27717" lon="20.734818"></trkpt><trkpt lat="54.277021" lon="20.735097"></trkpt><trkpt lat="54.276775" lon="20.73564"></trkpt><trkpt lat="54.276699" lon="20.735997"></trkpt><trkpt lat="54.276596" lon="20.73665"></trkpt><trkpt lat="54.271755" lon="20.760452"></trkpt><trkpt lat="54.271538" lon="20.760332"></trkpt><trkpt lat="54.271335" lon="20.760275"></trkpt><trkpt lat="54.268966" lon="20.759973"></trkpt><trkpt lat="54.268912" lon="20.76033"></trkpt><trkpt lat="54.268425" lon="20.762709"></trkpt><trkpt lat="54.26821" lon="20.762619"></trkpt><trkpt lat="54.26801" lon="20.762591"></trkpt><trkpt lat="54.267937" lon="20.762911"></trkpt><trkpt lat="54.267891" lon="20.763311"></trkpt><trkpt lat="54.267809" lon="20.763682"></trkpt><trkpt lat="54.267685" lon="20.764442"></trkpt><trkpt lat="54.267685" lon="20.764862"></trkpt><trkpt lat="54.267705" lon="20.765231"></trkpt><trkpt lat="54.267749" lon="20.765681"></trkpt><trkpt lat="54.2678" lon="20.76601"></trkpt><trkpt lat="54.267876" lon="20.766387"></trkpt><trkpt lat="54.267966" lon="20.766701"></trkpt><trkpt lat="54.270214" lon="20.776218"></trkpt><trkpt lat="54.270088" lon="20.77654"></trkpt><trkpt lat="54.26892" lon="20.779104"></trkpt><trkpt lat="54.268584" lon="20.779743"></trkpt><trkpt lat="54.268426" lon="20.78009"></trkpt><trkpt lat="54.265786" lon="20.786862"></trkpt><trkpt lat="54.265791" lon="20.787217"></trkpt><trkpt lat="54.265643" lon="20.792531"></trkpt><trkpt lat="54.265448" lon="20.792604"></trkpt><trkpt lat="54.265202" lon="20.792732"></trkpt><trkpt lat="54.264998" lon="20.792887"></trkpt><trkpt lat="54.264777" lon="20.793003"></trkpt><trkpt lat="54.263969" lon="20.793575"></trkpt><trkpt lat="54.263892" lon="20.793949"></trkpt><trkpt lat="54.26371" lon="20.794166"></trkpt><trkpt lat="54.263493" lon="20.79425"></trkpt><trkpt lat="54.259312" lon="20.795321"></trkpt><trkpt lat="54.259095" lon="20.795311"></trkpt><trkpt lat="54.258998" lon="20.795613"></trkpt><trkpt lat="54.257811" lon="20.798742"></trkpt><trkpt lat="54.257607" lon="20.798789"></trkpt><trkpt lat="54.257534" lon="20.79911"></trkpt><trkpt lat="54.256986" lon="20.801063"></trkpt><trkpt lat="54.256763" lon="20.801058"></trkpt><trkpt lat="54.256547" lon="20.801103"></trkpt><trkpt lat="54.255235" lon="20.801542"></trkpt><trkpt lat="54.255345" lon="20.801881"></trkpt><trkpt lat="54.255302" lon="20.802219"></trkpt><trkpt lat="54.255346" lon="20.802574"></trkpt><trkpt lat="54.255448" lon="20.802936"></trkpt><trkpt lat="54.255569" lon="20.803217"></trkpt><trkpt lat="54.255634" lon="20.803549"></trkpt><trkpt lat="54.255487" lon="20.803844"></trkpt><trkpt lat="54.255335" lon="20.804099"></trkpt><trkpt lat="54.255137" lon="20.80429"></trkpt><trkpt lat="54.254943" lon="20.804444"></trkpt><trkpt lat="54.254755" lon="20.804632"></trkpt><trkpt lat="54.253994" lon="20.805274"></trkpt><trkpt lat="54.253828" lon="20.8055"></trkpt><trkpt lat="54.253607" lon="20.805608"></trkpt><trkpt lat="54.253115" lon="20.805944"></trkpt><trkpt lat="54.25317" lon="20.806317"></trkpt><trkpt lat="54.253251" lon="20.806681"></trkpt><trkpt lat="54.253542" lon="20.807742"></trkpt><trkpt lat="54.253547" lon="20.808106"></trkpt><trkpt lat="54.253424" lon="20.808373"></trkpt><trkpt lat="54.253261" lon="20.808818"></trkpt><trkpt lat="54.252871" lon="20.80973"></trkpt><trkpt lat="54.252665" lon="20.80988"></trkpt><trkpt lat="54.252467" lon="20.809973"></trkpt><trkpt lat="54.252268" lon="20.810129"></trkpt><trkpt lat="54.252109" lon="20.810361"></trkpt><trkpt lat="54.251944" lon="20.810565"></trkpt><trkpt lat="54.251796" lon="20.810823"></trkpt><trkpt lat="54.251499" lon="20.811409"></trkpt></trkseg></trk></gpx>