<?xml version="1.0" encoding="UTF-8" standalone="no" ?><gpx xmlns="http://www.topografix.com/GPX/1/1" xmlns:gpxx="http://www.garmin.com/xmlschemas/GpxExtensions/v3" ><trk><trkseg><trkpt lat="52.611694" lon="17.904587"></trkpt><trkpt lat="52.611524" lon="17.904411"></trkpt><trkpt lat="52.61125" lon="17.904181"></trkpt><trkpt lat="52.611031" lon="17.904131"></trkpt><trkpt lat="52.61106" lon="17.903764"></trkpt><trkpt lat="52.611169" lon="17.903417"></trkpt><trkpt lat="52.612052" lon="17.901136"></trkpt><trkpt lat="52.61225" lon="17.900985"></trkpt><trkpt lat="52.614944" lon="17.898526"></trkpt><trkpt lat="52.615145" lon="17.898276"></trkpt><trkpt lat="52.618435" lon="17.893552"></trkpt><trkpt lat="52.61858" lon="17.893295"></trkpt><trkpt lat="52.619065" lon="17.892574"></trkpt><trkpt lat="52.619243" lon="17.892395"></trkpt><trkpt lat="52.619422" lon="17.892249"></trkpt><trkpt lat="52.619687" lon="17.892087"></trkpt><trkpt lat="52.619932" lon="17.891972"></trkpt><trkpt lat="52.620544" lon="17.891763"></trkpt><trkpt lat="52.621651" lon="17.891522"></trkpt><trkpt lat="52.626863" lon="17.891031"></trkpt><trkpt lat="52.62705" lon="17.891213"></trkpt><trkpt lat="52.628773" lon="17.89317"></trkpt><trkpt lat="52.628966" lon="17.893441"></trkpt><trkpt lat="52.63467" lon="17.902658"></trkpt><trkpt lat="52.634807" lon="17.902977"></trkpt><trkpt lat="52.634922" lon="17.903318"></trkpt><trkpt lat="52.639416" lon="17.914621"></trkpt><trkpt lat="52.639713" lon="17.914562"></trkpt><trkpt lat="52.645587" lon="17.912697"></trkpt><trkpt lat="52.645615" lon="17.912344"></trkpt><trkpt lat="52.645769" lon="17.90807"></trkpt><trkpt lat="52.645758" lon="17.906443"></trkpt><trkpt lat="52.645853" lon="17.904039"></trkpt><trkpt lat="52.645916" lon="17.903634"></trkpt><trkpt lat="52.646009" lon="17.903179"></trkpt><trkpt lat="52.646024" lon="17.90284"></trkpt><trkpt lat="52.645852" lon="17.902567"></trkpt><trkpt lat="52.645649" lon="17.902522"></trkpt><trkpt lat="52.645422" lon="17.902504"></trkpt><trkpt lat="52.640031" lon="17.901391"></trkpt><trkpt lat="52.640017" lon="17.901024"></trkpt><trkpt lat="52.639953" lon="17.900669"></trkpt><trkpt lat="52.639928" lon="17.90031"></trkpt><trkpt lat="52.638224" lon="17.885289"></trkpt><trkpt lat="52.638144" lon="17.884985"></trkpt><trkpt lat="52.637418" lon="17.881514"></trkpt><trkpt lat="52.637451" lon="17.881169"></trkpt><trkpt lat="52.637455" lon="17.880832"></trkpt><trkpt lat="52.637433" lon="17.88049"></trkpt><trkpt lat="52.63739" lon="17.880109"></trkpt><trkpt lat="52.63728" lon="17.878453"></trkpt><trkpt lat="52.637297" lon="17.878073"></trkpt><trkpt lat="52.637333" lon="17.877695"></trkpt><trkpt lat="52.6381" lon="17.872266"></trkpt><trkpt lat="52.638316" lon="17.872384"></trkpt><trkpt lat="52.645466" lon="17.875368"></trkpt><trkpt lat="52.645742" lon="17.875399"></trkpt><trkpt lat="52.656933" lon="17.872798"></trkpt><trkpt lat="52.656998" lon="17.87238"></trkpt><trkpt lat="52.657398" lon="17.870407"></trkpt><trkpt lat="52.661653" lon="17.846276"></trkpt><trkpt lat="52.661596" lon="17.845813"></trkpt><trkpt lat="52.661214" lon="17.843607"></trkpt><trkpt lat="52.661118" lon="17.843303"></trkpt><trkpt lat="52.660893" lon="17.842699"></trkpt><trkpt lat="52.660353" lon="17.840969"></trkpt><trkpt lat="52.660258" lon="17.840566"></trkpt><trkpt lat="52.660036" lon="17.839817"></trkpt><trkpt lat="52.659883" lon="17.839492"></trkpt><trkpt lat="52.659582" lon="17.838939"></trkpt><trkpt lat="52.658885" lon="17.837837"></trkpt><trkpt lat="52.658656" lon="17.837618"></trkpt><trkpt lat="52.658057" lon="17.836925"></trkpt><trkpt lat="52.657916" lon="17.8365"></trkpt><trkpt lat="52.657829" lon="17.836029"></trkpt><trkpt lat="52.657713" lon="17.83556"></trkpt><trkpt lat="52.65762" lon="17.835249"></trkpt><trkpt lat="52.657218" lon="17.833446"></trkpt><trkpt lat="52.657256" lon="17.833081"></trkpt><trkpt lat="52.657323" lon="17.83169"></trkpt><trkpt lat="52.657305" lon="17.831269"></trkpt><trkpt lat="52.65714" lon="17.829465"></trkpt><trkpt lat="52.657028" lon="17.829173"></trkpt><trkpt lat="52.656894" lon="17.828903"></trkpt><trkpt lat="52.656748" lon="17.828648"></trkpt><trkpt lat="52.656579" lon="17.828449"></trkpt><trkpt lat="52.654021" lon="17.824968"></trkpt><trkpt lat="52.653856" lon="17.824614"></trkpt><trkpt lat="52.653501" lon="17.82362"></trkpt><trkpt lat="52.653617" lon="17.823261"></trkpt><trkpt lat="52.654157" lon="17.821225"></trkpt><trkpt lat="52.65424" lon="17.820804"></trkpt><trkpt lat="52.654744" lon="17.817393"></trkpt><trkpt lat="52.654757" lon="17.81706"></trkpt><trkpt lat="52.655266" lon="17.811028"></trkpt><trkpt lat="52.655462" lon="17.810773"></trkpt><trkpt lat="52.657403" lon="17.808629"></trkpt><trkpt lat="52.65762" lon="17.808551"></trkpt><trkpt lat="52.65813" lon="17.808305"></trkpt><trkpt lat="52.658309" lon="17.808159"></trkpt><trkpt lat="52.658488" lon="17.807912"></trkpt><trkpt lat="52.65867" lon="17.807736"></trkpt><trkpt lat="52.658885" lon="17.807728"></trkpt><trkpt lat="52.659063" lon="17.807924"></trkpt><trkpt lat="52.658918" lon="17.807696"></trkpt><trkpt lat="52.658684" lon="17.807663"></trkpt><trkpt lat="52.658645" lon="17.807304"></trkpt><trkpt lat="52.658636" lon="17.806924"></trkpt><trkpt lat="52.658574" lon="17.806517"></trkpt><trkpt lat="52.658503" lon="17.806191"></trkpt><trkpt lat="52.658429" lon="17.805739"></trkpt><trkpt lat="52.658405" lon="17.805389"></trkpt><trkpt lat="52.658397" lon="17.805054"></trkpt><trkpt lat="52.658458" lon="17.802881"></trkpt><trkpt lat="52.658626" lon="17.802588"></trkpt><trkpt lat="52.65875" lon="17.802315"></trkpt><trkpt lat="52.65891" lon="17.802047"></trkpt><trkpt lat="52.660356" lon="17.799943"></trkpt><trkpt lat="52.660885" lon="17.799281"></trkpt><trkpt lat="52.661516" lon="17.798353"></trkpt><trkpt lat="52.661591" lon="17.797999"></trkpt><trkpt lat="52.665016" lon="17.784866"></trkpt><trkpt lat="52.665192" lon="17.784614"></trkpt><trkpt lat="52.665369" lon="17.784441"></trkpt><trkpt lat="52.666227" lon="17.783428"></trkpt><trkpt lat="52.666278" lon="17.783033"></trkpt><trkpt lat="52.666264" lon="17.782675"></trkpt><trkpt lat="52.666235" lon="17.782324"></trkpt><trkpt lat="52.666196" lon="17.781323"></trkpt><trkpt lat="52.666046" lon="17.781066"></trkpt><trkpt lat="52.665802" lon="17.780984"></trkpt><trkpt lat="52.664823" lon="17.780772"></trkpt><trkpt lat="52.661632" lon="17.779694"></trkpt><trkpt lat="52.661427" lon="17.779407"></trkpt><trkpt lat="52.661241" lon="17.779101"></trkpt><trkpt lat="52.658377" lon="17.775022"></trkpt><trkpt lat="52.65819" lon="17.774809"></trkpt><trkpt lat="52.657131" lon="17.773818"></trkpt><trkpt lat="52.656893" lon="17.773742"></trkpt><trkpt lat="52.648813" lon="17.772169"></trkpt><trkpt lat="52.64857" lon="17.772298"></trkpt><trkpt lat="52.647817" lon="17.77281"></trkpt><trkpt lat="52.647627" lon="17.773022"></trkpt><trkpt lat="52.647372" lon="17.773358"></trkpt><trkpt lat="52.647054" lon="17.773703"></trkpt><trkpt lat="52.646848" lon="17.773803"></trkpt><trkpt lat="52.646595" lon="17.773878"></trkpt><trkpt lat="52.646357" lon="17.773879"></trkpt><trkpt lat="52.646105" lon="17.773812"></trkpt><trkpt lat="52.645919" lon="17.773688"></trkpt><trkpt lat="52.645678" lon="17.773485"></trkpt><trkpt lat="52.645496" lon="17.773296"></trkpt><trkpt lat="52.644938" lon="17.772808"></trkpt><trkpt lat="52.644716" lon="17.772667"></trkpt><trkpt lat="52.641892" lon="17.770395"></trkpt><trkpt lat="52.642004" lon="17.770003"></trkpt><trkpt lat="52.64376" lon="17.762434"></trkpt><trkpt lat="52.64374" lon="17.762012"></trkpt><trkpt lat="52.642971" lon="17.75379"></trkpt><trkpt lat="52.64284" lon="17.753501"></trkpt><trkpt lat="52.637314" lon="17.74296"></trkpt><trkpt lat="52.637115" lon="17.742674"></trkpt><trkpt lat="52.636899" lon="17.742412"></trkpt><trkpt lat="52.636025" lon="17.741132"></trkpt><trkpt lat="52.636004" lon="17.740773"></trkpt><trkpt lat="52.636004" lon="17.740268"></trkpt><trkpt lat="52.635896" lon="17.737892"></trkpt><trkpt lat="52.635847" lon="17.737529"></trkpt><trkpt lat="52.63502" lon="17.733086"></trkpt><trkpt lat="52.634781" lon="17.733216"></trkpt><trkpt lat="52.620138" lon="17.740134"></trkpt><trkpt lat="52.619892" lon="17.740204"></trkpt><trkpt lat="52.616277" lon="17.741701"></trkpt><trkpt lat="52.616151" lon="17.742041"></trkpt><trkpt lat="52.609265" lon="17.757988"></trkpt><trkpt lat="52.609023" lon="17.758112"></trkpt><trkpt lat="52.608636" lon="17.75839"></trkpt><trkpt lat="52.608486" lon="17.758707"></trkpt><trkpt lat="52.608402" lon="17.759085"></trkpt><trkpt lat="52.607958" lon="17.76063"></trkpt><trkpt lat="52.607747" lon="17.760543"></trkpt><trkpt lat="52.607568" lon="17.760379"></trkpt><trkpt lat="52.607351" lon="17.760212"></trkpt><trkpt lat="52.606801" lon="17.759707"></trkpt><trkpt lat="52.605928" lon="17.759053"></trkpt><trkpt lat="52.605728" lon="17.759023"></trkpt><trkpt lat="52.605517" lon="17.759019"></trkpt><trkpt lat="52.594582" lon="17.757528"></trkpt><trkpt lat="52.594368" lon="17.757405"></trkpt><trkpt lat="52.593591" lon="17.756853"></trkpt><trkpt lat="52.588189" lon="17.75374"></trkpt><trkpt lat="52.587957" lon="17.753697"></trkpt><trkpt lat="52.580984" lon="17.75158"></trkpt><trkpt lat="52.580744" lon="17.751437"></trkpt><trkpt lat="52.579556" lon="17.750551"></trkpt><trkpt lat="52.579353" lon="17.750296"></trkpt><trkpt lat="52.578769" lon="17.749708"></trkpt><trkpt lat="52.578522" lon="17.749623"></trkpt><trkpt lat="52.578016" lon="17.749514"></trkpt><trkpt lat="52.577759" lon="17.749524"></trkpt><trkpt lat="52.577231" lon="17.749417"></trkpt><trkpt lat="52.576979" lon="17.749273"></trkpt><trkpt lat="52.576032" lon="17.74887"></trkpt><trkpt lat="52.575628" lon="17.749114"></trkpt><trkpt lat="52.575427" lon="17.749382"></trkpt><trkpt lat="52.575228" lon="17.749693"></trkpt><trkpt lat="52.570955" lon="17.757413"></trkpt><trkpt lat="52.570849" lon="17.757787"></trkpt><trkpt lat="52.568356" lon="17.765179"></trkpt><trkpt lat="52.568225" lon="17.765443"></trkpt><trkpt lat="52.566954" lon="17.768415"></trkpt><trkpt lat="52.566941" lon="17.76875"></trkpt><trkpt lat="52.566573" lon="17.772846"></trkpt><trkpt lat="52.566426" lon="17.773206"></trkpt><trkpt lat="52.564352" lon="17.779184"></trkpt><trkpt lat="52.56427" lon="17.779595"></trkpt><trkpt lat="52.563554" lon="17.784332"></trkpt><trkpt lat="52.563545" lon="17.784706"></trkpt><trkpt lat="52.563473" lon="17.785777"></trkpt><trkpt lat="52.563294" lon="17.786014"></trkpt><trkpt lat="52.563113" lon="17.786202"></trkpt><trkpt lat="52.562985" lon="17.786505"></trkpt><trkpt lat="52.562819" lon="17.786787"></trkpt><trkpt lat="52.561238" lon="17.789956"></trkpt><trkpt lat="52.561103" lon="17.790275"></trkpt><trkpt lat="52.561073" lon="17.790602"></trkpt><trkpt lat="52.561117" lon="17.790922"></trkpt><trkpt lat="52.561161" lon="17.791418"></trkpt><trkpt lat="52.563912" lon="17.816144"></trkpt><trkpt lat="52.564" lon="17.816482"></trkpt><trkpt lat="52.564242" lon="17.817222"></trkpt><trkpt lat="52.564389" lon="17.817501"></trkpt><trkpt lat="52.56632" lon="17.821776"></trkpt><trkpt lat="52.566092" lon="17.821968"></trkpt><trkpt lat="52.565922" lon="17.822138"></trkpt><trkpt lat="52.565684" lon="17.822204"></trkpt><trkpt lat="52.565493" lon="17.822113"></trkpt><trkpt lat="52.565246" lon="17.822033"></trkpt><trkpt lat="52.56415" lon="17.822535"></trkpt><trkpt lat="52.563975" lon="17.822804"></trkpt><trkpt lat="52.563654" lon="17.823203"></trkpt><trkpt lat="52.563466" lon="17.823331"></trkpt><trkpt lat="52.563138" lon="17.823608"></trkpt><trkpt lat="52.563007" lon="17.823891"></trkpt><trkpt lat="52.562889" lon="17.824192"></trkpt><trkpt lat="52.562679" lon="17.824194"></trkpt><trkpt lat="52.562485" lon="17.824002"></trkpt><trkpt lat="52.562225" lon="17.823702"></trkpt><trkpt lat="52.562047" lon="17.823441"></trkpt><trkpt lat="52.561915" lon="17.82314"></trkpt><trkpt lat="52.561725" lon="17.822769"></trkpt><trkpt lat="52.561785" lon="17.822429"></trkpt><trkpt lat="52.561726" lon="17.822096"></trkpt><trkpt lat="52.561576" lon="17.821878"></trkpt><trkpt lat="52.561414" lon="17.821675"></trkpt><trkpt lat="52.56126" lon="17.821445"></trkpt><trkpt lat="52.561057" lon="17.821183"></trkpt><trkpt lat="52.56086" lon="17.82136"></trkpt><trkpt lat="52.560861" lon="17.821686"></trkpt><trkpt lat="52.561052" lon="17.821864"></trkpt><trkpt lat="52.560989" lon="17.822234"></trkpt><trkpt lat="52.560862" lon="17.822565"></trkpt><trkpt lat="52.560576" lon="17.823154"></trkpt><trkpt lat="52.560398" lon="17.822991"></trkpt><trkpt lat="52.56023" lon="17.822782"></trkpt><trkpt lat="52.559964" lon="17.822531"></trkpt><trkpt lat="52.55985" lon="17.822822"></trkpt><trkpt lat="52.559752" lon="17.82314"></trkpt><trkpt lat="52.559426" lon="17.824005"></trkpt><trkpt lat="52.559251" lon="17.823848"></trkpt><trkpt lat="52.559058" lon="17.823634"></trkpt><trkpt lat="52.558276" lon="17.822928"></trkpt><trkpt lat="52.558163" lon="17.823245"></trkpt><trkpt lat="52.557507" lon="17.825423"></trkpt><trkpt lat="52.556838" lon="17.82718"></trkpt><trkpt lat="52.556607" lon="17.827086"></trkpt><trkpt lat="52.556459" lon="17.826847"></trkpt><trkpt lat="52.556316" lon="17.826522"></trkpt><trkpt lat="52.555125" lon="17.823368"></trkpt><trkpt lat="52.555284" lon="17.823031"></trkpt><trkpt lat="52.555388" lon="17.822708"></trkpt><trkpt lat="52.556233" lon="17.820597"></trkpt><trkpt lat="52.556428" lon="17.820804"></trkpt><trkpt lat="52.556629" lon="17.820737"></trkpt><trkpt lat="52.556765" lon="17.820383"></trkpt><trkpt lat="52.55691" lon="17.819892"></trkpt><trkpt lat="52.556866" lon="17.819558"></trkpt><trkpt lat="52.556805" lon="17.819232"></trkpt><trkpt lat="52.556872" lon="17.818835"></trkpt><trkpt lat="52.557007" lon="17.81827"></trkpt><trkpt lat="52.557235" lon="17.818322"></trkpt><trkpt lat="52.557453" lon="17.81847"></trkpt><trkpt lat="52.558865" lon="17.819224"></trkpt><trkpt lat="52.559107" lon="17.819271"></trkpt><trkpt lat="52.559516" lon="17.819428"></trkpt><trkpt lat="52.559681" lon="17.819734"></trkpt><trkpt lat="52.559921" lon="17.820251"></trkpt><trkpt lat="52.559998" lon="17.820561"></trkpt><trkpt lat="52.560145" lon="17.820901"></trkpt><trkpt lat="52.560338" lon="17.821086"></trkpt><trkpt lat="52.561316" lon="17.822196"></trkpt><trkpt lat="52.561509" lon="17.822462"></trkpt><trkpt lat="52.561826" lon="17.822968"></trkpt><trkpt lat="52.561956" lon="17.823313"></trkpt><trkpt lat="52.562126" lon="17.823627"></trkpt><trkpt lat="52.562325" lon="17.823892"></trkpt><trkpt lat="52.562534" lon="17.824123"></trkpt><trkpt lat="52.56276" lon="17.824314"></trkpt><trkpt lat="52.563733" lon="17.824974"></trkpt><trkpt lat="52.563954" lon="17.825027"></trkpt><trkpt lat="52.566176" lon="17.825219"></trkpt><trkpt lat="52.566372" lon="17.824956"></trkpt><trkpt lat="52.569031" lon="17.821876"></trkpt><trkpt lat="52.569242" lon="17.821721"></trkpt><trkpt lat="52.570535" lon="17.820571"></trkpt><trkpt lat="52.570374" lon="17.8198"></trkpt></trkseg></trk></gpx>