<?xml version="1.0" encoding="UTF-8" standalone="no" ?><gpx xmlns="http://www.topografix.com/GPX/1/1" xmlns:gpxx="http://www.garmin.com/xmlschemas/GpxExtensions/v3" ><trk><trkseg><trkpt lat="50.850923" lon="16.00836"></trkpt><trkpt lat="50.851104" lon="16.007993"></trkpt><trkpt lat="50.851519" lon="16.007941"></trkpt><trkpt lat="50.851804" lon="16.008044"></trkpt><trkpt lat="50.851914" lon="16.008444"></trkpt><trkpt lat="50.851988" lon="16.008972"></trkpt><trkpt lat="50.852205" lon="16.009249"></trkpt><trkpt lat="50.85244" lon="16.00901"></trkpt><trkpt lat="50.85261" lon="16.008391"></trkpt><trkpt lat="50.853485" lon="16.005844"></trkpt><trkpt lat="50.853469" lon="16.005374"></trkpt><trkpt lat="50.853637" lon="16.004755"></trkpt><trkpt lat="50.853878" lon="16.004063"></trkpt><trkpt lat="50.854113" lon="16.003157"></trkpt><trkpt lat="50.853899" lon="16.002893"></trkpt><trkpt lat="50.853291" lon="16.001934"></trkpt><trkpt lat="50.853275" lon="16.001474"></trkpt><trkpt lat="50.852677" lon="15.995188"></trkpt><trkpt lat="50.85242" lon="15.995013"></trkpt><trkpt lat="50.852148" lon="15.994871"></trkpt><trkpt lat="50.85123" lon="15.994598"></trkpt><trkpt lat="50.850376" lon="15.994728"></trkpt><trkpt lat="50.848966" lon="15.994284"></trkpt><trkpt lat="50.848755" lon="15.993957"></trkpt><trkpt lat="50.847012" lon="15.9907"></trkpt><trkpt lat="50.846884" lon="15.990314"></trkpt><trkpt lat="50.846698" lon="15.989592"></trkpt><trkpt lat="50.846538" lon="15.989141"></trkpt><trkpt lat="50.845042" lon="15.98376"></trkpt><trkpt lat="50.844785" lon="15.983422"></trkpt><trkpt lat="50.843309" lon="15.98182"></trkpt><trkpt lat="50.843025" lon="15.981747"></trkpt><trkpt lat="50.842647" lon="15.981704"></trkpt><trkpt lat="50.842326" lon="15.981602"></trkpt><trkpt lat="50.840832" lon="15.980908"></trkpt><trkpt lat="50.840548" lon="15.980626"></trkpt><trkpt lat="50.840339" lon="15.980334"></trkpt><trkpt lat="50.837413" lon="15.975415"></trkpt><trkpt lat="50.837339" lon="15.974994"></trkpt><trkpt lat="50.837045" lon="15.971885"></trkpt><trkpt lat="50.837122" lon="15.97141"></trkpt><trkpt lat="50.837114" lon="15.970982"></trkpt><trkpt lat="50.837075" lon="15.970521"></trkpt><trkpt lat="50.837075" lon="15.970053"></trkpt><trkpt lat="50.837033" lon="15.969578"></trkpt><trkpt lat="50.836932" lon="15.96901"></trkpt><trkpt lat="50.836764" lon="15.968409"></trkpt><trkpt lat="50.836599" lon="15.968038"></trkpt><trkpt lat="50.83642" lon="15.967714"></trkpt><trkpt lat="50.836246" lon="15.967333"></trkpt><trkpt lat="50.835971" lon="15.966869"></trkpt><trkpt lat="50.835788" lon="15.966485"></trkpt><trkpt lat="50.835585" lon="15.966141"></trkpt><trkpt lat="50.835042" lon="15.965014"></trkpt><trkpt lat="50.834798" lon="15.964651"></trkpt><trkpt lat="50.834626" lon="15.964306"></trkpt><trkpt lat="50.834443" lon="15.963864"></trkpt><trkpt lat="50.834365" lon="15.963405"></trkpt><trkpt lat="50.834318" lon="15.962917"></trkpt><trkpt lat="50.833047" lon="15.954753"></trkpt><trkpt lat="50.832778" lon="15.954483"></trkpt><trkpt lat="50.832601" lon="15.95404"></trkpt><trkpt lat="50.832726" lon="15.953603"></trkpt><trkpt lat="50.832949" lon="15.953328"></trkpt><trkpt lat="50.833099" lon="15.952962"></trkpt><trkpt lat="50.833242" lon="15.952482"></trkpt><trkpt lat="50.833387" lon="15.95212"></trkpt><trkpt lat="50.833676" lon="15.95157"></trkpt><trkpt lat="50.833936" lon="15.951349"></trkpt><trkpt lat="50.834038" lon="15.950725"></trkpt><trkpt lat="50.834029" lon="15.950279"></trkpt><trkpt lat="50.833929" lon="15.949828"></trkpt><trkpt lat="50.833735" lon="15.949444"></trkpt><trkpt lat="50.833454" lon="15.94964"></trkpt><trkpt lat="50.833202" lon="15.949873"></trkpt><trkpt lat="50.832942" lon="15.949996"></trkpt><trkpt lat="50.832667" lon="15.950032"></trkpt><trkpt lat="50.832384" lon="15.949951"></trkpt><trkpt lat="50.831689" lon="15.949863"></trkpt><trkpt lat="50.830421" lon="15.949459"></trkpt><trkpt lat="50.830202" lon="15.949197"></trkpt><trkpt lat="50.829985" lon="15.948884"></trkpt><trkpt lat="50.829801" lon="15.948564"></trkpt><trkpt lat="50.829563" lon="15.948321"></trkpt><trkpt lat="50.829113" lon="15.947955"></trkpt><trkpt lat="50.828824" lon="15.947795"></trkpt><trkpt lat="50.827076" lon="15.94711"></trkpt><trkpt lat="50.826756" lon="15.947084"></trkpt><trkpt lat="50.826421" lon="15.947007"></trkpt><trkpt lat="50.826129" lon="15.94688"></trkpt><trkpt lat="50.825812" lon="15.946803"></trkpt><trkpt lat="50.824649" lon="15.946872"></trkpt><trkpt lat="50.824397" lon="15.94665"></trkpt><trkpt lat="50.824171" lon="15.946394"></trkpt><trkpt lat="50.823867" lon="15.945966"></trkpt><trkpt lat="50.823572" lon="15.94584"></trkpt><trkpt lat="50.823289" lon="15.945649"></trkpt><trkpt lat="50.821403" lon="15.944053"></trkpt><trkpt lat="50.819318" lon="15.942707"></trkpt><trkpt lat="50.819097" lon="15.943055"></trkpt><trkpt lat="50.819183" lon="15.942613"></trkpt><trkpt lat="50.819032" lon="15.943112"></trkpt><trkpt lat="50.818719" lon="15.943281"></trkpt><trkpt lat="50.818434" lon="15.94326"></trkpt><trkpt lat="50.817994" lon="15.943146"></trkpt><trkpt lat="50.817061" lon="15.943089"></trkpt><trkpt lat="50.816759" lon="15.943021"></trkpt><trkpt lat="50.816446" lon="15.942891"></trkpt><trkpt lat="50.816052" lon="15.942645"></trkpt><trkpt lat="50.81574" lon="15.942656"></trkpt><trkpt lat="50.815471" lon="15.942718"></trkpt><trkpt lat="50.814081" lon="15.943276"></trkpt><trkpt lat="50.813811" lon="15.94356"></trkpt><trkpt lat="50.813545" lon="15.943662"></trkpt><trkpt lat="50.813177" lon="15.943399"></trkpt><trkpt lat="50.812812" lon="15.943291"></trkpt><trkpt lat="50.812509" lon="15.943319"></trkpt><trkpt lat="50.811976" lon="15.943165"></trkpt><trkpt lat="50.811727" lon="15.942894"></trkpt><trkpt lat="50.811035" lon="15.942293"></trkpt><trkpt lat="50.810697" lon="15.942253"></trkpt><trkpt lat="50.810427" lon="15.942336"></trkpt><trkpt lat="50.810099" lon="15.942368"></trkpt><trkpt lat="50.809724" lon="15.942463"></trkpt><trkpt lat="50.806293" lon="15.94212"></trkpt><trkpt lat="50.806011" lon="15.942331"></trkpt><trkpt lat="50.805682" lon="15.942518"></trkpt><trkpt lat="50.805389" lon="15.942591"></trkpt><trkpt lat="50.80502" lon="15.942746"></trkpt><trkpt lat="50.804713" lon="15.942816"></trkpt><trkpt lat="50.804415" lon="15.94293"></trkpt><trkpt lat="50.803361" lon="15.943596"></trkpt><trkpt lat="50.803295" lon="15.944047"></trkpt><trkpt lat="50.803157" lon="15.944588"></trkpt><trkpt lat="50.803011" lon="15.944979"></trkpt><trkpt lat="50.802806" lon="15.945328"></trkpt><trkpt lat="50.802524" lon="15.945592"></trkpt><trkpt lat="50.802209" lon="15.945827"></trkpt><trkpt lat="50.801097" lon="15.946855"></trkpt><trkpt lat="50.800706" lon="15.947295"></trkpt><trkpt lat="50.8003" lon="15.947671"></trkpt><trkpt lat="50.799923" lon="15.947736"></trkpt><trkpt lat="50.799255" lon="15.947754"></trkpt><trkpt lat="50.798448" lon="15.947607"></trkpt><trkpt lat="50.798204" lon="15.947412"></trkpt><trkpt lat="50.797444" lon="15.946955"></trkpt><trkpt lat="50.797187" lon="15.946754"></trkpt><trkpt lat="50.796893" lon="15.946811"></trkpt><trkpt lat="50.793253" lon="15.946617"></trkpt><trkpt lat="50.792975" lon="15.946734"></trkpt><trkpt lat="50.792697" lon="15.94696"></trkpt><trkpt lat="50.792506" lon="15.947299"></trkpt><trkpt lat="50.792355" lon="15.947658"></trkpt><trkpt lat="50.792088" lon="15.948437"></trkpt><trkpt lat="50.791887" lon="15.948878"></trkpt><trkpt lat="50.791729" lon="15.949317"></trkpt><trkpt lat="50.791197" lon="15.950428"></trkpt><trkpt lat="50.791325" lon="15.95081"></trkpt><trkpt lat="50.791178" lon="15.951233"></trkpt><trkpt lat="50.790952" lon="15.951555"></trkpt><trkpt lat="50.790655" lon="15.951781"></trkpt><trkpt lat="50.789383" lon="15.952989"></trkpt><trkpt lat="50.789138" lon="15.953404"></trkpt><trkpt lat="50.788855" lon="15.95375"></trkpt><trkpt lat="50.788432" lon="15.954129"></trkpt><trkpt lat="50.787668" lon="15.954966"></trkpt><trkpt lat="50.787488" lon="15.955323"></trkpt><trkpt lat="50.787048" lon="15.956479"></trkpt><trkpt lat="50.786775" lon="15.957007"></trkpt><trkpt lat="50.78654" lon="15.957223"></trkpt><trkpt lat="50.786051" lon="15.95756"></trkpt><trkpt lat="50.785618" lon="15.957767"></trkpt><trkpt lat="50.785323" lon="15.95802"></trkpt><trkpt lat="50.78523" lon="15.958448"></trkpt><trkpt lat="50.784976" lon="15.958619"></trkpt><trkpt lat="50.784724" lon="15.958964"></trkpt></trkseg></trk></gpx>