<?xml version="1.0" encoding="UTF-8" standalone="no" ?><gpx xmlns="http://www.topografix.com/GPX/1/1" xmlns:gpxx="http://www.garmin.com/xmlschemas/GpxExtensions/v3" ><trk><trkseg><trkpt lat="50.819484" lon="15.942475"></trkpt><trkpt lat="50.819539" lon="15.941863"></trkpt><trkpt lat="50.819823" lon="15.941699"></trkpt><trkpt lat="50.820076" lon="15.941493"></trkpt><trkpt lat="50.821983" lon="15.940341"></trkpt><trkpt lat="50.822259" lon="15.940371"></trkpt><trkpt lat="50.822868" lon="15.940197"></trkpt><trkpt lat="50.822998" lon="15.939819"></trkpt><trkpt lat="50.823106" lon="15.939333"></trkpt><trkpt lat="50.823251" lon="15.938938"></trkpt><trkpt lat="50.823431" lon="15.93858"></trkpt><trkpt lat="50.82365" lon="15.93822"></trkpt><trkpt lat="50.823903" lon="15.937913"></trkpt><trkpt lat="50.824231" lon="15.937765"></trkpt><trkpt lat="50.824501" lon="15.937839"></trkpt><trkpt lat="50.824789" lon="15.937973"></trkpt><trkpt lat="50.825036" lon="15.938188"></trkpt><trkpt lat="50.825282" lon="15.938497"></trkpt><trkpt lat="50.825542" lon="15.93866"></trkpt><trkpt lat="50.82582" lon="15.938593"></trkpt><trkpt lat="50.825964" lon="15.938205"></trkpt><trkpt lat="50.82613" lon="15.937851"></trkpt><trkpt lat="50.826738" lon="15.93677"></trkpt><trkpt lat="50.82701" lon="15.936762"></trkpt><trkpt lat="50.827272" lon="15.936999"></trkpt><trkpt lat="50.827549" lon="15.93704"></trkpt><trkpt lat="50.827776" lon="15.936796"></trkpt><trkpt lat="50.827595" lon="15.936396"></trkpt><trkpt lat="50.827376" lon="15.936072"></trkpt><trkpt lat="50.82724" lon="15.935687"></trkpt><trkpt lat="50.827131" lon="15.935208"></trkpt><trkpt lat="50.827105" lon="15.93477"></trkpt><trkpt lat="50.826984" lon="15.934321"></trkpt><trkpt lat="50.826962" lon="15.933863"></trkpt><trkpt lat="50.826982" lon="15.933424"></trkpt><trkpt lat="50.827076" lon="15.933012"></trkpt><trkpt lat="50.827298" lon="15.932732"></trkpt><trkpt lat="50.827493" lon="15.932422"></trkpt><trkpt lat="50.827638" lon="15.931961"></trkpt><trkpt lat="50.827708" lon="15.931538"></trkpt><trkpt lat="50.827802" lon="15.931124"></trkpt><trkpt lat="50.827956" lon="15.930631"></trkpt><trkpt lat="50.828126" lon="15.930287"></trkpt><trkpt lat="50.828274" lon="15.92986"></trkpt><trkpt lat="50.82834" lon="15.929437"></trkpt><trkpt lat="50.828447" lon="15.929028"></trkpt><trkpt lat="50.828705" lon="15.928746"></trkpt><trkpt lat="50.828899" lon="15.928416"></trkpt><trkpt lat="50.829111" lon="15.928134"></trkpt><trkpt lat="50.829373" lon="15.927697"></trkpt><trkpt lat="50.82955" lon="15.927338"></trkpt><trkpt lat="50.829809" lon="15.92713"></trkpt><trkpt lat="50.832181" lon="15.925667"></trkpt><trkpt lat="50.833118" lon="15.926408"></trkpt><trkpt lat="50.833396" lon="15.926812"></trkpt><trkpt lat="50.833791" lon="15.927264"></trkpt><trkpt lat="50.834508" lon="15.926218"></trkpt><trkpt lat="50.834602" lon="15.92575"></trkpt><trkpt lat="50.834637" lon="15.925293"></trkpt><trkpt lat="50.834724" lon="15.924851"></trkpt><trkpt lat="50.83486" lon="15.924445"></trkpt><trkpt lat="50.834791" lon="15.923963"></trkpt><trkpt lat="50.83472" lon="15.923111"></trkpt><trkpt lat="50.83462" lon="15.92262"></trkpt><trkpt lat="50.834484" lon="15.922237"></trkpt><trkpt lat="50.834263" lon="15.921824"></trkpt><trkpt lat="50.83373" lon="15.920608"></trkpt><trkpt lat="50.833675" lon="15.920185"></trkpt><trkpt lat="50.833554" lon="15.919796"></trkpt><trkpt lat="50.833555" lon="15.919365"></trkpt><trkpt lat="50.833628" lon="15.918893"></trkpt><trkpt lat="50.833749" lon="15.918486"></trkpt><trkpt lat="50.8339" lon="15.918114"></trkpt><trkpt lat="50.834164" lon="15.917749"></trkpt><trkpt lat="50.834929" lon="15.916483"></trkpt><trkpt lat="50.834942" lon="15.916055"></trkpt><trkpt lat="50.835122" lon="15.914095"></trkpt><trkpt lat="50.835401" lon="15.913821"></trkpt><trkpt lat="50.835593" lon="15.913483"></trkpt><trkpt lat="50.835895" lon="15.91321"></trkpt><trkpt lat="50.836343" lon="15.912895"></trkpt><trkpt lat="50.836609" lon="15.912614"></trkpt><trkpt lat="50.836902" lon="15.912468"></trkpt><trkpt lat="50.837153" lon="15.912262"></trkpt><trkpt lat="50.837432" lon="15.91219"></trkpt><trkpt lat="50.837823" lon="15.911996"></trkpt><trkpt lat="50.838046" lon="15.911712"></trkpt><trkpt lat="50.83991" lon="15.909744"></trkpt><trkpt lat="50.840176" lon="15.909945"></trkpt><trkpt lat="50.84044" lon="15.910055"></trkpt><trkpt lat="50.840741" lon="15.909983"></trkpt><trkpt lat="50.841015" lon="15.909855"></trkpt><trkpt lat="50.841279" lon="15.909675"></trkpt><trkpt lat="50.841547" lon="15.909557"></trkpt><trkpt lat="50.84178" lon="15.909273"></trkpt><trkpt lat="50.842108" lon="15.909214"></trkpt><trkpt lat="50.842847" lon="15.909215"></trkpt><trkpt lat="50.84292" lon="15.908769"></trkpt><trkpt lat="50.842806" lon="15.908375"></trkpt><trkpt lat="50.842644" lon="15.907971"></trkpt><trkpt lat="50.84267" lon="15.907528"></trkpt><trkpt lat="50.842736" lon="15.90704"></trkpt><trkpt lat="50.842728" lon="15.906597"></trkpt><trkpt lat="50.842818" lon="15.906188"></trkpt><trkpt lat="50.843018" lon="15.905775"></trkpt><trkpt lat="50.843259" lon="15.905527"></trkpt><trkpt lat="50.843525" lon="15.905626"></trkpt><trkpt lat="50.843784" lon="15.905771"></trkpt><trkpt lat="50.844061" lon="15.905673"></trkpt><trkpt lat="50.844262" lon="15.905281"></trkpt><trkpt lat="50.844409" lon="15.90484"></trkpt><trkpt lat="50.844697" lon="15.904928"></trkpt><trkpt lat="50.844799" lon="15.9054"></trkpt><trkpt lat="50.844663" lon="15.904984"></trkpt><trkpt lat="50.844384" lon="15.905118"></trkpt><trkpt lat="50.844264" lon="15.905507"></trkpt><trkpt lat="50.844076" lon="15.905858"></trkpt><trkpt lat="50.843795" lon="15.905894"></trkpt><trkpt lat="50.843519" lon="15.90574"></trkpt><trkpt lat="50.84323" lon="15.905711"></trkpt><trkpt lat="50.843027" lon="15.906044"></trkpt><trkpt lat="50.842854" lon="15.906622"></trkpt><trkpt lat="50.842581" lon="15.906793"></trkpt><trkpt lat="50.842281" lon="15.907035"></trkpt><trkpt lat="50.84195" lon="15.907239"></trkpt><trkpt lat="50.841653" lon="15.907001"></trkpt><trkpt lat="50.841664" lon="15.906555"></trkpt><trkpt lat="50.841723" lon="15.906058"></trkpt><trkpt lat="50.841849" lon="15.90565"></trkpt><trkpt lat="50.842058" lon="15.905295"></trkpt><trkpt lat="50.841805" lon="15.905119"></trkpt><trkpt lat="50.841909" lon="15.904665"></trkpt><trkpt lat="50.842031" lon="15.903896"></trkpt><trkpt lat="50.841766" lon="15.90425"></trkpt><trkpt lat="50.841525" lon="15.904475"></trkpt><trkpt lat="50.841269" lon="15.904667"></trkpt><trkpt lat="50.840701" lon="15.904982"></trkpt><trkpt lat="50.840405" lon="15.904922"></trkpt><trkpt lat="50.839751" lon="15.904923"></trkpt><trkpt lat="50.839584" lon="15.904582"></trkpt><trkpt lat="50.839393" lon="15.904266"></trkpt><trkpt lat="50.839186" lon="15.90399"></trkpt><trkpt lat="50.838931" lon="15.903766"></trkpt><trkpt lat="50.838631" lon="15.903681"></trkpt><trkpt lat="50.838324" lon="15.903649"></trkpt><trkpt lat="50.838092" lon="15.903294"></trkpt><trkpt lat="50.83792" lon="15.902941"></trkpt><trkpt lat="50.837893" lon="15.902468"></trkpt><trkpt lat="50.837919" lon="15.90203"></trkpt><trkpt lat="50.838016" lon="15.901273"></trkpt><trkpt lat="50.838202" lon="15.90095"></trkpt><trkpt lat="50.838566" lon="15.900438"></trkpt><trkpt lat="50.838412" lon="15.900041"></trkpt><trkpt lat="50.838204" lon="15.899672"></trkpt><trkpt lat="50.838004" lon="15.899224"></trkpt><trkpt lat="50.837873" lon="15.898824"></trkpt><trkpt lat="50.838035" lon="15.8983"></trkpt><trkpt lat="50.838261" lon="15.89798"></trkpt><trkpt lat="50.838522" lon="15.897755"></trkpt><trkpt lat="50.838675" lon="15.897362"></trkpt><trkpt lat="50.838779" lon="15.896948"></trkpt><trkpt lat="50.839333" lon="15.893982"></trkpt><trkpt lat="50.839278" lon="15.893378"></trkpt><trkpt lat="50.839191" lon="15.892858"></trkpt><trkpt lat="50.83914" lon="15.892381"></trkpt><trkpt lat="50.839132" lon="15.89185"></trkpt><trkpt lat="50.839255" lon="15.891297"></trkpt><trkpt lat="50.839401" lon="15.890908"></trkpt><trkpt lat="50.839588" lon="15.8905"></trkpt><trkpt lat="50.839789" lon="15.889932"></trkpt><trkpt lat="50.839818" lon="15.889413"></trkpt><trkpt lat="50.839963" lon="15.889033"></trkpt><trkpt lat="50.840201" lon="15.888725"></trkpt><trkpt lat="50.840507" lon="15.888411"></trkpt><trkpt lat="50.840601" lon="15.887983"></trkpt><trkpt lat="50.840427" lon="15.887641"></trkpt><trkpt lat="50.84019" lon="15.887331"></trkpt><trkpt lat="50.839157" lon="15.886846"></trkpt></trkseg></trk></gpx>