<?xml version="1.0" encoding="UTF-8" standalone="no" ?><gpx xmlns="http://www.topografix.com/GPX/1/1" xmlns:gpxx="http://www.garmin.com/xmlschemas/GpxExtensions/v3" ><trk><trkseg><trkpt lat="52.528326" lon="17.311664"></trkpt><trkpt lat="52.528442" lon="17.312122"></trkpt><trkpt lat="52.528688" lon="17.312429"></trkpt><trkpt lat="52.52902" lon="17.312625"></trkpt><trkpt lat="52.529327" lon="17.312865"></trkpt><trkpt lat="52.537766" lon="17.318783"></trkpt><trkpt lat="52.540973" lon="17.320395"></trkpt><trkpt lat="52.540828" lon="17.319984"></trkpt><trkpt lat="52.537891" lon="17.313381"></trkpt><trkpt lat="52.537618" lon="17.313499"></trkpt><trkpt lat="52.537335" lon="17.313719"></trkpt><trkpt lat="52.536926" lon="17.313962"></trkpt><trkpt lat="52.533323" lon="17.31543"></trkpt><trkpt lat="52.528146" lon="17.312066"></trkpt></trkseg></trk></gpx>