<?xml version="1.0" encoding="UTF-8" standalone="no" ?><gpx xmlns="http://www.topografix.com/GPX/1/1" xmlns:gpxx="http://www.garmin.com/xmlschemas/GpxExtensions/v3" ><trk><trkseg><trkpt lat="52.453216" lon="17.263843"></trkpt><trkpt lat="52.452938" lon="17.263859"></trkpt><trkpt lat="52.452515" lon="17.263743"></trkpt><trkpt lat="52.452165" lon="17.263487"></trkpt><trkpt lat="52.452027" lon="17.263046"></trkpt><trkpt lat="52.451922" lon="17.26242"></trkpt><trkpt lat="52.451745" lon="17.261678"></trkpt><trkpt lat="52.45169" lon="17.261222"></trkpt><trkpt lat="52.451408" lon="17.260855"></trkpt><trkpt lat="52.451256" lon="17.260456"></trkpt><trkpt lat="52.451335" lon="17.260014"></trkpt><trkpt lat="52.451336" lon="17.259516"></trkpt><trkpt lat="52.4513" lon="17.259035"></trkpt><trkpt lat="52.4516" lon="17.258766"></trkpt><trkpt lat="52.451291" lon="17.258726"></trkpt><trkpt lat="52.451206" lon="17.258223"></trkpt><trkpt lat="52.45118" lon="17.257655"></trkpt><trkpt lat="52.451221" lon="17.257159"></trkpt><trkpt lat="52.45099" lon="17.256871"></trkpt><trkpt lat="52.450704" lon="17.256733"></trkpt><trkpt lat="52.450443" lon="17.256399"></trkpt><trkpt lat="52.450178" lon="17.256208"></trkpt><trkpt lat="52.449909" lon="17.256144"></trkpt><trkpt lat="52.44883" lon="17.256564"></trkpt><trkpt lat="52.448858" lon="17.257106"></trkpt><trkpt lat="52.448795" lon="17.257541"></trkpt><trkpt lat="52.448682" lon="17.257961"></trkpt><trkpt lat="52.448677" lon="17.25841"></trkpt><trkpt lat="52.448645" lon="17.258861"></trkpt><trkpt lat="52.4485" lon="17.25926"></trkpt><trkpt lat="52.448497" lon="17.259742"></trkpt><trkpt lat="52.448413" lon="17.260182"></trkpt><trkpt lat="52.448252" lon="17.260592"></trkpt><trkpt lat="52.448016" lon="17.260317"></trkpt><trkpt lat="52.448085" lon="17.260807"></trkpt><trkpt lat="52.447956" lon="17.261205"></trkpt><trkpt lat="52.447851" lon="17.261696"></trkpt><trkpt lat="52.447693" lon="17.262135"></trkpt><trkpt lat="52.447369" lon="17.262722"></trkpt><trkpt lat="52.447361" lon="17.263202"></trkpt><trkpt lat="52.44729" lon="17.264097"></trkpt><trkpt lat="52.44702" lon="17.264362"></trkpt><trkpt lat="52.446925" lon="17.264924"></trkpt><trkpt lat="52.446897" lon="17.265542"></trkpt><trkpt lat="52.446625" lon="17.265862"></trkpt><trkpt lat="52.446519" lon="17.266352"></trkpt><trkpt lat="52.446468" lon="17.266835"></trkpt><trkpt lat="52.446499" lon="17.267362"></trkpt><trkpt lat="52.446457" lon="17.267804"></trkpt><trkpt lat="52.446313" lon="17.268238"></trkpt><trkpt lat="52.446136" lon="17.268638"></trkpt><trkpt lat="52.445897" lon="17.268914"></trkpt><trkpt lat="52.445962" lon="17.269367"></trkpt><trkpt lat="52.445949" lon="17.269816"></trkpt><trkpt lat="52.446058" lon="17.270246"></trkpt><trkpt lat="52.44627" lon="17.270591"></trkpt><trkpt lat="52.446277" lon="17.271055"></trkpt><trkpt lat="52.446341" lon="17.271758"></trkpt><trkpt lat="52.446335" lon="17.27226"></trkpt><trkpt lat="52.446366" lon="17.272825"></trkpt><trkpt lat="52.446455" lon="17.2733"></trkpt><trkpt lat="52.446444" lon="17.273782"></trkpt><trkpt lat="52.446536" lon="17.274243"></trkpt><trkpt lat="52.44638" lon="17.27462"></trkpt><trkpt lat="52.445985" lon="17.275413"></trkpt><trkpt lat="52.445732" lon="17.275604"></trkpt><trkpt lat="52.44557" lon="17.276033"></trkpt><trkpt lat="52.445357" lon="17.276484"></trkpt><trkpt lat="52.445128" lon="17.276861"></trkpt><trkpt lat="52.444987" lon="17.277333"></trkpt><trkpt lat="52.444717" lon="17.277394"></trkpt><trkpt lat="52.444963" lon="17.277606"></trkpt><trkpt lat="52.44521" lon="17.277967"></trkpt><trkpt lat="52.445501" lon="17.27819"></trkpt><trkpt lat="52.445801" lon="17.278493"></trkpt><trkpt lat="52.446107" lon="17.278873"></trkpt><trkpt lat="52.446625" lon="17.279373"></trkpt><trkpt lat="52.44689" lon="17.279561"></trkpt><trkpt lat="52.447342" lon="17.279973"></trkpt><trkpt lat="52.447419" lon="17.280423"></trkpt><trkpt lat="52.44788" lon="17.282413"></trkpt><trkpt lat="52.448165" lon="17.282335"></trkpt><trkpt lat="52.448364" lon="17.282035"></trkpt><trkpt lat="52.448619" lon="17.28185"></trkpt><trkpt lat="52.448901" lon="17.281992"></trkpt><trkpt lat="52.449282" lon="17.282111"></trkpt><trkpt lat="52.449539" lon="17.28187"></trkpt><trkpt lat="52.449706" lon="17.281502"></trkpt><trkpt lat="52.449819" lon="17.281083"></trkpt><trkpt lat="52.450038" lon="17.280468"></trkpt><trkpt lat="52.450261" lon="17.27999"></trkpt><trkpt lat="52.450471" lon="17.279662"></trkpt><trkpt lat="52.450576" lon="17.279211"></trkpt><trkpt lat="52.4506" lon="17.278746"></trkpt><trkpt lat="52.450523" lon="17.278134"></trkpt><trkpt lat="52.450482" lon="17.277469"></trkpt><trkpt lat="52.45052" lon="17.276897"></trkpt><trkpt lat="52.450643" lon="17.276466"></trkpt><trkpt lat="52.450994" lon="17.276237"></trkpt><trkpt lat="52.451218" lon="17.275881"></trkpt><trkpt lat="52.451323" lon="17.275374"></trkpt><trkpt lat="52.451499" lon="17.275002"></trkpt><trkpt lat="52.451774" lon="17.274822"></trkpt><trkpt lat="52.452014" lon="17.274475"></trkpt><trkpt lat="52.452252" lon="17.273928"></trkpt><trkpt lat="52.452465" lon="17.273626"></trkpt><trkpt lat="52.452632" lon="17.273171"></trkpt><trkpt lat="52.452772" lon="17.272635"></trkpt><trkpt lat="52.452968" lon="17.272137"></trkpt><trkpt lat="52.45308" lon="17.271686"></trkpt><trkpt lat="52.453263" lon="17.271331"></trkpt><trkpt lat="52.453651" lon="17.270405"></trkpt><trkpt lat="52.453771" lon="17.269986"></trkpt><trkpt lat="52.453804" lon="17.269499"></trkpt><trkpt lat="52.45408" lon="17.26726"></trkpt><trkpt lat="52.454329" lon="17.266852"></trkpt><trkpt lat="52.45417" lon="17.266466"></trkpt><trkpt lat="52.454024" lon="17.266023"></trkpt><trkpt lat="52.453907" lon="17.265555"></trkpt><trkpt lat="52.453775" lon="17.26514"></trkpt><trkpt lat="52.453647" lon="17.264614"></trkpt><trkpt lat="52.453546" lon="17.264013"></trkpt><trkpt lat="52.453152" lon="17.263982"></trkpt></trkseg></trk></gpx>