<?xml version="1.0" encoding="UTF-8" standalone="no" ?><gpx xmlns="http://www.topografix.com/GPX/1/1" xmlns:gpxx="http://www.garmin.com/xmlschemas/GpxExtensions/v3" ><trk><trkseg><trkpt lat="49.899607" lon="10.900756"></trkpt><trkpt lat="49.899763" lon="10.900287"></trkpt><trkpt lat="49.900009" lon="10.900093"></trkpt><trkpt lat="49.900383" lon="10.899866"></trkpt><trkpt lat="49.900417" lon="10.898575"></trkpt><trkpt lat="49.900485" lon="10.898132"></trkpt><trkpt lat="49.900787" lon="10.89791"></trkpt><trkpt lat="49.901069" lon="10.897796"></trkpt><trkpt lat="49.901198" lon="10.897409"></trkpt><trkpt lat="49.90145" lon="10.897247"></trkpt><trkpt lat="49.901994" lon="10.896783"></trkpt><trkpt lat="49.901735" lon="10.896641"></trkpt><trkpt lat="49.901511" lon="10.896386"></trkpt><trkpt lat="49.90143" lon="10.895957"></trkpt><trkpt lat="49.901656" lon="10.89568"></trkpt><trkpt lat="49.901824" lon="10.895275"></trkpt><trkpt lat="49.901972" lon="10.894803"></trkpt><trkpt lat="49.901967" lon="10.894354"></trkpt><trkpt lat="49.902005" lon="10.893888"></trkpt><trkpt lat="49.902077" lon="10.89342"></trkpt><trkpt lat="49.902033" lon="10.892973"></trkpt><trkpt lat="49.902027" lon="10.89247"></trkpt><trkpt lat="49.901931" lon="10.892054"></trkpt><trkpt lat="49.90173" lon="10.89171"></trkpt><trkpt lat="49.901644" lon="10.891271"></trkpt><trkpt lat="49.901745" lon="10.891665"></trkpt><trkpt lat="49.90188" lon="10.892041"></trkpt><trkpt lat="49.901776" lon="10.892474"></trkpt><trkpt lat="49.901607" lon="10.892838"></trkpt><trkpt lat="49.901428" lon="10.893156"></trkpt><trkpt lat="49.901185" lon="10.893399"></trkpt><trkpt lat="49.901007" lon="10.893717"></trkpt><trkpt lat="49.900735" lon="10.893927"></trkpt><trkpt lat="49.900429" lon="10.894019"></trkpt><trkpt lat="49.90016" lon="10.89415"></trkpt><trkpt lat="49.9" lon="10.893808"></trkpt><trkpt lat="49.899729" lon="10.893899"></trkpt><trkpt lat="49.899525" lon="10.893358"></trkpt><trkpt lat="49.899312" lon="10.893081"></trkpt><trkpt lat="49.89929" lon="10.892621"></trkpt><trkpt lat="49.899029" lon="10.892407"></trkpt><trkpt lat="49.898733" lon="10.892518"></trkpt><trkpt lat="49.898245" lon="10.892582"></trkpt><trkpt lat="49.897968" lon="10.892733"></trkpt><trkpt lat="49.897665" lon="10.892838"></trkpt><trkpt lat="49.897391" lon="10.893012"></trkpt><trkpt lat="49.89712" lon="10.892913"></trkpt><trkpt lat="49.897103" lon="10.892391"></trkpt><trkpt lat="49.897137" lon="10.891867"></trkpt><trkpt lat="49.896892" lon="10.89165"></trkpt><trkpt lat="49.896554" lon="10.89144"></trkpt><trkpt lat="49.896289" lon="10.891231"></trkpt><trkpt lat="49.89602" lon="10.891074"></trkpt><trkpt lat="49.895737" lon="10.891029"></trkpt><trkpt lat="49.895475" lon="10.890823"></trkpt><trkpt lat="49.895124" lon="10.890605"></trkpt><trkpt lat="49.894886" lon="10.890406"></trkpt><trkpt lat="49.894655" lon="10.890142"></trkpt><trkpt lat="49.894389" lon="10.889897"></trkpt><trkpt lat="49.893877" lon="10.889246"></trkpt><trkpt lat="49.893609" lon="10.889073"></trkpt><trkpt lat="49.893338" lon="10.888963"></trkpt><trkpt lat="49.893138" lon="10.888596"></trkpt><trkpt lat="49.892894" lon="10.888376"></trkpt><trkpt lat="49.892604" lon="10.888309"></trkpt><trkpt lat="49.892445" lon="10.887895"></trkpt><trkpt lat="49.891988" lon="10.886936"></trkpt><trkpt lat="49.891778" lon="10.886619"></trkpt><trkpt lat="49.891667" lon="10.886174"></trkpt><trkpt lat="49.891403" lon="10.886315"></trkpt><trkpt lat="49.89095" lon="10.886635"></trkpt><trkpt lat="49.891061" lon="10.887034"></trkpt><trkpt lat="49.891066" lon="10.887465"></trkpt><trkpt lat="49.890825" lon="10.887713"></trkpt><trkpt lat="49.890678" lon="10.888103"></trkpt><trkpt lat="49.890893" lon="10.888373"></trkpt><trkpt lat="49.891067" lon="10.888709"></trkpt><trkpt lat="49.891332" lon="10.888561"></trkpt><trkpt lat="49.891599" lon="10.888475"></trkpt><trkpt lat="49.891852" lon="10.888658"></trkpt><trkpt lat="49.892181" lon="10.888537"></trkpt><trkpt lat="49.892254" lon="10.888977"></trkpt><trkpt lat="49.892445" lon="10.889379"></trkpt><trkpt lat="49.892372" lon="10.889835"></trkpt><trkpt lat="49.892312" lon="10.890642"></trkpt><trkpt lat="49.892408" lon="10.890228"></trkpt><trkpt lat="49.892257" lon="10.889782"></trkpt><trkpt lat="49.892228" lon="10.889273"></trkpt><trkpt lat="49.89226" lon="10.888792"></trkpt><trkpt lat="49.892259" lon="10.888166"></trkpt><trkpt lat="49.892214" lon="10.887733"></trkpt><trkpt lat="49.892059" lon="10.88724"></trkpt><trkpt lat="49.891877" lon="10.886799"></trkpt><trkpt lat="49.891657" lon="10.886421"></trkpt><trkpt lat="49.891558" lon="10.885968"></trkpt><trkpt lat="49.891671" lon="10.885499"></trkpt><trkpt lat="49.891675" lon="10.885069"></trkpt><trkpt lat="49.891457" lon="10.885382"></trkpt><trkpt lat="49.890944" lon="10.885693"></trkpt><trkpt lat="49.89109" lon="10.886169"></trkpt><trkpt lat="49.890812" lon="10.88597"></trkpt><trkpt lat="49.890872" lon="10.886412"></trkpt><trkpt lat="49.890586" lon="10.886395"></trkpt><trkpt lat="49.890619" lon="10.885949"></trkpt><trkpt lat="49.890435" lon="10.885575"></trkpt><trkpt lat="49.890298" lon="10.885192"></trkpt><trkpt lat="49.890538" lon="10.884865"></trkpt><trkpt lat="49.890868" lon="10.884576"></trkpt><trkpt lat="49.891157" lon="10.884538"></trkpt><trkpt lat="49.891124" lon="10.884115"></trkpt><trkpt lat="49.891302" lon="10.883765"></trkpt><trkpt lat="49.891505" lon="10.883457"></trkpt><trkpt lat="49.891654" lon="10.883097"></trkpt><trkpt lat="49.891905" lon="10.882837"></trkpt><trkpt lat="49.89213" lon="10.882531"></trkpt><trkpt lat="49.892311" lon="10.882187"></trkpt><trkpt lat="49.892314" lon="10.881735"></trkpt><trkpt lat="49.892425" lon="10.88129"></trkpt><trkpt lat="49.892653" lon="10.881003"></trkpt><trkpt lat="49.892958" lon="10.880685"></trkpt><trkpt lat="49.893182" lon="10.880364"></trkpt><trkpt lat="49.893145" lon="10.879933"></trkpt><trkpt lat="49.893258" lon="10.879498"></trkpt><trkpt lat="49.89299" lon="10.879604"></trkpt><trkpt lat="49.892873" lon="10.879214"></trkpt><trkpt lat="49.892858" lon="10.878777"></trkpt><trkpt lat="49.892715" lon="10.878404"></trkpt><trkpt lat="49.892705" lon="10.877951"></trkpt><trkpt lat="49.892903" lon="10.877642"></trkpt><trkpt lat="49.893067" lon="10.877306"></trkpt><trkpt lat="49.892968" lon="10.876913"></trkpt><trkpt lat="49.893138" lon="10.877263"></trkpt><trkpt lat="49.893233" lon="10.877678"></trkpt><trkpt lat="49.893297" lon="10.878106"></trkpt><trkpt lat="49.893411" lon="10.878613"></trkpt><trkpt lat="49.893468" lon="10.879028"></trkpt><trkpt lat="49.893651" lon="10.878711"></trkpt><trkpt lat="49.893976" lon="10.878359"></trkpt><trkpt lat="49.894188" lon="10.878018"></trkpt><trkpt lat="49.894374" lon="10.877582"></trkpt><trkpt lat="49.894647" lon="10.877747"></trkpt><trkpt lat="49.894777" lon="10.877261"></trkpt><trkpt lat="49.895052" lon="10.877209"></trkpt><trkpt lat="49.895235" lon="10.876886"></trkpt><trkpt lat="49.895486" lon="10.877056"></trkpt><trkpt lat="49.89551" lon="10.877483"></trkpt><trkpt lat="49.895353" lon="10.877857"></trkpt><trkpt lat="49.895707" lon="10.877707"></trkpt><trkpt lat="49.89603" lon="10.876997"></trkpt><trkpt lat="49.89629" lon="10.876822"></trkpt><trkpt lat="49.896506" lon="10.876567"></trkpt><trkpt lat="49.896782" lon="10.876659"></trkpt><trkpt lat="49.896674" lon="10.877065"></trkpt><trkpt lat="49.896511" lon="10.877448"></trkpt><trkpt lat="49.896044" lon="10.878884"></trkpt><trkpt lat="49.895799" lon="10.879125"></trkpt><trkpt lat="49.895555" lon="10.87942"></trkpt><trkpt lat="49.895291" lon="10.879819"></trkpt><trkpt lat="49.895066" lon="10.880225"></trkpt><trkpt lat="49.894835" lon="10.880487"></trkpt><trkpt lat="49.894607" lon="10.880815"></trkpt><trkpt lat="49.894379" lon="10.881082"></trkpt><trkpt lat="49.894245" lon="10.881458"></trkpt><trkpt lat="49.894068" lon="10.881814"></trkpt><trkpt lat="49.893929" lon="10.882224"></trkpt><trkpt lat="49.893744" lon="10.882535"></trkpt><trkpt lat="49.893534" lon="10.882964"></trkpt><trkpt lat="49.893736" lon="10.883502"></trkpt><trkpt lat="49.893766" lon="10.883928"></trkpt><trkpt lat="49.893539" lon="10.884276"></trkpt><trkpt lat="49.893294" lon="10.884516"></trkpt><trkpt lat="49.893018" lon="10.884648"></trkpt><trkpt lat="49.89276" lon="10.88497"></trkpt><trkpt lat="49.892489" lon="10.885161"></trkpt><trkpt lat="49.892224" lon="10.884801"></trkpt><trkpt lat="49.891945" lon="10.884763"></trkpt><trkpt lat="49.891647" lon="10.884674"></trkpt><trkpt lat="49.891427" lon="10.884414"></trkpt><trkpt lat="49.891314" lon="10.884026"></trkpt><trkpt lat="49.890976" lon="10.884264"></trkpt><trkpt lat="49.891016" lon="10.884701"></trkpt><trkpt lat="49.89095" lon="10.885111"></trkpt><trkpt lat="49.891027" lon="10.885554"></trkpt><trkpt lat="49.891179" lon="10.885913"></trkpt><trkpt lat="49.891306" lon="10.886284"></trkpt><trkpt lat="49.891359" lon="10.886698"></trkpt><trkpt lat="49.891629" lon="10.887216"></trkpt><trkpt lat="49.891705" lon="10.887632"></trkpt><trkpt lat="49.892434" lon="10.887089"></trkpt><trkpt lat="49.891942" lon="10.88789"></trkpt><trkpt lat="49.89217" lon="10.888126"></trkpt><trkpt lat="49.892288" lon="10.888541"></trkpt><trkpt lat="49.891886" lon="10.888653"></trkpt><trkpt lat="49.891623" lon="10.888782"></trkpt><trkpt lat="49.891406" lon="10.888531"></trkpt><trkpt lat="49.891097" lon="10.888823"></trkpt><trkpt lat="49.890889" lon="10.888504"></trkpt><trkpt lat="49.890711" lon="10.888056"></trkpt><trkpt lat="49.890954" lon="10.887678"></trkpt><trkpt lat="49.891035" lon="10.887265"></trkpt><trkpt lat="49.89103" lon="10.886817"></trkpt><trkpt lat="49.890967" lon="10.886295"></trkpt><trkpt lat="49.890706" lon="10.886512"></trkpt><trkpt lat="49.890818" lon="10.886933"></trkpt><trkpt lat="49.890592" lon="10.887274"></trkpt><trkpt lat="49.890348" lon="10.887551"></trkpt><trkpt lat="49.89012" lon="10.887238"></trkpt><trkpt lat="49.890129" lon="10.886756"></trkpt><trkpt lat="49.89018" lon="10.886323"></trkpt><trkpt lat="49.890367" lon="10.885976"></trkpt><trkpt lat="49.890739" lon="10.886497"></trkpt></trkseg></trk></gpx>