<?xml version="1.0" encoding="UTF-8" standalone="no" ?><gpx xmlns="http://www.topografix.com/GPX/1/1" xmlns:gpxx="http://www.garmin.com/xmlschemas/GpxExtensions/v3" ><trk><trkseg><trkpt lat="52.571162" lon="17.820571"></trkpt><trkpt lat="52.571442" lon="17.820271"></trkpt><trkpt lat="52.573335" lon="17.818571"></trkpt><trkpt lat="52.574294" lon="17.817555"></trkpt><trkpt lat="52.574456" lon="17.817186"></trkpt><trkpt lat="52.574689" lon="17.816795"></trkpt><trkpt lat="52.575133" lon="17.816369"></trkpt><trkpt lat="52.576838" lon="17.814992"></trkpt><trkpt lat="52.577176" lon="17.815135"></trkpt><trkpt lat="52.577933" lon="17.815281"></trkpt><trkpt lat="52.582967" lon="17.813711"></trkpt><trkpt lat="52.583288" lon="17.813426"></trkpt><trkpt lat="52.583889" lon="17.813035"></trkpt><trkpt lat="52.58415" lon="17.81282"></trkpt><trkpt lat="52.585332" lon="17.812116"></trkpt><trkpt lat="52.585845" lon="17.812078"></trkpt><trkpt lat="52.597331" lon="17.809887"></trkpt><trkpt lat="52.598118" lon="17.809576"></trkpt><trkpt lat="52.59964" lon="17.808758"></trkpt><trkpt lat="52.599861" lon="17.808757"></trkpt><trkpt lat="52.600083" lon="17.808866"></trkpt><trkpt lat="52.6004" lon="17.809271"></trkpt><trkpt lat="52.605086" lon="17.816244"></trkpt><trkpt lat="52.605332" lon="17.816401"></trkpt><trkpt lat="52.605512" lon="17.816212"></trkpt><trkpt lat="52.605752" lon="17.815886"></trkpt><trkpt lat="52.60598" lon="17.815519"></trkpt><trkpt lat="52.60618" lon="17.815254"></trkpt><trkpt lat="52.606436" lon="17.814855"></trkpt><trkpt lat="52.606553" lon="17.814543"></trkpt><trkpt lat="52.606709" lon="17.814039"></trkpt><trkpt lat="52.606753" lon="17.813375"></trkpt><trkpt lat="52.60678" lon="17.812038"></trkpt><trkpt lat="52.60675" lon="17.811532"></trkpt><trkpt lat="52.606786" lon="17.809888"></trkpt><trkpt lat="52.606946" lon="17.809623"></trkpt><trkpt lat="52.607252" lon="17.809376"></trkpt><trkpt lat="52.607831" lon="17.809403"></trkpt><trkpt lat="52.608304" lon="17.809523"></trkpt><trkpt lat="52.612097" lon="17.810943"></trkpt><trkpt lat="52.620811" lon="17.812988"></trkpt><trkpt lat="52.621316" lon="17.812499"></trkpt><trkpt lat="52.623435" lon="17.809992"></trkpt><trkpt lat="52.623914" lon="17.809224"></trkpt><trkpt lat="52.626244" lon="17.806159"></trkpt><trkpt lat="52.626794" lon="17.805942"></trkpt><trkpt lat="52.631189" lon="17.803637"></trkpt><trkpt lat="52.63142" lon="17.803455"></trkpt><trkpt lat="52.636342" lon="17.798561"></trkpt><trkpt lat="52.63654" lon="17.798185"></trkpt><trkpt lat="52.636801" lon="17.798282"></trkpt><trkpt lat="52.636992" lon="17.798522"></trkpt><trkpt lat="52.637282" lon="17.799003"></trkpt><trkpt lat="52.637535" lon="17.799558"></trkpt><trkpt lat="52.637975" lon="17.800385"></trkpt><trkpt lat="52.638223" lon="17.800789"></trkpt><trkpt lat="52.642378" lon="17.806503"></trkpt><trkpt lat="52.642881" lon="17.806581"></trkpt><trkpt lat="52.644389" lon="17.807074"></trkpt><trkpt lat="52.644573" lon="17.807474"></trkpt><trkpt lat="52.644703" lon="17.808082"></trkpt><trkpt lat="52.644745" lon="17.808439"></trkpt><trkpt lat="52.644925" lon="17.809462"></trkpt><trkpt lat="52.645235" lon="17.810733"></trkpt><trkpt lat="52.645397" lon="17.811071"></trkpt><trkpt lat="52.645819" lon="17.811671"></trkpt><trkpt lat="52.647505" lon="17.814456"></trkpt><trkpt lat="52.647866" lon="17.81516"></trkpt><trkpt lat="52.649485" lon="17.818856"></trkpt><trkpt lat="52.650873" lon="17.82158"></trkpt><trkpt lat="52.65118" lon="17.8219"></trkpt><trkpt lat="52.651428" lon="17.822118"></trkpt><trkpt lat="52.653691" lon="17.824469"></trkpt><trkpt lat="52.653815" lon="17.824764"></trkpt><trkpt lat="52.653962" lon="17.825037"></trkpt><trkpt lat="52.654526" lon="17.825863"></trkpt><trkpt lat="52.657251" lon="17.830626"></trkpt><trkpt lat="52.657291" lon="17.831621"></trkpt><trkpt lat="52.657289" lon="17.832235"></trkpt><trkpt lat="52.657268" lon="17.832686"></trkpt><trkpt lat="52.657224" lon="17.833107"></trkpt><trkpt lat="52.65718" lon="17.834001"></trkpt><trkpt lat="52.657262" lon="17.834342"></trkpt><trkpt lat="52.65813" lon="17.837197"></trkpt><trkpt lat="52.658438" lon="17.837515"></trkpt><trkpt lat="52.658869" lon="17.837887"></trkpt><trkpt lat="52.659182" lon="17.838308"></trkpt><trkpt lat="52.659482" lon="17.83884"></trkpt><trkpt lat="52.660181" lon="17.840338"></trkpt><trkpt lat="52.660357" lon="17.841128"></trkpt><trkpt lat="52.660723" lon="17.842446"></trkpt><trkpt lat="52.660931" lon="17.842667"></trkpt><trkpt lat="52.661224" lon="17.842591"></trkpt><trkpt lat="52.661457" lon="17.842573"></trkpt><trkpt lat="52.661928" lon="17.842382"></trkpt><trkpt lat="52.662216" lon="17.842228"></trkpt><trkpt lat="52.662636" lon="17.842065"></trkpt><trkpt lat="52.66286" lon="17.842095"></trkpt><trkpt lat="52.663297" lon="17.842229"></trkpt><trkpt lat="52.663667" lon="17.842283"></trkpt><trkpt lat="52.664217" lon="17.842124"></trkpt><trkpt lat="52.664542" lon="17.841953"></trkpt><trkpt lat="52.665738" lon="17.841547"></trkpt><trkpt lat="52.665998" lon="17.841525"></trkpt><trkpt lat="52.669937" lon="17.84239"></trkpt><trkpt lat="52.670115" lon="17.842679"></trkpt><trkpt lat="52.670309" lon="17.842893"></trkpt><trkpt lat="52.670651" lon="17.843064"></trkpt><trkpt lat="52.670865" lon="17.843105"></trkpt><trkpt lat="52.671165" lon="17.843199"></trkpt><trkpt lat="52.673499" lon="17.843498"></trkpt><trkpt lat="52.673942" lon="17.843179"></trkpt><trkpt lat="52.674264" lon="17.842827"></trkpt><trkpt lat="52.674518" lon="17.842495"></trkpt><trkpt lat="52.683119" lon="17.832894"></trkpt><trkpt lat="52.683545" lon="17.832996"></trkpt><trkpt lat="52.69609" lon="17.836721"></trkpt><trkpt lat="52.697395" lon="17.836865"></trkpt><trkpt lat="52.698582" lon="17.837209"></trkpt><trkpt lat="52.698385" lon="17.837606"></trkpt><trkpt lat="52.696828" lon="17.841391"></trkpt><trkpt lat="52.696753" lon="17.841889"></trkpt><trkpt lat="52.696649" lon="17.843036"></trkpt><trkpt lat="52.696075" lon="17.847077"></trkpt><trkpt lat="52.695916" lon="17.847837"></trkpt><trkpt lat="52.69571" lon="17.848634"></trkpt><trkpt lat="52.695373" lon="17.84956"></trkpt><trkpt lat="52.693575" lon="17.853708"></trkpt><trkpt lat="52.693032" lon="17.854647"></trkpt><trkpt lat="52.691078" lon="17.857519"></trkpt><trkpt lat="52.690655" lon="17.857922"></trkpt><trkpt lat="52.68957" lon="17.859192"></trkpt><trkpt lat="52.689329" lon="17.859806"></trkpt><trkpt lat="52.689209" lon="17.860195"></trkpt><trkpt lat="52.688234" lon="17.862852"></trkpt><trkpt lat="52.687768" lon="17.863331"></trkpt><trkpt lat="52.685786" lon="17.865785"></trkpt><trkpt lat="52.685754" lon="17.86613"></trkpt><trkpt lat="52.685775" lon="17.866511"></trkpt><trkpt lat="52.685942" lon="17.86721"></trkpt><trkpt lat="52.686039" lon="17.86753"></trkpt><trkpt lat="52.68619" lon="17.86818"></trkpt><trkpt lat="52.686226" lon="17.868705"></trkpt><trkpt lat="52.686316" lon="17.869227"></trkpt><trkpt lat="52.686411" lon="17.869568"></trkpt><trkpt lat="52.686558" lon="17.869883"></trkpt><trkpt lat="52.686837" lon="17.870312"></trkpt><trkpt lat="52.687167" lon="17.870911"></trkpt><trkpt lat="52.687314" lon="17.87146"></trkpt><trkpt lat="52.687372" lon="17.872045"></trkpt><trkpt lat="52.687335" lon="17.872628"></trkpt><trkpt lat="52.687286" lon="17.872957"></trkpt><trkpt lat="52.686199" lon="17.8854"></trkpt><trkpt lat="52.686409" lon="17.885873"></trkpt><trkpt lat="52.686905" lon="17.886668"></trkpt><trkpt lat="52.687825" lon="17.887764"></trkpt><trkpt lat="52.68825" lon="17.887789"></trkpt><trkpt lat="52.689966" lon="17.888328"></trkpt><trkpt lat="52.690331" lon="17.888961"></trkpt><trkpt lat="52.691322" lon="17.8903"></trkpt><trkpt lat="52.691732" lon="17.89051"></trkpt><trkpt lat="52.692222" lon="17.890649"></trkpt><trkpt lat="52.692654" lon="17.89083"></trkpt><trkpt lat="52.693173" lon="17.89119"></trkpt><trkpt lat="52.69421" lon="17.891742"></trkpt><trkpt lat="52.694496" lon="17.89198"></trkpt><trkpt lat="52.694814" lon="17.892714"></trkpt><trkpt lat="52.695058" lon="17.893412"></trkpt><trkpt lat="52.695188" lon="17.893867"></trkpt><trkpt lat="52.695307" lon="17.894479"></trkpt><trkpt lat="52.695522" lon="17.896078"></trkpt><trkpt lat="52.695521" lon="17.896441"></trkpt><trkpt lat="52.696059" lon="17.909919"></trkpt><trkpt lat="52.696161" lon="17.910838"></trkpt><trkpt lat="52.6962" lon="17.911639"></trkpt><trkpt lat="52.696121" lon="17.912206"></trkpt><trkpt lat="52.695976" lon="17.912579"></trkpt><trkpt lat="52.69569" lon="17.913521"></trkpt><trkpt lat="52.695714" lon="17.913915"></trkpt><trkpt lat="52.695763" lon="17.91434"></trkpt><trkpt lat="52.695772" lon="17.915127"></trkpt><trkpt lat="52.695677" lon="17.915567"></trkpt><trkpt lat="52.695516" lon="17.91655"></trkpt><trkpt lat="52.695504" lon="17.917061"></trkpt><trkpt lat="52.695519" lon="17.917415"></trkpt><trkpt lat="52.695452" lon="17.919194"></trkpt><trkpt lat="52.695476" lon="17.919672"></trkpt><trkpt lat="52.695515" lon="17.920086"></trkpt><trkpt lat="52.695645" lon="17.92067"></trkpt><trkpt lat="52.695973" lon="17.921153"></trkpt><trkpt lat="52.696092" lon="17.921439"></trkpt><trkpt lat="52.696218" lon="17.921876"></trkpt><trkpt lat="52.696437" lon="17.922829"></trkpt><trkpt lat="52.69653" lon="17.923491"></trkpt><trkpt lat="52.696444" lon="17.924636"></trkpt><trkpt lat="52.696351" lon="17.925077"></trkpt><trkpt lat="52.693602" lon="17.94312"></trkpt><trkpt lat="52.693806" lon="17.943423"></trkpt><trkpt lat="52.693523" lon="17.944183"></trkpt><trkpt lat="52.688677" lon="17.959732"></trkpt><trkpt lat="52.68837" lon="17.960479"></trkpt><trkpt lat="52.68786" lon="17.960798"></trkpt><trkpt lat="52.687663" lon="17.961019"></trkpt><trkpt lat="52.687546" lon="17.961446"></trkpt><trkpt lat="52.687464" lon="17.961938"></trkpt><trkpt lat="52.687429" lon="17.962268"></trkpt><trkpt lat="52.687409" lon="17.96261"></trkpt><trkpt lat="52.687271" lon="17.980176"></trkpt><trkpt lat="52.687555" lon="17.981023"></trkpt><trkpt lat="52.688609" lon="17.984936"></trkpt><trkpt lat="52.688319" lon="17.985681"></trkpt><trkpt lat="52.687583" lon="17.988014"></trkpt><trkpt lat="52.687581" lon="17.988581"></trkpt><trkpt lat="52.687555" lon="17.988919"></trkpt><trkpt lat="52.687516" lon="17.990152"></trkpt><trkpt lat="52.687584" lon="17.990517"></trkpt><trkpt lat="52.687762" lon="17.991046"></trkpt><trkpt lat="52.694534" lon="18.008671"></trkpt><trkpt lat="52.694451" lon="18.009575"></trkpt><trkpt lat="52.694242" lon="18.01031"></trkpt><trkpt lat="52.694091" lon="18.010981"></trkpt><trkpt lat="52.694008" lon="18.011698"></trkpt><trkpt lat="52.693948" lon="18.012679"></trkpt><trkpt lat="52.693849" lon="18.026039"></trkpt><trkpt lat="52.694022" lon="18.026232"></trkpt><trkpt lat="52.702797" lon="18.03443"></trkpt><trkpt lat="52.703139" lon="18.034486"></trkpt><trkpt lat="52.707833" lon="18.034655"></trkpt><trkpt lat="52.712971" lon="18.035464"></trkpt><trkpt lat="52.713152" lon="18.035215"></trkpt></trkseg></trk></gpx>