<?xml version="1.0" encoding="UTF-8" standalone="no" ?><gpx xmlns="http://www.topografix.com/GPX/1/1" xmlns:gpxx="http://www.garmin.com/xmlschemas/GpxExtensions/v3" ><trk><trkseg><trkpt lat="53.786688" lon="20.497232"></trkpt><trkpt lat="53.786844" lon="20.496948"></trkpt><trkpt lat="53.787018" lon="20.496716"></trkpt><trkpt lat="53.787133" lon="20.496373"></trkpt><trkpt lat="53.787328" lon="20.495672"></trkpt><trkpt lat="53.787543" lon="20.495553"></trkpt><trkpt lat="53.787721" lon="20.495701"></trkpt><trkpt lat="53.791091" lon="20.498012"></trkpt><trkpt lat="53.791309" lon="20.498044"></trkpt><trkpt lat="53.791541" lon="20.498135"></trkpt><trkpt lat="53.791746" lon="20.498003"></trkpt><trkpt lat="53.791918" lon="20.497799"></trkpt><trkpt lat="53.792078" lon="20.497569"></trkpt><trkpt lat="53.792084" lon="20.497201"></trkpt><trkpt lat="53.792194" lon="20.496824"></trkpt><trkpt lat="53.79258" lon="20.495766"></trkpt><trkpt lat="53.792763" lon="20.49603"></trkpt><trkpt lat="53.792965" lon="20.496117"></trkpt><trkpt lat="53.793188" lon="20.496292"></trkpt><trkpt lat="53.796671" lon="20.499547"></trkpt><trkpt lat="53.796871" lon="20.499787"></trkpt><trkpt lat="53.797494" lon="20.500653"></trkpt><trkpt lat="53.799196" lon="20.50269"></trkpt><trkpt lat="53.799422" lon="20.502891"></trkpt><trkpt lat="53.801994" lon="20.505583"></trkpt><trkpt lat="53.802191" lon="20.50588"></trkpt><trkpt lat="53.803039" lon="20.506978"></trkpt><trkpt lat="53.803205" lon="20.507163"></trkpt><trkpt lat="53.803563" lon="20.507629"></trkpt><trkpt lat="53.803963" lon="20.50807"></trkpt><trkpt lat="53.804129" lon="20.508302"></trkpt><trkpt lat="53.804309" lon="20.508462"></trkpt><trkpt lat="53.804554" lon="20.508723"></trkpt><trkpt lat="53.804736" lon="20.508949"></trkpt><trkpt lat="53.804899" lon="20.50924"></trkpt><trkpt lat="53.805072" lon="20.509475"></trkpt><trkpt lat="53.80521" lon="20.509723"></trkpt><trkpt lat="53.806125" lon="20.511135"></trkpt><trkpt lat="53.806297" lon="20.511308"></trkpt><trkpt lat="53.806488" lon="20.51154"></trkpt><trkpt lat="53.806659" lon="20.511793"></trkpt><trkpt lat="53.807099" lon="20.512357"></trkpt><trkpt lat="53.807253" lon="20.512648"></trkpt><trkpt lat="53.812413" lon="20.521112"></trkpt><trkpt lat="53.812615" lon="20.521365"></trkpt><trkpt lat="53.814738" lon="20.523631"></trkpt><trkpt lat="53.814927" lon="20.523735"></trkpt><trkpt lat="53.815158" lon="20.523823"></trkpt><trkpt lat="53.815386" lon="20.523839"></trkpt><trkpt lat="53.815619" lon="20.523786"></trkpt><trkpt lat="53.815848" lon="20.5237"></trkpt><trkpt lat="53.817705" lon="20.523251"></trkpt><trkpt lat="53.817919" lon="20.52337"></trkpt><trkpt lat="53.818115" lon="20.523438"></trkpt><trkpt lat="53.818311" lon="20.523561"></trkpt><trkpt lat="53.818509" lon="20.523637"></trkpt><trkpt lat="53.820892" lon="20.524855"></trkpt><trkpt lat="53.821072" lon="20.525011"></trkpt><trkpt lat="53.82407" lon="20.527172"></trkpt><trkpt lat="53.824283" lon="20.527267"></trkpt><trkpt lat="53.826545" lon="20.527973"></trkpt><trkpt lat="53.826846" lon="20.527917"></trkpt><trkpt lat="53.833918" lon="20.527483"></trkpt><trkpt lat="53.834088" lon="20.527726"></trkpt><trkpt lat="53.834225" lon="20.527981"></trkpt><trkpt lat="53.834346" lon="20.528259"></trkpt><trkpt lat="53.834454" lon="20.528555"></trkpt><trkpt lat="53.834628" lon="20.528789"></trkpt><trkpt lat="53.83765" lon="20.532261"></trkpt><trkpt lat="53.837875" lon="20.532139"></trkpt><trkpt lat="53.83808" lon="20.531984"></trkpt><trkpt lat="53.83839" lon="20.531797"></trkpt><trkpt lat="53.838599" lon="20.531786"></trkpt><trkpt lat="53.838809" lon="20.531823"></trkpt><trkpt lat="53.839156" lon="20.531947"></trkpt><trkpt lat="53.839373" lon="20.532092"></trkpt><trkpt lat="53.839603" lon="20.532291"></trkpt><trkpt lat="53.839849" lon="20.532461"></trkpt><trkpt lat="53.840852" lon="20.532982"></trkpt><trkpt lat="53.845635" lon="20.534839"></trkpt><trkpt lat="53.84586" lon="20.534843"></trkpt><trkpt lat="53.84735" lon="20.535053"></trkpt><trkpt lat="53.847487" lon="20.53531"></trkpt><trkpt lat="53.84771" lon="20.535614"></trkpt><trkpt lat="53.847955" lon="20.535832"></trkpt><trkpt lat="53.848212" lon="20.535992"></trkpt><trkpt lat="53.849098" lon="20.536702"></trkpt><trkpt lat="53.849258" lon="20.537005"></trkpt><trkpt lat="53.849383" lon="20.537327"></trkpt><trkpt lat="53.849505" lon="20.537718"></trkpt><trkpt lat="53.850641" lon="20.540807"></trkpt><trkpt lat="53.850783" lon="20.541049"></trkpt><trkpt lat="53.850962" lon="20.541314"></trkpt><trkpt lat="53.851703" lon="20.542263"></trkpt><trkpt lat="53.851897" lon="20.5424"></trkpt><trkpt lat="53.852118" lon="20.54245"></trkpt><trkpt lat="53.852316" lon="20.542442"></trkpt><trkpt lat="53.855368" lon="20.542928"></trkpt><trkpt lat="53.855559" lon="20.543039"></trkpt><trkpt lat="53.856355" lon="20.543615"></trkpt><trkpt lat="53.856529" lon="20.543815"></trkpt><trkpt lat="53.856666" lon="20.544113"></trkpt><trkpt lat="53.85678" lon="20.544418"></trkpt><trkpt lat="53.860397" lon="20.552731"></trkpt><trkpt lat="53.860571" lon="20.552958"></trkpt><trkpt lat="53.860743" lon="20.553229"></trkpt><trkpt lat="53.860902" lon="20.553571"></trkpt><trkpt lat="53.861582" lon="20.554787"></trkpt><trkpt lat="53.861802" lon="20.554948"></trkpt><trkpt lat="53.862952" lon="20.555623"></trkpt><trkpt lat="53.863198" lon="20.55567"></trkpt><trkpt lat="53.863532" lon="20.555689"></trkpt><trkpt lat="53.864067" lon="20.555787"></trkpt><trkpt lat="53.86427" lon="20.555849"></trkpt><trkpt lat="53.864531" lon="20.555964"></trkpt><trkpt lat="53.864728" lon="20.556127"></trkpt><trkpt lat="53.864971" lon="20.556366"></trkpt><trkpt lat="53.865273" lon="20.556715"></trkpt><trkpt lat="53.869945" lon="20.562982"></trkpt><trkpt lat="53.870068" lon="20.563363"></trkpt><trkpt lat="53.871229" lon="20.56637"></trkpt><trkpt lat="53.871394" lon="20.566625"></trkpt><trkpt lat="53.878188" lon="20.575715"></trkpt><trkpt lat="53.878427" lon="20.575732"></trkpt><trkpt lat="53.878638" lon="20.575828"></trkpt><trkpt lat="53.878822" lon="20.575995"></trkpt><trkpt lat="53.879059" lon="20.576174"></trkpt><trkpt lat="53.879457" lon="20.576542"></trkpt><trkpt lat="53.879621" lon="20.57675"></trkpt><trkpt lat="53.87985" lon="20.577"></trkpt><trkpt lat="53.880332" lon="20.577427"></trkpt><trkpt lat="53.880541" lon="20.577476"></trkpt><trkpt lat="53.88179" lon="20.577613"></trkpt><trkpt lat="53.881989" lon="20.577756"></trkpt><trkpt lat="53.882201" lon="20.577806"></trkpt><trkpt lat="53.882001" lon="20.577727"></trkpt><trkpt lat="53.881804" lon="20.577611"></trkpt><trkpt lat="53.881595" lon="20.577705"></trkpt><trkpt lat="53.881745" lon="20.577989"></trkpt><trkpt lat="53.881938" lon="20.57811"></trkpt><trkpt lat="53.882136" lon="20.578188"></trkpt><trkpt lat="53.882757" lon="20.578527"></trkpt><trkpt lat="53.882936" lon="20.578688"></trkpt><trkpt lat="53.88314" lon="20.578838"></trkpt><trkpt lat="53.883339" lon="20.578862"></trkpt><trkpt lat="53.883626" lon="20.578942"></trkpt><trkpt lat="53.884201" lon="20.579177"></trkpt><trkpt lat="53.884373" lon="20.579345"></trkpt><trkpt lat="53.884578" lon="20.579242"></trkpt><trkpt lat="53.88477" lon="20.579103"></trkpt><trkpt lat="53.885305" lon="20.578633"></trkpt><trkpt lat="53.885478" lon="20.578445"></trkpt><trkpt lat="53.886533" lon="20.57749"></trkpt><trkpt lat="53.886766" lon="20.577462"></trkpt><trkpt lat="53.889339" lon="20.576834"></trkpt><trkpt lat="53.889551" lon="20.576716"></trkpt><trkpt lat="53.897952" lon="20.573143"></trkpt><trkpt lat="53.898172" lon="20.573179"></trkpt><trkpt lat="53.898447" lon="20.573186"></trkpt><trkpt lat="53.899211" lon="20.57331"></trkpt><trkpt lat="53.899456" lon="20.573423"></trkpt><trkpt lat="53.899829" lon="20.573546"></trkpt><trkpt lat="53.900462" lon="20.573677"></trkpt><trkpt lat="53.900693" lon="20.573679"></trkpt><trkpt lat="53.901073" lon="20.573623"></trkpt><trkpt lat="53.901814" lon="20.573828"></trkpt><trkpt lat="53.902008" lon="20.573912"></trkpt><trkpt lat="53.902827" lon="20.574161"></trkpt><trkpt lat="53.903026" lon="20.574181"></trkpt><trkpt lat="53.903257" lon="20.574246"></trkpt><trkpt lat="53.903472" lon="20.574346"></trkpt><trkpt lat="53.904722" lon="20.575094"></trkpt><trkpt lat="53.904856" lon="20.575355"></trkpt><trkpt lat="53.905279" lon="20.576064"></trkpt><trkpt lat="53.905477" lon="20.576303"></trkpt><trkpt lat="53.90563" lon="20.576521"></trkpt><trkpt lat="53.907361" lon="20.578654"></trkpt><trkpt lat="53.907588" lon="20.578887"></trkpt><trkpt lat="53.908434" lon="20.57962"></trkpt><trkpt lat="53.90865" lon="20.579753"></trkpt><trkpt lat="53.908864" lon="20.579843"></trkpt><trkpt lat="53.909999" lon="20.580471"></trkpt><trkpt lat="53.910639" lon="20.580912"></trkpt><trkpt lat="53.910824" lon="20.581083"></trkpt><trkpt lat="53.911788" lon="20.58183"></trkpt><trkpt lat="53.911986" lon="20.581915"></trkpt><trkpt lat="53.913295" lon="20.582312"></trkpt><trkpt lat="53.91391" lon="20.582584"></trkpt><trkpt lat="53.914086" lon="20.582756"></trkpt><trkpt lat="53.91425" lon="20.582964"></trkpt><trkpt lat="53.914433" lon="20.583145"></trkpt><trkpt lat="53.914654" lon="20.583287"></trkpt><trkpt lat="53.914859" lon="20.583357"></trkpt><trkpt lat="53.915067" lon="20.583465"></trkpt><trkpt lat="53.926927" lon="20.59125"></trkpt><trkpt lat="53.927046" lon="20.591562"></trkpt><trkpt lat="53.927346" lon="20.592226"></trkpt><trkpt lat="53.927516" lon="20.592477"></trkpt><trkpt lat="53.927699" lon="20.592708"></trkpt><trkpt lat="53.927902" lon="20.592916"></trkpt><trkpt lat="53.929651" lon="20.594422"></trkpt><trkpt lat="53.929878" lon="20.594527"></trkpt><trkpt lat="53.930081" lon="20.594666"></trkpt><trkpt lat="53.930245" lon="20.594903"></trkpt><trkpt lat="53.930334" lon="20.59522"></trkpt><trkpt lat="53.930583" lon="20.595962"></trkpt><trkpt lat="53.930739" lon="20.596213"></trkpt><trkpt lat="53.930919" lon="20.596454"></trkpt><trkpt lat="53.931551" lon="20.597437"></trkpt><trkpt lat="53.931706" lon="20.597747"></trkpt><trkpt lat="53.931903" lon="20.598082"></trkpt><trkpt lat="53.932063" lon="20.598295"></trkpt><trkpt lat="53.932286" lon="20.598484"></trkpt><trkpt lat="53.93249" lon="20.598568"></trkpt><trkpt lat="53.932737" lon="20.598627"></trkpt><trkpt lat="53.932955" lon="20.598614"></trkpt><trkpt lat="53.934011" lon="20.598806"></trkpt><trkpt lat="53.934224" lon="20.598909"></trkpt><trkpt lat="53.934423" lon="20.599064"></trkpt><trkpt lat="53.934622" lon="20.599265"></trkpt><trkpt lat="53.935452" lon="20.599965"></trkpt><trkpt lat="53.935673" lon="20.600007"></trkpt><trkpt lat="53.935996" lon="20.600018"></trkpt><trkpt lat="53.936171" lon="20.599836"></trkpt><trkpt lat="53.936381" lon="20.599655"></trkpt><trkpt lat="53.936579" lon="20.599618"></trkpt><trkpt lat="53.942681" lon="20.60001"></trkpt><trkpt lat="53.94292" lon="20.599951"></trkpt><trkpt lat="53.943249" lon="20.599822"></trkpt><trkpt lat="53.943481" lon="20.59965"></trkpt><trkpt lat="53.943694" lon="20.59944"></trkpt><trkpt lat="53.943948" lon="20.5993"></trkpt><trkpt lat="53.944153" lon="20.599346"></trkpt><trkpt lat="53.944391" lon="20.5995"></trkpt><trkpt lat="53.944627" lon="20.59961"></trkpt><trkpt lat="53.944864" lon="20.599676"></trkpt><trkpt lat="53.945078" lon="20.599821"></trkpt><trkpt lat="53.945281" lon="20.600088"></trkpt><trkpt lat="53.945467" lon="20.600373"></trkpt><trkpt lat="53.946298" lon="20.601472"></trkpt><trkpt lat="53.946517" lon="20.60167"></trkpt><trkpt lat="53.950113" lon="20.604358"></trkpt><trkpt lat="53.950367" lon="20.604406"></trkpt><trkpt lat="53.953661" lon="20.604629"></trkpt><trkpt lat="53.95421" lon="20.604525"></trkpt><trkpt lat="53.95453" lon="20.604503"></trkpt><trkpt lat="53.954716" lon="20.604695"></trkpt><trkpt lat="53.954871" lon="20.604987"></trkpt><trkpt lat="53.954976" lon="20.605325"></trkpt><trkpt lat="53.955318" lon="20.606237"></trkpt><trkpt lat="53.955494" lon="20.606455"></trkpt><trkpt lat="53.958242" lon="20.609347"></trkpt><trkpt lat="53.958498" lon="20.609281"></trkpt><trkpt lat="53.958716" lon="20.609188"></trkpt><trkpt lat="53.958959" lon="20.609142"></trkpt><trkpt lat="53.959319" lon="20.609254"></trkpt><trkpt lat="53.959535" lon="20.609392"></trkpt><trkpt lat="53.959741" lon="20.609598"></trkpt><trkpt lat="53.959948" lon="20.609851"></trkpt><trkpt lat="53.960497" lon="20.610658"></trkpt><trkpt lat="53.960606" lon="20.611007"></trkpt><trkpt lat="53.960691" lon="20.611333"></trkpt><trkpt lat="53.960805" lon="20.61165"></trkpt><trkpt lat="53.960972" lon="20.611936"></trkpt><trkpt lat="53.961131" lon="20.612139"></trkpt><trkpt lat="53.961309" lon="20.612317"></trkpt><trkpt lat="53.961732" lon="20.612673"></trkpt><trkpt lat="53.962057" lon="20.61289"></trkpt><trkpt lat="53.962252" lon="20.612976"></trkpt><trkpt lat="53.962449" lon="20.613038"></trkpt><trkpt lat="53.963883" lon="20.61367"></trkpt><trkpt lat="53.964101" lon="20.613953"></trkpt><trkpt lat="53.964294" lon="20.614341"></trkpt><trkpt lat="53.964401" lon="20.614645"></trkpt><trkpt lat="53.964585" lon="20.615267"></trkpt><trkpt lat="53.964898" lon="20.616153"></trkpt><trkpt lat="53.965024" lon="20.616428"></trkpt><trkpt lat="53.96767" lon="20.621415"></trkpt><trkpt lat="53.967917" lon="20.621332"></trkpt><trkpt lat="53.976066" lon="20.619626"></trkpt><trkpt lat="53.978153" lon="20.619785"></trkpt><trkpt lat="53.978719" lon="20.619909"></trkpt><trkpt lat="53.978908" lon="20.620012"></trkpt><trkpt lat="53.979389" lon="20.620212"></trkpt><trkpt lat="53.979587" lon="20.62021"></trkpt><trkpt lat="53.979904" lon="20.620169"></trkpt><trkpt lat="53.980152" lon="20.620107"></trkpt><trkpt lat="53.980376" lon="20.619989"></trkpt><trkpt lat="53.980557" lon="20.619839"></trkpt><trkpt lat="53.980707" lon="20.619607"></trkpt><trkpt lat="53.98084" lon="20.61934"></trkpt><trkpt lat="53.981076" lon="20.618931"></trkpt><trkpt lat="53.981276" lon="20.618725"></trkpt><trkpt lat="53.981477" lon="20.618616"></trkpt><trkpt lat="53.981709" lon="20.618631"></trkpt><trkpt lat="53.98245" lon="20.618488"></trkpt><trkpt lat="53.982503" lon="20.618134"></trkpt><trkpt lat="53.982578" lon="20.617757"></trkpt><trkpt lat="53.983348" lon="20.612727"></trkpt><trkpt lat="53.983435" lon="20.61232"></trkpt><trkpt lat="53.98379" lon="20.610201"></trkpt><trkpt lat="53.984195" lon="20.60835"></trkpt><trkpt lat="53.984304" lon="20.608058"></trkpt><trkpt lat="53.9851" lon="20.605522"></trkpt><trkpt lat="53.985112" lon="20.6051"></trkpt><trkpt lat="53.985333" lon="20.602176"></trkpt><trkpt lat="53.985571" lon="20.602029"></trkpt><trkpt lat="53.985776" lon="20.601935"></trkpt><trkpt lat="53.985971" lon="20.601807"></trkpt><trkpt lat="53.997873" lon="20.592291"></trkpt><trkpt lat="53.998023" lon="20.59203"></trkpt><trkpt lat="53.998144" lon="20.591754"></trkpt><trkpt lat="53.998442" lon="20.591173"></trkpt><trkpt lat="53.998614" lon="20.590927"></trkpt><trkpt lat="53.998815" lon="20.59075"></trkpt><trkpt lat="53.999041" lon="20.590595"></trkpt><trkpt lat="53.999253" lon="20.590507"></trkpt><trkpt lat="53.999588" lon="20.590316"></trkpt><trkpt lat="53.999771" lon="20.590165"></trkpt><trkpt lat="54.002424" lon="20.587562"></trkpt><trkpt lat="54.002581" lon="20.587317"></trkpt><trkpt lat="54.010681" lon="20.57635"></trkpt><trkpt lat="54.010882" lon="20.576194"></trkpt><trkpt lat="54.017871" lon="20.571762"></trkpt><trkpt lat="54.018093" lon="20.571808"></trkpt><trkpt lat="54.019018" lon="20.571867"></trkpt><trkpt lat="54.019171" lon="20.57165"></trkpt><trkpt lat="54.019362" lon="20.57133"></trkpt><trkpt lat="54.019609" lon="20.570848"></trkpt><trkpt lat="54.020403" lon="20.569564"></trkpt><trkpt lat="54.020682" lon="20.56944"></trkpt><trkpt lat="54.021354" lon="20.569278"></trkpt><trkpt lat="54.021601" lon="20.569528"></trkpt><trkpt lat="54.02195" lon="20.569793"></trkpt><trkpt lat="54.022221" lon="20.569865"></trkpt><trkpt lat="54.02248" lon="20.569878"></trkpt><trkpt lat="54.022703" lon="20.569668"></trkpt><trkpt lat="54.022842" lon="20.569319"></trkpt><trkpt lat="54.023018" lon="20.568971"></trkpt><trkpt lat="54.023245" lon="20.568689"></trkpt><trkpt lat="54.023478" lon="20.56848"></trkpt><trkpt lat="54.023709" lon="20.568333"></trkpt><trkpt lat="54.02392" lon="20.568266"></trkpt><trkpt lat="54.025034" lon="20.567772"></trkpt><trkpt lat="54.025283" lon="20.567619"></trkpt><trkpt lat="54.026344" lon="20.567112"></trkpt><trkpt lat="54.026564" lon="20.567077"></trkpt><trkpt lat="54.027387" lon="20.566842"></trkpt><trkpt lat="54.027601" lon="20.56674"></trkpt><trkpt lat="54.028597" lon="20.566397"></trkpt><trkpt lat="54.028833" lon="20.566394"></trkpt><trkpt lat="54.029158" lon="20.566437"></trkpt><trkpt lat="54.030745" lon="20.566419"></trkpt><trkpt lat="54.030942" lon="20.56627"></trkpt><trkpt lat="54.031956" lon="20.565666"></trkpt><trkpt lat="54.03218" lon="20.565609"></trkpt><trkpt lat="54.034346" lon="20.564783"></trkpt><trkpt lat="54.03442" lon="20.564431"></trkpt><trkpt lat="54.034575" lon="20.56414"></trkpt><trkpt lat="54.034376" lon="20.563994"></trkpt><trkpt lat="54.034196" lon="20.563835"></trkpt><trkpt lat="54.034074" lon="20.563549"></trkpt><trkpt lat="54.034057" lon="20.563162"></trkpt><trkpt lat="54.034057" lon="20.562547"></trkpt><trkpt lat="54.03404" lon="20.562164"></trkpt><trkpt lat="54.034041" lon="20.561809"></trkpt><trkpt lat="54.034061" lon="20.561454"></trkpt><trkpt lat="54.034057" lon="20.561063"></trkpt><trkpt lat="54.034032" lon="20.560629"></trkpt><trkpt lat="54.03398" lon="20.560125"></trkpt><trkpt lat="54.033908" lon="20.559789"></trkpt><trkpt lat="54.033308" lon="20.557505"></trkpt><trkpt lat="54.0332" lon="20.557193"></trkpt><trkpt lat="54.033097" lon="20.556817"></trkpt><trkpt lat="54.032919" lon="20.556271"></trkpt><trkpt lat="54.032474" lon="20.554641"></trkpt><trkpt lat="54.032412" lon="20.554306"></trkpt><trkpt lat="54.031892" lon="20.550504"></trkpt><trkpt lat="54.031925" lon="20.550088"></trkpt><trkpt lat="54.031978" lon="20.549737"></trkpt><trkpt lat="54.03203" lon="20.549232"></trkpt><trkpt lat="54.03204" lon="20.548873"></trkpt><trkpt lat="54.032015" lon="20.548513"></trkpt><trkpt lat="54.032007" lon="20.548136"></trkpt><trkpt lat="54.031973" lon="20.547753"></trkpt><trkpt lat="54.031868" lon="20.547379"></trkpt><trkpt lat="54.031757" lon="20.547099"></trkpt><trkpt lat="54.031049" lon="20.545001"></trkpt><trkpt lat="54.03099" lon="20.544628"></trkpt><trkpt lat="54.031034" lon="20.544243"></trkpt><trkpt lat="54.031214" lon="20.544013"></trkpt><trkpt lat="54.031412" lon="20.543809"></trkpt><trkpt lat="54.031563" lon="20.543584"></trkpt><trkpt lat="54.03173" lon="20.543296"></trkpt><trkpt lat="54.031843" lon="20.542951"></trkpt><trkpt lat="54.031974" lon="20.542472"></trkpt><trkpt lat="54.032131" lon="20.541991"></trkpt><trkpt lat="54.032255" lon="20.541538"></trkpt><trkpt lat="54.0326" lon="20.539988"></trkpt><trkpt lat="54.032644" lon="20.53965"></trkpt><trkpt lat="54.032761" lon="20.538978"></trkpt><trkpt lat="54.032884" lon="20.538686"></trkpt><trkpt lat="54.033111" lon="20.538027"></trkpt><trkpt lat="54.033202" lon="20.537679"></trkpt><trkpt lat="54.03326" lon="20.537319"></trkpt><trkpt lat="54.033373" lon="20.536964"></trkpt><trkpt lat="54.033517" lon="20.53666"></trkpt><trkpt lat="54.03388" lon="20.536008"></trkpt><trkpt lat="54.034065" lon="20.535763"></trkpt><trkpt lat="54.034312" lon="20.535336"></trkpt><trkpt lat="54.03439" lon="20.534996"></trkpt><trkpt lat="54.034614" lon="20.534199"></trkpt><trkpt lat="54.034745" lon="20.533879"></trkpt><trkpt lat="54.034877" lon="20.533483"></trkpt><trkpt lat="54.034929" lon="20.533122"></trkpt><trkpt lat="54.034897" lon="20.532715"></trkpt><trkpt lat="54.03486" lon="20.531711"></trkpt><trkpt lat="54.034879" lon="20.531372"></trkpt><trkpt lat="54.034897" lon="20.529697"></trkpt><trkpt lat="54.034703" lon="20.529539"></trkpt><trkpt lat="54.034471" lon="20.529449"></trkpt><trkpt lat="54.034011" lon="20.529208"></trkpt><trkpt lat="54.033891" lon="20.528925"></trkpt><trkpt lat="54.033833" lon="20.528536"></trkpt><trkpt lat="54.033764" lon="20.528182"></trkpt><trkpt lat="54.03275" lon="20.524024"></trkpt><trkpt lat="54.032635" lon="20.523708"></trkpt><trkpt lat="54.032153" lon="20.522131"></trkpt><trkpt lat="54.032079" lon="20.521747"></trkpt><trkpt lat="54.031887" lon="20.520392"></trkpt><trkpt lat="54.03174" lon="20.519624"></trkpt><trkpt lat="54.031619" lon="20.519346"></trkpt><trkpt lat="54.030604" lon="20.516631"></trkpt><trkpt lat="54.030509" lon="20.516313"></trkpt><trkpt lat="54.028983" lon="20.510139"></trkpt><trkpt lat="54.028984" lon="20.509706"></trkpt><trkpt lat="54.029039" lon="20.509288"></trkpt><trkpt lat="54.02913" lon="20.508899"></trkpt><trkpt lat="54.029348" lon="20.508139"></trkpt><trkpt lat="54.029492" lon="20.507772"></trkpt><trkpt lat="54.02966" lon="20.507469"></trkpt><trkpt lat="54.030044" lon="20.506643"></trkpt><trkpt lat="54.030064" lon="20.506273"></trkpt><trkpt lat="54.030022" lon="20.505941"></trkpt><trkpt lat="54.029973" lon="20.505271"></trkpt><trkpt lat="54.029985" lon="20.504915"></trkpt><trkpt lat="54.030038" lon="20.504472"></trkpt><trkpt lat="54.030077" lon="20.50386"></trkpt><trkpt lat="54.030078" lon="20.50351"></trkpt><trkpt lat="54.030052" lon="20.502983"></trkpt><trkpt lat="54.030012" lon="20.502568"></trkpt><trkpt lat="54.029895" lon="20.500377"></trkpt><trkpt lat="54.029985" lon="20.500056"></trkpt><trkpt lat="54.030115" lon="20.4998"></trkpt><trkpt lat="54.030652" lon="20.498566"></trkpt><trkpt lat="54.030758" lon="20.498241"></trkpt><trkpt lat="54.030926" lon="20.497802"></trkpt><trkpt lat="54.031073" lon="20.497513"></trkpt><trkpt lat="54.031766" lon="20.496343"></trkpt><trkpt lat="54.031959" lon="20.496189"></trkpt><trkpt lat="54.032156" lon="20.496079"></trkpt><trkpt lat="54.032368" lon="20.495991"></trkpt><trkpt lat="54.032567" lon="20.495873"></trkpt><trkpt lat="54.034487" lon="20.494462"></trkpt><trkpt lat="54.034642" lon="20.494215"></trkpt><trkpt lat="54.036653" lon="20.491436"></trkpt><trkpt lat="54.036837" lon="20.491278"></trkpt><trkpt lat="54.037085" lon="20.491105"></trkpt><trkpt lat="54.037302" lon="20.491001"></trkpt><trkpt lat="54.03756" lon="20.490843"></trkpt><trkpt lat="54.037752" lon="20.49066"></trkpt><trkpt lat="54.03841" lon="20.490144"></trkpt><trkpt lat="54.038611" lon="20.490098"></trkpt><trkpt lat="54.038888" lon="20.49"></trkpt><trkpt lat="54.039599" lon="20.489842"></trkpt><trkpt lat="54.039797" lon="20.489861"></trkpt><trkpt lat="54.04084" lon="20.490087"></trkpt><trkpt lat="54.041047" lon="20.490259"></trkpt><trkpt lat="54.04145" lon="20.490531"></trkpt><trkpt lat="54.041676" lon="20.490567"></trkpt><trkpt lat="54.041998" lon="20.490579"></trkpt><trkpt lat="54.042192" lon="20.490727"></trkpt><trkpt lat="54.042804" lon="20.491298"></trkpt><trkpt lat="54.04315" lon="20.491567"></trkpt><trkpt lat="54.043358" lon="20.491534"></trkpt><trkpt lat="54.04386" lon="20.491676"></trkpt><trkpt lat="54.044062" lon="20.491798"></trkpt><trkpt lat="54.045399" lon="20.492799"></trkpt><trkpt lat="54.045494" lon="20.493105"></trkpt><trkpt lat="54.045639" lon="20.493348"></trkpt><trkpt lat="54.045794" lon="20.493563"></trkpt><trkpt lat="54.045976" lon="20.493726"></trkpt><trkpt lat="54.046148" lon="20.493932"></trkpt><trkpt lat="54.046235" lon="20.494299"></trkpt><trkpt lat="54.046236" lon="20.494671"></trkpt><trkpt lat="54.046265" lon="20.495154"></trkpt><trkpt lat="54.046375" lon="20.49547"></trkpt><trkpt lat="54.04653" lon="20.495779"></trkpt><trkpt lat="54.046734" lon="20.496256"></trkpt><trkpt lat="54.046835" lon="20.496562"></trkpt><trkpt lat="54.047028" lon="20.497058"></trkpt><trkpt lat="54.047218" lon="20.497197"></trkpt><trkpt lat="54.047846" lon="20.497766"></trkpt><trkpt lat="54.047997" lon="20.497992"></trkpt><trkpt lat="54.048406" lon="20.498482"></trkpt><trkpt lat="54.048621" lon="20.498589"></trkpt><trkpt lat="54.05416" lon="20.502107"></trkpt><trkpt lat="54.054188" lon="20.50246"></trkpt><trkpt lat="54.054243" lon="20.502814"></trkpt><trkpt lat="54.054278" lon="20.50319"></trkpt><trkpt lat="54.05458" lon="20.505356"></trkpt><trkpt lat="54.054704" lon="20.505675"></trkpt><trkpt lat="54.054848" lon="20.505932"></trkpt><trkpt lat="54.054945" lon="20.506271"></trkpt><trkpt lat="54.055002" lon="20.506654"></trkpt><trkpt lat="54.055416" lon="20.508771"></trkpt><trkpt lat="54.055807" lon="20.511473"></trkpt><trkpt lat="54.055948" lon="20.512081"></trkpt><trkpt lat="54.056075" lon="20.512409"></trkpt><trkpt lat="54.056191" lon="20.512795"></trkpt><trkpt lat="54.056354" lon="20.51316"></trkpt><trkpt lat="54.056533" lon="20.513461"></trkpt><trkpt lat="54.056671" lon="20.51374"></trkpt><trkpt lat="54.056758" lon="20.514068"></trkpt><trkpt lat="54.056785" lon="20.514426"></trkpt><trkpt lat="54.056827" lon="20.514766"></trkpt><trkpt lat="54.056921" lon="20.515942"></trkpt><trkpt lat="54.057003" lon="20.51657"></trkpt><trkpt lat="54.057128" lon="20.518026"></trkpt><trkpt lat="54.057125" lon="20.51845"></trkpt><trkpt lat="54.057144" lon="20.518819"></trkpt><trkpt lat="54.057249" lon="20.519898"></trkpt><trkpt lat="54.057324" lon="20.521285"></trkpt><trkpt lat="54.05728" lon="20.521678"></trkpt><trkpt lat="54.057213" lon="20.522011"></trkpt><trkpt lat="54.057052" lon="20.522336"></trkpt><trkpt lat="54.056608" lon="20.523397"></trkpt><trkpt lat="54.056576" lon="20.523791"></trkpt><trkpt lat="54.056583" lon="20.524154"></trkpt><trkpt lat="54.056609" lon="20.524573"></trkpt><trkpt lat="54.056612" lon="20.524954"></trkpt><trkpt lat="54.056443" lon="20.529671"></trkpt><trkpt lat="54.056281" lon="20.529866"></trkpt><trkpt lat="54.056129" lon="20.530118"></trkpt><trkpt lat="54.05593" lon="20.530397"></trkpt><trkpt lat="54.055749" lon="20.530587"></trkpt><trkpt lat="54.055656" lon="20.530913"></trkpt><trkpt lat="54.05514" lon="20.533119"></trkpt><trkpt lat="54.055099" lon="20.533464"></trkpt><trkpt lat="54.055057" lon="20.534032"></trkpt><trkpt lat="54.054984" lon="20.534631"></trkpt><trkpt lat="54.054956" lon="20.535015"></trkpt><trkpt lat="54.054887" lon="20.535392"></trkpt><trkpt lat="54.054796" lon="20.535743"></trkpt><trkpt lat="54.054682" lon="20.536062"></trkpt><trkpt lat="54.054098" lon="20.537999"></trkpt><trkpt lat="54.054047" lon="20.538354"></trkpt><trkpt lat="54.052793" lon="20.545001"></trkpt><trkpt lat="54.052691" lon="20.545314"></trkpt><trkpt lat="54.05251" lon="20.545976"></trkpt><trkpt lat="54.052292" lon="20.546946"></trkpt><trkpt lat="54.052263" lon="20.54731"></trkpt><trkpt lat="54.05222" lon="20.547641"></trkpt><trkpt lat="54.052122" lon="20.547959"></trkpt><trkpt lat="54.051951" lon="20.548229"></trkpt><trkpt lat="54.051829" lon="20.548533"></trkpt><trkpt lat="54.051757" lon="20.548873"></trkpt><trkpt lat="54.051656" lon="20.549208"></trkpt><trkpt lat="54.051565" lon="20.549577"></trkpt><trkpt lat="54.051433" lon="20.550019"></trkpt><trkpt lat="54.051298" lon="20.550284"></trkpt><trkpt lat="54.051042" lon="20.550909"></trkpt><trkpt lat="54.050992" lon="20.551307"></trkpt><trkpt lat="54.050974" lon="20.551733"></trkpt><trkpt lat="54.050849" lon="20.553179"></trkpt><trkpt lat="54.05073" lon="20.553498"></trkpt><trkpt lat="54.050562" lon="20.554031"></trkpt><trkpt lat="54.050477" lon="20.554382"></trkpt><trkpt lat="54.050478" lon="20.55475"></trkpt><trkpt lat="54.050508" lon="20.555112"></trkpt><trkpt lat="54.050593" lon="20.55543"></trkpt><trkpt lat="54.050633" lon="20.555782"></trkpt><trkpt lat="54.050632" lon="20.556144"></trkpt><trkpt lat="54.050699" lon="20.556483"></trkpt><trkpt lat="54.050786" lon="20.556797"></trkpt><trkpt lat="54.050809" lon="20.557165"></trkpt><trkpt lat="54.050812" lon="20.557515"></trkpt><trkpt lat="54.050859" lon="20.557868"></trkpt><trkpt lat="54.050834" lon="20.558226"></trkpt><trkpt lat="54.050719" lon="20.558509"></trkpt><trkpt lat="54.050572" lon="20.558773"></trkpt><trkpt lat="54.050453" lon="20.559047"></trkpt><trkpt lat="54.050349" lon="20.559357"></trkpt><trkpt lat="54.049722" lon="20.561583"></trkpt><trkpt lat="54.049703" lon="20.561997"></trkpt><trkpt lat="54.04928" lon="20.566734"></trkpt><trkpt lat="54.049194" lon="20.567039"></trkpt><trkpt lat="54.049133" lon="20.567384"></trkpt><trkpt lat="54.049295" lon="20.567595"></trkpt><trkpt lat="54.0495" lon="20.567755"></trkpt><trkpt lat="54.049675" lon="20.567987"></trkpt><trkpt lat="54.049818" lon="20.568237"></trkpt><trkpt lat="54.050034" lon="20.568557"></trkpt><trkpt lat="54.050232" lon="20.568777"></trkpt><trkpt lat="54.051466" lon="20.569942"></trkpt><trkpt lat="54.051666" lon="20.569995"></trkpt><trkpt lat="54.051939" lon="20.570032"></trkpt><trkpt lat="54.052376" lon="20.570151"></trkpt><trkpt lat="54.052574" lon="20.570328"></trkpt><trkpt lat="54.052726" lon="20.570548"></trkpt><trkpt lat="54.053982" lon="20.572644"></trkpt><trkpt lat="54.054144" lon="20.572958"></trkpt><trkpt lat="54.054494" lon="20.573547"></trkpt><trkpt lat="54.05466" lon="20.573763"></trkpt><trkpt lat="54.05484" lon="20.573942"></trkpt><trkpt lat="54.055025" lon="20.574093"></trkpt><trkpt lat="54.055523" lon="20.574424"></trkpt><trkpt lat="54.05607" lon="20.574707"></trkpt><trkpt lat="54.056299" lon="20.574725"></trkpt><trkpt lat="54.058603" lon="20.575186"></trkpt><trkpt lat="54.058595" lon="20.575614"></trkpt><trkpt lat="54.058678" lon="20.578212"></trkpt><trkpt lat="54.05881" lon="20.578518"></trkpt><trkpt lat="54.058956" lon="20.578807"></trkpt><trkpt lat="54.059741" lon="20.580073"></trkpt><trkpt lat="54.059973" lon="20.5801"></trkpt><trkpt lat="54.061986" lon="20.579614"></trkpt><trkpt lat="54.06222" lon="20.579511"></trkpt><trkpt lat="54.062462" lon="20.579469"></trkpt><trkpt lat="54.063081" lon="20.579653"></trkpt><trkpt lat="54.063279" lon="20.579742"></trkpt><trkpt lat="54.063816" lon="20.579902"></trkpt><trkpt lat="54.064232" lon="20.579713"></trkpt><trkpt lat="54.064415" lon="20.579573"></trkpt><trkpt lat="54.064606" lon="20.579476"></trkpt><trkpt lat="54.064837" lon="20.579625"></trkpt><trkpt lat="54.064989" lon="20.579851"></trkpt><trkpt lat="54.065132" lon="20.580107"></trkpt><trkpt lat="54.065312" lon="20.580313"></trkpt><trkpt lat="54.067199" lon="20.582145"></trkpt><trkpt lat="54.067441" lon="20.582222"></trkpt><trkpt lat="54.069449" lon="20.582601"></trkpt><trkpt lat="54.069717" lon="20.582505"></trkpt><trkpt lat="54.069957" lon="20.582343"></trkpt><trkpt lat="54.070321" lon="20.582148"></trkpt><trkpt lat="54.070528" lon="20.582133"></trkpt><trkpt lat="54.070724" lon="20.582183"></trkpt><trkpt lat="54.070912" lon="20.582293"></trkpt><trkpt lat="54.071335" lon="20.582619"></trkpt><trkpt lat="54.071495" lon="20.582863"></trkpt><trkpt lat="54.071692" lon="20.583078"></trkpt><trkpt lat="54.071897" lon="20.583236"></trkpt><trkpt lat="54.072104" lon="20.58332"></trkpt><trkpt lat="54.072299" lon="20.583458"></trkpt><trkpt lat="54.072753" lon="20.583717"></trkpt><trkpt lat="54.075901" lon="20.58597"></trkpt><trkpt lat="54.076123" lon="20.58629"></trkpt><trkpt lat="54.076383" lon="20.586489"></trkpt><trkpt lat="54.076664" lon="20.586535"></trkpt><trkpt lat="54.077525" lon="20.586521"></trkpt><trkpt lat="54.077754" lon="20.586652"></trkpt><trkpt lat="54.077966" lon="20.586819"></trkpt><trkpt lat="54.078581" lon="20.587209"></trkpt><trkpt lat="54.078794" lon="20.587283"></trkpt><trkpt lat="54.079004" lon="20.58732"></trkpt><trkpt lat="54.082392" lon="20.587494"></trkpt><trkpt lat="54.082613" lon="20.587433"></trkpt><trkpt lat="54.084301" lon="20.586735"></trkpt><trkpt lat="54.084525" lon="20.586568"></trkpt><trkpt lat="54.085157" lon="20.585998"></trkpt><trkpt lat="54.085336" lon="20.585706"></trkpt><trkpt lat="54.08549" lon="20.585351"></trkpt><trkpt lat="54.085775" lon="20.584803"></trkpt><trkpt lat="54.085994" lon="20.584662"></trkpt><trkpt lat="54.086207" lon="20.584574"></trkpt><trkpt lat="54.087346" lon="20.583952"></trkpt><trkpt lat="54.087542" lon="20.583795"></trkpt><trkpt lat="54.088436" lon="20.583212"></trkpt><trkpt lat="54.088672" lon="20.583172"></trkpt><trkpt lat="54.089641" lon="20.58313"></trkpt><trkpt lat="54.089882" lon="20.583183"></trkpt><trkpt lat="54.093156" lon="20.583481"></trkpt><trkpt lat="54.093398" lon="20.583416"></trkpt><trkpt lat="54.095933" lon="20.582401"></trkpt><trkpt lat="54.09617" lon="20.582226"></trkpt><trkpt lat="54.096374" lon="20.582038"></trkpt><trkpt lat="54.096576" lon="20.581882"></trkpt><trkpt lat="54.097306" lon="20.581207"></trkpt><trkpt lat="54.097454" lon="20.580982"></trkpt><trkpt lat="54.098989" lon="20.578974"></trkpt><trkpt lat="54.099212" lon="20.578821"></trkpt><trkpt lat="54.099581" lon="20.578623"></trkpt><trkpt lat="54.100483" lon="20.578256"></trkpt><trkpt lat="54.100689" lon="20.578231"></trkpt><trkpt lat="54.101737" lon="20.57823"></trkpt><trkpt lat="54.102516" lon="20.57812"></trkpt><trkpt lat="54.102725" lon="20.578039"></trkpt><trkpt lat="54.104469" lon="20.577599"></trkpt><trkpt lat="54.106147" lon="20.577806"></trkpt><trkpt lat="54.106361" lon="20.577729"></trkpt><trkpt lat="54.106914" lon="20.5776"></trkpt><trkpt lat="54.107137" lon="20.577595"></trkpt><trkpt lat="54.107712" lon="20.577677"></trkpt><trkpt lat="54.107908" lon="20.577748"></trkpt><trkpt lat="54.109406" lon="20.578487"></trkpt><trkpt lat="54.110181" lon="20.578762"></trkpt><trkpt lat="54.110807" lon="20.578458"></trkpt><trkpt lat="54.110987" lon="20.578302"></trkpt><trkpt lat="54.111183" lon="20.578092"></trkpt><trkpt lat="54.111383" lon="20.577988"></trkpt><trkpt lat="54.111581" lon="20.577819"></trkpt><trkpt lat="54.112493" lon="20.577177"></trkpt><trkpt lat="54.112713" lon="20.577119"></trkpt><trkpt lat="54.11433" lon="20.576481"></trkpt><trkpt lat="54.11451" lon="20.57631"></trkpt><trkpt lat="54.114685" lon="20.576108"></trkpt><trkpt lat="54.116223" lon="20.574601"></trkpt><trkpt lat="54.116445" lon="20.574433"></trkpt><trkpt lat="54.116975" lon="20.574118"></trkpt><trkpt lat="54.117211" lon="20.574046"></trkpt><trkpt lat="54.117512" lon="20.573914"></trkpt><trkpt lat="54.117714" lon="20.573751"></trkpt><trkpt lat="54.117973" lon="20.573746"></trkpt><trkpt lat="54.118222" lon="20.573632"></trkpt><trkpt lat="54.118479" lon="20.573593"></trkpt><trkpt lat="54.118701" lon="20.573794"></trkpt><trkpt lat="54.118874" lon="20.574091"></trkpt><trkpt lat="54.119039" lon="20.574418"></trkpt><trkpt lat="54.119223" lon="20.574867"></trkpt><trkpt lat="54.11927" lon="20.575268"></trkpt><trkpt lat="54.119278" lon="20.575623"></trkpt><trkpt lat="54.119325" lon="20.576299"></trkpt><trkpt lat="54.119404" lon="20.576629"></trkpt><trkpt lat="54.119868" lon="20.578148"></trkpt><trkpt lat="54.120083" lon="20.578292"></trkpt><trkpt lat="54.120803" lon="20.57888"></trkpt><trkpt lat="54.121104" lon="20.579077"></trkpt><trkpt lat="54.121719" lon="20.578757"></trkpt><trkpt lat="54.122312" lon="20.579147"></trkpt><trkpt lat="54.123411" lon="20.580032"></trkpt><trkpt lat="54.12361" lon="20.580049"></trkpt><trkpt lat="54.123804" lon="20.580135"></trkpt><trkpt lat="54.124002" lon="20.580252"></trkpt><trkpt lat="54.124148" lon="20.579977"></trkpt><trkpt lat="54.124175" lon="20.579612"></trkpt><trkpt lat="54.124364" lon="20.579506"></trkpt><trkpt lat="54.124547" lon="20.579681"></trkpt><trkpt lat="54.124642" lon="20.579376"></trkpt><trkpt lat="54.12477" lon="20.57911"></trkpt><trkpt lat="54.124946" lon="20.578865"></trkpt><trkpt lat="54.125126" lon="20.57866"></trkpt><trkpt lat="54.125283" lon="20.578452"></trkpt><trkpt lat="54.125806" lon="20.577649"></trkpt><trkpt lat="54.125715" lon="20.577331"></trkpt><trkpt lat="54.125631" lon="20.576903"></trkpt><trkpt lat="54.125676" lon="20.576559"></trkpt><trkpt lat="54.125702" lon="20.576209"></trkpt><trkpt lat="54.125797" lon="20.575886"></trkpt><trkpt lat="54.125932" lon="20.575586"></trkpt><trkpt lat="54.126066" lon="20.575227"></trkpt><trkpt lat="54.126208" lon="20.574909"></trkpt><trkpt lat="54.126694" lon="20.573967"></trkpt><trkpt lat="54.126889" lon="20.574038"></trkpt><trkpt lat="54.127081" lon="20.573916"></trkpt><trkpt lat="54.12748" lon="20.573739"></trkpt><trkpt lat="54.127526" lon="20.573349"></trkpt><trkpt lat="54.127535" lon="20.572954"></trkpt><trkpt lat="54.127507" lon="20.571665"></trkpt><trkpt lat="54.127448" lon="20.571324"></trkpt><trkpt lat="54.12746" lon="20.570975"></trkpt><trkpt lat="54.127637" lon="20.570751"></trkpt><trkpt lat="54.127832" lon="20.570539"></trkpt><trkpt lat="54.129541" lon="20.568373"></trkpt><trkpt lat="54.129415" lon="20.5681"></trkpt><trkpt lat="54.129314" lon="20.567805"></trkpt><trkpt lat="54.129178" lon="20.567483"></trkpt><trkpt lat="54.128891" lon="20.566933"></trkpt><trkpt lat="54.128798" lon="20.566629"></trkpt><trkpt lat="54.128749" lon="20.566296"></trkpt><trkpt lat="54.128729" lon="20.565946"></trkpt><trkpt lat="54.128929" lon="20.565768"></trkpt><trkpt lat="54.129148" lon="20.56569"></trkpt><trkpt lat="54.129525" lon="20.565605"></trkpt><trkpt lat="54.129751" lon="20.565588"></trkpt><trkpt lat="54.144787" lon="20.562626"></trkpt><trkpt lat="54.144975" lon="20.562404"></trkpt><trkpt lat="54.148767" lon="20.558633"></trkpt><trkpt lat="54.148997" lon="20.55877"></trkpt><trkpt lat="54.149176" lon="20.558931"></trkpt><trkpt lat="54.149358" lon="20.55916"></trkpt><trkpt lat="54.149513" lon="20.559389"></trkpt><trkpt lat="54.149983" lon="20.559973"></trkpt><trkpt lat="54.150189" lon="20.560105"></trkpt><trkpt lat="54.150463" lon="20.56024"></trkpt><trkpt lat="54.151261" lon="20.560527"></trkpt><trkpt lat="54.151532" lon="20.560567"></trkpt><trkpt lat="54.158925" lon="20.560758"></trkpt><trkpt lat="54.15914" lon="20.56057"></trkpt><trkpt lat="54.16187" lon="20.558599"></trkpt><trkpt lat="54.162075" lon="20.558552"></trkpt><trkpt lat="54.163087" lon="20.558448"></trkpt><trkpt lat="54.1632" lon="20.558739"></trkpt><trkpt lat="54.165331" lon="20.565168"></trkpt><trkpt lat="54.166802" lon="20.570481"></trkpt><trkpt lat="54.166729" lon="20.570798"></trkpt><trkpt lat="54.166449" lon="20.572367"></trkpt><trkpt lat="54.166495" lon="20.572754"></trkpt><trkpt lat="54.166828" lon="20.577201"></trkpt><trkpt lat="54.166826" lon="20.577579"></trkpt><trkpt lat="54.167533" lon="20.597001"></trkpt><trkpt lat="54.167666" lon="20.597341"></trkpt><trkpt lat="54.167803" lon="20.597636"></trkpt><trkpt lat="54.168057" lon="20.598275"></trkpt><trkpt lat="54.168156" lon="20.598665"></trkpt><trkpt lat="54.168865" lon="20.602149"></trkpt><trkpt lat="54.168883" lon="20.60253"></trkpt><trkpt lat="54.168839" lon="20.602869"></trkpt><trkpt lat="54.168782" lon="20.603673"></trkpt><trkpt lat="54.168882" lon="20.603981"></trkpt><trkpt lat="54.169034" lon="20.604243"></trkpt><trkpt lat="54.168907" lon="20.603961"></trkpt><trkpt lat="54.168797" lon="20.603672"></trkpt><trkpt lat="54.168808" lon="20.603293"></trkpt><trkpt lat="54.168863" lon="20.602959"></trkpt><trkpt lat="54.168919" lon="20.602482"></trkpt><trkpt lat="54.168895" lon="20.602119"></trkpt><trkpt lat="54.168839" lon="20.601602"></trkpt><trkpt lat="54.168769" lon="20.601267"></trkpt><trkpt lat="54.167799" lon="20.597515"></trkpt><trkpt lat="54.167671" lon="20.597249"></trkpt><trkpt lat="54.167447" lon="20.596867"></trkpt><trkpt lat="54.16724" lon="20.596795"></trkpt><trkpt lat="54.167032" lon="20.596903"></trkpt><trkpt lat="54.166824" lon="20.597071"></trkpt><trkpt lat="54.160225" lon="20.601464"></trkpt><trkpt lat="54.160005" lon="20.601404"></trkpt><trkpt lat="54.159122" lon="20.601041"></trkpt><trkpt lat="54.158946" lon="20.600855"></trkpt><trkpt lat="54.158769" lon="20.600578"></trkpt><trkpt lat="54.15655" lon="20.597591"></trkpt><trkpt lat="54.156303" lon="20.597618"></trkpt><trkpt lat="54.156065" lon="20.59756"></trkpt><trkpt lat="54.155888" lon="20.597382"></trkpt><trkpt lat="54.155721" lon="20.597144"></trkpt><trkpt lat="54.154337" lon="20.595439"></trkpt><trkpt lat="54.15414" lon="20.595328"></trkpt><trkpt lat="54.153934" lon="20.595167"></trkpt><trkpt lat="54.153761" lon="20.594994"></trkpt><trkpt lat="54.152547" lon="20.593968"></trkpt><trkpt lat="54.151576" lon="20.593322"></trkpt><trkpt lat="54.15125" lon="20.593274"></trkpt><trkpt lat="54.150983" lon="20.593272"></trkpt><trkpt lat="54.14954" lon="20.593079"></trkpt><trkpt lat="54.149301" lon="20.592977"></trkpt><trkpt lat="54.149073" lon="20.592935"></trkpt><trkpt lat="54.139484" lon="20.589993"></trkpt><trkpt lat="54.139294" lon="20.589835"></trkpt><trkpt lat="54.133004" lon="20.583598"></trkpt><trkpt lat="54.132855" lon="20.583313"></trkpt><trkpt lat="54.132696" lon="20.58309"></trkpt><trkpt lat="54.13248" lon="20.582906"></trkpt><trkpt lat="54.13227" lon="20.582786"></trkpt><trkpt lat="54.132065" lon="20.582792"></trkpt><trkpt lat="54.131874" lon="20.582896"></trkpt><trkpt lat="54.131545" lon="20.58312"></trkpt><trkpt lat="54.131364" lon="20.583309"></trkpt><trkpt lat="54.131125" lon="20.583366"></trkpt><trkpt lat="54.130892" lon="20.583368"></trkpt><trkpt lat="54.130714" lon="20.5832"></trkpt><trkpt lat="54.130604" lon="20.582911"></trkpt><trkpt lat="54.13051" lon="20.58258"></trkpt><trkpt lat="54.129841" lon="20.580648"></trkpt><trkpt lat="54.129624" lon="20.580619"></trkpt><trkpt lat="54.129392" lon="20.580689"></trkpt><trkpt lat="54.129185" lon="20.580781"></trkpt><trkpt lat="54.12895" lon="20.580842"></trkpt><trkpt lat="54.128598" lon="20.58089"></trkpt><trkpt lat="54.128406" lon="20.580767"></trkpt><trkpt lat="54.12832" lon="20.580407"></trkpt><trkpt lat="54.128217" lon="20.580079"></trkpt><trkpt lat="54.128133" lon="20.579752"></trkpt><trkpt lat="54.127896" lon="20.578982"></trkpt><trkpt lat="54.127853" lon="20.578635"></trkpt><trkpt lat="54.127828" lon="20.578275"></trkpt><trkpt lat="54.127872" lon="20.577871"></trkpt><trkpt lat="54.127835" lon="20.577513"></trkpt><trkpt lat="54.127748" lon="20.577148"></trkpt><trkpt lat="54.127688" lon="20.576814"></trkpt><trkpt lat="54.127756" lon="20.576492"></trkpt><trkpt lat="54.127587" lon="20.576298"></trkpt><trkpt lat="54.127533" lon="20.575961"></trkpt><trkpt lat="54.127458" lon="20.575622"></trkpt><trkpt lat="54.127348" lon="20.574947"></trkpt><trkpt lat="54.127386" lon="20.57461"></trkpt><trkpt lat="54.127342" lon="20.574249"></trkpt><trkpt lat="54.12744" lon="20.573943"></trkpt><trkpt lat="54.12721" lon="20.57404"></trkpt></trkseg></trk></gpx>