<?xml version="1.0" encoding="UTF-8" standalone="no" ?><gpx xmlns="http://www.topografix.com/GPX/1/1" xmlns:gpxx="http://www.garmin.com/xmlschemas/GpxExtensions/v3" ><trk><trkseg><trkpt lat="52.52552280248946" lon="17.241706695348135"></trkpt><trkpt lat="52.525148" lon="17.243204"></trkpt><trkpt lat="52.525206" lon="17.24276"></trkpt><trkpt lat="52.525515" lon="17.241197"></trkpt><trkpt lat="52.525776" lon="17.241381"></trkpt><trkpt lat="52.534613" lon="17.24886"></trkpt><trkpt lat="52.534806" lon="17.249187"></trkpt><trkpt lat="52.535716" lon="17.250494"></trkpt><trkpt lat="52.535988" lon="17.250583"></trkpt><trkpt lat="52.538653" lon="17.251076"></trkpt><trkpt lat="52.538826" lon="17.250726"></trkpt><trkpt lat="52.53912" lon="17.250217"></trkpt><trkpt lat="52.539426" lon="17.250002"></trkpt><trkpt lat="52.539697" lon="17.249744"></trkpt><trkpt lat="52.5404" lon="17.249211"></trkpt><trkpt lat="52.540686" lon="17.249131"></trkpt><trkpt lat="52.541584" lon="17.248772"></trkpt><trkpt lat="52.548437" lon="17.24517"></trkpt><trkpt lat="52.548676" lon="17.244917"></trkpt><trkpt lat="52.551228" lon="17.241767"></trkpt><trkpt lat="52.551469" lon="17.241519"></trkpt><trkpt lat="52.55181" lon="17.241347"></trkpt><trkpt lat="52.552102" lon="17.241312"></trkpt><trkpt lat="52.554157" lon="17.24081"></trkpt><trkpt lat="52.554163" lon="17.240342"></trkpt><trkpt lat="52.554205" lon="17.239873"></trkpt><trkpt lat="52.5543" lon="17.239448"></trkpt><trkpt lat="52.55456" lon="17.239134"></trkpt><trkpt lat="52.554807" lon="17.238938"></trkpt><trkpt lat="52.555735" lon="17.238063"></trkpt><trkpt lat="52.555894" lon="17.237603"></trkpt><trkpt lat="52.556015" lon="17.237145"></trkpt><trkpt lat="52.556103" lon="17.23666"></trkpt><trkpt lat="52.556154" lon="17.236221"></trkpt><trkpt lat="52.55635" lon="17.235009"></trkpt><trkpt lat="52.556517" lon="17.234554"></trkpt><trkpt lat="52.557269" lon="17.232815"></trkpt><trkpt lat="52.557507" lon="17.232562"></trkpt><trkpt lat="52.557638" lon="17.232106"></trkpt><trkpt lat="52.557709" lon="17.231623"></trkpt><trkpt lat="52.557822" lon="17.230518"></trkpt><trkpt lat="52.558391" lon="17.226701"></trkpt><trkpt lat="52.558631" lon="17.227"></trkpt><trkpt lat="52.561288" lon="17.229843"></trkpt><trkpt lat="52.56504" lon="17.233257"></trkpt><trkpt lat="52.56539" lon="17.233369"></trkpt><trkpt lat="52.566143" lon="17.23373"></trkpt><trkpt lat="52.566148" lon="17.234194"></trkpt><trkpt lat="52.566474" lon="17.239618"></trkpt><trkpt lat="52.566697" lon="17.240001"></trkpt><trkpt lat="52.574128" lon="17.252598"></trkpt><trkpt lat="52.576467" lon="17.25598"></trkpt><trkpt lat="52.576764" lon="17.256112"></trkpt><trkpt lat="52.579871" lon="17.257116"></trkpt><trkpt lat="52.584372" lon="17.259189"></trkpt><trkpt lat="52.584551" lon="17.259644"></trkpt><trkpt lat="52.585071" lon="17.260711"></trkpt><trkpt lat="52.58533" lon="17.260524"></trkpt><trkpt lat="52.585577" lon="17.2603"></trkpt><trkpt lat="52.586265" lon="17.25978"></trkpt><trkpt lat="52.586545" lon="17.25976"></trkpt><trkpt lat="52.58685" lon="17.259886"></trkpt><trkpt lat="52.587104" lon="17.26018"></trkpt><trkpt lat="52.587299" lon="17.260509"></trkpt><trkpt lat="52.587576" lon="17.26035"></trkpt><trkpt lat="52.58771" lon="17.259925"></trkpt><trkpt lat="52.587826" lon="17.259465"></trkpt><trkpt lat="52.589803" lon="17.253031"></trkpt><trkpt lat="52.589894" lon="17.253455"></trkpt><trkpt lat="52.590606" lon="17.256034"></trkpt><trkpt lat="52.590868" lon="17.255818"></trkpt><trkpt lat="52.591165" lon="17.255629"></trkpt><trkpt lat="52.591403" lon="17.255378"></trkpt><trkpt lat="52.591533" lon="17.254952"></trkpt><trkpt lat="52.592202" lon="17.253099"></trkpt><trkpt lat="52.592179" lon="17.252645"></trkpt><trkpt lat="52.592304" lon="17.252188"></trkpt><trkpt lat="52.592731" lon="17.250972"></trkpt><trkpt lat="52.592965" lon="17.251245"></trkpt><trkpt lat="52.593206" lon="17.251605"></trkpt><trkpt lat="52.595057" lon="17.253941"></trkpt><trkpt lat="52.595378" lon="17.253785"></trkpt><trkpt lat="52.600796" lon="17.251843"></trkpt><trkpt lat="52.601096" lon="17.251864"></trkpt><trkpt lat="52.609271" lon="17.253389"></trkpt><trkpt lat="52.609548" lon="17.25353"></trkpt><trkpt lat="52.609243" lon="17.253397"></trkpt><trkpt lat="52.607753" lon="17.252554"></trkpt><trkpt lat="52.607059" lon="17.252263"></trkpt><trkpt lat="52.606777" lon="17.252251"></trkpt><trkpt lat="52.596163" lon="17.253282"></trkpt><trkpt lat="52.59586" lon="17.253474"></trkpt><trkpt lat="52.595222" lon="17.253796"></trkpt><trkpt lat="52.594819" lon="17.253921"></trkpt><trkpt lat="52.594581" lon="17.253575"></trkpt><trkpt lat="52.59256" lon="17.251085"></trkpt><trkpt lat="52.592436" lon="17.251521"></trkpt><trkpt lat="52.591531" lon="17.255535"></trkpt><trkpt lat="52.591619" lon="17.256021"></trkpt><trkpt lat="52.591539" lon="17.256525"></trkpt><trkpt lat="52.591417" lon="17.257038"></trkpt><trkpt lat="52.589428" lon="17.263806"></trkpt><trkpt lat="52.589154" lon="17.263566"></trkpt><trkpt lat="52.588861" lon="17.263441"></trkpt><trkpt lat="52.588661" lon="17.263068"></trkpt><trkpt lat="52.586574" lon="17.259735"></trkpt><trkpt lat="52.586243" lon="17.25976"></trkpt><trkpt lat="52.585936" lon="17.259944"></trkpt><trkpt lat="52.585673" lon="17.260186"></trkpt><trkpt lat="52.585027" lon="17.260682"></trkpt><trkpt lat="52.584771" lon="17.260989"></trkpt><trkpt lat="52.584523" lon="17.261213"></trkpt><trkpt lat="52.577874" lon="17.266227"></trkpt><trkpt lat="52.577567" lon="17.26634"></trkpt><trkpt lat="52.57727" lon="17.266488"></trkpt><trkpt lat="52.567479" lon="17.27009"></trkpt><trkpt lat="52.567447" lon="17.269606"></trkpt><trkpt lat="52.56738" lon="17.266679"></trkpt><trkpt lat="52.567419" lon="17.266199"></trkpt><trkpt lat="52.567667" lon="17.259649"></trkpt><trkpt lat="52.567623" lon="17.259166"></trkpt><trkpt lat="52.566371" lon="17.241778"></trkpt><trkpt lat="52.566166" lon="17.234649"></trkpt><trkpt lat="52.566179" lon="17.234146"></trkpt><trkpt lat="52.566119" lon="17.233633"></trkpt><trkpt lat="52.565803" lon="17.23346"></trkpt><trkpt lat="52.56551" lon="17.233372"></trkpt><trkpt lat="52.564827" lon="17.233073"></trkpt><trkpt lat="52.564557" lon="17.232816"></trkpt><trkpt lat="52.555543" lon="17.223362"></trkpt><trkpt lat="52.553523" lon="17.221571"></trkpt><trkpt lat="52.553263" lon="17.221381"></trkpt><trkpt lat="52.553027" lon="17.221159"></trkpt><trkpt lat="52.552204" lon="17.220518"></trkpt><trkpt lat="52.551932" lon="17.220473"></trkpt><trkpt lat="52.545928" lon="17.218774"></trkpt><trkpt lat="52.545684" lon="17.218578"></trkpt><trkpt lat="52.545414" lon="17.218515"></trkpt><trkpt lat="52.544712" lon="17.218261"></trkpt><trkpt lat="52.544471" lon="17.218059"></trkpt><trkpt lat="52.544242" lon="17.217816"></trkpt><trkpt lat="52.543709" lon="17.217345"></trkpt><trkpt lat="52.543438" lon="17.21723"></trkpt><trkpt lat="52.543152" lon="17.217146"></trkpt><trkpt lat="52.54255" lon="17.217043"></trkpt><trkpt lat="52.542326" lon="17.217324"></trkpt><trkpt lat="52.542154" lon="17.21773"></trkpt><trkpt lat="52.541767" lon="17.218509"></trkpt><trkpt lat="52.541605" lon="17.21893"></trkpt><trkpt lat="52.541671" lon="17.219428"></trkpt><trkpt lat="52.541654" lon="17.219923"></trkpt><trkpt lat="52.541582" lon="17.220432"></trkpt><trkpt lat="52.541478" lon="17.221531"></trkpt><trkpt lat="52.541514" lon="17.221986"></trkpt><trkpt lat="52.541649" lon="17.226018"></trkpt><trkpt lat="52.541632" lon="17.226522"></trkpt><trkpt lat="52.541661" lon="17.226988"></trkpt><trkpt lat="52.541824" lon="17.228522"></trkpt><trkpt lat="52.542333" lon="17.236785"></trkpt><trkpt lat="52.542271" lon="17.237302"></trkpt><trkpt lat="52.540302" lon="17.249213"></trkpt><trkpt lat="52.540003" lon="17.249384"></trkpt><trkpt lat="52.539736" lon="17.249649"></trkpt><trkpt lat="52.539265" lon="17.250044"></trkpt><trkpt lat="52.53896" lon="17.250366"></trkpt><trkpt lat="52.538785" lon="17.250755"></trkpt><trkpt lat="52.538547" lon="17.251185"></trkpt><trkpt lat="52.538281" lon="17.251336"></trkpt><trkpt lat="52.538014" lon="17.251252"></trkpt><trkpt lat="52.535397" lon="17.250086"></trkpt><trkpt lat="52.535204" lon="17.249739"></trkpt><trkpt lat="52.532739" lon="17.245915"></trkpt><trkpt lat="52.532414" lon="17.245723"></trkpt><trkpt lat="52.525194" lon="17.242463"></trkpt><trkpt lat="52.525138" lon="17.242939"></trkpt><trkpt lat="52.525497875443584" lon="17.241081085041188"></trkpt></trkseg></trk></gpx>